{"name":"青森県","cities":[{"name":"青森市","divisions":[{"name":"青葉","zip_code":"0300846"},{"name":"青柳","zip_code":"0300811"},{"name":"赤坂","zip_code":"0300956"},{"name":"旭町","zip_code":"0300851"},{"name":"浅虫","zip_code":"0393501"},{"name":"飛鳥","zip_code":"0380056"},{"name":"油川","zip_code":"0380059"},{"name":"荒川","zip_code":"0300111"},{"name":"石江","zip_code":"0380003"},{"name":"泉野","zip_code":"0300922"},{"name":"岩渡","zip_code":"0380043"},{"name":"牛館","zip_code":"0300136"},{"name":"後潟","zip_code":"0301262"},{"name":"後萢","zip_code":"0300932"},{"name":"内真部","zip_code":"0380051"},{"name":"浦町","zip_code":"0300842"},{"name":"上野","zip_code":"0300141"},{"name":"大谷","zip_code":"0300155"},{"name":"大野","zip_code":"0300852"},{"name":"大別内","zip_code":"0300144"},{"name":"大矢沢","zip_code":"0300123"},{"name":"岡造道","zip_code":"0300914"},{"name":"岡町","zip_code":"0380041"},{"name":"沖館","zip_code":"0380002"},{"name":"奥内","zip_code":"0380054"},{"name":"奥野","zip_code":"0300841"},{"name":"小畑沢","zip_code":"0300143"},{"name":"卸町","zip_code":"0300137"},{"name":"勝田","zip_code":"0300821"},{"name":"合浦","zip_code":"0300902"},{"name":"桂木","zip_code":"0300844"},{"name":"金沢","zip_code":"0300853"},{"name":"金浜","zip_code":"0300145"},{"name":"北金沢","zip_code":"0300855"},{"name":"久栗坂","zip_code":"0393502"},{"name":"久須志","zip_code":"0380013"},{"name":"桑原","zip_code":"0300935"},{"name":"けやき","zip_code":"0300918"},{"name":"合子沢","zip_code":"0300134"},{"name":"幸畑","zip_code":"0300943"},{"name":"小館","zip_code":"0300153"},{"name":"小橋","zip_code":"0301272"},{"name":"駒込","zip_code":"0300954"},{"name":"小柳","zip_code":"0300915"},{"name":"栄町","zip_code":"0300903"},{"name":"桜川","zip_code":"0300945"},{"name":"里見","zip_code":"0380032"},{"name":"沢山","zip_code":"0300942"},{"name":"三内","zip_code":"0380031"},{"name":"三本木","zip_code":"0393506"},{"name":"四戸橋","zip_code":"0301261"},{"name":"篠田","zip_code":"0380011"},{"name":"清水","zip_code":"0380052"},{"name":"自由ケ丘","zip_code":"0300941"},{"name":"新城","zip_code":"0380042"},{"name":"新町","zip_code":"0300801"},{"name":"新町野","zip_code":"0300135"},{"name":"諏訪沢","zip_code":"0300933"},{"name":"瀬戸子","zip_code":"0380055"},{"name":"千刈","zip_code":"0380015"},{"name":"千富町","zip_code":"0300854"},{"name":"第二問屋町","zip_code":"0300113"},{"name":"平新田","zip_code":"0300931"},{"name":"高田","zip_code":"0300151"},{"name":"滝沢","zip_code":"0300924"},{"name":"田茂木野","zip_code":"0300124"},{"name":"田屋敷","zip_code":"0300916"},{"name":"茶屋町","zip_code":"0300904"},{"name":"中央","zip_code":"0300822"},{"name":"築木館","zip_code":"0300925"},{"name":"月見野","zip_code":"0300958"},{"name":"佃","zip_code":"0300962"},{"name":"造道","zip_code":"0300911"},{"name":"筒井","zip_code":"0300944"},{"name":"堤町","zip_code":"0300812"},{"name":"鶴ケ坂","zip_code":"0380045"},{"name":"戸門","zip_code":"0380046"},{"name":"戸崎","zip_code":"0300934"},{"name":"富田","zip_code":"0380004"},{"name":"戸山","zip_code":"0300952"},{"name":"問屋町","zip_code":"0300131"},{"name":"長島","zip_code":"0300861"},{"name":"中佃","zip_code":"0300963"},{"name":"浪打","zip_code":"0300961"},{"name":"浪岡相沢","zip_code":"0381321"},{"name":"浪岡王余魚沢","zip_code":"0381313"},{"name":"浪岡北中野","zip_code":"0381325"},{"name":"浪岡吉内","zip_code":"0381324"},{"name":"浪岡郷山前","zip_code":"0381343"},{"name":"浪岡五本松","zip_code":"0381312"},{"name":"浪岡下石川","zip_code":"0381345"},{"name":"浪岡下十川","zip_code":"0381332"},{"name":"浪岡銀","zip_code":"0381341"},{"name":"浪岡杉沢","zip_code":"0381305"},{"name":"浪岡大釈迦","zip_code":"0381301"},{"name":"浪岡高屋敷","zip_code":"0381304"},{"name":"浪岡樽沢","zip_code":"0381342"},{"name":"浪岡徳才子","zip_code":"0381303"},{"name":"浪岡長沼","zip_code":"0381302"},{"name":"浪岡浪岡","zip_code":"0381311"},{"name":"浪岡福田","zip_code":"0381306"},{"name":"浪岡細野","zip_code":"0381322"},{"name":"浪岡本郷","zip_code":"0381323"},{"name":"浪岡増館","zip_code":"0381333"},{"name":"浪岡女鹿沢","zip_code":"0381331"},{"name":"浪岡吉野田","zip_code":"0381344"},{"name":"浪館","zip_code":"0380022"},{"name":"浪館前田","zip_code":"0380024"},{"name":"西大野","zip_code":"0300856"},{"name":"虹ケ丘","zip_code":"0300948"},{"name":"西滝","zip_code":"0380014"},{"name":"西田沢","zip_code":"0380057"},{"name":"新田","zip_code":"0380001"},{"name":"入内","zip_code":"0300154"},{"name":"野木","zip_code":"0300142"},{"name":"野沢","zip_code":"0300152"},{"name":"野尻","zip_code":"0300122"},{"name":"野内","zip_code":"0393503"},{"name":"橋本","zip_code":"0300823"},{"name":"羽白","zip_code":"0380058"},{"name":"花園","zip_code":"0300966"},{"name":"浜田","zip_code":"0300843"},{"name":"浜館","zip_code":"0300947"},{"name":"はまなす","zip_code":"0300919"},{"name":"原別","zip_code":"0300921"},{"name":"東大野","zip_code":"0300847"},{"name":"東造道","zip_code":"0300913"},{"name":"左堰","zip_code":"0301273"},{"name":"古川","zip_code":"0300862"},{"name":"古館","zip_code":"0300946"},{"name":"細越","zip_code":"0380023"},{"name":"蛍沢","zip_code":"0300957"},{"name":"本町","zip_code":"0300802"},{"name":"前田","zip_code":"0380053"},{"name":"孫内","zip_code":"0380044"},{"name":"松原","zip_code":"0300813"},{"name":"松森","zip_code":"0300965"},{"name":"馬屋尻","zip_code":"0393507"},{"name":"緑","zip_code":"0300845"},{"name":"港町","zip_code":"0300901"},{"name":"南佃","zip_code":"0300964"},{"name":"宮田","zip_code":"0393505"},{"name":"妙見","zip_code":"0300121"},{"name":"三好","zip_code":"0380006"},{"name":"本泉","zip_code":"0300937"},{"name":"雲谷","zip_code":"0300133"},{"name":"八重田","zip_code":"0300912"},{"name":"矢作","zip_code":"0300917"},{"name":"安方","zip_code":"0300803"},{"name":"安田","zip_code":"0380021"},{"name":"矢田","zip_code":"0393504"},{"name":"矢田前","zip_code":"0300936"},{"name":"八ツ役","zip_code":"0300112"},{"name":"柳川","zip_code":"0380012"},{"name":"八幡林","zip_code":"0300923"},{"name":"横内","zip_code":"0300132"},{"name":"四ツ石","zip_code":"0300125"},{"name":"六枚橋","zip_code":"0301271"}]},{"name":"弘前市","divisions":[{"name":"藍内","zip_code":"0361516"},{"name":"青樹町","zip_code":"0368246"},{"name":"青女子","zip_code":"0383615"},{"name":"青山","zip_code":"0368062"},{"name":"茜町","zip_code":"0368279"},{"name":"悪戸","zip_code":"0368264"},{"name":"旭ケ丘","zip_code":"0368252"},{"name":"愛宕","zip_code":"0361302"},{"name":"新町","zip_code":"0368364"},{"name":"石川","zip_code":"0368124"},{"name":"石渡","zip_code":"0368316"},{"name":"泉野","zip_code":"0368164"},{"name":"一野渡","zip_code":"0368134"},{"name":"一番町","zip_code":"0368201"},{"name":"一町田","zip_code":"0361325"},{"name":"稲田","zip_code":"0368097"},{"name":"岩賀","zip_code":"0368073"},{"name":"植田町","zip_code":"0368023"},{"name":"駅前","zip_code":"0368002"},{"name":"駅前町","zip_code":"0368003"},{"name":"狼森","zip_code":"0368132"},{"name":"扇町","zip_code":"0368104"},{"name":"大浦町","zip_code":"0368346"},{"name":"大川","zip_code":"0368311"},{"name":"大久保","zip_code":"0368071"},{"name":"大沢","zip_code":"0368125"},{"name":"大清水","zip_code":"0368161"},{"name":"大助","zip_code":"0361513"},{"name":"大富町","zip_code":"0368175"},{"name":"大原","zip_code":"0368242"},{"name":"大開","zip_code":"0368247"},{"name":"大町","zip_code":"0368004"},{"name":"大森","zip_code":"0361203"},{"name":"大和沢","zip_code":"0368133"},{"name":"徒町","zip_code":"0368034"},{"name":"徒町川端町","zip_code":"0368033"},{"name":"桶屋町","zip_code":"0368197"},{"name":"小友","zip_code":"0383613"},{"name":"鬼沢","zip_code":"0361205"},{"name":"表町","zip_code":"0368096"},{"name":"親方町","zip_code":"0368191"},{"name":"折笠","zip_code":"0368383"},{"name":"貝沢","zip_code":"0361204"},{"name":"学園町","zip_code":"0368152"},{"name":"覚仙町","zip_code":"0368204"},{"name":"鍛冶町","zip_code":"0368192"},{"name":"春日町","zip_code":"0368335"},{"name":"堅田","zip_code":"0368052"},{"name":"門外","zip_code":"0368111"},{"name":"兼平","zip_code":"0361332"},{"name":"上瓦ケ町","zip_code":"0368013"},{"name":"上鞘師町","zip_code":"0368354"},{"name":"上白銀町","zip_code":"0368207"},{"name":"紙漉沢","zip_code":"0361504"},{"name":"紙漉町","zip_code":"0368221"},{"name":"亀甲町","zip_code":"0368332"},{"name":"萱町","zip_code":"0368022"},{"name":"川合","zip_code":"0368114"},{"name":"川先","zip_code":"0368103"},{"name":"河原町","zip_code":"0368277"},{"name":"寒沢町","zip_code":"0368226"},{"name":"神田","zip_code":"0368061"},{"name":"桔梗野","zip_code":"0368227"},{"name":"北川端町","zip_code":"0368194"},{"name":"北瓦ケ町","zip_code":"0368012"},{"name":"北新寺町","zip_code":"0368213"},{"name":"北園","zip_code":"0368151"},{"name":"北柳町","zip_code":"0368031"},{"name":"北横町","zip_code":"0368046"},{"name":"清富町","zip_code":"0368251"},{"name":"清原","zip_code":"0368163"},{"name":"金属町","zip_code":"0368245"},{"name":"葛原","zip_code":"0361303"},{"name":"国吉","zip_code":"0361433"},{"name":"熊嶋","zip_code":"0361321"},{"name":"蔵主町","zip_code":"0368345"},{"name":"黒滝","zip_code":"0361502"},{"name":"黒土","zip_code":"0361434"},{"name":"楮町","zip_code":"0368005"},{"name":"高野","zip_code":"0361431"},{"name":"小金崎","zip_code":"0368123"},{"name":"小栗山","zip_code":"0368127"},{"name":"小沢","zip_code":"0368243"},{"name":"五十石町","zip_code":"0368362"},{"name":"五所","zip_code":"0361503"},{"name":"五代","zip_code":"0361331"},{"name":"小人町","zip_code":"0368331"},{"name":"駒越","zip_code":"0361322"},{"name":"駒越町","zip_code":"0368366"},{"name":"紺屋町","zip_code":"0368361"},{"name":"在府町","zip_code":"0368216"},{"name":"境関","zip_code":"0368076"},{"name":"坂市","zip_code":"0361511"},{"name":"栄町","zip_code":"0368336"},{"name":"坂元","zip_code":"0368244"},{"name":"坂本町","zip_code":"0368016"},{"name":"相良町","zip_code":"0368211"},{"name":"桜ケ丘","zip_code":"0368241"},{"name":"桜庭","zip_code":"0361441"},{"name":"桜林町","zip_code":"0368222"},{"name":"笹舘","zip_code":"0383612"},{"name":"笹森町","zip_code":"0368342"},{"name":"沢田","zip_code":"0361514"},{"name":"三世寺","zip_code":"0368312"},{"name":"山王町","zip_code":"0368341"},{"name":"小比内","zip_code":"0368102"},{"name":"塩分町","zip_code":"0368206"},{"name":"茂森新町","zip_code":"0368261"},{"name":"茂森町","zip_code":"0368217"},{"name":"品川町","zip_code":"0368183"},{"name":"清水","zip_code":"0368254"},{"name":"清水富田","zip_code":"0368262"},{"name":"清水森","zip_code":"0368113"},{"name":"下鞘師町","zip_code":"0368353"},{"name":"下白銀町","zip_code":"0368356"},{"name":"下湯口","zip_code":"0368265"},{"name":"自由ケ丘","zip_code":"0368266"},{"name":"樹木","zip_code":"0368228"},{"name":"城西","zip_code":"0368275"},{"name":"城東","zip_code":"0368095"},{"name":"城東中央","zip_code":"0368093"},{"name":"城東北","zip_code":"0368092"},{"name":"城南","zip_code":"0368232"},{"name":"新鍛冶町","zip_code":"0368193"},{"name":"新寺町","zip_code":"0368214"},{"name":"新寺町新割町","zip_code":"0368215"},{"name":"新法師","zip_code":"0361342"},{"name":"末広","zip_code":"0368085"},{"name":"昴","zip_code":"0361506"},{"name":"住吉町","zip_code":"0368187"},{"name":"清野袋","zip_code":"0368072"},{"name":"相馬","zip_code":"0361515"},{"name":"代官町","zip_code":"0368001"},{"name":"高岡","zip_code":"0361344"},{"name":"高崎","zip_code":"0368091"},{"name":"鷹匠町","zip_code":"0368271"},{"name":"高杉","zip_code":"0368302"},{"name":"高田","zip_code":"0368084"},{"name":"高屋","zip_code":"0361312"},{"name":"田代町","zip_code":"0368018"},{"name":"龍ノ口","zip_code":"0361324"},{"name":"館後","zip_code":"0361432"},{"name":"館野","zip_code":"0368234"},{"name":"種市","zip_code":"0383614"},{"name":"田町","zip_code":"0368054"},{"name":"田茂木町","zip_code":"0368055"},{"name":"俵元","zip_code":"0368041"},{"name":"千年","zip_code":"0368131"},{"name":"茶畑町","zip_code":"0368044"},{"name":"津賀野","zip_code":"0368074"},{"name":"土堂","zip_code":"0368374"},{"name":"鉄砲町","zip_code":"0368036"},{"name":"田園","zip_code":"0368086"},{"name":"藤内町","zip_code":"0368319"},{"name":"銅屋町","zip_code":"0368196"},{"name":"常盤坂","zip_code":"0368263"},{"name":"常盤野","zip_code":"0361345"},{"name":"徳田町","zip_code":"0368032"},{"name":"十腰内","zip_code":"0361201"},{"name":"独狐","zip_code":"0368381"},{"name":"十面沢","zip_code":"0361202"},{"name":"土手町","zip_code":"0368182"},{"name":"外崎","zip_code":"0368094"},{"name":"外瀬","zip_code":"0368317"},{"name":"富栄","zip_code":"0368382"},{"name":"富田","zip_code":"0368186"},{"name":"富田町","zip_code":"0368173"},{"name":"富野町","zip_code":"0368174"},{"name":"豊田","zip_code":"0368101"},{"name":"豊原","zip_code":"0368154"},{"name":"取上","zip_code":"0368171"},{"name":"鳥井野","zip_code":"0361333"},{"name":"撫牛子","zip_code":"0368075"},{"name":"中瓦ケ町","zip_code":"0368015"},{"name":"中崎","zip_code":"0368313"},{"name":"中野","zip_code":"0368155"},{"name":"中畑","zip_code":"0361452"},{"name":"中別所","zip_code":"0368385"},{"name":"長坂町","zip_code":"0368344"},{"name":"楢木","zip_code":"0361206"},{"name":"南塘町","zip_code":"0368212"},{"name":"新岡","zip_code":"0361304"},{"name":"新里","zip_code":"0368083"},{"name":"西川岸町","zip_code":"0368017"},{"name":"西ケ丘町","zip_code":"0368225"},{"name":"西茂森","zip_code":"0368273"},{"name":"西城北","zip_code":"0368065"},{"name":"西大工町","zip_code":"0368365"},{"name":"乳井","zip_code":"0368122"},{"name":"如来瀬","zip_code":"0361334"},{"name":"糠坪","zip_code":"0368301"},{"name":"禰宜町","zip_code":"0368056"},{"name":"野田","zip_code":"0368045"},{"name":"馬喰町","zip_code":"0368334"},{"name":"八幡町","zip_code":"0368057"},{"name":"鼻和","zip_code":"0361301"},{"name":"浜の町東","zip_code":"0368323"},{"name":"浜の町西","zip_code":"0368324"},{"name":"浜の町北","zip_code":"0368325"},{"name":"原ケ平","zip_code":"0368144"},{"name":"番館","zip_code":"0361453"},{"name":"東城北","zip_code":"0368064"},{"name":"東長町","zip_code":"0368343"},{"name":"東和徳町","zip_code":"0368043"},{"name":"樋の口","zip_code":"0368278"},{"name":"樋の口町","zip_code":"0368276"},{"name":"百沢","zip_code":"0361343"},{"name":"百石町","zip_code":"0368035"},{"name":"百石町小路","zip_code":"0368351"},{"name":"平岡町","zip_code":"0368367"},{"name":"平山","zip_code":"0361442"},{"name":"広野","zip_code":"0368115"},{"name":"福田","zip_code":"0368081"},{"name":"福村","zip_code":"0368082"},{"name":"袋町","zip_code":"0368363"},{"name":"藤沢","zip_code":"0361512"},{"name":"藤代","zip_code":"0368373"},{"name":"藤野","zip_code":"0368326"},{"name":"富士見台","zip_code":"0368143"},{"name":"富士見町","zip_code":"0368223"},{"name":"船水","zip_code":"0368315"},{"name":"文京町","zip_code":"0368224"},{"name":"細越","zip_code":"0368375"},{"name":"堀越","zip_code":"0368112"},{"name":"本町","zip_code":"0368203"},{"name":"前坂","zip_code":"0368303"},{"name":"蒔苗","zip_code":"0368371"},{"name":"町田","zip_code":"0368314"},{"name":"松ケ枝","zip_code":"0368042"},{"name":"松木平","zip_code":"0368126"},{"name":"真土","zip_code":"0361323"},{"name":"松原東","zip_code":"0368141"},{"name":"松原西","zip_code":"0368142"},{"name":"松森町","zip_code":"0368184"},{"name":"馬屋町","zip_code":"0368357"},{"name":"水木在家","zip_code":"0361505"},{"name":"三岳町","zip_code":"0368153"},{"name":"緑ケ丘","zip_code":"0368253"},{"name":"緑町","zip_code":"0368024"},{"name":"南大町","zip_code":"0368006"},{"name":"南川端町","zip_code":"0368195"},{"name":"南瓦ケ町","zip_code":"0368014"},{"name":"南城西","zip_code":"0368274"},{"name":"南富田町","zip_code":"0368172"},{"name":"南袋町","zip_code":"0368272"},{"name":"南柳町","zip_code":"0368025"},{"name":"南横町","zip_code":"0368026"},{"name":"稔町","zip_code":"0368231"},{"name":"宮川","zip_code":"0368051"},{"name":"宮地","zip_code":"0361341"},{"name":"宮園","zip_code":"0368063"},{"name":"宮舘","zip_code":"0368384"},{"name":"御幸町","zip_code":"0368185"},{"name":"三和","zip_code":"0383611"},{"name":"向外瀬","zip_code":"0368066"},{"name":"元大工町","zip_code":"0368202"},{"name":"元寺町","zip_code":"0368355"},{"name":"元寺町小路","zip_code":"0368352"},{"name":"元長町","zip_code":"0368198"},{"name":"元薬師堂","zip_code":"0368372"},{"name":"百田","zip_code":"0383821"},{"name":"森町","zip_code":"0368205"},{"name":"薬師堂","zip_code":"0368121"},{"name":"八代町","zip_code":"0368318"},{"name":"安原","zip_code":"0368162"},{"name":"萢中","zip_code":"0368321"},{"name":"山崎","zip_code":"0368233"},{"name":"山下町","zip_code":"0368011"},{"name":"山道町","zip_code":"0368181"},{"name":"弥生","zip_code":"0361361"},{"name":"八幡","zip_code":"0361314"},{"name":"湯口","zip_code":"0361501"},{"name":"横町","zip_code":"0361311"},{"name":"吉川","zip_code":"0361435"},{"name":"賀田","zip_code":"0361313"},{"name":"吉野町","zip_code":"0368188"},{"name":"米ケ袋","zip_code":"0361443"},{"name":"和泉","zip_code":"0368053"},{"name":"若党町","zip_code":"0368333"},{"name":"若葉","zip_code":"0368255"},{"name":"早稲田","zip_code":"0368087"},{"name":"和田町","zip_code":"0368368"},{"name":"和徳町","zip_code":"0368021"}]},{"name":"八戸市","divisions":[{"name":"青葉","zip_code":"0310804"},{"name":"旭ケ丘","zip_code":"0310824"},{"name":"荒町","zip_code":"0310055"},{"name":"石手洗","zip_code":"0310013"},{"name":"石堂","zip_code":"0391165"},{"name":"市川町","zip_code":"0392241"},{"name":"一番町","zip_code":"0391102"},{"name":"稲荷町","zip_code":"0310054"},{"name":"岩泉町","zip_code":"0310088"},{"name":"内丸","zip_code":"0310075"},{"name":"売市","zip_code":"0310073"},{"name":"上野","zip_code":"0391108"},{"name":"大久保","zip_code":"0310833"},{"name":"卸センター","zip_code":"0391121"},{"name":"柏崎","zip_code":"0310081"},{"name":"徒士町","zip_code":"0310053"},{"name":"鍛冶町","zip_code":"0310037"},{"name":"金浜","zip_code":"0310843"},{"name":"上徒士町","zip_code":"0310057"},{"name":"上組町","zip_code":"0310058"},{"name":"河原木","zip_code":"0391161"},{"name":"桔梗野工業団地","zip_code":"0392246"},{"name":"北インター工業団地","zip_code":"0392245"},{"name":"北白山台","zip_code":"0391114"},{"name":"櫛引","zip_code":"0310007"},{"name":"窪町","zip_code":"0310083"},{"name":"江陽","zip_code":"0310801"},{"name":"小田","zip_code":"0391160"},{"name":"小中野","zip_code":"0310802"},{"name":"是川","zip_code":"0310023"},{"name":"坂牛","zip_code":"0391106"},{"name":"桜ケ丘","zip_code":"0310834"},{"name":"鮫町","zip_code":"0310841"},{"name":"沢里","zip_code":"0391167"},{"name":"下長","zip_code":"0391164"},{"name":"十一日町","zip_code":"0310085"},{"name":"十三日町","zip_code":"0310042"},{"name":"十六日町","zip_code":"0310043"},{"name":"十八日町","zip_code":"0310084"},{"name":"常海町","zip_code":"0310082"},{"name":"常番町","zip_code":"0310047"},{"name":"尻内町","zip_code":"0391101"},{"name":"白銀","zip_code":"0310821"},{"name":"白銀台","zip_code":"0310832"},{"name":"白銀町","zip_code":"0310822"},{"name":"城下","zip_code":"0310072"},{"name":"新荒町","zip_code":"0310056"},{"name":"新湊","zip_code":"0310811"},{"name":"諏訪","zip_code":"0310803"},{"name":"大工町","zip_code":"0310036"},{"name":"鷹匠小路","zip_code":"0310034"},{"name":"高州","zip_code":"0391163"},{"name":"多賀台","zip_code":"0392242"},{"name":"田向","zip_code":"0310011"},{"name":"田面木","zip_code":"0391104"},{"name":"築港街","zip_code":"0310831"},{"name":"長者","zip_code":"0310021"},{"name":"朔日町","zip_code":"0310087"},{"name":"堤町","zip_code":"0310051"},{"name":"寺横町","zip_code":"0310035"},{"name":"十日市","zip_code":"0310012"},{"name":"鳥屋部町","zip_code":"0310039"},{"name":"豊崎町","zip_code":"0391109"},{"name":"豊洲","zip_code":"0391162"},{"name":"中居林","zip_code":"0310002"},{"name":"長苗代","zip_code":"0391103"},{"name":"長根","zip_code":"0310077"},{"name":"長横町","zip_code":"0310089"},{"name":"南郷区泥障作","zip_code":"0310115"},{"name":"南郷区泉清水","zip_code":"0310113"},{"name":"南郷区市野沢","zip_code":"0310111"},{"name":"南郷区大森","zip_code":"0310112"},{"name":"南郷区頃巻沢","zip_code":"0310201"},{"name":"南郷区島守","zip_code":"0310202"},{"name":"南郷区中野","zip_code":"0310114"},{"name":"新井田","zip_code":"0310813"},{"name":"新井田西","zip_code":"0310816"},{"name":"西白山台","zip_code":"0391113"},{"name":"廿三日町","zip_code":"0310041"},{"name":"廿六日町","zip_code":"0310044"},{"name":"糠塚","zip_code":"0310022"},{"name":"沼館","zip_code":"0310071"},{"name":"根城","zip_code":"0391166"},{"name":"八太郎","zip_code":"0391168"},{"name":"馬場町","zip_code":"0310074"},{"name":"番町","zip_code":"0310031"},{"name":"東白山台","zip_code":"0391111"},{"name":"日計","zip_code":"0391169"},{"name":"吹上","zip_code":"0310003"},{"name":"堀端町","zip_code":"0310076"},{"name":"町組町","zip_code":"0310046"},{"name":"松ケ丘","zip_code":"0392243"},{"name":"松館","zip_code":"0310815"},{"name":"岬台","zip_code":"0310842"},{"name":"三日町","zip_code":"0310032"},{"name":"湊高台","zip_code":"0310823"},{"name":"湊町","zip_code":"0310812"},{"name":"南白山台","zip_code":"0391112"},{"name":"南類家","zip_code":"0310004"},{"name":"美保野","zip_code":"0310844"},{"name":"妙","zip_code":"0310814"},{"name":"六日町","zip_code":"0310033"},{"name":"本徒士町","zip_code":"0310052"},{"name":"本鍛冶町","zip_code":"0310045"},{"name":"山伏小路","zip_code":"0310038"},{"name":"八幡","zip_code":"0391105"},{"name":"八日町","zip_code":"0310086"},{"name":"類家","zip_code":"0310001"}]},{"name":"黒石市","divisions":[{"name":"相野","zip_code":"0360516"},{"name":"青山","zip_code":"0360325"},{"name":"赤坂","zip_code":"0360537"},{"name":"あけぼの町","zip_code":"0360321"},{"name":"旭町","zip_code":"0360376"},{"name":"東町","zip_code":"0360373"},{"name":"浅瀬石","zip_code":"0360343"},{"name":"油横丁","zip_code":"0360302"},{"name":"石名坂","zip_code":"0360342"},{"name":"泉町","zip_code":"0360374"},{"name":"板留","zip_code":"0360404"},{"name":"市ノ町","zip_code":"0360307"},{"name":"一番町","zip_code":"0360301"},{"name":"岩木町","zip_code":"0360318"},{"name":"後大工町","zip_code":"0360354"},{"name":"内町","zip_code":"0360306"},{"name":"浦町","zip_code":"0360366"},{"name":"大板町","zip_code":"0360385"},{"name":"大川原","zip_code":"0360401"},{"name":"大町","zip_code":"0360384"},{"name":"沖浦","zip_code":"0360402"},{"name":"追子野木","zip_code":"0360357"},{"name":"乙大工町","zip_code":"0360353"},{"name":"乙徳兵衛町","zip_code":"0360305"},{"name":"角田","zip_code":"0360337"},{"name":"鍛治町","zip_code":"0360363"},{"name":"春日町","zip_code":"0360338"},{"name":"上十川","zip_code":"0360323"},{"name":"上目内澤","zip_code":"0360538"},{"name":"上山形","zip_code":"0360415"},{"name":"上町","zip_code":"0360386"},{"name":"北田中","zip_code":"0360523"},{"name":"北美町","zip_code":"0360541"},{"name":"京町","zip_code":"0360362"},{"name":"ぐみの木","zip_code":"0360316"},{"name":"株梗木","zip_code":"0360381"},{"name":"株梗木横丁","zip_code":"0360303"},{"name":"黒石","zip_code":"0360351"},{"name":"甲大工町","zip_code":"0360352"},{"name":"甲徳兵衛町","zip_code":"0360304"},{"name":"高賀野","zip_code":"0360344"},{"name":"寿町","zip_code":"0360315"},{"name":"小屋敷","zip_code":"0360511"},{"name":"小屋敷西","zip_code":"0360513"},{"name":"小屋敷南","zip_code":"0360512"},{"name":"幸町","zip_code":"0360335"},{"name":"境松","zip_code":"0360389"},{"name":"柵ノ木","zip_code":"0360333"},{"name":"作場町","zip_code":"0360382"},{"name":"桜木町","zip_code":"0360336"},{"name":"下目内澤","zip_code":"0360539"},{"name":"下山形","zip_code":"0360414"},{"name":"昭和町","zip_code":"0360312"},{"name":"末広","zip_code":"0360521"},{"name":"住吉町","zip_code":"0360317"},{"name":"高舘","zip_code":"0360535"},{"name":"竹田町","zip_code":"0360322"},{"name":"竹鼻","zip_code":"0360534"},{"name":"田中","zip_code":"0360522"},{"name":"ちとせ","zip_code":"0360356"},{"name":"寺小路","zip_code":"0360308"},{"name":"飛内","zip_code":"0360531"},{"name":"飛内北","zip_code":"0360532"},{"name":"富田","zip_code":"0360514"},{"name":"豊岡","zip_code":"0360341"},{"name":"中川","zip_code":"0360345"},{"name":"中町","zip_code":"0360377"},{"name":"長崎","zip_code":"0360365"},{"name":"西ケ丘","zip_code":"0360388"},{"name":"錦町","zip_code":"0360372"},{"name":"西馬場尻","zip_code":"0360507"},{"name":"二庄内","zip_code":"0360403"},{"name":"二双子","zip_code":"0360533"},{"name":"温湯","zip_code":"0360411"},{"name":"野際","zip_code":"0360542"},{"name":"野添町","zip_code":"0360326"},{"name":"八甲","zip_code":"0360331"},{"name":"花園町","zip_code":"0360371"},{"name":"花巻","zip_code":"0360413"},{"name":"馬場尻下","zip_code":"0360503"},{"name":"馬場尻東","zip_code":"0360504"},{"name":"馬場尻西","zip_code":"0360506"},{"name":"馬場尻南","zip_code":"0360505"},{"name":"馬場尻北","zip_code":"0360502"},{"name":"浜町","zip_code":"0360378"},{"name":"東新町","zip_code":"0360334"},{"name":"東野添","zip_code":"0360324"},{"name":"東馬場尻","zip_code":"0360501"},{"name":"袋","zip_code":"0360412"},{"name":"袋井","zip_code":"0360355"},{"name":"富士見","zip_code":"0360515"},{"name":"牡丹平","zip_code":"0360332"},{"name":"前町","zip_code":"0360367"},{"name":"松葉町","zip_code":"0360313"},{"name":"松原","zip_code":"0360517"},{"name":"三島","zip_code":"0360536"},{"name":"道北町","zip_code":"0360314"},{"name":"緑ケ丘","zip_code":"0360524"},{"name":"緑町","zip_code":"0360383"},{"name":"南中野","zip_code":"0360405"},{"name":"美原町","zip_code":"0360339"},{"name":"元町","zip_code":"0360387"},{"name":"山形町","zip_code":"0360364"},{"name":"弥生町","zip_code":"0360361"},{"name":"横町","zip_code":"0360368"},{"name":"吉乃町","zip_code":"0360311"},{"name":"若葉町","zip_code":"0360375"}]},{"name":"五所川原市","divisions":[{"name":"相内","zip_code":"0370401"},{"name":"浅井","zip_code":"0370613"},{"name":"旭町","zip_code":"0370062"},{"name":"東町","zip_code":"0370052"},{"name":"飯詰","zip_code":"0370002"},{"name":"幾島町","zip_code":"0370057"},{"name":"幾世森","zip_code":"0370065"},{"name":"石岡","zip_code":"0370005"},{"name":"磯松","zip_code":"0370404"},{"name":"一野坪","zip_code":"0370093"},{"name":"稲実","zip_code":"0370014"},{"name":"岩木町","zip_code":"0370074"},{"name":"不魚住","zip_code":"0370042"},{"name":"姥萢","zip_code":"0370015"},{"name":"梅田","zip_code":"0370022"},{"name":"漆川","zip_code":"0370017"},{"name":"太田","zip_code":"0370402"},{"name":"大町","zip_code":"0370063"},{"name":"沖飯詰","zip_code":"0370092"},{"name":"柏原町","zip_code":"0370055"},{"name":"金木町","zip_code":"0370202"},{"name":"金木町嘉瀬","zip_code":"0370204"},{"name":"金木町川倉","zip_code":"0370201"},{"name":"金木町神原","zip_code":"0370206"},{"name":"金木町喜良市","zip_code":"0370203"},{"name":"金木町中柏木","zip_code":"0370205"},{"name":"金木町藤枝","zip_code":"0370208"},{"name":"金木町蒔田","zip_code":"0370207"},{"name":"金山","zip_code":"0370011"},{"name":"鎌谷町","zip_code":"0370033"},{"name":"上平井町","zip_code":"0370054"},{"name":"神山","zip_code":"0370611"},{"name":"唐笠柳","zip_code":"0370004"},{"name":"烏森","zip_code":"0370032"},{"name":"川端町","zip_code":"0370072"},{"name":"川山","zip_code":"0370094"},{"name":"高野","zip_code":"0370632"},{"name":"小曲","zip_code":"0370076"},{"name":"栄町","zip_code":"0370046"},{"name":"桜田","zip_code":"0370095"},{"name":"敷島町","zip_code":"0370067"},{"name":"下岩崎","zip_code":"0370001"},{"name":"下平井町","zip_code":"0370064"},{"name":"十三","zip_code":"0370403"},{"name":"新町","zip_code":"0370045"},{"name":"新宮","zip_code":"0370081"},{"name":"新宮町","zip_code":"0370083"},{"name":"末広町","zip_code":"0370056"},{"name":"蘇鉄","zip_code":"0370084"},{"name":"高瀬","zip_code":"0370087"},{"name":"田川","zip_code":"0370086"},{"name":"太刀打","zip_code":"0370091"},{"name":"種井","zip_code":"0370082"},{"name":"田町","zip_code":"0370041"},{"name":"俵元","zip_code":"0370623"},{"name":"中央","zip_code":"0370036"},{"name":"鶴ケ岡","zip_code":"0370088"},{"name":"寺町","zip_code":"0370075"},{"name":"戸沢","zip_code":"0370601"},{"name":"豊成","zip_code":"0370621"},{"name":"中泉","zip_code":"0370021"},{"name":"中平井町","zip_code":"0370066"},{"name":"長富","zip_code":"0370097"},{"name":"長橋","zip_code":"0370068"},{"name":"七ツ館","zip_code":"0370025"},{"name":"錦町","zip_code":"0370058"},{"name":"布屋町","zip_code":"0370053"},{"name":"野里","zip_code":"0370614"},{"name":"芭蕉","zip_code":"0370085"},{"name":"蓮沼","zip_code":"0370043"},{"name":"羽野木沢","zip_code":"0370641"},{"name":"原子","zip_code":"0370622"},{"name":"毘沙門","zip_code":"0370096"},{"name":"一ツ谷","zip_code":"0370016"},{"name":"雛田","zip_code":"0370061"},{"name":"広田","zip_code":"0370023"},{"name":"吹畑","zip_code":"0370003"},{"name":"福山","zip_code":"0370612"},{"name":"本町","zip_code":"0370071"},{"name":"前田野目","zip_code":"0370631"},{"name":"松島町","zip_code":"0370006"},{"name":"松野木","zip_code":"0370602"},{"name":"水野尾","zip_code":"0370012"},{"name":"みどり町","zip_code":"0370024"},{"name":"湊","zip_code":"0370035"},{"name":"藻川","zip_code":"0370089"},{"name":"持子沢","zip_code":"0370642"},{"name":"元町","zip_code":"0370044"},{"name":"八重菊","zip_code":"0370034"},{"name":"柳町","zip_code":"0370073"},{"name":"弥生町","zip_code":"0370051"},{"name":"米田","zip_code":"0370013"},{"name":"若葉","zip_code":"0370069"},{"name":"脇元","zip_code":"0370405"}]},{"name":"十和田市","divisions":[{"name":"赤沼","zip_code":"0340071"},{"name":"一本木沢","zip_code":"0340005"},{"name":"稲生町","zip_code":"0340011"},{"name":"馬洗場","zip_code":"0340101"},{"name":"相坂","zip_code":"0340041"},{"name":"大沢田","zip_code":"0340102"},{"name":"大不動","zip_code":"0340211"},{"name":"奥瀬","zip_code":"0185501"},{"name":"切田","zip_code":"0340061"},{"name":"沢田","zip_code":"0340302"},{"name":"三本木","zip_code":"0340001"},{"name":"滝沢","zip_code":"0340213"},{"name":"立崎","zip_code":"0340103"},{"name":"伝法寺","zip_code":"0340051"},{"name":"豊ケ岡","zip_code":"0340104"},{"name":"西一番町","zip_code":"0340092"},{"name":"西二番町","zip_code":"0340082"},{"name":"西三番町","zip_code":"0340083"},{"name":"西四番町","zip_code":"0340084"},{"name":"西五番町","zip_code":"0340085"},{"name":"西六番町","zip_code":"0340038"},{"name":"西十一番町","zip_code":"0340091"},{"name":"西十二番町","zip_code":"0340093"},{"name":"西十三番町","zip_code":"0340081"},{"name":"西十四番町","zip_code":"0340088"},{"name":"西十五番町","zip_code":"0340087"},{"name":"西十六番町","zip_code":"0340086"},{"name":"西二十一番町","zip_code":"0340095"},{"name":"西二十二番町","zip_code":"0340094"},{"name":"西二十三番町","zip_code":"0340089"},{"name":"八斗沢","zip_code":"0340105"},{"name":"東一番町","zip_code":"0340012"},{"name":"東二番町","zip_code":"0340017"},{"name":"東三番町","zip_code":"0340031"},{"name":"東四番町","zip_code":"0340032"},{"name":"東五番町","zip_code":"0340033"},{"name":"東六番町","zip_code":"0340036"},{"name":"東十一番町","zip_code":"0340013"},{"name":"東十二番町","zip_code":"0340016"},{"name":"東十三番町","zip_code":"0340023"},{"name":"東十四番町","zip_code":"0340024"},{"name":"東十五番町","zip_code":"0340034"},{"name":"東十六番町","zip_code":"0340035"},{"name":"東二十一番町","zip_code":"0340014"},{"name":"東二十二番町","zip_code":"0340015"},{"name":"東二十三番町","zip_code":"0340021"},{"name":"東二十四番町","zip_code":"0340022"},{"name":"ひがしの","zip_code":"0340004"},{"name":"深持","zip_code":"0340106"},{"name":"藤島","zip_code":"0340052"},{"name":"法量","zip_code":"0340303"},{"name":"穂並町","zip_code":"0340037"},{"name":"洞内","zip_code":"0340107"},{"name":"米田","zip_code":"0340212"},{"name":"元町西","zip_code":"0340002"},{"name":"元町東","zip_code":"0340003"}]},{"name":"三沢市","divisions":[{"name":"朝日","zip_code":"0330166"},{"name":"天ケ森","zip_code":"0330101"},{"name":"泉町","zip_code":"0330153"},{"name":"五川目","zip_code":"0330131"},{"name":"大津","zip_code":"0330134"},{"name":"大町","zip_code":"0330041"},{"name":"岡三沢","zip_code":"0330021"},{"name":"織笠","zip_code":"0330104"},{"name":"春日台","zip_code":"0330053"},{"name":"上久保","zip_code":"0330063"},{"name":"越下","zip_code":"0330162"},{"name":"幸町","zip_code":"0330011"},{"name":"栄町","zip_code":"0330042"},{"name":"桜町","zip_code":"0330031"},{"name":"さつきヶ丘","zip_code":"0330155"},{"name":"淋代","zip_code":"0330113"},{"name":"塩釜","zip_code":"0330103"},{"name":"鹿中","zip_code":"0330133"},{"name":"下久保","zip_code":"0330023"},{"name":"新町","zip_code":"0330062"},{"name":"新森","zip_code":"0330105"},{"name":"砂森","zip_code":"0330102"},{"name":"高野沢","zip_code":"0330165"},{"name":"中央町","zip_code":"0330001"},{"name":"千代田町","zip_code":"0330043"},{"name":"富崎","zip_code":"0330163"},{"name":"根井","zip_code":"0330167"},{"name":"花園町","zip_code":"0330061"},{"name":"東岡三沢","zip_code":"0330024"},{"name":"東町","zip_code":"0330034"},{"name":"日の出","zip_code":"0330154"},{"name":"平畑","zip_code":"0330012"},{"name":"深谷","zip_code":"0330152"},{"name":"古間木","zip_code":"0330051"},{"name":"古間木山","zip_code":"0330044"},{"name":"細谷","zip_code":"0330112"},{"name":"堀口","zip_code":"0330123"},{"name":"本町","zip_code":"0330052"},{"name":"前平","zip_code":"0330143"},{"name":"松園町","zip_code":"0330037"},{"name":"松原町","zip_code":"0330035"},{"name":"三川目","zip_code":"0330142"},{"name":"三沢","zip_code":"0330022"},{"name":"緑町","zip_code":"0330032"},{"name":"港町","zip_code":"0330141"},{"name":"南町","zip_code":"0330036"},{"name":"南山","zip_code":"0330151"},{"name":"美野原","zip_code":"0330033"},{"name":"六川目","zip_code":"0330111"},{"name":"薬師町","zip_code":"0330045"},{"name":"谷地頭","zip_code":"0330164"},{"name":"八幡","zip_code":"0330161"},{"name":"四川目","zip_code":"0330132"}]},{"name":"むつ市","divisions":[{"name":"赤川町","zip_code":"0350044"},{"name":"旭町","zip_code":"0350076"},{"name":"荒川町","zip_code":"0350079"},{"name":"宇田町","zip_code":"0350092"},{"name":"海老川町","zip_code":"0350054"},{"name":"大平","zip_code":"0350074"},{"name":"大平町","zip_code":"0350083"},{"name":"大畑町","zip_code":"0394401"},{"name":"大畑町正津川","zip_code":"0394402"},{"name":"大曲","zip_code":"0350042"},{"name":"大湊","zip_code":"0350096"},{"name":"大湊上町","zip_code":"0350086"},{"name":"大湊新町","zip_code":"0350084"},{"name":"大湊浜町","zip_code":"0350085"},{"name":"大湊町","zip_code":"0350093"},{"name":"奥内","zip_code":"0350011"},{"name":"金曲","zip_code":"0350041"},{"name":"金谷","zip_code":"0350072"},{"name":"上川町","zip_code":"0350032"},{"name":"川内町蛎崎","zip_code":"0395204"},{"name":"川内町宿野部","zip_code":"0395203"},{"name":"川内町桧川","zip_code":"0395202"},{"name":"川内町","zip_code":"0394701"},{"name":"川守町","zip_code":"0350091"},{"name":"栗山町","zip_code":"0350036"},{"name":"小川町","zip_code":"0350071"},{"name":"桜木町","zip_code":"0350094"},{"name":"下北町","zip_code":"0350061"},{"name":"十二林","zip_code":"0350067"},{"name":"城ケ沢","zip_code":"0350095"},{"name":"昭和町","zip_code":"0350052"},{"name":"新町","zip_code":"0350051"},{"name":"関根","zip_code":"0350022"},{"name":"田名部","zip_code":"0350021"},{"name":"田名部町","zip_code":"0350034"},{"name":"中央","zip_code":"0350073"},{"name":"苫生町","zip_code":"0350055"},{"name":"中野沢","zip_code":"0350012"},{"name":"仲町","zip_code":"0350062"},{"name":"並川町","zip_code":"0350081"},{"name":"文京町","zip_code":"0350082"},{"name":"本町","zip_code":"0350035"},{"name":"真砂町","zip_code":"0350075"},{"name":"松原町","zip_code":"0350045"},{"name":"松森町","zip_code":"0350078"},{"name":"松山町","zip_code":"0350065"},{"name":"美里町","zip_code":"0350068"},{"name":"緑ヶ丘","zip_code":"0350066"},{"name":"緑町","zip_code":"0350053"},{"name":"港町","zip_code":"0350064"},{"name":"南赤川町","zip_code":"0350043"},{"name":"南町","zip_code":"0350046"},{"name":"柳町","zip_code":"0350031"},{"name":"山田町","zip_code":"0350077"},{"name":"横迎町","zip_code":"0350033"},{"name":"若松町","zip_code":"0350063"},{"name":"脇野沢赤坂","zip_code":"0395345"},{"name":"脇野沢稲平","zip_code":"0395344"},{"name":"脇野沢桂沢","zip_code":"0395326"},{"name":"脇野沢寄浪","zip_code":"0395335"},{"name":"脇野沢九艘泊","zip_code":"0395337"},{"name":"脇野沢口広","zip_code":"0395346"},{"name":"脇野沢黒岩","zip_code":"0395333"},{"name":"脇野沢源藤城","zip_code":"0395321"},{"name":"脇野沢小サ沢","zip_code":"0395343"},{"name":"脇野沢小沢","zip_code":"0395342"},{"name":"脇野沢鹿間平","zip_code":"0395341"},{"name":"脇野沢七引","zip_code":"0395323"},{"name":"脇野沢瀬野川目","zip_code":"0395332"},{"name":"脇野沢滝山","zip_code":"0395322"},{"name":"脇野沢蛸田","zip_code":"0395336"},{"name":"脇野沢辰内","zip_code":"0395325"},{"name":"脇野沢田ノ頭","zip_code":"0395324"},{"name":"脇野沢新井田","zip_code":"0395334"},{"name":"脇野沢本村","zip_code":"0395327"},{"name":"脇野沢渡向","zip_code":"0395331"}]},{"name":"つがる市","divisions":[{"name":"稲垣町繁田","zip_code":"0370102"},{"name":"稲垣町下繁田","zip_code":"0370101"},{"name":"稲垣町千年","zip_code":"0370109"},{"name":"稲垣町豊川","zip_code":"0370104"},{"name":"稲垣町沼崎","zip_code":"0370106"},{"name":"稲垣町沼舘","zip_code":"0370107"},{"name":"稲垣町福富","zip_code":"0370105"},{"name":"稲垣町穂積","zip_code":"0370103"},{"name":"稲垣町吉出","zip_code":"0370108"},{"name":"牛潟町","zip_code":"0383305"},{"name":"柏稲盛","zip_code":"0383107"},{"name":"柏上古川","zip_code":"0383103"},{"name":"柏桑野木田","zip_code":"0383104"},{"name":"柏鷺坂","zip_code":"0383101"},{"name":"柏下古川","zip_code":"0383102"},{"name":"柏玉水","zip_code":"0383106"},{"name":"柏広須","zip_code":"0383105"},{"name":"木造赤根","zip_code":"0383142"},{"name":"木造曙","zip_code":"0383144"},{"name":"木造朝日","zip_code":"0383124"},{"name":"木造芦沼","zip_code":"0383113"},{"name":"木造出野里","zip_code":"0383273"},{"name":"木造浮巣","zip_code":"0383141"},{"name":"木造有楽町","zip_code":"0383135"},{"name":"木造浦船","zip_code":"0383162"},{"name":"木造追広","zip_code":"0383122"},{"name":"木造大畑","zip_code":"0383277"},{"name":"木造大湯町","zip_code":"0383285"},{"name":"木造兼館","zip_code":"0383272"},{"name":"木造亀ケ岡","zip_code":"0383284"},{"name":"木造川除","zip_code":"0383112"},{"name":"木造菊川","zip_code":"0383165"},{"name":"木造越水","zip_code":"0382806"},{"name":"木造駒田","zip_code":"0382807"},{"name":"木造菰槌","zip_code":"0383286"},{"name":"木造桜川","zip_code":"0383159"},{"name":"木造桜木","zip_code":"0383146"},{"name":"木造柴田","zip_code":"0383164"},{"name":"木造清水","zip_code":"0383132"},{"name":"木造下遠山里","zip_code":"0383287"},{"name":"木造下福原","zip_code":"0382803"},{"name":"木造末広","zip_code":"0383133"},{"name":"木造館岡","zip_code":"0383283"},{"name":"木造種取","zip_code":"0383134"},{"name":"木造千年","zip_code":"0383131"},{"name":"木造千代田","zip_code":"0383167"},{"name":"木造千代町","zip_code":"0383145"},{"name":"木造土滝","zip_code":"0383278"},{"name":"木造鶴泊","zip_code":"0383125"},{"name":"木造出来島","zip_code":"0383288"},{"name":"木造照日","zip_code":"0383154"},{"name":"木造筒木坂","zip_code":"0383282"},{"name":"木造豊田","zip_code":"0383111"},{"name":"木造永田","zip_code":"0383275"},{"name":"木造中館","zip_code":"0383163"},{"name":"木造成田","zip_code":"0383114"},{"name":"木造濁川","zip_code":"0383161"},{"name":"木造野宮","zip_code":"0383153"},{"name":"木造萩流","zip_code":"0383139"},{"name":"木造萩野","zip_code":"0383136"},{"name":"木造蓮川","zip_code":"0383115"},{"name":"木造林","zip_code":"0383276"},{"name":"木造早田","zip_code":"0383121"},{"name":"木造日向","zip_code":"0383143"},{"name":"木造平滝","zip_code":"0383281"},{"name":"木造広岡","zip_code":"0382805"},{"name":"木造吹原","zip_code":"0382808"},{"name":"木造福原","zip_code":"0383166"},{"name":"木造房松","zip_code":"0383158"},{"name":"木造藤岡","zip_code":"0383152"},{"name":"木造藤田","zip_code":"0383123"},{"name":"木造増田","zip_code":"0383155"},{"name":"木造丸山","zip_code":"0382801"},{"name":"木造三ツ館","zip_code":"0382804"},{"name":"木造宮井","zip_code":"0383156"},{"name":"木造宮崎","zip_code":"0383157"},{"name":"木造森内","zip_code":"0383126"},{"name":"木造森本","zip_code":"0383128"},{"name":"木造森山","zip_code":"0383127"},{"name":"木造善積","zip_code":"0383271"},{"name":"木造蓮花田","zip_code":"0383274"},{"name":"木造若竹","zip_code":"0383151"},{"name":"木造若緑","zip_code":"0383138"},{"name":"木造若宮","zip_code":"0383137"},{"name":"下車力町","zip_code":"0383304"},{"name":"下牛潟町","zip_code":"0383306"},{"name":"車力町","zip_code":"0383303"},{"name":"富萢町","zip_code":"0383301"},{"name":"豊富町","zip_code":"0383302"},{"name":"森田町大館","zip_code":"0382818"},{"name":"森田町上相野","zip_code":"0382811"},{"name":"森田町下相野","zip_code":"0382812"},{"name":"森田町床舞","zip_code":"0382817"},{"name":"森田町中田","zip_code":"0382814"},{"name":"森田町妙堂崎","zip_code":"0382813"},{"name":"森田町森田","zip_code":"0382816"},{"name":"森田町山田","zip_code":"0382815"}]},{"name":"平川市","divisions":[{"name":"荒田上駒田","zip_code":"0360112"},{"name":"荒田北稲村","zip_code":"0360112"},{"name":"荒田北岡部","zip_code":"0360112"},{"name":"荒田下駒田","zip_code":"0360112"},{"name":"荒田南稲村","zip_code":"0360112"},{"name":"荒田南岡部","zip_code":"0360112"},{"name":"新屋稲村","zip_code":"0360121"},{"name":"新屋長田","zip_code":"0360121"},{"name":"新屋栄館","zip_code":"0360121"},{"name":"新屋滝の沢","zip_code":"0360121"},{"name":"新屋富山","zip_code":"0360121"},{"name":"新屋平岡","zip_code":"0360121"},{"name":"新屋平野","zip_code":"0360121"},{"name":"新屋福嶋","zip_code":"0360121"},{"name":"新屋山下","zip_code":"0360121"},{"name":"新屋町上沢田","zip_code":"0360213"},{"name":"新屋町北鶉野","zip_code":"0360213"},{"name":"新屋町下沢田","zip_code":"0360213"},{"name":"新屋町田川","zip_code":"0360213"},{"name":"新屋町松居","zip_code":"0360213"},{"name":"新屋町松下","zip_code":"0360213"},{"name":"新屋町松久","zip_code":"0360213"},{"name":"新屋町道ノ下","zip_code":"0360213"},{"name":"新屋町南鶉野","zip_code":"0360213"},{"name":"新屋町村元","zip_code":"0360213"},{"name":"碇ケ関","zip_code":"0380101"},{"name":"碇ケ関相沢","zip_code":"0380101"},{"name":"碇ケ関阿原","zip_code":"0380101"},{"name":"碇ケ関雷林","zip_code":"0380101"},{"name":"碇ケ関碇石","zip_code":"0380101"},{"name":"碇ケ関岩井","zip_code":"0380101"},{"name":"碇ケ関大葉平","zip_code":"0380101"},{"name":"碇ケ関大落前","zip_code":"0380101"},{"name":"碇ケ関折橋","zip_code":"0380101"},{"name":"碇ケ関鯨森","zip_code":"0380101"},{"name":"碇ケ関小落前","zip_code":"0380101"},{"name":"碇ケ関山神堂","zip_code":"0380101"},{"name":"碇ケ関白沢","zip_code":"0380101"},{"name":"碇ケ関諏訪平","zip_code":"0380101"},{"name":"碇ケ関外白沢","zip_code":"0380101"},{"name":"碇ケ関高田","zip_code":"0380101"},{"name":"碇ケ関樋ケ沢","zip_code":"0380101"},{"name":"碇ケ関西碇ケ関山","zip_code":"0380101"},{"name":"碇ケ関東碇ケ関山","zip_code":"0380101"},{"name":"碇ケ関樋ノ口","zip_code":"0380101"},{"name":"碇ケ関船岡","zip_code":"0380101"},{"name":"碇ケ関踏田切","zip_code":"0380101"},{"name":"碇ケ関三笠山","zip_code":"0380101"},{"name":"碇ケ関水溜","zip_code":"0380101"},{"name":"碇ケ関湯向川添","zip_code":"0380101"},{"name":"碇ケ関横町","zip_code":"0380101"},{"name":"碇ケ関古懸上程森","zip_code":"0380102"},{"name":"碇ケ関古懸沢田","zip_code":"0380102"},{"name":"碇ケ関古懸樋ケ沢","zip_code":"0380102"},{"name":"碇ケ関古懸堂ノ上","zip_code":"0380102"},{"name":"碇ケ関古懸鳥井","zip_code":"0380102"},{"name":"碇ケ関古懸西不動野","zip_code":"0380102"},{"name":"碇ケ関古懸東不動野","zip_code":"0380102"},{"name":"碇ケ関古懸不動沢大石","zip_code":"0380102"},{"name":"碇ケ関古懸不動野","zip_code":"0380102"},{"name":"碇ケ関古懸南不動野","zip_code":"0380102"},{"name":"碇ケ関古懸向安田","zip_code":"0380102"},{"name":"碇ケ関古懸門前","zip_code":"0380102"},{"name":"碇ケ関古懸門前屋岸","zip_code":"0380102"},{"name":"碇ケ関古懸安田","zip_code":"0380102"},{"name":"碇ケ関久吉蕷ケ平","zip_code":"0380103"},{"name":"碇ケ関久吉二ノ渡","zip_code":"0380103"},{"name":"碇ケ関久吉山岸","zip_code":"0380103"},{"name":"石郷沖中","zip_code":"0360151"},{"name":"石郷村元","zip_code":"0360151"},{"name":"石郷柳田","zip_code":"0360151"},{"name":"石畑岡元","zip_code":"0360152"},{"name":"岩館長田","zip_code":"0360145"},{"name":"岩館下り松","zip_code":"0360145"},{"name":"岩館藤巻","zip_code":"0360145"},{"name":"岩館村元","zip_code":"0360145"},{"name":"岩館山の井","zip_code":"0360145"},{"name":"沖館長田","zip_code":"0360141"},{"name":"沖館沢田","zip_code":"0360141"},{"name":"沖館高田","zip_code":"0360141"},{"name":"沖館永田","zip_code":"0360141"},{"name":"沖館西田","zip_code":"0360141"},{"name":"沖館比山館","zip_code":"0360141"},{"name":"沖館宮崎","zip_code":"0360141"},{"name":"沖館向野","zip_code":"0360141"},{"name":"沖館和田","zip_code":"0360141"},{"name":"小国浅瀬石山","zip_code":"0360171"},{"name":"小国川辺","zip_code":"0360171"},{"name":"小国川原田","zip_code":"0360171"},{"name":"小国深沢","zip_code":"0360171"},{"name":"小国山下","zip_code":"0360171"},{"name":"尾崎浅井","zip_code":"0360122"},{"name":"尾崎稲元","zip_code":"0360122"},{"name":"尾崎岡田","zip_code":"0360122"},{"name":"尾崎川合","zip_code":"0360122"},{"name":"尾崎木戸口","zip_code":"0360122"},{"name":"尾崎里見","zip_code":"0360122"},{"name":"尾崎沢部","zip_code":"0360122"},{"name":"尾崎平山","zip_code":"0360122"},{"name":"尾崎安田","zip_code":"0360122"},{"name":"長田沼田","zip_code":"0360222"},{"name":"長田野田","zip_code":"0360222"},{"name":"長田村下","zip_code":"0360222"},{"name":"長田元村","zip_code":"0360222"},{"name":"尾上栄松","zip_code":"0360212"},{"name":"柏木町東田","zip_code":"0360104"},{"name":"柏木町広田","zip_code":"0360104"},{"name":"柏木町藤山","zip_code":"0360104"},{"name":"柏木町柳田","zip_code":"0360104"},{"name":"金屋上松元","zip_code":"0360202"},{"name":"金屋上早稲田","zip_code":"0360202"},{"name":"金屋下松元","zip_code":"0360202"},{"name":"金屋下早稲田","zip_code":"0360202"},{"name":"金屋中松元","zip_code":"0360202"},{"name":"金屋中早稲田","zip_code":"0360202"},{"name":"金屋西松元","zip_code":"0360202"},{"name":"蒲田一本松","zip_code":"0360232"},{"name":"蒲田玉田","zip_code":"0360232"},{"name":"蒲田豊田","zip_code":"0360232"},{"name":"蒲田豊富","zip_code":"0360232"},{"name":"蒲田三原","zip_code":"0360232"},{"name":"蒲田元宮","zip_code":"0360232"},{"name":"唐竹芦毛沢","zip_code":"0360132"},{"name":"唐竹阿蘇獄","zip_code":"0360132"},{"name":"唐竹井沢","zip_code":"0360132"},{"name":"唐竹苺原","zip_code":"0360132"},{"name":"唐竹川原田","zip_code":"0360132"},{"name":"唐竹小金森","zip_code":"0360132"},{"name":"唐竹小松原","zip_code":"0360132"},{"name":"唐竹高田","zip_code":"0360132"},{"name":"唐竹平山","zip_code":"0360132"},{"name":"唐竹堀合","zip_code":"0360132"},{"name":"唐竹水上","zip_code":"0360132"},{"name":"唐竹向川原田","zip_code":"0360132"},{"name":"唐竹薬師沢","zip_code":"0360132"},{"name":"切明浅瀬石山","zip_code":"0360173"},{"name":"切明上井戸","zip_code":"0360173"},{"name":"切明誉田邸","zip_code":"0360173"},{"name":"切明坂本","zip_code":"0360173"},{"name":"切明滝の森","zip_code":"0360173"},{"name":"切明滝候沢","zip_code":"0360173"},{"name":"切明津根川森","zip_code":"0360173"},{"name":"切明温川沢","zip_code":"0360173"},{"name":"切明温川森","zip_code":"0360173"},{"name":"切明螢沢","zip_code":"0360173"},{"name":"切明山下","zip_code":"0360173"},{"name":"葛川浅瀬石山","zip_code":"0360172"},{"name":"葛川一本木平","zip_code":"0360172"},{"name":"葛川大川添","zip_code":"0360172"},{"name":"葛川折戸","zip_code":"0360172"},{"name":"葛川上の平","zip_code":"0360172"},{"name":"葛川唐川平","zip_code":"0360172"},{"name":"葛川葛川沢","zip_code":"0360172"},{"name":"葛川葛川平","zip_code":"0360172"},{"name":"葛川葛川出口","zip_code":"0360172"},{"name":"葛川毛無森","zip_code":"0360172"},{"name":"葛川砂子沢","zip_code":"0360172"},{"name":"葛川田の沢口","zip_code":"0360172"},{"name":"葛川長小股","zip_code":"0360172"},{"name":"葛川平六沢上","zip_code":"0360172"},{"name":"葛川平六村下","zip_code":"0360172"},{"name":"葛川家岸","zip_code":"0360172"},{"name":"光城","zip_code":"0360102"},{"name":"小杉稲村","zip_code":"0360153"},{"name":"小杉扇田","zip_code":"0360153"},{"name":"小杉川崎","zip_code":"0360153"},{"name":"小杉竹内","zip_code":"0360153"},{"name":"小杉西田","zip_code":"0360153"},{"name":"小和森上田川","zip_code":"0360111"},{"name":"小和森上平田","zip_code":"0360111"},{"name":"小和森上松岡","zip_code":"0360111"},{"name":"小和森下田川","zip_code":"0360111"},{"name":"小和森下平田","zip_code":"0360111"},{"name":"小和森下松岡","zip_code":"0360111"},{"name":"小和森種取","zip_code":"0360111"},{"name":"小和森中松岡","zip_code":"0360111"},{"name":"小和森福田","zip_code":"0360111"},{"name":"小和森松川","zip_code":"0360111"},{"name":"小和森松村","zip_code":"0360111"},{"name":"猿賀浅井","zip_code":"0360242"},{"name":"猿賀浅田","zip_code":"0360242"},{"name":"猿賀池上","zip_code":"0360242"},{"name":"猿賀池田","zip_code":"0360242"},{"name":"猿賀石林","zip_code":"0360242"},{"name":"猿賀上岡","zip_code":"0360242"},{"name":"猿賀上川","zip_code":"0360242"},{"name":"猿賀下岡","zip_code":"0360242"},{"name":"猿賀下川","zip_code":"0360242"},{"name":"猿賀下野","zip_code":"0360242"},{"name":"猿賀遠林","zip_code":"0360242"},{"name":"猿賀富岡","zip_code":"0360242"},{"name":"猿賀平塚","zip_code":"0360242"},{"name":"猿賀松枝","zip_code":"0360242"},{"name":"猿賀南田","zip_code":"0360242"},{"name":"猿賀南野","zip_code":"0360242"},{"name":"猿賀明堂","zip_code":"0360242"},{"name":"猿賀安岡","zip_code":"0360242"},{"name":"猿賀安田","zip_code":"0360242"},{"name":"杉館滝元","zip_code":"0360161"},{"name":"杉館松橋","zip_code":"0360161"},{"name":"杉館宮元","zip_code":"0360161"},{"name":"李平上安原","zip_code":"0360201"},{"name":"李平上山崎","zip_code":"0360201"},{"name":"李平北豊田","zip_code":"0360201"},{"name":"李平下安原","zip_code":"0360201"},{"name":"李平西豊田","zip_code":"0360201"},{"name":"李平西山崎","zip_code":"0360201"},{"name":"李平西和田","zip_code":"0360201"},{"name":"李平東豊田","zip_code":"0360201"},{"name":"李平東和田","zip_code":"0360201"},{"name":"李平南豊田","zip_code":"0360201"},{"name":"大光寺一滝本","zip_code":"0360101"},{"name":"大光寺一村井","zip_code":"0360101"},{"name":"大光寺一早稲田","zip_code":"0360101"},{"name":"大光寺稲田","zip_code":"0360101"},{"name":"大光寺稲村","zip_code":"0360101"},{"name":"大光寺川原田","zip_code":"0360101"},{"name":"大光寺三滝本","zip_code":"0360101"},{"name":"大光寺三村井","zip_code":"0360101"},{"name":"大光寺三早稲田","zip_code":"0360101"},{"name":"大光寺釈迦口","zip_code":"0360101"},{"name":"大光寺白山","zip_code":"0360101"},{"name":"大光寺種元","zip_code":"0360101"},{"name":"大光寺西稲村","zip_code":"0360101"},{"name":"大光寺二滝本","zip_code":"0360101"},{"name":"大光寺二村井","zip_code":"0360101"},{"name":"大光寺二早稲田","zip_code":"0360101"},{"name":"大光寺四滝本","zip_code":"0360101"},{"name":"大坊竹内","zip_code":"0360146"},{"name":"大坊竹原","zip_code":"0360146"},{"name":"大坊福田","zip_code":"0360146"},{"name":"大坊前田","zip_code":"0360146"},{"name":"高木岡崎","zip_code":"0360211"},{"name":"高木岡田","zip_code":"0360211"},{"name":"高木岡部","zip_code":"0360211"},{"name":"高木豊岡","zip_code":"0360211"},{"name":"高木豊田","zip_code":"0360211"},{"name":"高木原田","zip_code":"0360211"},{"name":"高木原富","zip_code":"0360211"},{"name":"高木松元","zip_code":"0360211"},{"name":"高畑熊沢","zip_code":"0360142"},{"name":"高畑高田","zip_code":"0360142"},{"name":"高畑前田","zip_code":"0360142"},{"name":"館田稲村","zip_code":"0360155"},{"name":"館田中前田","zip_code":"0360155"},{"name":"館田西川原田","zip_code":"0360155"},{"name":"館田西和田","zip_code":"0360155"},{"name":"館田東稲村","zip_code":"0360155"},{"name":"館田東前田","zip_code":"0360155"},{"name":"館田東和田","zip_code":"0360155"},{"name":"館田前田","zip_code":"0360155"},{"name":"館田南川原田","zip_code":"0360155"},{"name":"館田元川原田","zip_code":"0360155"},{"name":"館田柳原","zip_code":"0360155"},{"name":"館山板橋","zip_code":"0360162"},{"name":"館山上扇田","zip_code":"0360162"},{"name":"館山上亀岡","zip_code":"0360162"},{"name":"館山川合","zip_code":"0360162"},{"name":"館山下扇田","zip_code":"0360162"},{"name":"館山下亀岡","zip_code":"0360162"},{"name":"館山前田","zip_code":"0360162"},{"name":"中佐渡石田","zip_code":"0360221"},{"name":"中佐渡鎌田","zip_code":"0360221"},{"name":"中佐渡前田","zip_code":"0360221"},{"name":"中佐渡南田","zip_code":"0360221"},{"name":"中佐渡村元","zip_code":"0360221"},{"name":"苗生松一本柳","zip_code":"0360163"},{"name":"苗生松上東田","zip_code":"0360163"},{"name":"苗生松川崎","zip_code":"0360163"},{"name":"苗生松川原田","zip_code":"0360163"},{"name":"苗生松下東田","zip_code":"0360163"},{"name":"苗生松元東田","zip_code":"0360163"},{"name":"新館後野","zip_code":"0360115"},{"name":"新館柏崎","zip_code":"0360115"},{"name":"新館駒泊","zip_code":"0360115"},{"name":"新館島村","zip_code":"0360115"},{"name":"新館野木和","zip_code":"0360115"},{"name":"新館東山","zip_code":"0360115"},{"name":"新館藤巻","zip_code":"0360115"},{"name":"新館藤山","zip_code":"0360115"},{"name":"西野曽江川崎","zip_code":"0360223"},{"name":"西野曽江橋元","zip_code":"0360223"},{"name":"西野曽江広田","zip_code":"0360223"},{"name":"新山岡部","zip_code":"0360231"},{"name":"新山松橋","zip_code":"0360231"},{"name":"新山村元","zip_code":"0360231"},{"name":"新山柳田","zip_code":"0360231"},{"name":"新山早稲田","zip_code":"0360231"},{"name":"原大野","zip_code":"0360243"},{"name":"原上原","zip_code":"0360243"},{"name":"原北原","zip_code":"0360243"},{"name":"原田稲元","zip_code":"0360144"},{"name":"原田今井","zip_code":"0360144"},{"name":"原田沢田","zip_code":"0360144"},{"name":"原田村元","zip_code":"0360144"},{"name":"日沼一本柳","zip_code":"0360233"},{"name":"日沼河原田","zip_code":"0360233"},{"name":"日沼下川原","zip_code":"0360233"},{"name":"日沼下袋","zip_code":"0360233"},{"name":"日沼李田","zip_code":"0360233"},{"name":"日沼高田","zip_code":"0360233"},{"name":"日沼塚越","zip_code":"0360233"},{"name":"日沼樋田","zip_code":"0360233"},{"name":"日沼富田","zip_code":"0360233"},{"name":"日沼富岳","zip_code":"0360233"},{"name":"平田森稲村","zip_code":"0360113"},{"name":"平田森上宮本","zip_code":"0360113"},{"name":"平田森下宮本","zip_code":"0360113"},{"name":"平田森前田","zip_code":"0360113"},{"name":"平田森若松","zip_code":"0360113"},{"name":"広船広沢","zip_code":"0360131"},{"name":"広船福田","zip_code":"0360131"},{"name":"広船山下","zip_code":"0360131"},{"name":"吹上高田","zip_code":"0360143"},{"name":"吹上平岡","zip_code":"0360143"},{"name":"吹上安田","zip_code":"0360143"},{"name":"町居稲村","zip_code":"0360114"},{"name":"町居稲元","zip_code":"0360114"},{"name":"町居西田","zip_code":"0360114"},{"name":"町居南田","zip_code":"0360114"},{"name":"町居山下","zip_code":"0360114"},{"name":"町居山元","zip_code":"0360114"},{"name":"町居横山","zip_code":"0360114"},{"name":"松崎亀井","zip_code":"0360164"},{"name":"松崎西田","zip_code":"0360164"},{"name":"松館浅井","zip_code":"0360165"},{"name":"松館井ノ上","zip_code":"0360165"},{"name":"松館西稲村","zip_code":"0360165"},{"name":"松館西川原田","zip_code":"0360165"},{"name":"松館東稲村","zip_code":"0360165"},{"name":"松館東川原田","zip_code":"0360165"},{"name":"松館松元","zip_code":"0360165"},{"name":"南田中北林元","zip_code":"0360203"},{"name":"南田中北原","zip_code":"0360203"},{"name":"南田中北細田","zip_code":"0360203"},{"name":"南田中北村井","zip_code":"0360203"},{"name":"南田中中村井","zip_code":"0360203"},{"name":"南田中西林元","zip_code":"0360203"},{"name":"南田中西原","zip_code":"0360203"},{"name":"南田中東林元","zip_code":"0360203"},{"name":"南田中南林元","zip_code":"0360203"},{"name":"南田中村内","zip_code":"0360203"},{"name":"本町北柳田","zip_code":"0360103"},{"name":"本町富岡","zip_code":"0360103"},{"name":"本町西宮","zip_code":"0360103"},{"name":"本町平野","zip_code":"0360103"},{"name":"本町南柳田","zip_code":"0360103"},{"name":"本町村元","zip_code":"0360103"},{"name":"八幡崎高野","zip_code":"0360241"},{"name":"八幡崎高原","zip_code":"0360241"},{"name":"八幡崎本林","zip_code":"0360241"},{"name":"八幡崎松枝","zip_code":"0360241"},{"name":"八幡崎松橋","zip_code":"0360241"},{"name":"八幡崎宮田","zip_code":"0360241"},{"name":"八幡崎宮本","zip_code":"0360241"},{"name":"八幡崎本宮","zip_code":"0360241"},{"name":"四ツ屋亀田","zip_code":"0360154"}]},{"name":"東津軽郡平内町","divisions":[{"name":"浅所","zip_code":"0393312"},{"name":"小豆沢","zip_code":"0393364"},{"name":"稲生","zip_code":"0393382"},{"name":"内童子","zip_code":"0393352"},{"name":"狩場沢","zip_code":"0393343"},{"name":"口広","zip_code":"0393342"},{"name":"小湊","zip_code":"0393321"},{"name":"清水川","zip_code":"0393332"},{"name":"白砂","zip_code":"0393302"},{"name":"外童子","zip_code":"0393351"},{"name":"田茂木","zip_code":"0393353"},{"name":"土屋","zip_code":"0393372"},{"name":"中野","zip_code":"0393371"},{"name":"浪打","zip_code":"0393373"},{"name":"沼館","zip_code":"0393313"},{"name":"浜子","zip_code":"0393331"},{"name":"東滝","zip_code":"0393303"},{"name":"東田沢","zip_code":"0393301"},{"name":"福島","zip_code":"0393315"},{"name":"福館","zip_code":"0393311"},{"name":"藤沢","zip_code":"0393361"},{"name":"増田","zip_code":"0393362"},{"name":"松野木","zip_code":"0393333"},{"name":"茂浦","zip_code":"0393381"},{"name":"盛田","zip_code":"0393314"},{"name":"薬師野","zip_code":"0393341"},{"name":"山口","zip_code":"0393363"}]},{"name":"東津軽郡今別町","divisions":[{"name":"今別","zip_code":"0301502"},{"name":"大川平","zip_code":"0301505"},{"name":"大泊","zip_code":"0301512"},{"name":"奥平部","zip_code":"0301515"},{"name":"砂ケ森","zip_code":"0301514"},{"name":"鍋田","zip_code":"0301504"},{"name":"浜名","zip_code":"0301501"},{"name":"袰月","zip_code":"0301513"},{"name":"村元","zip_code":"0301503"},{"name":"山崎","zip_code":"0301511"}]},{"name":"東津軽郡蓬田村","divisions":[{"name":"阿弥陀川","zip_code":"0301212"},{"name":"郷沢","zip_code":"0301203"},{"name":"瀬辺地","zip_code":"0301202"},{"name":"中沢","zip_code":"0301214"},{"name":"長科","zip_code":"0301213"},{"name":"広瀬","zip_code":"0301201"},{"name":"蓬田","zip_code":"0301211"}]},{"name":"東津軽郡外ヶ浜町","divisions":[{"name":"上蟹田","zip_code":"0301309"},{"name":"蟹田","zip_code":"0301303"},{"name":"蟹田石浜","zip_code":"0301301"},{"name":"蟹田大平","zip_code":"0301307"},{"name":"蟹田小国","zip_code":"0301305"},{"name":"蟹田塩越","zip_code":"0301311"},{"name":"蟹田中師","zip_code":"0301302"},{"name":"蟹田南沢","zip_code":"0301304"},{"name":"蟹田山本","zip_code":"0301306"},{"name":"下蟹田","zip_code":"0301308"},{"name":"平舘","zip_code":"0301402"},{"name":"平舘石崎沢","zip_code":"0301405"},{"name":"平舘磯山","zip_code":"0301416"},{"name":"平舘今津","zip_code":"0301413"},{"name":"平舘根岸","zip_code":"0301411"},{"name":"平舘野田","zip_code":"0301412"},{"name":"平舘舟岡","zip_code":"0301415"},{"name":"平舘元宇田","zip_code":"0301403"},{"name":"平舘弥蔵釜","zip_code":"0301404"},{"name":"三厩家ノ上","zip_code":"0301732"},{"name":"三厩宇鉄山","zip_code":"0301719"},{"name":"三厩釜野澤","zip_code":"0301724"},{"name":"三厩上宇鉄","zip_code":"0301722"},{"name":"三厩川柱","zip_code":"0301717"},{"name":"三厩木落","zip_code":"0301712"},{"name":"三厩源兵衛間","zip_code":"0301711"},{"name":"三厩算用師","zip_code":"0301727"},{"name":"三厩四枚橋","zip_code":"0301720"},{"name":"三厩下平","zip_code":"0301729"},{"name":"三厩尻神","zip_code":"0301716"},{"name":"三厩新町","zip_code":"0301733"},{"name":"三厩龍浜","zip_code":"0301711"},{"name":"三厩中浜","zip_code":"0301728"},{"name":"三厩梨ノ木間","zip_code":"0301718"},{"name":"三厩鳴神","zip_code":"0301715"},{"name":"三厩東町","zip_code":"0301737"},{"name":"三厩梹榔","zip_code":"0301714"},{"name":"三厩藤嶋","zip_code":"0301725"},{"name":"三厩本町","zip_code":"0301731"},{"name":"三厩鐇泊","zip_code":"0301721"},{"name":"三厩増川","zip_code":"0301734"},{"name":"三厩緑ケ丘","zip_code":"0301735"},{"name":"三厩元宇鉄","zip_code":"0301723"},{"name":"三厩桃ケ丘","zip_code":"0301736"},{"name":"三厩鎧嶋","zip_code":"0301713"},{"name":"三厩六條間","zip_code":"0301726"}]},{"name":"西津軽郡鰺ヶ沢町","divisions":[{"name":"赤石町","zip_code":"0382731"},{"name":"芦萢町","zip_code":"0382714"},{"name":"新町","zip_code":"0382742"},{"name":"姥袋町","zip_code":"0382735"},{"name":"鬼袋町","zip_code":"0382724"},{"name":"北浮田町","zip_code":"0382701"},{"name":"米町","zip_code":"0382754"},{"name":"小森町","zip_code":"0382722"},{"name":"小屋敷町","zip_code":"0382703"},{"name":"新地町","zip_code":"0382745"},{"name":"建石町","zip_code":"0382702"},{"name":"館前町","zip_code":"0382733"},{"name":"田中町","zip_code":"0382751"},{"name":"種里町","zip_code":"0382725"},{"name":"釣町","zip_code":"0382743"},{"name":"中村町","zip_code":"0382711"},{"name":"長平町","zip_code":"0382712"},{"name":"七ツ石町","zip_code":"0382752"},{"name":"浜町","zip_code":"0382741"},{"name":"浜横沢町","zip_code":"0382715"},{"name":"日照田町","zip_code":"0382732"},{"name":"一ツ森町","zip_code":"0382723"},{"name":"深谷町","zip_code":"0382721"},{"name":"富根町","zip_code":"0382746"},{"name":"本町","zip_code":"0382753"},{"name":"舞戸町","zip_code":"0382761"},{"name":"松代町","zip_code":"0382713"},{"name":"南浮田町","zip_code":"0382705"},{"name":"南金沢町","zip_code":"0382734"},{"name":"湯舟町","zip_code":"0382704"},{"name":"淀町","zip_code":"0382747"},{"name":"漁師町","zip_code":"0382744"}]},{"name":"西津軽郡深浦町","divisions":[{"name":"岩坂","zip_code":"0382502"},{"name":"岩崎","zip_code":"0382202"},{"name":"追良瀬","zip_code":"0382413"},{"name":"大間越","zip_code":"0382208"},{"name":"風合瀬","zip_code":"0382411"},{"name":"上長慶平","zip_code":"0382323"},{"name":"北金ケ沢","zip_code":"0382504"},{"name":"黒崎","zip_code":"0382207"},{"name":"沢辺","zip_code":"0382201"},{"name":"正道尻","zip_code":"0382203"},{"name":"関","zip_code":"0382503"},{"name":"田野沢","zip_code":"0382505"},{"name":"長慶平","zip_code":"0382322"},{"name":"月屋","zip_code":"0382326"},{"name":"驫木","zip_code":"0382412"},{"name":"久田","zip_code":"0382204"},{"name":"広戸","zip_code":"0382321"},{"name":"深浦","zip_code":"0382324"},{"name":"舮作","zip_code":"0382327"},{"name":"松神","zip_code":"0382206"},{"name":"森山","zip_code":"0382205"},{"name":"柳田","zip_code":"0382501"},{"name":"横磯","zip_code":"0382325"}]},{"name":"中津軽郡西目屋村","divisions":[{"name":"居森平","zip_code":"0361422"},{"name":"川原平","zip_code":"0361424"},{"name":"白沢","zip_code":"0361414"},{"name":"杉ケ沢","zip_code":"0361412"},{"name":"砂子瀬","zip_code":"0361423"},{"name":"大秋","zip_code":"0361413"},{"name":"田代","zip_code":"0361411"},{"name":"藤川","zip_code":"0361421"},{"name":"村市","zip_code":"0361415"}]},{"name":"南津軽郡藤崎町","divisions":[{"name":"柏木堰","zip_code":"0383837"},{"name":"亀岡","zip_code":"0383833"},{"name":"久井名舘","zip_code":"0381203"},{"name":"葛野","zip_code":"0383804"},{"name":"郷山前","zip_code":"0381206"},{"name":"小畑","zip_code":"0383812"},{"name":"五林","zip_code":"0383805"},{"name":"榊","zip_code":"0381216"},{"name":"下俵舛","zip_code":"0383836"},{"name":"俵舛","zip_code":"0383835"},{"name":"常盤","zip_code":"0381214"},{"name":"徳下","zip_code":"0381213"},{"name":"富柳","zip_code":"0381202"},{"name":"中島","zip_code":"0383811"},{"name":"中野目","zip_code":"0383831"},{"name":"西豊田","zip_code":"0383803"},{"name":"西中野目","zip_code":"0383834"},{"name":"林崎","zip_code":"0383806"},{"name":"福島","zip_code":"0381211"},{"name":"福舘","zip_code":"0381201"},{"name":"藤越","zip_code":"0383801"},{"name":"藤崎","zip_code":"0383802"},{"name":"増館","zip_code":"0381207"},{"name":"水木","zip_code":"0381204"},{"name":"水沼","zip_code":"0383814"},{"name":"三ツ屋","zip_code":"0381212"},{"name":"矢沢","zip_code":"0383813"},{"name":"吉野田","zip_code":"0381205"},{"name":"吉向","zip_code":"0383832"},{"name":"若松","zip_code":"0381215"}]},{"name":"南津軽郡大鰐町","divisions":[{"name":"居土","zip_code":"0380233"},{"name":"大鰐","zip_code":"0380211"},{"name":"唐牛","zip_code":"0380204"},{"name":"蔵館","zip_code":"0380212"},{"name":"駒木","zip_code":"0380203"},{"name":"鯖石","zip_code":"0380241"},{"name":"島田","zip_code":"0380223"},{"name":"宿川原","zip_code":"0380231"},{"name":"長峰","zip_code":"0380202"},{"name":"苦木","zip_code":"0380201"},{"name":"虹貝","zip_code":"0380221"},{"name":"八幡館","zip_code":"0380243"},{"name":"早瀬野","zip_code":"0380222"},{"name":"三ツ目内","zip_code":"0380232"},{"name":"森山","zip_code":"0380242"}]},{"name":"南津軽郡田舎館村","divisions":[{"name":"和泉","zip_code":"0381142"},{"name":"田舎舘","zip_code":"0381113"},{"name":"枝川","zip_code":"0381104"},{"name":"大根子","zip_code":"0381133"},{"name":"大袋","zip_code":"0381131"},{"name":"大曲","zip_code":"0381123"},{"name":"川部","zip_code":"0381141"},{"name":"境森","zip_code":"0381143"},{"name":"十二川原","zip_code":"0381103"},{"name":"諏訪堂","zip_code":"0381132"},{"name":"高樋","zip_code":"0381111"},{"name":"垂柳","zip_code":"0381112"},{"name":"土矢倉","zip_code":"0381145"},{"name":"東光寺","zip_code":"0381101"},{"name":"堂野前","zip_code":"0381102"},{"name":"豊蒔","zip_code":"0381134"},{"name":"畑中","zip_code":"0381121"},{"name":"八反田","zip_code":"0381122"},{"name":"前田屋敷","zip_code":"0381144"}]},{"name":"北津軽郡板柳町","divisions":[{"name":"赤田","zip_code":"0383683"},{"name":"飯田","zip_code":"0383651"},{"name":"石野","zip_code":"0383682"},{"name":"いたや町","zip_code":"0383685"},{"name":"板柳","zip_code":"0383662"},{"name":"太田","zip_code":"0383642"},{"name":"大俵","zip_code":"0383635"},{"name":"掛落林","zip_code":"0383671"},{"name":"柏木","zip_code":"0383632"},{"name":"狐森","zip_code":"0383633"},{"name":"五幾形","zip_code":"0383636"},{"name":"小幡","zip_code":"0383673"},{"name":"五林平","zip_code":"0383621"},{"name":"三千石","zip_code":"0383684"},{"name":"常海橋","zip_code":"0383623"},{"name":"高増","zip_code":"0383634"},{"name":"滝井","zip_code":"0383624"},{"name":"舘野越","zip_code":"0383625"},{"name":"辻","zip_code":"0383645"},{"name":"長野","zip_code":"0383643"},{"name":"野中","zip_code":"0383681"},{"name":"灰沼","zip_code":"0383672"},{"name":"深味","zip_code":"0383641"},{"name":"福野田","zip_code":"0383661"},{"name":"牡丹森","zip_code":"0383631"},{"name":"夕顔関","zip_code":"0383622"},{"name":"横沢","zip_code":"0383644"}]},{"name":"北津軽郡鶴田町","divisions":[{"name":"大巻","zip_code":"0383501"},{"name":"沖","zip_code":"0383513"},{"name":"尾原","zip_code":"0383541"},{"name":"木筒","zip_code":"0383531"},{"name":"胡桃舘","zip_code":"0383523"},{"name":"強巻","zip_code":"0383502"},{"name":"境","zip_code":"0383524"},{"name":"菖蒲川","zip_code":"0383521"},{"name":"瀬良沢","zip_code":"0383512"},{"name":"大性","zip_code":"0383525"},{"name":"鶴田","zip_code":"0383503"},{"name":"鶴泊","zip_code":"0383522"},{"name":"中野","zip_code":"0383514"},{"name":"野木","zip_code":"0383532"},{"name":"廻堰","zip_code":"0383542"},{"name":"妙堂崎","zip_code":"0383543"},{"name":"山道","zip_code":"0383515"},{"name":"横萢","zip_code":"0383511"}]},{"name":"北津軽郡中泊町","divisions":[{"name":"芦野","zip_code":"0370316"},{"name":"今泉","zip_code":"0370301"},{"name":"薄市","zip_code":"0370302"},{"name":"大沢内","zip_code":"0370311"},{"name":"尾別","zip_code":"0370304"},{"name":"小泊朝間","zip_code":"0370512"},{"name":"小泊稲荷","zip_code":"0370523"},{"name":"小泊嗽沢","zip_code":"0370541"},{"name":"小泊漆流","zip_code":"0370534"},{"name":"小泊大山長根","zip_code":"0370542"},{"name":"小泊尾崎道","zip_code":"0370535"},{"name":"小泊折戸","zip_code":"0370521"},{"name":"小泊小泊","zip_code":"0370522"},{"name":"小泊鮫貝","zip_code":"0370525"},{"name":"小泊下前","zip_code":"0370538"},{"name":"小泊白倉","zip_code":"0370533"},{"name":"小泊砂山","zip_code":"0370511"},{"name":"小泊長坂","zip_code":"0370531"},{"name":"小泊中間","zip_code":"0370536"},{"name":"小泊梨子木平","zip_code":"0370532"},{"name":"小泊浜野","zip_code":"0370514"},{"name":"小泊渕岩","zip_code":"0370537"},{"name":"小泊坊主沢","zip_code":"0370543"},{"name":"小泊袰内","zip_code":"0301701"},{"name":"小泊水澗","zip_code":"0370524"},{"name":"小泊割長根","zip_code":"0370513"},{"name":"高根","zip_code":"0370303"},{"name":"田茂木","zip_code":"0370318"},{"name":"富野","zip_code":"0370313"},{"name":"豊岡","zip_code":"0370315"},{"name":"豊島","zip_code":"0370312"},{"name":"中里","zip_code":"0370305"},{"name":"長泥","zip_code":"0370317"},{"name":"八幡","zip_code":"0370309"},{"name":"福浦","zip_code":"0370314"},{"name":"深郷田","zip_code":"0370308"},{"name":"宮川","zip_code":"0370306"},{"name":"宮野沢","zip_code":"0370307"}]},{"name":"上北郡野辺地町","divisions":[{"name":"赤坂","zip_code":"0393116"},{"name":"有戸","zip_code":"0393108"},{"name":"有戸鳥井平","zip_code":"0393105"},{"name":"家ノ上","zip_code":"0393178"},{"name":"石神裏","zip_code":"0393111"},{"name":"一ノ渡","zip_code":"0393144"},{"name":"大平下","zip_code":"0393174"},{"name":"大月平","zip_code":"0393104"},{"name":"小沢平","zip_code":"0393107"},{"name":"蟹田","zip_code":"0393106"},{"name":"上河渡頭","zip_code":"0393174"},{"name":"上川原","zip_code":"0393127"},{"name":"上小中野","zip_code":"0393154"},{"name":"上前田","zip_code":"0393128"},{"name":"上御手洗瀬","zip_code":"0393171"},{"name":"川目","zip_code":"0393143"},{"name":"観音林後","zip_code":"0393158"},{"name":"観音林前田","zip_code":"0393165"},{"name":"観音林脇","zip_code":"0393159"},{"name":"木明","zip_code":"0393105"},{"name":"切明","zip_code":"0393155"},{"name":"久田","zip_code":"0393142"},{"name":"笹館","zip_code":"0393162"},{"name":"獅子沢","zip_code":"0393157"},{"name":"下道","zip_code":"0393108"},{"name":"柴崎","zip_code":"0393177"},{"name":"下河渡頭","zip_code":"0393174"},{"name":"下小中野","zip_code":"0393152"},{"name":"下坂","zip_code":"0393117"},{"name":"下前田","zip_code":"0393126"},{"name":"下松ノ木平","zip_code":"0393146"},{"name":"下御手洗瀬","zip_code":"0393171"},{"name":"下与田川","zip_code":"0393147"},{"name":"白岩","zip_code":"0393124"},{"name":"白岩向","zip_code":"0393151"},{"name":"新田","zip_code":"0393129"},{"name":"新町裏","zip_code":"0393163"},{"name":"地続山","zip_code":"0393175"},{"name":"陣場川原","zip_code":"0393173"},{"name":"助佐小路","zip_code":"0393114"},{"name":"雑吉沢","zip_code":"0393122"},{"name":"滝田","zip_code":"0393171"},{"name":"田名部道","zip_code":"0393103"},{"name":"種川","zip_code":"0393123"},{"name":"田狭沢","zip_code":"0393113"},{"name":"田端","zip_code":"0393174"},{"name":"タラノ木","zip_code":"0393115"},{"name":"槻ノ木","zip_code":"0393171"},{"name":"寺ノ沢","zip_code":"0393118"},{"name":"戸田ノ沢","zip_code":"0393129"},{"name":"鳥井平","zip_code":"0393172"},{"name":"中小中野","zip_code":"0393153"},{"name":"中田","zip_code":"0393108"},{"name":"中道","zip_code":"0393112"},{"name":"中屋敷","zip_code":"0393143"},{"name":"中渡","zip_code":"0393176"},{"name":"鳴沢","zip_code":"0393141"},{"name":"二本木","zip_code":"0393171"},{"name":"二本木向","zip_code":"0393167"},{"name":"二本木向前田","zip_code":"0393166"},{"name":"野辺地","zip_code":"0393131"},{"name":"二十平","zip_code":"0393171"},{"name":"八ノ木谷地","zip_code":"0393177"},{"name":"浜掛","zip_code":"0393101"},{"name":"東太田沢","zip_code":"0393105"},{"name":"干草橋","zip_code":"0393105"},{"name":"昼場","zip_code":"0393128"},{"name":"枇杷野","zip_code":"0393156"},{"name":"船橋","zip_code":"0393121"},{"name":"古明前","zip_code":"0393106"},{"name":"坊ノ塚","zip_code":"0393125"},{"name":"前田","zip_code":"0393164"},{"name":"前平","zip_code":"0393168"},{"name":"馬門","zip_code":"0393179"},{"name":"馬門道","zip_code":"0393161"},{"name":"松ノ木","zip_code":"0393157"},{"name":"松ノ木平","zip_code":"0393145"},{"name":"御手洗瀬","zip_code":"0393171"},{"name":"明前","zip_code":"0393106"},{"name":"向田","zip_code":"0393109"},{"name":"餅粟川原","zip_code":"0393129"},{"name":"湯沢","zip_code":"0393175"},{"name":"湯沢尻","zip_code":"0393175"},{"name":"与田川尻","zip_code":"0393148"},{"name":"米内沢","zip_code":"0393102"}]},{"name":"上北郡七戸町","divisions":[{"name":"荒熊内","zip_code":"0392501"},{"name":"荒屋","zip_code":"0392534"},{"name":"有田沢","zip_code":"0392543"},{"name":"家ノ裏","zip_code":"0392816"},{"name":"家ノ上","zip_code":"0392825"},{"name":"家ノ下","zip_code":"0392824"},{"name":"家ノ前","zip_code":"0392833"},{"name":"市ノ渡","zip_code":"0392865"},{"name":"銀南木","zip_code":"0392561"},{"name":"猪ノ鼻","zip_code":"0392741"},{"name":"上ノ山","zip_code":"0392585"},{"name":"上屋田","zip_code":"0392587"},{"name":"後川原","zip_code":"0392584"},{"name":"後平","zip_code":"0392731"},{"name":"宇道坂","zip_code":"0392574"},{"name":"姥沢","zip_code":"0392771"},{"name":"海内","zip_code":"0392586"},{"name":"上町野","zip_code":"0392526"},{"name":"えぞ花","zip_code":"0392507"},{"name":"榎林家ノ後","zip_code":"0392756"},{"name":"榎林家ノ前","zip_code":"0392755"},{"name":"榎林古屋敷","zip_code":"0392779"},{"name":"夷堂","zip_code":"0392745"},{"name":"大池","zip_code":"0392508"},{"name":"大沢","zip_code":"0392502"},{"name":"太田","zip_code":"0392531"},{"name":"大平","zip_code":"0392821"},{"name":"太田野","zip_code":"0392514"},{"name":"大林","zip_code":"0392532"},{"name":"尾山頭","zip_code":"0392715"},{"name":"貝塚家ノ前","zip_code":"0392751"},{"name":"貝ノ口","zip_code":"0392578"},{"name":"影津内","zip_code":"0392523"},{"name":"鍛治林","zip_code":"0392577"},{"name":"金沢平","zip_code":"0392831"},{"name":"上川原","zip_code":"0392725"},{"name":"上志多","zip_code":"0392714"},{"name":"上平","zip_code":"0392724"},{"name":"川去","zip_code":"0392533"},{"name":"北天間舘","zip_code":"0392712"},{"name":"倉岡","zip_code":"0392562"},{"name":"倉越","zip_code":"0392522"},{"name":"栗ノ木沢","zip_code":"0392866"},{"name":"五庵ノ下","zip_code":"0392877"},{"name":"小田下","zip_code":"0392812"},{"name":"小田平","zip_code":"0392813"},{"name":"小又","zip_code":"0392822"},{"name":"古和備","zip_code":"0392856"},{"name":"賽ノ神","zip_code":"0392537"},{"name":"竿打川原","zip_code":"0392753"},{"name":"坂ノ外","zip_code":"0392778"},{"name":"作田","zip_code":"0392575"},{"name":"作田道","zip_code":"0392845"},{"name":"桜田","zip_code":"0392576"},{"name":"左組","zip_code":"0392568"},{"name":"さそう","zip_code":"0392852"},{"name":"さそう平","zip_code":"0392853"},{"name":"淋代","zip_code":"0392875"},{"name":"笊田","zip_code":"0392512"},{"name":"笊田川久保","zip_code":"0392511"},{"name":"地蔵堂","zip_code":"0392754"},{"name":"下タ川原","zip_code":"0392872"},{"name":"七戸","zip_code":"0392525"},{"name":"柴舘道ノ下","zip_code":"0392774"},{"name":"清水頭","zip_code":"0392546"},{"name":"志茂川原","zip_code":"0392721"},{"name":"下モ川原","zip_code":"0392864"},{"name":"下志多","zip_code":"0392723"},{"name":"下田坪","zip_code":"0392772"},{"name":"下鳥谷部","zip_code":"0392841"},{"name":"下見町","zip_code":"0392549"},{"name":"白石","zip_code":"0392871"},{"name":"城ノ後","zip_code":"0392572"},{"name":"治部袋","zip_code":"0392565"},{"name":"李川原","zip_code":"0392726"},{"name":"李沢家ノ後","zip_code":"0392777"},{"name":"李沢家ノ前","zip_code":"0392776"},{"name":"李沢道ノ下","zip_code":"0392775"},{"name":"西野","zip_code":"0392557"},{"name":"堰代","zip_code":"0392876"},{"name":"堰根","zip_code":"0392851"},{"name":"蒼前","zip_code":"0392515"},{"name":"底田","zip_code":"0392855"},{"name":"卒古沢","zip_code":"0392732"},{"name":"卒古沢南平","zip_code":"0392757"},{"name":"高井名","zip_code":"0392854"},{"name":"高屋敷","zip_code":"0392558"},{"name":"舘野","zip_code":"0392516"},{"name":"立野頭","zip_code":"0392505"},{"name":"館ノ下","zip_code":"0392823"},{"name":"塚長根","zip_code":"0392744"},{"name":"附田家ノ前","zip_code":"0392747"},{"name":"附田川目","zip_code":"0392746"},{"name":"坪川原","zip_code":"0392874"},{"name":"鶴打田","zip_code":"0392552"},{"name":"鶴児平","zip_code":"0392567"},{"name":"手代森","zip_code":"0392844"},{"name":"寺裏","zip_code":"0392524"},{"name":"寺沢前","zip_code":"0392743"},{"name":"寺下","zip_code":"0392538"},{"name":"天神林","zip_code":"0392518"},{"name":"天王","zip_code":"0392521"},{"name":"天間舘荒谷","zip_code":"0392811"},{"name":"天間舘大沢","zip_code":"0392861"},{"name":"天間舘寒水","zip_code":"0392873"},{"name":"天間舘倉越","zip_code":"0392857"},{"name":"天間舘前川原","zip_code":"0392733"},{"name":"十枝内","zip_code":"0392863"},{"name":"十役野","zip_code":"0392579"},{"name":"豊間内","zip_code":"0392503"},{"name":"鳥谷部","zip_code":"0392846"},{"name":"中岫","zip_code":"0392554"},{"name":"中岫太田嶋","zip_code":"0392782"},{"name":"中岫長沢下","zip_code":"0392784"},{"name":"中岫番屋","zip_code":"0392783"},{"name":"中岫東道添","zip_code":"0392786"},{"name":"中岫村ノ上","zip_code":"0392785"},{"name":"中天間舘","zip_code":"0392711"},{"name":"中鳥谷","zip_code":"0392842"},{"name":"中野","zip_code":"0392826"},{"name":"中村","zip_code":"0392539"},{"name":"夏間木","zip_code":"0392862"},{"name":"夏焼","zip_code":"0392517"},{"name":"西上川原","zip_code":"0392582"},{"name":"西槻木","zip_code":"0392556"},{"name":"沼ノ沢","zip_code":"0392535"},{"name":"野佐掛","zip_code":"0392536"},{"name":"野崎","zip_code":"0392801"},{"name":"野崎狐久保","zip_code":"0392804"},{"name":"野崎前平","zip_code":"0392802"},{"name":"野崎森ノ下","zip_code":"0392803"},{"name":"野続","zip_code":"0392573"},{"name":"萩ノ沢","zip_code":"0392542"},{"name":"橋ノ上","zip_code":"0392843"},{"name":"鉢森平","zip_code":"0392752"},{"name":"八栗平","zip_code":"0392544"},{"name":"八尺堂","zip_code":"0392553"},{"name":"放森","zip_code":"0392566"},{"name":"花松林ノ根","zip_code":"0392781"},{"name":"原久保","zip_code":"0392805"},{"name":"東上川原","zip_code":"0392581"},{"name":"東槻木","zip_code":"0392513"},{"name":"東天間舘","zip_code":"0392713"},{"name":"膝森","zip_code":"0392506"},{"name":"寒水","zip_code":"0392504"},{"name":"二ツ森家ノ後","zip_code":"0392761"},{"name":"二ツ森家ノ表","zip_code":"0392763"},{"name":"二ツ森家ノ下","zip_code":"0392762"},{"name":"舟場向川久保","zip_code":"0392742"},{"name":"古屋敷","zip_code":"0392564"},{"name":"別曽","zip_code":"0392545"},{"name":"蛇坂","zip_code":"0392571"},{"name":"菩提木","zip_code":"0392716"},{"name":"前川原","zip_code":"0392583"},{"name":"前左野","zip_code":"0392773"},{"name":"前田","zip_code":"0392555"},{"name":"馬門川原","zip_code":"0392569"},{"name":"町","zip_code":"0392527"},{"name":"松ケ沢","zip_code":"0392835"},{"name":"道ノ上","zip_code":"0392832"},{"name":"道ノ下","zip_code":"0392814"},{"name":"南舘向","zip_code":"0392748"},{"name":"都平","zip_code":"0392541"},{"name":"見町","zip_code":"0392548"},{"name":"向川原","zip_code":"0392722"},{"name":"向平","zip_code":"0392563"},{"name":"向中野川向","zip_code":"0392834"},{"name":"森ケ沢","zip_code":"0392828"},{"name":"森ノ上","zip_code":"0392827"},{"name":"森ノ下","zip_code":"0392815"},{"name":"薬師平","zip_code":"0392551"},{"name":"矢倉","zip_code":"0392547"},{"name":"柳平","zip_code":"0392717"},{"name":"山屋","zip_code":"0392559"},{"name":"和田","zip_code":"0392589"},{"name":"和田下","zip_code":"0392588"}]},{"name":"上北郡六戸町","divisions":[{"name":"犬落瀬","zip_code":"0330071"},{"name":"折茂","zip_code":"0330072"},{"name":"金矢","zip_code":"0330073"},{"name":"上吉田","zip_code":"0392311"},{"name":"小平","zip_code":"0392314"},{"name":"小松ケ丘","zip_code":"0330074"},{"name":"下吉田","zip_code":"0392312"},{"name":"鶴喰","zip_code":"0392313"},{"name":"柳町","zip_code":"0392315"}]},{"name":"上北郡横浜町","divisions":[{"name":"有畑","zip_code":"0394106"},{"name":"家ノ前川目","zip_code":"0394113"},{"name":"稲荷平","zip_code":"0394115"},{"name":"夷ケ沢平","zip_code":"0394112"},{"name":"大畑","zip_code":"0394111"},{"name":"椛名木","zip_code":"0394131"},{"name":"上イタヤノ木","zip_code":"0394142"},{"name":"茅平","zip_code":"0394123"},{"name":"川尻","zip_code":"0394124"},{"name":"川太郎川目","zip_code":"0394103"},{"name":"下川原","zip_code":"0394137"},{"name":"下苗代川目","zip_code":"0394104"},{"name":"舘の後","zip_code":"0394133"},{"name":"太郎須田","zip_code":"0394132"},{"name":"塚名平","zip_code":"0394138"},{"name":"寺下","zip_code":"0394145"},{"name":"百目木","zip_code":"0394152"},{"name":"豊栄平","zip_code":"0394155"},{"name":"鶏ケ唄","zip_code":"0394122"},{"name":"中畑","zip_code":"0394116"},{"name":"苗代川目","zip_code":"0394105"},{"name":"鶏沢","zip_code":"0394117"},{"name":"浜懸","zip_code":"0394144"},{"name":"浜田","zip_code":"0394102"},{"name":"林尻","zip_code":"0394101"},{"name":"林の後","zip_code":"0394135"},{"name":"林の脇","zip_code":"0394134"},{"name":"桧木","zip_code":"0394121"},{"name":"雲雀平","zip_code":"0394156"},{"name":"二又","zip_code":"0394157"},{"name":"吹越","zip_code":"0394153"},{"name":"大豆田","zip_code":"0394114"},{"name":"三保野","zip_code":"0394141"},{"name":"明神平","zip_code":"0394154"},{"name":"向平","zip_code":"0394151"},{"name":"屋敷形","zip_code":"0394143"},{"name":"横浜","zip_code":"0394136"}]},{"name":"上北郡東北町","divisions":[{"name":"赤川道","zip_code":"0392657"},{"name":"空久保","zip_code":"0392604"},{"name":"旭北","zip_code":"0392406"},{"name":"旭南","zip_code":"0392407"},{"name":"家ノ下タ","zip_code":"0392685"},{"name":"家ノ前","zip_code":"0392681"},{"name":"五十嵐","zip_code":"0392602"},{"name":"石坂","zip_code":"0392682"},{"name":"板橋山","zip_code":"0392683"},{"name":"後久保","zip_code":"0392626"},{"name":"内蛯沢道ノ上","zip_code":"0392655"},{"name":"内蛯沢向","zip_code":"0392656"},{"name":"宇道坂","zip_code":"0392686"},{"name":"姥沢","zip_code":"0392607"},{"name":"馬尻","zip_code":"0392673"},{"name":"上野","zip_code":"0392401"},{"name":"狼ノ沢","zip_code":"0392612"},{"name":"大浦","zip_code":"0392402"},{"name":"大久保","zip_code":"0392623"},{"name":"大沢","zip_code":"0392651"},{"name":"大平","zip_code":"0392683"},{"name":"大撫沢","zip_code":"0392688"},{"name":"大籏屋","zip_code":"0392673"},{"name":"往来ノ上","zip_code":"0392636"},{"name":"往来ノ下","zip_code":"0392634"},{"name":"小沢","zip_code":"0392671"},{"name":"乙越","zip_code":"0392635"},{"name":"乙供","zip_code":"0392664"},{"name":"乙供山","zip_code":"0392666"},{"name":"乙部道ノ上","zip_code":"0392643"},{"name":"乙部道ノ下","zip_code":"0392643"},{"name":"ガス平","zip_code":"0392601"},{"name":"数牛","zip_code":"0392606"},{"name":"上板橋家ノ後","zip_code":"0392685"},{"name":"上北北","zip_code":"0392404"},{"name":"上北南","zip_code":"0392405"},{"name":"上久保","zip_code":"0392626"},{"name":"上笹橋","zip_code":"0392661"},{"name":"上清水目","zip_code":"0392687"},{"name":"北膳前","zip_code":"0392668"},{"name":"狐沢山","zip_code":"0392678"},{"name":"切左坂道ノ上","zip_code":"0392616"},{"name":"切左坂道ノ下","zip_code":"0392614"},{"name":"栗山添","zip_code":"0392672"},{"name":"枋木","zip_code":"0392641"},{"name":"塞ノ神","zip_code":"0392686"},{"name":"坂ノ下","zip_code":"0392678"},{"name":"淋代","zip_code":"0392605"},{"name":"漆玉","zip_code":"0392627"},{"name":"篠内平","zip_code":"0392668"},{"name":"下板橋","zip_code":"0392676"},{"name":"下笹橋","zip_code":"0392662"},{"name":"下山","zip_code":"0392653"},{"name":"素柄邸","zip_code":"0392633"},{"name":"膳前","zip_code":"0392667"},{"name":"添ノ沢","zip_code":"0392686"},{"name":"外蛯沢後久保","zip_code":"0392647"},{"name":"外蛯沢北久保","zip_code":"0392648"},{"name":"外蛯沢西平","zip_code":"0392646"},{"name":"外蛯沢前平","zip_code":"0392645"},{"name":"高森","zip_code":"0392605"},{"name":"滝沢平","zip_code":"0392631"},{"name":"舘","zip_code":"0392635"},{"name":"蓼内久保","zip_code":"0392624"},{"name":"舘花","zip_code":"0392663"},{"name":"田ノ沢","zip_code":"0392621"},{"name":"田面木","zip_code":"0392678"},{"name":"千曳","zip_code":"0392675"},{"name":"千曳下山","zip_code":"0392674"},{"name":"長者久保","zip_code":"0392678"},{"name":"堤尻","zip_code":"0392626"},{"name":"鶴ケ崎","zip_code":"0392623"},{"name":"塔ノ沢山","zip_code":"0392654"},{"name":"鳥口平","zip_code":"0392635"},{"name":"中村道ノ上","zip_code":"0392611"},{"name":"中村道ノ下","zip_code":"0392611"},{"name":"長久保","zip_code":"0392625"},{"name":"新舘","zip_code":"0392403"},{"name":"沼添左ノ平","zip_code":"0392612"},{"name":"子ノ鳥平","zip_code":"0392613"},{"name":"野田頭","zip_code":"0392613"},{"name":"野田頭山","zip_code":"0392613"},{"name":"野田尻","zip_code":"0392613"},{"name":"浜家苫","zip_code":"0392622"},{"name":"浜台","zip_code":"0392612"},{"name":"林ノ下","zip_code":"0392687"},{"name":"日影林ノ上山","zip_code":"0392632"},{"name":"寒水","zip_code":"0392642"},{"name":"寒水下","zip_code":"0392642"},{"name":"寒水山","zip_code":"0392642"},{"name":"夫雑原","zip_code":"0392674"},{"name":"夫雑原下山","zip_code":"0392677"},{"name":"船ケ沢","zip_code":"0392622"},{"name":"古屋敷","zip_code":"0392624"},{"name":"細津","zip_code":"0392615"},{"name":"細津橋ノ上","zip_code":"0392602"},{"name":"ほとけ沢","zip_code":"0392652"},{"name":"保戸沢家ノ上","zip_code":"0392644"},{"name":"保戸沢家ノ前","zip_code":"0392644"},{"name":"保戸沢家ノ後","zip_code":"0392644"},{"name":"饅頭長根","zip_code":"0392604"},{"name":"水流","zip_code":"0392604"},{"name":"水喰","zip_code":"0392617"},{"name":"水喰向","zip_code":"0392617"},{"name":"道ノ北","zip_code":"0392624"},{"name":"向平","zip_code":"0392684"},{"name":"向籏屋","zip_code":"0392672"},{"name":"向屋敷","zip_code":"0392673"},{"name":"萌出道ノ上","zip_code":"0392615"},{"name":"萌出道ノ下","zip_code":"0392615"},{"name":"谷地頭","zip_code":"0392606"},{"name":"柳沢","zip_code":"0392665"},{"name":"山添","zip_code":"0392681"},{"name":"山ノ下","zip_code":"0392673"},{"name":"湯沢","zip_code":"0392682"},{"name":"横沢","zip_code":"0392604"},{"name":"横沢頭","zip_code":"0392604"},{"name":"横沢山","zip_code":"0392603"},{"name":"横志多","zip_code":"0392623"},{"name":"和山平","zip_code":"0392633"}]},{"name":"上北郡六ヶ所村","divisions":[{"name":"尾駮","zip_code":"0393212"},{"name":"倉内","zip_code":"0393215"},{"name":"鷹架","zip_code":"0393213"},{"name":"出戸","zip_code":"0393211"},{"name":"泊","zip_code":"0394301"},{"name":"平沼","zip_code":"0393214"}]},{"name":"上北郡おいらせ町","divisions":[{"name":"青葉","zip_code":"0392189"},{"name":"赤田前","zip_code":"0392147"},{"name":"秋堂","zip_code":"0392116"},{"name":"明土","zip_code":"0392141"},{"name":"阿光坊","zip_code":"0392165"},{"name":"洗平","zip_code":"0392172"},{"name":"犬毛谷地","zip_code":"0392113"},{"name":"牛込平","zip_code":"0392217"},{"name":"後田","zip_code":"0392216"},{"name":"鶉久保","zip_code":"0392182"},{"name":"鶉久保山","zip_code":"0392183"},{"name":"獺野","zip_code":"0392253"},{"name":"上明堂","zip_code":"0392225"},{"name":"上川原","zip_code":"0392133"},{"name":"上久保","zip_code":"0392185"},{"name":"上前田","zip_code":"0392221"},{"name":"上谷地","zip_code":"0392145"},{"name":"川端","zip_code":"0392117"},{"name":"木崎","zip_code":"0392127"},{"name":"北下田","zip_code":"0392186"},{"name":"木ノ下西","zip_code":"0392155"},{"name":"木ノ下東","zip_code":"0392157"},{"name":"木ノ下南","zip_code":"0392156"},{"name":"黒坂谷地","zip_code":"0392252"},{"name":"小前谷地","zip_code":"0392142"},{"name":"境田","zip_code":"0392124"},{"name":"三本木","zip_code":"0392125"},{"name":"下明堂","zip_code":"0392224"},{"name":"下境","zip_code":"0392121"},{"name":"下前田","zip_code":"0392222"},{"name":"下屋敷","zip_code":"0392215"},{"name":"上水下","zip_code":"0392143"},{"name":"新助川原","zip_code":"0392226"},{"name":"新田","zip_code":"0392211"},{"name":"神明前","zip_code":"0392164"},{"name":"住吉","zip_code":"0392180"},{"name":"千刈田","zip_code":"0392235"},{"name":"染屋","zip_code":"0392128"},{"name":"高田","zip_code":"0392114"},{"name":"丈の端","zip_code":"0392144"},{"name":"立蛇","zip_code":"0392135"},{"name":"館越","zip_code":"0392163"},{"name":"土取","zip_code":"0392255"},{"name":"堤田","zip_code":"0392234"},{"name":"豊栄","zip_code":"0392102"},{"name":"豊原","zip_code":"0392154"},{"name":"苗平谷地","zip_code":"0392223"},{"name":"苗振谷地","zip_code":"0392254"},{"name":"中下田","zip_code":"0392136"},{"name":"中平下長根山","zip_code":"0392129"},{"name":"中野平","zip_code":"0392112"},{"name":"中谷地","zip_code":"0392146"},{"name":"菜飯","zip_code":"0392115"},{"name":"西後谷地","zip_code":"0392111"},{"name":"新敷","zip_code":"0392171"},{"name":"西下川原","zip_code":"0392161"},{"name":"西下谷地","zip_code":"0392123"},{"name":"西前川原","zip_code":"0392132"},{"name":"沼小屋","zip_code":"0392122"},{"name":"沼端","zip_code":"0392233"},{"name":"馳下り","zip_code":"0392134"},{"name":"浜道","zip_code":"0392184"},{"name":"東後谷地","zip_code":"0392232"},{"name":"東下川原","zip_code":"0392212"},{"name":"東下谷地","zip_code":"0392231"},{"name":"東前川原","zip_code":"0392214"},{"name":"彦七川原","zip_code":"0392118"},{"name":"一川目","zip_code":"0392203"},{"name":"深沢","zip_code":"0392204"},{"name":"深沢平","zip_code":"0392205"},{"name":"瓢","zip_code":"0392173"},{"name":"二川目","zip_code":"0392201"},{"name":"古間木山","zip_code":"0392181"},{"name":"堀ノ内","zip_code":"0392213"},{"name":"間木","zip_code":"0392126"},{"name":"松原","zip_code":"0392206"},{"name":"緑ケ丘","zip_code":"0392187"},{"name":"南下田","zip_code":"0392162"},{"name":"向川原","zip_code":"0392131"},{"name":"向坂","zip_code":"0392251"},{"name":"向平","zip_code":"0392202"},{"name":"向山","zip_code":"0392151"},{"name":"向山東","zip_code":"0392152"},{"name":"山崎","zip_code":"0392153"},{"name":"洋光台","zip_code":"0392236"},{"name":"若葉","zip_code":"0392188"}]},{"name":"下北郡大間町","divisions":[{"name":"大間","zip_code":"0394601"},{"name":"奥戸","zip_code":"0394602"}]},{"name":"下北郡東通村","divisions":[{"name":"岩屋","zip_code":"0350113"},{"name":"大利","zip_code":"0350001"},{"name":"小田野沢","zip_code":"0394223"},{"name":"蒲野沢","zip_code":"0350104"},{"name":"猿ケ森","zip_code":"0394221"},{"name":"尻労","zip_code":"0350112"},{"name":"白糠","zip_code":"0394224"},{"name":"尻屋","zip_code":"0350111"},{"name":"砂子又","zip_code":"0394222"},{"name":"田屋","zip_code":"0350005"},{"name":"野牛","zip_code":"0350003"},{"name":"目名","zip_code":"0350002"}]},{"name":"下北郡風間浦村","divisions":[{"name":"易国間","zip_code":"0394502"},{"name":"下風呂","zip_code":"0394501"},{"name":"蛇浦","zip_code":"0394503"}]},{"name":"下北郡佐井村","divisions":[{"name":"佐井","zip_code":"0394711"},{"name":"長後","zip_code":"0394712"}]},{"name":"三戸郡三戸町","divisions":[{"name":"泉山","zip_code":"0390111"},{"name":"梅内","zip_code":"0390112"},{"name":"貝守","zip_code":"0390453"},{"name":"川守田","zip_code":"0390141"},{"name":"川守田町","zip_code":"0390143"},{"name":"久慈町","zip_code":"0390142"},{"name":"在府小路町","zip_code":"0390132"},{"name":"蛇沼","zip_code":"0390451"},{"name":"同心町","zip_code":"0390134"},{"name":"斗内","zip_code":"0390122"},{"name":"豊川","zip_code":"0390121"},{"name":"袴田","zip_code":"0390452"},{"name":"馬喰町","zip_code":"0390133"},{"name":"二日町","zip_code":"0390131"},{"name":"六日町","zip_code":"0390144"},{"name":"目時","zip_code":"0390113"},{"name":"八日町","zip_code":"0390135"}]},{"name":"三戸郡五戸町","divisions":[{"name":"赤川","zip_code":"0391508"},{"name":"赤川前","zip_code":"0391508"},{"name":"赤坂","zip_code":"0391561"},{"name":"浅水","zip_code":"0391528"},{"name":"愛宕後","zip_code":"0391536"},{"name":"愛宕下タ","zip_code":"0391536"},{"name":"愛宕丁","zip_code":"0391536"},{"name":"油出","zip_code":"0391556"},{"name":"荒町","zip_code":"0391534"},{"name":"五百窪","zip_code":"0391521"},{"name":"石沢境","zip_code":"0391539"},{"name":"石仏","zip_code":"0391505"},{"name":"石仏上川原","zip_code":"0391505"},{"name":"石仏下川原","zip_code":"0391505"},{"name":"石仏前","zip_code":"0391505"},{"name":"泉窪","zip_code":"0391521"},{"name":"市川道十文字","zip_code":"0391516"},{"name":"銀杏木","zip_code":"0391568"},{"name":"銀杏木前","zip_code":"0391568"},{"name":"一本木","zip_code":"0391568"},{"name":"一本木前","zip_code":"0391568"},{"name":"兎内","zip_code":"0391504"},{"name":"兎内上保土沢","zip_code":"0391504"},{"name":"兎内下保土沢","zip_code":"0391504"},{"name":"兎内下川原","zip_code":"0391504"},{"name":"兎内下谷地","zip_code":"0391504"},{"name":"姥堤","zip_code":"0391552"},{"name":"ウルエ長根","zip_code":"0391537"},{"name":"ウルエ長根下","zip_code":"0391537"},{"name":"蛯川後","zip_code":"0391507"},{"name":"蛯川前川原","zip_code":"0391507"},{"name":"蛯川村","zip_code":"0391507"},{"name":"追分","zip_code":"0391537"},{"name":"扇田","zip_code":"0391527"},{"name":"應田","zip_code":"0391568"},{"name":"大久保","zip_code":"0391503"},{"name":"大渡","zip_code":"0391521"},{"name":"大渡道ノ下","zip_code":"0391521"},{"name":"岡谷地","zip_code":"0391563"},{"name":"鍜冶屋窪","zip_code":"0391511"},{"name":"鍜冶屋窪上ミ","zip_code":"0391511"},{"name":"鍜冶屋敷","zip_code":"0391511"},{"name":"上市川","zip_code":"0391501"},{"name":"上兎内","zip_code":"0391504"},{"name":"上大町","zip_code":"0391533"},{"name":"上川原","zip_code":"0391557"},{"name":"上新道","zip_code":"0391508"},{"name":"上大平楽","zip_code":"0391567"},{"name":"上高田","zip_code":"0391552"},{"name":"上長下","zip_code":"0391526"},{"name":"上新井田","zip_code":"0391551"},{"name":"上新井田前","zip_code":"0391551"},{"name":"上保土沢","zip_code":"0391523"},{"name":"上谷地","zip_code":"0391507"},{"name":"傘松","zip_code":"0391568"},{"name":"傘松前","zip_code":"0391568"},{"name":"川原町","zip_code":"0391554"},{"name":"川原町裏","zip_code":"0391554"},{"name":"川原町下裏","zip_code":"0391553"},{"name":"川原町西裏","zip_code":"0391553"},{"name":"観音堂","zip_code":"0391532"},{"name":"狐森","zip_code":"0391531"},{"name":"狐森北","zip_code":"0391531"},{"name":"久蔵窪","zip_code":"0391521"},{"name":"切谷内","zip_code":"0392302"},{"name":"熊ノ沢","zip_code":"0391515"},{"name":"熊ノ沢頭","zip_code":"0391515"},{"name":"熊野林","zip_code":"0391506"},{"name":"熊野林後","zip_code":"0391506"},{"name":"熊野林前","zip_code":"0391506"},{"name":"倉石石沢","zip_code":"0391701"},{"name":"倉石中市","zip_code":"0391702"},{"name":"倉石又重","zip_code":"0391703"},{"name":"毛無森","zip_code":"0391563"},{"name":"越掛沢","zip_code":"0391561"},{"name":"越掛沢前","zip_code":"0391561"},{"name":"越掛沢道下モ","zip_code":"0391561"},{"name":"小渡","zip_code":"0391522"},{"name":"小渡頭","zip_code":"0391522"},{"name":"幸ノ神","zip_code":"0391566"},{"name":"幸ノ神前","zip_code":"0391566"},{"name":"佐野上谷地","zip_code":"0391503"},{"name":"鮫ノ口","zip_code":"0391503"},{"name":"沢","zip_code":"0391558"},{"name":"沢向","zip_code":"0391517"},{"name":"鹿内","zip_code":"0391562"},{"name":"鹿内沖","zip_code":"0391562"},{"name":"鹿内下モ","zip_code":"0391562"},{"name":"鹿内前","zip_code":"0391562"},{"name":"地蔵岱","zip_code":"0391525"},{"name":"下タノ沢","zip_code":"0391546"},{"name":"下タノ沢頭","zip_code":"0391546"},{"name":"下大町","zip_code":"0391559"},{"name":"下モ沢向","zip_code":"0391518"},{"name":"下新道","zip_code":"0391508"},{"name":"下大平楽","zip_code":"0391567"},{"name":"下高田","zip_code":"0391555"},{"name":"下中崎","zip_code":"0391514"},{"name":"下長下","zip_code":"0391526"},{"name":"下新井田","zip_code":"0391565"},{"name":"下新井田前","zip_code":"0391565"},{"name":"下保土沢","zip_code":"0391523"},{"name":"正場沢","zip_code":"0391545"},{"name":"正場沢長根","zip_code":"0391545"},{"name":"治郎左エ門長根","zip_code":"0391515"},{"name":"新蔵長根","zip_code":"0391523"},{"name":"新丁","zip_code":"0391535"},{"name":"新田窪","zip_code":"0391541"},{"name":"新町","zip_code":"0391548"},{"name":"神明後","zip_code":"0391547"},{"name":"惣林橋","zip_code":"0391526"},{"name":"大学沢","zip_code":"0391563"},{"name":"大学沢向","zip_code":"0391563"},{"name":"大工窪","zip_code":"0391563"},{"name":"竹原","zip_code":"0391543"},{"name":"館","zip_code":"0391558"},{"name":"丁塚","zip_code":"0391511"},{"name":"塚無岱","zip_code":"0391538"},{"name":"土取場","zip_code":"0391508"},{"name":"手倉橋","zip_code":"0391529"},{"name":"傳兵ヱ丁","zip_code":"0391554"},{"name":"天満","zip_code":"0391519"},{"name":"天満後","zip_code":"0391519"},{"name":"天満下川原","zip_code":"0391519"},{"name":"土井頭","zip_code":"0391546"},{"name":"筒口川原","zip_code":"0391552"},{"name":"徳良窪","zip_code":"0391522"},{"name":"豊間内","zip_code":"0391524"},{"name":"中崎","zip_code":"0391514"},{"name":"中高田","zip_code":"0391552"},{"name":"中ノ沢","zip_code":"0391539"},{"name":"中ノ沢西張","zip_code":"0391539"},{"name":"中道","zip_code":"0391542"},{"name":"中道十文字","zip_code":"0391542"},{"name":"中森","zip_code":"0391507"},{"name":"中寄","zip_code":"0391508"},{"name":"苗代沢","zip_code":"0391522"},{"name":"二階平","zip_code":"0391544"},{"name":"二階平下タ","zip_code":"0391544"},{"name":"西ノ沢","zip_code":"0391512"},{"name":"二本柳","zip_code":"0391537"},{"name":"二本柳向","zip_code":"0391537"},{"name":"根岸","zip_code":"0391569"},{"name":"野月","zip_code":"0391533"},{"name":"白山","zip_code":"0391562"},{"name":"白山前","zip_code":"0391562"},{"name":"博労町","zip_code":"0391558"},{"name":"八景","zip_code":"0391557"},{"name":"花道川原","zip_code":"0391565"},{"name":"古街道長根","zip_code":"0391538"},{"name":"古館","zip_code":"0391513"},{"name":"古館下川原","zip_code":"0391564"},{"name":"古館向","zip_code":"0391513"},{"name":"古館向川原","zip_code":"0391513"},{"name":"古館脇","zip_code":"0391513"},{"name":"古堂","zip_code":"0391555"},{"name":"古堂後","zip_code":"0391555"},{"name":"平佐窪","zip_code":"0391563"},{"name":"堀合","zip_code":"0391558"},{"name":"虫追塚前","zip_code":"0391569"},{"name":"横丁","zip_code":"0391559"},{"name":"六角","zip_code":"0391564"}]},{"name":"三戸郡田子町","divisions":[{"name":"石亀","zip_code":"0390312"},{"name":"関","zip_code":"0390316"},{"name":"相米","zip_code":"0390202"},{"name":"田子","zip_code":"0390201"},{"name":"遠瀬","zip_code":"0390314"},{"name":"夏坂","zip_code":"0390315"},{"name":"原","zip_code":"0390311"},{"name":"茂市","zip_code":"0390313"},{"name":"山口","zip_code":"0390317"}]},{"name":"三戸郡南部町","divisions":[{"name":"相内","zip_code":"0390606"},{"name":"赤石","zip_code":"0390102"},{"name":"大向","zip_code":"0390103"},{"name":"沖田面","zip_code":"0390105"},{"name":"片岸","zip_code":"0390801"},{"name":"椛木","zip_code":"0390812"},{"name":"上名久井","zip_code":"0390501"},{"name":"剣吉","zip_code":"0390612"},{"name":"小泉","zip_code":"0390805"},{"name":"埖渡","zip_code":"0390814"},{"name":"小向","zip_code":"0390104"},{"name":"下名久井","zip_code":"0390502"},{"name":"杉沢","zip_code":"0390813"},{"name":"平","zip_code":"0390503"},{"name":"高瀬","zip_code":"0390507"},{"name":"高橋","zip_code":"0390804"},{"name":"玉掛","zip_code":"0390101"},{"name":"鳥舌内","zip_code":"0390504"},{"name":"斗賀","zip_code":"0390611"},{"name":"苫米地","zip_code":"0390802"},{"name":"鳥谷","zip_code":"0390505"},{"name":"虎渡","zip_code":"0390614"},{"name":"福田","zip_code":"0390815"},{"name":"法光寺","zip_code":"0390506"},{"name":"法師岡","zip_code":"0390811"},{"name":"麦沢","zip_code":"0390803"},{"name":"森越","zip_code":"0390613"}]},{"name":"三戸郡階上町","divisions":[{"name":"赤保内","zip_code":"0391202"},{"name":"金山沢","zip_code":"0391207"},{"name":"蒼前西","zip_code":"0391212"},{"name":"蒼前東","zip_code":"0391211"},{"name":"田代","zip_code":"0391206"},{"name":"角柄折","zip_code":"0391208"},{"name":"道仏","zip_code":"0391201"},{"name":"鳥屋部","zip_code":"0391203"},{"name":"晴山沢","zip_code":"0391205"},{"name":"平内","zip_code":"0391204"}]},{"name":"三戸郡新郷村","divisions":[{"name":"西越","zip_code":"0391802"},{"name":"戸来","zip_code":"0391801"}]}]}