{"name":"岩手県","cities":[{"name":"盛岡市","divisions":[{"name":"青山","zip_code":"0200133"},{"name":"浅岸","zip_code":"0200801"},{"name":"愛宕下","zip_code":"0200014"},{"name":"愛宕町","zip_code":"0200013"},{"name":"安倍館町","zip_code":"0200126"},{"name":"飯岡新田","zip_code":"0200852"},{"name":"砂子沢","zip_code":"0200312"},{"name":"猪去","zip_code":"0200054"},{"name":"稲荷町","zip_code":"0200142"},{"name":"岩清水","zip_code":"0200012"},{"name":"岩脇町","zip_code":"0200101"},{"name":"上田","zip_code":"0200066"},{"name":"上田堤","zip_code":"0200113"},{"name":"内丸","zip_code":"0200023"},{"name":"大ケ生","zip_code":"0200404"},{"name":"大沢川原","zip_code":"0200025"},{"name":"大館町","zip_code":"0200147"},{"name":"大通","zip_code":"0200022"},{"name":"乙部","zip_code":"0200403"},{"name":"開運橋通","zip_code":"0200026"},{"name":"加賀野","zip_code":"0200807"},{"name":"門","zip_code":"0200823"},{"name":"上飯岡","zip_code":"0200854"},{"name":"上太田","zip_code":"0200053"},{"name":"上鹿妻","zip_code":"0200855"},{"name":"上厨川","zip_code":"0200143"},{"name":"上堂","zip_code":"0200125"},{"name":"上ノ橋町","zip_code":"0200887"},{"name":"上米内","zip_code":"0200001"},{"name":"川目","zip_code":"0200812"},{"name":"川目町","zip_code":"0200811"},{"name":"北飯岡","zip_code":"0200857"},{"name":"北天昌寺町","zip_code":"0200136"},{"name":"北松園","zip_code":"0200105"},{"name":"北山","zip_code":"0200061"},{"name":"北夕顔瀬町","zip_code":"0200031"},{"name":"厨川","zip_code":"0200124"},{"name":"黒石野","zip_code":"0200111"},{"name":"黒川","zip_code":"0200402"},{"name":"小杉山","zip_code":"0200815"},{"name":"小鳥沢","zip_code":"0200104"},{"name":"紺屋町","zip_code":"0200885"},{"name":"菜園","zip_code":"0200024"},{"name":"材木町","zip_code":"0200063"},{"name":"境田町","zip_code":"0200041"},{"name":"肴町","zip_code":"0200878"},{"name":"桜台","zip_code":"0200002"},{"name":"山王町","zip_code":"0200821"},{"name":"三本柳","zip_code":"0200831"},{"name":"志家町","zip_code":"0200883"},{"name":"清水町","zip_code":"0200875"},{"name":"下ノ橋町","zip_code":"0200877"},{"name":"下飯岡","zip_code":"0200853"},{"name":"下太田","zip_code":"0200051"},{"name":"下鹿妻","zip_code":"0200856"},{"name":"下厨川","zip_code":"0200123"},{"name":"下米内","zip_code":"0200003"},{"name":"城西町","zip_code":"0200044"},{"name":"新庄","zip_code":"0200803"},{"name":"新庄町","zip_code":"0200806"},{"name":"新田町","zip_code":"0200042"},{"name":"神明町","zip_code":"0200884"},{"name":"住吉町","zip_code":"0200882"},{"name":"前九年","zip_code":"0200127"},{"name":"仙北","zip_code":"0200861"},{"name":"仙北町","zip_code":"0200865"},{"name":"大慈寺町","zip_code":"0200828"},{"name":"大新町","zip_code":"0200135"},{"name":"高崩","zip_code":"0200825"},{"name":"高松","zip_code":"0200114"},{"name":"館向町","zip_code":"0200115"},{"name":"玉山区芋田","zip_code":"0284131"},{"name":"玉山区上田","zip_code":"0200204"},{"name":"玉山区川崎","zip_code":"0284135"},{"name":"玉山区川又","zip_code":"0200203"},{"name":"玉山区好摩","zip_code":"0284125"},{"name":"玉山区渋民","zip_code":"0284132"},{"name":"玉山区下田","zip_code":"0284134"},{"name":"玉山区玉山","zip_code":"0200202"},{"name":"玉山区寺林","zip_code":"0284122"},{"name":"玉山区永井","zip_code":"0284121"},{"name":"玉山区馬場","zip_code":"0284124"},{"name":"玉山区日戸","zip_code":"0200201"},{"name":"玉山区巻堀","zip_code":"0284123"},{"name":"玉山区松内","zip_code":"0284136"},{"name":"玉山区門前寺","zip_code":"0284133"},{"name":"玉山区薮川","zip_code":"0282711"},{"name":"茶畑","zip_code":"0200822"},{"name":"中央通","zip_code":"0200021"},{"name":"月が丘","zip_code":"0200121"},{"name":"津志田","zip_code":"0200835"},{"name":"津志田中央","zip_code":"0200838"},{"name":"津志田西","zip_code":"0200836"},{"name":"津志田町","zip_code":"0200837"},{"name":"津志田南","zip_code":"0200839"},{"name":"土淵","zip_code":"0200144"},{"name":"つつじが丘","zip_code":"0200802"},{"name":"繋","zip_code":"0200055"},{"name":"手代森","zip_code":"0200401"},{"name":"天昌寺町","zip_code":"0200137"},{"name":"天神町","zip_code":"0200881"},{"name":"中太田","zip_code":"0200052"},{"name":"中川町","zip_code":"0200043"},{"name":"中堤町","zip_code":"0200131"},{"name":"中野","zip_code":"0200816"},{"name":"中ノ橋通","zip_code":"0200871"},{"name":"中屋敷町","zip_code":"0200141"},{"name":"永井","zip_code":"0200834"},{"name":"長田町","zip_code":"0200062"},{"name":"長橋町","zip_code":"0200146"},{"name":"梨木町","zip_code":"0200064"},{"name":"名須川町","zip_code":"0200016"},{"name":"鉈屋町","zip_code":"0200827"},{"name":"西青山","zip_code":"0200132"},{"name":"西下台町","zip_code":"0200065"},{"name":"西仙北","zip_code":"0200864"},{"name":"西松園","zip_code":"0200103"},{"name":"西見前","zip_code":"0200833"},{"name":"根田茂","zip_code":"0200313"},{"name":"箱清水","zip_code":"0200116"},{"name":"八幡町","zip_code":"0200872"},{"name":"羽場","zip_code":"0200841"},{"name":"馬場町","zip_code":"0200876"},{"name":"東安庭","zip_code":"0200824"},{"name":"東黒石野","zip_code":"0200108"},{"name":"東桜山","zip_code":"0200804"},{"name":"東新庄","zip_code":"0200805"},{"name":"東仙北","zip_code":"0200862"},{"name":"東中野","zip_code":"0200817"},{"name":"東中野町","zip_code":"0200814"},{"name":"東松園","zip_code":"0200106"},{"name":"東緑が丘","zip_code":"0200112"},{"name":"東見前","zip_code":"0200832"},{"name":"東山","zip_code":"0200813"},{"name":"平賀新田","zip_code":"0200145"},{"name":"本町通","zip_code":"0200015"},{"name":"前潟","zip_code":"0200148"},{"name":"松尾町","zip_code":"0200873"},{"name":"松園","zip_code":"0200107"},{"name":"神子田町","zip_code":"0200826"},{"name":"みたけ","zip_code":"0200122"},{"name":"三ツ割","zip_code":"0200011"},{"name":"緑が丘","zip_code":"0200117"},{"name":"南青山町","zip_code":"0200134"},{"name":"南大通","zip_code":"0200874"},{"name":"南仙北","zip_code":"0200863"},{"name":"向中野","zip_code":"0200851"},{"name":"本宮","zip_code":"0200866"},{"name":"紅葉が丘","zip_code":"0200005"},{"name":"盛岡駅西通","zip_code":"0200045"},{"name":"盛岡駅前北通","zip_code":"0200033"},{"name":"盛岡駅前通","zip_code":"0200034"},{"name":"簗川","zip_code":"0200311"},{"name":"山岸","zip_code":"0200004"},{"name":"夕顔瀬町","zip_code":"0200032"},{"name":"湯沢","zip_code":"0200842"},{"name":"湯沢東","zip_code":"0200844"},{"name":"湯沢西","zip_code":"0200843"},{"name":"湯沢南","zip_code":"0200845"},{"name":"流通センター北","zip_code":"0200846"},{"name":"若園町","zip_code":"0200886"}]},{"name":"宮古市","divisions":[{"name":"赤前","zip_code":"0270202"},{"name":"愛宕","zip_code":"0270092"},{"name":"新町","zip_code":"0270086"},{"name":"泉町","zip_code":"0270062"},{"name":"板屋","zip_code":"0270048"},{"name":"江繋","zip_code":"0282421"},{"name":"太田","zip_code":"0270054"},{"name":"大通","zip_code":"0270083"},{"name":"小国","zip_code":"0282422"},{"name":"音部","zip_code":"0270112"},{"name":"重茂","zip_code":"0270111"},{"name":"片巣","zip_code":"0282303"},{"name":"門馬","zip_code":"0282632"},{"name":"金浜","zip_code":"0270033"},{"name":"河南","zip_code":"0270039"},{"name":"鴨崎町","zip_code":"0270078"},{"name":"刈屋","zip_code":"0282104"},{"name":"川井","zip_code":"0282402"},{"name":"川内","zip_code":"0282513"},{"name":"神田沢町","zip_code":"0270042"},{"name":"上鼻","zip_code":"0270044"},{"name":"神林","zip_code":"0270028"},{"name":"区界","zip_code":"0282631"},{"name":"熊野町","zip_code":"0270008"},{"name":"黒田町","zip_code":"0270085"},{"name":"黒森町","zip_code":"0270065"},{"name":"鍬ケ崎","zip_code":"0270006"},{"name":"花原市","zip_code":"0270046"},{"name":"光岸地","zip_code":"0270005"},{"name":"小沢","zip_code":"0270071"},{"name":"小山田","zip_code":"0270038"},{"name":"栄町","zip_code":"0270076"},{"name":"崎鍬ケ崎","zip_code":"0270096"},{"name":"崎山","zip_code":"0270097"},{"name":"五月町","zip_code":"0270072"},{"name":"佐原","zip_code":"0270095"},{"name":"沢田","zip_code":"0270088"},{"name":"白浜","zip_code":"0270201"},{"name":"新川町","zip_code":"0270081"},{"name":"末広町","zip_code":"0270084"},{"name":"鈴久名","zip_code":"0282512"},{"name":"千徳","zip_code":"0270058"},{"name":"千徳町","zip_code":"0270043"},{"name":"磯鶏","zip_code":"0270024"},{"name":"磯鶏石崎","zip_code":"0270022"},{"name":"磯鶏沖","zip_code":"0270023"},{"name":"磯鶏西","zip_code":"0270027"},{"name":"高浜","zip_code":"0270032"},{"name":"田鎖","zip_code":"0270036"},{"name":"蛸の浜町","zip_code":"0270009"},{"name":"田代","zip_code":"0270067"},{"name":"舘合町","zip_code":"0270077"},{"name":"田の神","zip_code":"0270066"},{"name":"田老青倉","zip_code":"0270359"},{"name":"田老青砂里","zip_code":"0270322"},{"name":"田老青野滝","zip_code":"0270375"},{"name":"田老青野滝北","zip_code":"0270374"},{"name":"田老青野滝南","zip_code":"0270376"},{"name":"田老荒谷","zip_code":"0270305"},{"name":"田老乙部","zip_code":"0270321"},{"name":"田老乙部野","zip_code":"0270379"},{"name":"田老重津部","zip_code":"0270378"},{"name":"田老重津部北","zip_code":"0270377"},{"name":"田老樫内","zip_code":"0270332"},{"name":"田老片巻","zip_code":"0270382"},{"name":"田老上沖","zip_code":"0270388"},{"name":"田老上小田代","zip_code":"0270343"},{"name":"田老上摂待","zip_code":"0270383"},{"name":"田老川向","zip_code":"0270306"},{"name":"田老胡桃畑","zip_code":"0270386"},{"name":"田老ケラス","zip_code":"0270304"},{"name":"田老越田","zip_code":"0270312"},{"name":"田老小田代","zip_code":"0270342"},{"name":"田老小林","zip_code":"0270351"},{"name":"田老小堀内","zip_code":"0270361"},{"name":"田老小堀内南","zip_code":"0270362"},{"name":"田老笹見平","zip_code":"0270347"},{"name":"田老篠倉","zip_code":"0270345"},{"name":"田老下摂待","zip_code":"0270385"},{"name":"田老駿達","zip_code":"0270313"},{"name":"田老新田","zip_code":"0270364"},{"name":"田老末前","zip_code":"0270355"},{"name":"田老鈴子沢","zip_code":"0270367"},{"name":"田老摂待","zip_code":"0270384"},{"name":"田老滝の沢","zip_code":"0270365"},{"name":"田老辰の口","zip_code":"0270344"},{"name":"田老館が森","zip_code":"0270301"},{"name":"田老立腰","zip_code":"0270358"},{"name":"田老田中","zip_code":"0270302"},{"name":"田老田の沢","zip_code":"0270303"},{"name":"田老長畑","zip_code":"0270363"},{"name":"田老七滝","zip_code":"0270346"},{"name":"田老西向山","zip_code":"0270331"},{"name":"田老新田平","zip_code":"0270366"},{"name":"田老野原","zip_code":"0270323"},{"name":"田老畑","zip_code":"0270387"},{"name":"田老古田","zip_code":"0270333"},{"name":"田老星山","zip_code":"0270381"},{"name":"田老水沢","zip_code":"0270371"},{"name":"田老水沢南","zip_code":"0270372"},{"name":"田老向桑畑","zip_code":"0270357"},{"name":"田老向新田","zip_code":"0270373"},{"name":"田老向山","zip_code":"0270324"},{"name":"田老森崎","zip_code":"0270354"},{"name":"田老八幡水神","zip_code":"0270352"},{"name":"田老養呂地","zip_code":"0270341"},{"name":"田老和野","zip_code":"0270311"},{"name":"田老和蒔","zip_code":"0270353"},{"name":"田老和山","zip_code":"0270356"},{"name":"近内","zip_code":"0270056"},{"name":"津軽石","zip_code":"0270203"},{"name":"築地","zip_code":"0270091"},{"name":"中里団地","zip_code":"0270093"},{"name":"長沢","zip_code":"0270034"},{"name":"長根","zip_code":"0270055"},{"name":"長町","zip_code":"0270053"},{"name":"夏屋","zip_code":"0282511"},{"name":"西ケ丘","zip_code":"0270041"},{"name":"西町","zip_code":"0270061"},{"name":"根市","zip_code":"0270047"},{"name":"箱石","zip_code":"0282504"},{"name":"花輪","zip_code":"0270035"},{"name":"腹帯","zip_code":"0282103"},{"name":"日影町","zip_code":"0270007"},{"name":"蟇目","zip_code":"0282102"},{"name":"日立浜町","zip_code":"0270001"},{"name":"日の出町","zip_code":"0270094"},{"name":"平津戸","zip_code":"0282633"},{"name":"藤の川","zip_code":"0270029"},{"name":"藤原","zip_code":"0270021"},{"name":"藤原上町","zip_code":"0270021"},{"name":"古田","zip_code":"0282301"},{"name":"保久田","zip_code":"0270074"},{"name":"松山","zip_code":"0270037"},{"name":"実田","zip_code":"0270025"},{"name":"緑ケ丘","zip_code":"0270073"},{"name":"港町","zip_code":"0270003"},{"name":"南町","zip_code":"0270051"},{"name":"宮園","zip_code":"0270064"},{"name":"宮町","zip_code":"0270052"},{"name":"向町","zip_code":"0270082"},{"name":"茂市","zip_code":"0282101"},{"name":"本町","zip_code":"0270089"},{"name":"八木沢","zip_code":"0270031"},{"name":"山口","zip_code":"0270063"},{"name":"山根町","zip_code":"0270002"},{"name":"横町","zip_code":"0270087"},{"name":"臨港通","zip_code":"0270004"},{"name":"老木","zip_code":"0270045"},{"name":"和井内","zip_code":"0282105"},{"name":"和見町","zip_code":"0270075"},{"name":"上村","zip_code":"0270026"}]},{"name":"大船渡市","divisions":[{"name":"赤崎町","zip_code":"0220007"},{"name":"猪川町","zip_code":"0220004"},{"name":"大船渡町","zip_code":"0220002"},{"name":"盛町","zip_code":"0220003"},{"name":"三陸町越喜来","zip_code":"0220101"},{"name":"三陸町吉浜","zip_code":"0220102"},{"name":"三陸町綾里","zip_code":"0220211"},{"name":"立根町","zip_code":"0220006"},{"name":"日頃市町","zip_code":"0220005"},{"name":"末崎町","zip_code":"0220001"}]},{"name":"花巻市","divisions":[{"name":"浅沢","zip_code":"0250067"},{"name":"東町","zip_code":"0250088"},{"name":"愛宕町","zip_code":"0250071"},{"name":"石神町","zip_code":"0250095"},{"name":"石鳥谷町猪鼻","zip_code":"0283131"},{"name":"石鳥谷町江曽","zip_code":"0283151"},{"name":"石鳥谷町大瀬川","zip_code":"0283185"},{"name":"石鳥谷町上口","zip_code":"0283102"},{"name":"石鳥谷町北寺林","zip_code":"0283172"},{"name":"石鳥谷町黒沼","zip_code":"0283161"},{"name":"石鳥谷町好地","zip_code":"0283101"},{"name":"石鳥谷町五大堂","zip_code":"0283141"},{"name":"石鳥谷町小森林","zip_code":"0283153"},{"name":"石鳥谷町松林寺","zip_code":"0283182"},{"name":"石鳥谷町関口","zip_code":"0283133"},{"name":"石鳥谷町大興寺","zip_code":"0283181"},{"name":"石鳥谷町滝田","zip_code":"0283122"},{"name":"石鳥谷町戸塚","zip_code":"0283121"},{"name":"石鳥谷町富沢","zip_code":"0283184"},{"name":"石鳥谷町中寺林","zip_code":"0283171"},{"name":"石鳥谷町新堀","zip_code":"0283111"},{"name":"石鳥谷町西中島","zip_code":"0283162"},{"name":"石鳥谷町長谷堂","zip_code":"0283183"},{"name":"石鳥谷町八幡","zip_code":"0283163"},{"name":"石鳥谷町東中島","zip_code":"0283132"},{"name":"石鳥谷町南寺林","zip_code":"0283152"},{"name":"石鳥谷町八重畑","zip_code":"0283142"},{"name":"一本杉","zip_code":"0250058"},{"name":"円万寺","zip_code":"0250042"},{"name":"狼沢","zip_code":"0250322"},{"name":"太田","zip_code":"0250037"},{"name":"大通り","zip_code":"0250092"},{"name":"大迫町内川目","zip_code":"0283201"},{"name":"大迫町大迫","zip_code":"0283203"},{"name":"大迫町亀ケ森","zip_code":"0283204"},{"name":"大迫町外川目","zip_code":"0283202"},{"name":"大畑","zip_code":"0250303"},{"name":"大谷地","zip_code":"0250026"},{"name":"御田屋町","zip_code":"0250082"},{"name":"卸町","zip_code":"0250311"},{"name":"鍛治町","zip_code":"0250086"},{"name":"花城町","zip_code":"0250075"},{"name":"金矢","zip_code":"0250321"},{"name":"上北万丁目","zip_code":"0250056"},{"name":"上小舟渡","zip_code":"0250062"},{"name":"上諏訪","zip_code":"0250032"},{"name":"上町","zip_code":"0250087"},{"name":"上似内","zip_code":"0250007"},{"name":"上根子","zip_code":"0250043"},{"name":"北笹間","zip_code":"0250132"},{"name":"北湯口","zip_code":"0250301"},{"name":"空港南","zip_code":"0250008"},{"name":"葛","zip_code":"0250004"},{"name":"下シ沢","zip_code":"0250253"},{"name":"椚ノ目","zip_code":"0250323"},{"name":"幸田","zip_code":"0250013"},{"name":"胡四王","zip_code":"0250012"},{"name":"小瀬川","zip_code":"0250324"},{"name":"材木町","zip_code":"0250098"},{"name":"坂本町","zip_code":"0250074"},{"name":"桜木町","zip_code":"0250094"},{"name":"桜台","zip_code":"0250064"},{"name":"桜町","zip_code":"0250084"},{"name":"里川口町","zip_code":"0250081"},{"name":"下幅","zip_code":"0250068"},{"name":"実相寺","zip_code":"0250035"},{"name":"下北万丁目","zip_code":"0250054"},{"name":"下小舟渡","zip_code":"0250063"},{"name":"下似内","zip_code":"0250006"},{"name":"下根子","zip_code":"0250025"},{"name":"十二丁目","zip_code":"0250022"},{"name":"城内","zip_code":"0250076"},{"name":"尻平川","zip_code":"0250137"},{"name":"新田","zip_code":"0250057"},{"name":"末広町","zip_code":"0250079"},{"name":"諏訪","zip_code":"0250033"},{"name":"諏訪町","zip_code":"0250039"},{"name":"台","zip_code":"0250305"},{"name":"高木","zip_code":"0250016"},{"name":"高田","zip_code":"0250083"},{"name":"高松","zip_code":"0250014"},{"name":"田力","zip_code":"0250005"},{"name":"天下田","zip_code":"0250001"},{"name":"東和町安俵","zip_code":"0280115"},{"name":"東和町砂子","zip_code":"0280134"},{"name":"東和町石鳩岡","zip_code":"0280103"},{"name":"東和町石持","zip_code":"0280154"},{"name":"東和町落合","zip_code":"0280151"},{"name":"東和町小友","zip_code":"0280121"},{"name":"東和町小原","zip_code":"0280136"},{"name":"東和町上浮田","zip_code":"0280143"},{"name":"東和町北小山田","zip_code":"0280107"},{"name":"東和町北川目","zip_code":"0280102"},{"name":"東和町北成島","zip_code":"0280116"},{"name":"東和町北前田","zip_code":"0280101"},{"name":"東和町倉沢","zip_code":"0280135"},{"name":"東和町小通","zip_code":"0280156"},{"name":"東和町駒籠","zip_code":"0280142"},{"name":"東和町下浮田","zip_code":"0280141"},{"name":"東和町新地","zip_code":"0280112"},{"name":"東和町外谷地","zip_code":"0280106"},{"name":"東和町鷹巣堂","zip_code":"0280133"},{"name":"東和町田瀬","zip_code":"0280123"},{"name":"東和町舘迫","zip_code":"0280132"},{"name":"東和町谷内","zip_code":"0280122"},{"name":"東和町土沢","zip_code":"0280114"},{"name":"東和町毒沢","zip_code":"0280152"},{"name":"東和町中内","zip_code":"0280153"},{"name":"東和町東晴山","zip_code":"0280113"},{"name":"東和町前田","zip_code":"0280105"},{"name":"東和町町井","zip_code":"0280131"},{"name":"東和町南川目","zip_code":"0280104"},{"name":"東和町南成島","zip_code":"0280155"},{"name":"東和町宮田","zip_code":"0280144"},{"name":"東和町百ノ沢","zip_code":"0280111"},{"name":"栃内","zip_code":"0250135"},{"name":"轟木","zip_code":"0250131"},{"name":"豊沢","zip_code":"0250251"},{"name":"豊沢町","zip_code":"0250089"},{"name":"中北万丁目","zip_code":"0250053"},{"name":"中笹間","zip_code":"0250133"},{"name":"中根子","zip_code":"0250036"},{"name":"仲町","zip_code":"0250077"},{"name":"鍋倉","zip_code":"0250046"},{"name":"鉛","zip_code":"0250252"},{"name":"成田","zip_code":"0250023"},{"name":"南城","zip_code":"0250021"},{"name":"西大通り","zip_code":"0250091"},{"name":"西晴山","zip_code":"0250045"},{"name":"西宮野目","zip_code":"0250002"},{"name":"二枚橋","zip_code":"0250312"},{"name":"二枚橋町大通り","zip_code":"0250314"},{"name":"二枚橋町南","zip_code":"0250315"},{"name":"二枚橋町北","zip_code":"0250313"},{"name":"糠塚","zip_code":"0250302"},{"name":"野田","zip_code":"0250052"},{"name":"東十二丁目","zip_code":"0250015"},{"name":"東宮野目","zip_code":"0250003"},{"name":"膝立","zip_code":"0250041"},{"name":"一日市","zip_code":"0250073"},{"name":"藤沢町","zip_code":"0250096"},{"name":"双葉町","zip_code":"0250085"},{"name":"吹張町","zip_code":"0250078"},{"name":"不動","zip_code":"0250031"},{"name":"不動町","zip_code":"0250038"},{"name":"星が丘","zip_code":"0250065"},{"name":"松園町","zip_code":"0250066"},{"name":"南川原町","zip_code":"0250093"},{"name":"南笹間","zip_code":"0250134"},{"name":"南新田","zip_code":"0250051"},{"name":"南諏訪町","zip_code":"0250034"},{"name":"南万丁目","zip_code":"0250055"},{"name":"本館","zip_code":"0250061"},{"name":"矢沢","zip_code":"0250011"},{"name":"山の神","zip_code":"0250024"},{"name":"湯口","zip_code":"0250044"},{"name":"湯本","zip_code":"0250304"},{"name":"横志田","zip_code":"0250136"},{"name":"四日町","zip_code":"0250072"},{"name":"若葉町","zip_code":"0250097"}]},{"name":"北上市","divisions":[{"name":"相去町","zip_code":"0240051"},{"name":"青柳町","zip_code":"0240031"},{"name":"有田町","zip_code":"0240081"},{"name":"飯豊","zip_code":"0240001"},{"name":"稲瀬町","zip_code":"0240041"},{"name":"上野町","zip_code":"0240021"},{"name":"大堤東","zip_code":"0240054"},{"name":"大堤西","zip_code":"0240053"},{"name":"大堤南","zip_code":"0240055"},{"name":"大堤北","zip_code":"0240052"},{"name":"大通り","zip_code":"0240061"},{"name":"大曲町","zip_code":"0240091"},{"name":"鬼柳町","zip_code":"0240056"},{"name":"鍛冶町","zip_code":"0240062"},{"name":"上江釣子","zip_code":"0240071"},{"name":"上鬼柳","zip_code":"0240057"},{"name":"川岸","zip_code":"0240032"},{"name":"北鬼柳","zip_code":"0240072"},{"name":"北工業団地","zip_code":"0240102"},{"name":"口内町","zip_code":"0240211"},{"name":"九年橋","zip_code":"0240063"},{"name":"黒岩","zip_code":"0240042"},{"name":"黒沢尻","zip_code":"0240022"},{"name":"小鳥崎","zip_code":"0240105"},{"name":"幸町","zip_code":"0240033"},{"name":"さくら通り","zip_code":"0240084"},{"name":"里分","zip_code":"0240023"},{"name":"更木","zip_code":"0240103"},{"name":"下江釣子","zip_code":"0240073"},{"name":"下鬼柳","zip_code":"0240058"},{"name":"新穀町","zip_code":"0240092"},{"name":"諏訪町","zip_code":"0240034"},{"name":"立花","zip_code":"0240043"},{"name":"堤ケ丘","zip_code":"0240011"},{"name":"常盤台","zip_code":"0240012"},{"name":"中野町","zip_code":"0240024"},{"name":"滑田","zip_code":"0240074"},{"name":"成田","zip_code":"0240003"},{"name":"新平","zip_code":"0240075"},{"name":"鳩岡崎","zip_code":"0240076"},{"name":"花園町","zip_code":"0240035"},{"name":"平沢","zip_code":"0240044"},{"name":"臥牛","zip_code":"0240101"},{"name":"藤沢","zip_code":"0240013"},{"name":"二子町","zip_code":"0240104"},{"name":"本石町","zip_code":"0240093"},{"name":"本通り","zip_code":"0240094"},{"name":"孫屋敷","zip_code":"0240025"},{"name":"町分","zip_code":"0240082"},{"name":"村崎野","zip_code":"0240004"},{"name":"柳原町","zip_code":"0240083"},{"name":"湯沢","zip_code":"0240045"},{"name":"芳町","zip_code":"0240095"},{"name":"流通センター","zip_code":"0240014"},{"name":"若宮町","zip_code":"0240064"},{"name":"和賀町岩崎","zip_code":"0240321"},{"name":"和賀町岩崎新田","zip_code":"0240322"},{"name":"和賀町岩沢","zip_code":"0240325"},{"name":"和賀町後藤","zip_code":"0240335"},{"name":"和賀町煤孫","zip_code":"0240323"},{"name":"和賀町仙人","zip_code":"0240326"},{"name":"和賀町竪川目","zip_code":"0240332"},{"name":"和賀町長沼","zip_code":"0240333"},{"name":"和賀町藤根","zip_code":"0240334"},{"name":"和賀町山口","zip_code":"0240324"},{"name":"和賀町横川目","zip_code":"0240331"}]},{"name":"久慈市","divisions":[{"name":"旭町","zip_code":"0280014"},{"name":"荒町","zip_code":"0280063"},{"name":"宇部町","zip_code":"0288111"},{"name":"枝成沢","zip_code":"0280034"},{"name":"大川目町","zip_code":"0280091"},{"name":"大沢","zip_code":"0280083"},{"name":"長内町","zip_code":"0280041"},{"name":"柏崎","zip_code":"0280054"},{"name":"川崎町","zip_code":"0280051"},{"name":"川貫","zip_code":"0280082"},{"name":"京の森","zip_code":"0280013"},{"name":"源道","zip_code":"0280015"},{"name":"小久慈町","zip_code":"0280071"},{"name":"栄町","zip_code":"0280024"},{"name":"侍浜町","zip_code":"0287801"},{"name":"沢里","zip_code":"0280035"},{"name":"十八日町","zip_code":"0280065"},{"name":"新中の橋","zip_code":"0280023"},{"name":"田高","zip_code":"0280053"},{"name":"巽町","zip_code":"0280055"},{"name":"田屋町","zip_code":"0280022"},{"name":"中央","zip_code":"0280061"},{"name":"寺里","zip_code":"0280032"},{"name":"天神堂","zip_code":"0280031"},{"name":"中の橋","zip_code":"0280066"},{"name":"中町","zip_code":"0280056"},{"name":"夏井町","zip_code":"0280001"},{"name":"新井田","zip_code":"0280012"},{"name":"西の沢","zip_code":"0280081"},{"name":"二十八日町","zip_code":"0280062"},{"name":"畑田","zip_code":"0280033"},{"name":"本町","zip_code":"0280052"},{"name":"湊町","zip_code":"0280011"},{"name":"門前","zip_code":"0280021"},{"name":"山形町小国","zip_code":"0288712"},{"name":"山形町川井","zip_code":"0288602"},{"name":"山形町霜畑","zip_code":"0288713"},{"name":"山形町繋","zip_code":"0288711"},{"name":"山形町荷軽部","zip_code":"0288603"},{"name":"山形町日野沢","zip_code":"0288604"},{"name":"山形町戸呂町","zip_code":"0288601"},{"name":"山形町来内","zip_code":"0288605"},{"name":"山根町","zip_code":"0288521"},{"name":"八日町","zip_code":"0280064"}]},{"name":"遠野市","divisions":[{"name":"青笹町青笹","zip_code":"0280503"},{"name":"青笹町中沢","zip_code":"0280502"},{"name":"青笹町糠前","zip_code":"0280501"},{"name":"綾織町上綾織","zip_code":"0280533"},{"name":"綾織町下綾織","zip_code":"0280532"},{"name":"綾織町新里","zip_code":"0280531"},{"name":"綾織町みさ崎","zip_code":"0280534"},{"name":"鶯崎町","zip_code":"0280511"},{"name":"小友町","zip_code":"0280481"},{"name":"上組町","zip_code":"0280517"},{"name":"上郷町板沢","zip_code":"0280776"},{"name":"上郷町佐比内","zip_code":"0280771"},{"name":"上郷町平倉","zip_code":"0280775"},{"name":"上郷町平野原","zip_code":"0280773"},{"name":"上郷町細越","zip_code":"0280772"},{"name":"上郷町来内","zip_code":"0280774"},{"name":"穀町","zip_code":"0280516"},{"name":"材木町","zip_code":"0280521"},{"name":"下組町","zip_code":"0280526"},{"name":"新穀町","zip_code":"0280522"},{"name":"新町","zip_code":"0280524"},{"name":"大工町","zip_code":"0280527"},{"name":"中央通り","zip_code":"0280523"},{"name":"附馬牛町安居台","zip_code":"0280662"},{"name":"附馬牛町上附馬牛","zip_code":"0280661"},{"name":"附馬牛町下附馬牛","zip_code":"0280663"},{"name":"附馬牛町東禅寺","zip_code":"0280664"},{"name":"土淵町飯豊","zip_code":"0280554"},{"name":"土淵町柏崎","zip_code":"0280553"},{"name":"土淵町土淵","zip_code":"0280555"},{"name":"土淵町栃内","zip_code":"0280551"},{"name":"土淵町山口","zip_code":"0280552"},{"name":"遠野町","zip_code":"0280514"},{"name":"早瀬町","zip_code":"0280542"},{"name":"東上組町","zip_code":"0280512"},{"name":"東穀町","zip_code":"0280513"},{"name":"東舘町","zip_code":"0280515"},{"name":"松崎町光興寺","zip_code":"0280543"},{"name":"松崎町駒木","zip_code":"0280545"},{"name":"松崎町白岩","zip_code":"0280541"},{"name":"松崎町松崎","zip_code":"0280544"},{"name":"宮守町上鱒沢","zip_code":"0280302"},{"name":"宮守町上宮守","zip_code":"0280301"},{"name":"宮守町下鱒沢","zip_code":"0280303"},{"name":"宮守町下宮守","zip_code":"0280304"},{"name":"宮守町達曽部","zip_code":"0280305"},{"name":"六日町","zip_code":"0280525"}]},{"name":"一関市","divisions":[{"name":"相去","zip_code":"0210853"},{"name":"青葉","zip_code":"0210031"},{"name":"赤荻","zip_code":"0210041"},{"name":"旭町","zip_code":"0210864"},{"name":"石畑","zip_code":"0210008"},{"name":"磐井町","zip_code":"0210894"},{"name":"宇南","zip_code":"0210834"},{"name":"駅前","zip_code":"0210867"},{"name":"大手町","zip_code":"0210884"},{"name":"大町","zip_code":"0210881"},{"name":"上大槻街","zip_code":"0210882"},{"name":"上日照","zip_code":"0210007"},{"name":"柄貝","zip_code":"0210833"},{"name":"川崎町薄衣","zip_code":"0290202"},{"name":"川崎町門崎","zip_code":"0290201"},{"name":"北十軒街","zip_code":"0210802"},{"name":"北ほうりょう","zip_code":"0210814"},{"name":"久保","zip_code":"0210811"},{"name":"厳美町","zip_code":"0210101"},{"name":"五十人町","zip_code":"0210804"},{"name":"狐禅寺","zip_code":"0290131"},{"name":"五代町","zip_code":"0210022"},{"name":"寿町","zip_code":"0210052"},{"name":"幸町","zip_code":"0210024"},{"name":"桜木町","zip_code":"0210891"},{"name":"桜街","zip_code":"0210801"},{"name":"沢","zip_code":"0210852"},{"name":"散田","zip_code":"0210832"},{"name":"三関","zip_code":"0210821"},{"name":"地主町","zip_code":"0210893"},{"name":"下大槻街","zip_code":"0210806"},{"name":"城内","zip_code":"0210877"},{"name":"上坊","zip_code":"0210006"},{"name":"新大町","zip_code":"0210883"},{"name":"新町","zip_code":"0210001"},{"name":"吸川街","zip_code":"0210841"},{"name":"末広","zip_code":"0210032"},{"name":"関が丘","zip_code":"0210851"},{"name":"千厩町磐清水","zip_code":"0290804"},{"name":"千厩町奥玉","zip_code":"0291111"},{"name":"千厩町清田","zip_code":"0290801"},{"name":"千厩町小梨","zip_code":"0290802"},{"name":"千厩町千厩","zip_code":"0290803"},{"name":"大東町大原","zip_code":"0290711"},{"name":"大東町沖田","zip_code":"0290603"},{"name":"大東町猿沢","zip_code":"0290431"},{"name":"大東町渋民","zip_code":"0290521"},{"name":"大東町摺沢","zip_code":"0290523"},{"name":"大東町曽慶","zip_code":"0290522"},{"name":"大東町鳥海","zip_code":"0290602"},{"name":"大東町中川","zip_code":"0290601"},{"name":"台町","zip_code":"0210873"},{"name":"高崎町","zip_code":"0210875"},{"name":"滝沢","zip_code":"0290132"},{"name":"竹山町","zip_code":"0210027"},{"name":"田村町","zip_code":"0210885"},{"name":"反町","zip_code":"0210844"},{"name":"中央町","zip_code":"0210021"},{"name":"千代田町","zip_code":"0210862"},{"name":"釣山","zip_code":"0210874"},{"name":"銅谷町","zip_code":"0210023"},{"name":"中里","zip_code":"0210005"},{"name":"鳴神","zip_code":"0210836"},{"name":"新山","zip_code":"0210865"},{"name":"西沢","zip_code":"0210854"},{"name":"二本木","zip_code":"0210835"},{"name":"沼田","zip_code":"0210831"},{"name":"萩荘","zip_code":"0210102"},{"name":"機織山","zip_code":"0210861"},{"name":"八幡町","zip_code":"0210871"},{"name":"花泉町老松","zip_code":"0293103"},{"name":"花泉町金沢","zip_code":"0293102"},{"name":"花泉町永井","zip_code":"0293206"},{"name":"花泉町花泉","zip_code":"0293101"},{"name":"花泉町日形","zip_code":"0293104"},{"name":"花泉町油島","zip_code":"0293207"},{"name":"花泉町涌津","zip_code":"0293105"},{"name":"東花王町","zip_code":"0210807"},{"name":"東五代","zip_code":"0210003"},{"name":"東地主町","zip_code":"0210892"},{"name":"東台","zip_code":"0210822"},{"name":"東山町田河津","zip_code":"0290301"},{"name":"東山町長坂","zip_code":"0290302"},{"name":"東山町松川","zip_code":"0290303"},{"name":"広街","zip_code":"0210876"},{"name":"樋渡","zip_code":"0210812"},{"name":"深町","zip_code":"0210843"},{"name":"藤沢町大籠","zip_code":"0293522"},{"name":"藤沢町黄海","zip_code":"0293311"},{"name":"藤沢町砂子田","zip_code":"0293403"},{"name":"藤沢町徳田","zip_code":"0293404"},{"name":"藤沢町新沼","zip_code":"0293402"},{"name":"藤沢町西口","zip_code":"0293406"},{"name":"藤沢町藤沢","zip_code":"0293405"},{"name":"藤沢町保呂羽","zip_code":"0293521"},{"name":"藤沢町増沢","zip_code":"0293401"},{"name":"舞川","zip_code":"0210221"},{"name":"真柴","zip_code":"0210901"},{"name":"町浦","zip_code":"0210004"},{"name":"南十軒街","zip_code":"0210803"},{"name":"南新町","zip_code":"0210866"},{"name":"南ほうりょう","zip_code":"0210813"},{"name":"南町","zip_code":"0210863"},{"name":"宮坂町","zip_code":"0210872"},{"name":"宮下町","zip_code":"0210013"},{"name":"宮前町","zip_code":"0210012"},{"name":"室根町折壁","zip_code":"0291201"},{"name":"室根町津谷川","zip_code":"0291211"},{"name":"室根町矢越","zip_code":"0291202"},{"name":"弥栄","zip_code":"0290211"},{"name":"柳町","zip_code":"0210842"},{"name":"山目","zip_code":"0210063"},{"name":"山目町","zip_code":"0210011"},{"name":"豊町","zip_code":"0210805"},{"name":"要害","zip_code":"0210815"},{"name":"蘭梅町","zip_code":"0210014"}]},{"name":"陸前高田市","divisions":[{"name":"小友町","zip_code":"0292207"},{"name":"気仙町","zip_code":"0292204"},{"name":"高田町","zip_code":"0292205"},{"name":"竹駒町","zip_code":"0292203"},{"name":"広田町","zip_code":"0292208"},{"name":"矢作町","zip_code":"0292201"},{"name":"横田町","zip_code":"0292202"},{"name":"米崎町","zip_code":"0292206"}]},{"name":"釜石市","divisions":[{"name":"魚河岸","zip_code":"0260012"},{"name":"鵜住居町","zip_code":"0260301"},{"name":"嬉石町","zip_code":"0260003"},{"name":"大只越町","zip_code":"0260022"},{"name":"大平町","zip_code":"0260002"},{"name":"大町","zip_code":"0260024"},{"name":"大渡町","zip_code":"0260025"},{"name":"片岸町","zip_code":"0260302"},{"name":"甲子町","zip_code":"0260055"},{"name":"釜石","zip_code":"0260026"},{"name":"上中島町","zip_code":"0260041"},{"name":"栗林町","zip_code":"0260412"},{"name":"源太沢町","zip_code":"0260042"},{"name":"小川町","zip_code":"0260045"},{"name":"小佐野町","zip_code":"0260052"},{"name":"駒木町","zip_code":"0260033"},{"name":"桜木町","zip_code":"0260046"},{"name":"定内町","zip_code":"0260053"},{"name":"新浜町","zip_code":"0260015"},{"name":"新町","zip_code":"0260043"},{"name":"鈴子町","zip_code":"0260031"},{"name":"住吉町","zip_code":"0260044"},{"name":"只越町","zip_code":"0260021"},{"name":"千鳥町","zip_code":"0260032"},{"name":"天神町","zip_code":"0260023"},{"name":"唐丹町","zip_code":"0260061"},{"name":"中妻町","zip_code":"0260034"},{"name":"野田町","zip_code":"0260054"},{"name":"箱崎町","zip_code":"0260303"},{"name":"橋野町","zip_code":"0260411"},{"name":"浜町","zip_code":"0260013"},{"name":"東前町","zip_code":"0260014"},{"name":"平田","zip_code":"0260001"},{"name":"松原町","zip_code":"0260004"},{"name":"港町","zip_code":"0260011"},{"name":"八雲町","zip_code":"0260035"},{"name":"両石町","zip_code":"0260304"},{"name":"礼ケ口町","zip_code":"0260051"}]},{"name":"二戸市","divisions":[{"name":"安比","zip_code":"0286723"},{"name":"石切所","zip_code":"0286103"},{"name":"釜沢","zip_code":"0285713"},{"name":"上斗米","zip_code":"0286108"},{"name":"金田一","zip_code":"0285711"},{"name":"下斗米","zip_code":"0285702"},{"name":"浄法寺町合名沢","zip_code":"0286857"},{"name":"浄法寺町飛鳥","zip_code":"0286944"},{"name":"浄法寺町飛鳥谷地","zip_code":"0286945"},{"name":"浄法寺町安比内","zip_code":"0286946"},{"name":"浄法寺町安比内沢","zip_code":"0286947"},{"name":"浄法寺町荒谷","zip_code":"0286883"},{"name":"浄法寺町荒屋敷","zip_code":"0286837"},{"name":"浄法寺町飯近","zip_code":"0286866"},{"name":"浄法寺町家ノ上","zip_code":"0286924"},{"name":"浄法寺町伊崎沢","zip_code":"0286877"},{"name":"浄法寺町一反田","zip_code":"0286874"},{"name":"浄法寺町岩渕","zip_code":"0286847"},{"name":"浄法寺町後久保","zip_code":"0286943"},{"name":"浄法寺町ウト坂","zip_code":"0286848"},{"name":"浄法寺町馬洗場","zip_code":"0286819"},{"name":"浄法寺町梅ノ木","zip_code":"0286879"},{"name":"浄法寺町漆沢","zip_code":"0286833"},{"name":"浄法寺町漆沢大久保","zip_code":"0286817"},{"name":"浄法寺町漆沢上平","zip_code":"0286832"},{"name":"浄法寺町漆沢上前田","zip_code":"0286845"},{"name":"浄法寺町漆沢下平","zip_code":"0286831"},{"name":"浄法寺町漆沢下モ前田","zip_code":"0286835"},{"name":"浄法寺町漆沢舘","zip_code":"0286822"},{"name":"浄法寺町漆沢中前田","zip_code":"0286842"},{"name":"浄法寺町漆畑","zip_code":"0286985"},{"name":"浄法寺町漆原","zip_code":"0286878"},{"name":"浄法寺町上野","zip_code":"0286861"},{"name":"浄法寺町大志田","zip_code":"0286873"},{"name":"浄法寺町大清水荒屋","zip_code":"0286919"},{"name":"浄法寺町大清水下モ平","zip_code":"0286916"},{"name":"浄法寺町大清水空久保","zip_code":"0286929"},{"name":"浄法寺町大清水前田","zip_code":"0286917"},{"name":"浄法寺町大平","zip_code":"0286813"},{"name":"浄法寺町大手","zip_code":"0286958"},{"name":"浄法寺町大畑","zip_code":"0286937"},{"name":"浄法寺町岡本","zip_code":"0286849"},{"name":"浄法寺町岡本前田","zip_code":"0286844"},{"name":"浄法寺町長流部","zip_code":"0286939"},{"name":"浄法寺町御山久保","zip_code":"0286942"},{"name":"浄法寺町御山上平","zip_code":"0286938"},{"name":"浄法寺町御山上野","zip_code":"0286933"},{"name":"浄法寺町御山大久保","zip_code":"0286952"},{"name":"浄法寺町御山下前田","zip_code":"0286935"},{"name":"浄法寺町御山舘","zip_code":"0286948"},{"name":"浄法寺町御山中前田","zip_code":"0286941"},{"name":"浄法寺町御山前田","zip_code":"0286949"},{"name":"浄法寺町海上","zip_code":"0286966"},{"name":"浄法寺町海上田","zip_code":"0286957"},{"name":"浄法寺町海上前田","zip_code":"0286968"},{"name":"浄法寺町鏡田","zip_code":"0286818"},{"name":"浄法寺町柿ノ木平","zip_code":"0286984"},{"name":"浄法寺町桂平","zip_code":"0286955"},{"name":"浄法寺町上杉沢","zip_code":"0286906"},{"name":"浄法寺町上外野","zip_code":"0286856"},{"name":"浄法寺町上前田","zip_code":"0286911"},{"name":"浄法寺町上谷地","zip_code":"0286816"},{"name":"浄法寺町川又","zip_code":"0286826"},{"name":"浄法寺町門崎","zip_code":"0286926"},{"name":"浄法寺町木沢畑向","zip_code":"0286953"},{"name":"浄法寺町北村","zip_code":"0286814"},{"name":"浄法寺町五庵","zip_code":"0286981"},{"name":"浄法寺町小池","zip_code":"0286851"},{"name":"浄法寺町小泉","zip_code":"0286921"},{"name":"浄法寺町小平","zip_code":"0286821"},{"name":"浄法寺町駒ケ嶺","zip_code":"0286977"},{"name":"浄法寺町駒ケ嶺舘","zip_code":"0286973"},{"name":"浄法寺町駒ケ嶺野田","zip_code":"0286979"},{"name":"浄法寺町駒ケ嶺前田","zip_code":"0286978"},{"name":"浄法寺町小又","zip_code":"0286963"},{"name":"浄法寺町サイカツ田","zip_code":"0286853"},{"name":"浄法寺町サイカツ平","zip_code":"0286918"},{"name":"浄法寺町坂本","zip_code":"0286903"},{"name":"浄法寺町桜田","zip_code":"0286972"},{"name":"浄法寺町里川目","zip_code":"0286872"},{"name":"浄法寺町里代","zip_code":"0286904"},{"name":"浄法寺町沢田","zip_code":"0286934"},{"name":"浄法寺町山内","zip_code":"0286928"},{"name":"浄法寺町下タ前田","zip_code":"0286846"},{"name":"浄法寺町下村","zip_code":"0286923"},{"name":"浄法寺町尻平","zip_code":"0286931"},{"name":"浄法寺町清水尻","zip_code":"0286951"},{"name":"浄法寺町季ケ平","zip_code":"0286907"},{"name":"浄法寺町下沢","zip_code":"0286812"},{"name":"浄法寺町下ノ沢","zip_code":"0286913"},{"name":"浄法寺町下藤","zip_code":"0286983"},{"name":"浄法寺町下前田","zip_code":"0286854"},{"name":"浄法寺町霜屋敷","zip_code":"0286915"},{"name":"浄法寺町下谷地","zip_code":"0286922"},{"name":"浄法寺町浄法寺","zip_code":"0286855"},{"name":"浄法寺町新山","zip_code":"0286884"},{"name":"浄法寺町関田","zip_code":"0286836"},{"name":"浄法寺町惣川原田","zip_code":"0286967"},{"name":"浄法寺町空久保","zip_code":"0286905"},{"name":"浄法寺町大坊","zip_code":"0286956"},{"name":"浄法寺町滝見橋","zip_code":"0286961"},{"name":"浄法寺町田子内沢","zip_code":"0286876"},{"name":"浄法寺町舘","zip_code":"0286875"},{"name":"浄法寺町田余内","zip_code":"0286975"},{"name":"浄法寺町長者花","zip_code":"0286868"},{"name":"浄法寺町堤口","zip_code":"0286843"},{"name":"浄法寺町手倉森","zip_code":"0286811"},{"name":"浄法寺町寺ノ上","zip_code":"0286862"},{"name":"浄法寺町樋口","zip_code":"0286976"},{"name":"浄法寺町樋田","zip_code":"0286852"},{"name":"浄法寺町長坂","zip_code":"0286825"},{"name":"浄法寺町長渡路","zip_code":"0286936"},{"name":"浄法寺町中畑","zip_code":"0286974"},{"name":"浄法寺町中前田","zip_code":"0286912"},{"name":"浄法寺町西ノ沢","zip_code":"0286824"},{"name":"浄法寺町沼久保","zip_code":"0286964"},{"name":"浄法寺町野黒沢","zip_code":"0286908"},{"name":"浄法寺町野田","zip_code":"0286865"},{"name":"浄法寺町梅田","zip_code":"0286925"},{"name":"浄法寺町八幡舘","zip_code":"0286863"},{"name":"浄法寺町八方口","zip_code":"0286815"},{"name":"浄法寺町馬場向","zip_code":"0286962"},{"name":"浄法寺町端保口","zip_code":"0286969"},{"name":"浄法寺町早坂","zip_code":"0286954"},{"name":"浄法寺町羽余内","zip_code":"0286882"},{"name":"浄法寺町深堀","zip_code":"0286901"},{"name":"浄法寺町細田","zip_code":"0286834"},{"name":"浄法寺町松岡","zip_code":"0286841"},{"name":"浄法寺町松畑","zip_code":"0286932"},{"name":"浄法寺町宮沢","zip_code":"0286823"},{"name":"浄法寺町明神沢","zip_code":"0286902"},{"name":"浄法寺町向川原","zip_code":"0286971"},{"name":"浄法寺町向田","zip_code":"0286838"},{"name":"浄法寺町森越","zip_code":"0286885"},{"name":"浄法寺町門前向","zip_code":"0286864"},{"name":"浄法寺町焼場","zip_code":"0286867"},{"name":"浄法寺町安戸","zip_code":"0286871"},{"name":"浄法寺町谷地屋敷","zip_code":"0286965"},{"name":"浄法寺町焼切","zip_code":"0286982"},{"name":"浄法寺町湯沢","zip_code":"0286927"},{"name":"浄法寺町和泉田","zip_code":"0286914"},{"name":"浄法寺町渡ノ羽","zip_code":"0286881"},{"name":"白鳥","zip_code":"0286107"},{"name":"足沢","zip_code":"0286724"},{"name":"仁左平","zip_code":"0286106"},{"name":"似鳥","zip_code":"0286721"},{"name":"野々上","zip_code":"0285712"},{"name":"福岡","zip_code":"0286101"},{"name":"福田","zip_code":"0286722"},{"name":"堀野","zip_code":"0286105"},{"name":"米沢","zip_code":"0286104"}]},{"name":"八幡平市","divisions":[{"name":"相沢","zip_code":"0287619"},{"name":"愛の山","zip_code":"0287635"},{"name":"赤子平","zip_code":"0287526"},{"name":"赤坂田","zip_code":"0287554"},{"name":"足深","zip_code":"0287679"},{"name":"安代寺田","zip_code":"0287506"},{"name":"安代寄木","zip_code":"0287552"},{"name":"安比高原","zip_code":"0287306"},{"name":"兄川","zip_code":"0287621"},{"name":"兄畑中川原","zip_code":"0287622"},{"name":"荒木田","zip_code":"0287406"},{"name":"荒屋新町","zip_code":"0287534"},{"name":"家ノ裏","zip_code":"0287674"},{"name":"石神","zip_code":"0287521"},{"name":"石名坂","zip_code":"0287615"},{"name":"石名坂下タ","zip_code":"0287614"},{"name":"石森","zip_code":"0287663"},{"name":"五日市","zip_code":"0287562"},{"name":"岩木向","zip_code":"0287501"},{"name":"岩屋","zip_code":"0287505"},{"name":"上の山","zip_code":"0287531"},{"name":"丑山","zip_code":"0287602"},{"name":"丑山口","zip_code":"0287604"},{"name":"打田内","zip_code":"0287536"},{"name":"鵜谷地","zip_code":"0287605"},{"name":"姥子石","zip_code":"0287606"},{"name":"馬揚沢","zip_code":"0287655"},{"name":"上関","zip_code":"0287403"},{"name":"扇畑","zip_code":"0287553"},{"name":"大沢","zip_code":"0287661"},{"name":"大沢田","zip_code":"0287664"},{"name":"大面平","zip_code":"0287607"},{"name":"大更","zip_code":"0287111"},{"name":"大又沢口","zip_code":"0287624"},{"name":"沖田表","zip_code":"0287611"},{"name":"沖ノ平","zip_code":"0287625"},{"name":"折壁","zip_code":"0287617"},{"name":"欠田","zip_code":"0287612"},{"name":"柏台","zip_code":"0287303"},{"name":"帷子","zip_code":"0287402"},{"name":"叺田","zip_code":"0287533"},{"name":"上岩木","zip_code":"0287502"},{"name":"川原","zip_code":"0287527"},{"name":"切通","zip_code":"0287643"},{"name":"栗木田","zip_code":"0287657"},{"name":"黒沢","zip_code":"0287555"},{"name":"小岩井","zip_code":"0287628"},{"name":"小峠","zip_code":"0287654"},{"name":"小原道ノ上","zip_code":"0287632"},{"name":"小原道ノ下","zip_code":"0287638"},{"name":"小森","zip_code":"0287678"},{"name":"小柳田","zip_code":"0287532"},{"name":"小屋畑","zip_code":"0287543"},{"name":"作平","zip_code":"0287621"},{"name":"左妻","zip_code":"0287656"},{"name":"佐比内","zip_code":"0287627"},{"name":"沢口","zip_code":"0287676"},{"name":"下タ川原","zip_code":"0287645"},{"name":"下町","zip_code":"0287561"},{"name":"清水","zip_code":"0287535"},{"name":"下モ川原","zip_code":"0287675"},{"name":"下の田","zip_code":"0287511"},{"name":"蛇石","zip_code":"0287618"},{"name":"勝善川原","zip_code":"0287642"},{"name":"白沢口","zip_code":"0287629"},{"name":"新田","zip_code":"0287551"},{"name":"杉沢","zip_code":"0287662"},{"name":"雀長根","zip_code":"0287644"},{"name":"関沢口","zip_code":"0287516"},{"name":"瀬ノ沢","zip_code":"0287631"},{"name":"平舘","zip_code":"0287405"},{"name":"高畑","zip_code":"0287542"},{"name":"滝沢","zip_code":"0287566"},{"name":"田沢","zip_code":"0287601"},{"name":"舘市","zip_code":"0287623"},{"name":"田中下タ","zip_code":"0287672"},{"name":"田の沢","zip_code":"0287563"},{"name":"田山","zip_code":"0287677"},{"name":"長者前","zip_code":"0287651"},{"name":"土沢","zip_code":"0287513"},{"name":"繋沢","zip_code":"0287523"},{"name":"寺志田","zip_code":"0287541"},{"name":"田頭","zip_code":"0287112"},{"name":"藤七温泉","zip_code":"0287303"},{"name":"戸鎖","zip_code":"0287626"},{"name":"戸沢","zip_code":"0287567"},{"name":"殿坂下タ","zip_code":"0287673"},{"name":"中佐井","zip_code":"0287514"},{"name":"中田","zip_code":"0287503"},{"name":"西根寺田","zip_code":"0287401"},{"name":"根石","zip_code":"0287652"},{"name":"野駄","zip_code":"0287301"},{"name":"八幡平温泉郷","zip_code":"0287302"},{"name":"馬場下","zip_code":"0287671"},{"name":"日影","zip_code":"0287525"},{"name":"日泥道ノ上","zip_code":"0287633"},{"name":"日泥道ノ下","zip_code":"0287637"},{"name":"平笠","zip_code":"0287113"},{"name":"平又","zip_code":"0287653"},{"name":"比路平","zip_code":"0287641"},{"name":"二タ子","zip_code":"0287616"},{"name":"古屋敷","zip_code":"0287515"},{"name":"星沢","zip_code":"0287556"},{"name":"細野","zip_code":"0287557"},{"name":"保戸坂","zip_code":"0287544"},{"name":"堀切","zip_code":"0287404"},{"name":"前田","zip_code":"0287504"},{"name":"曲田","zip_code":"0287537"},{"name":"亦戸川原","zip_code":"0287613"},{"name":"松尾","zip_code":"0287305"},{"name":"松尾寄木","zip_code":"0287302"},{"name":"松川温泉","zip_code":"0287302"},{"name":"松木田","zip_code":"0287545"},{"name":"緑ガ丘","zip_code":"0287304"},{"name":"目名市","zip_code":"0287565"},{"name":"矢神","zip_code":"0287603"},{"name":"谷地田","zip_code":"0287564"},{"name":"谷地中","zip_code":"0287608"},{"name":"山岸","zip_code":"0287512"},{"name":"山口","zip_code":"0287522"},{"name":"湯の沢","zip_code":"0287524"},{"name":"和屋敷道ノ上","zip_code":"0287634"},{"name":"和屋敷道ノ下","zip_code":"0287636"}]},{"name":"奥州市","divisions":[{"name":"胆沢区小山","zip_code":"0230402"},{"name":"胆沢区南都田","zip_code":"0230401"},{"name":"胆沢区若柳","zip_code":"0230403"},{"name":"江刺区伊手","zip_code":"0231761"},{"name":"江刺区稲瀬","zip_code":"0231132"},{"name":"江刺区岩谷堂","zip_code":"0231101"},{"name":"江刺区大通り","zip_code":"0231111"},{"name":"江刺区愛宕","zip_code":"0231131"},{"name":"江刺区男石","zip_code":"0231121"},{"name":"江刺区川原町","zip_code":"0231114"},{"name":"江刺区栄町","zip_code":"0231118"},{"name":"江刺区杉ノ町","zip_code":"0231105"},{"name":"江刺区銭町","zip_code":"0231125"},{"name":"江刺区舘山","zip_code":"0231122"},{"name":"江刺区玉里","zip_code":"0231134"},{"name":"江刺区田原","zip_code":"0230171"},{"name":"江刺区重染寺","zip_code":"0231116"},{"name":"江刺区豊田町","zip_code":"0231104"},{"name":"江刺区中町","zip_code":"0231113"},{"name":"江刺区西大通り","zip_code":"0231103"},{"name":"江刺区広瀬","zip_code":"0231133"},{"name":"江刺区藤里","zip_code":"0231762"},{"name":"江刺区本町","zip_code":"0231115"},{"name":"江刺区前田町","zip_code":"0231123"},{"name":"江刺区南大通り","zip_code":"0231112"},{"name":"江刺区南町","zip_code":"0231117"},{"name":"江刺区六日町","zip_code":"0231124"},{"name":"江刺区梁川","zip_code":"0231341"},{"name":"江刺区八日町","zip_code":"0231102"},{"name":"江刺区米里","zip_code":"0231551"},{"name":"衣川区愛宕下","zip_code":"0294426"},{"name":"衣川区天田","zip_code":"0294315"},{"name":"衣川区天土","zip_code":"0294365"},{"name":"衣川区有浦","zip_code":"0294307"},{"name":"衣川区池田","zip_code":"0294434"},{"name":"衣川区池田西","zip_code":"0294433"},{"name":"衣川区石ケ沢","zip_code":"0294381"},{"name":"衣川区石神","zip_code":"0294384"},{"name":"衣川区石生","zip_code":"0294313"},{"name":"衣川区板倉","zip_code":"0294322"},{"name":"衣川区岩の上","zip_code":"0294352"},{"name":"衣川区後滝の沢","zip_code":"0294465"},{"name":"衣川区後山","zip_code":"0294377"},{"name":"衣川区畦畑","zip_code":"0294482"},{"name":"衣川区畦畑山","zip_code":"0294481"},{"name":"衣川区采女沢","zip_code":"0294425"},{"name":"衣川区上野","zip_code":"0294442"},{"name":"衣川区雲南田","zip_code":"0294321"},{"name":"衣川区大石ケ沢","zip_code":"0294436"},{"name":"衣川区大坂","zip_code":"0294406"},{"name":"衣川区大平","zip_code":"0294308"},{"name":"衣川区大面","zip_code":"0294419"},{"name":"衣川区大西","zip_code":"0294347"},{"name":"衣川区大原","zip_code":"0294488"},{"name":"衣川区大原山","zip_code":"0294487"},{"name":"衣川区沖の野","zip_code":"0294383"},{"name":"衣川区押切","zip_code":"0294435"},{"name":"衣川区表","zip_code":"0294454"},{"name":"衣川区女石","zip_code":"0294386"},{"name":"衣川区懸田","zip_code":"0294326"},{"name":"衣川区月山","zip_code":"0294452"},{"name":"衣川区上大森","zip_code":"0294388"},{"name":"衣川区上河内","zip_code":"0294474"},{"name":"衣川区上小路","zip_code":"0294411"},{"name":"衣川区上立沢","zip_code":"0294491"},{"name":"衣川区上寺田","zip_code":"0294329"},{"name":"衣川区唐金","zip_code":"0294437"},{"name":"衣川区川端","zip_code":"0294446"},{"name":"衣川区金成","zip_code":"0294407"},{"name":"衣川区衣原","zip_code":"0294303"},{"name":"衣川区旧殿","zip_code":"0294353"},{"name":"衣川区鞍掛","zip_code":"0294375"},{"name":"衣川区九輪堂","zip_code":"0294424"},{"name":"衣川区桑木谷地","zip_code":"0294405"},{"name":"衣川区桑畑","zip_code":"0294317"},{"name":"衣川区小安代","zip_code":"0294323"},{"name":"衣川区小田","zip_code":"0294306"},{"name":"衣川区小林","zip_code":"0294432"},{"name":"衣川区小林山","zip_code":"0294362"},{"name":"衣川区小正板","zip_code":"0294325"},{"name":"衣川区駒場","zip_code":"0294333"},{"name":"衣川区沢田","zip_code":"0294344"},{"name":"衣川区清水の上","zip_code":"0294444"},{"name":"衣川区下大森","zip_code":"0294387"},{"name":"衣川区下河内","zip_code":"0294471"},{"name":"衣川区下立沢","zip_code":"0294492"},{"name":"衣川区下寺田","zip_code":"0294328"},{"name":"衣川区菖蒲平","zip_code":"0294378"},{"name":"衣川区陣場下","zip_code":"0294427"},{"name":"衣川区杉野","zip_code":"0294348"},{"name":"衣川区杉林","zip_code":"0294418"},{"name":"衣川区堰下","zip_code":"0294413"},{"name":"衣川区関袋","zip_code":"0294382"},{"name":"衣川区瀬原","zip_code":"0294422"},{"name":"衣川区瀬原西浦","zip_code":"0294423"},{"name":"衣川区噌味","zip_code":"0294484"},{"name":"衣川区外の沢","zip_code":"0294304"},{"name":"衣川区鷹の巣","zip_code":"0294486"},{"name":"衣川区高保呂","zip_code":"0294342"},{"name":"衣川区館城","zip_code":"0294345"},{"name":"衣川区田中","zip_code":"0294431"},{"name":"衣川区田中西","zip_code":"0294439"},{"name":"衣川区土屋","zip_code":"0294408"},{"name":"衣川区寺袋","zip_code":"0294404"},{"name":"衣川区富沢","zip_code":"0294385"},{"name":"衣川区富田","zip_code":"0294412"},{"name":"衣川区富田前","zip_code":"0294417"},{"name":"衣川区豊巻","zip_code":"0294346"},{"name":"衣川区長板沢","zip_code":"0294389"},{"name":"衣川区中河内","zip_code":"0294472"},{"name":"衣川区長袋","zip_code":"0294305"},{"name":"衣川区長嚢","zip_code":"0294361"},{"name":"衣川区中屋敷","zip_code":"0294314"},{"name":"衣川区中山","zip_code":"0294475"},{"name":"衣川区夏秋","zip_code":"0294351"},{"name":"衣川区夏梨","zip_code":"0294363"},{"name":"衣川区七日市場","zip_code":"0294445"},{"name":"衣川区並木前","zip_code":"0294441"},{"name":"衣川区楢原","zip_code":"0294495"},{"name":"衣川区楢原山","zip_code":"0294494"},{"name":"衣川区西風山","zip_code":"0294364"},{"name":"衣川区苗代沢","zip_code":"0294316"},{"name":"衣川区西裏","zip_code":"0294456"},{"name":"衣川区西窪","zip_code":"0294312"},{"name":"衣川区沼野","zip_code":"0294483"},{"name":"衣川区野崎","zip_code":"0294493"},{"name":"衣川区除","zip_code":"0294354"},{"name":"衣川区野田","zip_code":"0294414"},{"name":"衣川区能登屋敷","zip_code":"0294343"},{"name":"衣川区八千","zip_code":"0294462"},{"name":"衣川区張山","zip_code":"0294401"},{"name":"衣川区東裏","zip_code":"0294451"},{"name":"衣川区日向","zip_code":"0294421"},{"name":"衣川区桧山沢","zip_code":"0294371"},{"name":"衣川区桧山沢山","zip_code":"0294374"},{"name":"衣川区平","zip_code":"0294461"},{"name":"衣川区深沢","zip_code":"0294331"},{"name":"衣川区古館","zip_code":"0294311"},{"name":"衣川区古戸","zip_code":"0294332"},{"name":"衣川区宝塔谷地","zip_code":"0294485"},{"name":"衣川区星屋","zip_code":"0294402"},{"name":"衣川区本田原","zip_code":"0294403"},{"name":"衣川区真打","zip_code":"0294496"},{"name":"衣川区前滝の沢","zip_code":"0294464"},{"name":"衣川区馬懸","zip_code":"0294327"},{"name":"衣川区正板","zip_code":"0294324"},{"name":"衣川区松林","zip_code":"0294372"},{"name":"衣川区六日市場","zip_code":"0294443"},{"name":"衣川区向","zip_code":"0294473"},{"name":"衣川区向館","zip_code":"0294416"},{"name":"衣川区向館谷起","zip_code":"0294415"},{"name":"衣川区室の木","zip_code":"0294438"},{"name":"衣川区百ケ袋","zip_code":"0294334"},{"name":"衣川区餅転","zip_code":"0294497"},{"name":"衣川区本巻","zip_code":"0294376"},{"name":"衣川区山岸","zip_code":"0294355"},{"name":"衣川区山口","zip_code":"0294453"},{"name":"衣川区山田","zip_code":"0294373"},{"name":"衣川区横道下","zip_code":"0294455"},{"name":"衣川区葭ケ沢","zip_code":"0294463"},{"name":"衣川区六道","zip_code":"0294341"},{"name":"前沢区合ノ沢","zip_code":"0294205"},{"name":"前沢区赤坂","zip_code":"0294206"},{"name":"前沢区赤面","zip_code":"0294207"},{"name":"前沢区あすか通","zip_code":"0294209"},{"name":"前沢区安寺沢","zip_code":"0294205"},{"name":"前沢区阿部舘","zip_code":"0294201"},{"name":"前沢区粟ケ島","zip_code":"0294208"},{"name":"前沢区石田","zip_code":"0294205"},{"name":"前沢区一ノ沢","zip_code":"0294205"},{"name":"前沢区一本杉","zip_code":"0294207"},{"name":"前沢区鵜ノ木","zip_code":"0294205"},{"name":"前沢区鵜ノ木田","zip_code":"0294205"},{"name":"前沢区裏新田","zip_code":"0294206"},{"name":"前沢区うるし野","zip_code":"0294205"},{"name":"前沢区駅東","zip_code":"0294211"},{"name":"前沢区大桜","zip_code":"0294207"},{"name":"前沢区大袋","zip_code":"0294205"},{"name":"前沢区沖田","zip_code":"0294205"},{"name":"前沢区小沢口","zip_code":"0294205"},{"name":"前沢区河ノ畑","zip_code":"0294208"},{"name":"前沢区株樹","zip_code":"0294208"},{"name":"前沢区川内","zip_code":"0294205"},{"name":"前沢区北久保","zip_code":"0294203"},{"name":"前沢区狐石","zip_code":"0294206"},{"name":"前沢区狐堂","zip_code":"0294203"},{"name":"前沢区衣関","zip_code":"0294205"},{"name":"前沢区久田","zip_code":"0294201"},{"name":"前沢区源氏ケ崎","zip_code":"0294201"},{"name":"前沢区五合田","zip_code":"0294208"},{"name":"前沢区五十人町","zip_code":"0294207"},{"name":"前沢区古城","zip_code":"0294201"},{"name":"前沢区駒水","zip_code":"0294206"},{"name":"前沢区里","zip_code":"0294205"},{"name":"前沢区下谷起","zip_code":"0294204"},{"name":"前沢区島","zip_code":"0294204"},{"name":"前沢区清水","zip_code":"0294205"},{"name":"前沢区下小路","zip_code":"0294207"},{"name":"前沢区蛇ノ鼻","zip_code":"0294205"},{"name":"前沢区宿","zip_code":"0294204"},{"name":"前沢区白山","zip_code":"0294202"},{"name":"前沢区白鳥舘","zip_code":"0294205"},{"name":"前沢区新城","zip_code":"0294205"},{"name":"前沢区陣場","zip_code":"0294206"},{"name":"前沢区新町","zip_code":"0294208"},{"name":"前沢区新町裏","zip_code":"0294208"},{"name":"前沢区生母","zip_code":"0294203"},{"name":"前沢区平小路","zip_code":"0294207"},{"name":"前沢区平前","zip_code":"0294207"},{"name":"前沢区大林寺下","zip_code":"0294208"},{"name":"前沢区高畑","zip_code":"0294204"},{"name":"前沢区竹沢","zip_code":"0294208"},{"name":"前沢区立石","zip_code":"0294208"},{"name":"前沢区田中","zip_code":"0294204"},{"name":"前沢区田畠","zip_code":"0294208"},{"name":"前沢区太郎ケ沢","zip_code":"0294206"},{"name":"前沢区堤田","zip_code":"0294205"},{"name":"前沢区照井舘","zip_code":"0294205"},{"name":"前沢区塔ケ崎","zip_code":"0294207"},{"name":"前沢区道場","zip_code":"0294204"},{"name":"前沢区徳沢","zip_code":"0294205"},{"name":"前沢区泊ケ崎","zip_code":"0294207"},{"name":"前沢区鳥待小屋","zip_code":"0294204"},{"name":"前沢区中久保","zip_code":"0294204"},{"name":"前沢区永沢","zip_code":"0294205"},{"name":"前沢区中田","zip_code":"0294208"},{"name":"前沢区長檀","zip_code":"0294204"},{"name":"前沢区長根","zip_code":"0294205"},{"name":"前沢区中村","zip_code":"0294204"},{"name":"前沢区中屋敷","zip_code":"0294205"},{"name":"前沢区七日町","zip_code":"0294208"},{"name":"前沢区七日町裏","zip_code":"0294208"},{"name":"前沢区浪洗","zip_code":"0294205"},{"name":"前沢区二十人町","zip_code":"0294208"},{"name":"前沢区二十人町裏","zip_code":"0294208"},{"name":"前沢区二ノ沢","zip_code":"0294205"},{"name":"前沢区沼尻","zip_code":"0294205"},{"name":"前沢区沼ノ沢","zip_code":"0294205"},{"name":"前沢区日向","zip_code":"0294205"},{"name":"前沢区日除松","zip_code":"0294206"},{"name":"前沢区福養","zip_code":"0294205"},{"name":"前沢区古川","zip_code":"0294204"},{"name":"前沢区干場","zip_code":"0294205"},{"name":"前沢区前野","zip_code":"0294205"},{"name":"前沢区簾森","zip_code":"0294206"},{"name":"前沢区三日町","zip_code":"0294207"},{"name":"前沢区三日町浦","zip_code":"0294207"},{"name":"前沢区三日町新裏","zip_code":"0294207"},{"name":"前沢区南陣場","zip_code":"0294205"},{"name":"前沢区南塔ヶ崎","zip_code":"0294205"},{"name":"前沢区南中島","zip_code":"0294205"},{"name":"前沢区南前沢","zip_code":"0294204"},{"name":"前沢区箕輪","zip_code":"0294205"},{"name":"前沢区向田","zip_code":"0294204"},{"name":"前沢区本杉","zip_code":"0294204"},{"name":"前沢区両手沢","zip_code":"0294205"},{"name":"前沢区谷記","zip_code":"0294205"},{"name":"前沢区谷起","zip_code":"0294205"},{"name":"前沢区谷記田","zip_code":"0294205"},{"name":"前沢区谷起田","zip_code":"0294205"},{"name":"前沢区櫓前","zip_code":"0294205"},{"name":"前沢区屋敷","zip_code":"0294207"},{"name":"前沢区谷地","zip_code":"0294204"},{"name":"前沢区山下","zip_code":"0294208"},{"name":"前沢区八幡","zip_code":"0294204"},{"name":"前沢区八幡前","zip_code":"0294204"},{"name":"前沢区養ケ森","zip_code":"0294206"},{"name":"前沢区六本松","zip_code":"0294205"},{"name":"水沢区赤土田","zip_code":"0230035"},{"name":"水沢区秋葉町","zip_code":"0230041"},{"name":"水沢区朝日町","zip_code":"0230823"},{"name":"水沢区東町","zip_code":"0230818"},{"name":"水沢区姉体町","zip_code":"0230831"},{"name":"水沢区泉町","zip_code":"0230824"},{"name":"水沢区一本柳","zip_code":"0230013"},{"name":"水沢区稲荷田","zip_code":"0230011"},{"name":"水沢区後田","zip_code":"0230898"},{"name":"水沢区上町","zip_code":"0230057"},{"name":"水沢区大鐘町","zip_code":"0230854"},{"name":"水沢区大上","zip_code":"0230084"},{"name":"水沢区大手町","zip_code":"0230053"},{"name":"水沢区大橋","zip_code":"0230867"},{"name":"水沢区大畑小路","zip_code":"0230802"},{"name":"水沢区大町","zip_code":"0230045"},{"name":"水沢区踊子","zip_code":"0230085"},{"name":"水沢区卸町","zip_code":"0230001"},{"name":"水沢区欠ノ下","zip_code":"0230021"},{"name":"水沢区勝手町","zip_code":"0230051"},{"name":"水沢区釜田","zip_code":"0230892"},{"name":"水沢区上姉体","zip_code":"0230833"},{"name":"水沢区搦手丁","zip_code":"0230052"},{"name":"水沢区川口町","zip_code":"0230034"},{"name":"水沢区川端","zip_code":"0230863"},{"name":"水沢区川原小路","zip_code":"0230046"},{"name":"水沢区北丑沢","zip_code":"0230031"},{"name":"水沢区北栗林","zip_code":"0230036"},{"name":"水沢区北田","zip_code":"0230881"},{"name":"水沢区北半郷","zip_code":"0230092"},{"name":"水沢区吉小路","zip_code":"0230054"},{"name":"水沢区久田","zip_code":"0230056"},{"name":"水沢区黒石町","zip_code":"0230101"},{"name":"水沢区黒子","zip_code":"0230071"},{"name":"水沢区桑畑","zip_code":"0230077"},{"name":"水沢区小石田","zip_code":"0230062"},{"name":"水沢区高網","zip_code":"0230025"},{"name":"水沢区高谷宿","zip_code":"0230087"},{"name":"水沢区虚空蔵小路","zip_code":"0230055"},{"name":"水沢区極楽","zip_code":"0230074"},{"name":"水沢区五千刈","zip_code":"0230015"},{"name":"水沢区小中","zip_code":"0230018"},{"name":"水沢区五輪","zip_code":"0230094"},{"name":"水沢区斉勝田","zip_code":"0230012"},{"name":"水沢区斉の神","zip_code":"0230805"},{"name":"水沢区桜川","zip_code":"0230897"},{"name":"水沢区佐倉河","zip_code":"0230003"},{"name":"水沢区桜屋敷","zip_code":"0230865"},{"name":"水沢区桜屋敷西","zip_code":"0230872"},{"name":"水沢区笹森谷地","zip_code":"0230873"},{"name":"水沢区里鎗","zip_code":"0230026"},{"name":"水沢区三本木","zip_code":"0230044"},{"name":"水沢区地蔵田","zip_code":"0230014"},{"name":"水沢区渋田","zip_code":"0230017"},{"name":"水沢区聖天","zip_code":"0230063"},{"name":"水沢区寺領","zip_code":"0230073"},{"name":"水沢区新小路","zip_code":"0230807"},{"name":"水沢区真城","zip_code":"0230841"},{"name":"水沢区真城が丘","zip_code":"0230842"},{"name":"水沢区神明町","zip_code":"0230821"},{"name":"水沢区雀田","zip_code":"0230095"},{"name":"水沢区堰合","zip_code":"0230866"},{"name":"水沢区前郷","zip_code":"0230083"},{"name":"水沢区袖谷地","zip_code":"0230877"},{"name":"水沢区外谷地","zip_code":"0230871"},{"name":"水沢区橇町","zip_code":"0230081"},{"name":"水沢区太日通り","zip_code":"0230827"},{"name":"水沢区台町","zip_code":"0230825"},{"name":"水沢区大明神","zip_code":"0230894"},{"name":"水沢区多賀","zip_code":"0230032"},{"name":"水沢区高屋敷","zip_code":"0230889"},{"name":"水沢区高山","zip_code":"0230091"},{"name":"水沢区内匠田","zip_code":"0230891"},{"name":"水沢区田小路","zip_code":"0230803"},{"name":"水沢区立町","zip_code":"0230047"},{"name":"水沢区足袋針","zip_code":"0230895"},{"name":"水沢区築舘","zip_code":"0230019"},{"name":"水沢区造道","zip_code":"0230076"},{"name":"水沢区鶴淵","zip_code":"0230876"},{"name":"水沢区寺小路","zip_code":"0230811"},{"name":"水沢区寺脇","zip_code":"0230812"},{"name":"水沢区天文台通り","zip_code":"0230815"},{"name":"水沢区土器田","zip_code":"0230064"},{"name":"水沢区中上野町","zip_code":"0230857"},{"name":"水沢区中城","zip_code":"0230022"},{"name":"水沢区中田町","zip_code":"0230826"},{"name":"水沢区中町","zip_code":"0230813"},{"name":"水沢区長町","zip_code":"0230061"},{"name":"水沢区名残","zip_code":"0230024"},{"name":"水沢区西上野町","zip_code":"0230856"},{"name":"水沢区西光田","zip_code":"0230896"},{"name":"水沢区西田","zip_code":"0230885"},{"name":"水沢区西町","zip_code":"0230816"},{"name":"水沢区二反田","zip_code":"0230067"},{"name":"水沢区羽田町駅東","zip_code":"0230102"},{"name":"水沢区羽田町駅前","zip_code":"0230104"},{"name":"水沢区羽田町駅南","zip_code":"0230103"},{"name":"水沢区羽田町久保","zip_code":"0230106"},{"name":"水沢区羽田町宝生","zip_code":"0230105"},{"name":"水沢区羽田町宝柳木","zip_code":"0230107"},{"name":"水沢区羽田町向畑","zip_code":"0230108"},{"name":"水沢区羽田町","zip_code":"0230832"},{"name":"水沢区八反田","zip_code":"0230888"},{"name":"水沢区八反町","zip_code":"0230023"},{"name":"水沢区花園町","zip_code":"0230829"},{"name":"水沢区幅下","zip_code":"0230027"},{"name":"水沢区東上野町","zip_code":"0230853"},{"name":"水沢区東大通り","zip_code":"0230828"},{"name":"水沢区東中通り","zip_code":"0230822"},{"name":"水沢区東半郷","zip_code":"0230082"},{"name":"水沢区日高小路","zip_code":"0230808"},{"name":"水沢区日高西","zip_code":"0230806"},{"name":"水沢区平沢","zip_code":"0230016"},{"name":"水沢区樋渡","zip_code":"0230072"},{"name":"水沢区福吉町","zip_code":"0230862"},{"name":"水沢区袋町","zip_code":"0230814"},{"name":"水沢区福原","zip_code":"0230882"},{"name":"水沢区不断町","zip_code":"0230033"},{"name":"水沢区星ガ丘町","zip_code":"0230861"},{"name":"水沢区堀ノ内","zip_code":"0230058"},{"name":"水沢区前田袋","zip_code":"0230066"},{"name":"水沢区前谷地","zip_code":"0230884"},{"name":"水沢区町裏","zip_code":"0230883"},{"name":"水沢区水神","zip_code":"0230093"},{"name":"水沢区水沢工業団地","zip_code":"0230002"},{"name":"水沢区水山","zip_code":"0230065"},{"name":"水沢区道合","zip_code":"0230043"},{"name":"水沢区南丑沢","zip_code":"0230037"},{"name":"水沢区南大鐘","zip_code":"0230855"},{"name":"水沢区南町","zip_code":"0230851"},{"name":"水沢区南矢中","zip_code":"0230886"},{"name":"水沢区水ノ口","zip_code":"0230075"},{"name":"水沢区宮下町","zip_code":"0230817"},{"name":"水沢区見分森","zip_code":"0230874"},{"name":"水沢区向田","zip_code":"0230096"},{"name":"水沢区森下","zip_code":"0230875"},{"name":"水沢区谷地中","zip_code":"0230086"},{"name":"水沢区谷地明円","zip_code":"0230804"},{"name":"水沢区矢中","zip_code":"0230887"},{"name":"水沢区柳町","zip_code":"0230042"},{"name":"水沢区山崎町","zip_code":"0230852"},{"name":"水沢区横町","zip_code":"0230801"},{"name":"水沢区蓬田","zip_code":"0230893"},{"name":"水沢区龍ケ馬場","zip_code":"0230864"}]},{"name":"岩手郡雫石町","divisions":[{"name":"板橋","zip_code":"0200502"},{"name":"稲荷下","zip_code":"0200546"},{"name":"上野","zip_code":"0200583"},{"name":"鴬宿","zip_code":"0200574"},{"name":"御明神","zip_code":"0200581"},{"name":"柿木","zip_code":"0200544"},{"name":"上笹森","zip_code":"0200559"},{"name":"上曽根田","zip_code":"0200555"},{"name":"上平","zip_code":"0200557"},{"name":"上町北","zip_code":"0200538"},{"name":"上町西","zip_code":"0200537"},{"name":"上町東","zip_code":"0200539"},{"name":"上町南","zip_code":"0200530"},{"name":"川原","zip_code":"0200534"},{"name":"黒沢川","zip_code":"0200517"},{"name":"源大堂","zip_code":"0200525"},{"name":"小日谷地","zip_code":"0200535"},{"name":"笹森","zip_code":"0200551"},{"name":"塩ケ森","zip_code":"0200512"},{"name":"下兎野","zip_code":"0200513"},{"name":"下久保","zip_code":"0200522"},{"name":"下笹森","zip_code":"0200558"},{"name":"下曽根田","zip_code":"0200553"},{"name":"下平","zip_code":"0200552"},{"name":"下長根","zip_code":"0200515"},{"name":"下町","zip_code":"0200528"},{"name":"下町西","zip_code":"0200529"},{"name":"下町東","zip_code":"0200520"},{"name":"千刈田","zip_code":"0200541"},{"name":"麁津田","zip_code":"0200521"},{"name":"高前田","zip_code":"0200543"},{"name":"繋","zip_code":"0200571"},{"name":"寺の下","zip_code":"0200524"},{"name":"中黒沢川","zip_code":"0200505"},{"name":"中沼","zip_code":"0200504"},{"name":"中町","zip_code":"0200527"},{"name":"長畑","zip_code":"0200511"},{"name":"長山","zip_code":"0200585"},{"name":"名子","zip_code":"0200556"},{"name":"七ツ森","zip_code":"0200503"},{"name":"仁佐瀬","zip_code":"0200501"},{"name":"西安庭","zip_code":"0200572"},{"name":"西根","zip_code":"0200584"},{"name":"沼返","zip_code":"0200506"},{"name":"根堀","zip_code":"0200523"},{"name":"野中","zip_code":"0200514"},{"name":"橋場","zip_code":"0200582"},{"name":"八卦","zip_code":"0200536"},{"name":"林","zip_code":"0200533"},{"name":"払川","zip_code":"0200532"},{"name":"晴山","zip_code":"0200547"},{"name":"町裏","zip_code":"0200554"},{"name":"麻見田","zip_code":"0200531"},{"name":"丸谷地","zip_code":"0200507"},{"name":"万田渡","zip_code":"0200542"},{"name":"南畑","zip_code":"0200573"},{"name":"谷地","zip_code":"0200545"}]},{"name":"岩手郡葛巻町","divisions":[{"name":"江刈","zip_code":"0285403"},{"name":"葛巻","zip_code":"0285102"},{"name":"田部","zip_code":"0285401"}]},{"name":"岩手郡岩手町","divisions":[{"name":"五日市","zip_code":"0284307"},{"name":"一方井","zip_code":"0284421"},{"name":"江刈内","zip_code":"0284303"},{"name":"川口","zip_code":"0284211"},{"name":"久保","zip_code":"0284305"},{"name":"黒石","zip_code":"0284424"},{"name":"黒内","zip_code":"0284426"},{"name":"子抱","zip_code":"0284304"},{"name":"大坊","zip_code":"0284302"},{"name":"土川","zip_code":"0284423"},{"name":"沼宮内","zip_code":"0284301"},{"name":"葉木田","zip_code":"0284425"},{"name":"坊","zip_code":"0284422"},{"name":"御堂","zip_code":"0284306"}]},{"name":"岩手郡滝沢村","divisions":[{"name":"鵜飼","zip_code":"0200172"},{"name":"大釜","zip_code":"0200151"},{"name":"大沢","zip_code":"0200171"},{"name":"篠木","zip_code":"0200161"},{"name":"滝沢","zip_code":"0200173"}]},{"name":"紫波郡紫波町","divisions":[{"name":"赤沢","zip_code":"0283533"},{"name":"稲藤","zip_code":"0283451"},{"name":"犬渕","zip_code":"0283311"},{"name":"犬吠森","zip_code":"0283312"},{"name":"江柄","zip_code":"0283321"},{"name":"大巻","zip_code":"0283314"},{"name":"片寄","zip_code":"0283452"},{"name":"上平沢","zip_code":"0283441"},{"name":"上松本","zip_code":"0283443"},{"name":"北沢","zip_code":"0283323"},{"name":"北田","zip_code":"0283536"},{"name":"北日詰","zip_code":"0283309"},{"name":"草刈","zip_code":"0283325"},{"name":"高水寺","zip_code":"0283303"},{"name":"小屋敷","zip_code":"0283444"},{"name":"桜町","zip_code":"0283307"},{"name":"佐比内","zip_code":"0283316"},{"name":"下松本","zip_code":"0283446"},{"name":"紫波中央駅前","zip_code":"0283318"},{"name":"陣ケ岡","zip_code":"0283302"},{"name":"土舘","zip_code":"0283453"},{"name":"遠山","zip_code":"0283535"},{"name":"栃内","zip_code":"0283322"},{"name":"中島","zip_code":"0283301"},{"name":"西長岡","zip_code":"0283326"},{"name":"東長岡","zip_code":"0283324"},{"name":"彦部","zip_code":"0283315"},{"name":"日詰","zip_code":"0283305"},{"name":"日詰駅前","zip_code":"0283310"},{"name":"日詰西","zip_code":"0283306"},{"name":"平沢","zip_code":"0283308"},{"name":"二日町","zip_code":"0283304"},{"name":"船久保","zip_code":"0283532"},{"name":"星山","zip_code":"0283313"},{"name":"升沢","zip_code":"0283442"},{"name":"南伝法寺","zip_code":"0283445"},{"name":"南日詰","zip_code":"0283317"},{"name":"宮手","zip_code":"0283447"},{"name":"紫野","zip_code":"0283534"},{"name":"山屋","zip_code":"0283531"},{"name":"吉水","zip_code":"0283448"}]},{"name":"紫波郡矢巾町","divisions":[{"name":"間野々","zip_code":"0283605"},{"name":"赤林","zip_code":"0283611"},{"name":"岩清水","zip_code":"0283626"},{"name":"太田","zip_code":"0283617"},{"name":"上矢次","zip_code":"0283622"},{"name":"北郡山","zip_code":"0283608"},{"name":"北伝法寺","zip_code":"0283624"},{"name":"北矢幅","zip_code":"0283613"},{"name":"煙山","zip_code":"0283623"},{"name":"高水寺","zip_code":"0283607"},{"name":"下矢次","zip_code":"0283612"},{"name":"白沢","zip_code":"0283616"},{"name":"高田","zip_code":"0283601"},{"name":"土橋","zip_code":"0283606"},{"name":"西徳田","zip_code":"0283603"},{"name":"東徳田","zip_code":"0283604"},{"name":"広宮沢","zip_code":"0283621"},{"name":"藤沢","zip_code":"0283602"},{"name":"又兵エ新田","zip_code":"0283614"},{"name":"南矢幅","zip_code":"0283615"},{"name":"室岡","zip_code":"0283625"},{"name":"流通センター南","zip_code":"0200891"},{"name":"和味","zip_code":"0283627"}]},{"name":"和賀郡西和賀町","divisions":[{"name":"穴明","zip_code":"0295503"},{"name":"上野々","zip_code":"0295511"},{"name":"越中畑","zip_code":"0295523"},{"name":"大沓","zip_code":"0295507"},{"name":"大渡","zip_code":"0295521"},{"name":"甲子","zip_code":"0295513"},{"name":"桂子沢","zip_code":"0295523"},{"name":"樺沢","zip_code":"0295502"},{"name":"川尻","zip_code":"0295512"},{"name":"草井沢","zip_code":"0295513"},{"name":"小繋沢","zip_code":"0295521"},{"name":"左草","zip_code":"0295501"},{"name":"沢内泉沢","zip_code":"0295616"},{"name":"沢内太田","zip_code":"0295614"},{"name":"沢内大野","zip_code":"0295612"},{"name":"沢内貝沢","zip_code":"0295703"},{"name":"沢内川舟","zip_code":"0295701"},{"name":"沢内鍵飯","zip_code":"0295621"},{"name":"沢内猿橋","zip_code":"0295615"},{"name":"沢内新町","zip_code":"0295611"},{"name":"沢内長瀬野","zip_code":"0295617"},{"name":"沢内弁天","zip_code":"0295619"},{"name":"沢内前郷","zip_code":"0295613"},{"name":"沢内両沢","zip_code":"0295618"},{"name":"沢内若畑","zip_code":"0295702"},{"name":"沢中","zip_code":"0295523"},{"name":"下前","zip_code":"0295502"},{"name":"清水ケ野","zip_code":"0295503"},{"name":"下左草","zip_code":"0295501"},{"name":"白木野","zip_code":"0295523"},{"name":"杉名畑","zip_code":"0240341"},{"name":"巣郷","zip_code":"0295522"},{"name":"槻沢","zip_code":"0295504"},{"name":"寅沢","zip_code":"0295502"},{"name":"中村","zip_code":"0295522"},{"name":"野々宿","zip_code":"0295522"},{"name":"細内","zip_code":"0295523"},{"name":"本内","zip_code":"0295513"},{"name":"間木野","zip_code":"0295503"},{"name":"耳取","zip_code":"0295513"},{"name":"本屋敷","zip_code":"0295513"},{"name":"柳沢","zip_code":"0295523"},{"name":"湯川","zip_code":"0295514"},{"name":"湯田","zip_code":"0295503"},{"name":"湯之沢","zip_code":"0295506"},{"name":"湯本","zip_code":"0295505"},{"name":"芦ケ沢","zip_code":"0295523"},{"name":"鷲之巣","zip_code":"0295513"}]},{"name":"胆沢郡金ケ崎町","divisions":[{"name":"永栄","zip_code":"0294505"},{"name":"永沢","zip_code":"0294504"},{"name":"西根","zip_code":"0294503"},{"name":"三ケ尻","zip_code":"0294502"},{"name":"六原","zip_code":"0294501"}]},{"name":"西磐井郡平泉町","divisions":[{"name":"長島","zip_code":"0294101"},{"name":"平泉","zip_code":"0294102"}]},{"name":"気仙郡住田町","divisions":[{"name":"上有住","zip_code":"0292501"},{"name":"下有住","zip_code":"0292502"},{"name":"世田米","zip_code":"0292311"}]},{"name":"上閉伊郡大槌町","divisions":[{"name":"赤浜","zip_code":"0281102"},{"name":"安渡","zip_code":"0281105"},{"name":"大槌","zip_code":"0281131"},{"name":"大町","zip_code":"0281112"},{"name":"大ケ口","zip_code":"0281132"},{"name":"金沢","zip_code":"0281133"},{"name":"上町","zip_code":"0281115"},{"name":"吉里吉里","zip_code":"0281101"},{"name":"小鎚","zip_code":"0281121"},{"name":"栄町","zip_code":"0281114"},{"name":"桜木町","zip_code":"0281122"},{"name":"新町","zip_code":"0281111"},{"name":"新港町","zip_code":"0281104"},{"name":"末広町","zip_code":"0281117"},{"name":"須賀町","zip_code":"0281113"},{"name":"本町","zip_code":"0281116"},{"name":"港町","zip_code":"0281103"}]},{"name":"下閉伊郡山田町","divisions":[{"name":"荒川","zip_code":"0281303"},{"name":"飯岡","zip_code":"0281352"},{"name":"石峠","zip_code":"0281301"},{"name":"大沢","zip_code":"0281311"},{"name":"織笠","zip_code":"0281361"},{"name":"川向町","zip_code":"0281342"},{"name":"北浜町","zip_code":"0281331"},{"name":"後楽町","zip_code":"0281333"},{"name":"境田町","zip_code":"0281343"},{"name":"中央町","zip_code":"0281332"},{"name":"豊間根","zip_code":"0281302"},{"name":"長崎","zip_code":"0281351"},{"name":"八幡町","zip_code":"0281341"},{"name":"船越","zip_code":"0281371"},{"name":"山田","zip_code":"0281321"}]},{"name":"下閉伊郡岩泉町","divisions":[{"name":"浅内","zip_code":"0282231"},{"name":"安家","zip_code":"0270611"},{"name":"穴沢","zip_code":"0285642"},{"name":"尼額","zip_code":"0270508"},{"name":"岩泉","zip_code":"0270501"},{"name":"大川","zip_code":"0282232"},{"name":"乙茂","zip_code":"0270502"},{"name":"小本","zip_code":"0270421"},{"name":"門","zip_code":"0285641"},{"name":"釜津田","zip_code":"0285633"},{"name":"上有芸","zip_code":"0270505"},{"name":"猿沢","zip_code":"0270503"},{"name":"下有芸","zip_code":"0270504"},{"name":"鼠入","zip_code":"0270506"},{"name":"中里","zip_code":"0270423"},{"name":"中島","zip_code":"0270422"},{"name":"二升石","zip_code":"0270507"},{"name":"袰野","zip_code":"0270424"},{"name":"袰綿","zip_code":"0285643"}]},{"name":"下閉伊郡田野畑村","divisions":[{"name":"明戸","zip_code":"0288402"},{"name":"一の渡","zip_code":"0288401"},{"name":"蝦夷森","zip_code":"0288401"},{"name":"大芦","zip_code":"0288405"},{"name":"大森","zip_code":"0288401"},{"name":"尾肝要","zip_code":"0288401"},{"name":"奥地","zip_code":"0288401"},{"name":"奥地向","zip_code":"0288401"},{"name":"茅刈沢","zip_code":"0288401"},{"name":"川平","zip_code":"0288407"},{"name":"北山","zip_code":"0288402"},{"name":"切牛","zip_code":"0288405"},{"name":"猿山","zip_code":"0288406"},{"name":"島越","zip_code":"0288404"},{"name":"菅窪","zip_code":"0288407"},{"name":"巣合","zip_code":"0288401"},{"name":"千丈","zip_code":"0288401"},{"name":"千足","zip_code":"0288401"},{"name":"滝ノ沢","zip_code":"0288401"},{"name":"田代","zip_code":"0288401"},{"name":"田野畑","zip_code":"0288407"},{"name":"机","zip_code":"0288402"},{"name":"年呂部","zip_code":"0288406"},{"name":"長根","zip_code":"0288401"},{"name":"七滝","zip_code":"0288406"},{"name":"沼袋","zip_code":"0288401"},{"name":"子木地","zip_code":"0288401"},{"name":"子木屋敷","zip_code":"0288401"},{"name":"萩牛","zip_code":"0288401"},{"name":"浜岩泉","zip_code":"0288405"},{"name":"日蔭","zip_code":"0288401"},{"name":"姫松","zip_code":"0288401"},{"name":"真木沢","zip_code":"0288405"},{"name":"松前沢","zip_code":"0288404"},{"name":"三沢","zip_code":"0288401"},{"name":"南大芦","zip_code":"0288405"},{"name":"室場","zip_code":"0288406"},{"name":"目名","zip_code":"0288406"},{"name":"羅賀","zip_code":"0288403"},{"name":"和野","zip_code":"0288407"}]},{"name":"下閉伊郡普代村","divisions":[{"name":"芦生","zip_code":"0288366"},{"name":"芦渡","zip_code":"0288365"},{"name":"上の山","zip_code":"0288343"},{"name":"卯子酉","zip_code":"0288362"},{"name":"宇留部","zip_code":"0288331"},{"name":"太田名部","zip_code":"0288345"},{"name":"柏木平","zip_code":"0288368"},{"name":"上村","zip_code":"0288352"},{"name":"北ノ股","zip_code":"0288361"},{"name":"黒崎","zip_code":"0288353"},{"name":"小谷地","zip_code":"0288312"},{"name":"沢向","zip_code":"0288303"},{"name":"下村","zip_code":"0288351"},{"name":"白井","zip_code":"0288311"},{"name":"土取場","zip_code":"0288313"},{"name":"堤","zip_code":"0288336"},{"name":"天拝坂","zip_code":"0288322"},{"name":"銅屋","zip_code":"0288332"},{"name":"鳥居","zip_code":"0288323"},{"name":"中村","zip_code":"0288334"},{"name":"中山","zip_code":"0288344"},{"name":"野胡桃","zip_code":"0288321"},{"name":"萩牛","zip_code":"0288367"},{"name":"馬場野","zip_code":"0288301"},{"name":"普代","zip_code":"0288335"},{"name":"堀内","zip_code":"0288302"},{"name":"南股","zip_code":"0288364"},{"name":"明神","zip_code":"0288341"},{"name":"茂市","zip_code":"0288363"},{"name":"羅賀","zip_code":"0288333"},{"name":"和野山","zip_code":"0288342"}]},{"name":"九戸郡軽米町","divisions":[{"name":"狄塚","zip_code":"0286223"},{"name":"上舘","zip_code":"0286301"},{"name":"軽米","zip_code":"0286302"},{"name":"高家","zip_code":"0286303"},{"name":"小軽米","zip_code":"0286411"},{"name":"山内","zip_code":"0286222"},{"name":"長倉","zip_code":"0286304"},{"name":"晴山","zip_code":"0286221"},{"name":"蛇口","zip_code":"0286412"},{"name":"円子","zip_code":"0286413"}]},{"name":"九戸郡野田村","divisions":[{"name":"玉川","zip_code":"0288202"},{"name":"野田","zip_code":"0288201"}]},{"name":"九戸郡九戸村","divisions":[{"name":"荒谷","zip_code":"0286501"},{"name":"伊保内","zip_code":"0286502"},{"name":"江刺家","zip_code":"0286505"},{"name":"小倉","zip_code":"0286503"},{"name":"山根","zip_code":"0286611"},{"name":"長興寺","zip_code":"0286504"},{"name":"戸田","zip_code":"0286612"},{"name":"山屋","zip_code":"0286506"},{"name":"雪屋","zip_code":"0286507"}]},{"name":"九戸郡洋野町","divisions":[{"name":"阿子木","zip_code":"0288803"},{"name":"有家","zip_code":"0287905"},{"name":"大野","zip_code":"0288802"},{"name":"小子内","zip_code":"0287904"},{"name":"上館","zip_code":"0288801"},{"name":"帯島","zip_code":"0288804"},{"name":"種市","zip_code":"0287915"},{"name":"中野","zip_code":"0287906"},{"name":"水沢","zip_code":"0288805"}]},{"name":"二戸郡一戸町","divisions":[{"name":"姉帯","zip_code":"0285222"},{"name":"出ル町","zip_code":"0285304"},{"name":"一戸","zip_code":"0285312"},{"name":"岩舘","zip_code":"0285316"},{"name":"宇別","zip_code":"0285131"},{"name":"奥中山","zip_code":"0285134"},{"name":"小友","zip_code":"0285303"},{"name":"面岸","zip_code":"0285223"},{"name":"高善寺","zip_code":"0285311"},{"name":"小鳥谷","zip_code":"0285221"},{"name":"小繋","zip_code":"0285132"},{"name":"西法寺","zip_code":"0285301"},{"name":"月舘","zip_code":"0285305"},{"name":"鳥越","zip_code":"0285313"},{"name":"中里","zip_code":"0285306"},{"name":"中山","zip_code":"0285233"},{"name":"楢山","zip_code":"0285314"},{"name":"根反","zip_code":"0285315"},{"name":"平糠","zip_code":"0285224"},{"name":"女鹿","zip_code":"0285302"}]}]}