{"name":"宮城県","cities":[{"name":"仙台市青葉区","divisions":[{"name":"青葉町","zip_code":"9810916"},{"name":"青葉山","zip_code":"9800856"},{"name":"赤坂","zip_code":"9893211"},{"name":"あけぼの町","zip_code":"9810963"},{"name":"旭ケ丘","zip_code":"9810904"},{"name":"愛子中央","zip_code":"9893128"},{"name":"愛子東","zip_code":"9893127"},{"name":"荒巻","zip_code":"9810945"},{"name":"荒巻神明町","zip_code":"9810965"},{"name":"荒巻中央","zip_code":"9810964"},{"name":"荒巻本沢","zip_code":"9810966"},{"name":"一番町","zip_code":"9800811"},{"name":"五橋","zip_code":"9800022"},{"name":"芋沢","zip_code":"9893212"},{"name":"梅田町","zip_code":"9800005"},{"name":"大倉","zip_code":"9893213"},{"name":"大手町","zip_code":"9800805"},{"name":"大町","zip_code":"9800804"},{"name":"霊屋下","zip_code":"9800814"},{"name":"小田原","zip_code":"9800003"},{"name":"落合","zip_code":"9893126"},{"name":"折立","zip_code":"9820261"},{"name":"貝ケ森","zip_code":"9810942"},{"name":"花京院","zip_code":"9800013"},{"name":"柏木","zip_code":"9810933"},{"name":"春日町","zip_code":"9800821"},{"name":"片平","zip_code":"9800812"},{"name":"花壇","zip_code":"9800815"},{"name":"上愛子","zip_code":"9893124"},{"name":"上杉","zip_code":"9800011"},{"name":"川内","zip_code":"9800862"},{"name":"川内追廻","zip_code":"9800863"},{"name":"川内亀岡北裏丁","zip_code":"9800867"},{"name":"川内亀岡町","zip_code":"9800865"},{"name":"川内川前丁","zip_code":"9800852"},{"name":"川内三十人町","zip_code":"9800866"},{"name":"川内大工町","zip_code":"9800853"},{"name":"川内中ノ瀬町","zip_code":"9800854"},{"name":"川内明神横丁","zip_code":"9800851"},{"name":"川内元支倉","zip_code":"9800861"},{"name":"川内山屋敷","zip_code":"9800864"},{"name":"川内澱橋通","zip_code":"9800855"},{"name":"川平","zip_code":"9810954"},{"name":"菊田町","zip_code":"9810941"},{"name":"北根","zip_code":"9810902"},{"name":"北根黒松","zip_code":"9810901"},{"name":"北目町","zip_code":"9800023"},{"name":"北山","zip_code":"9810931"},{"name":"木町","zip_code":"9810932"},{"name":"木町通","zip_code":"9800801"},{"name":"国見","zip_code":"9810943"},{"name":"国見ケ丘","zip_code":"9893201"},{"name":"熊ケ根","zip_code":"9893432"},{"name":"栗生","zip_code":"9893122"},{"name":"国分町","zip_code":"9800803"},{"name":"小松島","zip_code":"9810905"},{"name":"小松島新堤","zip_code":"9810906"},{"name":"米ケ袋","zip_code":"9800813"},{"name":"郷六","zip_code":"9893121"},{"name":"鷺ケ森","zip_code":"9810922"},{"name":"作並","zip_code":"9893431"},{"name":"桜ケ丘","zip_code":"9810961"},{"name":"桜ケ岡公園","zip_code":"9800823"},{"name":"三条町","zip_code":"9810935"},{"name":"子平町","zip_code":"9810944"},{"name":"下愛子","zip_code":"9893125"},{"name":"昭和町","zip_code":"9810913"},{"name":"西花苑","zip_code":"9820262"},{"name":"星陵町","zip_code":"9800872"},{"name":"台原","zip_code":"9810911"},{"name":"台原森林公園","zip_code":"9810903"},{"name":"高野原","zip_code":"9893216"},{"name":"高松","zip_code":"9810907"},{"name":"滝道","zip_code":"9810951"},{"name":"立町","zip_code":"9800822"},{"name":"中央","zip_code":"9800021"},{"name":"千代田町","zip_code":"9810936"},{"name":"土樋","zip_code":"9800065"},{"name":"堤通雨宮町","zip_code":"9810914"},{"name":"堤町","zip_code":"9810912"},{"name":"角五郎","zip_code":"9800874"},{"name":"東照宮","zip_code":"9810908"},{"name":"通町","zip_code":"9810915"},{"name":"中江","zip_code":"9800001"},{"name":"中山","zip_code":"9810952"},{"name":"中山台","zip_code":"9893202"},{"name":"中山台西","zip_code":"9893207"},{"name":"中山吉成","zip_code":"9893203"},{"name":"新坂町","zip_code":"9810934"},{"name":"西勝山","zip_code":"9810953"},{"name":"錦ケ丘","zip_code":"9893123"},{"name":"錦町","zip_code":"9800012"},{"name":"ニツカ","zip_code":"9893433"},{"name":"新川","zip_code":"9893434"},{"name":"支倉町","zip_code":"9800824"},{"name":"八幡","zip_code":"9800871"},{"name":"葉山町","zip_code":"9810917"},{"name":"東勝山","zip_code":"9810923"},{"name":"広瀬町","zip_code":"9800873"},{"name":"福沢町","zip_code":"9800002"},{"name":"藤松","zip_code":"9810921"},{"name":"双葉ケ丘","zip_code":"9810924"},{"name":"二日町","zip_code":"9800802"},{"name":"本町","zip_code":"9800014"},{"name":"水の森","zip_code":"9810962"},{"name":"南吉成","zip_code":"9893204"},{"name":"みやぎ台","zip_code":"9893214"},{"name":"宮町","zip_code":"9800004"},{"name":"向田","zip_code":"9893215"},{"name":"茂庭","zip_code":"9820263"},{"name":"山手町","zip_code":"9810967"},{"name":"吉成","zip_code":"9893205"},{"name":"吉成台","zip_code":"9893206"}]},{"name":"仙台市宮城野区","divisions":[{"name":"安養寺","zip_code":"9830832"},{"name":"銀杏町","zip_code":"9830047"},{"name":"出花","zip_code":"9830012"},{"name":"岩切","zip_code":"9830821"},{"name":"岩切分台","zip_code":"9830828"},{"name":"扇町","zip_code":"9830034"},{"name":"大梶","zip_code":"9830835"},{"name":"岡田","zip_code":"9830003"},{"name":"岡田西町","zip_code":"9830004"},{"name":"小田原","zip_code":"9830803"},{"name":"小田原牛小屋丁","zip_code":"9830813"},{"name":"小田原金剛院丁","zip_code":"9830816"},{"name":"小田原清水沼通","zip_code":"9830811"},{"name":"小田原大行院丁","zip_code":"9830814"},{"name":"小田原広丁","zip_code":"9830815"},{"name":"小田原山本丁","zip_code":"9830817"},{"name":"小田原弓ノ町","zip_code":"9830812"},{"name":"花京院通","zip_code":"9830866"},{"name":"蟹沢","zip_code":"9830839"},{"name":"蒲生","zip_code":"9830002"},{"name":"車町","zip_code":"9830863"},{"name":"小鶴","zip_code":"9830031"},{"name":"五輪","zip_code":"9830842"},{"name":"幸町","zip_code":"9830836"},{"name":"栄","zip_code":"9830011"},{"name":"清水沼","zip_code":"9830845"},{"name":"自由ケ丘","zip_code":"9830831"},{"name":"白鳥","zip_code":"9830006"},{"name":"新田","zip_code":"9830038"},{"name":"新田東","zip_code":"9830039"},{"name":"仙石","zip_code":"9830032"},{"name":"高砂","zip_code":"9830014"},{"name":"田子","zip_code":"9830021"},{"name":"榴ケ岡","zip_code":"9830851"},{"name":"榴岡","zip_code":"9830852"},{"name":"燕沢","zip_code":"9830823"},{"name":"燕沢東","zip_code":"9830822"},{"name":"鶴ケ谷","zip_code":"9830824"},{"name":"鶴ケ谷東","zip_code":"9830826"},{"name":"鶴ケ谷北","zip_code":"9830825"},{"name":"鶴巻","zip_code":"9830024"},{"name":"鉄砲町","zip_code":"9830861"},{"name":"名掛丁","zip_code":"9830864"},{"name":"中野","zip_code":"9830013"},{"name":"苦竹","zip_code":"9830036"},{"name":"西宮城野","zip_code":"9830046"},{"name":"二十人町","zip_code":"9830862"},{"name":"二十人町通","zip_code":"9830843"},{"name":"二の森","zip_code":"9830838"},{"name":"萩野町","zip_code":"9830043"},{"name":"原町","zip_code":"9830841"},{"name":"原町苦竹","zip_code":"9830036"},{"name":"原町南目","zip_code":"9830844"},{"name":"東仙台","zip_code":"9830833"},{"name":"東宮城野","zip_code":"9830042"},{"name":"東六番丁","zip_code":"9830853"},{"name":"東七番丁","zip_code":"9830854"},{"name":"東八番丁","zip_code":"9830855"},{"name":"東九番丁","zip_code":"9830856"},{"name":"東十番丁","zip_code":"9830857"},{"name":"日の出町","zip_code":"9830035"},{"name":"福住町","zip_code":"9830033"},{"name":"福田町","zip_code":"9830023"},{"name":"福田町南","zip_code":"9830025"},{"name":"福室","zip_code":"9830005"},{"name":"平成","zip_code":"9830037"},{"name":"枡江","zip_code":"9830837"},{"name":"松岡町","zip_code":"9830834"},{"name":"港","zip_code":"9830001"},{"name":"南目館","zip_code":"9830041"},{"name":"宮城野","zip_code":"9830045"},{"name":"宮千代","zip_code":"9830044"},{"name":"元寺小路","zip_code":"9830865"}]},{"name":"仙台市若林区","divisions":[{"name":"荒井","zip_code":"9840032"},{"name":"荒浜","zip_code":"9840033"},{"name":"荒浜新","zip_code":"9840034"},{"name":"荒町","zip_code":"9840073"},{"name":"飯田","zip_code":"9840833"},{"name":"伊在","zip_code":"9840038"},{"name":"石垣町","zip_code":"9840064"},{"name":"石名坂","zip_code":"9840063"},{"name":"五橋","zip_code":"9840022"},{"name":"一本杉町","zip_code":"9840828"},{"name":"井土","zip_code":"9840842"},{"name":"今泉","zip_code":"9840835"},{"name":"裏柴田町","zip_code":"9840054"},{"name":"沖野","zip_code":"9840831"},{"name":"表柴田町","zip_code":"9840055"},{"name":"卸町","zip_code":"9840015"},{"name":"卸町東","zip_code":"9840002"},{"name":"かすみ町","zip_code":"9840822"},{"name":"霞目","zip_code":"9840035"},{"name":"蒲町","zip_code":"9840037"},{"name":"上飯田","zip_code":"9840838"},{"name":"河原町","zip_code":"9840816"},{"name":"木ノ下","zip_code":"9840047"},{"name":"椌木通","zip_code":"9840044"},{"name":"穀町","zip_code":"9840807"},{"name":"五十人町","zip_code":"9840812"},{"name":"三百人町","zip_code":"9840057"},{"name":"三本塚","zip_code":"9840841"},{"name":"清水小路","zip_code":"9840075"},{"name":"下飯田","zip_code":"9840832"},{"name":"白萩町","zip_code":"9840048"},{"name":"四郎丸","zip_code":"9840836"},{"name":"志波町","zip_code":"9840041"},{"name":"新寺","zip_code":"9840051"},{"name":"新弓ノ町","zip_code":"9840803"},{"name":"畳屋丁","zip_code":"9840801"},{"name":"種次","zip_code":"9840844"},{"name":"長喜城","zip_code":"9840036"},{"name":"土樋","zip_code":"9840065"},{"name":"鶴代町","zip_code":"9840001"},{"name":"堰場","zip_code":"9840817"},{"name":"遠見塚","zip_code":"9840823"},{"name":"遠見塚東","zip_code":"9840824"},{"name":"中倉","zip_code":"9840821"},{"name":"成田町","zip_code":"9840056"},{"name":"二軒茶屋","zip_code":"9840046"},{"name":"西新丁","zip_code":"9840045"},{"name":"日辺","zip_code":"9840837"},{"name":"八軒小路","zip_code":"9840802"},{"name":"東新丁","zip_code":"9840043"},{"name":"東七番丁","zip_code":"9840074"},{"name":"東八番丁","zip_code":"9840072"},{"name":"東九番丁","zip_code":"9840071"},{"name":"藤塚","zip_code":"9840843"},{"name":"二木","zip_code":"9840845"},{"name":"舟丁","zip_code":"9840806"},{"name":"古城","zip_code":"9840825"},{"name":"文化町","zip_code":"9840815"},{"name":"保春院前丁","zip_code":"9840811"},{"name":"南石切町","zip_code":"9840804"},{"name":"南鍛冶町","zip_code":"9840061"},{"name":"南小泉","zip_code":"9840827"},{"name":"南材木町","zip_code":"9840805"},{"name":"南染師町","zip_code":"9840814"},{"name":"元茶畑","zip_code":"9840058"},{"name":"大和町","zip_code":"9840042"},{"name":"弓ノ町","zip_code":"9840062"},{"name":"連坊","zip_code":"9840052"},{"name":"連坊小路","zip_code":"9840053"},{"name":"六郷","zip_code":"9840834"},{"name":"六十人町","zip_code":"9840813"},{"name":"六丁目","zip_code":"9840031"},{"name":"六丁の目東町","zip_code":"9840004"},{"name":"六丁の目西町","zip_code":"9840011"},{"name":"六丁の目南町","zip_code":"9840013"},{"name":"六丁の目北町","zip_code":"9840003"},{"name":"六丁の目中町","zip_code":"9840012"},{"name":"六丁の目元町","zip_code":"9840014"},{"name":"若林","zip_code":"9840826"}]},{"name":"仙台市太白区","divisions":[{"name":"青山","zip_code":"9820834"},{"name":"秋保町境野","zip_code":"9820242"},{"name":"秋保町長袋","zip_code":"9820243"},{"name":"秋保町馬場","zip_code":"9820244"},{"name":"秋保町湯向","zip_code":"9820245"},{"name":"秋保町湯元","zip_code":"9820241"},{"name":"芦の口","zip_code":"9820824"},{"name":"あすと長町","zip_code":"9820007"},{"name":"飯田","zip_code":"9820002"},{"name":"泉崎","zip_code":"9820031"},{"name":"大塒町","zip_code":"9820027"},{"name":"大野田","zip_code":"9820014"},{"name":"大谷地","zip_code":"9820035"},{"name":"鈎取","zip_code":"9820804"},{"name":"鈎取本町","zip_code":"9820805"},{"name":"鹿野","zip_code":"9820023"},{"name":"鹿野本町","zip_code":"9820022"},{"name":"上野山","zip_code":"9820812"},{"name":"恵和町","zip_code":"9820823"},{"name":"越路","zip_code":"9820842"},{"name":"郡山","zip_code":"9820003"},{"name":"金剛沢","zip_code":"9820803"},{"name":"桜木町","zip_code":"9820835"},{"name":"佐保山","zip_code":"9820211"},{"name":"四郎丸","zip_code":"9811101"},{"name":"砂押町","zip_code":"9820025"},{"name":"砂押南町","zip_code":"9820024"},{"name":"諏訪町","zip_code":"9820005"},{"name":"太子堂","zip_code":"9820013"},{"name":"太白","zip_code":"9820212"},{"name":"坪沼","zip_code":"9820231"},{"name":"土手内","zip_code":"9820026"},{"name":"富沢","zip_code":"9820032"},{"name":"富沢南","zip_code":"9820036"},{"name":"富田","zip_code":"9820033"},{"name":"中田","zip_code":"9811104"},{"name":"中田町","zip_code":"9811103"},{"name":"長町","zip_code":"9820011"},{"name":"長町南","zip_code":"9820012"},{"name":"長嶺","zip_code":"9820847"},{"name":"西多賀","zip_code":"9820034"},{"name":"西中田","zip_code":"9811105"},{"name":"西の平","zip_code":"9820825"},{"name":"日本平","zip_code":"9820221"},{"name":"根岸町","zip_code":"9820844"},{"name":"萩ケ丘","zip_code":"9820848"},{"name":"羽黒台","zip_code":"9820817"},{"name":"旗立","zip_code":"9820215"},{"name":"八本松","zip_code":"9820001"},{"name":"東大野田","zip_code":"9820004"},{"name":"東郡山","zip_code":"9820006"},{"name":"東中田","zip_code":"9811107"},{"name":"人来田","zip_code":"9820222"},{"name":"ひより台","zip_code":"9820811"},{"name":"袋原","zip_code":"9811102"},{"name":"二ツ沢","zip_code":"9820846"},{"name":"松が丘","zip_code":"9820821"},{"name":"三神峯","zip_code":"9820826"},{"name":"御堂平","zip_code":"9820806"},{"name":"緑ケ丘","zip_code":"9820021"},{"name":"南大野田","zip_code":"9820015"},{"name":"向山","zip_code":"9820841"},{"name":"茂ケ崎","zip_code":"9820843"},{"name":"茂庭","zip_code":"9820251"},{"name":"茂庭台","zip_code":"9820252"},{"name":"門前町","zip_code":"9820845"},{"name":"八木山香澄町","zip_code":"9820831"},{"name":"八木山本町","zip_code":"9820801"},{"name":"八木山松波町","zip_code":"9820836"},{"name":"八木山緑町","zip_code":"9820832"},{"name":"八木山弥生町","zip_code":"9820833"},{"name":"八木山東","zip_code":"9820802"},{"name":"八木山南","zip_code":"9820807"},{"name":"柳生","zip_code":"9811106"},{"name":"山田","zip_code":"9820214"},{"name":"山田上ノ台町","zip_code":"9820815"},{"name":"山田北前町","zip_code":"9820813"},{"name":"山田自由ケ丘","zip_code":"9820213"},{"name":"山田新町","zip_code":"9820818"},{"name":"山田本町","zip_code":"9820816"},{"name":"若葉町","zip_code":"9820822"}]},{"name":"仙台市泉区","divisions":[{"name":"愛隣町","zip_code":"9813115"},{"name":"明石南","zip_code":"9813101"},{"name":"明通","zip_code":"9813206"},{"name":"旭丘堤","zip_code":"9818004"},{"name":"泉ケ丘","zip_code":"9813201"},{"name":"泉中央","zip_code":"9813133"},{"name":"市名坂","zip_code":"9813117"},{"name":"永和台","zip_code":"9813104"},{"name":"大沢","zip_code":"9813137"},{"name":"小角","zip_code":"9813216"},{"name":"桂","zip_code":"9813134"},{"name":"上谷刈","zip_code":"9813121"},{"name":"加茂","zip_code":"9813122"},{"name":"北高森","zip_code":"9813202"},{"name":"北中山","zip_code":"9813215"},{"name":"黒松","zip_code":"9818006"},{"name":"向陽台","zip_code":"9813102"},{"name":"実沢","zip_code":"9813217"},{"name":"将監","zip_code":"9813132"},{"name":"将監殿","zip_code":"9813136"},{"name":"松陵","zip_code":"9813108"},{"name":"住吉台東","zip_code":"9813222"},{"name":"住吉台西","zip_code":"9813223"},{"name":"高玉町","zip_code":"9813116"},{"name":"高森","zip_code":"9813203"},{"name":"長命ケ丘","zip_code":"9813212"},{"name":"長命ケ丘東","zip_code":"9813211"},{"name":"鶴が丘","zip_code":"9813109"},{"name":"寺岡","zip_code":"9813204"},{"name":"天神沢","zip_code":"9813105"},{"name":"七北田","zip_code":"9813131"},{"name":"南光台","zip_code":"9818003"},{"name":"南光台東","zip_code":"9818001"},{"name":"南光台南","zip_code":"9818002"},{"name":"西田中","zip_code":"9813224"},{"name":"虹の丘","zip_code":"9818007"},{"name":"根白石","zip_code":"9813221"},{"name":"野村","zip_code":"9813124"},{"name":"東黒松","zip_code":"9818005"},{"name":"福岡","zip_code":"9813225"},{"name":"古内","zip_code":"9813123"},{"name":"朴沢","zip_code":"9813226"},{"name":"歩坂町","zip_code":"9813106"},{"name":"本田町","zip_code":"9813107"},{"name":"松森","zip_code":"9813111"},{"name":"真美沢","zip_code":"9813113"},{"name":"みずほ台","zip_code":"9813125"},{"name":"南中山","zip_code":"9813213"},{"name":"紫山","zip_code":"9813205"},{"name":"八乙女","zip_code":"9813112"},{"name":"八乙女中央","zip_code":"9813135"},{"name":"館","zip_code":"9813214"},{"name":"山の寺","zip_code":"9813103"},{"name":"友愛町","zip_code":"9813114"}]},{"name":"石巻市","divisions":[{"name":"相野谷","zip_code":"9860101"},{"name":"茜平","zip_code":"9860866"},{"name":"あけぼの","zip_code":"9860862"},{"name":"旭町","zip_code":"9860828"},{"name":"網地浜","zip_code":"9862526"},{"name":"鮎川大町","zip_code":"9862522"},{"name":"鮎川浜","zip_code":"9862523"},{"name":"鮎川浜丁","zip_code":"9862524"},{"name":"飯野","zip_code":"9860131"},{"name":"泉町","zip_code":"9860832"},{"name":"伊勢町","zip_code":"9862123"},{"name":"鋳銭場","zip_code":"9860826"},{"name":"井内","zip_code":"9860003"},{"name":"伊原津","zip_code":"9860041"},{"name":"宇田川町","zip_code":"9862113"},{"name":"駅前北通り","zip_code":"9860813"},{"name":"大瓜","zip_code":"9860005"},{"name":"大街道北","zip_code":"9860854"},{"name":"大街道西","zip_code":"9860859"},{"name":"大街道東","zip_code":"9860855"},{"name":"大街道南","zip_code":"9860856"},{"name":"大手町","zip_code":"9860838"},{"name":"大橋","zip_code":"9860805"},{"name":"大原浜","zip_code":"9862412"},{"name":"大宮町","zip_code":"9862132"},{"name":"大森","zip_code":"9860121"},{"name":"大谷川浜","zip_code":"9862405"},{"name":"雄勝町伊勢畑","zip_code":"9861334"},{"name":"雄勝町大須","zip_code":"9861311"},{"name":"雄勝町大浜","zip_code":"9861302"},{"name":"雄勝町雄勝","zip_code":"9861333"},{"name":"雄勝町小島","zip_code":"9861332"},{"name":"雄勝町上雄勝","zip_code":"9861336"},{"name":"雄勝町熊沢","zip_code":"9861312"},{"name":"雄勝町桑浜","zip_code":"9861313"},{"name":"雄勝町下雄勝","zip_code":"9861335"},{"name":"雄勝町立浜","zip_code":"9861303"},{"name":"雄勝町名振","zip_code":"9861304"},{"name":"雄勝町船越","zip_code":"9861301"},{"name":"雄勝町水浜","zip_code":"9861321"},{"name":"雄勝町明神","zip_code":"9861331"},{"name":"雄勝町分浜","zip_code":"9861322"},{"name":"荻浜","zip_code":"9862341"},{"name":"尾ノ崎","zip_code":"9860113"},{"name":"折浜","zip_code":"9862355"},{"name":"開成","zip_code":"9860032"},{"name":"開北","zip_code":"9860806"},{"name":"鹿妻北","zip_code":"9860043"},{"name":"鹿妻本町","zip_code":"9860013"},{"name":"鹿妻南","zip_code":"9860042"},{"name":"門脇","zip_code":"9860853"},{"name":"門脇町","zip_code":"9860834"},{"name":"鹿又","zip_code":"9861111"},{"name":"釜谷","zip_code":"9860111"},{"name":"川口町","zip_code":"9860024"},{"name":"北上町女川","zip_code":"9860204"},{"name":"北上町十三浜","zip_code":"9860201"},{"name":"北上町長尾","zip_code":"9860203"},{"name":"北上町橋浦","zip_code":"9860202"},{"name":"北境","zip_code":"9860123"},{"name":"北村","zip_code":"9871103"},{"name":"狐崎浜","zip_code":"9862345"},{"name":"給分浜","zip_code":"9862411"},{"name":"十八成浜","zip_code":"9862527"},{"name":"小網倉浜","zip_code":"9862414"},{"name":"向陽町","zip_code":"9860863"},{"name":"穀町","zip_code":"9860825"},{"name":"後生橋","zip_code":"9862112"},{"name":"小竹浜","zip_code":"9862116"},{"name":"小積浜","zip_code":"9862342"},{"name":"小渕浜","zip_code":"9862415"},{"name":"小船越","zip_code":"9860132"},{"name":"幸町","zip_code":"9862122"},{"name":"魚町","zip_code":"9860022"},{"name":"侍浜","zip_code":"9862351"},{"name":"鮫浦","zip_code":"9862403"},{"name":"皿貝","zip_code":"9860104"},{"name":"沢田","zip_code":"9862102"},{"name":"塩富町","zip_code":"9862114"},{"name":"潮見町","zip_code":"9860842"},{"name":"重吉町","zip_code":"9860844"},{"name":"清水田浜","zip_code":"9862413"},{"name":"清水町","zip_code":"9860871"},{"name":"新栄","zip_code":"9860004"},{"name":"新境町","zip_code":"9860864"},{"name":"新成","zip_code":"9862105"},{"name":"新館","zip_code":"9860848"},{"name":"新橋","zip_code":"9860878"},{"name":"水明北","zip_code":"9860801"},{"name":"水明南","zip_code":"9860802"},{"name":"須江","zip_code":"9871221"},{"name":"末広町","zip_code":"9860875"},{"name":"鹿立","zip_code":"9862344"},{"name":"住吉町","zip_code":"9860821"},{"name":"千石町","zip_code":"9860827"},{"name":"大門町","zip_code":"9860026"},{"name":"高木","zip_code":"9860006"},{"name":"竹浜","zip_code":"9862346"},{"name":"田代浜","zip_code":"9860023"},{"name":"立町","zip_code":"9860824"},{"name":"田道町","zip_code":"9860872"},{"name":"垂水町","zip_code":"9862104"},{"name":"中央","zip_code":"9860822"},{"name":"月浦","zip_code":"9862352"},{"name":"築山","zip_code":"9860857"},{"name":"貞山","zip_code":"9860851"},{"name":"泊浜","zip_code":"9862401"},{"name":"中浦","zip_code":"9860847"},{"name":"中里","zip_code":"9860815"},{"name":"中島","zip_code":"9860103"},{"name":"中島町","zip_code":"9860845"},{"name":"中瀬","zip_code":"9860823"},{"name":"長面","zip_code":"9860112"},{"name":"中野","zip_code":"9860105"},{"name":"長浜町","zip_code":"9862133"},{"name":"中屋敷","zip_code":"9860849"},{"name":"流留","zip_code":"9862103"},{"name":"成田","zip_code":"9860102"},{"name":"南光町","zip_code":"9860836"},{"name":"新山浜","zip_code":"9862521"},{"name":"錦町","zip_code":"9860877"},{"name":"西浜町","zip_code":"9860843"},{"name":"西山町","zip_code":"9860876"},{"name":"沼津","zip_code":"9862101"},{"name":"根岸","zip_code":"9862136"},{"name":"羽黒町","zip_code":"9860831"},{"name":"八幡町","zip_code":"9860016"},{"name":"蛤浜","zip_code":"9862354"},{"name":"浜松町","zip_code":"9862131"},{"name":"針岡","zip_code":"9860114"},{"name":"東中里","zip_code":"9860812"},{"name":"東福田","zip_code":"9860122"},{"name":"雲雀野町","zip_code":"9860841"},{"name":"日和が丘","zip_code":"9860833"},{"name":"広渕","zip_code":"9871222"},{"name":"福地","zip_code":"9860115"},{"name":"双葉町","zip_code":"9860874"},{"name":"長渡浜","zip_code":"9862525"},{"name":"福貴浦","zip_code":"9862343"},{"name":"不動町","zip_code":"9860017"},{"name":"蛇田","zip_code":"9860861"},{"name":"前網浜","zip_code":"9862406"},{"name":"前谷地","zip_code":"9871101"},{"name":"牧浜","zip_code":"9862347"},{"name":"馬鞍","zip_code":"9860106"},{"name":"松並","zip_code":"9860028"},{"name":"松原町","zip_code":"9862134"},{"name":"真野","zip_code":"9860002"},{"name":"丸井戸","zip_code":"9860865"},{"name":"万石町","zip_code":"9862115"},{"name":"三河町","zip_code":"9860846"},{"name":"水押","zip_code":"9860803"},{"name":"水沼","zip_code":"9860001"},{"name":"三ツ股","zip_code":"9860858"},{"name":"三和町","zip_code":"9862111"},{"name":"緑町","zip_code":"9860021"},{"name":"湊","zip_code":"9860011"},{"name":"湊町","zip_code":"9860025"},{"name":"南境","zip_code":"9860031"},{"name":"南中里","zip_code":"9860814"},{"name":"南浜町","zip_code":"9860835"},{"name":"南谷地","zip_code":"9860852"},{"name":"三輪田","zip_code":"9860124"},{"name":"明神町","zip_code":"9860027"},{"name":"元倉","zip_code":"9860811"},{"name":"桃生町牛田","zip_code":"9860305"},{"name":"桃生町太田","zip_code":"9860311"},{"name":"桃生町樫崎","zip_code":"9860304"},{"name":"桃生町神取","zip_code":"9860323"},{"name":"桃生町給人町","zip_code":"9860322"},{"name":"桃生町倉埣","zip_code":"9860302"},{"name":"桃生町城内","zip_code":"9860312"},{"name":"桃生町新田","zip_code":"9860321"},{"name":"桃生町高須賀","zip_code":"9860324"},{"name":"桃生町寺崎","zip_code":"9860314"},{"name":"桃生町永井","zip_code":"9860303"},{"name":"桃生町中津山","zip_code":"9860313"},{"name":"桃生町脇谷","zip_code":"9860301"},{"name":"桃浦","zip_code":"9862353"},{"name":"谷川浜","zip_code":"9862402"},{"name":"山下町","zip_code":"9860873"},{"name":"吉野町","zip_code":"9860015"},{"name":"宜山町","zip_code":"9860837"},{"name":"寄磯浜","zip_code":"9862404"},{"name":"渡波","zip_code":"9862135"},{"name":"渡波町","zip_code":"9862121"},{"name":"和渕","zip_code":"9871102"}]},{"name":"塩竈市","divisions":[{"name":"青葉ケ丘","zip_code":"9850082"},{"name":"赤坂","zip_code":"9850055"},{"name":"旭町","zip_code":"9850026"},{"name":"芦畔町","zip_code":"9850012"},{"name":"石田","zip_code":"9850081"},{"name":"石堂","zip_code":"9850031"},{"name":"泉ケ岡","zip_code":"9850056"},{"name":"泉沢町","zip_code":"9850062"},{"name":"一森山","zip_code":"9850074"},{"name":"伊保石","zip_code":"9850087"},{"name":"今宮町","zip_code":"9850075"},{"name":"梅の宮","zip_code":"9850077"},{"name":"浦戸石浜","zip_code":"9850191"},{"name":"浦戸桂島","zip_code":"9850192"},{"name":"浦戸寒風沢","zip_code":"9850194"},{"name":"浦戸野々島","zip_code":"9850193"},{"name":"浦戸朴島","zip_code":"9850195"},{"name":"大日向町","zip_code":"9850046"},{"name":"尾島町","zip_code":"9850021"},{"name":"海岸通","zip_code":"9850002"},{"name":"楓町","zip_code":"9850084"},{"name":"庚塚","zip_code":"9850085"},{"name":"北浜","zip_code":"9850003"},{"name":"牛生町","zip_code":"9850013"},{"name":"香津町","zip_code":"9850054"},{"name":"後楽町","zip_code":"9850067"},{"name":"越ノ浦","zip_code":"9850083"},{"name":"小松崎","zip_code":"9850072"},{"name":"権現堂","zip_code":"9850064"},{"name":"佐浦町","zip_code":"9850025"},{"name":"栄町","zip_code":"9850063"},{"name":"桜ケ丘","zip_code":"9850033"},{"name":"清水沢","zip_code":"9850061"},{"name":"松陽台","zip_code":"9850071"},{"name":"白菊町","zip_code":"9850041"},{"name":"白萩町","zip_code":"9850032"},{"name":"新富町","zip_code":"9850022"},{"name":"新浜町","zip_code":"9850001"},{"name":"杉の入","zip_code":"9850005"},{"name":"杉の入裏","zip_code":"9850006"},{"name":"袖野田町","zip_code":"9850043"},{"name":"玉川","zip_code":"9850042"},{"name":"千賀の台","zip_code":"9850086"},{"name":"月見ケ丘","zip_code":"9850066"},{"name":"貞山通","zip_code":"9850011"},{"name":"中の島","zip_code":"9850015"},{"name":"長沢","zip_code":"9850088"},{"name":"長沢町","zip_code":"9850076"},{"name":"錦町","zip_code":"9850024"},{"name":"西玉川町","zip_code":"9850045"},{"name":"西町","zip_code":"9850057"},{"name":"野田","zip_code":"9850035"},{"name":"花立町","zip_code":"9850023"},{"name":"母子沢町","zip_code":"9850044"},{"name":"東玉川町","zip_code":"9850036"},{"name":"藤倉","zip_code":"9850004"},{"name":"舟入","zip_code":"9850014"},{"name":"港町","zip_code":"9850016"},{"name":"南錦町","zip_code":"9850034"},{"name":"南町","zip_code":"9850053"},{"name":"みのが丘","zip_code":"9850073"},{"name":"宮町","zip_code":"9850051"},{"name":"向ケ丘","zip_code":"9850065"},{"name":"本町","zip_code":"9850052"}]},{"name":"気仙沼市","divisions":[{"name":"赤岩石兜","zip_code":"9880182"},{"name":"赤岩老松","zip_code":"9880105"},{"name":"赤岩大石倉","zip_code":"9880172"},{"name":"赤岩大滝","zip_code":"9880174"},{"name":"赤岩小田","zip_code":"9880185"},{"name":"赤岩上羽田","zip_code":"9880166"},{"name":"赤岩五駄鱈","zip_code":"9880104"},{"name":"赤岩四十二","zip_code":"9880164"},{"name":"赤岩杉ノ沢","zip_code":"9880181"},{"name":"赤岩高前田","zip_code":"9880161"},{"name":"赤岩舘下","zip_code":"9880101"},{"name":"赤岩舘森","zip_code":"9880102"},{"name":"赤岩泥ノ木","zip_code":"9880183"},{"name":"赤岩長柴","zip_code":"9880173"},{"name":"赤岩羽田","zip_code":"9880167"},{"name":"赤岩平貝","zip_code":"9880184"},{"name":"赤岩前田","zip_code":"9880162"},{"name":"赤岩牧沢","zip_code":"9880171"},{"name":"赤岩水梨子","zip_code":"9880168"},{"name":"赤岩港","zip_code":"9880103"},{"name":"赤岩迎前田","zip_code":"9880163"},{"name":"赤岩物見","zip_code":"9880165"},{"name":"赤坂","zip_code":"9880075"},{"name":"明戸","zip_code":"9880062"},{"name":"浅根","zip_code":"9880623"},{"name":"朝日町","zip_code":"9880034"},{"name":"阿霄月","zip_code":"9880847"},{"name":"新町","zip_code":"9880071"},{"name":"磯草","zip_code":"9880606"},{"name":"磯沢","zip_code":"9880854"},{"name":"一景島","zip_code":"9880032"},{"name":"入沢","zip_code":"9880083"},{"name":"岩ケ崎","zip_code":"9880061"},{"name":"岩月千岩田","zip_code":"9880201"},{"name":"岩月宝ケ沢","zip_code":"9880207"},{"name":"岩月台ノ沢","zip_code":"9880202"},{"name":"岩月寺沢","zip_code":"9880206"},{"name":"岩月長平","zip_code":"9880204"},{"name":"岩月箒沢","zip_code":"9880205"},{"name":"岩月星谷","zip_code":"9880203"},{"name":"魚市場前","zip_code":"9880037"},{"name":"魚浜町","zip_code":"9880008"},{"name":"後九条","zip_code":"9880065"},{"name":"内松川","zip_code":"9880866"},{"name":"浦の浜","zip_code":"9880605"},{"name":"大岩井山","zip_code":"9880812"},{"name":"大浦","zip_code":"9880814"},{"name":"太田","zip_code":"9880082"},{"name":"大峠山","zip_code":"9880812"},{"name":"大初平","zip_code":"9880602"},{"name":"大林","zip_code":"9880821"},{"name":"大向","zip_code":"9880612"},{"name":"落合","zip_code":"9880843"},{"name":"角地","zip_code":"9880862"},{"name":"柏崎","zip_code":"9880014"},{"name":"鹿ノ倉","zip_code":"9880837"},{"name":"上田中","zip_code":"9880056"},{"name":"上東側","zip_code":"9880803"},{"name":"上西側","zip_code":"9880806"},{"name":"上東側根","zip_code":"9880801"},{"name":"神山","zip_code":"9880044"},{"name":"亀山","zip_code":"9880607"},{"name":"唐桑町明戸","zip_code":"9880533"},{"name":"唐桑町荒谷前","zip_code":"9880503"},{"name":"唐桑町石浜","zip_code":"9880532"},{"name":"唐桑町岩井沢","zip_code":"9880512"},{"name":"唐桑町浦","zip_code":"9880581"},{"name":"唐桑町大畑","zip_code":"9880521"},{"name":"唐桑町欠浜","zip_code":"9880544"},{"name":"唐桑町釜石下","zip_code":"9880501"},{"name":"唐桑町上川原","zip_code":"9880522"},{"name":"唐桑町上小鯖","zip_code":"9880562"},{"name":"唐桑町上鮪立","zip_code":"9880572"},{"name":"唐桑町神の倉","zip_code":"9880553"},{"name":"唐桑町北中","zip_code":"9880541"},{"name":"唐桑町小鯖","zip_code":"9880561"},{"name":"唐桑町小田","zip_code":"9880514"},{"name":"唐桑町小長根","zip_code":"9880543"},{"name":"唐桑町境","zip_code":"9880523"},{"name":"唐桑町崎浜","zip_code":"9880554"},{"name":"唐桑町鮪立","zip_code":"9880571"},{"name":"唐桑町宿浦","zip_code":"9880534"},{"name":"唐桑町台の下","zip_code":"9880502"},{"name":"唐桑町高石浜","zip_code":"9880531"},{"name":"唐桑町竹の袖","zip_code":"9880504"},{"name":"唐桑町只越","zip_code":"9880524"},{"name":"唐桑町唯越","zip_code":"9880526"},{"name":"唐桑町舘","zip_code":"9880511"},{"name":"唐桑町津本","zip_code":"9880552"},{"name":"唐桑町出山","zip_code":"9880506"},{"name":"唐桑町堂角","zip_code":"9880525"},{"name":"唐桑町中","zip_code":"9880542"},{"name":"唐桑町中井","zip_code":"9880563"},{"name":"唐桑町西舞根","zip_code":"9880927"},{"name":"唐桑町載鈎","zip_code":"9880513"},{"name":"唐桑町馬場","zip_code":"9880535"},{"name":"唐桑町東舞根","zip_code":"9880582"},{"name":"唐桑町松圃","zip_code":"9880551"},{"name":"唐桑町港","zip_code":"9880505"},{"name":"川上","zip_code":"9880834"},{"name":"川口町","zip_code":"9880033"},{"name":"川崎尻","zip_code":"9880846"},{"name":"川畑","zip_code":"9880041"},{"name":"川原崎","zip_code":"9880824"},{"name":"河原田","zip_code":"9880022"},{"name":"金成沢","zip_code":"9880831"},{"name":"切通","zip_code":"9880822"},{"name":"九条","zip_code":"9880064"},{"name":"久保","zip_code":"9880842"},{"name":"蔵底","zip_code":"9880081"},{"name":"黒石山","zip_code":"9880868"},{"name":"黒沢","zip_code":"9880863"},{"name":"化粧坂","zip_code":"9880072"},{"name":"小芦","zip_code":"9880836"},{"name":"小々汐","zip_code":"9880815"},{"name":"瘻槻","zip_code":"9880832"},{"name":"駒形","zip_code":"9880633"},{"name":"駒場","zip_code":"9880054"},{"name":"最知荒沢","zip_code":"9880214"},{"name":"最知川原","zip_code":"9880211"},{"name":"最知北最知","zip_code":"9880215"},{"name":"最知南最知","zip_code":"9880213"},{"name":"最知森合","zip_code":"9880212"},{"name":"幸町","zip_code":"9880026"},{"name":"栄町","zip_code":"9880012"},{"name":"魚町","zip_code":"9880013"},{"name":"笹が陣","zip_code":"9880073"},{"name":"沢田","zip_code":"9880016"},{"name":"三ノ浜","zip_code":"9880818"},{"name":"潮見町","zip_code":"9880031"},{"name":"四反田","zip_code":"9880063"},{"name":"下新田","zip_code":"9880828"},{"name":"下八瀬","zip_code":"9880851"},{"name":"常楽","zip_code":"9880051"},{"name":"白石","zip_code":"9880807"},{"name":"新関根","zip_code":"9880868"},{"name":"新台","zip_code":"9880867"},{"name":"新田","zip_code":"9880829"},{"name":"新浜町","zip_code":"9880005"},{"name":"陣山","zip_code":"9880011"},{"name":"新早稲谷","zip_code":"9880865"},{"name":"関根","zip_code":"9880868"},{"name":"象ケ鼻","zip_code":"9880844"},{"name":"外畑","zip_code":"9880603"},{"name":"外浜","zip_code":"9880601"},{"name":"反松","zip_code":"9880055"},{"name":"台","zip_code":"9880867"},{"name":"高井","zip_code":"9880613"},{"name":"高判形山","zip_code":"9880802"},{"name":"滝の入","zip_code":"9880087"},{"name":"田尻","zip_code":"9880611"},{"name":"田尻沢","zip_code":"9880825"},{"name":"舘山","zip_code":"9880076"},{"name":"田中","zip_code":"9880052"},{"name":"田中沖","zip_code":"9880058"},{"name":"田中前","zip_code":"9880053"},{"name":"田谷","zip_code":"9880045"},{"name":"田谷前","zip_code":"9880046"},{"name":"塚沢","zip_code":"9880864"},{"name":"百目木","zip_code":"9880826"},{"name":"所沢","zip_code":"9880057"},{"name":"内ノ脇","zip_code":"9880025"},{"name":"長磯赤貝","zip_code":"9880237"},{"name":"長磯後沢","zip_code":"9880226"},{"name":"長磯大窪","zip_code":"9880225"},{"name":"長磯七半沢","zip_code":"9880221"},{"name":"長磯下原","zip_code":"9880232"},{"name":"長磯鳥子沢","zip_code":"9880223"},{"name":"長磯中原","zip_code":"9880238"},{"name":"長磯二本松","zip_code":"9880236"},{"name":"長磯浜","zip_code":"9880231"},{"name":"長磯原","zip_code":"9880233"},{"name":"長磯原ノ沢","zip_code":"9880234"},{"name":"長磯船原","zip_code":"9880222"},{"name":"長磯前林","zip_code":"9880224"},{"name":"長磯牧通","zip_code":"9880235"},{"name":"長磯森","zip_code":"9880227"},{"name":"長岩間","zip_code":"9880835"},{"name":"長崎","zip_code":"9880621"},{"name":"仲町","zip_code":"9880024"},{"name":"中みなと町","zip_code":"9880007"},{"name":"中山","zip_code":"9880622"},{"name":"名木沢","zip_code":"9880855"},{"name":"浪板","zip_code":"9880813"},{"name":"南郷","zip_code":"9880043"},{"name":"錦町","zip_code":"9880002"},{"name":"西中才","zip_code":"9880805"},{"name":"西八幡町","zip_code":"9880817"},{"name":"西八幡前","zip_code":"9880817"},{"name":"西みなと町","zip_code":"9880006"},{"name":"二ノ浜","zip_code":"9880816"},{"name":"波路上岩井崎","zip_code":"9880241"},{"name":"波路上後原","zip_code":"9880252"},{"name":"波路上内田","zip_code":"9880251"},{"name":"波路上内沼","zip_code":"9880247"},{"name":"波路上崎野","zip_code":"9880242"},{"name":"波路上杉ノ下","zip_code":"9880245"},{"name":"波路上瀬向","zip_code":"9880246"},{"name":"波路上野田","zip_code":"9880254"},{"name":"波路上原","zip_code":"9880253"},{"name":"波路上牧","zip_code":"9880243"},{"name":"波路上向田","zip_code":"9880255"},{"name":"波路上向原","zip_code":"9880256"},{"name":"波路上明戸","zip_code":"9880244"},{"name":"浜町","zip_code":"9880004"},{"name":"浜見山","zip_code":"9880015"},{"name":"東新城","zip_code":"9880066"},{"name":"東中才","zip_code":"9880804"},{"name":"東八幡前","zip_code":"9880811"},{"name":"東みなと町","zip_code":"9880001"},{"name":"日ノ口","zip_code":"9880802"},{"name":"福美町","zip_code":"9880086"},{"name":"古町","zip_code":"9880077"},{"name":"弁天町","zip_code":"9880036"},{"name":"細尾","zip_code":"9880861"},{"name":"本郷","zip_code":"9880042"},{"name":"前木","zip_code":"9880845"},{"name":"松川","zip_code":"9880852"},{"name":"松川前","zip_code":"9880853"},{"name":"松崎浦田","zip_code":"9880114"},{"name":"松崎大萱","zip_code":"9880155"},{"name":"松崎尾崎","zip_code":"9880131"},{"name":"松崎面瀬","zip_code":"9880153"},{"name":"松崎片浜","zip_code":"9880113"},{"name":"松崎上赤田","zip_code":"9880134"},{"name":"松崎上金取","zip_code":"9880157"},{"name":"松崎萱","zip_code":"9880121"},{"name":"松崎北沢","zip_code":"9880111"},{"name":"松崎五駄鱈","zip_code":"9880122"},{"name":"松崎地生","zip_code":"9880143"},{"name":"松崎下赤田","zip_code":"9880133"},{"name":"松崎下金取","zip_code":"9880156"},{"name":"松崎外ケ沢","zip_code":"9880152"},{"name":"松崎高谷","zip_code":"9880124"},{"name":"松崎立石","zip_code":"9880151"},{"name":"松崎鶴巻","zip_code":"9880144"},{"name":"松崎中瀬","zip_code":"9880123"},{"name":"松崎猫渕","zip_code":"9880154"},{"name":"松崎馬場","zip_code":"9880132"},{"name":"松崎前浜","zip_code":"9880112"},{"name":"松崎丸森","zip_code":"9880142"},{"name":"松崎柳沢","zip_code":"9880141"},{"name":"廻舘","zip_code":"9880604"},{"name":"三作浜","zip_code":"9880631"},{"name":"三日町","zip_code":"9880085"},{"name":"港町","zip_code":"9880021"},{"name":"南が丘","zip_code":"9880023"},{"name":"南町","zip_code":"9880017"},{"name":"南町海岸","zip_code":"9880018"},{"name":"茗荷沢","zip_code":"9880823"},{"name":"本浜町","zip_code":"9880003"},{"name":"本町","zip_code":"9880074"},{"name":"本吉町赤牛","zip_code":"9880284"},{"name":"本吉町天ヶ沢","zip_code":"9880277"},{"name":"本吉町石川原","zip_code":"9880268"},{"name":"本吉町泉","zip_code":"9880339"},{"name":"本吉町泉沢","zip_code":"9880336"},{"name":"本吉町猪の鼻","zip_code":"9880347"},{"name":"本吉町後田","zip_code":"9880261"},{"name":"本吉町歌生","zip_code":"9880324"},{"name":"本吉町卯名沢","zip_code":"9880313"},{"name":"本吉町漆原","zip_code":"9880371"},{"name":"本吉町狼の巣","zip_code":"9880301"},{"name":"本吉町大椚","zip_code":"9880306"},{"name":"本吉町大沢","zip_code":"9880304"},{"name":"本吉町大柴","zip_code":"9880356"},{"name":"本吉町大東","zip_code":"9880358"},{"name":"本吉町大朴木","zip_code":"9880287"},{"name":"本吉町大森","zip_code":"9880283"},{"name":"本吉町大谷","zip_code":"9880272"},{"name":"本吉町沖の田","zip_code":"9880262"},{"name":"本吉町尾田","zip_code":"9880372"},{"name":"本吉町風越","zip_code":"9880311"},{"name":"本吉町鹿の子","zip_code":"9880354"},{"name":"本吉町上川内","zip_code":"9880388"},{"name":"本吉町狩猟","zip_code":"9880373"},{"name":"本吉町北明戸","zip_code":"9880317"},{"name":"本吉町九多丸","zip_code":"9880275"},{"name":"本吉町窪","zip_code":"9880265"},{"name":"本吉町蔵内","zip_code":"9880325"},{"name":"本吉町今朝磯","zip_code":"9880323"},{"name":"本吉町幸土","zip_code":"9880303"},{"name":"本吉町午王野沢","zip_code":"9880351"},{"name":"本吉町小金沢","zip_code":"9880285"},{"name":"本吉町小金山","zip_code":"9880364"},{"name":"本吉町小浜","zip_code":"9880321"},{"name":"本吉町小峰崎","zip_code":"9880348"},{"name":"本吉町猿内","zip_code":"9880279"},{"name":"本吉町直伝","zip_code":"9880261"},{"name":"本吉町信夫","zip_code":"9880353"},{"name":"本吉町下川内","zip_code":"9880385"},{"name":"本吉町下宿","zip_code":"9880332"},{"name":"本吉町下要害","zip_code":"9880361"},{"name":"本吉町菖蒲沢","zip_code":"9880269"},{"name":"本吉町新北明戸","zip_code":"9880316"},{"name":"本吉町新圃の沢","zip_code":"9880315"},{"name":"本吉町新南明戸","zip_code":"9880337"},{"name":"本吉町菅の沢","zip_code":"9880328"},{"name":"本吉町外尾","zip_code":"9880334"},{"name":"本吉町平椚","zip_code":"9880352"},{"name":"本吉町高","zip_code":"9880286"},{"name":"本吉町高岡","zip_code":"9880384"},{"name":"本吉町高瀬ヶ森","zip_code":"9880278"},{"name":"本吉町滝沢","zip_code":"9880355"},{"name":"本吉町滝根","zip_code":"9880274"},{"name":"本吉町岳の下","zip_code":"9880346"},{"name":"本吉町舘下","zip_code":"9880345"},{"name":"本吉町田の沢","zip_code":"9880277"},{"name":"本吉町土樋下","zip_code":"9880261"},{"name":"本吉町角柄","zip_code":"9880374"},{"name":"本吉町津谷明戸","zip_code":"9880382"},{"name":"本吉町津谷桜子","zip_code":"9880341"},{"name":"本吉町津谷新明戸","zip_code":"9880381"},{"name":"本吉町津谷舘岡","zip_code":"9880307"},{"name":"本吉町津谷長根","zip_code":"9880305"},{"name":"本吉町津谷松尾","zip_code":"9880309"},{"name":"本吉町津谷松岡","zip_code":"9880308"},{"name":"本吉町寺谷","zip_code":"9880266"},{"name":"本吉町寺沢","zip_code":"9880267"},{"name":"本吉町寺要害","zip_code":"9880362"},{"name":"本吉町道貫","zip_code":"9880269"},{"name":"本吉町登米沢","zip_code":"9880318"},{"name":"本吉町中川内","zip_code":"9880387"},{"name":"本吉町長窪","zip_code":"9880327"},{"name":"本吉町中沢","zip_code":"9880375"},{"name":"本吉町中島","zip_code":"9880331"},{"name":"本吉町中平","zip_code":"9880357"},{"name":"本吉町長根","zip_code":"9880264"},{"name":"本吉町長畑","zip_code":"9880267"},{"name":"本吉町西川内","zip_code":"9880386"},{"name":"本吉町二十一浜","zip_code":"9880322"},{"name":"本吉町幣掛","zip_code":"9880342"},{"name":"本吉町野々下","zip_code":"9880271"},{"name":"本吉町圃の沢","zip_code":"9880314"},{"name":"本吉町林の沢","zip_code":"9880302"},{"name":"本吉町東川内","zip_code":"9880389"},{"name":"本吉町日門","zip_code":"9880276"},{"name":"本吉町平貝","zip_code":"9880333"},{"name":"本吉町深萩","zip_code":"9880363"},{"name":"本吉町府中","zip_code":"9880281"},{"name":"本吉町坊の倉","zip_code":"9880383"},{"name":"本吉町洞沢","zip_code":"9880263"},{"name":"本吉町前浜","zip_code":"9880282"},{"name":"本吉町馬籠町","zip_code":"9880365"},{"name":"本吉町馬籠町頭","zip_code":"9880366"},{"name":"本吉町松ヶ沢","zip_code":"9880343"},{"name":"本吉町三島","zip_code":"9880273"},{"name":"本吉町道外","zip_code":"9880312"},{"name":"本吉町南明戸","zip_code":"9880338"},{"name":"本吉町宮内","zip_code":"9880344"},{"name":"本吉町向畑","zip_code":"9880367"},{"name":"本吉町谷地","zip_code":"9880283"},{"name":"本吉町柳沢","zip_code":"9880326"},{"name":"本吉町山谷","zip_code":"9880278"},{"name":"本吉町上野","zip_code":"9880359"},{"name":"本吉町蕨野","zip_code":"9880335"},{"name":"物倉山","zip_code":"9880169"},{"name":"柳沢","zip_code":"9880841"},{"name":"要害","zip_code":"9880634"},{"name":"八日町","zip_code":"9880084"},{"name":"横沼","zip_code":"9880632"},{"name":"芳ノ口","zip_code":"9880863"},{"name":"早稲谷","zip_code":"9880865"},{"name":"渡戸","zip_code":"9880833"},{"name":"和野","zip_code":"9880827"}]},{"name":"白石市","divisions":[{"name":"旭町","zip_code":"9890223"},{"name":"兎作","zip_code":"9890228"},{"name":"延命寺北","zip_code":"9890267"},{"name":"大川町","zip_code":"9890254"},{"name":"大鷹沢大町","zip_code":"9890212"},{"name":"大鷹沢鷹巣","zip_code":"9890211"},{"name":"大鷹沢三沢","zip_code":"9890213"},{"name":"大平坂谷","zip_code":"9890214"},{"name":"大平中目","zip_code":"9890216"},{"name":"大平森合","zip_code":"9890217"},{"name":"大手町","zip_code":"9890276"},{"name":"大畑","zip_code":"9890208"},{"name":"小原","zip_code":"9890233"},{"name":"上久保","zip_code":"9890244"},{"name":"上堰","zip_code":"9890202"},{"name":"北川原","zip_code":"9890262"},{"name":"北無双作","zip_code":"9890224"},{"name":"郡山","zip_code":"9890203"},{"name":"小下倉","zip_code":"9890201"},{"name":"越河","zip_code":"9890113"},{"name":"越河五賀","zip_code":"9890111"},{"name":"越河平","zip_code":"9890112"},{"name":"寿山","zip_code":"9890241"},{"name":"斎川","zip_code":"9890215"},{"name":"幸","zip_code":"9890264"},{"name":"沢端","zip_code":"9890278"},{"name":"沢端町","zip_code":"9890277"},{"name":"沢目","zip_code":"9890243"},{"name":"清水小路","zip_code":"9890272"},{"name":"十王堂前","zip_code":"9890266"},{"name":"十王堂北","zip_code":"9890265"},{"name":"城南","zip_code":"9890245"},{"name":"城北町","zip_code":"9890255"},{"name":"白川犬卒都婆","zip_code":"9891103"},{"name":"白川内親","zip_code":"9891104"},{"name":"白川小奥","zip_code":"9891101"},{"name":"白川津田","zip_code":"9891102"},{"name":"白鳥","zip_code":"9890734"},{"name":"白石沖","zip_code":"9890226"},{"name":"新館町","zip_code":"9890246"},{"name":"不澄ケ池","zip_code":"9890271"},{"name":"外川原","zip_code":"9890261"},{"name":"鷹巣","zip_code":"9890222"},{"name":"鷹巣東","zip_code":"9890218"},{"name":"鷹巣西","zip_code":"9890220"},{"name":"田町","zip_code":"9890227"},{"name":"銚子ケ森","zip_code":"9890229"},{"name":"寺屋敷前","zip_code":"9890206"},{"name":"堂場前","zip_code":"9890207"},{"name":"中町","zip_code":"9890273"},{"name":"長町","zip_code":"9890274"},{"name":"西益岡町","zip_code":"9890252"},{"name":"祢宜内","zip_code":"9890268"},{"name":"八幡町","zip_code":"9890247"},{"name":"半沢屋敷前","zip_code":"9890259"},{"name":"半沢屋敷西","zip_code":"9890258"},{"name":"東大畑","zip_code":"9890205"},{"name":"東小路","zip_code":"9890253"},{"name":"東町","zip_code":"9890225"},{"name":"福岡蔵本","zip_code":"9890231"},{"name":"福岡深谷","zip_code":"9890731"},{"name":"福岡八宮","zip_code":"9890733"},{"name":"福岡長袋","zip_code":"9890732"},{"name":"益岡町","zip_code":"9890251"},{"name":"松ケ丘","zip_code":"9890204"},{"name":"緑が丘","zip_code":"9890221"},{"name":"南町","zip_code":"9890248"},{"name":"本鍛冶小路","zip_code":"9890256"},{"name":"本町","zip_code":"9890275"},{"name":"柳川原","zip_code":"9890263"},{"name":"柳町","zip_code":"9890242"},{"name":"亘理町","zip_code":"9890257"}]},{"name":"名取市","divisions":[{"name":"愛の杜","zip_code":"9811230"},{"name":"飯野坂","zip_code":"9811225"},{"name":"植松","zip_code":"9811226"},{"name":"牛野","zip_code":"9811215"},{"name":"大手町","zip_code":"9811232"},{"name":"大曲","zip_code":"9811216"},{"name":"小山","zip_code":"9811233"},{"name":"上余田","zip_code":"9811222"},{"name":"小塚原","zip_code":"9811212"},{"name":"下増田","zip_code":"9892401"},{"name":"下余田","zip_code":"9811223"},{"name":"杉ケ袋","zip_code":"9811214"},{"name":"相互台","zip_code":"9811246"},{"name":"相互台東","zip_code":"9811248"},{"name":"高舘川上","zip_code":"9811243"},{"name":"高舘熊野堂","zip_code":"9811241"},{"name":"高舘吉田","zip_code":"9811242"},{"name":"高柳","zip_code":"9811211"},{"name":"田高","zip_code":"9811221"},{"name":"手倉田","zip_code":"9811231"},{"name":"那智が丘","zip_code":"9811244"},{"name":"名取が丘","zip_code":"9811235"},{"name":"箱塚","zip_code":"9811234"},{"name":"堀内","zip_code":"9892412"},{"name":"本郷","zip_code":"9892411"},{"name":"増田","zip_code":"9811224"},{"name":"美田園","zip_code":"9811217"},{"name":"みどり台","zip_code":"9811247"},{"name":"愛島小豆島","zip_code":"9811236"},{"name":"愛島笠島","zip_code":"9811238"},{"name":"愛島北目","zip_code":"9811237"},{"name":"愛島塩手","zip_code":"9811239"},{"name":"愛島台","zip_code":"9811251"},{"name":"杜せきのした","zip_code":"9811227"},{"name":"閖上","zip_code":"9811213"},{"name":"ゆりが丘","zip_code":"9811245"}]},{"name":"角田市","divisions":[{"name":"稲置","zip_code":"9811518"},{"name":"江尻","zip_code":"9811521"},{"name":"枝野","zip_code":"9811504"},{"name":"岡","zip_code":"9811524"},{"name":"小坂","zip_code":"9811532"},{"name":"小田","zip_code":"9811514"},{"name":"尾山","zip_code":"9811502"},{"name":"角田","zip_code":"9811505"},{"name":"笠島","zip_code":"9811515"},{"name":"梶賀","zip_code":"9811523"},{"name":"君萱","zip_code":"9811525"},{"name":"毛萱","zip_code":"9811517"},{"name":"坂津田","zip_code":"9811534"},{"name":"佐倉","zip_code":"9811522"},{"name":"島田","zip_code":"9811503"},{"name":"神次郎","zip_code":"9811526"},{"name":"高倉","zip_code":"9811516"},{"name":"豊室","zip_code":"9811513"},{"name":"鳩原","zip_code":"9811531"},{"name":"花島","zip_code":"9811511"},{"name":"平貫","zip_code":"9811533"},{"name":"藤田","zip_code":"9811501"},{"name":"横倉","zip_code":"9811512"}]},{"name":"多賀城市","divisions":[{"name":"市川","zip_code":"9850864"},{"name":"浮島","zip_code":"9850861"},{"name":"大代","zip_code":"9850832"},{"name":"笠神","zip_code":"9850831"},{"name":"下馬","zip_code":"9850835"},{"name":"栄","zip_code":"9850833"},{"name":"桜木","zip_code":"9850842"},{"name":"山王","zip_code":"9850852"},{"name":"城南","zip_code":"9850865"},{"name":"高崎","zip_code":"9850862"},{"name":"高橋","zip_code":"9850853"},{"name":"中央","zip_code":"9850873"},{"name":"鶴ケ谷","zip_code":"9850841"},{"name":"伝上山","zip_code":"9850872"},{"name":"留ケ谷","zip_code":"9850871"},{"name":"中野","zip_code":"9850846"},{"name":"南宮","zip_code":"9850851"},{"name":"新田","zip_code":"9850854"},{"name":"東田中","zip_code":"9850863"},{"name":"町前","zip_code":"9850845"},{"name":"丸山","zip_code":"9850834"},{"name":"宮内","zip_code":"9850844"},{"name":"明月","zip_code":"9850843"},{"name":"八幡","zip_code":"9850874"}]},{"name":"岩沼市","divisions":[{"name":"相の原","zip_code":"9892431"},{"name":"朝日","zip_code":"9892474"},{"name":"阿武隈","zip_code":"9892435"},{"name":"荒井","zip_code":"9892463"},{"name":"稲荷町","zip_code":"9892443"},{"name":"大手町","zip_code":"9892442"},{"name":"小川","zip_code":"9892471"},{"name":"押分","zip_code":"9892423"},{"name":"梶橋","zip_code":"9892472"},{"name":"北長谷","zip_code":"9892455"},{"name":"空港南","zip_code":"9892422"},{"name":"桑原","zip_code":"9892445"},{"name":"桑原西","zip_code":"9892447"},{"name":"栄町","zip_code":"9892473"},{"name":"桜","zip_code":"9892433"},{"name":"里の杜","zip_code":"9892427"},{"name":"志賀","zip_code":"9892465"},{"name":"敷島","zip_code":"9892476"},{"name":"下野郷","zip_code":"9892421"},{"name":"末広","zip_code":"9892426"},{"name":"大昭和","zip_code":"9892453"},{"name":"武隈","zip_code":"9892452"},{"name":"たけくま","zip_code":"9892459"},{"name":"竹の里","zip_code":"9892458"},{"name":"館下","zip_code":"9892441"},{"name":"中央","zip_code":"9892432"},{"name":"寺島","zip_code":"9892425"},{"name":"土ケ崎","zip_code":"9892451"},{"name":"長岡","zip_code":"9892461"},{"name":"西六角","zip_code":"9892446"},{"name":"早股","zip_code":"9892424"},{"name":"東谷地","zip_code":"9892477"},{"name":"平等","zip_code":"9892457"},{"name":"吹上","zip_code":"9892436"},{"name":"吹上西","zip_code":"9892437"},{"name":"藤浪","zip_code":"9892434"},{"name":"二木","zip_code":"9892448"},{"name":"本町","zip_code":"9892444"},{"name":"松ケ丘","zip_code":"9892456"},{"name":"三色吉","zip_code":"9892464"},{"name":"南長谷","zip_code":"9892454"},{"name":"山桜","zip_code":"9892462"},{"name":"大和","zip_code":"9892475"}]},{"name":"登米市","divisions":[{"name":"石越町北郷","zip_code":"9894701"},{"name":"石越町東郷","zip_code":"9894702"},{"name":"石越町南郷","zip_code":"9894703"},{"name":"津山町柳津","zip_code":"9860401"},{"name":"津山町横山","zip_code":"9860402"},{"name":"東和町錦織","zip_code":"9870903"},{"name":"東和町米谷","zip_code":"9870902"},{"name":"東和町米川","zip_code":"9870901"},{"name":"豊里町後沢田","zip_code":"9870355"},{"name":"豊里町内一番江","zip_code":"9870377"},{"name":"豊里町内田","zip_code":"9870385"},{"name":"豊里町内畑","zip_code":"9870385"},{"name":"豊里町内町浦","zip_code":"9870373"},{"name":"豊里町浦軒","zip_code":"9870366"},{"name":"豊里町上沼田","zip_code":"9870354"},{"name":"豊里町笑沢","zip_code":"9870353"},{"name":"豊里町大椚","zip_code":"9870353"},{"name":"豊里町大沢","zip_code":"9870341"},{"name":"豊里町大沢沼田","zip_code":"9870341"},{"name":"豊里町大沢谷岐","zip_code":"9870341"},{"name":"豊里町大曲","zip_code":"9870371"},{"name":"豊里町加々巻","zip_code":"9870358"},{"name":"豊里町鏡形","zip_code":"9870378"},{"name":"豊里町蕪木","zip_code":"9870357"},{"name":"豊里町上町裏","zip_code":"9870362"},{"name":"豊里町上屋浦","zip_code":"9870366"},{"name":"豊里町上谷地","zip_code":"9870382"},{"name":"豊里町唐崎","zip_code":"9870371"},{"name":"豊里町川前","zip_code":"9870367"},{"name":"豊里町切津","zip_code":"9870373"},{"name":"豊里町久寿田","zip_code":"9870351"},{"name":"豊里町久寿田前","zip_code":"9870351"},{"name":"豊里町剣先","zip_code":"9870379"},{"name":"豊里町小口前","zip_code":"9870362"},{"name":"豊里町五反田","zip_code":"9870363"},{"name":"豊里町小巻","zip_code":"9870358"},{"name":"豊里町小谷地","zip_code":"9870343"},{"name":"豊里町境沢","zip_code":"9870344"},{"name":"豊里町佐野","zip_code":"9870344"},{"name":"豊里町沢尻","zip_code":"9870343"},{"name":"豊里町十丁田","zip_code":"9870371"},{"name":"豊里町芝下","zip_code":"9870356"},{"name":"豊里町下九","zip_code":"9870385"},{"name":"豊里町下古屋","zip_code":"9870364"},{"name":"豊里町下沼田","zip_code":"9870354"},{"name":"豊里町下屋浦","zip_code":"9870366"},{"name":"豊里町十五貫","zip_code":"9870384"},{"name":"豊里町十五貫谷地","zip_code":"9870384"},{"name":"豊里町十二沢","zip_code":"9870341"},{"name":"豊里町昭和","zip_code":"9870354"},{"name":"豊里町白鳥山","zip_code":"9870346"},{"name":"豊里町白鳥","zip_code":"9870346"},{"name":"豊里町白鳥前","zip_code":"9870346"},{"name":"豊里町新加々巻","zip_code":"9870358"},{"name":"豊里町新田鏡形","zip_code":"9870378"},{"name":"豊里町新田町","zip_code":"9870361"},{"name":"豊里町新長前","zip_code":"9870381"},{"name":"豊里町新細沼","zip_code":"9870376"},{"name":"豊里町新町","zip_code":"9870365"},{"name":"豊里町寿崎","zip_code":"9870352"},{"name":"豊里町外一番江","zip_code":"9870377"},{"name":"豊里町外五番江","zip_code":"9870383"},{"name":"豊里町外三番江","zip_code":"9870383"},{"name":"豊里町外七番江","zip_code":"9870383"},{"name":"豊里町外二番江","zip_code":"9870383"},{"name":"豊里町外八番江","zip_code":"9870383"},{"name":"豊里町外四番江","zip_code":"9870383"},{"name":"豊里町外六番江","zip_code":"9870383"},{"name":"豊里町竹ノ沢","zip_code":"9870341"},{"name":"豊里町土手下","zip_code":"9870364"},{"name":"豊里町鳥越","zip_code":"9870357"},{"name":"豊里町中沼田","zip_code":"9870354"},{"name":"豊里町長根浦","zip_code":"9870358"},{"name":"豊里町長前","zip_code":"9870381"},{"name":"豊里町中谷岐","zip_code":"9870345"},{"name":"豊里町七ツ塚","zip_code":"9870368"},{"name":"豊里町西前田","zip_code":"9870372"},{"name":"豊里町沼田","zip_code":"9870354"},{"name":"豊里町迫","zip_code":"9870344"},{"name":"豊里町八反","zip_code":"9870359"},{"name":"豊里町東二ツ屋","zip_code":"9870374"},{"name":"豊里町東待井下","zip_code":"9870362"},{"name":"豊里町平林","zip_code":"9870353"},{"name":"豊里町福沢","zip_code":"9870345"},{"name":"豊里町二ツ屋","zip_code":"9870375"},{"name":"豊里町細沼","zip_code":"9870376"},{"name":"豊里町細沼田","zip_code":"9870376"},{"name":"豊里町保手","zip_code":"9870355"},{"name":"豊里町本地土手下","zip_code":"9870364"},{"name":"豊里町本地八反","zip_code":"9870359"},{"name":"豊里町前田","zip_code":"9870372"},{"name":"豊里町町浦","zip_code":"9870368"},{"name":"豊里町南切津","zip_code":"9870373"},{"name":"豊里町南町浦","zip_code":"9870368"},{"name":"豊里町杢沢","zip_code":"9870356"},{"name":"豊里町山根","zip_code":"9870342"},{"name":"豊里町山根前","zip_code":"9870342"},{"name":"豊里町横町","zip_code":"9870363"},{"name":"登米町小島","zip_code":"9870701"},{"name":"登米町寺池","zip_code":"9870702"},{"name":"登米町日根牛","zip_code":"9870703"},{"name":"登米町日野渡","zip_code":"9870704"},{"name":"中田町浅水","zip_code":"9870611"},{"name":"中田町石森","zip_code":"9870601"},{"name":"中田町上沼","zip_code":"9870602"},{"name":"中田町宝江黒沼","zip_code":"9870621"},{"name":"中田町宝江新井田","zip_code":"9870622"},{"name":"中田町宝江森","zip_code":"9870623"},{"name":"迫町北方","zip_code":"9870513"},{"name":"迫町佐沼","zip_code":"9870511"},{"name":"迫町新田","zip_code":"9894601"},{"name":"迫町森","zip_code":"9870512"},{"name":"南方町青笹","zip_code":"9870432"},{"name":"南方町青島前","zip_code":"9870441"},{"name":"南方町青島待井","zip_code":"9870441"},{"name":"南方町青島屋敷","zip_code":"9870441"},{"name":"南方町上ケ戸","zip_code":"9870412"},{"name":"南方町尼池","zip_code":"9870444"},{"name":"南方町天沼","zip_code":"9870411"},{"name":"南方町雷","zip_code":"9870412"},{"name":"南方町板ケ沢","zip_code":"9870443"},{"name":"南方町板倉","zip_code":"9870402"},{"name":"南方町板倉後","zip_code":"9870402"},{"name":"南方町一網","zip_code":"9870443"},{"name":"南方町一ノ曲","zip_code":"9870431"},{"name":"南方町後高石","zip_code":"9870442"},{"name":"南方町後屋敷待井","zip_code":"9870402"},{"name":"南方町内ノ目","zip_code":"9870403"},{"name":"南方町内鰐丸","zip_code":"9870414"},{"name":"南方町狼掛","zip_code":"9870432"},{"name":"南方町大上","zip_code":"9870444"},{"name":"南方町大坂前","zip_code":"9870443"},{"name":"南方町大埣","zip_code":"9870431"},{"name":"南方町太田","zip_code":"9870431"},{"name":"南方町大平","zip_code":"9870433"},{"name":"南方町大平前","zip_code":"9870433"},{"name":"南方町大嶽","zip_code":"9870423"},{"name":"南方町大嶽前","zip_code":"9870423"},{"name":"南方町大嶽山","zip_code":"9870423"},{"name":"南方町王塚","zip_code":"9870403"},{"name":"南方町大西","zip_code":"9870443"},{"name":"南方町大畑","zip_code":"9870421"},{"name":"南方町大畠前","zip_code":"9870422"},{"name":"南方町大袋","zip_code":"9870426"},{"name":"南方町大袋浦","zip_code":"9870426"},{"name":"南方町大村","zip_code":"9870414"},{"name":"南方町大村前","zip_code":"9870414"},{"name":"南方町大森前","zip_code":"9870444"},{"name":"南方町大涌戸","zip_code":"9870412"},{"name":"南方町表前","zip_code":"9870443"},{"name":"南方町風張","zip_code":"9870424"},{"name":"南方町梶沼","zip_code":"9870425"},{"name":"南方町梶沼川前","zip_code":"9870425"},{"name":"南方町梶沼前","zip_code":"9870425"},{"name":"南方町上窪田","zip_code":"9870432"},{"name":"南方町上砥落","zip_code":"9870425"},{"name":"南方町上原","zip_code":"9870413"},{"name":"南方町上平貝","zip_code":"9870445"},{"name":"南方町烏田","zip_code":"9870423"},{"name":"南方町河面","zip_code":"9870403"},{"name":"南方町川前","zip_code":"9870422"},{"name":"南方町樟","zip_code":"9870426"},{"name":"南方町樟土手外","zip_code":"9870426"},{"name":"南方町窪田","zip_code":"9870432"},{"name":"南方町鴻ノ木","zip_code":"9870403"},{"name":"南方町苔野谷地","zip_code":"9870443"},{"name":"南方町小山","zip_code":"9870403"},{"name":"南方町沢田","zip_code":"9870402"},{"name":"南方町沢田待井","zip_code":"9870402"},{"name":"南方町沢田屋敷","zip_code":"9870402"},{"name":"南方町三代前","zip_code":"9870444"},{"name":"南方町仕込","zip_code":"9870421"},{"name":"南方町下新山","zip_code":"9870444"},{"name":"南方町下砥落","zip_code":"9870425"},{"name":"南方町下原前","zip_code":"9870413"},{"name":"南方町下平貝","zip_code":"9870445"},{"name":"南方町十二山","zip_code":"9870425"},{"name":"南方町宿畑","zip_code":"9870413"},{"name":"南方町新一ノ曲","zip_code":"9870431"},{"name":"南方町新大畑前","zip_code":"9870422"},{"name":"南方町新島前","zip_code":"9870404"},{"name":"南方町新高石浦","zip_code":"9870446"},{"name":"南方町新田","zip_code":"9870422"},{"name":"南方町新長根下","zip_code":"9870447"},{"name":"南方町新中山","zip_code":"9870405"},{"name":"南方町新野谷地","zip_code":"9870443"},{"name":"南方町瀬川","zip_code":"9870422"},{"name":"南方町銭金壇","zip_code":"9870445"},{"name":"南方町瀬ノ淵","zip_code":"9870411"},{"name":"南方町ぜん荷前","zip_code":"9870423"},{"name":"南方町ぜん荷山","zip_code":"9870423"},{"name":"南方町外浦","zip_code":"9870443"},{"name":"南方町大門","zip_code":"9870412"},{"name":"南方町高石","zip_code":"9870401"},{"name":"南方町高石浦","zip_code":"9870401"},{"name":"南方町館","zip_code":"9870423"},{"name":"南方町館浦","zip_code":"9870424"},{"name":"南方町田中浦","zip_code":"9870425"},{"name":"南方町茶臼森","zip_code":"9870442"},{"name":"南方町茶臼森前","zip_code":"9870442"},{"name":"南方町長者原","zip_code":"9870433"},{"name":"南方町堤田","zip_code":"9870432"},{"name":"南方町角欠前","zip_code":"9870444"},{"name":"南方町鶴代","zip_code":"9870402"},{"name":"南方町寺袋","zip_code":"9870411"},{"name":"南方町照井","zip_code":"9870412"},{"name":"南方町堂地","zip_code":"9870423"},{"name":"南方町堂地前","zip_code":"9870423"},{"name":"南方町砥落","zip_code":"9870425"},{"name":"南方町戸根屋敷","zip_code":"9870402"},{"name":"南方町中須崎","zip_code":"9870445"},{"name":"南方町中高石","zip_code":"9870442"},{"name":"南方町長根","zip_code":"9870443"},{"name":"南方町長根下","zip_code":"9870443"},{"name":"南方町中ノ口","zip_code":"9870433"},{"name":"南方町中原","zip_code":"9870413"},{"name":"南方町中山","zip_code":"9870402"},{"name":"南方町成田","zip_code":"9870426"},{"name":"南方町新井宿","zip_code":"9870421"},{"name":"南方町西山成","zip_code":"9870401"},{"name":"南方町西山成前","zip_code":"9870401"},{"name":"南方町沼崎","zip_code":"9870433"},{"name":"南方町沼崎前","zip_code":"9870433"},{"name":"南方町沼向","zip_code":"9870425"},{"name":"南方町野谷地","zip_code":"9870443"},{"name":"南方町畑岡","zip_code":"9870432"},{"name":"南方町畑岡下","zip_code":"9870432"},{"name":"南方町八の森","zip_code":"9870401"},{"name":"南方町原","zip_code":"9870413"},{"name":"南方町原浦","zip_code":"9870413"},{"name":"南方町原前","zip_code":"9870413"},{"name":"南方町原屋敷","zip_code":"9870413"},{"name":"南方町東川前","zip_code":"9870422"},{"name":"南方町平貝","zip_code":"9870445"},{"name":"南方町二ツ橋","zip_code":"9870403"},{"name":"南方町蛇沼","zip_code":"9870422"},{"name":"南方町細川","zip_code":"9870424"},{"name":"南方町細川浦","zip_code":"9870424"},{"name":"南方町細川前","zip_code":"9870424"},{"name":"南方町堀切","zip_code":"9870423"},{"name":"南方町本郷大嶽","zip_code":"9870423"},{"name":"南方町間内","zip_code":"9870444"},{"name":"南方町間内前","zip_code":"9870444"},{"name":"南方町真ケ沼","zip_code":"9870415"},{"name":"南方町待井","zip_code":"9870402"},{"name":"南方町松島屋敷","zip_code":"9870402"},{"name":"南方町松葉","zip_code":"9870414"},{"name":"南方町松葉表","zip_code":"9870414"},{"name":"南方町松葉前","zip_code":"9870414"},{"name":"南方町実沢","zip_code":"9870444"},{"name":"南方町南大畑前","zip_code":"9870421"},{"name":"南方町南沢","zip_code":"9870424"},{"name":"南方町南細川","zip_code":"9870424"},{"name":"南方町峯","zip_code":"9870403"},{"name":"南方町峯前","zip_code":"9870412"},{"name":"南方町室田","zip_code":"9870422"},{"name":"南方町薬師島屋敷","zip_code":"9870403"},{"name":"南方町柳沢","zip_code":"9870444"},{"name":"南方町柳沢前","zip_code":"9870444"},{"name":"南方町山崎","zip_code":"9870422"},{"name":"南方町山成","zip_code":"9870401"},{"name":"南方町山成浦","zip_code":"9870414"},{"name":"南方町山成前","zip_code":"9870401"},{"name":"南方町翌沢","zip_code":"9870445"},{"name":"南方町横代","zip_code":"9870444"},{"name":"南方町横前","zip_code":"9870431"},{"name":"南方町米袋","zip_code":"9870425"},{"name":"南方町米袋浦","zip_code":"9870425"},{"name":"南方町米袋前","zip_code":"9870425"},{"name":"南方町若狭前","zip_code":"9870426"},{"name":"南方町鰐丸","zip_code":"9870414"},{"name":"米山町愛宕下","zip_code":"9870307"},{"name":"米山町愛宕前","zip_code":"9870307"},{"name":"米山町犬子松","zip_code":"9870307"},{"name":"米山町内","zip_code":"9870304"},{"name":"米山町川前","zip_code":"9870305"},{"name":"米山町小待井","zip_code":"9870308"},{"name":"米山町小待井下","zip_code":"9870308"},{"name":"米山町桜岡","zip_code":"9870311"},{"name":"米山町猿ケ崎","zip_code":"9870307"},{"name":"米山町地蔵川","zip_code":"9870306"},{"name":"米山町水門","zip_code":"9870305"},{"name":"米山町善王寺","zip_code":"9870301"},{"name":"米山町舘下","zip_code":"9870309"},{"name":"米山町舘前","zip_code":"9870309"},{"name":"米山町田畑西","zip_code":"9870303"},{"name":"米山町田畑前","zip_code":"9870303"},{"name":"米山町土佐ケ渕","zip_code":"9870306"},{"name":"米山町中津山","zip_code":"9870331"},{"name":"米山町中道東","zip_code":"9870304"},{"name":"米山町中道前","zip_code":"9870304"},{"name":"米山町西野","zip_code":"9870321"},{"name":"米山町沼田","zip_code":"9870302"},{"name":"米山町八反","zip_code":"9870305"},{"name":"米山町待井下","zip_code":"9870308"},{"name":"米山町櫓場","zip_code":"9870302"},{"name":"米山町櫓場下","zip_code":"9870302"}]},{"name":"栗原市","divisions":[{"name":"一迫青木","zip_code":"9872372"},{"name":"一迫荒町","zip_code":"9872369"},{"name":"一迫荒屋敷","zip_code":"9872336"},{"name":"一迫一本杉","zip_code":"9872343"},{"name":"一迫岩ケ沢","zip_code":"9872364"},{"name":"一迫宇南田","zip_code":"9872351"},{"name":"一迫大川口","zip_code":"9872301"},{"name":"一迫大栗","zip_code":"9872362"},{"name":"一迫大清水","zip_code":"9872346"},{"name":"一迫大平沢","zip_code":"9872348"},{"name":"一迫岡田","zip_code":"9872314"},{"name":"一迫沖","zip_code":"9872313"},{"name":"一迫沖浦","zip_code":"9872312"},{"name":"一迫鍛冶屋敷","zip_code":"9872355"},{"name":"一迫片子沢","zip_code":"9872302"},{"name":"一迫上大土","zip_code":"9872367"},{"name":"一迫上久保","zip_code":"9872353"},{"name":"一迫上中島","zip_code":"9872339"},{"name":"一迫川口","zip_code":"9872303"},{"name":"一迫川台","zip_code":"9872371"},{"name":"一迫北沢","zip_code":"9872304"},{"name":"一迫狐崎","zip_code":"9872305"},{"name":"一迫久保田","zip_code":"9872317"},{"name":"一迫間杭元","zip_code":"9872315"},{"name":"一迫小坂本","zip_code":"9872316"},{"name":"一迫坂下西","zip_code":"9872325"},{"name":"一迫佐野","zip_code":"9872363"},{"name":"一迫佐野原","zip_code":"9872359"},{"name":"一迫沢田","zip_code":"9872342"},{"name":"一迫鹿込","zip_code":"9872352"},{"name":"一迫嶋躰","zip_code":"9872306"},{"name":"一迫清水原","zip_code":"9872374"},{"name":"一迫下大土","zip_code":"9872368"},{"name":"一迫下小僧","zip_code":"9872358"},{"name":"一迫神山","zip_code":"9872334"},{"name":"一迫新米","zip_code":"9872365"},{"name":"一迫清水目","zip_code":"9872307"},{"name":"一迫大際","zip_code":"9872349"},{"name":"一迫高田","zip_code":"9872335"},{"name":"一迫高橋","zip_code":"9872332"},{"name":"一迫土川","zip_code":"9872328"},{"name":"一迫天神","zip_code":"9872327"},{"name":"一迫中小僧","zip_code":"9872361"},{"name":"一迫中屋敷浦","zip_code":"9872341"},{"name":"一迫西風","zip_code":"9872354"},{"name":"一迫沼田","zip_code":"9872357"},{"name":"一迫萩生","zip_code":"9872331"},{"name":"一迫日向","zip_code":"9872338"},{"name":"一迫平館","zip_code":"9872347"},{"name":"一迫不動西","zip_code":"9872373"},{"name":"一迫細越","zip_code":"9872329"},{"name":"一迫真坂","zip_code":"9872308"},{"name":"一迫松の木","zip_code":"9872318"},{"name":"一迫松原沢","zip_code":"9872337"},{"name":"一迫御崎","zip_code":"9872311"},{"name":"一迫三嶋","zip_code":"9872324"},{"name":"一迫宮下","zip_code":"9872344"},{"name":"一迫宮前","zip_code":"9872319"},{"name":"一迫女子町","zip_code":"9872323"},{"name":"一迫屋敷田","zip_code":"9872345"},{"name":"一迫柳目","zip_code":"9872309"},{"name":"一迫山崎","zip_code":"9872326"},{"name":"一迫山沢","zip_code":"9872356"},{"name":"一迫要害","zip_code":"9872333"},{"name":"一迫横町","zip_code":"9872321"},{"name":"一迫横町浦","zip_code":"9872322"},{"name":"一迫論田","zip_code":"9872366"},{"name":"鶯沢北郷","zip_code":"9895403"},{"name":"鶯沢南郷","zip_code":"9895402"},{"name":"鶯沢袋","zip_code":"9895401"},{"name":"金成赤児","zip_code":"9894807"},{"name":"金成姉歯","zip_code":"9895172"},{"name":"金成有壁","zip_code":"9894806"},{"name":"金成稲荷前","zip_code":"9895127"},{"name":"金成入生田","zip_code":"9895142"},{"name":"金成入ノ沢","zip_code":"9895118"},{"name":"金成祝","zip_code":"9895146"},{"name":"金成宇南崎","zip_code":"9895112"},{"name":"金成狼ノ沢","zip_code":"9895119"},{"name":"金成大久保沢","zip_code":"9895163"},{"name":"金成大梨","zip_code":"9895116"},{"name":"金成大原木","zip_code":"9895185"},{"name":"金成大平","zip_code":"9895121"},{"name":"金成翁沢","zip_code":"9895138"},{"name":"金成翁留","zip_code":"9895141"},{"name":"金成小堤","zip_code":"9895183"},{"name":"金成小迫","zip_code":"9895184"},{"name":"金成片馬合","zip_code":"9894805"},{"name":"金成金山沢","zip_code":"9895128"},{"name":"金成上富田","zip_code":"9895115"},{"name":"金成髪長","zip_code":"9895137"},{"name":"金成上町","zip_code":"9895154"},{"name":"金成上町西裏","zip_code":"9895155"},{"name":"金成上町東裏","zip_code":"9895153"},{"name":"金成金生","zip_code":"9895164"},{"name":"金成熊ノ下","zip_code":"9895136"},{"name":"金成黄金田","zip_code":"9895139"},{"name":"金成桜町","zip_code":"9895151"},{"name":"金成沢辺","zip_code":"9895171"},{"name":"金成清水田","zip_code":"9895130"},{"name":"金成下富田","zip_code":"9895114"},{"name":"金成新町","zip_code":"9895133"},{"name":"金成新町裏","zip_code":"9895134"},{"name":"金成末野","zip_code":"9894802"},{"name":"金成台畑","zip_code":"9895135"},{"name":"金成大林寺沢","zip_code":"9895125"},{"name":"金成館下","zip_code":"9895161"},{"name":"金成津久毛","zip_code":"9895181"},{"name":"金成鍔ノ瓦","zip_code":"9895126"},{"name":"金成長館","zip_code":"9895165"},{"name":"金成長根沢","zip_code":"9895162"},{"name":"金成長根前","zip_code":"9895166"},{"name":"金成中町","zip_code":"9895144"},{"name":"金成中町西裏","zip_code":"9895145"},{"name":"金成梨崎","zip_code":"9895173"},{"name":"金成柧木沢","zip_code":"9895117"},{"name":"金成日向","zip_code":"9895111"},{"name":"金成日向田","zip_code":"9895131"},{"name":"金成普賢堂","zip_code":"9894808"},{"name":"金成藤渡戸","zip_code":"9894803"},{"name":"金成平治屋敷","zip_code":"9895123"},{"name":"金成奉公田","zip_code":"9895143"},{"name":"金成干谷沢","zip_code":"9895132"},{"name":"金成三沢","zip_code":"9895122"},{"name":"金成宮前","zip_code":"9895113"},{"name":"金成山中堤下","zip_code":"9895124"},{"name":"金成四ツ屋敷","zip_code":"9895152"},{"name":"栗駒泉沢","zip_code":"9895331"},{"name":"栗駒稲屋敷","zip_code":"9895341"},{"name":"栗駒芋埣","zip_code":"9895332"},{"name":"栗駒岩ケ崎","zip_code":"9895301"},{"name":"栗駒片子沢","zip_code":"9895333"},{"name":"栗駒栗原","zip_code":"9895321"},{"name":"栗駒桜田","zip_code":"9895322"},{"name":"栗駒猿飛来","zip_code":"9895312"},{"name":"栗駒里谷","zip_code":"9895311"},{"name":"栗駒鳥沢","zip_code":"9895381"},{"name":"栗駒中野","zip_code":"9895351"},{"name":"栗駒沼倉","zip_code":"9895371"},{"name":"栗駒菱沼","zip_code":"9895323"},{"name":"栗駒深谷","zip_code":"9895382"},{"name":"栗駒松倉","zip_code":"9895372"},{"name":"栗駒嶺崎","zip_code":"9895334"},{"name":"栗駒文字","zip_code":"9895361"},{"name":"栗駒八幡","zip_code":"9895324"},{"name":"栗駒渡丸","zip_code":"9895335"},{"name":"志波姫荒町北","zip_code":"9895608"},{"name":"志波姫荒町南","zip_code":"9895606"},{"name":"志波姫伊豆野","zip_code":"9895603"},{"name":"志波姫刈敷","zip_code":"9895601"},{"name":"志波姫北郷","zip_code":"9895605"},{"name":"志波姫北堀口","zip_code":"9895627"},{"name":"志波姫蔵場南","zip_code":"9895607"},{"name":"志波姫下里","zip_code":"9895621"},{"name":"志波姫城内南","zip_code":"9895602"},{"name":"志波姫新上戸","zip_code":"9895616"},{"name":"志波姫新熊谷","zip_code":"9895612"},{"name":"志波姫新沼崎","zip_code":"9895613"},{"name":"志波姫新橋本","zip_code":"9895617"},{"name":"志波姫新原","zip_code":"9895614"},{"name":"志波姫新八樟","zip_code":"9895618"},{"name":"志波姫大門南","zip_code":"9895604"},{"name":"志波姫中沖","zip_code":"9895626"},{"name":"志波姫沼崎","zip_code":"9895615"},{"name":"志波姫花崎西","zip_code":"9895609"},{"name":"志波姫堀口","zip_code":"9895625"},{"name":"志波姫南郷","zip_code":"9895611"},{"name":"志波姫南堀口","zip_code":"9895624"},{"name":"志波姫南八樟","zip_code":"9895623"},{"name":"志波姫八樟","zip_code":"9895622"},{"name":"志波姫要害東","zip_code":"9895610"},{"name":"志波姫横峰浦","zip_code":"9895619"},{"name":"瀬峰愛宕","zip_code":"9894533"},{"name":"瀬峰荒町","zip_code":"9894549"},{"name":"瀬峰泉谷","zip_code":"9894534"},{"name":"瀬峰泉谷南","zip_code":"9894535"},{"name":"瀬峰伊勢堂","zip_code":"9894545"},{"name":"瀬峰牛渕","zip_code":"9894541"},{"name":"瀬峰牛渕前","zip_code":"9894540"},{"name":"瀬峰大境前","zip_code":"9894580"},{"name":"瀬峰大境山","zip_code":"9894583"},{"name":"瀬峰大屋敷","zip_code":"9894568"},{"name":"瀬峰大鰐谷","zip_code":"9894509"},{"name":"瀬峰蒲盛","zip_code":"9894588"},{"name":"瀬峰上沢田","zip_code":"9894557"},{"name":"瀬峰神田","zip_code":"9894547"},{"name":"瀬峰上屋敷","zip_code":"9894566"},{"name":"瀬峰刈安沢","zip_code":"9894505"},{"name":"瀬峰川ノ畑","zip_code":"9894562"},{"name":"瀬峰北ノ沢","zip_code":"9894574"},{"name":"瀬峰北谷地","zip_code":"9894523"},{"name":"瀬峰薬沢西","zip_code":"9894577"},{"name":"瀬峰薬沢東","zip_code":"9894578"},{"name":"瀬峰荒神堂","zip_code":"9894518"},{"name":"瀬峰高土山","zip_code":"9894576"},{"name":"瀬峰小深沢","zip_code":"9894504"},{"name":"瀬峰坂ノ下浦","zip_code":"9894582"},{"name":"瀬峰坂ノ下前北","zip_code":"9894585"},{"name":"瀬峰三代","zip_code":"9894551"},{"name":"瀬峰柴ノ脇","zip_code":"9894508"},{"name":"瀬峰清水沢","zip_code":"9894506"},{"name":"瀬峰清水山","zip_code":"9894584"},{"name":"瀬峰下田","zip_code":"9894521"},{"name":"瀬峰下の前","zip_code":"9894522"},{"name":"瀬峰下藤沢","zip_code":"9894512"},{"name":"瀬峰下谷地","zip_code":"9894525"},{"name":"瀬峰十王堂前","zip_code":"9894573"},{"name":"瀬峰新下藤沢","zip_code":"9894510"},{"name":"瀬峰新下田","zip_code":"9894529"},{"name":"瀬峰新道東","zip_code":"9894560"},{"name":"瀬峰諏訪原","zip_code":"9894538"},{"name":"瀬峰蔵王","zip_code":"9894586"},{"name":"瀬峰壇ノ越","zip_code":"9894536"},{"name":"瀬峰力石","zip_code":"9894503"},{"name":"瀬峰長者原","zip_code":"9894516"},{"name":"瀬峰寺浦","zip_code":"9894572"},{"name":"瀬峰寺沢","zip_code":"9894571"},{"name":"瀬峰天神下","zip_code":"9894565"},{"name":"瀬峰筒ケ崎","zip_code":"9894531"},{"name":"瀬峰筒場","zip_code":"9894569"},{"name":"瀬峰富要害","zip_code":"9894589"},{"name":"瀬峰長根","zip_code":"9894548"},{"name":"瀬峰新井堀","zip_code":"9894542"},{"name":"瀬峰新井屋敷","zip_code":"9894543"},{"name":"瀬峰西原","zip_code":"9894507"},{"name":"瀬峰西原前","zip_code":"9894567"},{"name":"瀬峰新田沢","zip_code":"9894511"},{"name":"瀬峰根岸","zip_code":"9894513"},{"name":"瀬峰野沢","zip_code":"9894555"},{"name":"瀬峰除","zip_code":"9894544"},{"name":"瀬峰橋本浦","zip_code":"9894579"},{"name":"瀬峰原田","zip_code":"9894554"},{"name":"瀬峰樋口山","zip_code":"9894532"},{"name":"瀬峰樋渡","zip_code":"9894561"},{"name":"瀬峰袋沢","zip_code":"9894556"},{"name":"瀬峰藤沢瀬嶺","zip_code":"9894517"},{"name":"瀬峰藤沢要害","zip_code":"9894581"},{"name":"瀬峰藤田","zip_code":"9894524"},{"name":"瀬峰二ツ谷","zip_code":"9894539"},{"name":"瀬峰二又","zip_code":"9894553"},{"name":"瀬峰船橋","zip_code":"9894537"},{"name":"瀬峰町田","zip_code":"9894575"},{"name":"瀬峰町田前","zip_code":"9894570"},{"name":"瀬峰宮小路原西","zip_code":"9894526"},{"name":"瀬峰宮小路原東","zip_code":"9894527"},{"name":"瀬峰宮田","zip_code":"9894552"},{"name":"瀬峰桃生田","zip_code":"9894515"},{"name":"瀬峰桃生田前","zip_code":"9894514"},{"name":"瀬峰薬師堂前","zip_code":"9894587"},{"name":"瀬峰谷地田","zip_code":"9894564"},{"name":"瀬峰山崎前","zip_code":"9894528"},{"name":"瀬峰横森前","zip_code":"9894519"},{"name":"瀬峰四ツ壇","zip_code":"9894546"},{"name":"高清水浅野","zip_code":"9872033"},{"name":"高清水浅野前","zip_code":"9872035"},{"name":"高清水新町","zip_code":"9872185"},{"name":"高清水石沢","zip_code":"9872017"},{"name":"高清水石沢浦","zip_code":"9872018"},{"name":"高清水一本松","zip_code":"9872115"},{"name":"高清水浦南沢","zip_code":"9872004"},{"name":"高清水大沢","zip_code":"9872014"},{"name":"高清水大西","zip_code":"9872025"},{"name":"高清水沖","zip_code":"9872054"},{"name":"高清水乙牧堀","zip_code":"9872146"},{"name":"高清水小山下","zip_code":"9872188"},{"name":"高清水小山田","zip_code":"9872024"},{"name":"高清水折木","zip_code":"9872113"},{"name":"高清水覚満寺","zip_code":"9872143"},{"name":"高清水影の沢","zip_code":"9872111"},{"name":"高清水欠屋敷","zip_code":"9872013"},{"name":"高清水桂葉","zip_code":"9872173"},{"name":"高清水蟹沢尻","zip_code":"9872001"},{"name":"高清水上折木","zip_code":"9872112"},{"name":"高清水上桂葉","zip_code":"9872174"},{"name":"高清水上佐野","zip_code":"9872121"},{"name":"高清水上外沢田","zip_code":"9872141"},{"name":"高清水上萩田","zip_code":"9872158"},{"name":"高清水萱刈","zip_code":"9872155"},{"name":"高清水観音沢","zip_code":"9872147"},{"name":"高清水観音堂","zip_code":"9872147"},{"name":"高清水神原","zip_code":"9872021"},{"name":"高清水北甚六原","zip_code":"9872141"},{"name":"高清水北原","zip_code":"9872153"},{"name":"高清水京の沢","zip_code":"9872011"},{"name":"高清水熊野","zip_code":"9872026"},{"name":"高清水熊野堂","zip_code":"9872023"},{"name":"高清水甲牧堀","zip_code":"9872146"},{"name":"高清水五輪","zip_code":"9872175"},{"name":"高清水桜丁","zip_code":"9872133"},{"name":"高清水五月田","zip_code":"9872055"},{"name":"高清水佐野沢田","zip_code":"9872127"},{"name":"高清水佐野丁","zip_code":"9872128"},{"name":"高清水下町","zip_code":"9872189"},{"name":"高清水下折木","zip_code":"9872114"},{"name":"高清水下佐野","zip_code":"9872124"},{"name":"高清水十二の神","zip_code":"9872125"},{"name":"高清水宿の沢","zip_code":"9872042"},{"name":"高清水勝負ケ町","zip_code":"9872163"},{"name":"高清水新桂葉","zip_code":"9872177"},{"name":"高清水新佐野","zip_code":"9872123"},{"name":"高清水新神明","zip_code":"9872164"},{"name":"高清水新田","zip_code":"9872031"},{"name":"高清水新中の茎","zip_code":"9872158"},{"name":"高清水神明","zip_code":"9872161"},{"name":"高清水千神","zip_code":"9872156"},{"name":"高清水善光寺","zip_code":"9872184"},{"name":"高清水袖山","zip_code":"9872183"},{"name":"高清水外沢田","zip_code":"9872142"},{"name":"高清水太子堂","zip_code":"9872127"},{"name":"高清水大寺","zip_code":"9872126"},{"name":"高清水台町","zip_code":"9872144"},{"name":"高清水長福寺","zip_code":"9872171"},{"name":"高清水堤下","zip_code":"9872044"},{"name":"高清水丁神明","zip_code":"9872162"},{"name":"高清水丁牧堀","zip_code":"9872146"},{"name":"高清水手取","zip_code":"9872043"},{"name":"高清水天王沢","zip_code":"9872152"},{"name":"高清水中里","zip_code":"9872182"},{"name":"高清水中佐野","zip_code":"9872122"},{"name":"高清水中の茎","zip_code":"9872157"},{"name":"高清水中の沢","zip_code":"9872012"},{"name":"高清水中町","zip_code":"9872186"},{"name":"高清水西善光寺","zip_code":"9872176"},{"name":"高清水西手取","zip_code":"9872045"},{"name":"高清水西中里","zip_code":"9872015"},{"name":"高清水忽滑沢","zip_code":"9872005"},{"name":"高清水原","zip_code":"9872022"},{"name":"高清水東浦","zip_code":"9872151"},{"name":"高清水東善光寺","zip_code":"9872181"},{"name":"高清水東館","zip_code":"9872132"},{"name":"高清水日向","zip_code":"9872028"},{"name":"高清水福塚","zip_code":"9872003"},{"name":"高清水渕際","zip_code":"9872053"},{"name":"高清水丙牧堀","zip_code":"9872146"},{"name":"高清水松の木沢田","zip_code":"9872159"},{"name":"高清水松原","zip_code":"9872172"},{"name":"高清水水の手","zip_code":"9872131"},{"name":"高清水南沢","zip_code":"9872036"},{"name":"高清水南原","zip_code":"9872154"},{"name":"高清水三森","zip_code":"9872051"},{"name":"高清水宮脇","zip_code":"9872052"},{"name":"高清水明官","zip_code":"9872034"},{"name":"高清水向野","zip_code":"9872145"},{"name":"高清水仰ケ返り","zip_code":"9872151"},{"name":"高清水本町","zip_code":"9872187"},{"name":"高清水本道","zip_code":"9872158"},{"name":"高清水茂路具多","zip_code":"9872016"},{"name":"高清水八重壁","zip_code":"9872002"},{"name":"高清水要の森","zip_code":"9872041"},{"name":"高清水横手","zip_code":"9872032"},{"name":"高清水来光沢","zip_code":"9872116"},{"name":"高清水若宮","zip_code":"9872027"},{"name":"築館青野","zip_code":"9872253"},{"name":"築館赤坂","zip_code":"9872231"},{"name":"築館荒田沢","zip_code":"9872245"},{"name":"築館伊豆","zip_code":"9872216"},{"name":"築館芋埣","zip_code":"9872271"},{"name":"築館内沢","zip_code":"9872214"},{"name":"築館内南沢","zip_code":"9872213"},{"name":"築館太田","zip_code":"9872225"},{"name":"築館蟹沢","zip_code":"9872236"},{"name":"築館上高森","zip_code":"9872246"},{"name":"築館上宮野","zip_code":"9872275"},{"name":"築館唐竹林","zip_code":"9872262"},{"name":"築館川添","zip_code":"9872228"},{"name":"築館木戸","zip_code":"9872212"},{"name":"築館久伝","zip_code":"9872261"},{"name":"築館黒瀬","zip_code":"9872204"},{"name":"築館源光","zip_code":"9872211"},{"name":"築館左足","zip_code":"9872273"},{"name":"築館小淵西","zip_code":"9872265"},{"name":"築館小淵東","zip_code":"9872265"},{"name":"築館境田","zip_code":"9872265"},{"name":"築館佐野原","zip_code":"9872265"},{"name":"築館沢入","zip_code":"9872232"},{"name":"築館下高森","zip_code":"9872247"},{"name":"築館下待井","zip_code":"9872221"},{"name":"築館下宮野","zip_code":"9872203"},{"name":"築館城生野","zip_code":"9872202"},{"name":"築館新田","zip_code":"9872263"},{"name":"築館新成田西","zip_code":"9872274"},{"name":"築館新八ツ沢","zip_code":"9872234"},{"name":"築館外南沢","zip_code":"9872222"},{"name":"築館高田","zip_code":"9872215"},{"name":"築館館沢","zip_code":"9872242"},{"name":"築館館下","zip_code":"9872241"},{"name":"築館築館","zip_code":"9872235"},{"name":"築館照越","zip_code":"9872233"},{"name":"築館富","zip_code":"9872201"},{"name":"築館留場","zip_code":"9872272"},{"name":"築館成田","zip_code":"9872274"},{"name":"築館西小山","zip_code":"9872244"},{"name":"築館萩沢","zip_code":"9872223"},{"name":"築館萩沢東","zip_code":"9872243"},{"name":"築館萩沢南","zip_code":"9872243"},{"name":"築館光屋敷","zip_code":"9872227"},{"name":"築館藤木","zip_code":"9872251"},{"name":"築館宮野中央","zip_code":"9872205"},{"name":"築館薬師","zip_code":"9872252"},{"name":"築館薬師ケ丘","zip_code":"9872263"},{"name":"築館薬師台","zip_code":"9872264"},{"name":"築館八沢","zip_code":"9872226"},{"name":"築館横須賀","zip_code":"9872224"},{"name":"花山草木沢","zip_code":"9872512"},{"name":"花山草木沢上原","zip_code":"9896701"},{"name":"花山本沢","zip_code":"9872511"},{"name":"若柳有賀","zip_code":"9895507"},{"name":"若柳大林","zip_code":"9895506"},{"name":"若柳上畑岡","zip_code":"9895504"},{"name":"若柳川北","zip_code":"9895501"},{"name":"若柳川南","zip_code":"9895502"},{"name":"若柳下畑岡","zip_code":"9895503"},{"name":"若柳福岡","zip_code":"9895505"},{"name":"若柳武鎗","zip_code":"9895508"}]},{"name":"東松島市","divisions":[{"name":"赤井","zip_code":"9810501"},{"name":"浅井","zip_code":"9810415"},{"name":"牛網","zip_code":"9810301"},{"name":"大塩","zip_code":"9810505"},{"name":"大塚","zip_code":"9810414"},{"name":"大曲","zip_code":"9810502"},{"name":"小野","zip_code":"9810303"},{"name":"川下","zip_code":"9810304"},{"name":"小松","zip_code":"9810504"},{"name":"上下堤","zip_code":"9810305"},{"name":"新東名","zip_code":"9810413"},{"name":"高松","zip_code":"9810308"},{"name":"西福田","zip_code":"9810306"},{"name":"新田","zip_code":"9810307"},{"name":"根古","zip_code":"9810309"},{"name":"野蒜","zip_code":"9810411"},{"name":"浜市","zip_code":"9810302"},{"name":"宮戸","zip_code":"9810412"},{"name":"矢本","zip_code":"9810503"}]},{"name":"大崎市","divisions":[{"name":"岩出山木通沢","zip_code":"9896463"},{"name":"岩出山池月","zip_code":"9896405"},{"name":"岩出山浦小路","zip_code":"9896435"},{"name":"岩出山上金沢","zip_code":"9896447"},{"name":"岩出山上川原北","zip_code":"9896432"},{"name":"岩出山上川原町","zip_code":"9896433"},{"name":"岩出山上川原南","zip_code":"9896431"},{"name":"岩出山上東昌寺沢","zip_code":"9896465"},{"name":"岩出山上中江","zip_code":"9896421"},{"name":"岩出山上野目","zip_code":"9896403"},{"name":"岩出山下一栗","zip_code":"9896404"},{"name":"岩出山下金沢","zip_code":"9896442"},{"name":"岩出山下川原","zip_code":"9896414"},{"name":"岩出山下川原町","zip_code":"9896434"},{"name":"岩出山下東昌寺沢","zip_code":"9896464"},{"name":"岩出山下野目","zip_code":"9896412"},{"name":"岩出山重蔵","zip_code":"9896422"},{"name":"岩出山城山","zip_code":"9896437"},{"name":"岩出山大学町","zip_code":"9896446"},{"name":"岩出山通丁","zip_code":"9896441"},{"name":"岩出山轟","zip_code":"9896443"},{"name":"岩出山西御名掛","zip_code":"9896425"},{"name":"岩出山二ノ構","zip_code":"9896436"},{"name":"岩出山東御名掛","zip_code":"9896426"},{"name":"岩出山東川原","zip_code":"9896415"},{"name":"岩出山東川原町","zip_code":"9896413"},{"name":"岩出山蛭沢","zip_code":"9896462"},{"name":"岩出山船場","zip_code":"9896411"},{"name":"岩出山細峰","zip_code":"9896444"},{"name":"岩出山保土沢","zip_code":"9896466"},{"name":"岩出山前毘沙門","zip_code":"9896423"},{"name":"岩出山松沢","zip_code":"9896461"},{"name":"岩出山丸山","zip_code":"9896424"},{"name":"岩出山南沢","zip_code":"9896445"},{"name":"岩出山","zip_code":"9896402"},{"name":"鹿島台大迫","zip_code":"9894106"},{"name":"鹿島台木間塚","zip_code":"9894102"},{"name":"鹿島台平渡","zip_code":"9894103"},{"name":"鹿島台広長","zip_code":"9894104"},{"name":"鹿島台深谷","zip_code":"9894105"},{"name":"鹿島台船越","zip_code":"9894101"},{"name":"三本木","zip_code":"9896321"},{"name":"三本木秋田","zip_code":"9896304"},{"name":"三本木蟻ケ袋","zip_code":"9896312"},{"name":"三本木伊賀","zip_code":"9896305"},{"name":"三本木伊場野","zip_code":"9896303"},{"name":"三本木音無","zip_code":"9896313"},{"name":"三本木上伊場野","zip_code":"9896302"},{"name":"三本木桑折","zip_code":"9896301"},{"name":"三本木斉田","zip_code":"9896314"},{"name":"三本木坂本","zip_code":"9896311"},{"name":"三本木新町","zip_code":"9896306"},{"name":"三本木高柳","zip_code":"9896316"},{"name":"三本木新沼","zip_code":"9896315"},{"name":"三本木蒜袋","zip_code":"9896317"},{"name":"三本木南谷地","zip_code":"9896322"},{"name":"田尻","zip_code":"9894415"},{"name":"田尻大沢","zip_code":"9894303"},{"name":"田尻大貫","zip_code":"9894302"},{"name":"田尻大嶺","zip_code":"9894412"},{"name":"田尻小塩","zip_code":"9894305"},{"name":"田尻蕪栗","zip_code":"9894301"},{"name":"田尻北小牛田","zip_code":"9894304"},{"name":"田尻北高城","zip_code":"9894307"},{"name":"田尻北牧目","zip_code":"9894414"},{"name":"田尻小松","zip_code":"9894419"},{"name":"田尻桜田高野","zip_code":"9894306"},{"name":"田尻諏訪峠","zip_code":"9894418"},{"name":"田尻通木","zip_code":"9894413"},{"name":"田尻中目","zip_code":"9894416"},{"name":"田尻沼木","zip_code":"9894417"},{"name":"田尻沼部","zip_code":"9894308"},{"name":"田尻八幡","zip_code":"9894411"},{"name":"鳴子温泉赤這","zip_code":"9896711"},{"name":"鳴子温泉赤湯","zip_code":"9896811"},{"name":"鳴子温泉石ノ梅","zip_code":"9896711"},{"name":"鳴子温泉入沢","zip_code":"9896711"},{"name":"鳴子温泉岩渕","zip_code":"9896806"},{"name":"鳴子温泉岩渕前","zip_code":"9896805"},{"name":"鳴子温泉上ノ原","zip_code":"9896711"},{"name":"鳴子温泉奥羽岳","zip_code":"9896838"},{"name":"鳴子温泉大畑","zip_code":"9896803"},{"name":"鳴子温泉鬼首","zip_code":"9896941"},{"name":"鳴子温泉小身川原","zip_code":"9896712"},{"name":"鳴子温泉上川原","zip_code":"9896711"},{"name":"鳴子温泉上鳴子","zip_code":"9896825"},{"name":"鳴子温泉通原","zip_code":"9896711"},{"name":"鳴子温泉川渡","zip_code":"9896711"},{"name":"鳴子温泉川端","zip_code":"9896833"},{"name":"鳴子温泉川袋","zip_code":"9896712"},{"name":"鳴子温泉河原湯","zip_code":"9896824"},{"name":"鳴子温泉築沢","zip_code":"9896711"},{"name":"鳴子温泉木戸脇","zip_code":"9896712"},{"name":"鳴子温泉久田","zip_code":"9896711"},{"name":"鳴子温泉車湯","zip_code":"9896821"},{"name":"鳴子温泉黒崎","zip_code":"9896712"},{"name":"鳴子温泉小室","zip_code":"9896712"},{"name":"鳴子温泉小室山","zip_code":"9896712"},{"name":"鳴子温泉境松","zip_code":"9896712"},{"name":"鳴子温泉坂ノ上","zip_code":"9896712"},{"name":"鳴子温泉沢","zip_code":"9896711"},{"name":"鳴子温泉沢目木","zip_code":"9896712"},{"name":"鳴子温泉尿前","zip_code":"9896827"},{"name":"鳴子温泉新小身川原","zip_code":"9896712"},{"name":"鳴子温泉新田","zip_code":"9896711"},{"name":"鳴子温泉新町下","zip_code":"9896711"},{"name":"鳴子温泉新屋敷","zip_code":"9896822"},{"name":"鳴子温泉末沢","zip_code":"9896801"},{"name":"鳴子温泉末沢西","zip_code":"9896802"},{"name":"鳴子温泉関口","zip_code":"9896712"},{"name":"鳴子温泉大尺","zip_code":"9896712"},{"name":"鳴子温泉滝岸","zip_code":"9896712"},{"name":"鳴子温泉竹原","zip_code":"9896712"},{"name":"鳴子温泉田中","zip_code":"9896712"},{"name":"鳴子温泉玉ノ木","zip_code":"9896711"},{"name":"鳴子温泉月山","zip_code":"9896712"},{"name":"鳴子温泉堤下","zip_code":"9896712"},{"name":"鳴子温泉鶴田","zip_code":"9896712"},{"name":"鳴子温泉天神","zip_code":"9896712"},{"name":"鳴子温泉中野","zip_code":"9896711"},{"name":"鳴子温泉中道","zip_code":"9896712"},{"name":"鳴子温泉中屋敷","zip_code":"9896804"},{"name":"鳴子温泉西原","zip_code":"9896834"},{"name":"鳴子温泉沼井","zip_code":"9896711"},{"name":"鳴子温泉野際","zip_code":"9896712"},{"name":"鳴子温泉畑山","zip_code":"9896712"},{"name":"鳴子温泉馬場","zip_code":"9896711"},{"name":"鳴子温泉原","zip_code":"9896711"},{"name":"鳴子温泉原崎","zip_code":"9896712"},{"name":"鳴子温泉日向山","zip_code":"9896712"},{"name":"鳴子温泉不動山","zip_code":"9896712"},{"name":"鳴子温泉古戸前","zip_code":"9896826"},{"name":"鳴子温泉星沼","zip_code":"9896832"},{"name":"鳴子温泉前森","zip_code":"9896712"},{"name":"鳴子温泉前山","zip_code":"9896712"},{"name":"鳴子温泉町","zip_code":"9896711"},{"name":"鳴子温泉町下","zip_code":"9896711"},{"name":"鳴子温泉町西","zip_code":"9896711"},{"name":"鳴子温泉水沼","zip_code":"9896712"},{"name":"鳴子温泉見手野原","zip_code":"9896807"},{"name":"鳴子温泉南原","zip_code":"9896835"},{"name":"鳴子温泉南星沼","zip_code":"9896837"},{"name":"鳴子温泉南山","zip_code":"9896712"},{"name":"鳴子温泉柳木","zip_code":"9896831"},{"name":"鳴子温泉焼石亦","zip_code":"9896836"},{"name":"鳴子温泉山際","zip_code":"9896712"},{"name":"鳴子温泉湯元","zip_code":"9896823"},{"name":"鳴子温泉要害","zip_code":"9896711"},{"name":"鳴子温泉横山","zip_code":"9896711"},{"name":"鳴子温泉蓬田","zip_code":"9896711"},{"name":"鳴子温泉鷲ノ巣","zip_code":"9896811"},{"name":"鳴子温泉和田","zip_code":"9896712"},{"name":"古川","zip_code":"9896223"},{"name":"古川旭","zip_code":"9896117"},{"name":"古川雨生沢","zip_code":"9896243"},{"name":"古川荒川小金町","zip_code":"9896164"},{"name":"古川荒田目","zip_code":"9896212"},{"name":"古川荒谷","zip_code":"9896252"},{"name":"古川飯川","zip_code":"9896203"},{"name":"古川石森","zip_code":"9896124"},{"name":"古川稲葉","zip_code":"9896135"},{"name":"古川浦町","zip_code":"9896173"},{"name":"古川江合寿町","zip_code":"9896103"},{"name":"古川江合錦町","zip_code":"9896104"},{"name":"古川江合本町","zip_code":"9896102"},{"name":"古川駅東","zip_code":"9896115"},{"name":"古川駅前大通","zip_code":"9896162"},{"name":"古川駅南","zip_code":"9896161"},{"name":"古川大崎","zip_code":"9896227"},{"name":"古川大幡","zip_code":"9896114"},{"name":"古川大宮","zip_code":"9896221"},{"name":"古川小林","zip_code":"9896234"},{"name":"古川柏崎","zip_code":"9896216"},{"name":"古川金五輪","zip_code":"9896131"},{"name":"古川上埣","zip_code":"9896264"},{"name":"古川上中目","zip_code":"9896202"},{"name":"古川川熊","zip_code":"9896236"},{"name":"古川川端","zip_code":"9896167"},{"name":"古川北稲葉","zip_code":"9896145"},{"name":"古川北町","zip_code":"9896171"},{"name":"古川北宮沢","zip_code":"9896242"},{"name":"古川狐塚","zip_code":"9896254"},{"name":"古川清滝","zip_code":"9896244"},{"name":"古川桑針","zip_code":"9896122"},{"name":"古川小泉","zip_code":"9896224"},{"name":"古川小稲葉町","zip_code":"9896144"},{"name":"古川小野","zip_code":"9896251"},{"name":"古川斎下","zip_code":"9896211"},{"name":"古川幸町","zip_code":"9896106"},{"name":"古川境野宮","zip_code":"9896128"},{"name":"古川栄町","zip_code":"9896157"},{"name":"古川桜ノ目","zip_code":"9896233"},{"name":"古川沢田","zip_code":"9896232"},{"name":"古川渋井","zip_code":"9896201"},{"name":"古川清水","zip_code":"9896228"},{"name":"古川清水沢","zip_code":"9896241"},{"name":"古川下中目","zip_code":"9896123"},{"name":"古川下谷地","zip_code":"9896263"},{"name":"古川城西","zip_code":"9896151"},{"name":"古川李埣","zip_code":"9896116"},{"name":"古川諏訪","zip_code":"9896175"},{"name":"古川千手寺町","zip_code":"9896174"},{"name":"古川台町","zip_code":"9896163"},{"name":"古川楡木","zip_code":"9896126"},{"name":"古川塚目","zip_code":"9896225"},{"name":"古川堤根","zip_code":"9896207"},{"name":"古川鶴ケ埣","zip_code":"9896111"},{"name":"古川十日町","zip_code":"9896165"},{"name":"古川富長","zip_code":"9896266"},{"name":"古川長岡","zip_code":"9896231"},{"name":"古川長岡針","zip_code":"9896261"},{"name":"古川中里","zip_code":"9896143"},{"name":"古川中沢","zip_code":"9896206"},{"name":"古川中島町","zip_code":"9896142"},{"name":"古川七日町","zip_code":"9896153"},{"name":"古川新田","zip_code":"9896226"},{"name":"古川新沼","zip_code":"9896205"},{"name":"古川新堀","zip_code":"9896214"},{"name":"古川西荒井","zip_code":"9896133"},{"name":"古川西館","zip_code":"9896156"},{"name":"古川二ノ構","zip_code":"9896152"},{"name":"古川東町","zip_code":"9896166"},{"name":"古川引田","zip_code":"9896208"},{"name":"古川深沼","zip_code":"9896121"},{"name":"古川福浦","zip_code":"9896101"},{"name":"古川福沼","zip_code":"9896105"},{"name":"古川渕尻","zip_code":"9896265"},{"name":"古川穂波","zip_code":"9896136"},{"name":"古川保柳","zip_code":"9896213"},{"name":"古川前田町","zip_code":"9896172"},{"name":"古川馬櫛","zip_code":"9896262"},{"name":"古川馬放","zip_code":"9896253"},{"name":"古川馬寄","zip_code":"9896112"},{"name":"古川三日町","zip_code":"9896154"},{"name":"古川南沢","zip_code":"9896217"},{"name":"古川南新町","zip_code":"9896141"},{"name":"古川南町","zip_code":"9896155"},{"name":"古川蓑口沼","zip_code":"9896113"},{"name":"古川耳取","zip_code":"9896215"},{"name":"古川宮内","zip_code":"9896127"},{"name":"古川宮沢","zip_code":"9896235"},{"name":"古川師山","zip_code":"9896125"},{"name":"古川休塚","zip_code":"9896255"},{"name":"古川矢目","zip_code":"9896204"},{"name":"古川米倉","zip_code":"9896134"},{"name":"古川米袋","zip_code":"9896132"},{"name":"古川若葉町","zip_code":"9896222"},{"name":"松山金谷","zip_code":"9871303"},{"name":"松山下伊場野","zip_code":"9871306"},{"name":"松山須摩屋","zip_code":"9871301"},{"name":"松山千石","zip_code":"9871304"},{"name":"松山次橋","zip_code":"9871305"},{"name":"松山長尾","zip_code":"9871302"}]},{"name":"刈田郡蔵王町","divisions":[{"name":"円田","zip_code":"9890921"},{"name":"小村崎","zip_code":"9890841"},{"name":"塩沢","zip_code":"9890842"},{"name":"遠刈田温泉","zip_code":"9890916"},{"name":"遠刈田温泉旭町","zip_code":"9890914"},{"name":"遠刈田温泉寿町","zip_code":"9890915"},{"name":"遠刈田温泉栄町","zip_code":"9890911"},{"name":"遠刈田温泉仲町","zip_code":"9890912"},{"name":"遠刈田温泉本町","zip_code":"9890913"},{"name":"平沢","zip_code":"9890831"},{"name":"曲竹","zip_code":"9890851"},{"name":"宮","zip_code":"9890701"},{"name":"矢附","zip_code":"9890843"}]},{"name":"刈田郡七ヶ宿町","divisions":[{"name":"赤地","zip_code":"9890662"},{"name":"愛宕下","zip_code":"9890556"},{"name":"油畑","zip_code":"9890506"},{"name":"板木","zip_code":"9890635"},{"name":"一枚田","zip_code":"9890522"},{"name":"稲子","zip_code":"9890643"},{"name":"稲子山","zip_code":"9890644"},{"name":"上野","zip_code":"9890537"},{"name":"大石川原","zip_code":"9890631"},{"name":"大萱","zip_code":"9890507"},{"name":"大杉","zip_code":"9890529"},{"name":"大貫平","zip_code":"9890516"},{"name":"大迎","zip_code":"9890553"},{"name":"柏木山","zip_code":"9890501"},{"name":"蒲木","zip_code":"9890543"},{"name":"上烏川","zip_code":"9890524"},{"name":"上川原","zip_code":"9890613"},{"name":"上島田原","zip_code":"9890516"},{"name":"上ノ平","zip_code":"9890504"},{"name":"上ノ平山","zip_code":"9890505"},{"name":"上ノ台","zip_code":"9890623"},{"name":"上八合","zip_code":"9890517"},{"name":"神林山","zip_code":"9890519"},{"name":"上町尻","zip_code":"9890513"},{"name":"烏川岳","zip_code":"9890527"},{"name":"行人原道上","zip_code":"9890664"},{"name":"切通","zip_code":"9890536"},{"name":"栗原","zip_code":"9890561"},{"name":"小駕籠沢","zip_code":"9890634"},{"name":"境ノ沢","zip_code":"9890628"},{"name":"坂ノ上","zip_code":"9890661"},{"name":"坂ノ下","zip_code":"9890627"},{"name":"沢上山","zip_code":"9890528"},{"name":"仕切目","zip_code":"9890541"},{"name":"島木野","zip_code":"9890542"},{"name":"下島田原","zip_code":"9890516"},{"name":"下八合","zip_code":"9890518"},{"name":"下町尻","zip_code":"9890514"},{"name":"陳ノ窪","zip_code":"9890554"},{"name":"新雷神","zip_code":"9890521"},{"name":"薄沢口","zip_code":"9890616"},{"name":"諏訪原","zip_code":"9890519"},{"name":"関","zip_code":"9890512"},{"name":"瀬見原","zip_code":"9890529"},{"name":"滝下","zip_code":"9890617"},{"name":"滝ノ上","zip_code":"9890555"},{"name":"館下","zip_code":"9890523"},{"name":"田中道上","zip_code":"9890633"},{"name":"田中道下","zip_code":"9890632"},{"name":"壇前","zip_code":"9890655"},{"name":"長老","zip_code":"9890508"},{"name":"寺跡","zip_code":"9890602"},{"name":"寺前","zip_code":"9890654"},{"name":"峠田","zip_code":"9890621"},{"name":"峠田愛宕下","zip_code":"9890625"},{"name":"峠田町頭","zip_code":"9890622"},{"name":"中川原","zip_code":"9890614"},{"name":"中之沢","zip_code":"9890547"},{"name":"中ノ沢原道下","zip_code":"9890544"},{"name":"夏梨平","zip_code":"9890535"},{"name":"滑津","zip_code":"9890549"},{"name":"苗代端","zip_code":"9890552"},{"name":"西島田原","zip_code":"9890516"},{"name":"西町裏","zip_code":"9890502"},{"name":"西森下","zip_code":"9890557"},{"name":"沼田","zip_code":"9890615"},{"name":"根添","zip_code":"9890532"},{"name":"野沢倉山","zip_code":"9890535"},{"name":"萩崎","zip_code":"9890537"},{"name":"原道上","zip_code":"9890545"},{"name":"原道下","zip_code":"9890546"},{"name":"原谷地際","zip_code":"9890544"},{"name":"干蒲","zip_code":"9890666"},{"name":"東口道上","zip_code":"9890651"},{"name":"東口道下","zip_code":"9890652"},{"name":"東沢","zip_code":"9890663"},{"name":"東島田原","zip_code":"9890516"},{"name":"程ヶ沢","zip_code":"9890641"},{"name":"町裏","zip_code":"9890657"},{"name":"町下","zip_code":"9890507"},{"name":"町尻","zip_code":"9890515"},{"name":"廻館","zip_code":"9890524"},{"name":"松原","zip_code":"9890511"},{"name":"侭ノ上","zip_code":"9890612"},{"name":"侭ノ上地蔵前","zip_code":"9890665"},{"name":"水上口","zip_code":"9890555"},{"name":"水下道上","zip_code":"9890667"},{"name":"南浦畑","zip_code":"9890658"},{"name":"宮前","zip_code":"9890515"},{"name":"明神下","zip_code":"9890624"},{"name":"明神前","zip_code":"9890526"},{"name":"茂ヶ沢","zip_code":"9890601"},{"name":"茂庭道","zip_code":"9890626"},{"name":"矢立","zip_code":"9890531"},{"name":"矢立平","zip_code":"9890533"},{"name":"八ツ森","zip_code":"9890551"},{"name":"八ツ分","zip_code":"9890548"},{"name":"柳沢山国有林","zip_code":"9890656"},{"name":"山伏坂","zip_code":"9890611"},{"name":"湯原","zip_code":"9890653"},{"name":"横川","zip_code":"9890503"},{"name":"横川原","zip_code":"9890502"},{"name":"利津保","zip_code":"9890525"},{"name":"六本杉","zip_code":"9890636"},{"name":"若林山","zip_code":"9890534"},{"name":"割付","zip_code":"9890642"}]},{"name":"柴田郡大河原町","divisions":[{"name":"旭町","zip_code":"9891203"},{"name":"荒町","zip_code":"9891237"},{"name":"大芝","zip_code":"9891205"},{"name":"大竜","zip_code":"9891204"},{"name":"大巻","zip_code":"9891261"},{"name":"大谷","zip_code":"9891201"},{"name":"大谷地","zip_code":"9891263"},{"name":"小島","zip_code":"9891267"},{"name":"小山田","zip_code":"9891258"},{"name":"海道東","zip_code":"9891249"},{"name":"金ケ瀬","zip_code":"9891224"},{"name":"上川原","zip_code":"9891233"},{"name":"川瀬町","zip_code":"9891207"},{"name":"甲子町","zip_code":"9891214"},{"name":"幸町","zip_code":"9891216"},{"name":"新青川","zip_code":"9891264"},{"name":"新桜町","zip_code":"9891274"},{"name":"新古川","zip_code":"9891234"},{"name":"新東","zip_code":"9891246"},{"name":"新南","zip_code":"9891245"},{"name":"住吉町","zip_code":"9891213"},{"name":"千塚前","zip_code":"9891266"},{"name":"袖谷地","zip_code":"9891255"},{"name":"高砂町","zip_code":"9891202"},{"name":"堤","zip_code":"9891256"},{"name":"土手崎","zip_code":"9891248"},{"name":"中川原","zip_code":"9891231"},{"name":"中島町","zip_code":"9891215"},{"name":"中の倉","zip_code":"9891206"},{"name":"南平","zip_code":"9891222"},{"name":"西","zip_code":"9891253"},{"name":"西浦","zip_code":"9891242"},{"name":"錦町","zip_code":"9891217"},{"name":"西桜町","zip_code":"9891273"},{"name":"西町","zip_code":"9891244"},{"name":"新寺","zip_code":"9891257"},{"name":"沼","zip_code":"9891254"},{"name":"橋本","zip_code":"9891251"},{"name":"東","zip_code":"9891247"},{"name":"東桜町","zip_code":"9891271"},{"name":"東新町","zip_code":"9891223"},{"name":"東原町","zip_code":"9891236"},{"name":"広瀬町","zip_code":"9891211"},{"name":"福田","zip_code":"9891259"},{"name":"町","zip_code":"9891241"},{"name":"緑町","zip_code":"9891221"},{"name":"南","zip_code":"9891243"},{"name":"南海道下","zip_code":"9891232"},{"name":"南桜町","zip_code":"9891272"},{"name":"南原町","zip_code":"9891235"},{"name":"八乙女","zip_code":"9891252"},{"name":"山崎町","zip_code":"9891212"}]},{"name":"柴田郡村田町","divisions":[{"name":"足立","zip_code":"9891511"},{"name":"薄木","zip_code":"9891303"},{"name":"小泉","zip_code":"9891302"},{"name":"菅生","zip_code":"9891301"},{"name":"関場","zip_code":"9891322"},{"name":"西ケ丘","zip_code":"9891304"},{"name":"沼田","zip_code":"9891323"},{"name":"沼辺","zip_code":"9891321"},{"name":"村田","zip_code":"9891305"}]},{"name":"柴田郡柴田町","divisions":[{"name":"入間田","zip_code":"9891745"},{"name":"海老穴","zip_code":"9891762"},{"name":"上川名","zip_code":"9891742"},{"name":"上名生","zip_code":"9891611"},{"name":"北船岡","zip_code":"9891623"},{"name":"剣崎","zip_code":"9891608"},{"name":"小成田","zip_code":"9891764"},{"name":"下名生","zip_code":"9891613"},{"name":"槻木","zip_code":"9891756"},{"name":"槻木駅西","zip_code":"9891758"},{"name":"槻木上町","zip_code":"9891753"},{"name":"槻木下町","zip_code":"9891752"},{"name":"槻木白幡","zip_code":"9891754"},{"name":"槻木新町","zip_code":"9891751"},{"name":"槻木西","zip_code":"9891755"},{"name":"槻木東","zip_code":"9891757"},{"name":"富沢","zip_code":"9891741"},{"name":"中名生","zip_code":"9891612"},{"name":"成田","zip_code":"9891765"},{"name":"西船迫","zip_code":"9891622"},{"name":"葉坂","zip_code":"9891761"},{"name":"東船迫","zip_code":"9891731"},{"name":"船岡","zip_code":"9891606"},{"name":"船岡新栄","zip_code":"9891607"},{"name":"船岡中央","zip_code":"9891601"},{"name":"船岡土手内","zip_code":"9891602"},{"name":"船岡東","zip_code":"9891604"},{"name":"船岡西","zip_code":"9891603"},{"name":"船岡南","zip_code":"9891605"},{"name":"船迫","zip_code":"9891763"},{"name":"本船迫","zip_code":"9891621"},{"name":"松ケ越","zip_code":"9891744"},{"name":"ゆずが丘","zip_code":"9891746"},{"name":"四日市場","zip_code":"9891743"}]},{"name":"柴田郡川崎町","divisions":[{"name":"青根温泉","zip_code":"9890908"},{"name":"今宿","zip_code":"9891502"},{"name":"小野","zip_code":"9891505"},{"name":"川内","zip_code":"9891503"},{"name":"支倉","zip_code":"9891507"},{"name":"支倉台","zip_code":"9891506"},{"name":"前川","zip_code":"9890901"},{"name":"本砂金","zip_code":"9891504"}]},{"name":"伊具郡丸森町","divisions":[{"name":"赤堀","zip_code":"9812114"},{"name":"秋柴","zip_code":"9812133"},{"name":"天炉","zip_code":"9812173"},{"name":"荒田","zip_code":"9812122"},{"name":"荒屋敷","zip_code":"9812187"},{"name":"飯泉","zip_code":"9812142"},{"name":"飯塚","zip_code":"9812142"},{"name":"飯塚下","zip_code":"9812142"},{"name":"石釜","zip_code":"9812183"},{"name":"石倉","zip_code":"9812116"},{"name":"石倉前","zip_code":"9812116"},{"name":"石羽","zip_code":"9812116"},{"name":"石渕","zip_code":"9812112"},{"name":"泉","zip_code":"9812114"},{"name":"泉下","zip_code":"9812114"},{"name":"板山","zip_code":"9812141"},{"name":"覆盆子原","zip_code":"9812182"},{"name":"銀杏","zip_code":"9812131"},{"name":"稲場","zip_code":"9812115"},{"name":"稲場東","zip_code":"9812115"},{"name":"牛子","zip_code":"9812132"},{"name":"後屋敷","zip_code":"9812131"},{"name":"薄平","zip_code":"9812132"},{"name":"梅木坂","zip_code":"9812126"},{"name":"梅木平","zip_code":"9812141"},{"name":"うるし原","zip_code":"9812156"},{"name":"大内","zip_code":"9812501"},{"name":"大川口","zip_code":"9812154"},{"name":"大川口前","zip_code":"9812154"},{"name":"大鹿野","zip_code":"9812182"},{"name":"大高森","zip_code":"9812183"},{"name":"大舘","zip_code":"9812104"},{"name":"大張大蔵","zip_code":"9812301"},{"name":"大張川張","zip_code":"9812302"},{"name":"大畑","zip_code":"9812144"},{"name":"大畑前","zip_code":"9812144"},{"name":"大巻南","zip_code":"9812187"},{"name":"大巻北","zip_code":"9812187"},{"name":"大目","zip_code":"9812114"},{"name":"岡巻","zip_code":"9812174"},{"name":"欠入上","zip_code":"9812146"},{"name":"欠入下","zip_code":"9812146"},{"name":"欠入菅","zip_code":"9812146"},{"name":"欠入前山","zip_code":"9812146"},{"name":"笠松","zip_code":"9812184"},{"name":"柏木","zip_code":"9812184"},{"name":"片岸","zip_code":"9812155"},{"name":"金ケ作","zip_code":"9812126"},{"name":"金ケ作前","zip_code":"9812126"},{"name":"金山","zip_code":"9812402"},{"name":"上滝東","zip_code":"9812116"},{"name":"上滝西","zip_code":"9812116"},{"name":"萱森","zip_code":"9812183"},{"name":"雁歌","zip_code":"9812153"},{"name":"川田島","zip_code":"9812145"},{"name":"川田島菅","zip_code":"9812145"},{"name":"川端","zip_code":"9812145"},{"name":"川原田","zip_code":"9812187"},{"name":"川前","zip_code":"9812187"},{"name":"木落","zip_code":"9812174"},{"name":"北沢","zip_code":"9812141"},{"name":"北原東","zip_code":"9812187"},{"name":"北原南","zip_code":"9812187"},{"name":"北前","zip_code":"9812114"},{"name":"木沼","zip_code":"9812106"},{"name":"切立","zip_code":"9812124"},{"name":"椚塚","zip_code":"9812124"},{"name":"椚林","zip_code":"9812185"},{"name":"原場","zip_code":"9812123"},{"name":"耕野","zip_code":"9812303"},{"name":"越田","zip_code":"9812113"},{"name":"虚空蔵上","zip_code":"9812143"},{"name":"虚空蔵中","zip_code":"9812143"},{"name":"虚空蔵下","zip_code":"9812143"},{"name":"小倉","zip_code":"9812174"},{"name":"小斎","zip_code":"9812401"},{"name":"小塚","zip_code":"9812156"},{"name":"五福谷","zip_code":"9812131"},{"name":"小坊木南","zip_code":"9812186"},{"name":"小坊木北","zip_code":"9812186"},{"name":"小保田","zip_code":"9812141"},{"name":"五本松","zip_code":"9812145"},{"name":"子安","zip_code":"9812181"},{"name":"坂下","zip_code":"9812184"},{"name":"作田","zip_code":"9812112"},{"name":"桜渕","zip_code":"9812116"},{"name":"三瓶内","zip_code":"9812115"},{"name":"塩ノ貝","zip_code":"9812183"},{"name":"塩ノ貝後","zip_code":"9812183"},{"name":"敷文東","zip_code":"9812172"},{"name":"敷文西","zip_code":"9812172"},{"name":"四反田","zip_code":"9812131"},{"name":"下滝","zip_code":"9812171"},{"name":"下滝南","zip_code":"9812171"},{"name":"上地","zip_code":"9812131"},{"name":"城東","zip_code":"9812112"},{"name":"上林東","zip_code":"9812117"},{"name":"上林西","zip_code":"9812117"},{"name":"上林南","zip_code":"9812117"},{"name":"新田向","zip_code":"9812116"},{"name":"新田東","zip_code":"9812116"},{"name":"新田西","zip_code":"9812116"},{"name":"新町","zip_code":"9812112"},{"name":"神明","zip_code":"9812111"},{"name":"神明東","zip_code":"9812111"},{"name":"神明南","zip_code":"9812111"},{"name":"砂ノ入","zip_code":"9812174"},{"name":"関場","zip_code":"9812146"},{"name":"千刈場","zip_code":"9812151"},{"name":"袖五郎","zip_code":"9812187"},{"name":"空焼","zip_code":"9812183"},{"name":"平","zip_code":"9812112"},{"name":"高畑","zip_code":"9812166"},{"name":"高松","zip_code":"9812116"},{"name":"高見南","zip_code":"9812181"},{"name":"高見北","zip_code":"9812181"},{"name":"滝の上","zip_code":"9812185"},{"name":"滝原","zip_code":"9812116"},{"name":"竹谷","zip_code":"9812142"},{"name":"立沢南","zip_code":"9812186"},{"name":"立沢北","zip_code":"9812186"},{"name":"舘矢間木沼","zip_code":"9812101"},{"name":"舘矢間舘山","zip_code":"9812102"},{"name":"舘矢間松掛","zip_code":"9812105"},{"name":"舘矢間山田","zip_code":"9812103"},{"name":"田ノ入","zip_code":"9812184"},{"name":"田町南","zip_code":"9812167"},{"name":"田町北","zip_code":"9812168"},{"name":"玉貫","zip_code":"9812156"},{"name":"垂松","zip_code":"9812142"},{"name":"塚田","zip_code":"9812131"},{"name":"土ケ森","zip_code":"9812144"},{"name":"角切","zip_code":"9812183"},{"name":"手掛橋中","zip_code":"9812146"},{"name":"手掛橋東","zip_code":"9812146"},{"name":"手掛橋西","zip_code":"9812146"},{"name":"寺内","zip_code":"9812112"},{"name":"寺内前","zip_code":"9812112"},{"name":"天王","zip_code":"9812114"},{"name":"峠上","zip_code":"9812134"},{"name":"峠革踏石","zip_code":"9812134"},{"name":"峠小屋下","zip_code":"9812134"},{"name":"峠境","zip_code":"9812134"},{"name":"峠坂下","zip_code":"9812134"},{"name":"峠下","zip_code":"9812134"},{"name":"峠滝沢","zip_code":"9812134"},{"name":"峠野上","zip_code":"9812134"},{"name":"峠橋元","zip_code":"9812134"},{"name":"峠前","zip_code":"9812134"},{"name":"峠廻戸","zip_code":"9812134"},{"name":"峠向","zip_code":"9812134"},{"name":"峠横向","zip_code":"9812134"},{"name":"鳥木","zip_code":"9812183"},{"name":"鳥屋","zip_code":"9812152"},{"name":"中島","zip_code":"9812117"},{"name":"中ノ内","zip_code":"9812127"},{"name":"中道","zip_code":"9812146"},{"name":"沼","zip_code":"9812115"},{"name":"除","zip_code":"9812163"},{"name":"除南","zip_code":"9812161"},{"name":"除北","zip_code":"9812162"},{"name":"畑中","zip_code":"9812117"},{"name":"羽出庭","zip_code":"9812185"},{"name":"花田","zip_code":"9812152"},{"name":"羽入","zip_code":"9812113"},{"name":"羽入前","zip_code":"9812113"},{"name":"早坂","zip_code":"9812186"},{"name":"羽山","zip_code":"9812112"},{"name":"坂上","zip_code":"9812131"},{"name":"火打石","zip_code":"9812185"},{"name":"菱川内","zip_code":"9812156"},{"name":"筆甫","zip_code":"9812201"},{"name":"日照田","zip_code":"9812187"},{"name":"日向","zip_code":"9812142"},{"name":"日向上","zip_code":"9812142"},{"name":"蛭田","zip_code":"9812112"},{"name":"広町","zip_code":"9812146"},{"name":"深田","zip_code":"9812184"},{"name":"深田上","zip_code":"9812125"},{"name":"深田下","zip_code":"9812125"},{"name":"福沢","zip_code":"9812122"},{"name":"福沢前","zip_code":"9812122"},{"name":"武士沢","zip_code":"9812144"},{"name":"渕ノ上","zip_code":"9812112"},{"name":"不動","zip_code":"9812116"},{"name":"船越","zip_code":"9812173"},{"name":"船場","zip_code":"9812171"},{"name":"前河原","zip_code":"9812115"},{"name":"曲木","zip_code":"9812181"},{"name":"町東","zip_code":"9812164"},{"name":"町西","zip_code":"9812165"},{"name":"馬渕","zip_code":"9812132"},{"name":"廻倉","zip_code":"9812181"},{"name":"水沢","zip_code":"9812187"},{"name":"宮脇","zip_code":"9812113"},{"name":"向原","zip_code":"9812132"},{"name":"森","zip_code":"9812184"},{"name":"矢洗","zip_code":"9812112"},{"name":"屋敷","zip_code":"9812183"},{"name":"屋敷前","zip_code":"9812183"},{"name":"柳田","zip_code":"9812123"},{"name":"山古谷","zip_code":"9812115"},{"name":"山崎","zip_code":"9812155"},{"name":"山崎前","zip_code":"9812155"},{"name":"山田上","zip_code":"9812173"},{"name":"山田下","zip_code":"9812173"},{"name":"百合沢","zip_code":"9812172"},{"name":"四重麦一","zip_code":"9812133"},{"name":"四重麦二","zip_code":"9812133"},{"name":"四重麦三","zip_code":"9812133"},{"name":"四重麦四","zip_code":"9812133"},{"name":"四重麦五","zip_code":"9812133"},{"name":"四重麦六","zip_code":"9812133"},{"name":"四重麦七","zip_code":"9812133"},{"name":"吉田","zip_code":"9812121"},{"name":"由縄坂","zip_code":"9812144"},{"name":"和田東","zip_code":"9812117"},{"name":"和田西","zip_code":"9812117"},{"name":"蕨平","zip_code":"9812132"}]},{"name":"亘理郡亘理町","divisions":[{"name":"旭","zip_code":"9892351"},{"name":"旭山","zip_code":"9892351"},{"name":"愛宕前","zip_code":"9892361"},{"name":"油田","zip_code":"9892351"},{"name":"荒浜","zip_code":"9892311"},{"name":"泉ケ入","zip_code":"9892361"},{"name":"五日町","zip_code":"9892351"},{"name":"祝田","zip_code":"9892351"},{"name":"裏城戸","zip_code":"9892351"},{"name":"江下","zip_code":"9892351"},{"name":"逢隈","zip_code":"9892385"},{"name":"逢隈牛袋","zip_code":"9892302"},{"name":"逢隈榎袋","zip_code":"9892321"},{"name":"逢隈鹿島","zip_code":"9892371"},{"name":"逢隈上郡","zip_code":"9892381"},{"name":"逢隈高屋","zip_code":"9892324"},{"name":"逢隈小山","zip_code":"9892384"},{"name":"逢隈鷺屋","zip_code":"9892323"},{"name":"逢隈下郡","zip_code":"9892382"},{"name":"逢隈十文字","zip_code":"9892303"},{"name":"逢隈神宮寺","zip_code":"9892372"},{"name":"逢隈田沢","zip_code":"9892383"},{"name":"逢隈中泉","zip_code":"9892301"},{"name":"逢隈蕨","zip_code":"9892322"},{"name":"上中野地","zip_code":"9892351"},{"name":"上浜街道","zip_code":"9892351"},{"name":"上茨田","zip_code":"9892351"},{"name":"亀井戸","zip_code":"9892351"},{"name":"上町","zip_code":"9892351"},{"name":"北猿田","zip_code":"9892361"},{"name":"北新田","zip_code":"9892351"},{"name":"北新町","zip_code":"9892351"},{"name":"狐塚","zip_code":"9892351"},{"name":"旧舘","zip_code":"9892351"},{"name":"倉庭","zip_code":"9892361"},{"name":"境堤","zip_code":"9892351"},{"name":"桜小路","zip_code":"9892351"},{"name":"芝西","zip_code":"9892351"},{"name":"下小路","zip_code":"9892351"},{"name":"下浜街道","zip_code":"9892351"},{"name":"下茨田","zip_code":"9892351"},{"name":"新町","zip_code":"9892351"},{"name":"先達前","zip_code":"9892361"},{"name":"台田","zip_code":"9892351"},{"name":"舘南","zip_code":"9892361"},{"name":"道田中","zip_code":"9892351"},{"name":"道田東","zip_code":"9892351"},{"name":"道田西","zip_code":"9892351"},{"name":"鳥居前","zip_code":"9892361"},{"name":"中町","zip_code":"9892351"},{"name":"中町東","zip_code":"9892351"},{"name":"長瀞","zip_code":"9892341"},{"name":"新井町","zip_code":"9892351"},{"name":"西郷","zip_code":"9892351"},{"name":"沼頭","zip_code":"9892361"},{"name":"茨田後","zip_code":"9892351"},{"name":"卑下入","zip_code":"9892361"},{"name":"東郷","zip_code":"9892351"},{"name":"堀の内","zip_code":"9892361"},{"name":"見田内","zip_code":"9892351"},{"name":"南町","zip_code":"9892351"},{"name":"南町東","zip_code":"9892351"},{"name":"悠里","zip_code":"9892352"},{"name":"雪穴","zip_code":"9892361"},{"name":"吉田","zip_code":"9892331"},{"name":"龍円寺前","zip_code":"9892361"}]},{"name":"亘理郡山元町","divisions":[{"name":"浅生原","zip_code":"9892203"},{"name":"大平","zip_code":"9892206"},{"name":"小平","zip_code":"9892205"},{"name":"坂元","zip_code":"9892111"},{"name":"高瀬","zip_code":"9892202"},{"name":"八手庭","zip_code":"9892207"},{"name":"真庭","zip_code":"9892112"},{"name":"山寺","zip_code":"9892201"},{"name":"鷲足","zip_code":"9892204"}]},{"name":"宮城郡松島町","divisions":[{"name":"磯崎","zip_code":"9810212"},{"name":"北小泉","zip_code":"9810202"},{"name":"桜渡戸","zip_code":"9810214"},{"name":"高城","zip_code":"9810215"},{"name":"竹谷","zip_code":"9810201"},{"name":"手樽","zip_code":"9810211"},{"name":"根廻","zip_code":"9810203"},{"name":"幡谷","zip_code":"9810205"},{"name":"初原","zip_code":"9810204"},{"name":"松島","zip_code":"9810213"}]},{"name":"宮城郡七ヶ浜町","divisions":[{"name":"境山","zip_code":"9850824"},{"name":"汐見台","zip_code":"9850821"},{"name":"汐見台南","zip_code":"9850822"},{"name":"菖蒲田浜","zip_code":"9850811"},{"name":"東宮浜","zip_code":"9850804"},{"name":"遠山","zip_code":"9850823"},{"name":"花渕浜","zip_code":"9850803"},{"name":"松ヶ浜","zip_code":"9850812"},{"name":"湊浜","zip_code":"9850813"},{"name":"代ヶ崎浜","zip_code":"9850801"},{"name":"吉田浜","zip_code":"9850802"}]},{"name":"宮城郡利府町","divisions":[{"name":"青葉台","zip_code":"9810133"},{"name":"青山","zip_code":"9810131"},{"name":"赤沼","zip_code":"9810101"},{"name":"飯土井","zip_code":"9810113"},{"name":"春日","zip_code":"9810102"},{"name":"加瀬","zip_code":"9810111"},{"name":"神谷沢","zip_code":"9810121"},{"name":"沢乙","zip_code":"9810123"},{"name":"沢乙東","zip_code":"9810124"},{"name":"しらかし台","zip_code":"9810134"},{"name":"菅谷","zip_code":"9810122"},{"name":"菅谷台","zip_code":"9810135"},{"name":"中央","zip_code":"9810104"},{"name":"花園","zip_code":"9810132"},{"name":"葉山","zip_code":"9810105"},{"name":"皆の丘","zip_code":"9810136"},{"name":"森郷","zip_code":"9810103"},{"name":"利府","zip_code":"9810112"}]},{"name":"黒川郡大和町","divisions":[{"name":"落合相川","zip_code":"9813404"},{"name":"落合三ケ内","zip_code":"9813401"},{"name":"落合蒜袋","zip_code":"9813406"},{"name":"落合檜和田","zip_code":"9813403"},{"name":"落合報恩寺","zip_code":"9813402"},{"name":"落合舞野","zip_code":"9813405"},{"name":"落合松坂","zip_code":"9813407"},{"name":"小野","zip_code":"9813623"},{"name":"学苑","zip_code":"9813271"},{"name":"鶴巣太田","zip_code":"9813414"},{"name":"鶴巣大平","zip_code":"9813411"},{"name":"鶴巣小鶴沢","zip_code":"9813415"},{"name":"鶴巣北目大崎","zip_code":"9813417"},{"name":"鶴巣下草","zip_code":"9813418"},{"name":"鶴巣鳥屋","zip_code":"9813412"},{"name":"鶴巣幕柳","zip_code":"9813413"},{"name":"鶴巣山田","zip_code":"9813416"},{"name":"テクノヒルズ","zip_code":"9813629"},{"name":"まいの","zip_code":"9813419"},{"name":"松坂平","zip_code":"9813408"},{"name":"宮床","zip_code":"9813624"},{"name":"もみじケ丘","zip_code":"9813622"},{"name":"杜の丘","zip_code":"9813628"},{"name":"吉岡","zip_code":"9813621"},{"name":"吉岡東","zip_code":"9813627"},{"name":"吉岡南","zip_code":"9813626"},{"name":"吉田","zip_code":"9813625"},{"name":"流通平","zip_code":"9813409"}]},{"name":"黒川郡大郷町","divisions":[{"name":"石原","zip_code":"9813503"},{"name":"鶉崎","zip_code":"9813524"},{"name":"大松沢","zip_code":"9813501"},{"name":"粕川","zip_code":"9813502"},{"name":"川内","zip_code":"9813514"},{"name":"不来内","zip_code":"9813512"},{"name":"土橋","zip_code":"9813523"},{"name":"中村","zip_code":"9813521"},{"name":"羽生","zip_code":"9813515"},{"name":"東成田","zip_code":"9813522"},{"name":"味明","zip_code":"9813513"},{"name":"山崎","zip_code":"9813511"}]},{"name":"黒川郡富谷町","divisions":[{"name":"明石","zip_code":"9813326"},{"name":"明石台","zip_code":"9813332"},{"name":"あけの平","zip_code":"9813361"},{"name":"石積","zip_code":"9813325"},{"name":"一ノ関","zip_code":"9813305"},{"name":"今泉","zip_code":"9813322"},{"name":"大亀","zip_code":"9813323"},{"name":"大清水","zip_code":"9813329"},{"name":"大童","zip_code":"9813321"},{"name":"上桜木","zip_code":"9813328"},{"name":"穀田","zip_code":"9813327"},{"name":"三ノ関","zip_code":"9813302"},{"name":"志戸田","zip_code":"9813301"},{"name":"太子堂","zip_code":"9813303"},{"name":"鷹乃杜","zip_code":"9813351"},{"name":"とちの木","zip_code":"9813312"},{"name":"富ケ丘","zip_code":"9813352"},{"name":"富谷","zip_code":"9813311"},{"name":"成田","zip_code":"9813341"},{"name":"西成田","zip_code":"9813324"},{"name":"二ノ関","zip_code":"9813306"},{"name":"東向陽台","zip_code":"9813331"},{"name":"日吉台","zip_code":"9813362"},{"name":"ひより台","zip_code":"9813304"},{"name":"杜乃橋","zip_code":"9813363"}]},{"name":"黒川郡大衡村","divisions":[{"name":"大瓜","zip_code":"9813601"},{"name":"大衡","zip_code":"9813602"},{"name":"大森","zip_code":"9813605"},{"name":"沖の平","zip_code":"9813603"},{"name":"奥田","zip_code":"9813607"},{"name":"桔梗平","zip_code":"9813606"},{"name":"駒場","zip_code":"9813604"},{"name":"中央平","zip_code":"9813609"},{"name":"ときわ台","zip_code":"9813611"},{"name":"松の平","zip_code":"9813608"}]},{"name":"加美郡色麻町","divisions":[{"name":"一の関","zip_code":"9814121"},{"name":"王城寺","zip_code":"9814141"},{"name":"清水","zip_code":"9814101"},{"name":"黒沢","zip_code":"9814111"},{"name":"小栗山","zip_code":"9814151"},{"name":"四竃","zip_code":"9814122"},{"name":"志津","zip_code":"9814112"},{"name":"大","zip_code":"9814131"},{"name":"高城","zip_code":"9814102"},{"name":"高根","zip_code":"9814103"},{"name":"平沢","zip_code":"9814104"},{"name":"吉田","zip_code":"9814105"}]},{"name":"加美郡加美町","divisions":[{"name":"赤塚","zip_code":"9814264"},{"name":"味ケ袋","zip_code":"9814375"},{"name":"穴畑","zip_code":"9814275"},{"name":"石原","zip_code":"9814323"},{"name":"板橋","zip_code":"9814311"},{"name":"一里塚","zip_code":"9814328"},{"name":"一本杉","zip_code":"9814262"},{"name":"一本柳","zip_code":"9814274"},{"name":"一本柳南","zip_code":"9814277"},{"name":"芋沢","zip_code":"9814356"},{"name":"上野原","zip_code":"9814327"},{"name":"内谷地","zip_code":"9814343"},{"name":"漆沢","zip_code":"9814368"},{"name":"岡町","zip_code":"9814255"},{"name":"押登目","zip_code":"9814226"},{"name":"鹿島越","zip_code":"9814228"},{"name":"門沢","zip_code":"9814367"},{"name":"鹿原","zip_code":"9814355"},{"name":"上狼塚","zip_code":"9814211"},{"name":"上川原","zip_code":"9814273"},{"name":"上多田川","zip_code":"9814201"},{"name":"上野目","zip_code":"9814374"},{"name":"雁原","zip_code":"9814263"},{"name":"北川内","zip_code":"9814402"},{"name":"北下原","zip_code":"9814322"},{"name":"北田","zip_code":"9814307"},{"name":"北寺宿","zip_code":"9814331"},{"name":"北ノ口","zip_code":"9814326"},{"name":"北原","zip_code":"9814324"},{"name":"北町","zip_code":"9814254"},{"name":"木伏","zip_code":"9814224"},{"name":"木舟","zip_code":"9814419"},{"name":"君ケ袋","zip_code":"9814417"},{"name":"旧舘１番","zip_code":"9814234"},{"name":"旧舘２番","zip_code":"9814235"},{"name":"久保","zip_code":"9814304"},{"name":"小泉","zip_code":"9814418"},{"name":"小瀬","zip_code":"9814362"},{"name":"五百刈","zip_code":"9814325"},{"name":"米泉","zip_code":"9814415"},{"name":"下狼塚","zip_code":"9814212"},{"name":"下川原","zip_code":"9814256"},{"name":"下北浦","zip_code":"9814345"},{"name":"下タ川原","zip_code":"9814336"},{"name":"下多田川","zip_code":"9814202"},{"name":"下新田","zip_code":"9814222"},{"name":"下野目","zip_code":"9814302"},{"name":"下原","zip_code":"9814321"},{"name":"城生","zip_code":"9814272"},{"name":"新川原","zip_code":"9814227"},{"name":"新木伏","zip_code":"9814225"},{"name":"新小路","zip_code":"9814335"},{"name":"神山西","zip_code":"9814317"},{"name":"雑式ノ目","zip_code":"9814223"},{"name":"大門","zip_code":"9814253"},{"name":"滝下","zip_code":"9814363"},{"name":"田中","zip_code":"9814314"},{"name":"長清水","zip_code":"9814372"},{"name":"月崎","zip_code":"9814312"},{"name":"鶴喰","zip_code":"9814329"},{"name":"鶴羽美","zip_code":"9814329"},{"name":"照井","zip_code":"9814353"},{"name":"天王","zip_code":"9814306"},{"name":"樋田","zip_code":"9814301"},{"name":"藤兵衛前","zip_code":"9814361"},{"name":"百目木１番","zip_code":"9814231"},{"name":"百目木２番","zip_code":"9814232"},{"name":"百目木３番","zip_code":"9814233"},{"name":"鳥嶋","zip_code":"9814412"},{"name":"鳥屋ケ崎","zip_code":"9814413"},{"name":"中嶋","zip_code":"9814315"},{"name":"長檀","zip_code":"9814337"},{"name":"中畑","zip_code":"9814333"},{"name":"中原","zip_code":"9814341"},{"name":"菜切谷","zip_code":"9814203"},{"name":"西田","zip_code":"9814252"},{"name":"西町","zip_code":"9814251"},{"name":"二ノ坪","zip_code":"9814313"},{"name":"沼ケ袋","zip_code":"9814416"},{"name":"伯治","zip_code":"9814365"},{"name":"八石下","zip_code":"9814352"},{"name":"羽場","zip_code":"9814271"},{"name":"原","zip_code":"9814371"},{"name":"原高谷地屋敷","zip_code":"9814347"},{"name":"原中原浦","zip_code":"9814342"},{"name":"原町","zip_code":"9814373"},{"name":"原道端屋敷","zip_code":"9814344"},{"name":"原南江端","zip_code":"9814346"},{"name":"平柳","zip_code":"9814213"},{"name":"麓山","zip_code":"9814354"},{"name":"前田下","zip_code":"9814303"},{"name":"孫沢","zip_code":"9814414"},{"name":"町裏","zip_code":"9814261"},{"name":"町西","zip_code":"9814242"},{"name":"町屋敷","zip_code":"9814334"},{"name":"松田","zip_code":"9814364"},{"name":"水芋","zip_code":"9814366"},{"name":"南小路","zip_code":"9814351"},{"name":"南寺宿","zip_code":"9814332"},{"name":"南町","zip_code":"9814241"},{"name":"宮崎","zip_code":"9814401"},{"name":"宮田","zip_code":"9814305"},{"name":"焼橋","zip_code":"9814276"},{"name":"薬師堂","zip_code":"9814229"},{"name":"矢越","zip_code":"9814265"},{"name":"谷地森","zip_code":"9814411"},{"name":"柳沢","zip_code":"9814403"},{"name":"四日市場","zip_code":"9814221"}]},{"name":"遠田郡涌谷町","divisions":[{"name":"赤間屋敷","zip_code":"9870133"},{"name":"市道","zip_code":"9870145"},{"name":"一本柳","zip_code":"9870136"},{"name":"猪岡短台","zip_code":"9870284"},{"name":"烏鴉","zip_code":"9870145"},{"name":"裏桜町","zip_code":"9870103"},{"name":"浦町","zip_code":"9870142"},{"name":"追廻町","zip_code":"9870165"},{"name":"太田","zip_code":"9870282"},{"name":"沖新田","zip_code":"9870144"},{"name":"尾切","zip_code":"9870145"},{"name":"小里","zip_code":"9870281"},{"name":"表桜町","zip_code":"9870102"},{"name":"上郡","zip_code":"9870171"},{"name":"掃部沖名","zip_code":"9870133"},{"name":"刈萱町","zip_code":"9870164"},{"name":"川原町","zip_code":"9870161"},{"name":"北五反田","zip_code":"9870134"},{"name":"北田","zip_code":"9870131"},{"name":"九軒","zip_code":"9870134"},{"name":"鞍掛","zip_code":"9870145"},{"name":"蔵人沖名","zip_code":"9870132"},{"name":"桑木荒","zip_code":"9870112"},{"name":"花勝山","zip_code":"9870145"},{"name":"下道","zip_code":"9870147"},{"name":"五反田","zip_code":"9870134"},{"name":"小塚","zip_code":"9870151"},{"name":"後藤江","zip_code":"9870133"},{"name":"小蓋谷地","zip_code":"9870135"},{"name":"小谷地","zip_code":"9870132"},{"name":"小山下","zip_code":"9870144"},{"name":"今左衛門沖名","zip_code":"9870133"},{"name":"桜町裏","zip_code":"9870101"},{"name":"佐山木","zip_code":"9870134"},{"name":"三軒屋敷","zip_code":"9870148"},{"name":"三十軒","zip_code":"9870135"},{"name":"渋江","zip_code":"9870113"},{"name":"地不足道","zip_code":"9870134"},{"name":"下郡","zip_code":"9870172"},{"name":"下新田","zip_code":"9870144"},{"name":"新沖新田","zip_code":"9870140"},{"name":"新尾切","zip_code":"9870145"},{"name":"新九軒前","zip_code":"9870130"},{"name":"新後藤江","zip_code":"9870149"},{"name":"新境堀下","zip_code":"9870138"},{"name":"新台所橋","zip_code":"9870139"},{"name":"新田","zip_code":"9870133"},{"name":"新中島乙","zip_code":"9870137"},{"name":"新名鰭","zip_code":"9870145"},{"name":"新町","zip_code":"9870115"},{"name":"新町裏","zip_code":"9870114"},{"name":"砂田","zip_code":"9870144"},{"name":"関谷沖名","zip_code":"9870133"},{"name":"台所橋道下","zip_code":"9870133"},{"name":"鷹野橋下中瀬","zip_code":"9870133"},{"name":"立町","zip_code":"9870163"},{"name":"田沼町","zip_code":"9870104"},{"name":"田町裏","zip_code":"9870141"},{"name":"中下道","zip_code":"9870146"},{"name":"中島","zip_code":"9870137"},{"name":"中島乙","zip_code":"9870137"},{"name":"中島川前","zip_code":"9870137"},{"name":"中島甲","zip_code":"9870137"},{"name":"長柄町","zip_code":"9870143"},{"name":"名鰭","zip_code":"9870145"},{"name":"成沢","zip_code":"9870286"},{"name":"西谷地","zip_code":"9870134"},{"name":"二歩","zip_code":"9870134"},{"name":"練丑町","zip_code":"9870105"},{"name":"箟岳","zip_code":"9870285"},{"name":"八百刈","zip_code":"9870144"},{"name":"薔薇島","zip_code":"9870144"},{"name":"古道下二本杉","zip_code":"9870113"},{"name":"本町","zip_code":"9870162"},{"name":"柳町","zip_code":"9870111"},{"name":"吉住","zip_code":"9870283"},{"name":"蘭場谷地","zip_code":"9870134"},{"name":"六軒町","zip_code":"9870106"},{"name":"六軒町裏","zip_code":"9870107"},{"name":"涌谷","zip_code":"9870121"}]},{"name":"遠田郡美里町","divisions":[{"name":"青生","zip_code":"9870015"},{"name":"一本柳","zip_code":"9870056"},{"name":"牛飼","zip_code":"9870004"},{"name":"内役田","zip_code":"9870045"},{"name":"駅東","zip_code":"9870038"},{"name":"大柳","zip_code":"9894204"},{"name":"荻埣","zip_code":"9870022"},{"name":"学田","zip_code":"9870032"},{"name":"勘堂","zip_code":"9870065"},{"name":"北浦","zip_code":"9870005"},{"name":"北原","zip_code":"9870069"},{"name":"狐山","zip_code":"9870057"},{"name":"木間塚","zip_code":"9894205"},{"name":"化粧坂","zip_code":"9870034"},{"name":"小沼","zip_code":"9870063"},{"name":"小沼添","zip_code":"9870064"},{"name":"小町井","zip_code":"9870033"},{"name":"妻の神","zip_code":"9870036"},{"name":"桜木町","zip_code":"9870011"},{"name":"塩釜","zip_code":"9870058"},{"name":"塩釜添","zip_code":"9870059"},{"name":"志賀町","zip_code":"9870014"},{"name":"志賀殿","zip_code":"9870035"},{"name":"下境","zip_code":"9870061"},{"name":"叔廼前","zip_code":"9870053"},{"name":"上意江","zip_code":"9870051"},{"name":"新一本柳","zip_code":"9870055"},{"name":"新妻の神","zip_code":"9870043"},{"name":"新大所","zip_code":"9870068"},{"name":"新鳥谷坂","zip_code":"9894209"},{"name":"新藤ケ崎","zip_code":"9870037"},{"name":"砂子田","zip_code":"9870052"},{"name":"関根","zip_code":"9870006"},{"name":"素山","zip_code":"9870013"},{"name":"素山町","zip_code":"9870012"},{"name":"大所","zip_code":"9870067"},{"name":"高田","zip_code":"9870031"},{"name":"塔の越","zip_code":"9870054"},{"name":"鳥谷坂一","zip_code":"9894207"},{"name":"鳥谷坂二","zip_code":"9894208"},{"name":"中埣","zip_code":"9870024"},{"name":"中高城","zip_code":"9870025"},{"name":"成田","zip_code":"9870024"},{"name":"二郷","zip_code":"9894206"},{"name":"西舘","zip_code":"9870044"},{"name":"練牛","zip_code":"9894203"},{"name":"平針","zip_code":"9870021"},{"name":"福ケ袋","zip_code":"9894202"},{"name":"藤ケ崎","zip_code":"9870001"},{"name":"藤ケ崎町","zip_code":"9870002"},{"name":"二ツ壇","zip_code":"9870066"},{"name":"待井","zip_code":"9870062"},{"name":"南小牛田","zip_code":"9870003"},{"name":"南高城","zip_code":"9870026"},{"name":"峯山","zip_code":"9870041"},{"name":"峯山浦","zip_code":"9870042"},{"name":"役田","zip_code":"9870046"},{"name":"和多田沼","zip_code":"9894201"}]},{"name":"牡鹿郡女川町","divisions":[{"name":"旭が丘","zip_code":"9862251"},{"name":"飯子浜","zip_code":"9862222"},{"name":"石浜","zip_code":"9862281"},{"name":"出島","zip_code":"9862211"},{"name":"浦宿浜","zip_code":"9862231"},{"name":"江島","zip_code":"9862212"},{"name":"尾浦","zip_code":"9862202"},{"name":"大石原浜","zip_code":"9862224"},{"name":"女川浜","zip_code":"9862261"},{"name":"御前浜","zip_code":"9862205"},{"name":"桐ケ崎","zip_code":"9862204"},{"name":"黄金町","zip_code":"9862241"},{"name":"寿町","zip_code":"9862245"},{"name":"小乗浜","zip_code":"9862242"},{"name":"桜ケ丘","zip_code":"9862244"},{"name":"指ケ浜","zip_code":"9862201"},{"name":"清水町","zip_code":"9862271"},{"name":"高白浜","zip_code":"9862226"},{"name":"竹浦","zip_code":"9862203"},{"name":"塚浜","zip_code":"9862221"},{"name":"野々浜","zip_code":"9862223"},{"name":"針浜","zip_code":"9862232"},{"name":"宮ケ崎","zip_code":"9862282"},{"name":"横浦","zip_code":"9862225"},{"name":"鷲神浜","zip_code":"9862243"}]},{"name":"本吉郡南三陸町","divisions":[{"name":"入谷","zip_code":"9860782"},{"name":"歌津伊里前","zip_code":"9880453"},{"name":"歌津石泉","zip_code":"9880471"},{"name":"歌津石浜","zip_code":"9880426"},{"name":"歌津板橋","zip_code":"9880446"},{"name":"歌津大磯","zip_code":"9880434"},{"name":"歌津大沼","zip_code":"9880448"},{"name":"歌津大森","zip_code":"9880463"},{"name":"歌津尾崎","zip_code":"9880443"},{"name":"歌津上沢","zip_code":"9880476"},{"name":"歌津上の山","zip_code":"9880413"},{"name":"歌津神山","zip_code":"9880425"},{"name":"歌津川内","zip_code":"9880456"},{"name":"歌津北の沢","zip_code":"9880424"},{"name":"歌津草木沢","zip_code":"9880405"},{"name":"歌津管の浜","zip_code":"9880451"},{"name":"歌津小長柴","zip_code":"9880436"},{"name":"歌津小沼","zip_code":"9880435"},{"name":"歌津皿貝","zip_code":"9880467"},{"name":"歌津白山","zip_code":"9880475"},{"name":"歌津砂浜","zip_code":"9880462"},{"name":"歌津田表","zip_code":"9880474"},{"name":"歌津館浜","zip_code":"9880445"},{"name":"歌津田の浦","zip_code":"9880415"},{"name":"歌津田の頭","zip_code":"9880441"},{"name":"歌津田茂川","zip_code":"9880411"},{"name":"歌津泊浜","zip_code":"9880444"},{"name":"歌津中在","zip_code":"9880473"},{"name":"歌津長沢","zip_code":"9880414"},{"name":"歌津長柴","zip_code":"9880447"},{"name":"歌津中野","zip_code":"9880406"},{"name":"歌津長羽","zip_code":"9880403"},{"name":"歌津中山","zip_code":"9880432"},{"name":"歌津名足","zip_code":"9880431"},{"name":"歌津浪板","zip_code":"9880401"},{"name":"歌津韮の浜","zip_code":"9880465"},{"name":"歌津馬場","zip_code":"9880433"},{"name":"歌津払川","zip_code":"9880477"},{"name":"歌津番所","zip_code":"9880442"},{"name":"歌津樋の口","zip_code":"9880478"},{"name":"歌津平棚","zip_code":"9880421"},{"name":"歌津平松","zip_code":"9880466"},{"name":"歌津牧田","zip_code":"9880404"},{"name":"歌津枡沢","zip_code":"9880423"},{"name":"歌津町向","zip_code":"9880452"},{"name":"歌津松の崎","zip_code":"9880422"},{"name":"歌津港","zip_code":"9880402"},{"name":"歌津南の沢","zip_code":"9880412"},{"name":"歌津峰畑","zip_code":"9880454"},{"name":"歌津宮方","zip_code":"9880472"},{"name":"歌津森畑","zip_code":"9880464"},{"name":"歌津吉野沢","zip_code":"9880455"},{"name":"歌津寄木","zip_code":"9880461"},{"name":"志津川秋目川","zip_code":"9860772"},{"name":"志津川旭ケ浦","zip_code":"9860733"},{"name":"志津川阿曽","zip_code":"9860705"},{"name":"志津川荒坂","zip_code":"9860707"},{"name":"志津川磯の沢","zip_code":"9860726"},{"name":"志津川五日町","zip_code":"9860752"},{"name":"志津川内井田","zip_code":"9860709"},{"name":"志津川大久保","zip_code":"9860764"},{"name":"志津川大沢","zip_code":"9860771"},{"name":"志津川大畑","zip_code":"9860718"},{"name":"志津川大森","zip_code":"9860731"},{"name":"志津川大森町","zip_code":"9860732"},{"name":"志津川蒲の沢","zip_code":"9860714"},{"name":"志津川上の山","zip_code":"9860751"},{"name":"志津川上保呂毛","zip_code":"9860777"},{"name":"志津川北の又","zip_code":"9860712"},{"name":"志津川熊田","zip_code":"9860773"},{"name":"志津川黒崎","zip_code":"9860766"},{"name":"志津川御前下","zip_code":"9860768"},{"name":"志津川米広","zip_code":"9860721"},{"name":"志津川小森","zip_code":"9860774"},{"name":"志津川権現","zip_code":"9860711"},{"name":"志津川塩入","zip_code":"9860762"},{"name":"志津川汐見町","zip_code":"9860763"},{"name":"志津川清水浜","zip_code":"9860706"},{"name":"志津川下保呂毛","zip_code":"9860778"},{"name":"志津川蛇王","zip_code":"9860703"},{"name":"志津川城場","zip_code":"9860753"},{"name":"志津川助作","zip_code":"9860754"},{"name":"志津川袖浜","zip_code":"9860717"},{"name":"志津川大上坊","zip_code":"9860722"},{"name":"志津川竹川原","zip_code":"9860776"},{"name":"志津川田尻畑","zip_code":"9860779"},{"name":"志津川立沢","zip_code":"9860723"},{"name":"志津川天王山","zip_code":"9860728"},{"name":"志津川天王前","zip_code":"9860729"},{"name":"志津川十日町","zip_code":"9860741"},{"name":"志津川中瀬町","zip_code":"9860767"},{"name":"志津川新井田","zip_code":"9860727"},{"name":"志津川西田","zip_code":"9860701"},{"name":"志津川沼田","zip_code":"9860725"},{"name":"志津川林","zip_code":"9860765"},{"name":"志津川平磯","zip_code":"9860716"},{"name":"志津川平井田","zip_code":"9860724"},{"name":"志津川平貝","zip_code":"9860713"},{"name":"志津川深田","zip_code":"9860715"},{"name":"志津川細浦","zip_code":"9860702"},{"name":"志津川松井田","zip_code":"9860708"},{"name":"志津川廻館","zip_code":"9860775"},{"name":"志津川廻館前","zip_code":"9860761"},{"name":"志津川南町","zip_code":"9860743"},{"name":"志津川本浜町","zip_code":"9860742"},{"name":"志津川森山","zip_code":"9860704"},{"name":"戸倉","zip_code":"9860781"}]}]}