{"name":"秋田県","cities":[{"name":"秋田市","divisions":[{"name":"旭川清澄町","zip_code":"0100831"},{"name":"旭川新藤田東町","zip_code":"0100833"},{"name":"旭川新藤田西町","zip_code":"0100832"},{"name":"旭川南町","zip_code":"0100834"},{"name":"新屋朝日町","zip_code":"0101613"},{"name":"新屋大川町","zip_code":"0101632"},{"name":"新屋扇町","zip_code":"0101637"},{"name":"新屋沖田町","zip_code":"0101634"},{"name":"新屋表町","zip_code":"0101638"},{"name":"新屋勝平台","zip_code":"0101603"},{"name":"新屋勝平町","zip_code":"0101605"},{"name":"新屋北浜町","zip_code":"0101608"},{"name":"新屋栗田町","zip_code":"0101621"},{"name":"新屋寿町","zip_code":"0101606"},{"name":"新屋下川原町","zip_code":"0101602"},{"name":"新屋渋谷町","zip_code":"0101642"},{"name":"新屋高美町","zip_code":"0101641"},{"name":"新屋田尻沢中町","zip_code":"0101644"},{"name":"新屋田尻沢東町","zip_code":"0101643"},{"name":"新屋田尻沢西町","zip_code":"0101645"},{"name":"新屋天秤野","zip_code":"0101611"},{"name":"新屋鳥木町","zip_code":"0101633"},{"name":"新屋比内町","zip_code":"0101636"},{"name":"新屋日吉町","zip_code":"0101622"},{"name":"新屋船場町","zip_code":"0101615"},{"name":"新屋前野町","zip_code":"0101635"},{"name":"新屋松美ガ丘東町","zip_code":"0101617"},{"name":"新屋松美ガ丘南町","zip_code":"0101616"},{"name":"新屋松美ガ丘北町","zip_code":"0101618"},{"name":"新屋松美町","zip_code":"0101604"},{"name":"新屋南浜町","zip_code":"0101607"},{"name":"新屋元町","zip_code":"0101631"},{"name":"新屋豊町","zip_code":"0101612"},{"name":"新屋割山町","zip_code":"0101614"},{"name":"新屋町","zip_code":"0101623"},{"name":"飯島","zip_code":"0110911"},{"name":"飯島飯田","zip_code":"0110949"},{"name":"飯島川端","zip_code":"0110912"},{"name":"飯島穀丁","zip_code":"0110916"},{"name":"飯島新町","zip_code":"0110947"},{"name":"飯島長野上町","zip_code":"0110928"},{"name":"飯島長野中町","zip_code":"0110925"},{"name":"飯島長野本町","zip_code":"0110924"},{"name":"飯島西袋","zip_code":"0110948"},{"name":"飯島鼠田","zip_code":"0110913"},{"name":"飯島文京町","zip_code":"0110923"},{"name":"飯島松根東町","zip_code":"0110922"},{"name":"飯島松根西町","zip_code":"0110921"},{"name":"飯島美砂町","zip_code":"0110914"},{"name":"飯島道東","zip_code":"0110917"},{"name":"飯島緑丘町","zip_code":"0110915"},{"name":"泉","zip_code":"0100816"},{"name":"泉一ノ坪","zip_code":"0100813"},{"name":"泉釜ノ町","zip_code":"0100811"},{"name":"泉北","zip_code":"0100916"},{"name":"泉菅野","zip_code":"0100817"},{"name":"泉中央","zip_code":"0100917"},{"name":"泉馬場","zip_code":"0100815"},{"name":"泉東町","zip_code":"0100814"},{"name":"泉三嶽根","zip_code":"0100812"},{"name":"泉南","zip_code":"0100918"},{"name":"牛島","zip_code":"0100064"},{"name":"牛島東","zip_code":"0100062"},{"name":"牛島西","zip_code":"0100063"},{"name":"牛島南","zip_code":"0100066"},{"name":"大住","zip_code":"0101436"},{"name":"大町","zip_code":"0100921"},{"name":"大平台","zip_code":"0101428"},{"name":"御野場","zip_code":"0101424"},{"name":"御野場新町","zip_code":"0101425"},{"name":"卸町","zip_code":"0100061"},{"name":"金足岩瀬","zip_code":"0100111"},{"name":"金足浦山","zip_code":"0100113"},{"name":"金足追分","zip_code":"0100126"},{"name":"金足大清水","zip_code":"0100115"},{"name":"金足片田","zip_code":"0100123"},{"name":"金足黒川","zip_code":"0100121"},{"name":"金足小泉","zip_code":"0100116"},{"name":"金足下刈","zip_code":"0100114"},{"name":"金足高岡","zip_code":"0100125"},{"name":"金足鳰崎","zip_code":"0100124"},{"name":"金足堀内","zip_code":"0100112"},{"name":"金足吉田","zip_code":"0100122"},{"name":"上北手荒巻","zip_code":"0101403"},{"name":"上北手大杉沢","zip_code":"0101401"},{"name":"上北手大戸","zip_code":"0101408"},{"name":"上北手大山田","zip_code":"0101405"},{"name":"上北手小山田","zip_code":"0101402"},{"name":"上北手古野","zip_code":"0101404"},{"name":"上北手御所野","zip_code":"0101411"},{"name":"上北手猿田","zip_code":"0101406"},{"name":"上北手百崎","zip_code":"0101407"},{"name":"上新城石名坂","zip_code":"0100137"},{"name":"上新城小又","zip_code":"0100132"},{"name":"上新城五十丁","zip_code":"0100135"},{"name":"上新城白山","zip_code":"0100131"},{"name":"上新城中","zip_code":"0100136"},{"name":"上新城保多野","zip_code":"0100138"},{"name":"上新城道川","zip_code":"0100134"},{"name":"上新城湯ノ里","zip_code":"0100133"},{"name":"川尻上野町","zip_code":"0100947"},{"name":"川尻大川町","zip_code":"0100942"},{"name":"川尻御休町","zip_code":"0100943"},{"name":"川尻新川町","zip_code":"0100948"},{"name":"川尻総社町","zip_code":"0100946"},{"name":"川尻みよし町","zip_code":"0100945"},{"name":"川尻若葉町","zip_code":"0100944"},{"name":"川尻町","zip_code":"0100941"},{"name":"河辺赤平","zip_code":"0192623"},{"name":"河辺岩見","zip_code":"0192741"},{"name":"河辺大沢","zip_code":"0192624"},{"name":"河辺大張野","zip_code":"0192632"},{"name":"河辺北野田高屋","zip_code":"0192625"},{"name":"河辺三内","zip_code":"0192742"},{"name":"河辺神内","zip_code":"0192631"},{"name":"河辺高岡","zip_code":"0192622"},{"name":"河辺戸島","zip_code":"0192611"},{"name":"河辺豊成","zip_code":"0192614"},{"name":"河辺畑谷","zip_code":"0192612"},{"name":"河辺松渕","zip_code":"0192613"},{"name":"河辺諸井","zip_code":"0192621"},{"name":"河辺和田","zip_code":"0192601"},{"name":"川元小川町","zip_code":"0100935"},{"name":"川元開和町","zip_code":"0100932"},{"name":"川元松丘町","zip_code":"0100933"},{"name":"川元むつみ町","zip_code":"0100934"},{"name":"川元山下町","zip_code":"0100931"},{"name":"旭南","zip_code":"0100925"},{"name":"旭北栄町","zip_code":"0100922"},{"name":"旭北寺町","zip_code":"0100924"},{"name":"旭北錦町","zip_code":"0100923"},{"name":"港北新町","zip_code":"0110927"},{"name":"港北松野町","zip_code":"0110926"},{"name":"高陽青柳町","zip_code":"0100966"},{"name":"高陽幸町","zip_code":"0100967"},{"name":"御所野下堤","zip_code":"0101412"},{"name":"御所野地蔵田","zip_code":"0101413"},{"name":"御所野堤台","zip_code":"0101419"},{"name":"御所野元町","zip_code":"0101414"},{"name":"御所野湯本","zip_code":"0101415"},{"name":"桜","zip_code":"0100042"},{"name":"桜ガ丘","zip_code":"0100043"},{"name":"桜台","zip_code":"0100059"},{"name":"山内","zip_code":"0100823"},{"name":"山王","zip_code":"0100951"},{"name":"山王新町","zip_code":"0100952"},{"name":"山王中島町","zip_code":"0100955"},{"name":"山王中園町","zip_code":"0100953"},{"name":"山王沼田町","zip_code":"0100954"},{"name":"山王臨海町","zip_code":"0100956"},{"name":"下北手黒川","zip_code":"0100056"},{"name":"下北手桜","zip_code":"0100058"},{"name":"下北手寒川","zip_code":"0100053"},{"name":"下北手宝川","zip_code":"0100054"},{"name":"下北手通沢","zip_code":"0100055"},{"name":"下北手梨平","zip_code":"0100057"},{"name":"下北手松崎","zip_code":"0100051"},{"name":"下北手柳舘","zip_code":"0100052"},{"name":"下新城青崎","zip_code":"0100142"},{"name":"下新城岩城","zip_code":"0100144"},{"name":"下新城小友","zip_code":"0100143"},{"name":"下新城笠岡","zip_code":"0100145"},{"name":"下新城中野","zip_code":"0100146"},{"name":"下新城長岡","zip_code":"0100141"},{"name":"下浜桂根","zip_code":"0101501"},{"name":"下浜長浜","zip_code":"0101502"},{"name":"下浜楢田","zip_code":"0101506"},{"name":"下浜八田","zip_code":"0101505"},{"name":"下浜羽川","zip_code":"0101503"},{"name":"下浜名ケ沢","zip_code":"0101504"},{"name":"将軍野青山町","zip_code":"0110932"},{"name":"将軍野桂町","zip_code":"0110934"},{"name":"将軍野堰越","zip_code":"0110933"},{"name":"将軍野向山","zip_code":"0110935"},{"name":"将軍野東","zip_code":"0110931"},{"name":"将軍野南","zip_code":"0110936"},{"name":"新藤田","zip_code":"0100826"},{"name":"千秋北の丸","zip_code":"0100872"},{"name":"千秋久保田町","zip_code":"0100874"},{"name":"千秋公園","zip_code":"0100876"},{"name":"千秋城下町","zip_code":"0100873"},{"name":"千秋中島町","zip_code":"0100871"},{"name":"千秋明徳町","zip_code":"0100875"},{"name":"千秋矢留町","zip_code":"0100877"},{"name":"添川","zip_code":"0100822"},{"name":"外旭川","zip_code":"0100802"},{"name":"外旭川八幡田","zip_code":"0100804"},{"name":"外旭川八柳","zip_code":"0100803"},{"name":"太平黒沢","zip_code":"0101105"},{"name":"太平寺庭","zip_code":"0101104"},{"name":"太平中関","zip_code":"0101103"},{"name":"太平八田","zip_code":"0101101"},{"name":"太平目長崎","zip_code":"0101102"},{"name":"太平山谷","zip_code":"0101106"},{"name":"土崎港穀保町","zip_code":"0110944"},{"name":"土崎港相染町","zip_code":"0110951"},{"name":"土崎港中央","zip_code":"0110946"},{"name":"土崎港東","zip_code":"0110942"},{"name":"土崎港古川町","zip_code":"0110951"},{"name":"土崎港西","zip_code":"0110945"},{"name":"土崎港南","zip_code":"0110943"},{"name":"土崎港北","zip_code":"0110941"},{"name":"手形","zip_code":"0100851"},{"name":"手形からみでん","zip_code":"0100861"},{"name":"手形学園町","zip_code":"0100852"},{"name":"手形休下町","zip_code":"0100863"},{"name":"手形新栄町","zip_code":"0100865"},{"name":"手形住吉町","zip_code":"0100864"},{"name":"手形田中","zip_code":"0100862"},{"name":"手形山崎町","zip_code":"0100854"},{"name":"手形山中町","zip_code":"0100844"},{"name":"手形山東町","zip_code":"0100843"},{"name":"手形山西町","zip_code":"0100841"},{"name":"手形山南町","zip_code":"0100845"},{"name":"手形山北町","zip_code":"0100842"},{"name":"寺内","zip_code":"0110901"},{"name":"寺内油田","zip_code":"0110903"},{"name":"寺内後城","zip_code":"0110906"},{"name":"寺内鵜ノ木","zip_code":"0110938"},{"name":"寺内大小路","zip_code":"0110908"},{"name":"寺内大畑","zip_code":"0110939"},{"name":"寺内神屋敷","zip_code":"0110905"},{"name":"寺内高野","zip_code":"0110937"},{"name":"寺内児桜","zip_code":"0110909"},{"name":"寺内堂ノ沢","zip_code":"0110902"},{"name":"寺内蛭根","zip_code":"0110904"},{"name":"寺内焼山","zip_code":"0110907"},{"name":"豊岩石田坂","zip_code":"0101651"},{"name":"豊岩小山","zip_code":"0101653"},{"name":"豊岩豊巻","zip_code":"0101652"},{"name":"中通","zip_code":"0100001"},{"name":"楢山","zip_code":"0100034"},{"name":"楢山愛宕下","zip_code":"0100037"},{"name":"楢山石塚町","zip_code":"0100033"},{"name":"楢山太田町","zip_code":"0100032"},{"name":"楢山大元町","zip_code":"0100031"},{"name":"楢山川口境","zip_code":"0100029"},{"name":"楢山共和町","zip_code":"0100028"},{"name":"楢山金照町","zip_code":"0100036"},{"name":"楢山佐竹町","zip_code":"0100025"},{"name":"楢山城南新町","zip_code":"0100038"},{"name":"楢山城南町","zip_code":"0100035"},{"name":"楢山登町","zip_code":"0100021"},{"name":"楢山古川新町","zip_code":"0100026"},{"name":"楢山本町","zip_code":"0100023"},{"name":"楢山南新町上丁","zip_code":"0100024"},{"name":"楢山南新町下丁","zip_code":"0100027"},{"name":"楢山南中町","zip_code":"0100022"},{"name":"仁井田","zip_code":"0101423"},{"name":"仁井田潟中町","zip_code":"0101435"},{"name":"仁井田小中島","zip_code":"0101426"},{"name":"仁井田栄町","zip_code":"0101433"},{"name":"仁井田新田","zip_code":"0101427"},{"name":"仁井田蕗見町","zip_code":"0101434"},{"name":"仁井田福島","zip_code":"0101432"},{"name":"仁井田二ツ屋","zip_code":"0101431"},{"name":"仁井田本町","zip_code":"0101421"},{"name":"仁井田緑町","zip_code":"0101437"},{"name":"仁井田目長田","zip_code":"0101422"},{"name":"濁川","zip_code":"0100821"},{"name":"仁別","zip_code":"0100824"},{"name":"浜田","zip_code":"0101654"},{"name":"茨島","zip_code":"0100065"},{"name":"東通","zip_code":"0100003"},{"name":"東通観音前","zip_code":"0100004"},{"name":"東通館ノ越","zip_code":"0100006"},{"name":"東通仲町","zip_code":"0100002"},{"name":"東通明田","zip_code":"0100005"},{"name":"広面","zip_code":"0100041"},{"name":"蛇野","zip_code":"0100853"},{"name":"保戸野","zip_code":"0100915"},{"name":"保戸野金砂町","zip_code":"0100902"},{"name":"保戸野桜町","zip_code":"0100901"},{"name":"保戸野すわ町","zip_code":"0100911"},{"name":"保戸野千代田町","zip_code":"0100914"},{"name":"保戸野鉄砲町","zip_code":"0100913"},{"name":"保戸野通町","zip_code":"0100912"},{"name":"保戸野中町","zip_code":"0100905"},{"name":"保戸野八丁","zip_code":"0100903"},{"name":"保戸野原の町","zip_code":"0100904"},{"name":"南通亀の町","zip_code":"0100011"},{"name":"南通築地","zip_code":"0100013"},{"name":"南通みその町","zip_code":"0100012"},{"name":"南通宮田","zip_code":"0100014"},{"name":"向浜","zip_code":"0101601"},{"name":"柳田","zip_code":"0100825"},{"name":"八橋","zip_code":"0100975"},{"name":"八橋イサノ","zip_code":"0100961"},{"name":"八橋運動公園","zip_code":"0100974"},{"name":"八橋大沼町","zip_code":"0100963"},{"name":"八橋大畑","zip_code":"0100962"},{"name":"八橋新川向","zip_code":"0100965"},{"name":"八橋大道東","zip_code":"0100977"},{"name":"八橋田五郎","zip_code":"0100972"},{"name":"八橋鯲沼町","zip_code":"0100964"},{"name":"八橋本町","zip_code":"0100973"},{"name":"八橋南","zip_code":"0100976"},{"name":"八橋三和町","zip_code":"0100971"},{"name":"山手台","zip_code":"0101429"},{"name":"雄和相川","zip_code":"0101231"},{"name":"雄和新波","zip_code":"0101341"},{"name":"雄和碇田","zip_code":"0101351"},{"name":"雄和石田","zip_code":"0101222"},{"name":"雄和萱ケ沢","zip_code":"0101352"},{"name":"雄和左手子","zip_code":"0101225"},{"name":"雄和芝野新田","zip_code":"0101202"},{"name":"雄和下黒瀬","zip_code":"0101203"},{"name":"雄和神ケ村","zip_code":"0101342"},{"name":"雄和田草川","zip_code":"0101201"},{"name":"雄和種沢","zip_code":"0101224"},{"name":"雄和繋","zip_code":"0101343"},{"name":"雄和椿川","zip_code":"0101211"},{"name":"雄和戸賀沢","zip_code":"0101232"},{"name":"雄和平尾鳥","zip_code":"0101212"},{"name":"雄和平沢","zip_code":"0101221"},{"name":"雄和妙法","zip_code":"0101223"},{"name":"雄和向野","zip_code":"0101344"},{"name":"雄和女米木","zip_code":"0101233"},{"name":"横森","zip_code":"0100044"},{"name":"四ツ小屋","zip_code":"0101417"},{"name":"四ツ小屋小阿地","zip_code":"0101418"},{"name":"四ツ小屋末戸松本","zip_code":"0101416"}]},{"name":"能代市","divisions":[{"name":"青葉町","zip_code":"0160865"},{"name":"赤沼","zip_code":"0160835"},{"name":"悪戸","zip_code":"0160115"},{"name":"浅内","zip_code":"0160179"},{"name":"天内","zip_code":"0182802"},{"name":"万町","zip_code":"0160804"},{"name":"一本木","zip_code":"0160102"},{"name":"磐","zip_code":"0160017"},{"name":"上ノ山","zip_code":"0160143"},{"name":"上ノ山台","zip_code":"0160144"},{"name":"後谷地","zip_code":"0160863"},{"name":"鵜鳥","zip_code":"0160136"},{"name":"鵜鳥悪戸","zip_code":"0160137"},{"name":"鵜鳥川原","zip_code":"0160138"},{"name":"鵜ノ沢","zip_code":"0160141"},{"name":"姥懐","zip_code":"0160135"},{"name":"追分町","zip_code":"0160842"},{"name":"扇田","zip_code":"0160122"},{"name":"大内田","zip_code":"0160162"},{"name":"大瀬儘下","zip_code":"0160181"},{"name":"大塚","zip_code":"0160164"},{"name":"大手町","zip_code":"0160805"},{"name":"大曲","zip_code":"0182812"},{"name":"大町","zip_code":"0160803"},{"name":"大森","zip_code":"0160155"},{"name":"大森山","zip_code":"0160807"},{"name":"落合","zip_code":"0160014"},{"name":"卸町","zip_code":"0160884"},{"name":"海詠坂","zip_code":"0160876"},{"name":"鰄渕","zip_code":"0160121"},{"name":"柏子所","zip_code":"0160166"},{"name":"上悪土","zip_code":"0182813"},{"name":"上関","zip_code":"0160153"},{"name":"上古川布","zip_code":"0160172"},{"name":"上谷地","zip_code":"0160154"},{"name":"上柳","zip_code":"0160182"},{"name":"臥竜山","zip_code":"0160878"},{"name":"河戸川","zip_code":"0160171"},{"name":"川反町","zip_code":"0160802"},{"name":"上町","zip_code":"0160817"},{"name":"狐森","zip_code":"0182814"},{"name":"久喜沢","zip_code":"0182806"},{"name":"九郎左衛門笹台","zip_code":"0160178"},{"name":"景林町","zip_code":"0160892"},{"name":"下内崎","zip_code":"0160834"},{"name":"五雲岱","zip_code":"0160883"},{"name":"御指南町","zip_code":"0160815"},{"name":"権現台","zip_code":"0160177"},{"name":"槐","zip_code":"0182804"},{"name":"彩霞長根","zip_code":"0160861"},{"name":"栄町","zip_code":"0160846"},{"name":"坂形","zip_code":"0160011"},{"name":"産物","zip_code":"0182811"},{"name":"塩干田","zip_code":"0160167"},{"name":"塩干田前","zip_code":"0160167"},{"name":"十洲崎","zip_code":"0160168"},{"name":"芝童森","zip_code":"0160872"},{"name":"下悪戸","zip_code":"0160113"},{"name":"下瀬","zip_code":"0160185"},{"name":"下関","zip_code":"0160104"},{"name":"下野","zip_code":"0160186"},{"name":"下古川布","zip_code":"0160173"},{"name":"下柳","zip_code":"0160187"},{"name":"寿域長根","zip_code":"0160862"},{"name":"昭南町","zip_code":"0160897"},{"name":"昇平岱","zip_code":"0160871"},{"name":"新山前","zip_code":"0160174"},{"name":"末広町","zip_code":"0160895"},{"name":"須田","zip_code":"0160015"},{"name":"砂留山","zip_code":"0160881"},{"name":"住吉町","zip_code":"0160824"},{"name":"清助町","zip_code":"0160806"},{"name":"仙遊長根","zip_code":"0160877"},{"name":"袖又","zip_code":"0160163"},{"name":"外荒巻","zip_code":"0160001"},{"name":"外堤","zip_code":"0160146"},{"name":"高塙","zip_code":"0160184"},{"name":"竹生","zip_code":"0160016"},{"name":"田子向","zip_code":"0160857"},{"name":"田床内","zip_code":"0160123"},{"name":"田中谷地","zip_code":"0160149"},{"name":"田屋","zip_code":"0160165"},{"name":"中和","zip_code":"0160843"},{"name":"鶴形","zip_code":"0160131"},{"name":"出戸後","zip_code":"0160853"},{"name":"出戸本町","zip_code":"0160852"},{"name":"寺向","zip_code":"0160188"},{"name":"東面","zip_code":"0182815"},{"name":"通町","zip_code":"0160845"},{"name":"戸川向","zip_code":"0160176"},{"name":"常盤","zip_code":"0182801"},{"name":"戸草沢","zip_code":"0160134"},{"name":"轟","zip_code":"0182805"},{"name":"富町","zip_code":"0160816"},{"name":"鳥矢場","zip_code":"0160147"},{"name":"鳥小屋","zip_code":"0160864"},{"name":"外割田","zip_code":"0182803"},{"name":"中悪戸","zip_code":"0160114"},{"name":"中川原","zip_code":"0160814"},{"name":"中沢","zip_code":"0160156"},{"name":"中嶋","zip_code":"0160812"},{"name":"中関","zip_code":"0160101"},{"name":"中柳","zip_code":"0160183"},{"name":"長崎","zip_code":"0160873"},{"name":"南陽崎","zip_code":"0160875"},{"name":"仁井田白山","zip_code":"0160111"},{"name":"西赤沼","zip_code":"0160837"},{"name":"西大瀬","zip_code":"0160855"},{"name":"西通町","zip_code":"0160891"},{"name":"荷八田","zip_code":"0160003"},{"name":"沼ノ上","zip_code":"0160874"},{"name":"能代町","zip_code":"0160813"},{"name":"萩の台","zip_code":"0160894"},{"name":"機織轌ノ目","zip_code":"0160116"},{"name":"畠町","zip_code":"0160821"},{"name":"花園町","zip_code":"0160844"},{"name":"浜通町","zip_code":"0160801"},{"name":"腹鞁ノ沢","zip_code":"0160157"},{"name":"半戸沢","zip_code":"0160142"},{"name":"盤若町","zip_code":"0160896"},{"name":"東赤沼","zip_code":"0160836"},{"name":"東大瀬","zip_code":"0160839"},{"name":"東町","zip_code":"0160822"},{"name":"比八田","zip_code":"0160012"},{"name":"冷清水","zip_code":"0160148"},{"name":"檜山","zip_code":"0160151"},{"name":"日吉町","zip_code":"0160811"},{"name":"日和山下","zip_code":"0160808"},{"name":"藤山","zip_code":"0160856"},{"name":"二ツ井町麻生","zip_code":"0183101"},{"name":"二ツ井町家後","zip_code":"0183116"},{"name":"二ツ井町薄井","zip_code":"0183119"},{"name":"二ツ井町梅内","zip_code":"0183131"},{"name":"二ツ井町上台","zip_code":"0183118"},{"name":"二ツ井町上野","zip_code":"0183142"},{"name":"二ツ井町太田面","zip_code":"0183143"},{"name":"二ツ井町海道上","zip_code":"0183115"},{"name":"二ツ井町上山崎","zip_code":"0183105"},{"name":"二ツ井町苅又石","zip_code":"0183107"},{"name":"二ツ井町狐台","zip_code":"0183126"},{"name":"二ツ井町切石","zip_code":"0183124"},{"name":"二ツ井町小掛","zip_code":"0183112"},{"name":"二ツ井町五千苅","zip_code":"0183141"},{"name":"二ツ井町小槻木","zip_code":"0183147"},{"name":"二ツ井町小繋","zip_code":"0183102"},{"name":"二ツ井町駒形","zip_code":"0183123"},{"name":"二ツ井町桜台","zip_code":"0183114"},{"name":"二ツ井町沢口","zip_code":"0183104"},{"name":"二ツ井町三千苅","zip_code":"0183151"},{"name":"二ツ井町下野","zip_code":"0183157"},{"name":"二ツ井町下野家後","zip_code":"0183152"},{"name":"二ツ井町下野川端","zip_code":"0183156"},{"name":"二ツ井町下稗柄","zip_code":"0183128"},{"name":"二ツ井町高関","zip_code":"0183134"},{"name":"二ツ井町田代","zip_code":"0183111"},{"name":"二ツ井町種","zip_code":"0183133"},{"name":"二ツ井町茶屋下","zip_code":"0183125"},{"name":"二ツ井町塚台","zip_code":"0183117"},{"name":"二ツ井町槻ノ木","zip_code":"0183148"},{"name":"二ツ井町飛根","zip_code":"0183121"},{"name":"二ツ井町中坪","zip_code":"0183144"},{"name":"二ツ井町中坪道下","zip_code":"0183146"},{"name":"二ツ井町滑良子川端","zip_code":"0183153"},{"name":"二ツ井町荷上場","zip_code":"0183103"},{"name":"二ツ井町濁川","zip_code":"0183106"},{"name":"二ツ井町仁鮒","zip_code":"0183113"},{"name":"二ツ井町比井野","zip_code":"0183155"},{"name":"二ツ井町稗柄","zip_code":"0183129"},{"name":"二ツ井町稗川原","zip_code":"0183127"},{"name":"二ツ井町町尻","zip_code":"0183154"},{"name":"二ツ井町道上中坪","zip_code":"0183145"},{"name":"二ツ井町山根","zip_code":"0183135"},{"name":"吹越","zip_code":"0160004"},{"name":"古屋布","zip_code":"0160175"},{"name":"不老岱","zip_code":"0160879"},{"name":"鳳凰岱","zip_code":"0160882"},{"name":"坊ケ崎","zip_code":"0160169"},{"name":"豊祥岱","zip_code":"0160854"},{"name":"朴瀬","zip_code":"0160002"},{"name":"真壁地","zip_code":"0160005"},{"name":"町後","zip_code":"0160132"},{"name":"松長布","zip_code":"0160161"},{"name":"松美町","zip_code":"0160893"},{"name":"緑町","zip_code":"0160851"},{"name":"南元町","zip_code":"0160832"},{"name":"宮ノ前","zip_code":"0160103"},{"name":"向田表","zip_code":"0160133"},{"name":"向能代","zip_code":"0160013"},{"name":"明治町","zip_code":"0160833"},{"name":"母体","zip_code":"0160152"},{"name":"元町","zip_code":"0160831"},{"name":"谷地上","zip_code":"0160139"},{"name":"柳町","zip_code":"0160825"},{"name":"養蚕","zip_code":"0160841"},{"name":"養蚕脇","zip_code":"0160838"},{"name":"若田","zip_code":"0160145"},{"name":"若松町","zip_code":"0160823"}]},{"name":"横手市","divisions":[{"name":"赤川","zip_code":"0130073"},{"name":"赤坂","zip_code":"0130064"},{"name":"朝倉町","zip_code":"0130028"},{"name":"旭川","zip_code":"0130033"},{"name":"朝日が丘","zip_code":"0130055"},{"name":"猪岡","zip_code":"0130065"},{"name":"梅の木町","zip_code":"0130068"},{"name":"駅前町","zip_code":"0130036"},{"name":"駅南","zip_code":"0130062"},{"name":"追廻","zip_code":"0130002"},{"name":"大沢","zip_code":"0130041"},{"name":"大鳥町","zip_code":"0130007"},{"name":"大町","zip_code":"0130021"},{"name":"大水戸町","zip_code":"0130026"},{"name":"大森町板井田","zip_code":"0130501"},{"name":"大森町牛ケ沢","zip_code":"0130546"},{"name":"大森町牛中島","zip_code":"0130511"},{"name":"大森町上溝","zip_code":"0130552"},{"name":"大森町大中島","zip_code":"0130514"},{"name":"大森町大森","zip_code":"0130521"},{"name":"大森町久保","zip_code":"0130532"},{"name":"大森町坂部","zip_code":"0130562"},{"name":"大森町佐渡","zip_code":"0130531"},{"name":"大森町猿田","zip_code":"0130551"},{"name":"大森町清水上","zip_code":"0130524"},{"name":"大森町真山","zip_code":"0130536"},{"name":"大森町菅生田","zip_code":"0130525"},{"name":"大森町高口下水戸堤","zip_code":"0130517"},{"name":"大森町高野中島","zip_code":"0130542"},{"name":"大森町長助巻","zip_code":"0130544"},{"name":"大森町峠町頭","zip_code":"0130534"},{"name":"大森町堂林","zip_code":"0130523"},{"name":"大森町十日町","zip_code":"0130503"},{"name":"大森町鯲沼","zip_code":"0130545"},{"name":"大森町中嶋","zip_code":"0130541"},{"name":"大森町中田","zip_code":"0130533"},{"name":"大森町西中島","zip_code":"0130515"},{"name":"大森町西野","zip_code":"0130526"},{"name":"大森町袴形","zip_code":"0130502"},{"name":"大森町東中島","zip_code":"0130516"},{"name":"大森町本郷","zip_code":"0130543"},{"name":"大森町町田","zip_code":"0130535"},{"name":"大森町町回","zip_code":"0130522"},{"name":"大森町持向","zip_code":"0130519"},{"name":"大森町文天鏡田","zip_code":"0130518"},{"name":"大森町八沢木","zip_code":"0130561"},{"name":"大森町湯ノ沢","zip_code":"0130512"},{"name":"大森町湯ノ島","zip_code":"0130513"},{"name":"大屋新町","zip_code":"0130051"},{"name":"大屋寺内","zip_code":"0130052"},{"name":"雄物川町会塚","zip_code":"0130201"},{"name":"雄物川町今宿","zip_code":"0130205"},{"name":"雄物川町薄井","zip_code":"0130481"},{"name":"雄物川町大沢","zip_code":"0130218"},{"name":"雄物川町柏木","zip_code":"0130214"},{"name":"雄物川町常野","zip_code":"0130215"},{"name":"雄物川町砂子田","zip_code":"0130202"},{"name":"雄物川町造山","zip_code":"0130212"},{"name":"雄物川町東里","zip_code":"0130203"},{"name":"雄物川町道地","zip_code":"0130217"},{"name":"雄物川町南形","zip_code":"0130213"},{"name":"雄物川町二井山","zip_code":"0130206"},{"name":"雄物川町西野","zip_code":"0130216"},{"name":"雄物川町沼館","zip_code":"0130208"},{"name":"雄物川町深井","zip_code":"0130211"},{"name":"雄物川町矢神","zip_code":"0130207"},{"name":"雄物川町谷地新田","zip_code":"0130204"},{"name":"卸町","zip_code":"0130072"},{"name":"鍛冶町","zip_code":"0130031"},{"name":"金沢","zip_code":"0130813"},{"name":"金沢中野","zip_code":"0130814"},{"name":"金沢本町","zip_code":"0130812"},{"name":"上内町","zip_code":"0130014"},{"name":"上境","zip_code":"0130821"},{"name":"上八丁","zip_code":"0130822"},{"name":"清川町","zip_code":"0130032"},{"name":"黒川","zip_code":"0130826"},{"name":"寿町","zip_code":"0130025"},{"name":"幸町","zip_code":"0130005"},{"name":"山内筏","zip_code":"0191107"},{"name":"山内大沢","zip_code":"0191109"},{"name":"山内大松川","zip_code":"0191101"},{"name":"山内黒沢","zip_code":"0191103"},{"name":"山内小松川","zip_code":"0191102"},{"name":"山内土渕","zip_code":"0191108"},{"name":"山内南郷","zip_code":"0191105"},{"name":"山内平野沢","zip_code":"0191106"},{"name":"山内三又","zip_code":"0191104"},{"name":"三本柳","zip_code":"0130074"},{"name":"三枚橋","zip_code":"0130069"},{"name":"静町","zip_code":"0130075"},{"name":"清水町新田","zip_code":"0130056"},{"name":"下境","zip_code":"0130824"},{"name":"下八丁","zip_code":"0130823"},{"name":"蛇の崎町","zip_code":"0130017"},{"name":"十文字町曙町","zip_code":"0190525"},{"name":"十文字町植田","zip_code":"0190513"},{"name":"十文字町腕越","zip_code":"0190501"},{"name":"十文字町越前","zip_code":"0190512"},{"name":"十文字町海道下","zip_code":"0190529"},{"name":"十文字町鼎","zip_code":"0190511"},{"name":"十文字町上佐吉開","zip_code":"0190531"},{"name":"十文字町上鍋倉","zip_code":"0190507"},{"name":"十文字町木下","zip_code":"0190517"},{"name":"十文字町源太左馬","zip_code":"0190516"},{"name":"十文字町佐賀会","zip_code":"0190506"},{"name":"十文字町栄町","zip_code":"0190528"},{"name":"十文字町下佐吉開","zip_code":"0190533"},{"name":"十文字町十五野新田","zip_code":"0190508"},{"name":"十文字町十文字","zip_code":"0190523"},{"name":"十文字町大道東","zip_code":"0190527"},{"name":"十文字町通町","zip_code":"0190526"},{"name":"十文字町梨木","zip_code":"0190509"},{"name":"十文字町仁井田","zip_code":"0190505"},{"name":"十文字町西上","zip_code":"0190522"},{"name":"十文字町西下","zip_code":"0190521"},{"name":"十文字町西原１番町","zip_code":"0190503"},{"name":"十文字町西原２番町","zip_code":"0190502"},{"name":"十文字町宝竜","zip_code":"0190518"},{"name":"十文字町麻当","zip_code":"0190532"},{"name":"十文字町睦合","zip_code":"0190514"},{"name":"十文字町本町","zip_code":"0190524"},{"name":"十文字町谷地新田","zip_code":"0190515"},{"name":"条里","zip_code":"0130060"},{"name":"城西町","zip_code":"0130011"},{"name":"城南町","zip_code":"0130013"},{"name":"城山町","zip_code":"0130012"},{"name":"新坂町","zip_code":"0130006"},{"name":"神明町","zip_code":"0130046"},{"name":"杉沢","zip_code":"0130001"},{"name":"杉目","zip_code":"0130076"},{"name":"外目","zip_code":"0130053"},{"name":"台所町","zip_code":"0130003"},{"name":"大雄赤沼","zip_code":"0130459"},{"name":"大雄阿久戸","zip_code":"0130447"},{"name":"大雄阿気","zip_code":"0130427"},{"name":"大雄新処","zip_code":"0130484"},{"name":"大雄石持","zip_code":"0130464"},{"name":"大雄石持下","zip_code":"0130465"},{"name":"大雄石持前","zip_code":"0130463"},{"name":"大雄板橋堰添","zip_code":"0130471"},{"name":"大雄一ノ関","zip_code":"0130353"},{"name":"大雄一ノ関東","zip_code":"0130352"},{"name":"大雄一ノ関南","zip_code":"0130356"},{"name":"大雄牛中島","zip_code":"0130431"},{"name":"大雄潤井谷地","zip_code":"0130316"},{"name":"大雄上堰東","zip_code":"0130382"},{"name":"大雄江原","zip_code":"0130421"},{"name":"大雄大関","zip_code":"0130452"},{"name":"大雄大戸川端","zip_code":"0130317"},{"name":"大雄大森道北","zip_code":"0130313"},{"name":"大雄大谷地","zip_code":"0130454"},{"name":"大雄大谷地西","zip_code":"0130455"},{"name":"大雄折橋","zip_code":"0130335"},{"name":"大雄折橋西","zip_code":"0130451"},{"name":"大雄折橋南","zip_code":"0130337"},{"name":"大雄鍛治村","zip_code":"0130365"},{"name":"大雄柏木","zip_code":"0130359"},{"name":"大雄柏木下","zip_code":"0130362"},{"name":"大雄柏木西","zip_code":"0130361"},{"name":"大雄柏木南","zip_code":"0130305"},{"name":"大雄上柏木","zip_code":"0130404"},{"name":"大雄上桜森","zip_code":"0130355"},{"name":"大雄上田村","zip_code":"0130351"},{"name":"大雄上田村西","zip_code":"0130349"},{"name":"大雄上田村東","zip_code":"0130326"},{"name":"大雄上田村南","zip_code":"0130372"},{"name":"大雄北四津屋","zip_code":"0130408"},{"name":"大雄狐塚","zip_code":"0130354"},{"name":"大雄木戸口","zip_code":"0130426"},{"name":"大雄木戸口下","zip_code":"0130438"},{"name":"大雄木戸口西","zip_code":"0130435"},{"name":"大雄傾城塚","zip_code":"0130314"},{"name":"大雄傾城塚南","zip_code":"0130336"},{"name":"大雄小林","zip_code":"0130437"},{"name":"大雄小林西","zip_code":"0130436"},{"name":"大雄根田谷地","zip_code":"0130324"},{"name":"大雄根田谷地西","zip_code":"0130321"},{"name":"大雄根田谷地東","zip_code":"0130323"},{"name":"大雄根田谷地南","zip_code":"0130318"},{"name":"大雄佐加里","zip_code":"0130308"},{"name":"大雄佐加里南","zip_code":"0130309"},{"name":"大雄桜森","zip_code":"0130474"},{"name":"大雄桜森西","zip_code":"0130363"},{"name":"大雄桜森東","zip_code":"0130477"},{"name":"大雄桜森前","zip_code":"0130475"},{"name":"大雄山王","zip_code":"0130434"},{"name":"大雄山王西","zip_code":"0130439"},{"name":"大雄下根田谷地","zip_code":"0130315"},{"name":"大雄島田","zip_code":"0130483"},{"name":"大雄下新処","zip_code":"0130485"},{"name":"大雄下田町","zip_code":"0130487"},{"name":"大雄新町","zip_code":"0130334"},{"name":"大雄新町北","zip_code":"0130302"},{"name":"大雄新町西","zip_code":"0130333"},{"name":"大雄新町西野添","zip_code":"0130332"},{"name":"大雄新町東","zip_code":"0130307"},{"name":"大雄新町南","zip_code":"0130304"},{"name":"大雄精兵西","zip_code":"0130344"},{"name":"大雄精兵村","zip_code":"0130342"},{"name":"大雄剰水","zip_code":"0130412"},{"name":"大雄剰水東","zip_code":"0130411"},{"name":"大雄大慈寺東","zip_code":"0130457"},{"name":"大雄大慈寺前","zip_code":"0130456"},{"name":"大雄大慈寺谷地","zip_code":"0130458"},{"name":"大雄高津野","zip_code":"0130443"},{"name":"大雄高津野下","zip_code":"0130442"},{"name":"大雄田根森","zip_code":"0130348"},{"name":"大雄田根森西","zip_code":"0130343"},{"name":"大雄田根森東","zip_code":"0130325"},{"name":"大雄田町","zip_code":"0130486"},{"name":"大雄田村","zip_code":"0130306"},{"name":"大雄鶴巻田","zip_code":"0130428"},{"name":"大雄伝蔵村","zip_code":"0130322"},{"name":"大雄土井尻","zip_code":"0130423"},{"name":"大雄樋脇","zip_code":"0130462"},{"name":"大雄中館合","zip_code":"0130424"},{"name":"大雄中野","zip_code":"0130312"},{"name":"大雄中野東","zip_code":"0130311"},{"name":"大雄中谷地","zip_code":"0130468"},{"name":"大雄西桜森","zip_code":"0130476"},{"name":"大雄西館合","zip_code":"0130425"},{"name":"大雄西中島","zip_code":"0130433"},{"name":"大雄西四津屋","zip_code":"0130406"},{"name":"大雄野中","zip_code":"0130441"},{"name":"大雄乗阿気","zip_code":"0130446"},{"name":"大雄乗阿気下","zip_code":"0130448"},{"name":"大雄東阿気","zip_code":"0130472"},{"name":"大雄東桜森","zip_code":"0130473"},{"name":"大雄東高津野","zip_code":"0130331"},{"name":"大雄東館合","zip_code":"0130488"},{"name":"大雄東中島","zip_code":"0130432"},{"name":"大雄東四津屋","zip_code":"0130409"},{"name":"大雄平柳","zip_code":"0130482"},{"name":"大雄福島","zip_code":"0130301"},{"name":"大雄福島南","zip_code":"0130303"},{"name":"大雄袋谷地","zip_code":"0130364"},{"name":"大雄藤巻","zip_code":"0130414"},{"name":"大雄藤巻中島","zip_code":"0130416"},{"name":"大雄藤巻西","zip_code":"0130415"},{"name":"大雄文蔵開","zip_code":"0130371"},{"name":"大雄本庄道北堰間","zip_code":"0130345"},{"name":"大雄本庄道南","zip_code":"0130347"},{"name":"大雄万貝","zip_code":"0130385"},{"name":"大雄南阿気","zip_code":"0130422"},{"name":"大雄南四津屋","zip_code":"0130405"},{"name":"大雄耳取","zip_code":"0130339"},{"name":"大雄耳取西","zip_code":"0130338"},{"name":"大雄三村","zip_code":"0130466"},{"name":"大雄三村北","zip_code":"0130453"},{"name":"大雄三村西","zip_code":"0130467"},{"name":"大雄三村東","zip_code":"0130461"},{"name":"大雄宮小路","zip_code":"0130429"},{"name":"大雄宮田","zip_code":"0130413"},{"name":"大雄向","zip_code":"0130358"},{"name":"大雄向田","zip_code":"0130445"},{"name":"大雄向田東","zip_code":"0130444"},{"name":"大雄向東","zip_code":"0130357"},{"name":"大雄八柏","zip_code":"0130402"},{"name":"大雄八柏家間","zip_code":"0130379"},{"name":"大雄八柏馬道添","zip_code":"0130376"},{"name":"大雄八柏街道添","zip_code":"0130378"},{"name":"大雄八柏釜蓋","zip_code":"0130375"},{"name":"大雄八柏下村","zip_code":"0130381"},{"name":"大雄八柏中村","zip_code":"0130377"},{"name":"大雄八柏中村東","zip_code":"0130374"},{"name":"大雄八柏村表","zip_code":"0130384"},{"name":"大雄八柏村西","zip_code":"0130383"},{"name":"大雄八柏谷地","zip_code":"0130373"},{"name":"大雄焼野","zip_code":"0130327"},{"name":"大雄四ッ屋","zip_code":"0130341"},{"name":"大雄四津屋下","zip_code":"0130407"},{"name":"大雄四ツ屋西","zip_code":"0130346"},{"name":"大雄四ツ屋東","zip_code":"0130319"},{"name":"大雄六町","zip_code":"0130419"},{"name":"大雄六町下","zip_code":"0130417"},{"name":"大雄六町東","zip_code":"0130418"},{"name":"田中町","zip_code":"0130024"},{"name":"中央町","zip_code":"0130023"},{"name":"塚堀","zip_code":"0130066"},{"name":"根岸町","zip_code":"0130016"},{"name":"羽黒町","zip_code":"0130015"},{"name":"百万刈","zip_code":"0130825"},{"name":"平鹿町浅舞","zip_code":"0130105"},{"name":"平鹿町上吉田","zip_code":"0130101"},{"name":"平鹿町下鍋倉","zip_code":"0130103"},{"name":"平鹿町下吉田","zip_code":"0130107"},{"name":"平鹿町醍醐","zip_code":"0130102"},{"name":"平鹿町樽見内","zip_code":"0130104"},{"name":"平鹿町中吉田","zip_code":"0130106"},{"name":"平城町","zip_code":"0130027"},{"name":"婦気大堤","zip_code":"0130063"},{"name":"二葉町","zip_code":"0130019"},{"name":"平和町","zip_code":"0130035"},{"name":"本郷町","zip_code":"0130034"},{"name":"前郷","zip_code":"0130042"},{"name":"前郷一番町","zip_code":"0130038"},{"name":"前郷二番町","zip_code":"0130037"},{"name":"増田町荻袋","zip_code":"0190711"},{"name":"増田町亀田","zip_code":"0190702"},{"name":"増田町熊渕","zip_code":"0190712"},{"name":"増田町狙半内","zip_code":"0190705"},{"name":"増田町戸波","zip_code":"0190714"},{"name":"増田町増田","zip_code":"0190701"},{"name":"増田町三又","zip_code":"0190713"},{"name":"増田町八木","zip_code":"0190715"},{"name":"増田町湯野沢","zip_code":"0190704"},{"name":"増田町吉野","zip_code":"0190703"},{"name":"松原町","zip_code":"0130047"},{"name":"南町","zip_code":"0130045"},{"name":"明永町","zip_code":"0130004"},{"name":"睦成","zip_code":"0130008"},{"name":"本町","zip_code":"0130018"},{"name":"安田","zip_code":"0130043"},{"name":"安田原町","zip_code":"0130048"},{"name":"安本","zip_code":"0130811"},{"name":"柳田","zip_code":"0130054"},{"name":"八幡","zip_code":"0130071"},{"name":"横手町","zip_code":"0130061"},{"name":"横山町","zip_code":"0130044"},{"name":"四日町","zip_code":"0130022"}]},{"name":"大館市","divisions":[{"name":"相染沢中岱","zip_code":"0170806"},{"name":"青葉町","zip_code":"0170831"},{"name":"赤石","zip_code":"0170854"},{"name":"赤館","zip_code":"0170816"},{"name":"赤館町","zip_code":"0170814"},{"name":"商人留","zip_code":"0170011"},{"name":"芦田子","zip_code":"0170025"},{"name":"東","zip_code":"0170023"},{"name":"有浦","zip_code":"0170043"},{"name":"池内","zip_code":"0170836"},{"name":"池内道上","zip_code":"0170834"},{"name":"池内道下","zip_code":"0170832"},{"name":"泉町","zip_code":"0170845"},{"name":"板子石境","zip_code":"0170053"},{"name":"板沢","zip_code":"0170853"},{"name":"一心院南","zip_code":"0170825"},{"name":"一本杉","zip_code":"0170801"},{"name":"出川","zip_code":"0170857"},{"name":"岩瀬","zip_code":"0183501"},{"name":"裏町","zip_code":"0170894"},{"name":"上町","zip_code":"0170817"},{"name":"餌釣","zip_code":"0170837"},{"name":"扇田道下","zip_code":"0170805"},{"name":"大茂内","zip_code":"0170024"},{"name":"大子内","zip_code":"0185754"},{"name":"大田面","zip_code":"0170041"},{"name":"大館","zip_code":"0170896"},{"name":"大披","zip_code":"0170851"},{"name":"大町","zip_code":"0170841"},{"name":"御成町","zip_code":"0170044"},{"name":"粕田","zip_code":"0170004"},{"name":"片町","zip_code":"0170892"},{"name":"片山","zip_code":"0170871"},{"name":"片山町","zip_code":"0170872"},{"name":"金坂","zip_code":"0170812"},{"name":"金坂後","zip_code":"0170813"},{"name":"上代野","zip_code":"0170031"},{"name":"柄沢","zip_code":"0170804"},{"name":"軽井沢","zip_code":"0185604"},{"name":"川口","zip_code":"0170878"},{"name":"観音堂","zip_code":"0170042"},{"name":"北神明町","zip_code":"0170866"},{"name":"葛原","zip_code":"0185606"},{"name":"桂城","zip_code":"0170893"},{"name":"小釈迦内道上","zip_code":"0170014"},{"name":"小釈迦内道下","zip_code":"0170015"},{"name":"小館町","zip_code":"0170861"},{"name":"小館花","zip_code":"0170835"},{"name":"小袴","zip_code":"0170852"},{"name":"幸町","zip_code":"0170847"},{"name":"桜町","zip_code":"0170821"},{"name":"桜町南","zip_code":"0170822"},{"name":"猿間","zip_code":"0185605"},{"name":"三ノ丸","zip_code":"0170897"},{"name":"茂内","zip_code":"0170022"},{"name":"下川原","zip_code":"0185756"},{"name":"清水","zip_code":"0170046"},{"name":"清水堰合","zip_code":"0170037"},{"name":"下代野","zip_code":"0170034"},{"name":"下綱","zip_code":"0170033"},{"name":"釈迦内","zip_code":"0170012"},{"name":"十二所","zip_code":"0185601"},{"name":"城西町","zip_code":"0170865"},{"name":"白沢","zip_code":"0170002"},{"name":"新町","zip_code":"0170844"},{"name":"水門町","zip_code":"0170887"},{"name":"水門前","zip_code":"0170888"},{"name":"杉沢","zip_code":"0185755"},{"name":"住吉町","zip_code":"0170875"},{"name":"象ケ鼻","zip_code":"0170833"},{"name":"外川原","zip_code":"0183503"},{"name":"代野","zip_code":"0170035"},{"name":"館下","zip_code":"0170886"},{"name":"立花","zip_code":"0170877"},{"name":"鉄砲場","zip_code":"0170882"},{"name":"道目木","zip_code":"0185602"},{"name":"常盤木町","zip_code":"0170846"},{"name":"土飛山下","zip_code":"0170884"},{"name":"中神明町","zip_code":"0170867"},{"name":"中城","zip_code":"0170891"},{"name":"中町","zip_code":"0170843"},{"name":"中道","zip_code":"0170045"},{"name":"中山","zip_code":"0170839"},{"name":"長木川南","zip_code":"0170881"},{"name":"長倉","zip_code":"0170895"},{"name":"長坂","zip_code":"0183504"},{"name":"長根山下","zip_code":"0170802"},{"name":"長走","zip_code":"0170001"},{"name":"七曲岱","zip_code":"0170824"},{"name":"二井田","zip_code":"0185751"},{"name":"新綱","zip_code":"0170032"},{"name":"二本杉後","zip_code":"0170036"},{"name":"沼館道上","zip_code":"0170055"},{"name":"沼館道南","zip_code":"0170056"},{"name":"沼館","zip_code":"0170057"},{"name":"根下戸","zip_code":"0170862"},{"name":"根下戸新町","zip_code":"0170864"},{"name":"根下戸町","zip_code":"0170863"},{"name":"馬喰町","zip_code":"0170842"},{"name":"橋桁","zip_code":"0170003"},{"name":"八幡","zip_code":"0170811"},{"name":"八幡沢岱","zip_code":"0170823"},{"name":"花岡町","zip_code":"0170005"},{"name":"早口","zip_code":"0183505"},{"name":"東台","zip_code":"0170803"},{"name":"櫃崎","zip_code":"0170855"},{"name":"比内前田","zip_code":"0185753"},{"name":"比内町扇田","zip_code":"0185701"},{"name":"比内町大葛","zip_code":"0185851"},{"name":"比内町小坪沢","zip_code":"0185743"},{"name":"比内町片貝","zip_code":"0185745"},{"name":"比内町笹館","zip_code":"0185731"},{"name":"比内町白沢水沢","zip_code":"0185742"},{"name":"比内町達子","zip_code":"0185741"},{"name":"比内町独鈷","zip_code":"0185721"},{"name":"比内町中野","zip_code":"0185722"},{"name":"比内町新館","zip_code":"0185712"},{"name":"比内町味噌内","zip_code":"0185711"},{"name":"比内町八木橋","zip_code":"0185744"},{"name":"比内町谷地中","zip_code":"0185732"},{"name":"二ツ屋境","zip_code":"0170026"},{"name":"古川町","zip_code":"0170883"},{"name":"部垂町","zip_code":"0170815"},{"name":"曲田","zip_code":"0185603"},{"name":"松木","zip_code":"0170052"},{"name":"松館","zip_code":"0170054"},{"name":"松峰","zip_code":"0170051"},{"name":"御坂","zip_code":"0170873"},{"name":"美園町","zip_code":"0170874"},{"name":"南神明町","zip_code":"0170868"},{"name":"向町","zip_code":"0170828"},{"name":"餅田","zip_code":"0170876"},{"name":"本宮","zip_code":"0185752"},{"name":"谷地町","zip_code":"0170827"},{"name":"谷地町後","zip_code":"0170826"},{"name":"山瀬","zip_code":"0183506"},{"name":"山田","zip_code":"0183502"},{"name":"山館","zip_code":"0170838"},{"name":"雪沢","zip_code":"0170021"},{"name":"豊町","zip_code":"0170885"}]},{"name":"男鹿市","divisions":[{"name":"五里合神谷","zip_code":"0100353"},{"name":"五里合琴川","zip_code":"0100352"},{"name":"五里合鮪川","zip_code":"0100355"},{"name":"五里合中石","zip_code":"0100354"},{"name":"五里合箱井","zip_code":"0100351"},{"name":"鵜木","zip_code":"0100421"},{"name":"男鹿中国有地内","zip_code":"0100664"},{"name":"男鹿中滝川","zip_code":"0100663"},{"name":"男鹿中中間口","zip_code":"0100662"},{"name":"男鹿中浜間口","zip_code":"0100661"},{"name":"男鹿中山町","zip_code":"0100665"},{"name":"角間崎","zip_code":"0100422"},{"name":"北浦相川","zip_code":"0100681"},{"name":"北浦安全寺","zip_code":"0100684"},{"name":"北浦表町","zip_code":"0100682"},{"name":"北浦北浦","zip_code":"0100683"},{"name":"北浦真山","zip_code":"0100685"},{"name":"北浦西黒沢","zip_code":"0100676"},{"name":"北浦西水口","zip_code":"0100686"},{"name":"北浦入道崎","zip_code":"0100675"},{"name":"北浦野村","zip_code":"0100688"},{"name":"北浦湯本","zip_code":"0100687"},{"name":"戸賀加茂青砂","zip_code":"0100671"},{"name":"戸賀塩浜","zip_code":"0100673"},{"name":"戸賀戸賀","zip_code":"0100674"},{"name":"戸賀浜塩谷","zip_code":"0100672"},{"name":"野石","zip_code":"0100401"},{"name":"福川","zip_code":"0100423"},{"name":"福米沢","zip_code":"0100411"},{"name":"払戸","zip_code":"0100431"},{"name":"船川港女川","zip_code":"0100523"},{"name":"船川港金川","zip_code":"0100503"},{"name":"船川港小浜","zip_code":"0100534"},{"name":"船川港双六","zip_code":"0100533"},{"name":"船川港台島","zip_code":"0100531"},{"name":"船川港椿","zip_code":"0100532"},{"name":"船川港仁井山","zip_code":"0100501"},{"name":"船川港比詰","zip_code":"0100502"},{"name":"船川港船川","zip_code":"0100511"},{"name":"船川港本山門前","zip_code":"0100535"},{"name":"船川港増川","zip_code":"0100522"},{"name":"船川港南平沢","zip_code":"0100521"},{"name":"船越","zip_code":"0100341"},{"name":"本内","zip_code":"0100412"},{"name":"松木沢","zip_code":"0100413"},{"name":"脇本浦田","zip_code":"0100345"},{"name":"脇本田谷沢","zip_code":"0100343"},{"name":"脇本樽沢","zip_code":"0100346"},{"name":"脇本富永","zip_code":"0100344"},{"name":"脇本百川","zip_code":"0100347"},{"name":"脇本脇本","zip_code":"0100342"}]},{"name":"湯沢市","divisions":[{"name":"相川","zip_code":"0190402"},{"name":"赤土","zip_code":"0120024"},{"name":"秋ノ宮","zip_code":"0190321"},{"name":"愛宕町","zip_code":"0120855"},{"name":"小豆田","zip_code":"0120042"},{"name":"荒町","zip_code":"0120852"},{"name":"石塚","zip_code":"0120062"},{"name":"泉沢","zip_code":"0190201"},{"name":"稲庭町","zip_code":"0120107"},{"name":"祝田","zip_code":"0120022"},{"name":"岩崎","zip_code":"0120801"},{"name":"岩ノ沢山","zip_code":"0120834"},{"name":"院内銀山町","zip_code":"0190113"},{"name":"内舘町","zip_code":"0120842"},{"name":"内町","zip_code":"0120843"},{"name":"裏門","zip_code":"0120824"},{"name":"宇留院内","zip_code":"0190403"},{"name":"大倉谷地","zip_code":"0120014"},{"name":"大島","zip_code":"0120026"},{"name":"大町","zip_code":"0120841"},{"name":"大森","zip_code":"0120012"},{"name":"岡田町","zip_code":"0120045"},{"name":"雄勝田","zip_code":"0120057"},{"name":"御囲地町","zip_code":"0120856"},{"name":"沖田","zip_code":"0120023"},{"name":"沖鶴","zip_code":"0120037"},{"name":"小野","zip_code":"0190205"},{"name":"表町","zip_code":"0120827"},{"name":"角間","zip_code":"0120001"},{"name":"角間沢","zip_code":"0120831"},{"name":"カツクイ沢山","zip_code":"0120833"},{"name":"金谷","zip_code":"0120005"},{"name":"鉦打沢","zip_code":"0120835"},{"name":"金堀沢山","zip_code":"0120836"},{"name":"上院内","zip_code":"0190111"},{"name":"上関","zip_code":"0120864"},{"name":"上二井田","zip_code":"0120003"},{"name":"川連町","zip_code":"0120105"},{"name":"北荒町","zip_code":"0120825"},{"name":"倉内","zip_code":"0120015"},{"name":"桑崎","zip_code":"0190202"},{"name":"黄金原","zip_code":"0120021"},{"name":"駒形町","zip_code":"0120104"},{"name":"材木町","zip_code":"0120845"},{"name":"幸町","zip_code":"0120035"},{"name":"栄田","zip_code":"0120013"},{"name":"酒蒔","zip_code":"0190401"},{"name":"桜通り","zip_code":"0120811"},{"name":"佐竹町","zip_code":"0120824"},{"name":"清水町","zip_code":"0120033"},{"name":"下院内","zip_code":"0190112"},{"name":"下関","zip_code":"0120863"},{"name":"下中川原","zip_code":"0120052"},{"name":"下二井田","zip_code":"0120002"},{"name":"下山谷","zip_code":"0120822"},{"name":"新町","zip_code":"0120853"},{"name":"杉沢","zip_code":"0120804"},{"name":"杉沢新所","zip_code":"0120803"},{"name":"関口","zip_code":"0120862"},{"name":"千刈","zip_code":"0120016"},{"name":"千石町","zip_code":"0120857"},{"name":"大工町","zip_code":"0120814"},{"name":"高前","zip_code":"0120008"},{"name":"高松","zip_code":"0190404"},{"name":"田町","zip_code":"0120844"},{"name":"鶴館","zip_code":"0120031"},{"name":"寺沢","zip_code":"0190203"},{"name":"鳶ケ沢山","zip_code":"0120854"},{"name":"中川原","zip_code":"0120053"},{"name":"中野","zip_code":"0120041"},{"name":"中野々目","zip_code":"0120044"},{"name":"成沢","zip_code":"0120802"},{"name":"二井田","zip_code":"0120004"},{"name":"西愛宕町","zip_code":"0120868"},{"name":"西金堀沢山","zip_code":"0120837"},{"name":"西新町","zip_code":"0120034"},{"name":"西中川原","zip_code":"0120054"},{"name":"西松沢","zip_code":"0120866"},{"name":"沼樋","zip_code":"0120865"},{"name":"東赤土山","zip_code":"0120812"},{"name":"東松沢","zip_code":"0120861"},{"name":"広沢山","zip_code":"0120832"},{"name":"深堀","zip_code":"0120051"},{"name":"藤花","zip_code":"0120056"},{"name":"富士見","zip_code":"0120017"},{"name":"吹張","zip_code":"0120851"},{"name":"古館","zip_code":"0120815"},{"name":"蛇野","zip_code":"0120838"},{"name":"前島","zip_code":"0120025"},{"name":"前森","zip_code":"0120813"},{"name":"松岡","zip_code":"0120061"},{"name":"万石","zip_code":"0120043"},{"name":"三梨町","zip_code":"0120106"},{"name":"皆瀬","zip_code":"0190481"},{"name":"南台","zip_code":"0120867"},{"name":"元清水","zip_code":"0120032"},{"name":"森","zip_code":"0120011"},{"name":"柳田","zip_code":"0120006"},{"name":"柳町","zip_code":"0120826"},{"name":"山田","zip_code":"0120055"},{"name":"山谷","zip_code":"0120821"},{"name":"八幡","zip_code":"0120007"},{"name":"湯ノ上山","zip_code":"0120823"},{"name":"湯ノ原","zip_code":"0120823"},{"name":"横堀","zip_code":"0190204"},{"name":"両神","zip_code":"0120036"},{"name":"若葉町","zip_code":"0120869"}]},{"name":"鹿角市","divisions":[{"name":"尾去沢","zip_code":"0185202"},{"name":"十和田上向","zip_code":"0185332"},{"name":"十和田大湯","zip_code":"0185421"},{"name":"十和田岡田","zip_code":"0185333"},{"name":"十和田草木","zip_code":"0185422"},{"name":"十和田毛馬内","zip_code":"0185334"},{"name":"十和田末広","zip_code":"0185337"},{"name":"十和田瀬田石","zip_code":"0185335"},{"name":"十和田錦木","zip_code":"0185336"},{"name":"十和田山根","zip_code":"0185331"},{"name":"八幡平","zip_code":"0185141"},{"name":"花輪","zip_code":"0185201"}]},{"name":"由利本荘市","divisions":[{"name":"赤田","zip_code":"0150023"},{"name":"赤沼下","zip_code":"0150836"},{"name":"赤沼下道","zip_code":"0150079"},{"name":"赤沼町","zip_code":"0150071"},{"name":"芦川","zip_code":"0150034"},{"name":"油小路","zip_code":"0150805"},{"name":"鮎瀬","zip_code":"0150084"},{"name":"荒町","zip_code":"0150065"},{"name":"蟻山","zip_code":"0150892"},{"name":"飯沢","zip_code":"0150301"},{"name":"五十土","zip_code":"0150311"},{"name":"石脇","zip_code":"0150012"},{"name":"和泉町","zip_code":"0150823"},{"name":"一番堰","zip_code":"0150852"},{"name":"井戸尻","zip_code":"0150876"},{"name":"岩城赤平","zip_code":"0181215"},{"name":"岩城泉田","zip_code":"0181213"},{"name":"岩城内道川","zip_code":"0181301"},{"name":"岩城勝手","zip_code":"0181302"},{"name":"岩城上黒川","zip_code":"0181225"},{"name":"岩城上蛇田","zip_code":"0181222"},{"name":"岩城亀田愛宕町","zip_code":"0181216"},{"name":"岩城亀田大町","zip_code":"0181218"},{"name":"岩城亀田亀田町","zip_code":"0181217"},{"name":"岩城亀田最上町","zip_code":"0181221"},{"name":"岩城君ケ野","zip_code":"0181303"},{"name":"岩城下黒川","zip_code":"0181226"},{"name":"岩城下蛇田","zip_code":"0181223"},{"name":"岩城滝俣","zip_code":"0181211"},{"name":"岩城富田","zip_code":"0181214"},{"name":"岩城福俣","zip_code":"0181212"},{"name":"岩城二古","zip_code":"0181305"},{"name":"岩城道川","zip_code":"0181304"},{"name":"岩城六呂田","zip_code":"0181224"},{"name":"岩野目沢","zip_code":"0180904"},{"name":"岩渕下","zip_code":"0150834"},{"name":"岩谷麓","zip_code":"0180726"},{"name":"岩谷町","zip_code":"0180711"},{"name":"牛寺","zip_code":"0180723"},{"name":"後町","zip_code":"0150814"},{"name":"内黒瀬","zip_code":"0150022"},{"name":"内越","zip_code":"0150024"},{"name":"埋田","zip_code":"0150042"},{"name":"裏尾崎町","zip_code":"0150072"},{"name":"上野","zip_code":"0150094"},{"name":"円正脇","zip_code":"0150856"},{"name":"大内三川","zip_code":"0180731"},{"name":"大倉沢","zip_code":"0180733"},{"name":"大鍬町","zip_code":"0150864"},{"name":"大沢","zip_code":"0150093"},{"name":"大谷","zip_code":"0180721"},{"name":"大堤下","zip_code":"0150868"},{"name":"大中ノ沢","zip_code":"0150062"},{"name":"大町","zip_code":"0150816"},{"name":"大水口","zip_code":"0150312"},{"name":"大簗","zip_code":"0150091"},{"name":"大浦","zip_code":"0150021"},{"name":"桶屋町","zip_code":"0150811"},{"name":"尾崎","zip_code":"0150871"},{"name":"表尾崎町","zip_code":"0150802"},{"name":"親川","zip_code":"0150035"},{"name":"加賀沢","zip_code":"0180841"},{"name":"鍛治町","zip_code":"0150812"},{"name":"片町","zip_code":"0150826"},{"name":"蟹沢","zip_code":"0150321"},{"name":"金山","zip_code":"0150066"},{"name":"上大野","zip_code":"0150854"},{"name":"上横町","zip_code":"0150806"},{"name":"烏川","zip_code":"0150085"},{"name":"川口","zip_code":"0150051"},{"name":"川西","zip_code":"0150331"},{"name":"瓦谷地","zip_code":"0150872"},{"name":"観音町","zip_code":"0150825"},{"name":"観音森","zip_code":"0150878"},{"name":"北裏地","zip_code":"0150831"},{"name":"北ノ股","zip_code":"0150069"},{"name":"北福田","zip_code":"0180734"},{"name":"狐森","zip_code":"0150884"},{"name":"給人町","zip_code":"0150874"},{"name":"切通","zip_code":"0150881"},{"name":"葛岡","zip_code":"0180852"},{"name":"葛法","zip_code":"0150045"},{"name":"久保田","zip_code":"0150302"},{"name":"黒沢","zip_code":"0150361"},{"name":"下地ケ沢","zip_code":"0150883"},{"name":"小栗山","zip_code":"0180903"},{"name":"小菅野","zip_code":"0150313"},{"name":"小人町","zip_code":"0150862"},{"name":"小防ケ沢","zip_code":"0150891"},{"name":"御門","zip_code":"0150861"},{"name":"今野谷地","zip_code":"0150887"},{"name":"肴町","zip_code":"0150821"},{"name":"坂部","zip_code":"0180907"},{"name":"桜小路","zip_code":"0150074"},{"name":"笹道","zip_code":"0150073"},{"name":"砂糖畑","zip_code":"0150889"},{"name":"三条","zip_code":"0150067"},{"name":"下大野","zip_code":"0150841"},{"name":"下川原中島","zip_code":"0150832"},{"name":"新上条","zip_code":"0150322"},{"name":"陳ケ森","zip_code":"0150303"},{"name":"新組町","zip_code":"0150888"},{"name":"新沢","zip_code":"0180842"},{"name":"新田","zip_code":"0180902"},{"name":"神沢","zip_code":"0150033"},{"name":"陣場岱","zip_code":"0150869"},{"name":"巣組","zip_code":"0150833"},{"name":"砂子下","zip_code":"0150875"},{"name":"堰口","zip_code":"0150351"},{"name":"瀬越場","zip_code":"0150840"},{"name":"千刈","zip_code":"0150867"},{"name":"雪車町","zip_code":"0150081"},{"name":"高尾","zip_code":"0180844"},{"name":"滝","zip_code":"0180905"},{"name":"滝ノ沢","zip_code":"0150083"},{"name":"舘","zip_code":"0150086"},{"name":"舘前","zip_code":"0150063"},{"name":"谷山小路","zip_code":"0150804"},{"name":"田町","zip_code":"0150822"},{"name":"玉ノ池","zip_code":"0150044"},{"name":"鳥海町上川内","zip_code":"0150504"},{"name":"鳥海町上笹子","zip_code":"0150721"},{"name":"鳥海町上直根","zip_code":"0150515"},{"name":"鳥海町栗沢","zip_code":"0150503"},{"name":"鳥海町小川","zip_code":"0150505"},{"name":"鳥海町戈之神","zip_code":"0150511"},{"name":"鳥海町猿倉","zip_code":"0150512"},{"name":"鳥海町下川内","zip_code":"0150502"},{"name":"鳥海町下笹子","zip_code":"0150722"},{"name":"鳥海町下直根","zip_code":"0150513"},{"name":"鳥海町中直根","zip_code":"0150514"},{"name":"鳥海町伏見","zip_code":"0150501"},{"name":"鳥海町百宅","zip_code":"0150516"},{"name":"調練場","zip_code":"0150886"},{"name":"土倉","zip_code":"0150323"},{"name":"土谷","zip_code":"0150054"},{"name":"堤脇","zip_code":"0150866"},{"name":"鶴沼","zip_code":"0150873"},{"name":"出戸上野","zip_code":"0150842"},{"name":"出戸町","zip_code":"0150837"},{"name":"寺後","zip_code":"0150857"},{"name":"徳沢","zip_code":"0180732"},{"name":"二十六木","zip_code":"0150061"},{"name":"鳥田目","zip_code":"0150089"},{"name":"長坂","zip_code":"0180853"},{"name":"中田代","zip_code":"0180901"},{"name":"中館","zip_code":"0180722"},{"name":"中竪町","zip_code":"0150803"},{"name":"中帳","zip_code":"0180843"},{"name":"中俣","zip_code":"0180845"},{"name":"中梵天","zip_code":"0150851"},{"name":"中町","zip_code":"0150817"},{"name":"中横町","zip_code":"0150807"},{"name":"西大鍬町","zip_code":"0150865"},{"name":"西小人町","zip_code":"0150882"},{"name":"西沢","zip_code":"0150352"},{"name":"西梵天","zip_code":"0150858"},{"name":"西目町海士剥","zip_code":"0180601"},{"name":"西目町出戸","zip_code":"0180602"},{"name":"西目町西目","zip_code":"0180603"},{"name":"西目町沼田","zip_code":"0180604"},{"name":"二番堰","zip_code":"0150855"},{"name":"濡浜北","zip_code":"0150877"},{"name":"及位","zip_code":"0180854"},{"name":"畑谷","zip_code":"0150052"},{"name":"八幡下","zip_code":"0150835"},{"name":"花畑町","zip_code":"0150075"},{"name":"羽広","zip_code":"0180906"},{"name":"浜三川","zip_code":"0150031"},{"name":"浜ノ町","zip_code":"0150827"},{"name":"東鮎川","zip_code":"0150362"},{"name":"東中沢","zip_code":"0150314"},{"name":"東梵天","zip_code":"0150843"},{"name":"東町","zip_code":"0150076"},{"name":"東由利老方","zip_code":"0150211"},{"name":"東由利蔵","zip_code":"0150202"},{"name":"東由利黒渕","zip_code":"0150231"},{"name":"東由利宿","zip_code":"0150241"},{"name":"東由利杉森","zip_code":"0150242"},{"name":"東由利田代","zip_code":"0150232"},{"name":"東由利舘合","zip_code":"0150221"},{"name":"東由利法内","zip_code":"0150201"},{"name":"日役町","zip_code":"0150813"},{"name":"平石","zip_code":"0150353"},{"name":"平岫","zip_code":"0180851"},{"name":"深沢","zip_code":"0180724"},{"name":"福山","zip_code":"0150053"},{"name":"藤崎","zip_code":"0150047"},{"name":"船岡","zip_code":"0150046"},{"name":"船ケ台","zip_code":"0150890"},{"name":"不戻沢","zip_code":"0150863"},{"name":"古川端","zip_code":"0150839"},{"name":"古雪町","zip_code":"0150824"},{"name":"本田仲町","zip_code":"0150077"},{"name":"梵天谷地","zip_code":"0150838"},{"name":"前郷","zip_code":"0150341"},{"name":"曲沢","zip_code":"0150304"},{"name":"町村","zip_code":"0150363"},{"name":"松街道","zip_code":"0150853"},{"name":"松ケ崎","zip_code":"0150032"},{"name":"松本","zip_code":"0180855"},{"name":"万願寺","zip_code":"0150064"},{"name":"美倉町","zip_code":"0150801"},{"name":"水林","zip_code":"0150885"},{"name":"南ノ股","zip_code":"0150068"},{"name":"南福田","zip_code":"0150364"},{"name":"宮内","zip_code":"0150043"},{"name":"宮沢","zip_code":"0150082"},{"name":"森子","zip_code":"0150332"},{"name":"柳生","zip_code":"0150088"},{"name":"薬師堂","zip_code":"0150041"},{"name":"矢島町荒沢","zip_code":"0150418"},{"name":"矢島町川辺","zip_code":"0150412"},{"name":"矢島町木在","zip_code":"0150413"},{"name":"矢島町坂之下","zip_code":"0150416"},{"name":"矢島町城内","zip_code":"0150411"},{"name":"矢島町新荘","zip_code":"0150415"},{"name":"矢島町立石","zip_code":"0150414"},{"name":"矢島町舘町","zip_code":"0150403"},{"name":"矢島町田中町","zip_code":"0150401"},{"name":"矢島町七日町","zip_code":"0150404"},{"name":"矢島町元町","zip_code":"0150417"},{"name":"矢島町矢島町","zip_code":"0150402"},{"name":"谷地町","zip_code":"0150078"},{"name":"山内","zip_code":"0150243"},{"name":"山田","zip_code":"0150025"},{"name":"山本","zip_code":"0150333"},{"name":"湯沢","zip_code":"0150087"},{"name":"吉沢","zip_code":"0150324"},{"name":"米坂","zip_code":"0180725"},{"name":"猟師町","zip_code":"0150815"}]},{"name":"潟上市","divisions":[{"name":"飯田川飯塚","zip_code":"0181504"},{"name":"飯田川金山","zip_code":"0181501"},{"name":"飯田川下虻川","zip_code":"0181502"},{"name":"飯田川和田妹川","zip_code":"0181503"},{"name":"昭和大久保","zip_code":"0181401"},{"name":"昭和豊川岡井戸","zip_code":"0181412"},{"name":"昭和豊川上虻川","zip_code":"0181411"},{"name":"昭和豊川槻木","zip_code":"0181414"},{"name":"昭和豊川船橋","zip_code":"0181413"},{"name":"昭和豊川山田","zip_code":"0181416"},{"name":"昭和豊川竜毛","zip_code":"0181415"},{"name":"昭和八丁目","zip_code":"0181403"},{"name":"昭和乱橋","zip_code":"0181402"},{"name":"天王大崎","zip_code":"0100202"},{"name":"天王","zip_code":"0100101"}]},{"name":"大仙市","divisions":[{"name":"朝日町","zip_code":"0140013"},{"name":"飯田","zip_code":"0140067"},{"name":"泉町","zip_code":"0140004"},{"name":"板見内","zip_code":"0140112"},{"name":"内小友","zip_code":"0140073"},{"name":"円行寺","zip_code":"0192201"},{"name":"大神成","zip_code":"0140714"},{"name":"大沢郷宿","zip_code":"0192202"},{"name":"大沢郷寺","zip_code":"0192103"},{"name":"太田町永代","zip_code":"0191616"},{"name":"太田町太田","zip_code":"0191613"},{"name":"太田町川口","zip_code":"0191615"},{"name":"太田町国見","zip_code":"0191605"},{"name":"太田町小神成","zip_code":"0191612"},{"name":"太田町駒場","zip_code":"0191604"},{"name":"太田町斉内","zip_code":"0191611"},{"name":"太田町三本扇","zip_code":"0191602"},{"name":"太田町中里","zip_code":"0191603"},{"name":"太田町東今泉","zip_code":"0191614"},{"name":"太田町横沢","zip_code":"0191601"},{"name":"大花町","zip_code":"0140022"},{"name":"大曲","zip_code":"0140031"},{"name":"大曲あけぼの町","zip_code":"0140055"},{"name":"大曲飯田町","zip_code":"0140068"},{"name":"大曲大町","zip_code":"0140025"},{"name":"大曲金谷町","zip_code":"0140054"},{"name":"大曲上大町","zip_code":"0140048"},{"name":"大曲上栄町","zip_code":"0140062"},{"name":"大曲川原町","zip_code":"0140052"},{"name":"大曲黒瀬町","zip_code":"0140023"},{"name":"大曲栄町","zip_code":"0140061"},{"name":"大曲白金町","zip_code":"0140015"},{"name":"大曲住吉町","zip_code":"0140034"},{"name":"大曲須和町","zip_code":"0140047"},{"name":"大曲田町","zip_code":"0140046"},{"name":"大曲通町","zip_code":"0140027"},{"name":"大曲戸巻町","zip_code":"0140043"},{"name":"大曲中通町","zip_code":"0140024"},{"name":"大曲花園町","zip_code":"0140053"},{"name":"大曲浜町","zip_code":"0140051"},{"name":"大曲日の出町","zip_code":"0140063"},{"name":"大曲福住町","zip_code":"0140014"},{"name":"大曲福見町","zip_code":"0140042"},{"name":"大曲船場町","zip_code":"0140057"},{"name":"大曲丸子町","zip_code":"0140041"},{"name":"大曲丸の内町","zip_code":"0140026"},{"name":"大曲緑町","zip_code":"0140056"},{"name":"大曲若葉町","zip_code":"0140045"},{"name":"大曲西根","zip_code":"0140072"},{"name":"大巻","zip_code":"0192331"},{"name":"小貫高畑","zip_code":"0140064"},{"name":"角間川町","zip_code":"0141413"},{"name":"金山沢","zip_code":"0192333"},{"name":"上鶯野","zip_code":"0140202"},{"name":"刈和野","zip_code":"0192112"},{"name":"川目","zip_code":"0140066"},{"name":"北長野","zip_code":"0140203"},{"name":"北楢岡","zip_code":"0191702"},{"name":"北野目","zip_code":"0192121"},{"name":"木原田","zip_code":"0192334"},{"name":"協和荒川","zip_code":"0192412"},{"name":"協和稲沢","zip_code":"0192521"},{"name":"協和上淀川","zip_code":"0192413"},{"name":"協和小種","zip_code":"0192441"},{"name":"協和境","zip_code":"0192411"},{"name":"協和下淀川","zip_code":"0192442"},{"name":"協和中淀川","zip_code":"0192443"},{"name":"協和船岡","zip_code":"0192401"},{"name":"協和船沢","zip_code":"0192402"},{"name":"協和峰吉川","zip_code":"0192431"},{"name":"九升田","zip_code":"0192332"},{"name":"栗沢","zip_code":"0140713"},{"name":"上野田","zip_code":"0140803"},{"name":"強首","zip_code":"0192335"},{"name":"幸町","zip_code":"0140012"},{"name":"佐野町","zip_code":"0140017"},{"name":"清水","zip_code":"0140204"},{"name":"下鶯野","zip_code":"0140201"},{"name":"下深井","zip_code":"0140065"},{"name":"正手沢","zip_code":"0192204"},{"name":"神宮寺","zip_code":"0191701"},{"name":"杉山田","zip_code":"0192205"},{"name":"高城","zip_code":"0192122"},{"name":"高関上郷","zip_code":"0140103"},{"name":"高梨","zip_code":"0140805"},{"name":"土川","zip_code":"0192111"},{"name":"寺館","zip_code":"0192123"},{"name":"戸地谷","zip_code":"0140801"},{"name":"戸蒔","zip_code":"0140044"},{"name":"豊岡","zip_code":"0140712"},{"name":"豊川","zip_code":"0140711"},{"name":"長戸呂","zip_code":"0140206"},{"name":"長野","zip_code":"0140207"},{"name":"南外赤畑","zip_code":"0191949"},{"name":"南外赤平後野","zip_code":"0191865"},{"name":"南外赤平貝沼","zip_code":"0191863"},{"name":"南外赤平大道東","zip_code":"0191864"},{"name":"南外赤平台野","zip_code":"0191866"},{"name":"南外赤平平家","zip_code":"0191868"},{"name":"南外赤平六郎沢","zip_code":"0191858"},{"name":"南外悪戸野","zip_code":"0191901"},{"name":"南外揚土","zip_code":"0191835"},{"name":"南外揚土山","zip_code":"0191834"},{"name":"南外新屋布","zip_code":"0191876"},{"name":"南外石仏","zip_code":"0191916"},{"name":"南外岩倉","zip_code":"0191942"},{"name":"南外岩瀬","zip_code":"0191945"},{"name":"南外上野","zip_code":"0191908"},{"name":"南外大黒森","zip_code":"0191932"},{"name":"南外大杉","zip_code":"0191842"},{"name":"南外大杉二タ又杉","zip_code":"0191843"},{"name":"南外大杉山岸","zip_code":"0191841"},{"name":"南外太田","zip_code":"0191852"},{"name":"南外大畑","zip_code":"0191855"},{"name":"南外大畑潜沢","zip_code":"0191857"},{"name":"南外大畑深山","zip_code":"0191856"},{"name":"南外大平","zip_code":"0191935"},{"name":"南外大向","zip_code":"0191905"},{"name":"南外大柳","zip_code":"0191961"},{"name":"南外大和野","zip_code":"0191882"},{"name":"南外沖田","zip_code":"0191812"},{"name":"南外落合","zip_code":"0191875"},{"name":"南外金屋","zip_code":"0191906"},{"name":"南外上荒又","zip_code":"0191956"},{"name":"南外上釜坂","zip_code":"0191948"},{"name":"南外上鎌田","zip_code":"0191907"},{"name":"南外上木直","zip_code":"0191816"},{"name":"南外上桑台","zip_code":"0191926"},{"name":"南外上巣ノ沢","zip_code":"0191925"},{"name":"南外上中宿","zip_code":"0191872"},{"name":"南外上中野","zip_code":"0191922"},{"name":"南外川口","zip_code":"0191808"},{"name":"南外川口本町","zip_code":"0191807"},{"name":"南外木直沢","zip_code":"0191817"},{"name":"南外北田黒瀬","zip_code":"0191834"},{"name":"南外北田山田ケ沢","zip_code":"0191832"},{"name":"南外黒滝","zip_code":"0191951"},{"name":"南外小荒沢","zip_code":"0191937"},{"name":"南外小出","zip_code":"0191847"},{"name":"南外小春木沢","zip_code":"0191802"},{"name":"南外猿ケ瀬出野","zip_code":"0191813"},{"name":"南外山王台","zip_code":"0191851"},{"name":"南外小浪滝","zip_code":"0191957"},{"name":"南外下荒沢","zip_code":"0191938"},{"name":"南外下荒又","zip_code":"0191952"},{"name":"南外下釜坂","zip_code":"0191947"},{"name":"南外下鎌田","zip_code":"0191903"},{"name":"南外下木直","zip_code":"0191814"},{"name":"南外下滝","zip_code":"0191931"},{"name":"南外下袋","zip_code":"0191902"},{"name":"南外下湯ノ又","zip_code":"0191915"},{"name":"南外十二ノ前","zip_code":"0191946"},{"name":"南外十二袋","zip_code":"0191806"},{"name":"南外鞦田","zip_code":"0191848"},{"name":"南外杉橋","zip_code":"0191909"},{"name":"南外巣ノ沢","zip_code":"0191923"},{"name":"南外巣ノ沢石切場","zip_code":"0191924"},{"name":"南外外小友","zip_code":"0191953"},{"name":"南外外山","zip_code":"0191955"},{"name":"南外滝中田表","zip_code":"0191928"},{"name":"南外滝ノ沢","zip_code":"0191933"},{"name":"南外田尻","zip_code":"0191934"},{"name":"南外田中","zip_code":"0191873"},{"name":"南外田中田","zip_code":"0191826"},{"name":"南外田中田山根","zip_code":"0191827"},{"name":"南外田屋村","zip_code":"0191822"},{"name":"南外壇ノ平山","zip_code":"0191831"},{"name":"南外寺沢","zip_code":"0191861"},{"name":"南外土場","zip_code":"0191888"},{"name":"南外中荒沢","zip_code":"0191936"},{"name":"南外中荒又","zip_code":"0191954"},{"name":"南外中桑台","zip_code":"0191927"},{"name":"南外中宿","zip_code":"0191874"},{"name":"南外中野","zip_code":"0191921"},{"name":"南外中野山","zip_code":"0191929"},{"name":"南外中袋","zip_code":"0191904"},{"name":"南外中渡","zip_code":"0191887"},{"name":"南外梨木田","zip_code":"0191846"},{"name":"南外西板戸","zip_code":"0191805"},{"name":"南外西野","zip_code":"0191804"},{"name":"南外西ノ又","zip_code":"0191886"},{"name":"南外西ノ又滝ノ沢","zip_code":"0191963"},{"name":"南外及位","zip_code":"0191878"},{"name":"南外林ノ沢","zip_code":"0191884"},{"name":"南外一ト刎","zip_code":"0191943"},{"name":"南外平形","zip_code":"0191815"},{"name":"南外平沢","zip_code":"0191883"},{"name":"南外広表","zip_code":"0191918"},{"name":"南外物渡台","zip_code":"0191801"},{"name":"南外坊田","zip_code":"0191825"},{"name":"南外坊田石兀ノ下","zip_code":"0191803"},{"name":"南外坊田黒沢","zip_code":"0191853"},{"name":"南外坊村","zip_code":"0191911"},{"name":"南外松木田","zip_code":"0191941"},{"name":"南外丸木橋","zip_code":"0191912"},{"name":"南外水上沢","zip_code":"0191939"},{"name":"南外水沢","zip_code":"0191877"},{"name":"南外宮田","zip_code":"0191824"},{"name":"南外向ノ沢","zip_code":"0191958"},{"name":"南外葎沢","zip_code":"0191881"},{"name":"南外無尻橋","zip_code":"0191885"},{"name":"南外本宿","zip_code":"0191811"},{"name":"南外薬師堂","zip_code":"0191917"},{"name":"南外谷地田","zip_code":"0191871"},{"name":"南外湯神台","zip_code":"0191913"},{"name":"南外湯ノ又","zip_code":"0191914"},{"name":"南外湯元","zip_code":"0191944"},{"name":"南外若林","zip_code":"0191962"},{"name":"南外和合","zip_code":"0191862"},{"name":"新谷地","zip_code":"0140104"},{"name":"橋本","zip_code":"0140804"},{"name":"花館","zip_code":"0140001"},{"name":"花館上町","zip_code":"0140002"},{"name":"花館中町","zip_code":"0140006"},{"name":"花館柳町","zip_code":"0140005"},{"name":"東川","zip_code":"0140032"},{"name":"蛭川","zip_code":"0140071"},{"name":"福田","zip_code":"0140114"},{"name":"福田町","zip_code":"0140021"},{"name":"藤木","zip_code":"0141412"},{"name":"富士見町","zip_code":"0140011"},{"name":"払田","zip_code":"0140802"},{"name":"堀見内","zip_code":"0140113"},{"name":"松倉","zip_code":"0140101"},{"name":"美原町","zip_code":"0140003"},{"name":"鑓見内","zip_code":"0140205"},{"name":"横堀","zip_code":"0140111"},{"name":"四ツ屋","zip_code":"0140102"},{"name":"六郷西根","zip_code":"0141411"},{"name":"若竹町","zip_code":"0140016"},{"name":"和合","zip_code":"0140033"}]},{"name":"北秋田市","divisions":[{"name":"旭町","zip_code":"0183313"},{"name":"阿仁荒瀬","zip_code":"0184621"},{"name":"阿仁荒瀬川櫃畑","zip_code":"0184623"},{"name":"阿仁打当","zip_code":"0184731"},{"name":"阿仁笑内","zip_code":"0184743"},{"name":"阿仁鍵ノ滝","zip_code":"0184624"},{"name":"阿仁萱草","zip_code":"0184745"},{"name":"阿仁銀山","zip_code":"0184613"},{"name":"阿仁幸屋","zip_code":"0184741"},{"name":"阿仁幸屋渡","zip_code":"0184742"},{"name":"阿仁小様","zip_code":"0184603"},{"name":"阿仁小沢鉱山","zip_code":"0184622"},{"name":"阿仁小渕","zip_code":"0184602"},{"name":"阿仁三枚鉱山","zip_code":"0184604"},{"name":"阿仁戸鳥内","zip_code":"0184733"},{"name":"阿仁長畑","zip_code":"0184734"},{"name":"阿仁中村","zip_code":"0184732"},{"name":"阿仁根子","zip_code":"0184744"},{"name":"阿仁比立内","zip_code":"0184735"},{"name":"阿仁伏影","zip_code":"0184746"},{"name":"阿仁前田","zip_code":"0184515"},{"name":"阿仁真木沢鉱山","zip_code":"0184612"},{"name":"阿仁水無","zip_code":"0184611"},{"name":"阿仁吉田","zip_code":"0184601"},{"name":"伊勢町","zip_code":"0183314"},{"name":"今泉","zip_code":"0183343"},{"name":"浦田","zip_code":"0184302"},{"name":"大町","zip_code":"0183324"},{"name":"桂瀬","zip_code":"0184516"},{"name":"鎌沢","zip_code":"0184251"},{"name":"上杉","zip_code":"0184231"},{"name":"川井","zip_code":"0184211"},{"name":"木戸石","zip_code":"0184203"},{"name":"黒沢","zip_code":"0183341"},{"name":"小又","zip_code":"0184513"},{"name":"五味堀","zip_code":"0184514"},{"name":"小森","zip_code":"0183451"},{"name":"根田","zip_code":"0184273"},{"name":"材木町","zip_code":"0183311"},{"name":"栄","zip_code":"0183302"},{"name":"下杉","zip_code":"0184221"},{"name":"住吉町","zip_code":"0183322"},{"name":"李岱","zip_code":"0184282"},{"name":"芹沢","zip_code":"0184261"},{"name":"鷹巣","zip_code":"0183332"},{"name":"綴子","zip_code":"0183301"},{"name":"道城","zip_code":"0184241"},{"name":"中屋敷","zip_code":"0183453"},{"name":"七日市","zip_code":"0183452"},{"name":"新田目","zip_code":"0184272"},{"name":"根森田","zip_code":"0184512"},{"name":"八幡岱新田","zip_code":"0184202"},{"name":"花園町","zip_code":"0183312"},{"name":"羽根山","zip_code":"0184281"},{"name":"東横町","zip_code":"0183316"},{"name":"福田","zip_code":"0184271"},{"name":"坊沢","zip_code":"0183333"},{"name":"本城","zip_code":"0184303"},{"name":"前山","zip_code":"0183342"},{"name":"増沢","zip_code":"0184201"},{"name":"松葉町","zip_code":"0183321"},{"name":"三木田","zip_code":"0184263"},{"name":"三里","zip_code":"0184262"},{"name":"宮前町","zip_code":"0183315"},{"name":"元町","zip_code":"0183325"},{"name":"森吉","zip_code":"0184511"},{"name":"米内沢","zip_code":"0184301"},{"name":"米代町","zip_code":"0183323"},{"name":"脇神","zip_code":"0183454"}]},{"name":"にかほ市","divisions":[{"name":"伊勢居地","zip_code":"0180431"},{"name":"院内","zip_code":"0180411"},{"name":"大竹","zip_code":"0180322"},{"name":"小国","zip_code":"0180412"},{"name":"釜ケ台","zip_code":"0180421"},{"name":"象潟町１丁目塩越","zip_code":"0180126"},{"name":"象潟町２丁目塩越","zip_code":"0180118"},{"name":"象潟町３丁目塩越","zip_code":"0180119"},{"name":"象潟町４丁目塩越","zip_code":"0180116"},{"name":"象潟町５丁目塩越","zip_code":"0180106"},{"name":"象潟町洗釜","zip_code":"0180135"},{"name":"象潟町荒屋下","zip_code":"0180107"},{"name":"象潟町荒屋妻","zip_code":"0180105"},{"name":"象潟町家の後","zip_code":"0180112"},{"name":"象潟町入湖の澗","zip_code":"0180108"},{"name":"象潟町後田","zip_code":"0180115"},{"name":"象潟町大砂川","zip_code":"0180136"},{"name":"象潟町大塩越","zip_code":"0180121"},{"name":"象潟町大須郷","zip_code":"0180142"},{"name":"象潟町大森","zip_code":"0180162"},{"name":"象潟町大谷地","zip_code":"0180131"},{"name":"象潟町沖の田","zip_code":"0180114"},{"name":"象潟町蒲谷池","zip_code":"0180146"},{"name":"象潟町上狐森","zip_code":"0180103"},{"name":"象潟町上小坂","zip_code":"0180184"},{"name":"象潟町烏島","zip_code":"0180188"},{"name":"象潟町川袋","zip_code":"0180141"},{"name":"象潟町冠石下","zip_code":"0180109"},{"name":"象潟町象潟島","zip_code":"0180122"},{"name":"象潟町狐森","zip_code":"0180104"},{"name":"象潟町木戸口","zip_code":"0180102"},{"name":"象潟町源蔵潟","zip_code":"0180145"},{"name":"象潟町小烏島","zip_code":"0180187"},{"name":"象潟町小才の神","zip_code":"0180172"},{"name":"象潟町小坂","zip_code":"0180183"},{"name":"象潟町小砂川","zip_code":"0180143"},{"name":"象潟町小滝","zip_code":"0180153"},{"name":"象潟町琴和喜","zip_code":"0180158"},{"name":"象潟町才の神","zip_code":"0180129"},{"name":"象潟町坂の下","zip_code":"0180175"},{"name":"象潟町下浜山","zip_code":"0180148"},{"name":"象潟町白山堂","zip_code":"0180181"},{"name":"象潟町関","zip_code":"0180133"},{"name":"象潟町大飯郷","zip_code":"0180161"},{"name":"象潟町大門先","zip_code":"0180156"},{"name":"象潟町高田","zip_code":"0180166"},{"name":"象潟町鷹放","zip_code":"0180157"},{"name":"象潟町立石","zip_code":"0180147"},{"name":"象潟町狸森","zip_code":"0180165"},{"name":"象潟町田の神","zip_code":"0180167"},{"name":"象潟町太郎島","zip_code":"0180128"},{"name":"象潟町続島","zip_code":"0180171"},{"name":"象潟町鳥の海","zip_code":"0180132"},{"name":"象潟町長岡","zip_code":"0180163"},{"name":"象潟町中橋町","zip_code":"0180127"},{"name":"象潟町中谷地","zip_code":"0180144"},{"name":"象潟町二階谷地","zip_code":"0180154"},{"name":"象潟町西中野沢","zip_code":"0180134"},{"name":"象潟町二の丸","zip_code":"0180125"},{"name":"象潟町入道島","zip_code":"0180124"},{"name":"象潟町能因島","zip_code":"0180186"},{"name":"象潟町浜の田","zip_code":"0180113"},{"name":"象潟町浜畑","zip_code":"0180117"},{"name":"象潟町浜山","zip_code":"0180101"},{"name":"象潟町林の下","zip_code":"0180174"},{"name":"象潟町不動沢","zip_code":"0180182"},{"name":"象潟町武道島","zip_code":"0180111"},{"name":"象潟町弁天島","zip_code":"0180155"},{"name":"象潟町本郷","zip_code":"0180152"},{"name":"象潟町丸山","zip_code":"0180164"},{"name":"象潟町妙見下","zip_code":"0180123"},{"name":"象潟町屋敷田","zip_code":"0180185"},{"name":"象潟町横岡","zip_code":"0180151"},{"name":"象潟町横山","zip_code":"0180176"},{"name":"象潟町四隅池","zip_code":"0180173"},{"name":"黒川","zip_code":"0180302"},{"name":"金浦","zip_code":"0180311"},{"name":"芹田","zip_code":"0180404"},{"name":"田抓","zip_code":"0180414"},{"name":"寺田","zip_code":"0180434"},{"name":"冬師","zip_code":"0180422"},{"name":"飛","zip_code":"0180301"},{"name":"中三地","zip_code":"0180435"},{"name":"畑","zip_code":"0180433"},{"name":"馬場","zip_code":"0180413"},{"name":"樋目野","zip_code":"0180436"},{"name":"平沢","zip_code":"0180402"},{"name":"前川","zip_code":"0180321"},{"name":"水沢","zip_code":"0180432"},{"name":"三森","zip_code":"0180403"},{"name":"両前寺","zip_code":"0180401"}]},{"name":"仙北市","divisions":[{"name":"角館町岩瀬","zip_code":"0140373"},{"name":"角館町岩瀬下タ野","zip_code":"0140375"},{"name":"角館町岩瀬町","zip_code":"0140316"},{"name":"角館町上野","zip_code":"0140374"},{"name":"角館町裏町","zip_code":"0140336"},{"name":"角館町大中嶋","zip_code":"0140364"},{"name":"角館町大風呂","zip_code":"0140371"},{"name":"角館町小勝田","zip_code":"0140347"},{"name":"角館町歩行町","zip_code":"0140332"},{"name":"角館町表町上丁","zip_code":"0140334"},{"name":"角館町表町下丁","zip_code":"0140331"},{"name":"角館町勝楽","zip_code":"0140367"},{"name":"角館町金山下","zip_code":"0140362"},{"name":"角館町上新町","zip_code":"0140327"},{"name":"角館町上菅沢","zip_code":"0140369"},{"name":"角館町川原","zip_code":"0140346"},{"name":"角館町川原町","zip_code":"0140333"},{"name":"角館町川原町後","zip_code":"0140358"},{"name":"角館町北野","zip_code":"0140359"},{"name":"角館町雲然","zip_code":"0140341"},{"name":"角館町小館","zip_code":"0140372"},{"name":"角館町小人町","zip_code":"0140324"},{"name":"角館町下川原","zip_code":"0140363"},{"name":"角館町下岩瀬町","zip_code":"0140313"},{"name":"角館町下新町","zip_code":"0140315"},{"name":"角館町下菅沢","zip_code":"0140366"},{"name":"角館町下中町","zip_code":"0140317"},{"name":"角館町下延","zip_code":"0140343"},{"name":"角館町白岩","zip_code":"0140302"},{"name":"角館町菅沢","zip_code":"0140365"},{"name":"角館町薗田","zip_code":"0140303"},{"name":"角館町竹原町","zip_code":"0140328"},{"name":"角館町田町上丁","zip_code":"0140311"},{"name":"角館町田町下丁","zip_code":"0140312"},{"name":"角館町外ノ山","zip_code":"0140352"},{"name":"角館町外ノ山官有地","zip_code":"0140355"},{"name":"角館町鳥木沢","zip_code":"0140361"},{"name":"角館町中菅沢","zip_code":"0140368"},{"name":"角館町中町","zip_code":"0140318"},{"name":"角館町七日町","zip_code":"0140322"},{"name":"角館町西勝楽町","zip_code":"0140321"},{"name":"角館町西北野","zip_code":"0140379"},{"name":"角館町西下タ野","zip_code":"0140376"},{"name":"角館町西菅沢","zip_code":"0140353"},{"name":"角館町西田","zip_code":"0140377"},{"name":"角館町西長野","zip_code":"0140344"},{"name":"角館町西野川原","zip_code":"0140378"},{"name":"角館町八割","zip_code":"0140342"},{"name":"角館町花場","zip_code":"0140356"},{"name":"角館町花場下","zip_code":"0140357"},{"name":"角館町東勝楽丁","zip_code":"0140325"},{"name":"角館町広久内","zip_code":"0140301"},{"name":"角館町古城","zip_code":"0140337"},{"name":"角館町古城山","zip_code":"0140351"},{"name":"角館町細越町","zip_code":"0140335"},{"name":"角館町水ノ目沢","zip_code":"0140354"},{"name":"角館町山根町","zip_code":"0140326"},{"name":"角館町山谷川崎","zip_code":"0140345"},{"name":"角館町横町","zip_code":"0140323"},{"name":"田沢湖梅沢","zip_code":"0141112"},{"name":"田沢湖岡崎","zip_code":"0141111"},{"name":"田沢湖生保内","zip_code":"0141201"},{"name":"田沢湖角館東前郷","zip_code":"0141116"},{"name":"田沢湖潟","zip_code":"0141203"},{"name":"田沢湖小松","zip_code":"0141115"},{"name":"田沢湖刺巻","zip_code":"0141202"},{"name":"田沢湖神代","zip_code":"0141114"},{"name":"田沢湖卒田","zip_code":"0141113"},{"name":"田沢湖田沢","zip_code":"0141204"},{"name":"田沢湖玉川","zip_code":"0141205"},{"name":"西木町門屋","zip_code":"0140515"},{"name":"西木町上荒井","zip_code":"0140512"},{"name":"西木町上桧木内","zip_code":"0140601"},{"name":"西木町小渕野","zip_code":"0140513"},{"name":"西木町小山田","zip_code":"0140516"},{"name":"西木町西明寺","zip_code":"0140511"},{"name":"西木町西荒井","zip_code":"0140514"},{"name":"西木町桧木内","zip_code":"0140602"}]},{"name":"鹿角郡小坂町","divisions":[{"name":"荒谷","zip_code":"0170204"},{"name":"上向","zip_code":"0170203"},{"name":"小坂","zip_code":"0170201"},{"name":"小坂鉱山","zip_code":"0170202"},{"name":"大地","zip_code":"0170205"},{"name":"十和田湖","zip_code":"0185511"}]},{"name":"北秋田郡上小阿仁村","divisions":[{"name":"大林","zip_code":"0184431"},{"name":"沖田面","zip_code":"0184401"},{"name":"小沢田","zip_code":"0184421"},{"name":"五反沢","zip_code":"0184412"},{"name":"杉花","zip_code":"0184413"},{"name":"堂川","zip_code":"0184422"},{"name":"福舘","zip_code":"0184411"},{"name":"仏社","zip_code":"0184423"},{"name":"南沢","zip_code":"0184432"}]},{"name":"山本郡藤里町","divisions":[{"name":"大沢","zip_code":"0183203"},{"name":"粕毛","zip_code":"0183205"},{"name":"太良","zip_code":"0183202"},{"name":"藤琴","zip_code":"0183201"},{"name":"矢坂","zip_code":"0183204"}]},{"name":"山本郡三種町","divisions":[{"name":"芦崎","zip_code":"0182405"},{"name":"天瀬川","zip_code":"0182102"},{"name":"鵜川","zip_code":"0182401"},{"name":"大口","zip_code":"0182406"},{"name":"鹿渡","zip_code":"0182104"},{"name":"上岩川","zip_code":"0182101"},{"name":"川尻","zip_code":"0182402"},{"name":"久米岡新田","zip_code":"0182403"},{"name":"鯉川","zip_code":"0182103"},{"name":"志戸橋","zip_code":"0182301"},{"name":"下岩川","zip_code":"0182302"},{"name":"外岡","zip_code":"0182305"},{"name":"富岡新田","zip_code":"0182404"},{"name":"豊岡金田","zip_code":"0182304"},{"name":"浜田","zip_code":"0182407"},{"name":"森岳","zip_code":"0182303"}]},{"name":"山本郡八峰町","divisions":[{"name":"八森家の後","zip_code":"0182637"},{"name":"八森家の上","zip_code":"0182643"},{"name":"八森家の向","zip_code":"0182622"},{"name":"八森伊勢鉢台","zip_code":"0182615"},{"name":"八森磯村","zip_code":"0182676"},{"name":"八森岩館","zip_code":"0182611"},{"name":"八森岩館塚の台","zip_code":"0182605"},{"name":"八森岩館向台","zip_code":"0182608"},{"name":"八森乙の水","zip_code":"0182601"},{"name":"八森篭田","zip_code":"0182675"},{"name":"八森門の沢","zip_code":"0182609"},{"name":"八森鹿の浦","zip_code":"0182647"},{"name":"八森釜の上","zip_code":"0182606"},{"name":"八森上家後","zip_code":"0182674"},{"name":"八森上嘉治助台","zip_code":"0182636"},{"name":"八森木戸の沢","zip_code":"0182618"},{"name":"八森倉の沢","zip_code":"0182653"},{"name":"八森小入川家の上","zip_code":"0182614"},{"name":"八森鉱山","zip_code":"0182613"},{"name":"八森御所の台","zip_code":"0182617"},{"name":"八森五輪台下段","zip_code":"0182631"},{"name":"八森五輪台上段","zip_code":"0182633"},{"name":"八森三十釜","zip_code":"0182632"},{"name":"八森山内","zip_code":"0182627"},{"name":"八森山内台","zip_code":"0182625"},{"name":"八森下家後","zip_code":"0182672"},{"name":"八森下嘉治助台","zip_code":"0182635"},{"name":"八森下館下","zip_code":"0182651"},{"name":"八森新浜田","zip_code":"0182662"},{"name":"八森滝の上","zip_code":"0182634"},{"name":"八森滝ノ間","zip_code":"0182623"},{"name":"八森立石","zip_code":"0182628"},{"name":"八森チゴキ","zip_code":"0182602"},{"name":"八森茶の沢","zip_code":"0182621"},{"name":"八森塚の台","zip_code":"0182646"},{"name":"八森椿","zip_code":"0182642"},{"name":"八森椿台","zip_code":"0182644"},{"name":"八森寺の後","zip_code":"0182666"},{"name":"八森寺の後川向","zip_code":"0182665"},{"name":"八森泊台","zip_code":"0182648"},{"name":"八森樋長","zip_code":"0182663"},{"name":"八森中家後","zip_code":"0182673"},{"name":"八森長坂","zip_code":"0182619"},{"name":"八森中嶋","zip_code":"0182645"},{"name":"八森中浜","zip_code":"0182641"},{"name":"八森ノケソリ","zip_code":"0182612"},{"name":"八森八森","zip_code":"0182678"},{"name":"八森八森家後","zip_code":"0182667"},{"name":"八森八森後","zip_code":"0182677"},{"name":"八森浜田","zip_code":"0182661"},{"name":"八森林の沢","zip_code":"0182607"},{"name":"八森古屋敷","zip_code":"0182664"},{"name":"八森三沢","zip_code":"0182616"},{"name":"八森茂浦","zip_code":"0182638"},{"name":"八森本館","zip_code":"0182655"},{"name":"八森本館中台","zip_code":"0182652"},{"name":"八森物見","zip_code":"0182603"},{"name":"八森諸沢口","zip_code":"0182654"},{"name":"八森諸沢下脇","zip_code":"0182656"},{"name":"八森湯の尻","zip_code":"0182671"},{"name":"八森横間","zip_code":"0182626"},{"name":"八森横間台","zip_code":"0182624"},{"name":"八森和田表","zip_code":"0182604"},{"name":"峰浜石川","zip_code":"0182504"},{"name":"峰浜内荒巻","zip_code":"0182505"},{"name":"峰浜高野々","zip_code":"0182511"},{"name":"峰浜小手萩","zip_code":"0182506"},{"name":"峰浜坂形","zip_code":"0182508"},{"name":"峰浜田中","zip_code":"0182507"},{"name":"峰浜沼田","zip_code":"0182509"},{"name":"峰浜畑谷","zip_code":"0182512"},{"name":"峰浜塙","zip_code":"0182503"},{"name":"峰浜水沢","zip_code":"0182501"},{"name":"峰浜目名潟","zip_code":"0182502"}]},{"name":"南秋田郡五城目町","divisions":[{"name":"石田六ケ村堰添","zip_code":"0181704"},{"name":"稲荷前","zip_code":"0181743"},{"name":"内川浅見内","zip_code":"0181851"},{"name":"内川小倉","zip_code":"0181857"},{"name":"内川黒土","zip_code":"0181854"},{"name":"内川湯ノ又","zip_code":"0181852"},{"name":"鵜ノ木","zip_code":"0181722"},{"name":"浦大町","zip_code":"0181741"},{"name":"浦横町","zip_code":"0181742"},{"name":"上町","zip_code":"0181705"},{"name":"大川石崎","zip_code":"0181731"},{"name":"大川大川","zip_code":"0181734"},{"name":"大川下樋口","zip_code":"0181735"},{"name":"大川西野","zip_code":"0181732"},{"name":"大川谷地中","zip_code":"0181733"},{"name":"上樋口","zip_code":"0181723"},{"name":"川崎","zip_code":"0181745"},{"name":"久保","zip_code":"0181712"},{"name":"小池","zip_code":"0181746"},{"name":"下タ町","zip_code":"0181706"},{"name":"神明前","zip_code":"0181744"},{"name":"杉ケ崎","zip_code":"0181702"},{"name":"高崎","zip_code":"0181711"},{"name":"舘越","zip_code":"0181714"},{"name":"兎品沢","zip_code":"0181701"},{"name":"七倉","zip_code":"0181721"},{"name":"西磯ノ目","zip_code":"0181725"},{"name":"野田","zip_code":"0181747"},{"name":"羽黒前","zip_code":"0181703"},{"name":"馬場目","zip_code":"0181713"},{"name":"東磯ノ目","zip_code":"0181724"},{"name":"富津内下山内","zip_code":"0181856"},{"name":"富津内富田","zip_code":"0181855"},{"name":"富津内中津又","zip_code":"0181853"}]},{"name":"南秋田郡八郎潟町","divisions":[{"name":"家の後","zip_code":"0181621"},{"name":"イカリ","zip_code":"0181617"},{"name":"浦大町","zip_code":"0181602"},{"name":"大道","zip_code":"0181616"},{"name":"押切","zip_code":"0181627"},{"name":"蒲沼","zip_code":"0181615"},{"name":"上沖谷地","zip_code":"0181611"},{"name":"上昼根","zip_code":"0181613"},{"name":"川口","zip_code":"0181618"},{"name":"川崎","zip_code":"0181605"},{"name":"久保見","zip_code":"0181625"},{"name":"小池","zip_code":"0181603"},{"name":"島ノ内","zip_code":"0181628"},{"name":"下川原","zip_code":"0181623"},{"name":"洲先","zip_code":"0181635"},{"name":"中久保","zip_code":"0181624"},{"name":"中嶋","zip_code":"0181629"},{"name":"中田","zip_code":"0181614"},{"name":"中谷地","zip_code":"0181633"},{"name":"長沼","zip_code":"0181632"},{"name":"軒嶋","zip_code":"0181634"},{"name":"野田","zip_code":"0181604"},{"name":"八幡沼","zip_code":"0181631"},{"name":"一日市","zip_code":"0181622"},{"name":"昼根下","zip_code":"0181612"},{"name":"細川","zip_code":"0181626"},{"name":"真坂","zip_code":"0181601"},{"name":"夜叉袋","zip_code":"0181606"}]},{"name":"南秋田郡井川町","divisions":[{"name":"赤沢","zip_code":"0181525"},{"name":"井内","zip_code":"0181527"},{"name":"今戸","zip_code":"0181511"},{"name":"宇治木","zip_code":"0181514"},{"name":"大麦","zip_code":"0181524"},{"name":"北川尻","zip_code":"0181512"},{"name":"黒坪","zip_code":"0181513"},{"name":"小竹花","zip_code":"0181515"},{"name":"坂本","zip_code":"0181523"},{"name":"寺沢","zip_code":"0181526"},{"name":"葹田","zip_code":"0181528"},{"name":"八田大倉","zip_code":"0181521"},{"name":"浜井川","zip_code":"0181516"},{"name":"保野子","zip_code":"0181522"}]},{"name":"南秋田郡大潟村","divisions":[{"name":"大潟","zip_code":"0100451"},{"name":"方上","zip_code":"0100452"},{"name":"方口","zip_code":"0100453"},{"name":"北","zip_code":"0100441"},{"name":"中央","zip_code":"0100443"},{"name":"中野","zip_code":"0100454"},{"name":"西","zip_code":"0100445"},{"name":"西野","zip_code":"0100455"},{"name":"東","zip_code":"0100442"},{"name":"東野","zip_code":"0100456"},{"name":"南","zip_code":"0100444"}]},{"name":"仙北郡美郷町","divisions":[{"name":"安城寺","zip_code":"0191533"},{"name":"飯詰","zip_code":"0191234"},{"name":"金沢","zip_code":"0191302"},{"name":"金沢西根","zip_code":"0191235"},{"name":"金沢東根","zip_code":"0191522"},{"name":"上深井","zip_code":"0191236"},{"name":"黒沢","zip_code":"0191511"},{"name":"小荒川","zip_code":"0191542"},{"name":"境田","zip_code":"0191233"},{"name":"佐野","zip_code":"0191237"},{"name":"千屋","zip_code":"0191502"},{"name":"土崎","zip_code":"0191541"},{"name":"天神堂","zip_code":"0191232"},{"name":"中野","zip_code":"0191521"},{"name":"浪花","zip_code":"0191501"},{"name":"野荒町","zip_code":"0191301"},{"name":"野中","zip_code":"0191402"},{"name":"畑屋","zip_code":"0191531"},{"name":"羽貫谷地","zip_code":"0191532"},{"name":"本堂城回","zip_code":"0191512"},{"name":"南町","zip_code":"0191231"},{"name":"鑓田","zip_code":"0191401"},{"name":"六郷","zip_code":"0191404"},{"name":"六郷東根","zip_code":"0191403"}]},{"name":"雄勝郡羽後町","divisions":[{"name":"赤袴","zip_code":"0121124"},{"name":"飯沢","zip_code":"0121136"},{"name":"大久保","zip_code":"0121121"},{"name":"大沢","zip_code":"0121101"},{"name":"大戸","zip_code":"0121132"},{"name":"貝沢","zip_code":"0121123"},{"name":"柏原","zip_code":"0121122"},{"name":"上仙道","zip_code":"0121353"},{"name":"上到米","zip_code":"0121242"},{"name":"軽井沢","zip_code":"0121243"},{"name":"郡山","zip_code":"0121113"},{"name":"鹿内","zip_code":"0121135"},{"name":"嶋田新田","zip_code":"0121111"},{"name":"下仙道","zip_code":"0121351"},{"name":"新町","zip_code":"0121102"},{"name":"杉宮","zip_code":"0121126"},{"name":"高尾田","zip_code":"0121116"},{"name":"田沢","zip_code":"0121134"},{"name":"田代","zip_code":"0121241"},{"name":"足田","zip_code":"0121115"},{"name":"床舞","zip_code":"0121133"},{"name":"中仙道","zip_code":"0121352"},{"name":"西馬音内","zip_code":"0121131"},{"name":"西馬音内堀回","zip_code":"0121137"},{"name":"糠塚","zip_code":"0121114"},{"name":"野中","zip_code":"0121125"},{"name":"林崎","zip_code":"0121103"},{"name":"払体","zip_code":"0121106"},{"name":"堀内","zip_code":"0121104"},{"name":"水沢","zip_code":"0121105"},{"name":"睦合","zip_code":"0121112"}]},{"name":"雄勝郡東成瀬村","divisions":[{"name":"岩井川","zip_code":"0190802"},{"name":"田子内","zip_code":"0190801"},{"name":"椿川","zip_code":"0190803"}]}]}