{"name":"山形県","cities":[{"name":"山形市","divisions":[{"name":"相生町","zip_code":"9900055"},{"name":"青田","zip_code":"9902435"},{"name":"青田南","zip_code":"9902324"},{"name":"青野","zip_code":"9902222"},{"name":"青柳","zip_code":"9902214"},{"name":"明石堂","zip_code":"9902353"},{"name":"あかねケ丘","zip_code":"9902481"},{"name":"あけぼの","zip_code":"9902162"},{"name":"あこや町","zip_code":"9900025"},{"name":"旭が丘","zip_code":"9902434"},{"name":"あさひ町","zip_code":"9900024"},{"name":"あずま町","zip_code":"9902491"},{"name":"荒楯町","zip_code":"9902432"},{"name":"飯沢","zip_code":"9902476"},{"name":"飯田","zip_code":"9902332"},{"name":"飯田西","zip_code":"9902331"},{"name":"飯塚口","zip_code":"9900841"},{"name":"飯塚町","zip_code":"9900845"},{"name":"石関","zip_code":"9900842"},{"name":"五十鈴","zip_code":"9900061"},{"name":"泉町","zip_code":"9900068"},{"name":"五日町","zip_code":"9900829"},{"name":"今塚","zip_code":"9900817"},{"name":"鋳物町","zip_code":"9902351"},{"name":"岩波","zip_code":"9902403"},{"name":"印役町","zip_code":"9900066"},{"name":"内表","zip_code":"9900877"},{"name":"内表東","zip_code":"9900878"},{"name":"梅野木前","zip_code":"9900874"},{"name":"漆山","zip_code":"9902161"},{"name":"上町","zip_code":"9902483"},{"name":"江俣","zip_code":"9900861"},{"name":"円応寺町","zip_code":"9900052"},{"name":"大手町","zip_code":"9900046"},{"name":"大道端","zip_code":"9902344"},{"name":"大森","zip_code":"9902231"},{"name":"沖町","zip_code":"9900818"},{"name":"小立","zip_code":"9902402"},{"name":"落合町","zip_code":"9900075"},{"name":"御手作","zip_code":"9902365"},{"name":"表蔵王","zip_code":"9902307"},{"name":"篭田","zip_code":"9902484"},{"name":"風間","zip_code":"9902221"},{"name":"柏倉","zip_code":"9902341"},{"name":"霞城町","zip_code":"9900826"},{"name":"春日町","zip_code":"9900833"},{"name":"香澄町","zip_code":"9900039"},{"name":"片谷地","zip_code":"9902316"},{"name":"金石田","zip_code":"9900856"},{"name":"上椹沢","zip_code":"9900851"},{"name":"上桜田","zip_code":"9902421"},{"name":"上反田","zip_code":"9902384"},{"name":"上東山","zip_code":"9902241"},{"name":"上宝沢","zip_code":"9900017"},{"name":"上柳","zip_code":"9902212"},{"name":"上山家町","zip_code":"9900004"},{"name":"神尾","zip_code":"9902406"},{"name":"北江俣","zip_code":"9900875"},{"name":"北田","zip_code":"9900896"},{"name":"北町","zip_code":"9900821"},{"name":"北山形","zip_code":"9900822"},{"name":"木の実町","zip_code":"9900044"},{"name":"木ノ目田","zip_code":"9902475"},{"name":"行才","zip_code":"9900876"},{"name":"清住町","zip_code":"9900834"},{"name":"切畑","zip_code":"9902233"},{"name":"久保田","zip_code":"9902482"},{"name":"黒沢","zip_code":"9902311"},{"name":"江南","zip_code":"9900863"},{"name":"黄金","zip_code":"9900852"},{"name":"小姓町","zip_code":"9900032"},{"name":"小白川町","zip_code":"9900021"},{"name":"寿町","zip_code":"9902414"},{"name":"小荷駄町","zip_code":"9900035"},{"name":"こも石","zip_code":"9902234"},{"name":"幸町","zip_code":"9900038"},{"name":"蔵王飯田","zip_code":"9902333"},{"name":"蔵王上野","zip_code":"9902303"},{"name":"蔵王温泉","zip_code":"9902301"},{"name":"蔵王成沢","zip_code":"9902334"},{"name":"蔵王半郷","zip_code":"9902305"},{"name":"蔵王堀田","zip_code":"9902302"},{"name":"蔵王松ケ丘","zip_code":"9902338"},{"name":"蔵王西成沢","zip_code":"9902337"},{"name":"蔵王南成沢","zip_code":"9902335"},{"name":"蔵王山田","zip_code":"9902304"},{"name":"早乙女","zip_code":"9900003"},{"name":"境田町","zip_code":"9900819"},{"name":"栄原","zip_code":"9900077"},{"name":"肴町","zip_code":"9900824"},{"name":"桜ケ丘","zip_code":"9902376"},{"name":"桜田東","zip_code":"9902323"},{"name":"桜田西","zip_code":"9902321"},{"name":"桜田南","zip_code":"9902322"},{"name":"桜町","zip_code":"9900045"},{"name":"三社","zip_code":"9900898"},{"name":"志鎌","zip_code":"9900846"},{"name":"志戸田","zip_code":"9900868"},{"name":"渋江","zip_code":"9902173"},{"name":"島","zip_code":"9900870"},{"name":"嶋北","zip_code":"9900885"},{"name":"嶋南","zip_code":"9900886"},{"name":"下椹沢","zip_code":"9900858"},{"name":"下条町","zip_code":"9900823"},{"name":"下反田","zip_code":"9902385"},{"name":"下田","zip_code":"9900809"},{"name":"下東山","zip_code":"9902232"},{"name":"下宝沢","zip_code":"9900018"},{"name":"下柳","zip_code":"9902215"},{"name":"下山家町","zip_code":"9900005"},{"name":"釈迦堂","zip_code":"9900012"},{"name":"十文字","zip_code":"9902211"},{"name":"城南町","zip_code":"9900827"},{"name":"城北町","zip_code":"9900825"},{"name":"常明寺","zip_code":"9902381"},{"name":"白川","zip_code":"9900807"},{"name":"城西町","zip_code":"9900832"},{"name":"城森","zip_code":"9902343"},{"name":"新開","zip_code":"9902164"},{"name":"陣場","zip_code":"9900864"},{"name":"陣場新田","zip_code":"9900882"},{"name":"陣場南","zip_code":"9900860"},{"name":"末広町","zip_code":"9902494"},{"name":"菅沢","zip_code":"9902362"},{"name":"すげさわの丘","zip_code":"9902367"},{"name":"鮨洗","zip_code":"9900884"},{"name":"鈴川町","zip_code":"9900062"},{"name":"砂田","zip_code":"9900847"},{"name":"砂塚","zip_code":"9900854"},{"name":"諏訪町","zip_code":"9900033"},{"name":"関沢","zip_code":"9900016"},{"name":"瀬波","zip_code":"9900881"},{"name":"千刈","zip_code":"9902216"},{"name":"千石","zip_code":"9902227"},{"name":"千手堂","zip_code":"9902172"},{"name":"双月新町","zip_code":"9900008"},{"name":"双月町","zip_code":"9900065"},{"name":"反町","zip_code":"9902378"},{"name":"大師堂","zip_code":"9902364"},{"name":"大野目","zip_code":"9900073"},{"name":"高木","zip_code":"9902346"},{"name":"高沢","zip_code":"9902242"},{"name":"高田","zip_code":"9900808"},{"name":"高堂","zip_code":"9902464"},{"name":"高原町","zip_code":"9900002"},{"name":"滝平","zip_code":"9902382"},{"name":"立谷川","zip_code":"9902251"},{"name":"伊達城","zip_code":"9902163"},{"name":"壇野前","zip_code":"9900805"},{"name":"近田","zip_code":"9902224"},{"name":"千歳","zip_code":"9900812"},{"name":"千代田","zip_code":"9900855"},{"name":"津金沢","zip_code":"9902315"},{"name":"土坂","zip_code":"9902405"},{"name":"土樋","zip_code":"9900814"},{"name":"鉄砲町","zip_code":"9902492"},{"name":"寺西","zip_code":"9902213"},{"name":"天神台","zip_code":"9900867"},{"name":"天神町","zip_code":"9900801"},{"name":"十日町","zip_code":"9900031"},{"name":"藤治屋敷","zip_code":"9900806"},{"name":"塔の前","zip_code":"9902223"},{"name":"銅町","zip_code":"9900051"},{"name":"銅谷口","zip_code":"9900871"},{"name":"富神台","zip_code":"9902345"},{"name":"富神前","zip_code":"9902342"},{"name":"百目鬼","zip_code":"9902361"},{"name":"富の中","zip_code":"9902463"},{"name":"樋越","zip_code":"9900815"},{"name":"鳥居ケ丘","zip_code":"9902433"},{"name":"中桜田","zip_code":"9902422"},{"name":"中里","zip_code":"9902235"},{"name":"中沼","zip_code":"9900849"},{"name":"中野","zip_code":"9900892"},{"name":"中野目","zip_code":"9902175"},{"name":"長苗代","zip_code":"9902477"},{"name":"長町","zip_code":"9900811"},{"name":"七浦","zip_code":"9902171"},{"name":"七十刈","zip_code":"9900804"},{"name":"七日町","zip_code":"9900042"},{"name":"並柳","zip_code":"9902386"},{"name":"滑川","zip_code":"9900014"},{"name":"成沢西","zip_code":"9902339"},{"name":"成安","zip_code":"9900891"},{"name":"南栄町","zip_code":"9902445"},{"name":"二位田","zip_code":"9902355"},{"name":"新山","zip_code":"9900015"},{"name":"西江俣","zip_code":"9900862"},{"name":"錦町","zip_code":"9900056"},{"name":"西越","zip_code":"9902226"},{"name":"西崎","zip_code":"9900853"},{"name":"西田","zip_code":"9900831"},{"name":"西中野","zip_code":"9900893"},{"name":"西原","zip_code":"9900859"},{"name":"西見田","zip_code":"9900844"},{"name":"沼木","zip_code":"9902474"},{"name":"沼の辺町","zip_code":"9900007"},{"name":"灰塚","zip_code":"9902174"},{"name":"白山","zip_code":"9902446"},{"name":"羽黒堂","zip_code":"9902471"},{"name":"馬上台","zip_code":"9900865"},{"name":"長谷堂","zip_code":"9902363"},{"name":"旅篭町","zip_code":"9900047"},{"name":"八幡前","zip_code":"9900872"},{"name":"八森","zip_code":"9902404"},{"name":"花岡","zip_code":"9902225"},{"name":"花楯","zip_code":"9900067"},{"name":"浜崎","zip_code":"9900072"},{"name":"東青田","zip_code":"9902423"},{"name":"東篭野町","zip_code":"9900899"},{"name":"東志戸田","zip_code":"9900869"},{"name":"東田","zip_code":"9900897"},{"name":"東二位田","zip_code":"9902354"},{"name":"東原町","zip_code":"9900034"},{"name":"東半郷","zip_code":"9902308"},{"name":"東古館","zip_code":"9902375"},{"name":"東山形","zip_code":"9900022"},{"name":"桧町","zip_code":"9900813"},{"name":"平久保","zip_code":"9900076"},{"name":"平清水","zip_code":"9902401"},{"name":"深町","zip_code":"9902462"},{"name":"藤沢川","zip_code":"9902377"},{"name":"双葉町","zip_code":"9900828"},{"name":"船町","zip_code":"9900894"},{"name":"古館","zip_code":"9902374"},{"name":"平田","zip_code":"9900857"},{"name":"防原町","zip_code":"9900013"},{"name":"穂積","zip_code":"9900001"},{"name":"本町","zip_code":"9900043"},{"name":"前明石","zip_code":"9902352"},{"name":"前田町","zip_code":"9902411"},{"name":"松栄","zip_code":"9902473"},{"name":"松波","zip_code":"9900023"},{"name":"松原","zip_code":"9902313"},{"name":"松見町","zip_code":"9902431"},{"name":"松山","zip_code":"9902412"},{"name":"馬見ケ崎","zip_code":"9900810"},{"name":"見崎","zip_code":"9900803"},{"name":"見崎川原","zip_code":"9900802"},{"name":"三日町","zip_code":"9900036"},{"name":"緑町","zip_code":"9900041"},{"name":"南一番町","zip_code":"9902441"},{"name":"南二番町","zip_code":"9902442"},{"name":"南三番町","zip_code":"9902443"},{"name":"南四番町","zip_code":"9902444"},{"name":"南石関","zip_code":"9900836"},{"name":"南志戸田","zip_code":"9900879"},{"name":"南館","zip_code":"9902461"},{"name":"南館西","zip_code":"9902465"},{"name":"南原町","zip_code":"9902413"},{"name":"南半郷","zip_code":"9902306"},{"name":"南松原","zip_code":"9902312"},{"name":"みのりが丘","zip_code":"9902372"},{"name":"美畑町","zip_code":"9902493"},{"name":"宮浦","zip_code":"9900848"},{"name":"宮町","zip_code":"9900057"},{"name":"妙見寺","zip_code":"9900011"},{"name":"明神前","zip_code":"9902472"},{"name":"六日町","zip_code":"9900054"},{"name":"向新田","zip_code":"9900895"},{"name":"村木沢","zip_code":"9902371"},{"name":"元木","zip_code":"9902447"},{"name":"門伝","zip_code":"9902342"},{"name":"谷柏","zip_code":"9902314"},{"name":"薬師町","zip_code":"9900053"},{"name":"谷地前","zip_code":"9902366"},{"name":"山寺","zip_code":"9993301"},{"name":"やよい","zip_code":"9900835"},{"name":"山家本町","zip_code":"9900006"},{"name":"山家町","zip_code":"9900063"},{"name":"八日町","zip_code":"9900037"},{"name":"横井","zip_code":"9900866"},{"name":"横道","zip_code":"9900843"},{"name":"芳沢","zip_code":"9902383"},{"name":"芳野","zip_code":"9900074"},{"name":"吉野宿","zip_code":"9900883"},{"name":"吉原","zip_code":"9902451"},{"name":"吉原南","zip_code":"9902455"},{"name":"流通センター","zip_code":"9900071"},{"name":"若木","zip_code":"9902373"},{"name":"若葉町","zip_code":"9902495"},{"name":"若宮","zip_code":"9902453"},{"name":"和合町","zip_code":"9900064"}]},{"name":"米沢市","divisions":[{"name":"相生町","zip_code":"9920032"},{"name":"赤崩","zip_code":"9921406"},{"name":"赤芝町","zip_code":"9920075"},{"name":"浅川","zip_code":"9920112"},{"name":"梓川","zip_code":"9920115"},{"name":"吾妻町","zip_code":"9920034"},{"name":"アルカディア","zip_code":"9920119"},{"name":"泉町","zip_code":"9920063"},{"name":"板谷","zip_code":"9921331"},{"name":"入田沢","zip_code":"9921583"},{"name":"駅前","zip_code":"9920027"},{"name":"大小屋","zip_code":"9921204"},{"name":"大沢","zip_code":"9921203"},{"name":"太田町","zip_code":"9920035"},{"name":"大平","zip_code":"9921462"},{"name":"大町","zip_code":"9920031"},{"name":"小野川町","zip_code":"9920076"},{"name":"鍛冶町","zip_code":"9920014"},{"name":"春日","zip_code":"9920044"},{"name":"金池","zip_code":"9920012"},{"name":"上新田","zip_code":"9920118"},{"name":"川井","zip_code":"9920117"},{"name":"川井小路","zip_code":"9920016"},{"name":"神原","zip_code":"9921582"},{"name":"木場町","zip_code":"9920058"},{"name":"木和田","zip_code":"9920114"},{"name":"口田沢","zip_code":"9921581"},{"name":"窪田町窪田","zip_code":"9920003"},{"name":"窪田町小瀬","zip_code":"9920004"},{"name":"窪田町東江股","zip_code":"9920001"},{"name":"窪田町藤泉","zip_code":"9920005"},{"name":"窪田町矢野目","zip_code":"9920002"},{"name":"御廟","zip_code":"9920055"},{"name":"栄町","zip_code":"9920013"},{"name":"桜木町","zip_code":"9920017"},{"name":"笹野","zip_code":"9921443"},{"name":"笹野本町","zip_code":"9921445"},{"name":"笹野町","zip_code":"9921441"},{"name":"塩井町塩野","zip_code":"9920042"},{"name":"塩井町宮井","zip_code":"9920041"},{"name":"塩野","zip_code":"9920043"},{"name":"信夫町","zip_code":"9920046"},{"name":"下小菅","zip_code":"9920081"},{"name":"下新田","zip_code":"9920111"},{"name":"下花沢","zip_code":"9920023"},{"name":"城西","zip_code":"9920054"},{"name":"城南","zip_code":"9920038"},{"name":"城北","zip_code":"9920051"},{"name":"諸仏町","zip_code":"9921444"},{"name":"杉の目町","zip_code":"9920064"},{"name":"李山","zip_code":"9921461"},{"name":"関","zip_code":"9921472"},{"name":"関根","zip_code":"9921205"},{"name":"関町","zip_code":"9921473"},{"name":"竹井","zip_code":"9920116"},{"name":"立町","zip_code":"9920015"},{"name":"立石","zip_code":"9921471"},{"name":"舘山","zip_code":"9920072"},{"name":"舘山矢子町","zip_code":"9920071"},{"name":"中央","zip_code":"9920045"},{"name":"綱木","zip_code":"9921474"},{"name":"遠山町","zip_code":"9920066"},{"name":"通町","zip_code":"9920025"},{"name":"徳町","zip_code":"9920047"},{"name":"直江石堤","zip_code":"9921446"},{"name":"直江町","zip_code":"9920056"},{"name":"中田町","zip_code":"9920011"},{"name":"長手","zip_code":"9920113"},{"name":"成島町","zip_code":"9920057"},{"name":"西大通","zip_code":"9920059"},{"name":"八幡原","zip_code":"9921128"},{"name":"花沢","zip_code":"9920021"},{"name":"花沢町","zip_code":"9920022"},{"name":"万世町牛森","zip_code":"9921127"},{"name":"万世町片子","zip_code":"9921125"},{"name":"万世町金谷","zip_code":"9921124"},{"name":"万世町刈安","zip_code":"9921121"},{"name":"万世町桑山","zip_code":"9921123"},{"name":"万世町梓山","zip_code":"9921122"},{"name":"万世町立沢","zip_code":"9921201"},{"name":"万世町堂森","zip_code":"9921126"},{"name":"東","zip_code":"9920026"},{"name":"東大通","zip_code":"9920024"},{"name":"広幡町大沢","zip_code":"9920087"},{"name":"広幡町沖仲","zip_code":"9920085"},{"name":"広幡町小山田","zip_code":"9920082"},{"name":"広幡町上小菅","zip_code":"9920084"},{"name":"広幡町京塚","zip_code":"9920086"},{"name":"広幡町成島","zip_code":"9920083"},{"name":"吹屋敷町","zip_code":"9920073"},{"name":"福田","zip_code":"9920036"},{"name":"福田町","zip_code":"9920033"},{"name":"古志田町","zip_code":"9920065"},{"name":"芳泉町","zip_code":"9921442"},{"name":"堀川町","zip_code":"9920061"},{"name":"本町","zip_code":"9920037"},{"name":"松が岬","zip_code":"9920053"},{"name":"丸の内","zip_code":"9920052"},{"name":"三沢","zip_code":"9921202"},{"name":"南原石垣町","zip_code":"9921453"},{"name":"南原猪苗代町","zip_code":"9921455"},{"name":"南原笹野町","zip_code":"9921451"},{"name":"南原新町","zip_code":"9921454"},{"name":"南原横堀町","zip_code":"9921452"},{"name":"門東町","zip_code":"9920039"},{"name":"簗沢","zip_code":"9920077"},{"name":"矢来","zip_code":"9920074"},{"name":"林泉寺","zip_code":"9920062"},{"name":"六郷町桐原","zip_code":"9920091"},{"name":"六郷町轟","zip_code":"9920094"},{"name":"六郷町長橋","zip_code":"9920096"},{"name":"六郷町西江股","zip_code":"9920092"},{"name":"六郷町西藤泉","zip_code":"9920093"},{"name":"六郷町一漆","zip_code":"9920095"}]},{"name":"鶴岡市","divisions":[{"name":"青柳町","zip_code":"9970832"},{"name":"温海","zip_code":"9997205"},{"name":"温海川","zip_code":"9997312"},{"name":"油戸","zip_code":"9971205"},{"name":"荒井京田","zip_code":"9970051"},{"name":"荒沢","zip_code":"9970621"},{"name":"荒俣","zip_code":"9997673"},{"name":"新屋敷","zip_code":"9997682"},{"name":"安丹","zip_code":"9970057"},{"name":"砂谷","zip_code":"9970755"},{"name":"泉町","zip_code":"9970033"},{"name":"伊勢原町","zip_code":"9970802"},{"name":"伊勢横内","zip_code":"9970803"},{"name":"板井川","zip_code":"9970331"},{"name":"稲生","zip_code":"9970834"},{"name":"井岡","zip_code":"9970842"},{"name":"今泉","zip_code":"9971206"},{"name":"五十川","zip_code":"9997207"},{"name":"馬町","zip_code":"9971125"},{"name":"越後京田","zip_code":"9997635"},{"name":"越中山","zip_code":"9970403"},{"name":"海老島町","zip_code":"9970823"},{"name":"大網","zip_code":"9970531"},{"name":"大荒","zip_code":"9997547"},{"name":"大岩川","zip_code":"9997123"},{"name":"大川渡","zip_code":"9997661"},{"name":"大塚町","zip_code":"9970047"},{"name":"大鳥","zip_code":"9970622"},{"name":"大西町","zip_code":"9970831"},{"name":"大針","zip_code":"9970414"},{"name":"大広","zip_code":"9997543"},{"name":"大山","zip_code":"9971124"},{"name":"大淀川","zip_code":"9970854"},{"name":"岡山","zip_code":"9970843"},{"name":"遠賀原","zip_code":"9970806"},{"name":"小国","zip_code":"9997316"},{"name":"小名部","zip_code":"9997125"},{"name":"面野山","zip_code":"9971116"},{"name":"覚岸寺","zip_code":"9970052"},{"name":"堅苔沢","zip_code":"9997461"},{"name":"家中新町","zip_code":"9970036"},{"name":"桂荒俣","zip_code":"9970343"},{"name":"金谷","zip_code":"9970365"},{"name":"金沢","zip_code":"9971203"},{"name":"上清水","zip_code":"9970847"},{"name":"上田沢","zip_code":"9970623"},{"name":"上中野目","zip_code":"9997664"},{"name":"上名川","zip_code":"9970405"},{"name":"上畑町","zip_code":"9970032"},{"name":"上藤島","zip_code":"9997611"},{"name":"上山添","zip_code":"9970346"},{"name":"上山谷","zip_code":"9970367"},{"name":"加茂","zip_code":"9971204"},{"name":"我老林","zip_code":"9970805"},{"name":"川尻","zip_code":"9997644"},{"name":"北京田","zip_code":"9970053"},{"name":"木野俣","zip_code":"9997313"},{"name":"切添町","zip_code":"9970022"},{"name":"工藤","zip_code":"9997646"},{"name":"熊出","zip_code":"9970411"},{"name":"倉沢","zip_code":"9970624"},{"name":"黒川","zip_code":"9970311"},{"name":"小岩川","zip_code":"9997122"},{"name":"越沢","zip_code":"9997314"},{"name":"小京田","zip_code":"9970005"},{"name":"小菅野代","zip_code":"9997206"},{"name":"寿","zip_code":"9970363"},{"name":"小中島","zip_code":"9997632"},{"name":"小波渡","zip_code":"9997462"},{"name":"小真木原町","zip_code":"9970825"},{"name":"小淀川","zip_code":"9970853"},{"name":"斎藤川原","zip_code":"9970804"},{"name":"坂野下","zip_code":"9970757"},{"name":"鷺畑","zip_code":"9997651"},{"name":"桜新町","zip_code":"9970861"},{"name":"三光町","zip_code":"9970821"},{"name":"三瀬","zip_code":"9997463"},{"name":"三千刈","zip_code":"9970342"},{"name":"山王町","zip_code":"9970028"},{"name":"清水新田","zip_code":"9970848"},{"name":"下川","zip_code":"9971117"},{"name":"下興屋","zip_code":"9971133"},{"name":"下小中","zip_code":"9971134"},{"name":"下清水","zip_code":"9970845"},{"name":"下田沢","zip_code":"9970625"},{"name":"下中野目","zip_code":"9997637"},{"name":"下名川","zip_code":"9970404"},{"name":"下山添","zip_code":"9970341"},{"name":"勝福寺","zip_code":"9970351"},{"name":"城南町","zip_code":"9970814"},{"name":"城北町","zip_code":"9970041"},{"name":"青龍寺","zip_code":"9970368"},{"name":"少連寺","zip_code":"9970754"},{"name":"昭和町","zip_code":"9970027"},{"name":"白山","zip_code":"9970841"},{"name":"新海町","zip_code":"9970044"},{"name":"新斎部","zip_code":"9970852"},{"name":"神明町","zip_code":"9970811"},{"name":"末広町","zip_code":"9970015"},{"name":"菅野代","zip_code":"9997311"},{"name":"砂川","zip_code":"9970415"},{"name":"砂田町","zip_code":"9970839"},{"name":"砂塚","zip_code":"9997685"},{"name":"須走","zip_code":"9997633"},{"name":"関川","zip_code":"9997315"},{"name":"関根","zip_code":"9970758"},{"name":"千石町","zip_code":"9970813"},{"name":"添川","zip_code":"9996652"},{"name":"大東町","zip_code":"9970026"},{"name":"大半田","zip_code":"9997677"},{"name":"大部町","zip_code":"9970049"},{"name":"大宝寺","zip_code":"9970117"},{"name":"高坂","zip_code":"9970369"},{"name":"高田","zip_code":"9970054"},{"name":"宝田","zip_code":"9970011"},{"name":"宝町","zip_code":"9970021"},{"name":"田川","zip_code":"9970753"},{"name":"滝沢","zip_code":"9970364"},{"name":"蛸井興屋","zip_code":"9997663"},{"name":"田代","zip_code":"9970302"},{"name":"谷定","zip_code":"9970366"},{"name":"田麦俣","zip_code":"9970532"},{"name":"たらのき代","zip_code":"9970303"},{"name":"大宝寺町","zip_code":"9970014"},{"name":"千安京田","zip_code":"9971114"},{"name":"長者町","zip_code":"9970812"},{"name":"朝暘町","zip_code":"9970024"},{"name":"茅原","zip_code":"9970019"},{"name":"茅原町","zip_code":"9970018"},{"name":"辻興屋","zip_code":"9971115"},{"name":"寺田","zip_code":"9970836"},{"name":"道形","zip_code":"9970012"},{"name":"道形町","zip_code":"9970013"},{"name":"常盤木","zip_code":"9970333"},{"name":"戸沢","zip_code":"9997202"},{"name":"栃屋","zip_code":"9971132"},{"name":"外内島","zip_code":"9970815"},{"name":"友江","zip_code":"9971122"},{"name":"友江町","zip_code":"9971123"},{"name":"豊田","zip_code":"9970007"},{"name":"鳥居町","zip_code":"9970023"},{"name":"苗津","zip_code":"9970808"},{"name":"苗津町","zip_code":"9970809"},{"name":"中京田","zip_code":"9970009"},{"name":"中沢","zip_code":"9997546"},{"name":"中清水","zip_code":"9970846"},{"name":"中田","zip_code":"9970345"},{"name":"中楯","zip_code":"9971135"},{"name":"長沼","zip_code":"9997621"},{"name":"中野京田","zip_code":"9970056"},{"name":"中野新田","zip_code":"9970401"},{"name":"中橋","zip_code":"9970362"},{"name":"中山","zip_code":"9997544"},{"name":"行沢","zip_code":"9970413"},{"name":"長崎","zip_code":"9971113"},{"name":"新形町","zip_code":"9970042"},{"name":"西荒屋","zip_code":"9970332"},{"name":"西片屋","zip_code":"9970323"},{"name":"錦町","zip_code":"9970031"},{"name":"西京田","zip_code":"9970055"},{"name":"西新斎町","zip_code":"9970045"},{"name":"西沼","zip_code":"9971112"},{"name":"西目","zip_code":"9997541"},{"name":"布目","zip_code":"9970851"},{"name":"鼠ケ関","zip_code":"9997126"},{"name":"のぞみ町","zip_code":"9970819"},{"name":"野田目","zip_code":"9997636"},{"name":"羽黒町赤川","zip_code":"9970167"},{"name":"羽黒町荒川","zip_code":"9970141"},{"name":"羽黒町石野新田","zip_code":"9970155"},{"name":"羽黒町市野山","zip_code":"9970123"},{"name":"羽黒町猪俣新田","zip_code":"9970152"},{"name":"羽黒町後田","zip_code":"9970157"},{"name":"羽黒町上野新田","zip_code":"9970142"},{"name":"羽黒町大口","zip_code":"9970122"},{"name":"羽黒町押口","zip_code":"9970161"},{"name":"羽黒町金森目","zip_code":"9970108"},{"name":"羽黒町狩谷野目","zip_code":"9970163"},{"name":"羽黒町川代","zip_code":"9970131"},{"name":"羽黒町川行","zip_code":"9970105"},{"name":"羽黒町黒瀬","zip_code":"9970151"},{"name":"羽黒町小増川","zip_code":"9970107"},{"name":"羽黒町坂ノ下","zip_code":"9970104"},{"name":"羽黒町十文字","zip_code":"9970127"},{"name":"羽黒町仙道","zip_code":"9970125"},{"name":"羽黒町染興屋","zip_code":"9970106"},{"name":"羽黒町高寺","zip_code":"9970153"},{"name":"羽黒町玉川","zip_code":"9970121"},{"name":"羽黒町手向","zip_code":"9970211"},{"name":"羽黒町戸野","zip_code":"9970103"},{"name":"羽黒町富沢","zip_code":"9970165"},{"name":"羽黒町中里","zip_code":"9970102"},{"name":"羽黒町野荒町","zip_code":"9970126"},{"name":"羽黒町野田","zip_code":"9970143"},{"name":"羽黒町昼田","zip_code":"9970164"},{"name":"羽黒町細谷","zip_code":"9970162"},{"name":"羽黒町増川新田","zip_code":"9970124"},{"name":"羽黒町町屋","zip_code":"9970101"},{"name":"羽黒町松尾","zip_code":"9970156"},{"name":"羽黒町松ケ岡","zip_code":"9970158"},{"name":"羽黒町馬渡ノ内下","zip_code":"9970154"},{"name":"羽黒町三ツ橋","zip_code":"9970166"},{"name":"馬場町","zip_code":"9970035"},{"name":"林崎","zip_code":"9970058"},{"name":"茨新田","zip_code":"9971111"},{"name":"播磨","zip_code":"9970002"},{"name":"番田","zip_code":"9970835"},{"name":"日枝","zip_code":"9970824"},{"name":"東荒屋","zip_code":"9970344"},{"name":"東岩本","zip_code":"9970402"},{"name":"東新斎町","zip_code":"9970043"},{"name":"東原町","zip_code":"9970801"},{"name":"東堀越","zip_code":"9997653"},{"name":"東目","zip_code":"9970756"},{"name":"菱津","zip_code":"9971131"},{"name":"一霞","zip_code":"9997203"},{"name":"日出","zip_code":"9970025"},{"name":"日吉町","zip_code":"9970029"},{"name":"日和田町","zip_code":"9970016"},{"name":"平形","zip_code":"9997681"},{"name":"平田","zip_code":"9970008"},{"name":"福田","zip_code":"9970006"},{"name":"藤岡","zip_code":"9997638"},{"name":"藤沢","zip_code":"9970751"},{"name":"藤島","zip_code":"9997601"},{"name":"藤島関根","zip_code":"9997642"},{"name":"藤浪","zip_code":"9997604"},{"name":"藤の花","zip_code":"9997602"},{"name":"双葉町","zip_code":"9970822"},{"name":"文園町","zip_code":"9970816"},{"name":"古郡","zip_code":"9997671"},{"name":"平京田","zip_code":"9970048"},{"name":"平成町","zip_code":"9971156"},{"name":"平足","zip_code":"9997645"},{"name":"豊栄","zip_code":"9997622"},{"name":"文下","zip_code":"9970003"},{"name":"宝徳","zip_code":"9997675"},{"name":"宝谷","zip_code":"9970321"},{"name":"ほなみ町","zip_code":"9970862"},{"name":"本郷","zip_code":"9970412"},{"name":"本町","zip_code":"9970034"},{"name":"本田","zip_code":"9970004"},{"name":"槇代","zip_code":"9997124"},{"name":"幕野内","zip_code":"9997676"},{"name":"松沢","zip_code":"9970626"},{"name":"松根","zip_code":"9970322"},{"name":"丸岡","zip_code":"9970334"},{"name":"馬渡","zip_code":"9970301"},{"name":"美咲町","zip_code":"9970857"},{"name":"水沢","zip_code":"9997542"},{"name":"みずほ","zip_code":"9997548"},{"name":"道田町","zip_code":"9970837"},{"name":"みどり町","zip_code":"9970046"},{"name":"美原町","zip_code":"9970826"},{"name":"箕升新田","zip_code":"9997674"},{"name":"宮沢","zip_code":"9971202"},{"name":"三和","zip_code":"9997634"},{"name":"三和町","zip_code":"9970818"},{"name":"民田","zip_code":"9970361"},{"name":"睦町","zip_code":"9970817"},{"name":"森片","zip_code":"9970844"},{"name":"八色木","zip_code":"9997631"},{"name":"谷地興屋","zip_code":"9997662"},{"name":"八ツ興屋","zip_code":"9970807"},{"name":"柳田","zip_code":"9970833"},{"name":"柳久瀬","zip_code":"9997672"},{"name":"矢馳","zip_code":"9970855"},{"name":"矢引","zip_code":"9997545"},{"name":"山五十川","zip_code":"9997201"},{"name":"山田","zip_code":"9970856"},{"name":"湯温海","zip_code":"9997204"},{"name":"楪","zip_code":"9997641"},{"name":"湯田川","zip_code":"9970752"},{"name":"湯野沢","zip_code":"9970001"},{"name":"湯野浜","zip_code":"9971201"},{"name":"由良","zip_code":"9997464"},{"name":"陽光町","zip_code":"9970827"},{"name":"余慶町","zip_code":"9970010"},{"name":"淀川町","zip_code":"9970838"},{"name":"無音","zip_code":"9997643"},{"name":"若葉町","zip_code":"9970037"},{"name":"早田","zip_code":"9997121"},{"name":"渡前","zip_code":"9997683"},{"name":"和名川","zip_code":"9997684"}]},{"name":"酒田市","divisions":[{"name":"相生町","zip_code":"9980032"},{"name":"相沢","zip_code":"9996852"},{"name":"赤剥","zip_code":"9998203"},{"name":"あきほ町","zip_code":"9980828"},{"name":"曙町","zip_code":"9980862"},{"name":"旭新町","zip_code":"9980021"},{"name":"飛鳥","zip_code":"9996711"},{"name":"東町","zip_code":"9980875"},{"name":"荒町","zip_code":"9996834"},{"name":"飯森山","zip_code":"9980055"},{"name":"石名坂","zip_code":"9996853"},{"name":"石橋","zip_code":"9996704"},{"name":"泉興野","zip_code":"9996708"},{"name":"泉町","zip_code":"9980018"},{"name":"板戸","zip_code":"9997774"},{"name":"市条","zip_code":"9998232"},{"name":"一番町","zip_code":"9980046"},{"name":"稲荷沢","zip_code":"9996826"},{"name":"入船町","zip_code":"9980836"},{"name":"臼ケ沢","zip_code":"9996815"},{"name":"内町","zip_code":"9996831"},{"name":"漆曽根","zip_code":"9998164"},{"name":"駅東","zip_code":"9980022"},{"name":"円能寺","zip_code":"9998153"},{"name":"生石","zip_code":"9980802"},{"name":"大川渡","zip_code":"9996813"},{"name":"大久保","zip_code":"9998244"},{"name":"大島田","zip_code":"9998225"},{"name":"大多新田","zip_code":"9980877"},{"name":"大槻新田","zip_code":"9980803"},{"name":"大豊田","zip_code":"9998133"},{"name":"大沼新田","zip_code":"9996816"},{"name":"大野新田","zip_code":"9980816"},{"name":"大浜","zip_code":"9980064"},{"name":"大町","zip_code":"9980859"},{"name":"大宮","zip_code":"9980822"},{"name":"大宮町","zip_code":"9980824"},{"name":"大蕨","zip_code":"9998215"},{"name":"岡島田","zip_code":"9998227"},{"name":"荻島","zip_code":"9980871"},{"name":"落野目","zip_code":"9997775"},{"name":"御成町","zip_code":"9980024"},{"name":"小見","zip_code":"9996845"},{"name":"卸町","zip_code":"9980823"},{"name":"柏谷沢","zip_code":"9996811"},{"name":"片町","zip_code":"9996838"},{"name":"勝保関","zip_code":"9980818"},{"name":"門田","zip_code":"9997772"},{"name":"金谷","zip_code":"9996837"},{"name":"上青沢","zip_code":"9998212"},{"name":"上北目","zip_code":"9996843"},{"name":"上黒川","zip_code":"9998206"},{"name":"上興野","zip_code":"9998163"},{"name":"上野曽根","zip_code":"9998162"},{"name":"上本町","zip_code":"9980042"},{"name":"上餅山","zip_code":"9996842"},{"name":"上安田","zip_code":"9998152"},{"name":"上安町","zip_code":"9980011"},{"name":"亀ケ崎","zip_code":"9980842"},{"name":"刈穂","zip_code":"9998143"},{"name":"刈屋","zip_code":"9998132"},{"name":"観音寺","zip_code":"9998235"},{"name":"木川","zip_code":"9997773"},{"name":"北青沢","zip_code":"9998211"},{"name":"北今町","zip_code":"9980027"},{"name":"北里町","zip_code":"9980028"},{"name":"北沢","zip_code":"9980801"},{"name":"北仁田","zip_code":"9998243"},{"name":"北新橋","zip_code":"9980865"},{"name":"北新町","zip_code":"9980062"},{"name":"北千日町","zip_code":"9980016"},{"name":"北千日堂前","zip_code":"9980015"},{"name":"北浜町","zip_code":"9980072"},{"name":"北平沢","zip_code":"9998222"},{"name":"北俣","zip_code":"9996741"},{"name":"北町","zip_code":"9996833"},{"name":"城輪","zip_code":"9998142"},{"name":"京田","zip_code":"9980102"},{"name":"草刈谷地","zip_code":"9980827"},{"name":"草津","zip_code":"9998207"},{"name":"久保田","zip_code":"9998156"},{"name":"熊手島","zip_code":"9980817"},{"name":"熊野田","zip_code":"9980819"},{"name":"蔵小路","zip_code":"9996835"},{"name":"黒森","zip_code":"9980111"},{"name":"こあら","zip_code":"9980878"},{"name":"古荒新田","zip_code":"9980876"},{"name":"小泉","zip_code":"9998234"},{"name":"広栄町","zip_code":"9980104"},{"name":"郡山","zip_code":"9996707"},{"name":"こがね町","zip_code":"9980852"},{"name":"寿町","zip_code":"9980035"},{"name":"小林","zip_code":"9996735"},{"name":"小牧","zip_code":"9980815"},{"name":"小牧新田","zip_code":"9980814"},{"name":"古湊町","zip_code":"9980071"},{"name":"幸町","zip_code":"9980023"},{"name":"境興野","zip_code":"9980806"},{"name":"酒井新田","zip_code":"9980003"},{"name":"栄町","zip_code":"9980026"},{"name":"肴町","zip_code":"9996836"},{"name":"坂野辺新田","zip_code":"9980101"},{"name":"桜林","zip_code":"9996705"},{"name":"桜林興野","zip_code":"9996706"},{"name":"砂越","zip_code":"9996701"},{"name":"砂越緑町","zip_code":"9996702"},{"name":"山居町","zip_code":"9980838"},{"name":"三之宮","zip_code":"9996723"},{"name":"下瀬","zip_code":"9980837"},{"name":"地見興屋","zip_code":"9996814"},{"name":"下青沢","zip_code":"9998213"},{"name":"下黒川","zip_code":"9998205"},{"name":"下餅山","zip_code":"9996846"},{"name":"下安町","zip_code":"9980012"},{"name":"十里塚","zip_code":"9980114"},{"name":"常禅寺","zip_code":"9998214"},{"name":"真学寺沢","zip_code":"9996823"},{"name":"新出","zip_code":"9998204"},{"name":"新橋","zip_code":"9980864"},{"name":"新町","zip_code":"9996837"},{"name":"新屋敷","zip_code":"9996832"},{"name":"末広町","zip_code":"9980854"},{"name":"住吉町","zip_code":"9980029"},{"name":"関","zip_code":"9980805"},{"name":"芹田","zip_code":"9998246"},{"name":"千石町","zip_code":"9980843"},{"name":"千日町","zip_code":"9980014"},{"name":"総光寺沢","zip_code":"9996831"},{"name":"曽根田","zip_code":"9998155"},{"name":"高砂","zip_code":"9980075"},{"name":"高見台","zip_code":"9980051"},{"name":"竹田","zip_code":"9996848"},{"name":"田沢","zip_code":"9996731"},{"name":"楯山","zip_code":"9996732"},{"name":"中央東町","zip_code":"9980033"},{"name":"中央西町","zip_code":"9980034"},{"name":"千代田","zip_code":"9998422"},{"name":"塚淵","zip_code":"9998245"},{"name":"土崎","zip_code":"9980873"},{"name":"土渕","zip_code":"9996839"},{"name":"堤町","zip_code":"9980835"},{"name":"局","zip_code":"9997771"},{"name":"鶴田","zip_code":"9998168"},{"name":"手蔵田","zip_code":"9980811"},{"name":"寺田","zip_code":"9998221"},{"name":"天神堂","zip_code":"9996703"},{"name":"東栄町","zip_code":"9980856"},{"name":"飛島","zip_code":"9980281"},{"name":"豊里","zip_code":"9980004"},{"name":"豊原","zip_code":"9998141"},{"name":"泥沢","zip_code":"9998202"},{"name":"中北目","zip_code":"9996844"},{"name":"中野新田","zip_code":"9980872"},{"name":"中野曽根","zip_code":"9998165"},{"name":"中野俣","zip_code":"9996727"},{"name":"中野目","zip_code":"9996722"},{"name":"中牧田","zip_code":"9996851"},{"name":"中町","zip_code":"9980044"},{"name":"仲町","zip_code":"9996827"},{"name":"楢橋","zip_code":"9996712"},{"name":"成興野","zip_code":"9996812"},{"name":"新青渡","zip_code":"9998157"},{"name":"新井田町","zip_code":"9980041"},{"name":"新堀","zip_code":"9997776"},{"name":"錦町","zip_code":"9980103"},{"name":"西坂本","zip_code":"9996733"},{"name":"西田","zip_code":"9996862"},{"name":"西野町","zip_code":"9980017"},{"name":"仁助谷地","zip_code":"9980829"},{"name":"二番町","zip_code":"9980045"},{"name":"庭田","zip_code":"9998144"},{"name":"布目","zip_code":"9998158"},{"name":"橋本","zip_code":"9998242"},{"name":"初瀬","zip_code":"9980826"},{"name":"浜田","zip_code":"9980031"},{"name":"浜中","zip_code":"9980112"},{"name":"浜松町","zip_code":"9980074"},{"name":"茨野新田","zip_code":"9980813"},{"name":"光ケ丘","zip_code":"9980061"},{"name":"東泉町","zip_code":"9980013"},{"name":"東大町","zip_code":"9980851"},{"name":"東中の口町","zip_code":"9980855"},{"name":"東両羽町","zip_code":"9980831"},{"name":"引地","zip_code":"9996847"},{"name":"日の出町","zip_code":"9980863"},{"name":"日吉町","zip_code":"9980037"},{"name":"広岡新田","zip_code":"9980113"},{"name":"広野","zip_code":"9980125"},{"name":"広野新田","zip_code":"9980105"},{"name":"福山","zip_code":"9998241"},{"name":"藤塚","zip_code":"9980002"},{"name":"富士見町","zip_code":"9980861"},{"name":"船場町","zip_code":"9980036"},{"name":"麓","zip_code":"9998231"},{"name":"古青渡","zip_code":"9998154"},{"name":"法連寺","zip_code":"9998233"},{"name":"穂積","zip_code":"9998131"},{"name":"堀野内","zip_code":"9996721"},{"name":"本川","zip_code":"9980812"},{"name":"本町","zip_code":"9980043"},{"name":"前川","zip_code":"9998224"},{"name":"牧曽根","zip_code":"9998166"},{"name":"升田","zip_code":"9998201"},{"name":"松原南","zip_code":"9980841"},{"name":"松美町","zip_code":"9980073"},{"name":"丸沼","zip_code":"9997777"},{"name":"政所","zip_code":"9998226"},{"name":"みずほ","zip_code":"9980853"},{"name":"緑ケ丘","zip_code":"9980052"},{"name":"緑町","zip_code":"9980858"},{"name":"南新町","zip_code":"9980063"},{"name":"南新屋敷","zip_code":"9996822"},{"name":"南千日町","zip_code":"9980025"},{"name":"南平沢","zip_code":"9998223"},{"name":"南町","zip_code":"9996825"},{"name":"宮内","zip_code":"9998423"},{"name":"宮海","zip_code":"9980005"},{"name":"宮野浦","zip_code":"9980054"},{"name":"茗ケ沢","zip_code":"9996841"},{"name":"元新屋敷","zip_code":"9996824"},{"name":"本楯","zip_code":"9998134"},{"name":"保岡","zip_code":"9998145"},{"name":"安田","zip_code":"9998151"},{"name":"山田","zip_code":"9996861"},{"name":"山楯","zip_code":"9996724"},{"name":"山寺","zip_code":"9996821"},{"name":"山元","zip_code":"9996734"},{"name":"山谷","zip_code":"9996726"},{"name":"山谷新田","zip_code":"9996725"},{"name":"遊摺部","zip_code":"9980821"},{"name":"ゆたか","zip_code":"9980006"},{"name":"横代","zip_code":"9980804"},{"name":"吉田","zip_code":"9998161"},{"name":"吉田新田","zip_code":"9998167"},{"name":"四ツ興野","zip_code":"9980874"},{"name":"米島","zip_code":"9998421"},{"name":"両羽町","zip_code":"9980832"},{"name":"若竹町","zip_code":"9980834"},{"name":"若浜町","zip_code":"9980857"},{"name":"若原町","zip_code":"9980833"},{"name":"若宮町","zip_code":"9980053"}]},{"name":"新庄市","divisions":[{"name":"新町","zip_code":"9960078"},{"name":"石川町","zip_code":"9960086"},{"name":"泉田","zip_code":"9995103"},{"name":"五日町","zip_code":"9960001"},{"name":"大手町","zip_code":"9960084"},{"name":"大町","zip_code":"9960026"},{"name":"沖の町","zip_code":"9960023"},{"name":"小田島","zip_code":"9960074"},{"name":"小田島町","zip_code":"9960071"},{"name":"金沢","zip_code":"9960002"},{"name":"上金沢町","zip_code":"9960032"},{"name":"北町","zip_code":"9960082"},{"name":"栄町","zip_code":"9960073"},{"name":"下金沢町","zip_code":"9960033"},{"name":"下田町","zip_code":"9960034"},{"name":"城南町","zip_code":"9960077"},{"name":"昭和","zip_code":"9995101"},{"name":"城西町","zip_code":"9960076"},{"name":"末広町","zip_code":"9960031"},{"name":"住吉町","zip_code":"9960022"},{"name":"千門町","zip_code":"9960079"},{"name":"多門町","zip_code":"9960024"},{"name":"角沢","zip_code":"9960052"},{"name":"鉄砲町","zip_code":"9960035"},{"name":"十日町","zip_code":"9995191"},{"name":"常葉町","zip_code":"9960021"},{"name":"飛田","zip_code":"9960061"},{"name":"鳥越","zip_code":"9960041"},{"name":"中道町","zip_code":"9960081"},{"name":"仁間","zip_code":"9960054"},{"name":"沼田","zip_code":"9960087"},{"name":"沼田町","zip_code":"9960083"},{"name":"萩野","zip_code":"9995102"},{"name":"万場町","zip_code":"9960028"},{"name":"東谷地田町","zip_code":"9960011"},{"name":"桧町","zip_code":"9960088"},{"name":"福田","zip_code":"9960053"},{"name":"堀端町","zip_code":"9960085"},{"name":"本町","zip_code":"9960027"},{"name":"升形","zip_code":"9960111"},{"name":"松本","zip_code":"9960051"},{"name":"宮内町","zip_code":"9960072"},{"name":"本合海","zip_code":"9960112"},{"name":"横打町","zip_code":"9960075"},{"name":"若葉町","zip_code":"9960025"}]},{"name":"寒河江市","divisions":[{"name":"石持町","zip_code":"9910027"},{"name":"内ノ袋","zip_code":"9910057"},{"name":"落衣前","zip_code":"9910056"},{"name":"上河原","zip_code":"9910006"},{"name":"菊地堂","zip_code":"9910008"},{"name":"雲河原","zip_code":"9910008"},{"name":"越井坂町","zip_code":"9910044"},{"name":"小沼町","zip_code":"9910045"},{"name":"幸町","zip_code":"9910035"},{"name":"栄町","zip_code":"9910034"},{"name":"寒河江","zip_code":"9910041"},{"name":"幸生","zip_code":"9900502"},{"name":"幸田町","zip_code":"9910052"},{"name":"慈恩寺","zip_code":"9900511"},{"name":"柴橋","zip_code":"9910063"},{"name":"島","zip_code":"9910043"},{"name":"下河原","zip_code":"9910002"},{"name":"白岩","zip_code":"9900505"},{"name":"新山","zip_code":"9910047"},{"name":"新山町","zip_code":"9910012"},{"name":"末広町","zip_code":"9910033"},{"name":"清助新田","zip_code":"9900522"},{"name":"高田","zip_code":"9910013"},{"name":"高松","zip_code":"9900524"},{"name":"高屋","zip_code":"9910042"},{"name":"田代","zip_code":"9900503"},{"name":"中央","zip_code":"9910021"},{"name":"中央工業団地","zip_code":"9900561"},{"name":"道生","zip_code":"9910007"},{"name":"留場","zip_code":"9900504"},{"name":"中河原","zip_code":"9910005"},{"name":"中郷","zip_code":"9910065"},{"name":"仲谷地","zip_code":"9910054"},{"name":"七日町","zip_code":"9910022"},{"name":"西根","zip_code":"9910003"},{"name":"西根北町","zip_code":"9910004"},{"name":"日田","zip_code":"9910011"},{"name":"入倉","zip_code":"9910001"},{"name":"東新山町","zip_code":"9910046"},{"name":"平塩","zip_code":"9910064"},{"name":"日和田","zip_code":"9900513"},{"name":"船橋町","zip_code":"9910055"},{"name":"ほなみ","zip_code":"9910028"},{"name":"本町","zip_code":"9910031"},{"name":"松川","zip_code":"9910066"},{"name":"丸内","zip_code":"9910023"},{"name":"みずき","zip_code":"9910048"},{"name":"緑町","zip_code":"9910062"},{"name":"南町","zip_code":"9910032"},{"name":"箕輪","zip_code":"9900512"},{"name":"宮内","zip_code":"9900501"},{"name":"本楯","zip_code":"9910049"},{"name":"元町","zip_code":"9910053"},{"name":"八鍬","zip_code":"9900523"},{"name":"谷沢","zip_code":"9900521"},{"name":"山岸町","zip_code":"9910026"},{"name":"八幡町","zip_code":"9910025"},{"name":"夕カヘ","zip_code":"9910006"},{"name":"米沢","zip_code":"9900525"},{"name":"六供町","zip_code":"9910024"},{"name":"若葉町","zip_code":"9910051"}]},{"name":"上山市","divisions":[{"name":"相生","zip_code":"9993222"},{"name":"朝日台","zip_code":"9993164"},{"name":"旭町","zip_code":"9993106"},{"name":"阿弥陀地","zip_code":"9993235"},{"name":"石崎","zip_code":"9993144"},{"name":"石曽根","zip_code":"9993244"},{"name":"石堂","zip_code":"9993231"},{"name":"泉川","zip_code":"9993105"},{"name":"裏町","zip_code":"9993165"},{"name":"御井戸丁","zip_code":"9993157"},{"name":"大石","zip_code":"9993167"},{"name":"小倉","zip_code":"9993112"},{"name":"小笹","zip_code":"9993214"},{"name":"小白府","zip_code":"9993172"},{"name":"金生","zip_code":"9993124"},{"name":"金生西","zip_code":"9993126"},{"name":"金生東","zip_code":"9993125"},{"name":"金瓶","zip_code":"9993101"},{"name":"金谷","zip_code":"9993103"},{"name":"金山","zip_code":"9993226"},{"name":"上生居","zip_code":"9993204"},{"name":"軽井沢","zip_code":"9993163"},{"name":"川口","zip_code":"9993245"},{"name":"河崎","zip_code":"9993145"},{"name":"北町","zip_code":"9993131"},{"name":"北町本丁","zip_code":"9993151"},{"name":"久保川","zip_code":"9993215"},{"name":"久保手","zip_code":"9993166"},{"name":"けやきの森","zip_code":"9993241"},{"name":"小穴","zip_code":"9993237"},{"name":"高野","zip_code":"9993115"},{"name":"権現堂","zip_code":"9993111"},{"name":"蔵王","zip_code":"9993113"},{"name":"蔵王の森","zip_code":"9993104"},{"name":"栄町","zip_code":"9993132"},{"name":"沢丁","zip_code":"9993142"},{"name":"三本松","zip_code":"9993233"},{"name":"下生居","zip_code":"9993202"},{"name":"菖蒲","zip_code":"9993217"},{"name":"新金谷","zip_code":"9993102"},{"name":"新丁","zip_code":"9993152"},{"name":"新町","zip_code":"9993158"},{"name":"新湯","zip_code":"9993141"},{"name":"須田板","zip_code":"9993213"},{"name":"関根","zip_code":"9993221"},{"name":"仙石","zip_code":"9993122"},{"name":"大門","zip_code":"9993216"},{"name":"高松","zip_code":"9993243"},{"name":"鶴脛町","zip_code":"9993155"},{"name":"藤吾","zip_code":"9993234"},{"name":"十日町","zip_code":"9993153"},{"name":"中生居","zip_code":"9993203"},{"name":"中山","zip_code":"9993246"},{"name":"長清水","zip_code":"9993232"},{"name":"永野","zip_code":"9993114"},{"name":"楢下","zip_code":"9993225"},{"name":"葉山","zip_code":"9993242"},{"name":"原口","zip_code":"9993212"},{"name":"東町","zip_code":"9993121"},{"name":"二日町","zip_code":"9993143"},{"name":"弁天","zip_code":"9993161"},{"name":"細谷","zip_code":"9993236"},{"name":"牧野","zip_code":"9993211"},{"name":"松山","zip_code":"9993146"},{"name":"三上","zip_code":"9993223"},{"name":"美咲町","zip_code":"9993123"},{"name":"皆沢","zip_code":"9993224"},{"name":"南町","zip_code":"9993135"},{"name":"宮脇","zip_code":"9993201"},{"name":"狸森","zip_code":"9993171"},{"name":"元城内","zip_code":"9993154"},{"name":"矢来","zip_code":"9993134"},{"name":"湯町","zip_code":"9993156"},{"name":"八日町","zip_code":"9993133"},{"name":"四ツ谷","zip_code":"9993162"}]},{"name":"村山市","divisions":[{"name":"五十沢","zip_code":"9950002"},{"name":"稲下","zip_code":"9950204"},{"name":"岩野","zip_code":"9950113"},{"name":"駅西","zip_code":"9950038"},{"name":"大久保","zip_code":"9950111"},{"name":"大槇","zip_code":"9950203"},{"name":"大淀","zip_code":"9950054"},{"name":"金谷","zip_code":"9950004"},{"name":"河島","zip_code":"9950041"},{"name":"河島山","zip_code":"9950056"},{"name":"碁点","zip_code":"9950209"},{"name":"白鳥","zip_code":"9950202"},{"name":"杉島","zip_code":"9950042"},{"name":"田沢","zip_code":"9950051"},{"name":"楯岡","zip_code":"9950025"},{"name":"楯岡荒町","zip_code":"9950032"},{"name":"楯岡五日町","zip_code":"9950034"},{"name":"楯岡大沢川","zip_code":"9950031"},{"name":"楯岡北町","zip_code":"9950011"},{"name":"楯岡新高田","zip_code":"9950018"},{"name":"楯岡新町","zip_code":"9950033"},{"name":"楯岡楯","zip_code":"9950021"},{"name":"楯岡俵町","zip_code":"9950037"},{"name":"楯岡鶴ケ町","zip_code":"9950014"},{"name":"楯岡十日町","zip_code":"9950017"},{"name":"楯岡中町","zip_code":"9950036"},{"name":"楯岡馬場","zip_code":"9950022"},{"name":"楯岡東沢","zip_code":"9950023"},{"name":"楯岡笛田","zip_code":"9950024"},{"name":"楯岡二日町","zip_code":"9950015"},{"name":"楯岡晦日町","zip_code":"9950016"},{"name":"楯岡湯沢","zip_code":"9950013"},{"name":"たも山","zip_code":"9950005"},{"name":"樽石","zip_code":"9950205"},{"name":"中央","zip_code":"9950035"},{"name":"長善寺","zip_code":"9950201"},{"name":"土生田","zip_code":"9950001"},{"name":"富並","zip_code":"9950208"},{"name":"長島","zip_code":"9950055"},{"name":"名取","zip_code":"9950052"},{"name":"西郷","zip_code":"9950053"},{"name":"林崎","zip_code":"9950006"},{"name":"本飯田","zip_code":"9950003"},{"name":"山の内","zip_code":"9950206"},{"name":"雪の観音郷","zip_code":"9950207"},{"name":"湯沢","zip_code":"9950012"},{"name":"湯野沢","zip_code":"9950112"}]},{"name":"長井市","divisions":[{"name":"芦沢","zip_code":"9930022"},{"name":"あら町","zip_code":"9930006"},{"name":"五十川","zip_code":"9930072"},{"name":"泉","zip_code":"9930031"},{"name":"今泉","zip_code":"9930033"},{"name":"歌丸","zip_code":"9930034"},{"name":"大町","zip_code":"9930083"},{"name":"片田町","zip_code":"9930005"},{"name":"上伊佐沢","zip_code":"9930021"},{"name":"河井","zip_code":"9930032"},{"name":"川原沢","zip_code":"9930062"},{"name":"勧進代","zip_code":"9930064"},{"name":"草岡","zip_code":"9930063"},{"name":"九野本","zip_code":"9930041"},{"name":"小出","zip_code":"9930014"},{"name":"高野町","zip_code":"9930085"},{"name":"幸町","zip_code":"9930051"},{"name":"栄町","zip_code":"9930084"},{"name":"清水町","zip_code":"9930054"},{"name":"下伊佐沢","zip_code":"9930023"},{"name":"白兎","zip_code":"9930071"},{"name":"新町","zip_code":"9930052"},{"name":"神明町","zip_code":"9930004"},{"name":"台町","zip_code":"9930016"},{"name":"館町南","zip_code":"9930013"},{"name":"館町北","zip_code":"9930011"},{"name":"寺泉","zip_code":"9930061"},{"name":"十日町","zip_code":"9930086"},{"name":"時庭","zip_code":"9930035"},{"name":"中伊佐沢","zip_code":"9930024"},{"name":"中道","zip_code":"9930053"},{"name":"成田","zip_code":"9930075"},{"name":"花作町","zip_code":"9930017"},{"name":"東町","zip_code":"9930003"},{"name":"日の出町","zip_code":"9930012"},{"name":"平山","zip_code":"9930042"},{"name":"舟場","zip_code":"9930082"},{"name":"ままの上","zip_code":"9930001"},{"name":"緑町","zip_code":"9930081"},{"name":"宮","zip_code":"9930074"},{"name":"本町","zip_code":"9930007"},{"name":"森","zip_code":"9930073"},{"name":"屋城町","zip_code":"9930002"},{"name":"横町","zip_code":"9930087"},{"name":"四ツ谷","zip_code":"9930015"}]},{"name":"天童市","divisions":[{"name":"荒谷","zip_code":"9940054"},{"name":"石鳥居","zip_code":"9940057"},{"name":"泉町","zip_code":"9940015"},{"name":"五日町","zip_code":"9940041"},{"name":"今町","zip_code":"9940078"},{"name":"駅西","zip_code":"9940047"},{"name":"老野森","zip_code":"9940013"},{"name":"大清水","zip_code":"9940007"},{"name":"大町","zip_code":"9940079"},{"name":"柏木町","zip_code":"9940003"},{"name":"鎌田","zip_code":"9940024"},{"name":"鎌田本町","zip_code":"9940025"},{"name":"上荻野戸","zip_code":"9940053"},{"name":"川原子","zip_code":"9940103"},{"name":"北久野本","zip_code":"9940011"},{"name":"北目","zip_code":"9940042"},{"name":"久野本","zip_code":"9940012"},{"name":"窪野目","zip_code":"9940077"},{"name":"蔵増","zip_code":"9940075"},{"name":"鍬ノ町","zip_code":"9940028"},{"name":"小路","zip_code":"9940032"},{"name":"小関","zip_code":"9940004"},{"name":"桜町","zip_code":"9940027"},{"name":"下荻野戸","zip_code":"9940052"},{"name":"清池","zip_code":"9940065"},{"name":"清池東","zip_code":"9940069"},{"name":"高木","zip_code":"9940005"},{"name":"高擶","zip_code":"9940068"},{"name":"高野辺","zip_code":"9940076"},{"name":"田鶴町","zip_code":"9940046"},{"name":"田麦野","zip_code":"9940104"},{"name":"塚野目","zip_code":"9940072"},{"name":"寺津","zip_code":"9940073"},{"name":"天童中","zip_code":"9940031"},{"name":"東善寺","zip_code":"9940023"},{"name":"藤内新田","zip_code":"9940074"},{"name":"道満","zip_code":"9940102"},{"name":"中里","zip_code":"9940064"},{"name":"仲町","zip_code":"9940045"},{"name":"長岡","zip_code":"9940066"},{"name":"長岡北","zip_code":"9940062"},{"name":"奈良沢","zip_code":"9940051"},{"name":"成生","zip_code":"9940006"},{"name":"糠塚","zip_code":"9940014"},{"name":"貫津","zip_code":"9940022"},{"name":"芳賀","zip_code":"9940067"},{"name":"原町","zip_code":"9940055"},{"name":"万代","zip_code":"9940001"},{"name":"東久野本","zip_code":"9940016"},{"name":"東長岡","zip_code":"9940063"},{"name":"東芳賀","zip_code":"9940061"},{"name":"東本町","zip_code":"9940026"},{"name":"一日町","zip_code":"9940044"},{"name":"干布","zip_code":"9940056"},{"name":"本町","zip_code":"9940034"},{"name":"交り江","zip_code":"9940048"},{"name":"松城町","zip_code":"9940043"},{"name":"乱川","zip_code":"9940002"},{"name":"三日町","zip_code":"9940033"},{"name":"南小畑","zip_code":"9940081"},{"name":"南町","zip_code":"9940049"},{"name":"矢野目","zip_code":"9940071"},{"name":"山口","zip_code":"9940101"},{"name":"山元","zip_code":"9940021"}]},{"name":"東根市","divisions":[{"name":"泉郷","zip_code":"9993722"},{"name":"板垣大通り","zip_code":"9993747"},{"name":"板垣北小路","zip_code":"9993749"},{"name":"板垣北通り","zip_code":"9993744"},{"name":"板垣新田","zip_code":"9993746"},{"name":"板垣中通り","zip_code":"9993745"},{"name":"板垣西小路","zip_code":"9993748"},{"name":"一本木","zip_code":"9993717"},{"name":"猪野沢","zip_code":"9993726"},{"name":"太田新田","zip_code":"9993728"},{"name":"大林","zip_code":"9993714"},{"name":"大林新田","zip_code":"9993715"},{"name":"大森","zip_code":"9993712"},{"name":"若木","zip_code":"9993737"},{"name":"若木大通り","zip_code":"9993738"},{"name":"若木小路","zip_code":"9993757"},{"name":"若木一条通り","zip_code":"9993756"},{"name":"若木二条通り","zip_code":"9993755"},{"name":"若木三条通り","zip_code":"9993754"},{"name":"若木四条通り","zip_code":"9993753"},{"name":"若木五条通り","zip_code":"9993752"},{"name":"若木通り","zip_code":"9993751"},{"name":"温泉町","zip_code":"9993702"},{"name":"柏原","zip_code":"9993770"},{"name":"蟹沢","zip_code":"9993716"},{"name":"観音寺","zip_code":"9993723"},{"name":"郡山","zip_code":"9993774"},{"name":"小林","zip_code":"9993710"},{"name":"鷺の宿","zip_code":"9993786"},{"name":"鷺ノ森","zip_code":"9993703"},{"name":"さくらんぼ駅前","zip_code":"9993720"},{"name":"島大堀","zip_code":"9993773"},{"name":"下川原","zip_code":"9993708"},{"name":"新田町","zip_code":"9993707"},{"name":"神町","zip_code":"9993761"},{"name":"神町中央","zip_code":"9993763"},{"name":"神町東","zip_code":"9993764"},{"name":"神町西","zip_code":"9993766"},{"name":"神町南","zip_code":"9993765"},{"name":"神町北","zip_code":"9993762"},{"name":"神町営団大通り","zip_code":"9993731"},{"name":"神町営団中通り","zip_code":"9993732"},{"name":"神町営団南通り","zip_code":"9993736"},{"name":"神町営団一条通り","zip_code":"9993735"},{"name":"神町営団二条通り","zip_code":"9993734"},{"name":"神町営団三条通り","zip_code":"9993733"},{"name":"関山","zip_code":"9993724"},{"name":"中央","zip_code":"9993711"},{"name":"中央東","zip_code":"9993729"},{"name":"中央西","zip_code":"9993719"},{"name":"中央南","zip_code":"9993730"},{"name":"藤助新田","zip_code":"9993778"},{"name":"中島新田","zip_code":"9993743"},{"name":"中島通り","zip_code":"9993742"},{"name":"中島東通り","zip_code":"9993741"},{"name":"長瀞","zip_code":"9993771"},{"name":"荷口","zip_code":"9993777"},{"name":"沼沢","zip_code":"9993725"},{"name":"野川","zip_code":"9993727"},{"name":"野田","zip_code":"9993775"},{"name":"羽入","zip_code":"9993776"},{"name":"羽入東","zip_code":"9993779"},{"name":"東根甲","zip_code":"9993701"},{"name":"東根乙","zip_code":"9993721"},{"name":"東根丙","zip_code":"9993704"},{"name":"東根丁","zip_code":"9993713"},{"name":"本町","zip_code":"9993784"},{"name":"本丸北","zip_code":"9993781"},{"name":"本丸西","zip_code":"9993785"},{"name":"本丸東","zip_code":"9993782"},{"name":"本丸南","zip_code":"9993783"},{"name":"松沢","zip_code":"9993772"},{"name":"三日町","zip_code":"9993706"},{"name":"宮崎","zip_code":"9993705"},{"name":"四ツ家","zip_code":"9993718"},{"name":"六田","zip_code":"9993709"}]},{"name":"尾花沢市","divisions":[{"name":"芦沢","zip_code":"9994554"},{"name":"五十沢","zip_code":"9994223"},{"name":"市野々","zip_code":"9994208"},{"name":"岩谷沢","zip_code":"9994207"},{"name":"荻袋","zip_code":"9994552"},{"name":"押切","zip_code":"9994205"},{"name":"尾花沢","zip_code":"9994221"},{"name":"朧気","zip_code":"9994222"},{"name":"上ノ畑","zip_code":"9994204"},{"name":"上柳渡戸","zip_code":"9994332"},{"name":"上町","zip_code":"9994228"},{"name":"北郷","zip_code":"9994336"},{"name":"北町","zip_code":"9994231"},{"name":"銀山新畑","zip_code":"9994333"},{"name":"牛房野","zip_code":"9994214"},{"name":"下柳渡戸","zip_code":"9994334"},{"name":"正厳","zip_code":"9994211"},{"name":"新町","zip_code":"9994224"},{"name":"新町中央","zip_code":"9994226"},{"name":"高橋","zip_code":"9994201"},{"name":"鶴子","zip_code":"9994443"},{"name":"鶴巻田","zip_code":"9994337"},{"name":"寺内","zip_code":"9994551"},{"name":"毒沢","zip_code":"9994555"},{"name":"富山","zip_code":"9994206"},{"name":"中島","zip_code":"9994203"},{"name":"中町","zip_code":"9994227"},{"name":"名木沢","zip_code":"9994556"},{"name":"行沢","zip_code":"9994202"},{"name":"二藤袋","zip_code":"9994212"},{"name":"丹生","zip_code":"9994213"},{"name":"野黒沢","zip_code":"9994553"},{"name":"延沢","zip_code":"9994441"},{"name":"畑沢","zip_code":"9994445"},{"name":"原田","zip_code":"9994335"},{"name":"梺町","zip_code":"9994232"},{"name":"細野","zip_code":"9994444"},{"name":"南沢","zip_code":"9994557"},{"name":"母袋","zip_code":"9994331"},{"name":"横町","zip_code":"9994229"},{"name":"六沢","zip_code":"9994442"},{"name":"若葉町","zip_code":"9994225"}]},{"name":"南陽市","divisions":[{"name":"赤湯","zip_code":"9992211"},{"name":"池黒","zip_code":"9920473"},{"name":"漆山","zip_code":"9920474"},{"name":"大橋","zip_code":"9992224"},{"name":"沖田","zip_code":"9992252"},{"name":"荻","zip_code":"9920582"},{"name":"金沢","zip_code":"9992212"},{"name":"金山","zip_code":"9920471"},{"name":"釜渡戸","zip_code":"9992201"},{"name":"蒲生田","zip_code":"9992261"},{"name":"川樋","zip_code":"9992204"},{"name":"椚塚","zip_code":"9992221"},{"name":"小岩沢","zip_code":"9992203"},{"name":"郡山","zip_code":"9992241"},{"name":"小滝","zip_code":"9920581"},{"name":"坂井","zip_code":"9992256"},{"name":"島貫","zip_code":"9992244"},{"name":"下荻","zip_code":"9920583"},{"name":"新田","zip_code":"9992205"},{"name":"砂塚","zip_code":"9920476"},{"name":"関根","zip_code":"9992255"},{"name":"高梨","zip_code":"9992251"},{"name":"竹原","zip_code":"9920478"},{"name":"太郎","zip_code":"9920584"},{"name":"中央東","zip_code":"9992234"},{"name":"露橋","zip_code":"9992254"},{"name":"中落合","zip_code":"9992264"},{"name":"中ノ目","zip_code":"9992242"},{"name":"長岡","zip_code":"9992222"},{"name":"長瀞","zip_code":"9992266"},{"name":"鍋田","zip_code":"9992243"},{"name":"二色根","zip_code":"9992231"},{"name":"西落合","zip_code":"9992265"},{"name":"萩生田","zip_code":"9992263"},{"name":"羽付","zip_code":"9920475"},{"name":"法師柳","zip_code":"9992267"},{"name":"松沢","zip_code":"9992213"},{"name":"俎柳","zip_code":"9992223"},{"name":"三間通","zip_code":"9992232"},{"name":"宮内","zip_code":"9920472"},{"name":"宮崎","zip_code":"9992253"},{"name":"元中山","zip_code":"9992202"},{"name":"梨郷","zip_code":"9920477"},{"name":"若狭郷屋","zip_code":"9992262"},{"name":"和田","zip_code":"9920479"},{"name":"上野","zip_code":"9992233"}]},{"name":"東村山郡山辺町","divisions":[{"name":"近江","zip_code":"9900311"},{"name":"大塚","zip_code":"9900323"},{"name":"大寺","zip_code":"9900331"},{"name":"大蕨","zip_code":"9900341"},{"name":"北垣","zip_code":"9900332"},{"name":"北作","zip_code":"9900352"},{"name":"北山","zip_code":"9900342"},{"name":"杉下","zip_code":"9900333"},{"name":"根際","zip_code":"9900321"},{"name":"畑谷","zip_code":"9900361"},{"name":"三河尻","zip_code":"9900312"},{"name":"緑ケ丘","zip_code":"9900302"},{"name":"簗沢","zip_code":"9900351"},{"name":"山辺","zip_code":"9900301"},{"name":"要害","zip_code":"9900322"}]},{"name":"東村山郡中山町","divisions":[{"name":"あおば","zip_code":"9900411"},{"name":"いずみ","zip_code":"9900402"},{"name":"岡","zip_code":"9900408"},{"name":"金沢","zip_code":"9900405"},{"name":"小塩","zip_code":"9900409"},{"name":"達磨寺","zip_code":"9900403"},{"name":"土橋","zip_code":"9900407"},{"name":"長崎","zip_code":"9900401"},{"name":"向新田","zip_code":"9900404"},{"name":"柳沢","zip_code":"9900406"}]},{"name":"西村山郡河北町","divisions":[{"name":"岩木","zip_code":"9993503"},{"name":"新吉田","zip_code":"9993501"},{"name":"田井","zip_code":"9993521"},{"name":"造山","zip_code":"9993532"},{"name":"西里","zip_code":"9993533"},{"name":"畑中","zip_code":"9993531"},{"name":"溝延","zip_code":"9993522"},{"name":"谷地","zip_code":"9993511"},{"name":"谷地荒町東","zip_code":"9993515"},{"name":"谷地中央","zip_code":"9993512"},{"name":"谷地所岡","zip_code":"9993513"},{"name":"谷地ひな市","zip_code":"9993514"},{"name":"吉田","zip_code":"9993502"}]},{"name":"西村山郡西川町","divisions":[{"name":"入間","zip_code":"9900714"},{"name":"岩根沢","zip_code":"9900743"},{"name":"大井沢","zip_code":"9900721"},{"name":"海味","zip_code":"9900702"},{"name":"志津","zip_code":"9900734"},{"name":"砂子関","zip_code":"9900732"},{"name":"月岡","zip_code":"9900731"},{"name":"月山沢","zip_code":"9900733"},{"name":"綱取","zip_code":"9900741"},{"name":"沼山","zip_code":"9900713"},{"name":"原","zip_code":"9900712"},{"name":"本道寺","zip_code":"9900735"},{"name":"間沢","zip_code":"9900703"},{"name":"水沢","zip_code":"9900742"},{"name":"睦合","zip_code":"9900701"},{"name":"吉川","zip_code":"9900711"}]},{"name":"西村山郡朝日町","divisions":[{"name":"新宿","zip_code":"9901441"},{"name":"馬神","zip_code":"9901303"},{"name":"大暮山","zip_code":"9901306"},{"name":"大滝","zip_code":"9901431"},{"name":"大沼","zip_code":"9901305"},{"name":"大船木","zip_code":"9901562"},{"name":"大谷","zip_code":"9901304"},{"name":"送橋","zip_code":"9901422"},{"name":"上郷","zip_code":"9901432"},{"name":"石須部","zip_code":"9901571"},{"name":"今平","zip_code":"9901563"},{"name":"四ノ沢","zip_code":"9901444"},{"name":"下芦沢","zip_code":"9901423"},{"name":"白倉","zip_code":"9901574"},{"name":"杉山","zip_code":"9901433"},{"name":"立木","zip_code":"9901573"},{"name":"玉ノ井","zip_code":"9901302"},{"name":"太郎","zip_code":"9901572"},{"name":"常盤","zip_code":"9901552"},{"name":"中沢","zip_code":"9901301"},{"name":"長沼","zip_code":"9901553"},{"name":"古槇","zip_code":"9901421"},{"name":"松程","zip_code":"9901561"},{"name":"水本","zip_code":"9901424"},{"name":"三中","zip_code":"9901551"},{"name":"宮宿","zip_code":"9901442"},{"name":"雪谷","zip_code":"9901443"},{"name":"和合","zip_code":"9901411"},{"name":"和合平","zip_code":"9901412"}]},{"name":"西村山郡大江町","divisions":[{"name":"左沢","zip_code":"9910801"},{"name":"小見","zip_code":"9901122"},{"name":"荻野","zip_code":"9901131"},{"name":"顔好甲","zip_code":"9901152"},{"name":"顔好乙","zip_code":"9901153"},{"name":"黒森","zip_code":"9901276"},{"name":"小釿","zip_code":"9901141"},{"name":"小清","zip_code":"9901273"},{"name":"材木","zip_code":"9901142"},{"name":"沢口","zip_code":"9901275"},{"name":"三郷甲","zip_code":"9901113"},{"name":"三郷乙","zip_code":"9901112"},{"name":"三郷丙","zip_code":"9901111"},{"name":"塩ノ平","zip_code":"9901133"},{"name":"十八才甲","zip_code":"9901144"},{"name":"十八才乙","zip_code":"9901145"},{"name":"月布","zip_code":"9901271"},{"name":"堂屋敷","zip_code":"9901132"},{"name":"所部","zip_code":"9901134"},{"name":"富沢","zip_code":"9901114"},{"name":"楢山","zip_code":"9901146"},{"name":"貫見","zip_code":"9901272"},{"name":"橋上","zip_code":"9901143"},{"name":"原田","zip_code":"9901161"},{"name":"藤田","zip_code":"9901121"},{"name":"本郷甲","zip_code":"9901154"},{"name":"本郷乙","zip_code":"9901151"},{"name":"本郷丙","zip_code":"9901164"},{"name":"本郷丁","zip_code":"9901163"},{"name":"本郷戊","zip_code":"9901165"},{"name":"本郷己","zip_code":"9901162"},{"name":"柳川","zip_code":"9901274"}]},{"name":"北村山郡大石田町","divisions":[{"name":"今宿","zip_code":"9994113"},{"name":"岩ケ袋","zip_code":"9994103"},{"name":"駅前通り","zip_code":"9994116"},{"name":"大石田","zip_code":"9994111"},{"name":"大浦","zip_code":"9994131"},{"name":"海谷","zip_code":"9994102"},{"name":"桂木町","zip_code":"9994115"},{"name":"川前","zip_code":"9994133"},{"name":"駒籠","zip_code":"9994132"},{"name":"次年子","zip_code":"9994141"},{"name":"鷹巣","zip_code":"9994554"},{"name":"田沢","zip_code":"9994122"},{"name":"豊田","zip_code":"9994134"},{"name":"緑町","zip_code":"9994112"},{"name":"横山","zip_code":"9994121"},{"name":"四日町","zip_code":"9994114"}]},{"name":"最上郡金山町","divisions":[{"name":"有屋","zip_code":"9995401"},{"name":"漆野","zip_code":"9995414"},{"name":"上台","zip_code":"9995405"},{"name":"金山","zip_code":"9995402"},{"name":"下野明","zip_code":"9995404"},{"name":"谷口銀山","zip_code":"9995413"},{"name":"飛森","zip_code":"9995412"},{"name":"中田","zip_code":"9995411"},{"name":"朴山","zip_code":"9995415"},{"name":"安沢","zip_code":"9995403"},{"name":"山崎","zip_code":"9995406"}]},{"name":"最上郡最上町","divisions":[{"name":"大堀","zip_code":"9996211"},{"name":"黒澤","zip_code":"9996103"},{"name":"堺田","zip_code":"9996106"},{"name":"志茂","zip_code":"9996212"},{"name":"瀬見","zip_code":"9996211"},{"name":"月楯","zip_code":"9996215"},{"name":"富澤","zip_code":"9996105"},{"name":"東法田","zip_code":"9996102"},{"name":"法田","zip_code":"9996213"},{"name":"本城","zip_code":"9996104"},{"name":"満澤","zip_code":"9996107"},{"name":"向町","zip_code":"9996101"},{"name":"若宮","zip_code":"9996214"}]},{"name":"最上郡舟形町","divisions":[{"name":"長者原","zip_code":"9994602"},{"name":"富田","zip_code":"9994603"},{"name":"長沢","zip_code":"9994605"},{"name":"舟形","zip_code":"9994601"},{"name":"堀内","zip_code":"9994604"}]},{"name":"最上郡真室川町","divisions":[{"name":"新町","zip_code":"9995312"},{"name":"内町","zip_code":"9995313"},{"name":"大沢","zip_code":"9995521"},{"name":"大滝","zip_code":"9995603"},{"name":"釜淵","zip_code":"9995604"},{"name":"川ノ内","zip_code":"9995601"},{"name":"木ノ下","zip_code":"9995314"},{"name":"差首鍋","zip_code":"9995522"},{"name":"及位","zip_code":"9995602"},{"name":"平岡","zip_code":"9995311"}]},{"name":"最上郡大蔵村","divisions":[{"name":"合海","zip_code":"9960211"},{"name":"赤松","zip_code":"9960213"},{"name":"清水","zip_code":"9960212"},{"name":"南山","zip_code":"9960301"}]},{"name":"最上郡鮭川村","divisions":[{"name":"石名坂","zip_code":"9995208"},{"name":"川口","zip_code":"9995203"},{"name":"京塚","zip_code":"9995201"},{"name":"佐渡","zip_code":"9995202"},{"name":"中渡","zip_code":"9995205"},{"name":"庭月","zip_code":"9995207"},{"name":"曲川","zip_code":"9995206"},{"name":"向居","zip_code":"9995204"}]},{"name":"最上郡戸沢村","divisions":[{"name":"岩清水","zip_code":"9996312"},{"name":"蔵岡","zip_code":"9996402"},{"name":"神田","zip_code":"9996315"},{"name":"角川","zip_code":"9996403"},{"name":"津谷","zip_code":"9996311"},{"name":"名高","zip_code":"9996313"},{"name":"古口","zip_code":"9996801"},{"name":"松坂","zip_code":"9996314"}]},{"name":"東置賜郡高畠町","divisions":[{"name":"相森","zip_code":"9920332"},{"name":"安久津","zip_code":"9920302"},{"name":"石岡","zip_code":"9992171"},{"name":"泉岡","zip_code":"9920315"},{"name":"一本柳","zip_code":"9920334"},{"name":"入生田","zip_code":"9920324"},{"name":"小其塚","zip_code":"9992177"},{"name":"柏木目","zip_code":"9920333"},{"name":"金原","zip_code":"9920311"},{"name":"上平柳","zip_code":"9992178"},{"name":"上和田","zip_code":"9920261"},{"name":"亀岡","zip_code":"9920321"},{"name":"川沼","zip_code":"9920335"},{"name":"高安","zip_code":"9920313"},{"name":"小郡山","zip_code":"9920312"},{"name":"佐沢","zip_code":"9920265"},{"name":"三条目","zip_code":"9920331"},{"name":"塩森","zip_code":"9920314"},{"name":"下和田","zip_code":"9920263"},{"name":"蛇口","zip_code":"9992179"},{"name":"高畠","zip_code":"9920351"},{"name":"竹森","zip_code":"9920342"},{"name":"露藤","zip_code":"9920323"},{"name":"時沢","zip_code":"9920341"},{"name":"中里","zip_code":"9920352"},{"name":"中島","zip_code":"9920322"},{"name":"夏茂","zip_code":"9992172"},{"name":"二井宿","zip_code":"9920301"},{"name":"糠野目","zip_code":"9992176"},{"name":"根岸","zip_code":"9920343"},{"name":"馬頭","zip_code":"9920264"},{"name":"深沼","zip_code":"9920344"},{"name":"福沢","zip_code":"9992174"},{"name":"福沢南","zip_code":"9992175"},{"name":"船橋","zip_code":"9920325"},{"name":"元和田","zip_code":"9920262"},{"name":"山崎","zip_code":"9992173"}]},{"name":"東置賜郡川西町","divisions":[{"name":"大塚","zip_code":"9920602"},{"name":"大舟","zip_code":"9990151"},{"name":"尾長島","zip_code":"9990213"},{"name":"上奥田","zip_code":"9990152"},{"name":"上小松","zip_code":"9990121"},{"name":"黒川","zip_code":"9990131"},{"name":"高豆蒄","zip_code":"9990132"},{"name":"小松","zip_code":"9990133"},{"name":"下奥田","zip_code":"9990145"},{"name":"下小松","zip_code":"9990134"},{"name":"下平柳","zip_code":"9990212"},{"name":"洲島","zip_code":"9990211"},{"name":"高山","zip_code":"9990141"},{"name":"玉庭","zip_code":"9990361"},{"name":"時田","zip_code":"9990144"},{"name":"中小松","zip_code":"9990122"},{"name":"西大塚","zip_code":"9920601"},{"name":"莅","zip_code":"9990143"},{"name":"東大塚","zip_code":"9920603"},{"name":"朴沢","zip_code":"9990153"},{"name":"堀金","zip_code":"9990142"},{"name":"吉田","zip_code":"9990214"}]},{"name":"西置賜郡小国町","divisions":[{"name":"あけぼの","zip_code":"9991356"},{"name":"朝篠","zip_code":"9991323"},{"name":"足野水","zip_code":"9991507"},{"name":"足水中里","zip_code":"9991504"},{"name":"網代瀬","zip_code":"9991402"},{"name":"荒沢","zip_code":"9991434"},{"name":"新股","zip_code":"9991213"},{"name":"伊佐領","zip_code":"9991322"},{"name":"石滝","zip_code":"9991451"},{"name":"泉岡","zip_code":"9991521"},{"name":"市野沢","zip_code":"9991506"},{"name":"市野々","zip_code":"9991203"},{"name":"今市","zip_code":"9991413"},{"name":"入折戸","zip_code":"9991435"},{"name":"岩井沢","zip_code":"9991352"},{"name":"越中里","zip_code":"9991421"},{"name":"大石沢","zip_code":"9991212"},{"name":"大滝","zip_code":"9991336"},{"name":"大宮","zip_code":"9991342"},{"name":"小国小坂町","zip_code":"9991363"},{"name":"小国町","zip_code":"9991351"},{"name":"小渡","zip_code":"9991312"},{"name":"驚","zip_code":"9991441"},{"name":"小股","zip_code":"9991443"},{"name":"折戸","zip_code":"9991436"},{"name":"貝少","zip_code":"9991311"},{"name":"片貝","zip_code":"9991512"},{"name":"金目","zip_code":"9991301"},{"name":"叶水","zip_code":"9991211"},{"name":"河原角","zip_code":"9991214"},{"name":"北","zip_code":"9991345"},{"name":"黒沢","zip_code":"9991334"},{"name":"小倉","zip_code":"9991339"},{"name":"小玉川","zip_code":"9991522"},{"name":"五味沢","zip_code":"9991452"},{"name":"幸町","zip_code":"9991354"},{"name":"栄町","zip_code":"9991361"},{"name":"白子沢","zip_code":"9991202"},{"name":"尻無沢","zip_code":"9991412"},{"name":"新原","zip_code":"9991337"},{"name":"新屋敷","zip_code":"9991314"},{"name":"菅沼","zip_code":"9991503"},{"name":"杉沢","zip_code":"9991338"},{"name":"芹出","zip_code":"9991333"},{"name":"太鼓沢","zip_code":"9991442"},{"name":"滝倉","zip_code":"9991502"},{"name":"田沢頭","zip_code":"9991344"},{"name":"種沢","zip_code":"9991335"},{"name":"玉川","zip_code":"9991511"},{"name":"玉川中里","zip_code":"9991514"},{"name":"樽口","zip_code":"9991501"},{"name":"綱木箱口","zip_code":"9991321"},{"name":"栃倉","zip_code":"9991414"},{"name":"中島","zip_code":"9991432"},{"name":"中田山崎","zip_code":"9991513"},{"name":"長沢","zip_code":"9991422"},{"name":"西","zip_code":"9991355"},{"name":"西滝","zip_code":"9991215"},{"name":"沼沢","zip_code":"9991201"},{"name":"針生","zip_code":"9991313"},{"name":"東滝","zip_code":"9991216"},{"name":"東原","zip_code":"9991331"},{"name":"樋ノ沢","zip_code":"9991433"},{"name":"百子沢","zip_code":"9991505"},{"name":"兵庫舘","zip_code":"9991353"},{"name":"舟渡","zip_code":"9991401"},{"name":"古田","zip_code":"9991302"},{"name":"増岡","zip_code":"9991341"},{"name":"町原","zip_code":"9991332"},{"name":"松岡","zip_code":"9991324"},{"name":"松崎","zip_code":"9991411"},{"name":"緑町","zip_code":"9991362"},{"name":"宮の台","zip_code":"9991343"},{"name":"焼山","zip_code":"9991431"},{"name":"湯ノ花","zip_code":"9991346"},{"name":"若山","zip_code":"9991303"}]},{"name":"西置賜郡白鷹町","divisions":[{"name":"浅立","zip_code":"9920852"},{"name":"鮎貝","zip_code":"9920771"},{"name":"荒砥甲","zip_code":"9920831"},{"name":"荒砥乙","zip_code":"9920832"},{"name":"大瀬","zip_code":"9920861"},{"name":"黒鴨","zip_code":"9920775"},{"name":"畔藤","zip_code":"9920841"},{"name":"佐野原","zip_code":"9920864"},{"name":"下山","zip_code":"9920862"},{"name":"十王","zip_code":"9920821"},{"name":"菖蒲","zip_code":"9920863"},{"name":"高岡","zip_code":"9920778"},{"name":"高玉","zip_code":"9920773"},{"name":"滝野","zip_code":"9920812"},{"name":"栃窪","zip_code":"9920777"},{"name":"中山","zip_code":"9920802"},{"name":"萩野","zip_code":"9920811"},{"name":"針生","zip_code":"9920801"},{"name":"広野","zip_code":"9920851"},{"name":"箕和田","zip_code":"9920779"},{"name":"深山","zip_code":"9920776"},{"name":"山口","zip_code":"9920774"},{"name":"横田尻","zip_code":"9920772"}]},{"name":"西置賜郡飯豊町","divisions":[{"name":"岩倉","zip_code":"9990436"},{"name":"宇津沢","zip_code":"9990425"},{"name":"上原","zip_code":"9990427"},{"name":"遅谷","zip_code":"9990426"},{"name":"数馬","zip_code":"9990424"},{"name":"上屋地","zip_code":"9990433"},{"name":"川内戸","zip_code":"9990434"},{"name":"黒沢","zip_code":"9990603"},{"name":"小白川","zip_code":"9991113"},{"name":"小屋","zip_code":"9990421"},{"name":"下屋地","zip_code":"9990431"},{"name":"白川","zip_code":"9990432"},{"name":"須郷","zip_code":"9990423"},{"name":"添川","zip_code":"9990605"},{"name":"高造路","zip_code":"9990435"},{"name":"高峰","zip_code":"9991112"},{"name":"椿","zip_code":"9990604"},{"name":"手ノ子","zip_code":"9991111"},{"name":"中","zip_code":"9990601"},{"name":"萩生","zip_code":"9990602"},{"name":"広河原","zip_code":"9990422"},{"name":"松原","zip_code":"9990606"}]},{"name":"東田川郡三川町","divisions":[{"name":"青山","zip_code":"9971311"},{"name":"猪子","zip_code":"9971316"},{"name":"押切新田","zip_code":"9971321"},{"name":"角田二口","zip_code":"9971313"},{"name":"加藤","zip_code":"9971336"},{"name":"神花","zip_code":"9971315"},{"name":"小尺","zip_code":"9971337"},{"name":"助川","zip_code":"9971331"},{"name":"善阿弥","zip_code":"9971312"},{"name":"竹原田","zip_code":"9971334"},{"name":"堤野","zip_code":"9971332"},{"name":"土口","zip_code":"9971322"},{"name":"成田新田","zip_code":"9971317"},{"name":"東沼","zip_code":"9971314"},{"name":"菱沼","zip_code":"9971335"},{"name":"横内","zip_code":"9971333"},{"name":"横川","zip_code":"9971338"},{"name":"横川新田","zip_code":"9971339"},{"name":"横山","zip_code":"9971301"}]},{"name":"東田川郡庄内町","divisions":[{"name":"赤渕新田","zip_code":"9997724"},{"name":"跡","zip_code":"9997701"},{"name":"余目","zip_code":"9997781"},{"name":"余目新田","zip_code":"9997714"},{"name":"新田目","zip_code":"9997743"},{"name":"生三","zip_code":"9997755"},{"name":"榎木","zip_code":"9997702"},{"name":"大野","zip_code":"9997747"},{"name":"大真木","zip_code":"9997737"},{"name":"近江新田","zip_code":"9997752"},{"name":"落合","zip_code":"9997763"},{"name":"家根合","zip_code":"9997762"},{"name":"狩川","zip_code":"9996601"},{"name":"肝煎","zip_code":"9996607"},{"name":"久田","zip_code":"9997766"},{"name":"京島","zip_code":"9997742"},{"name":"清川","zip_code":"9996606"},{"name":"桑田","zip_code":"9996605"},{"name":"小出新田","zip_code":"9997722"},{"name":"境興屋","zip_code":"9997745"},{"name":"沢新田","zip_code":"9997725"},{"name":"科沢","zip_code":"9996608"},{"name":"島田","zip_code":"9997754"},{"name":"常万","zip_code":"9997713"},{"name":"松陽","zip_code":"9997782"},{"name":"杉浦","zip_code":"9997765"},{"name":"千本杉","zip_code":"9996604"},{"name":"添津","zip_code":"9996603"},{"name":"返吉","zip_code":"9997741"},{"name":"高田麦","zip_code":"9997761"},{"name":"立谷沢","zip_code":"9996609"},{"name":"田谷","zip_code":"9997748"},{"name":"千河原","zip_code":"9997704"},{"name":"堤新田","zip_code":"9997721"},{"name":"廿六木","zip_code":"9997707"},{"name":"主殿新田","zip_code":"9997731"},{"name":"中野","zip_code":"9997734"},{"name":"西小野方","zip_code":"9997751"},{"name":"西野","zip_code":"9997768"},{"name":"西袋","zip_code":"9997746"},{"name":"払田","zip_code":"9997757"},{"name":"提興屋","zip_code":"9997706"},{"name":"平岡","zip_code":"9997703"},{"name":"深川","zip_code":"9997767"},{"name":"福島","zip_code":"9997736"},{"name":"福原","zip_code":"9997711"},{"name":"古関","zip_code":"9997726"},{"name":"堀野","zip_code":"9997712"},{"name":"前田野目","zip_code":"9997735"},{"name":"槇島","zip_code":"9997705"},{"name":"廻館","zip_code":"9997715"},{"name":"三ケ沢","zip_code":"9996602"},{"name":"南興屋","zip_code":"9997733"},{"name":"南野","zip_code":"9997727"},{"name":"南野新田","zip_code":"9997732"},{"name":"宮曽根","zip_code":"9997764"},{"name":"茗荷瀬","zip_code":"9997756"},{"name":"本小野方","zip_code":"9997744"},{"name":"吉岡","zip_code":"9997753"},{"name":"吉方","zip_code":"9997749"},{"name":"連枝","zip_code":"9997723"}]},{"name":"飽海郡遊佐町","divisions":[{"name":"岩川","zip_code":"9998436"},{"name":"江地","zip_code":"9998433"},{"name":"大蕨岡","zip_code":"9998315"},{"name":"小原田","zip_code":"9998311"},{"name":"鹿野沢","zip_code":"9998312"},{"name":"上蕨岡","zip_code":"9998314"},{"name":"北目","zip_code":"9998522"},{"name":"小松","zip_code":"9998317"},{"name":"庄泉","zip_code":"9998435"},{"name":"白井新田","zip_code":"9998304"},{"name":"菅里","zip_code":"9998431"},{"name":"杉沢","zip_code":"9998313"},{"name":"直世","zip_code":"9998525"},{"name":"当山","zip_code":"9998523"},{"name":"富岡","zip_code":"9998524"},{"name":"豊岡","zip_code":"9998316"},{"name":"野沢","zip_code":"9998303"},{"name":"比子","zip_code":"9998438"},{"name":"吹浦","zip_code":"9998521"},{"name":"藤崎","zip_code":"9998437"},{"name":"増穂","zip_code":"9998434"},{"name":"宮田","zip_code":"9998432"},{"name":"遊佐","zip_code":"9998301"},{"name":"吉出","zip_code":"9998302"}]}]}