{"name":"福島県","cities":[{"name":"福島市","divisions":[{"name":"旭町","zip_code":"9608113"},{"name":"荒井","zip_code":"9602156"},{"name":"荒井北","zip_code":"9602102"},{"name":"荒町","zip_code":"9608042"},{"name":"飯坂町","zip_code":"9600201"},{"name":"飯坂町中野","zip_code":"9600261"},{"name":"飯坂町東湯野","zip_code":"9600221"},{"name":"飯坂町平野","zip_code":"9600231"},{"name":"飯坂町茂庭","zip_code":"9600271"},{"name":"飯坂町湯野","zip_code":"9600211"},{"name":"飯野町","zip_code":"9601301"},{"name":"飯野町青木","zip_code":"9601303"},{"name":"飯野町大久保","zip_code":"9601304"},{"name":"飯野町明治","zip_code":"9601302"},{"name":"石田","zip_code":"9608244"},{"name":"泉","zip_code":"9608253"},{"name":"入江町","zip_code":"9608117"},{"name":"岩ノ前","zip_code":"9608241"},{"name":"岩谷","zip_code":"9608243"},{"name":"上町","zip_code":"9608101"},{"name":"蝦貫","zip_code":"9608222"},{"name":"大笹生","zip_code":"9600251"},{"name":"太田町","zip_code":"9608068"},{"name":"大波","zip_code":"9600811"},{"name":"大平山","zip_code":"9608014"},{"name":"大町","zip_code":"9608041"},{"name":"大森","zip_code":"9601101"},{"name":"岡島","zip_code":"9608201"},{"name":"岡部","zip_code":"9608204"},{"name":"置賜町","zip_code":"9608034"},{"name":"沖高","zip_code":"9600114"},{"name":"小倉寺","zip_code":"9608142"},{"name":"御倉町","zip_code":"9608064"},{"name":"小田","zip_code":"9601104"},{"name":"御山","zip_code":"9608252"},{"name":"御山町","zip_code":"9608012"},{"name":"春日町","zip_code":"9608116"},{"name":"霞町","zip_code":"9608021"},{"name":"金谷川","zip_code":"9601248"},{"name":"鎌田","zip_code":"9600102"},{"name":"上荒子","zip_code":"9608217"},{"name":"上鳥渡","zip_code":"9601107"},{"name":"上名倉","zip_code":"9602155"},{"name":"上野寺","zip_code":"9608076"},{"name":"上浜町","zip_code":"9608134"},{"name":"狩野","zip_code":"9608026"},{"name":"北五老内町","zip_code":"9608131"},{"name":"北沢又","zip_code":"9608251"},{"name":"北中央","zip_code":"9608072"},{"name":"北中川原","zip_code":"9608221"},{"name":"北ノ前","zip_code":"9608226"},{"name":"北原","zip_code":"9608231"},{"name":"北町","zip_code":"9608102"},{"name":"北矢野目","zip_code":"9600113"},{"name":"狐塚","zip_code":"9608017"},{"name":"狐塚畑","zip_code":"9608016"},{"name":"狐山","zip_code":"9608015"},{"name":"黒岩","zip_code":"9608153"},{"name":"児石","zip_code":"9608014"},{"name":"公事田","zip_code":"9608052"},{"name":"高野河原下","zip_code":"9608218"},{"name":"小金山","zip_code":"9608121"},{"name":"腰浜町","zip_code":"9608135"},{"name":"駒山","zip_code":"9608025"},{"name":"郷野目","zip_code":"9608161"},{"name":"五老内町","zip_code":"9608111"},{"name":"在庭坂","zip_code":"9602262"},{"name":"栄町","zip_code":"9608031"},{"name":"坂登","zip_code":"9608242"},{"name":"さくら","zip_code":"9602101"},{"name":"桜木町","zip_code":"9608133"},{"name":"佐倉下","zip_code":"9602154"},{"name":"桜本","zip_code":"9602251"},{"name":"笹木野","zip_code":"9608057"},{"name":"笹谷","zip_code":"9600241"},{"name":"五月町","zip_code":"9608061"},{"name":"佐原","zip_code":"9602158"},{"name":"山居","zip_code":"9608234"},{"name":"山居上","zip_code":"9608124"},{"name":"清水町","zip_code":"9608155"},{"name":"清水山","zip_code":"9608122"},{"name":"下荒子","zip_code":"9608215"},{"name":"下飯坂","zip_code":"9600115"},{"name":"下鳥渡","zip_code":"9601106"},{"name":"下野寺","zip_code":"9608075"},{"name":"庄野","zip_code":"9602153"},{"name":"陣場町","zip_code":"9608032"},{"name":"新浜町","zip_code":"9608022"},{"name":"新町","zip_code":"9608036"},{"name":"須川町","zip_code":"9608067"},{"name":"杉妻町","zip_code":"9608065"},{"name":"李平","zip_code":"9600252"},{"name":"清明町","zip_code":"9608062"},{"name":"瀬上町","zip_code":"9600101"},{"name":"曽根田町","zip_code":"9608051"},{"name":"太平寺","zip_code":"9608151"},{"name":"大明神","zip_code":"9608023"},{"name":"滝元","zip_code":"9608235"},{"name":"田沢","zip_code":"9608156"},{"name":"立子山","zip_code":"9601321"},{"name":"立石","zip_code":"9608232"},{"name":"舘ノ内","zip_code":"9608225"},{"name":"舘ノ前","zip_code":"9608224"},{"name":"田中島","zip_code":"9608227"},{"name":"茶屋下","zip_code":"9608211"},{"name":"仲間町","zip_code":"9608105"},{"name":"土船","zip_code":"9602152"},{"name":"土湯温泉町","zip_code":"9602157"},{"name":"天神町","zip_code":"9608001"},{"name":"堂殿","zip_code":"9608024"},{"name":"遠瀬戸","zip_code":"9608213"},{"name":"鴇頭森","zip_code":"9608125"},{"name":"所窪","zip_code":"9608123"},{"name":"鳥谷野","zip_code":"9608152"},{"name":"豊田町","zip_code":"9608104"},{"name":"中荒子","zip_code":"9608216"},{"name":"中町","zip_code":"9608043"},{"name":"永井川","zip_code":"9601102"},{"name":"成川","zip_code":"9601108"},{"name":"南向台","zip_code":"9608143"},{"name":"南平","zip_code":"9608013"},{"name":"仁井田","zip_code":"9608166"},{"name":"西中央","zip_code":"9608074"},{"name":"猫渕","zip_code":"9608233"},{"name":"野田町","zip_code":"9608055"},{"name":"花園町","zip_code":"9608112"},{"name":"浜田町","zip_code":"9608107"},{"name":"万世町","zip_code":"9608033"},{"name":"光が丘","zip_code":"9601247"},{"name":"東中央","zip_code":"9608071"},{"name":"東浜町","zip_code":"9608132"},{"name":"平石","zip_code":"9601103"},{"name":"伏拝","zip_code":"9608154"},{"name":"二子塚","zip_code":"9602263"},{"name":"舟場町","zip_code":"9608103"},{"name":"古川","zip_code":"9608214"},{"name":"方木田","zip_code":"9608163"},{"name":"蓬莱町","zip_code":"9608157"},{"name":"堀河町","zip_code":"9608137"},{"name":"町庭坂","zip_code":"9602261"},{"name":"松川町","zip_code":"9601241"},{"name":"松川町浅川","zip_code":"9601245"},{"name":"松川町金沢","zip_code":"9601246"},{"name":"松川町下川崎","zip_code":"9601232"},{"name":"松川町関谷","zip_code":"9601244"},{"name":"松川町沼袋","zip_code":"9601231"},{"name":"松川町美郷","zip_code":"9601242"},{"name":"松川町水原","zip_code":"9601243"},{"name":"松木町","zip_code":"9608018"},{"name":"松浪町","zip_code":"9608114"},{"name":"松山町","zip_code":"9608228"},{"name":"丸子","zip_code":"9600111"},{"name":"三河南町","zip_code":"9608053"},{"name":"三河北町","zip_code":"9608054"},{"name":"道前","zip_code":"9608212"},{"name":"南沢又","zip_code":"9608254"},{"name":"南中央","zip_code":"9608073"},{"name":"南町","zip_code":"9608162"},{"name":"南矢野目","zip_code":"9600112"},{"name":"宮下町","zip_code":"9608011"},{"name":"宮代","zip_code":"9600116"},{"name":"宮町","zip_code":"9608106"},{"name":"本内","zip_code":"9608203"},{"name":"本町","zip_code":"9608035"},{"name":"森合","zip_code":"9608003"},{"name":"森合町","zip_code":"9608002"},{"name":"八木田","zip_code":"9608164"},{"name":"矢倉下","zip_code":"9608223"},{"name":"八島田","zip_code":"9608056"},{"name":"八島町","zip_code":"9608136"},{"name":"矢剣町","zip_code":"9608066"},{"name":"柳町","zip_code":"9608063"},{"name":"山際","zip_code":"9608236"},{"name":"山口","zip_code":"9608202"},{"name":"山下町","zip_code":"9608115"},{"name":"山田","zip_code":"9601105"},{"name":"吉倉","zip_code":"9608165"},{"name":"早稲町","zip_code":"9608044"},{"name":"渡利","zip_code":"9608141"}]},{"name":"会津若松市","divisions":[{"name":"相生町","zip_code":"9650031"},{"name":"旭町","zip_code":"9650032"},{"name":"居合町","zip_code":"9650012"},{"name":"飯盛","zip_code":"9650007"},{"name":"石堂町","zip_code":"9650055"},{"name":"一箕町金堀","zip_code":"9650002"},{"name":"一箕町亀賀","zip_code":"9650005"},{"name":"一箕町鶴賀","zip_code":"9650006"},{"name":"一箕町松長","zip_code":"9650001"},{"name":"一箕町八角","zip_code":"9650004"},{"name":"一箕町八幡","zip_code":"9650003"},{"name":"インター西","zip_code":"9650059"},{"name":"上町","zip_code":"9650034"},{"name":"駅前町","zip_code":"9650041"},{"name":"追手町","zip_code":"9650873"},{"name":"扇町","zip_code":"9650025"},{"name":"大塚","zip_code":"9650014"},{"name":"大戸町芦牧","zip_code":"9695147"},{"name":"大戸町石村","zip_code":"9695111"},{"name":"大戸町大川","zip_code":"9695133"},{"name":"大戸町小谷川端","zip_code":"9695141"},{"name":"大戸町小谷坂下","zip_code":"9695142"},{"name":"大戸町小谷西村","zip_code":"9695144"},{"name":"大戸町小谷原","zip_code":"9695143"},{"name":"大戸町小谷平沢","zip_code":"9695145"},{"name":"大戸町小谷湯ノ平","zip_code":"9695146"},{"name":"大戸町上雨屋","zip_code":"9695114"},{"name":"大戸町上小塩","zip_code":"9695132"},{"name":"大戸町上三寄大豆田","zip_code":"9695123"},{"name":"大戸町上三寄乙","zip_code":"9695122"},{"name":"大戸町上三寄香塩","zip_code":"9695122"},{"name":"大戸町上三寄丙","zip_code":"9695123"},{"name":"大戸町上三寄南原","zip_code":"9695121"},{"name":"大戸町下雨屋","zip_code":"9695112"},{"name":"大戸町高川","zip_code":"9695131"},{"name":"大戸町宮内","zip_code":"9695113"},{"name":"大町","zip_code":"9650042"},{"name":"御旗町","zip_code":"9650851"},{"name":"表町","zip_code":"9650831"},{"name":"徒之町","zip_code":"9650802"},{"name":"金川町","zip_code":"9650056"},{"name":"河東町浅山","zip_code":"9693461"},{"name":"河東町大田原","zip_code":"9693411"},{"name":"河東町岡田","zip_code":"9693401"},{"name":"河東町金田","zip_code":"9693462"},{"name":"河東町熊野堂","zip_code":"9693421"},{"name":"河東町倉橋","zip_code":"9693463"},{"name":"河東町工業団地","zip_code":"9693464"},{"name":"河東町広野","zip_code":"9693422"},{"name":"河東町郡山","zip_code":"9693481"},{"name":"河東町谷沢","zip_code":"9693482"},{"name":"河東町八田","zip_code":"9693451"},{"name":"河東町東長原","zip_code":"9693431"},{"name":"河東町広田","zip_code":"9693471"},{"name":"河東町福島","zip_code":"9693402"},{"name":"河東町南高野","zip_code":"9693441"},{"name":"河東町代田","zip_code":"9693412"},{"name":"川原町","zip_code":"9650865"},{"name":"北会津町麻生新田","zip_code":"9696002"},{"name":"北会津町安良田","zip_code":"9650113"},{"name":"北会津町石原","zip_code":"9650118"},{"name":"北会津町和泉","zip_code":"9650107"},{"name":"北会津町出尻","zip_code":"9650116"},{"name":"北会津町今和泉","zip_code":"9650136"},{"name":"北会津町大島","zip_code":"9696008"},{"name":"北会津町柏原","zip_code":"9696182"},{"name":"北会津町金屋","zip_code":"9696012"},{"name":"北会津町蟹川","zip_code":"9650121"},{"name":"北会津町上米塚","zip_code":"9696183"},{"name":"北会津町北後庵","zip_code":"9696007"},{"name":"北会津町小松","zip_code":"9696189"},{"name":"北会津町鷺林","zip_code":"9650126"},{"name":"北会津町三本松","zip_code":"9696184"},{"name":"北会津町下荒井","zip_code":"9650111"},{"name":"北会津町下野","zip_code":"9696013"},{"name":"北会津町下米塚","zip_code":"9696185"},{"name":"北会津町十二所","zip_code":"9650128"},{"name":"北会津町新在家","zip_code":"9696006"},{"name":"北会津町舘","zip_code":"9650115"},{"name":"北会津町田村山","zip_code":"9650117"},{"name":"北会津町寺堀","zip_code":"9650135"},{"name":"北会津町天満","zip_code":"9696001"},{"name":"北会津町中荒井","zip_code":"9650131"},{"name":"北会津町中里","zip_code":"9650110"},{"name":"北会津町西麻生","zip_code":"9696003"},{"name":"北会津町西後庵","zip_code":"9696011"},{"name":"北会津町白山","zip_code":"9650112"},{"name":"北会津町東麻生","zip_code":"9650134"},{"name":"北会津町東小松","zip_code":"9696188"},{"name":"北会津町二日町","zip_code":"9650133"},{"name":"北会津町古麻生","zip_code":"9696004"},{"name":"北会津町古館","zip_code":"9696186"},{"name":"北会津町ほたるの森","zip_code":"9650132"},{"name":"北会津町本田","zip_code":"9650129"},{"name":"北会津町松野","zip_code":"9696005"},{"name":"北会津町真宮","zip_code":"9650101"},{"name":"北会津町水季の里","zip_code":"9696015"},{"name":"北会津町宮ノ下","zip_code":"9650114"},{"name":"北会津町宮袋","zip_code":"9650124"},{"name":"北会津町宮袋新田","zip_code":"9650127"},{"name":"北会津町両堂","zip_code":"9696180"},{"name":"北青木","zip_code":"9650824"},{"name":"北滝沢","zip_code":"9650015"},{"name":"行仁町","zip_code":"9650033"},{"name":"慶山","zip_code":"9650812"},{"name":"建福寺前","zip_code":"9650823"},{"name":"神指町榎木檀","zip_code":"9650082"},{"name":"神指町小見","zip_code":"9650068"},{"name":"神指町上神指","zip_code":"9650083"},{"name":"神指町北四合","zip_code":"9650062"},{"name":"神指町黒川","zip_code":"9650064"},{"name":"神指町下神指","zip_code":"9650067"},{"name":"神指町高久","zip_code":"9650061"},{"name":"神指町高瀬","zip_code":"9650063"},{"name":"神指町高瀬新田","zip_code":"9650087"},{"name":"神指町天満","zip_code":"9650069"},{"name":"神指町中四合","zip_code":"9650065"},{"name":"神指町西城戸","zip_code":"9650081"},{"name":"神指町如来堂","zip_code":"9650085"},{"name":"神指町橋本","zip_code":"9650080"},{"name":"神指町東城戸","zip_code":"9650089"},{"name":"神指町東神指","zip_code":"9650084"},{"name":"神指町本丸","zip_code":"9650086"},{"name":"神指町幕内","zip_code":"9650859"},{"name":"神指町南四合","zip_code":"9650858"},{"name":"神指町横沼","zip_code":"9650066"},{"name":"高野町上沼","zip_code":"9650073"},{"name":"高野町上高野","zip_code":"9650077"},{"name":"高野町木流","zip_code":"9650071"},{"name":"高野町界沢","zip_code":"9650079"},{"name":"高野町中沼","zip_code":"9650076"},{"name":"高野町中前田","zip_code":"9650075"},{"name":"高野町橋本木流","zip_code":"9650072"},{"name":"高野町平塚","zip_code":"9650074"},{"name":"高野町柳川","zip_code":"9650078"},{"name":"蚕養町","zip_code":"9650023"},{"name":"材木町","zip_code":"9650853"},{"name":"栄町","zip_code":"9650871"},{"name":"桜町","zip_code":"9650854"},{"name":"五月町","zip_code":"9650047"},{"name":"城西町","zip_code":"9650864"},{"name":"城東町","zip_code":"9650807"},{"name":"城南町","zip_code":"9650809"},{"name":"城北町","zip_code":"9650043"},{"name":"昭和町","zip_code":"9650038"},{"name":"城前","zip_code":"9650803"},{"name":"新横町","zip_code":"9650866"},{"name":"住吉町","zip_code":"9650855"},{"name":"千石町","zip_code":"9650817"},{"name":"高久工業団地","zip_code":"9650060"},{"name":"宝町","zip_code":"9650806"},{"name":"滝沢町","zip_code":"9650022"},{"name":"館馬町","zip_code":"9650835"},{"name":"館脇町","zip_code":"9650836"},{"name":"中央","zip_code":"9650037"},{"name":"対馬館町","zip_code":"9650847"},{"name":"堤町","zip_code":"9650013"},{"name":"鶴賀町","zip_code":"9650011"},{"name":"天神町","zip_code":"9650832"},{"name":"天寧寺町","zip_code":"9650805"},{"name":"中島町","zip_code":"9650016"},{"name":"中町","zip_code":"9650878"},{"name":"七日町","zip_code":"9650044"},{"name":"錦町","zip_code":"9650837"},{"name":"西栄町","zip_code":"9650877"},{"name":"西七日町","zip_code":"9650045"},{"name":"西年貢","zip_code":"9650830"},{"name":"日新町","zip_code":"9650861"},{"name":"橋本","zip_code":"9650048"},{"name":"花畑東","zip_code":"9650027"},{"name":"花春町","zip_code":"9650804"},{"name":"花見ケ丘","zip_code":"9650822"},{"name":"馬場本町","zip_code":"9650036"},{"name":"馬場町","zip_code":"9650035"},{"name":"東栄町","zip_code":"9650872"},{"name":"東千石","zip_code":"9650818"},{"name":"東年貢","zip_code":"9650839"},{"name":"東山町石山","zip_code":"9650813"},{"name":"東山町湯川","zip_code":"9650815"},{"name":"東山町湯本","zip_code":"9650814"},{"name":"桧町","zip_code":"9650008"},{"name":"白虎町","zip_code":"9650024"},{"name":"日吉町","zip_code":"9650852"},{"name":"古川町","zip_code":"9650838"},{"name":"平安町","zip_code":"9650026"},{"name":"本町","zip_code":"9650862"},{"name":"幕内東町","zip_code":"9650856"},{"name":"町北町石堂","zip_code":"9650054"},{"name":"町北町上荒久田","zip_code":"9650053"},{"name":"町北町中沢","zip_code":"9650058"},{"name":"町北町中沢西","zip_code":"9650088"},{"name":"町北町始","zip_code":"9650052"},{"name":"町北町藤室","zip_code":"9650057"},{"name":"町北町谷地","zip_code":"9650051"},{"name":"真宮新町北","zip_code":"9650102"},{"name":"真宮新町南","zip_code":"9650103"},{"name":"緑町","zip_code":"9650867"},{"name":"湊町赤井","zip_code":"9650201"},{"name":"湊町共和","zip_code":"9650202"},{"name":"湊町静潟","zip_code":"9650203"},{"name":"湊町原","zip_code":"9650204"},{"name":"湊町平潟","zip_code":"9650205"},{"name":"南千石町","zip_code":"9650816"},{"name":"南花畑","zip_code":"9650874"},{"name":"南町","zip_code":"9650808"},{"name":"宮町","zip_code":"9650801"},{"name":"明和町","zip_code":"9650833"},{"name":"門田町一ノ堰","zip_code":"9650844"},{"name":"門田町面川","zip_code":"9650828"},{"name":"門田町御山","zip_code":"9650826"},{"name":"門田町黒岩","zip_code":"9650825"},{"name":"門田町堤沢","zip_code":"9650827"},{"name":"門田町徳久","zip_code":"9650843"},{"name":"門田町中野","zip_code":"9650842"},{"name":"門田町飯寺","zip_code":"9650846"},{"name":"門田町年貢町","zip_code":"9650834"},{"name":"門田町日吉","zip_code":"9650841"},{"name":"門田町工業団地","zip_code":"9650845"},{"name":"八角町","zip_code":"9650009"},{"name":"柳原町","zip_code":"9650857"},{"name":"山鹿町","zip_code":"9650876"},{"name":"山見町","zip_code":"9650021"},{"name":"湯川町","zip_code":"9650863"},{"name":"湯川南","zip_code":"9650821"},{"name":"八日町","zip_code":"9650046"},{"name":"米代","zip_code":"9650875"},{"name":"和田","zip_code":"9650811"}]},{"name":"郡山市","divisions":[{"name":"赤木町","zip_code":"9638006"},{"name":"阿久津町","zip_code":"9630667"},{"name":"安積","zip_code":"9630107"},{"name":"安積町","zip_code":"9630114"},{"name":"安積町荒井","zip_code":"9630111"},{"name":"安積町牛庭","zip_code":"9630113"},{"name":"安積町大森町","zip_code":"9630103"},{"name":"安積町笹川","zip_code":"9630102"},{"name":"安積町長久保","zip_code":"9630105"},{"name":"安積町成田","zip_code":"9630112"},{"name":"安積町日出山","zip_code":"9630101"},{"name":"安積町南長久保","zip_code":"9630104"},{"name":"安積町吉田","zip_code":"9630109"},{"name":"朝日","zip_code":"9638024"},{"name":"愛宕町","zip_code":"9638873"},{"name":"熱海町安子島","zip_code":"9631304"},{"name":"熱海町熱海","zip_code":"9631309"},{"name":"熱海町石筵","zip_code":"9631301"},{"name":"熱海町上伊豆島","zip_code":"9631306"},{"name":"熱海町下伊豆島","zip_code":"9631305"},{"name":"熱海町高玉","zip_code":"9631302"},{"name":"熱海町玉川","zip_code":"9631303"},{"name":"熱海町中山","zip_code":"9631308"},{"name":"熱海町長橋","zip_code":"9631307"},{"name":"あぶくま台","zip_code":"9630664"},{"name":"荒井町","zip_code":"9630704"},{"name":"新屋敷","zip_code":"9638045"},{"name":"池ノ台","zip_code":"9638875"},{"name":"石塚","zip_code":"9638825"},{"name":"石渕町","zip_code":"9638814"},{"name":"うねめ町","zip_code":"9638036"},{"name":"駅前","zip_code":"9638002"},{"name":"逢瀬町河内","zip_code":"9630212"},{"name":"逢瀬町多田野","zip_code":"9630213"},{"name":"逢瀬町夏出","zip_code":"9630214"},{"name":"大河原","zip_code":"9638828"},{"name":"大平町","zip_code":"9638817"},{"name":"大槻町","zip_code":"9630201"},{"name":"大町","zip_code":"9638001"},{"name":"開成","zip_code":"9638851"},{"name":"香久池","zip_code":"9638833"},{"name":"賀庄","zip_code":"9638844"},{"name":"柏山町","zip_code":"9630202"},{"name":"片平町","zip_code":"9630211"},{"name":"蒲倉町","zip_code":"9630703"},{"name":"上亀田","zip_code":"9638031"},{"name":"上野山","zip_code":"9638816"},{"name":"亀田","zip_code":"9638033"},{"name":"亀田西","zip_code":"9630221"},{"name":"榧の木","zip_code":"9638829"},{"name":"川向","zip_code":"9638843"},{"name":"喜久田町","zip_code":"9630551"},{"name":"喜久田町赤坂","zip_code":"9630545"},{"name":"喜久田町卸","zip_code":"9630547"},{"name":"喜久田町坪沢","zip_code":"9630544"},{"name":"喜久田町原","zip_code":"9630542"},{"name":"喜久田町堀之内","zip_code":"9630541"},{"name":"喜久田町前田沢","zip_code":"9630543"},{"name":"喜久田町早稲原","zip_code":"9630546"},{"name":"北畑","zip_code":"9638804"},{"name":"希望ケ丘","zip_code":"9638035"},{"name":"久留米","zip_code":"9638846"},{"name":"桑野","zip_code":"9638025"},{"name":"桑野北町","zip_code":"9638038"},{"name":"桑野清水台","zip_code":"9638866"},{"name":"小関谷地","zip_code":"9638039"},{"name":"御前南","zip_code":"9630209"},{"name":"湖南町赤津","zip_code":"9631631"},{"name":"湖南町舘","zip_code":"9631412"},{"name":"湖南町中野","zip_code":"9631521"},{"name":"湖南町浜路","zip_code":"9631414"},{"name":"湖南町馬入新田","zip_code":"9631632"},{"name":"湖南町福良","zip_code":"9631633"},{"name":"湖南町舟津","zip_code":"9631411"},{"name":"湖南町三代","zip_code":"9631522"},{"name":"湖南町横沢","zip_code":"9631413"},{"name":"小原田","zip_code":"9638835"},{"name":"五百渕西","zip_code":"9638865"},{"name":"五百渕山","zip_code":"9638867"},{"name":"菜根","zip_code":"9638862"},{"name":"菜根屋敷","zip_code":"9638863"},{"name":"栄町","zip_code":"9638872"},{"name":"咲田","zip_code":"9638012"},{"name":"桜木","zip_code":"9638021"},{"name":"笹川","zip_code":"9630108"},{"name":"佐野良","zip_code":"9638807"},{"name":"静町","zip_code":"9630203"},{"name":"島","zip_code":"9638034"},{"name":"清水台","zip_code":"9638005"},{"name":"下亀田","zip_code":"9638032"},{"name":"下白岩町","zip_code":"9630663"},{"name":"下舘野","zip_code":"9638806"},{"name":"十貫河原","zip_code":"9638818"},{"name":"昭和","zip_code":"9638822"},{"name":"白岩町","zip_code":"9630662"},{"name":"城清水","zip_code":"9638842"},{"name":"神明町","zip_code":"9638013"},{"name":"水門町","zip_code":"9638815"},{"name":"図景","zip_code":"9638834"},{"name":"外河原","zip_code":"9638827"},{"name":"台新","zip_code":"9638852"},{"name":"大名艮","zip_code":"9638007"},{"name":"台東","zip_code":"9638864"},{"name":"田村町大供","zip_code":"9631153"},{"name":"田村町金沢","zip_code":"9631151"},{"name":"田村町金屋","zip_code":"9630725"},{"name":"田村町上道渡","zip_code":"9631248"},{"name":"田村町上行合","zip_code":"9630724"},{"name":"田村町川曲","zip_code":"9631241"},{"name":"田村町岩作","zip_code":"9631154"},{"name":"田村町小川","zip_code":"9630722"},{"name":"田村町桜ケ丘","zip_code":"9630723"},{"name":"田村町山中","zip_code":"9631162"},{"name":"田村町下道渡","zip_code":"9631247"},{"name":"田村町下行合","zip_code":"9630726"},{"name":"田村町正直","zip_code":"9631163"},{"name":"田村町田母神","zip_code":"9631243"},{"name":"田村町大善寺","zip_code":"9631161"},{"name":"田村町手代木","zip_code":"9630721"},{"name":"田村町徳定","zip_code":"9631165"},{"name":"田村町栃本","zip_code":"9631244"},{"name":"田村町栃山神","zip_code":"9631245"},{"name":"田村町糠塚","zip_code":"9631242"},{"name":"田村町東山","zip_code":"9631156"},{"name":"田村町細田","zip_code":"9631152"},{"name":"田村町御代田","zip_code":"9631164"},{"name":"田村町守山","zip_code":"9631155"},{"name":"田村町谷田川","zip_code":"9631246"},{"name":"長者","zip_code":"9638017"},{"name":"土瓜","zip_code":"9630204"},{"name":"堤","zip_code":"9630205"},{"name":"堤下町","zip_code":"9638878"},{"name":"鶴見坦","zip_code":"9638861"},{"name":"東宿","zip_code":"9638008"},{"name":"道場","zip_code":"9638824"},{"name":"堂前町","zip_code":"9638877"},{"name":"富田町","zip_code":"9638041"},{"name":"豊田町","zip_code":"9638016"},{"name":"虎丸町","zip_code":"9638014"},{"name":"中田町赤沼","zip_code":"9630714"},{"name":"中田町上石","zip_code":"9630711"},{"name":"中田町牛縊本郷","zip_code":"9630834"},{"name":"中田町海老根","zip_code":"9630712"},{"name":"中田町黒木","zip_code":"9630835"},{"name":"中田町木目沢","zip_code":"9630836"},{"name":"中田町駒板","zip_code":"9630837"},{"name":"中田町下枝","zip_code":"9630833"},{"name":"中田町高倉","zip_code":"9630713"},{"name":"中田町中津川","zip_code":"9630832"},{"name":"中田町柳橋","zip_code":"9630831"},{"name":"中野","zip_code":"9630206"},{"name":"中ノ目","zip_code":"9630216"},{"name":"中町","zip_code":"9638004"},{"name":"名倉","zip_code":"9638845"},{"name":"名郷田","zip_code":"9638043"},{"name":"七ツ池町","zip_code":"9638831"},{"name":"並木","zip_code":"9638026"},{"name":"成山町","zip_code":"9630106"},{"name":"鳴神","zip_code":"9630207"},{"name":"西田町阿広木","zip_code":"9630925"},{"name":"西田町板橋","zip_code":"9630903"},{"name":"西田町大網","zip_code":"9630924"},{"name":"西田町大田","zip_code":"9630911"},{"name":"西田町鬼生田","zip_code":"9630921"},{"name":"西田町木村","zip_code":"9630914"},{"name":"西田町黒田","zip_code":"9630923"},{"name":"西田町三町目","zip_code":"9630922"},{"name":"西田町芹沢","zip_code":"9630913"},{"name":"西田町高柴","zip_code":"9630902"},{"name":"西田町土棚","zip_code":"9630904"},{"name":"西田町丹伊田","zip_code":"9630901"},{"name":"西田町根木屋","zip_code":"9630912"},{"name":"西ノ内","zip_code":"9638022"},{"name":"芳賀","zip_code":"9638813"},{"name":"八作内","zip_code":"9638836"},{"name":"麓山","zip_code":"9638876"},{"name":"原中","zip_code":"9638037"},{"name":"晴門田","zip_code":"9638871"},{"name":"燧田","zip_code":"9638003"},{"name":"菱田町","zip_code":"9638821"},{"name":"備前舘","zip_code":"9638044"},{"name":"日和田町","zip_code":"9630534"},{"name":"日和田町梅沢","zip_code":"9630532"},{"name":"日和田町高倉","zip_code":"9630531"},{"name":"日和田町八丁目","zip_code":"9630533"},{"name":"深沢","zip_code":"9638874"},{"name":"深田台","zip_code":"9638838"},{"name":"富久山町久保田","zip_code":"9638071"},{"name":"富久山町堂坂","zip_code":"9630673"},{"name":"富久山町福原","zip_code":"9638061"},{"name":"富久山町南小泉","zip_code":"9630671"},{"name":"富久山町北小泉","zip_code":"9630672"},{"name":"富久山町八山田","zip_code":"9638051"},{"name":"不動前","zip_code":"9638042"},{"name":"船場向","zip_code":"9638826"},{"name":"古川","zip_code":"9638823"},{"name":"古屋敷","zip_code":"9638805"},{"name":"方八町","zip_code":"9638811"},{"name":"細沼町","zip_code":"9638015"},{"name":"待池台","zip_code":"9630215"},{"name":"町東","zip_code":"9638046"},{"name":"松木町","zip_code":"9638812"},{"name":"緑ケ丘東","zip_code":"9630702"},{"name":"緑ケ丘西","zip_code":"9630701"},{"name":"緑町","zip_code":"9638023"},{"name":"南","zip_code":"9630115"},{"name":"三穂田町大谷","zip_code":"9630127"},{"name":"三穂田町川田","zip_code":"9630121"},{"name":"三穂田町駒屋","zip_code":"9630128"},{"name":"三穂田町下守屋","zip_code":"9630124"},{"name":"三穂田町富岡","zip_code":"9630125"},{"name":"三穂田町鍋山","zip_code":"9630123"},{"name":"三穂田町野田","zip_code":"9630122"},{"name":"三穂田町八幡","zip_code":"9630129"},{"name":"三穂田町山口","zip_code":"9630126"},{"name":"向河原町","zip_code":"9638801"},{"name":"舞木町","zip_code":"9630661"},{"name":"本町","zip_code":"9638871"},{"name":"桃見台","zip_code":"9638018"},{"name":"八木橋","zip_code":"9638837"},{"name":"谷島町","zip_code":"9638802"},{"name":"谷地","zip_code":"9630208"},{"name":"安原町","zip_code":"9630666"},{"name":"八山田","zip_code":"9638052"},{"name":"山崎","zip_code":"9638841"},{"name":"山根町","zip_code":"9638832"},{"name":"横川町","zip_code":"9630665"},{"name":"横塚","zip_code":"9638803"},{"name":"若葉町","zip_code":"9638011"}]},{"name":"いわき市","divisions":[{"name":"東田町","zip_code":"9748212"},{"name":"石塚町","zip_code":"9748213"},{"name":"石森","zip_code":"9708017"},{"name":"泉玉露","zip_code":"9718172"},{"name":"泉もえぎ台","zip_code":"9718188"},{"name":"泉ケ丘","zip_code":"9718171"},{"name":"泉町","zip_code":"9718185"},{"name":"泉町黒須野","zip_code":"9718184"},{"name":"泉町下川","zip_code":"9718183"},{"name":"泉町滝尻","zip_code":"9718182"},{"name":"泉町玉露","zip_code":"9718186"},{"name":"泉町本谷","zip_code":"9718181"},{"name":"岩間町","zip_code":"9748222"},{"name":"植田町","zip_code":"9748261"},{"name":"後田町","zip_code":"9748203"},{"name":"内郷内町","zip_code":"9738404"},{"name":"内郷小島町","zip_code":"9738401"},{"name":"内郷高野町","zip_code":"9738406"},{"name":"内郷白水町","zip_code":"9738405"},{"name":"内郷高坂町","zip_code":"9738408"},{"name":"内郷綴町","zip_code":"9738403"},{"name":"内郷御台境町","zip_code":"9738409"},{"name":"内郷御厩町","zip_code":"9738402"},{"name":"内郷宮町","zip_code":"9738407"},{"name":"江名","zip_code":"9700311"},{"name":"江畑町","zip_code":"9748201"},{"name":"大久町大久","zip_code":"9790338"},{"name":"大久町小山田","zip_code":"9790336"},{"name":"大久町小久","zip_code":"9790337"},{"name":"小川町上平","zip_code":"9793112"},{"name":"小川町上小川","zip_code":"9793124"},{"name":"小川町下小川","zip_code":"9793115"},{"name":"小川町塩田","zip_code":"9793123"},{"name":"小川町柴原","zip_code":"9793111"},{"name":"小川町関場","zip_code":"9793114"},{"name":"小川町高萩","zip_code":"9793122"},{"name":"小川町西小川","zip_code":"9793121"},{"name":"小川町福岡","zip_code":"9793125"},{"name":"小川町三島","zip_code":"9793113"},{"name":"小島町","zip_code":"9738411"},{"name":"小名浜","zip_code":"9718101"},{"name":"小名浜相子島","zip_code":"9718123"},{"name":"小名浜愛宕上","zip_code":"9718166"},{"name":"小名浜愛宕町","zip_code":"9718165"},{"name":"小名浜岩出","zip_code":"9718121"},{"name":"小名浜大原","zip_code":"9718111"},{"name":"小名浜岡小名","zip_code":"9718151"},{"name":"小名浜金成","zip_code":"9718135"},{"name":"小名浜上神白","zip_code":"9700317"},{"name":"小名浜君ケ塚町","zip_code":"9718168"},{"name":"小名浜島","zip_code":"9718125"},{"name":"小名浜下神白","zip_code":"9700316"},{"name":"小名浜住吉","zip_code":"9718124"},{"name":"小名浜諏訪町","zip_code":"9718161"},{"name":"小名浜玉川町","zip_code":"9718127"},{"name":"小名浜寺廻町","zip_code":"9718164"},{"name":"小名浜中町境","zip_code":"9718163"},{"name":"小名浜西君ケ塚町","zip_code":"9718167"},{"name":"小名浜西町","zip_code":"9718164"},{"name":"小名浜野田","zip_code":"9718126"},{"name":"小名浜花畑町","zip_code":"9718162"},{"name":"小名浜港ケ丘","zip_code":"9718102"},{"name":"小名浜南君ケ塚町","zip_code":"9718169"},{"name":"小名浜南富岡","zip_code":"9718112"},{"name":"小名浜林城","zip_code":"9718122"},{"name":"小浜町","zip_code":"9748221"},{"name":"折戸","zip_code":"9700312"},{"name":"鹿島町飯田","zip_code":"9718134"},{"name":"鹿島町鹿島","zip_code":"9718139"},{"name":"鹿島町上蔵持","zip_code":"9718142"},{"name":"鹿島町下蔵持","zip_code":"9718143"},{"name":"鹿島町久保","zip_code":"9718144"},{"name":"鹿島町米田","zip_code":"9718133"},{"name":"鹿島町下矢田","zip_code":"9718132"},{"name":"鹿島町走熊","zip_code":"9718141"},{"name":"鹿島町船戸","zip_code":"9718145"},{"name":"鹿島町御代","zip_code":"9718146"},{"name":"金山町","zip_code":"9748211"},{"name":"川部町","zip_code":"9790153"},{"name":"川前町小白井","zip_code":"9793204"},{"name":"川前町上桶売","zip_code":"9793203"},{"name":"川前町下桶売","zip_code":"9793202"},{"name":"川前町川前","zip_code":"9793201"},{"name":"草木台","zip_code":"9728301"},{"name":"桜ケ丘","zip_code":"9728324"},{"name":"郷ケ丘","zip_code":"9708045"},{"name":"佐糠町","zip_code":"9748223"},{"name":"自由ケ丘","zip_code":"9708033"},{"name":"湘南台","zip_code":"9718152"},{"name":"常磐岩ケ岡町","zip_code":"9728313"},{"name":"常磐長孫町","zip_code":"9728315"},{"name":"常磐上矢田町","zip_code":"9718131"},{"name":"常磐上湯長谷町","zip_code":"9728322"},{"name":"常磐下湯長谷町","zip_code":"9728317"},{"name":"常磐下船尾町","zip_code":"9728312"},{"name":"常磐白鳥町","zip_code":"9728325"},{"name":"常磐関船町","zip_code":"9728318"},{"name":"常磐西郷町","zip_code":"9728316"},{"name":"常磐藤原町","zip_code":"9728326"},{"name":"常磐馬玉町","zip_code":"9728314"},{"name":"常磐松が台","zip_code":"9728323"},{"name":"常磐松久須根町","zip_code":"9718137"},{"name":"常磐三沢町","zip_code":"9718136"},{"name":"常磐水野谷町","zip_code":"9728311"},{"name":"常磐湯本町","zip_code":"9728321"},{"name":"瀬戸町","zip_code":"9790151"},{"name":"添野町","zip_code":"9748202"},{"name":"平","zip_code":"9708026"},{"name":"平赤井","zip_code":"9793131"},{"name":"平赤井比良","zip_code":"9793132"},{"name":"平荒田目","zip_code":"9700107"},{"name":"平泉崎","zip_code":"9700112"},{"name":"平薄磯","zip_code":"9700223"},{"name":"平大室","zip_code":"9708013"},{"name":"平鎌田","zip_code":"9708023"},{"name":"平鎌田町","zip_code":"9708054"},{"name":"平上荒川","zip_code":"9708034"},{"name":"平下荒川","zip_code":"9708032"},{"name":"平上大越","zip_code":"9700104"},{"name":"平下大越","zip_code":"9700102"},{"name":"平上片寄","zip_code":"9708011"},{"name":"平下片寄","zip_code":"9708012"},{"name":"平上神谷","zip_code":"9708028"},{"name":"平下神谷","zip_code":"9700101"},{"name":"平上高久","zip_code":"9708042"},{"name":"平下高久","zip_code":"9700221"},{"name":"平上平窪","zip_code":"9708001"},{"name":"平下平窪","zip_code":"9708003"},{"name":"平神谷作","zip_code":"9700228"},{"name":"平上山口","zip_code":"9700225"},{"name":"平北神谷","zip_code":"9700115"},{"name":"平北白土","zip_code":"9708024"},{"name":"平絹谷","zip_code":"9700113"},{"name":"平鯨岡","zip_code":"9708027"},{"name":"平小泉","zip_code":"9708041"},{"name":"平塩","zip_code":"9708022"},{"name":"平下平窪中島町","zip_code":"9708004"},{"name":"平下平窪古川町","zip_code":"9708005"},{"name":"平下平窪山土内町","zip_code":"9708006"},{"name":"平下山口","zip_code":"9700226"},{"name":"平正月町","zip_code":"9708053"},{"name":"平菅波","zip_code":"9700105"},{"name":"平鶴ケ井","zip_code":"9700227"},{"name":"平豊間","zip_code":"9700224"},{"name":"平中神谷","zip_code":"9708021"},{"name":"平中塩","zip_code":"9708016"},{"name":"平中平窪","zip_code":"9708002"},{"name":"平中平窪新町","zip_code":"9708007"},{"name":"平中平窪細田町","zip_code":"9708008"},{"name":"平中山","zip_code":"9708031"},{"name":"平沼ノ内","zip_code":"9700222"},{"name":"平沼ノ内諏訪原","zip_code":"9700222"},{"name":"平祢宜町","zip_code":"9708052"},{"name":"平原高野","zip_code":"9700111"},{"name":"平藤間","zip_code":"9700103"},{"name":"平幕ノ内","zip_code":"9708014"},{"name":"平馬目","zip_code":"9700116"},{"name":"平水品","zip_code":"9700114"},{"name":"平南白土","zip_code":"9708025"},{"name":"平谷川瀬","zip_code":"9708036"},{"name":"平山崎","zip_code":"9700106"},{"name":"平吉野谷","zip_code":"9708046"},{"name":"平四ツ波","zip_code":"9708018"},{"name":"平六町目","zip_code":"9708051"},{"name":"高倉町","zip_code":"9748204"},{"name":"田人町石住","zip_code":"9740243"},{"name":"田人町貝泊","zip_code":"9740242"},{"name":"田人町黒田","zip_code":"9740151"},{"name":"田人町荷路夫","zip_code":"9740241"},{"name":"田人町南大平","zip_code":"9740153"},{"name":"田人町旅人","zip_code":"9740252"},{"name":"中央台飯野","zip_code":"9708044"},{"name":"中央台鹿島","zip_code":"9708043"},{"name":"中央台高久","zip_code":"9708047"},{"name":"中部工業団地","zip_code":"9728338"},{"name":"遠野町入遠野","zip_code":"9720251"},{"name":"遠野町大平","zip_code":"9720253"},{"name":"遠野町上遠野","zip_code":"9720161"},{"name":"遠野町上根本","zip_code":"9720252"},{"name":"遠野町滝","zip_code":"9720162"},{"name":"遠野町根岸","zip_code":"9720163"},{"name":"遠野町深山田","zip_code":"9720164"},{"name":"富津町","zip_code":"9748231"},{"name":"中岡町","zip_code":"9748251"},{"name":"中之作","zip_code":"9700313"},{"name":"永崎","zip_code":"9700315"},{"name":"勿来町","zip_code":"9790144"},{"name":"仁井田町","zip_code":"9748252"},{"name":"錦町","zip_code":"9748232"},{"name":"錦町中央","zip_code":"9748233"},{"name":"沼部町","zip_code":"9790154"},{"name":"葉山","zip_code":"9718187"},{"name":"久之浜町金ケ沢","zip_code":"9790332"},{"name":"久之浜町末続","zip_code":"9790331"},{"name":"久之浜町田之網","zip_code":"9790335"},{"name":"久之浜町久之浜","zip_code":"9790333"},{"name":"久之浜町西","zip_code":"9790334"},{"name":"平成","zip_code":"9738412"},{"name":"三沢町","zip_code":"9790155"},{"name":"南台","zip_code":"9748242"},{"name":"三和町上市萱","zip_code":"9701373"},{"name":"三和町下市萱","zip_code":"9701372"},{"name":"三和町上永井","zip_code":"9701262"},{"name":"三和町下永井","zip_code":"9701263"},{"name":"三和町上三坂","zip_code":"9701374"},{"name":"三和町中三坂","zip_code":"9701375"},{"name":"三和町下三坂","zip_code":"9701376"},{"name":"三和町合戸","zip_code":"9701264"},{"name":"三和町差塩","zip_code":"9701377"},{"name":"三和町中寺","zip_code":"9701371"},{"name":"三和町渡戸","zip_code":"9701361"},{"name":"明治団地","zip_code":"9708035"},{"name":"山田町","zip_code":"9748241"},{"name":"山玉町","zip_code":"9790152"},{"name":"洋向台","zip_code":"9700314"},{"name":"好間工業団地","zip_code":"9701144"},{"name":"好間町愛谷","zip_code":"9701141"},{"name":"好間町今新田","zip_code":"9701142"},{"name":"好間町大利","zip_code":"9701147"},{"name":"好間町小谷作","zip_code":"9701143"},{"name":"好間町上好間","zip_code":"9701153"},{"name":"好間町中好間","zip_code":"9701152"},{"name":"好間町下好間","zip_code":"9701151"},{"name":"好間町川中子","zip_code":"9708015"},{"name":"好間町北好間","zip_code":"9701145"},{"name":"好間町榊小屋","zip_code":"9701146"},{"name":"四倉町","zip_code":"9790201"},{"name":"四倉町大森","zip_code":"9790205"},{"name":"四倉町上岡","zip_code":"9790221"},{"name":"四倉町上仁井田","zip_code":"9790202"},{"name":"四倉町下仁井田","zip_code":"9790203"},{"name":"四倉町上柳生","zip_code":"9790226"},{"name":"四倉町下柳生","zip_code":"9790225"},{"name":"四倉町狐塚","zip_code":"9790206"},{"name":"四倉町駒込","zip_code":"9790227"},{"name":"四倉町塩木","zip_code":"9790207"},{"name":"四倉町白岩","zip_code":"9790211"},{"name":"四倉町玉山","zip_code":"9790216"},{"name":"四倉町戸田","zip_code":"9790212"},{"name":"四倉町中島","zip_code":"9790215"},{"name":"四倉町長友","zip_code":"9790214"},{"name":"四倉町名木","zip_code":"9790213"},{"name":"四倉町細谷","zip_code":"9790204"},{"name":"四倉町薬王寺","zip_code":"9790224"},{"name":"四倉町八茎","zip_code":"9790222"},{"name":"四倉町山田小湊","zip_code":"9790223"},{"name":"若葉台","zip_code":"9718138"},{"name":"渡辺町泉田","zip_code":"9728331"},{"name":"渡辺町上釜戸","zip_code":"9728336"},{"name":"渡辺町田部","zip_code":"9728334"},{"name":"渡辺町中釜戸","zip_code":"9728337"},{"name":"渡辺町昼野","zip_code":"9728332"},{"name":"渡辺町洞","zip_code":"9728333"},{"name":"渡辺町松小屋","zip_code":"9728335"}]},{"name":"白河市","divisions":[{"name":"会津町","zip_code":"9610075"},{"name":"明戸","zip_code":"9610901"},{"name":"旭町","zip_code":"9610912"},{"name":"愛宕町","zip_code":"9610942"},{"name":"飯沢","zip_code":"9610082"},{"name":"飯沢山","zip_code":"9610081"},{"name":"家ノ前","zip_code":"9610032"},{"name":"池下","zip_code":"9610827"},{"name":"池下裏","zip_code":"9610826"},{"name":"池下向山","zip_code":"9610825"},{"name":"石切場","zip_code":"9610867"},{"name":"泉田","zip_code":"9610003"},{"name":"板橋","zip_code":"9610016"},{"name":"一番町","zip_code":"9610947"},{"name":"上ノ台","zip_code":"9610937"},{"name":"上ノ原","zip_code":"9610026"},{"name":"上野原","zip_code":"9610039"},{"name":"薄葉","zip_code":"9610063"},{"name":"馬町","zip_code":"9610931"},{"name":"馬町裏","zip_code":"9610904"},{"name":"馬町下","zip_code":"9610915"},{"name":"裏山","zip_code":"9610036"},{"name":"円明寺","zip_code":"9610921"},{"name":"老久保","zip_code":"9610831"},{"name":"老久保山","zip_code":"9610838"},{"name":"追廻","zip_code":"9610094"},{"name":"大暮矢見山","zip_code":"9610846"},{"name":"大坂山","zip_code":"9610845"},{"name":"大手町","zip_code":"9610908"},{"name":"大和田","zip_code":"9610002"},{"name":"和尚壇","zip_code":"9610985"},{"name":"和尚壇山","zip_code":"9610984"},{"name":"鬼越","zip_code":"9610885"},{"name":"鬼越道下","zip_code":"9610884"},{"name":"鬼越山","zip_code":"9610887"},{"name":"表郷河東田","zip_code":"9610409"},{"name":"表郷金山","zip_code":"9610416"},{"name":"表郷小松","zip_code":"9610405"},{"name":"表郷下羽原","zip_code":"9610412"},{"name":"表郷高木","zip_code":"9610414"},{"name":"表郷内松","zip_code":"9610402"},{"name":"表郷中寺","zip_code":"9610407"},{"name":"表郷中野","zip_code":"9610401"},{"name":"表郷番沢","zip_code":"9610403"},{"name":"表郷深渡戸","zip_code":"9610411"},{"name":"表郷堀之内","zip_code":"9610408"},{"name":"表郷三森","zip_code":"9610413"},{"name":"表郷社田","zip_code":"9610404"},{"name":"表郷梁森","zip_code":"9610415"},{"name":"表郷八幡","zip_code":"9610406"},{"name":"女石","zip_code":"9610064"},{"name":"郭内","zip_code":"9610074"},{"name":"影鬼越","zip_code":"9610886"},{"name":"鍛冶町","zip_code":"9610913"},{"name":"金屋町","zip_code":"9610943"},{"name":"亀石","zip_code":"9610023"},{"name":"萱根","zip_code":"9610004"},{"name":"借宿","zip_code":"9610014"},{"name":"勘定町","zip_code":"9610956"},{"name":"関川窪","zip_code":"9610802"},{"name":"北裏","zip_code":"9610821"},{"name":"北中川原","zip_code":"9610054"},{"name":"北登リ町","zip_code":"9610973"},{"name":"北堀川端","zip_code":"9610996"},{"name":"北堀切","zip_code":"9610974"},{"name":"北真舟","zip_code":"9610981"},{"name":"金勝寺","zip_code":"9610083"},{"name":"金勝寺東","zip_code":"9610084"},{"name":"金鈴","zip_code":"9610042"},{"name":"久田野","zip_code":"9610011"},{"name":"九番町","zip_code":"9610875"},{"name":"九番町西裏","zip_code":"9610874"},{"name":"双石","zip_code":"9610017"},{"name":"合戦坂","zip_code":"9610045"},{"name":"小田川","zip_code":"9610001"},{"name":"転坂","zip_code":"9610852"},{"name":"五番町川原","zip_code":"9610076"},{"name":"五郎窪","zip_code":"9610815"},{"name":"細工町","zip_code":"9610965"},{"name":"宰領町","zip_code":"9610944"},{"name":"栄町","zip_code":"9610803"},{"name":"桜町","zip_code":"9610911"},{"name":"三番町","zip_code":"9610862"},{"name":"三本松","zip_code":"9610872"},{"name":"三本松山","zip_code":"9610814"},{"name":"塩路山","zip_code":"9610986"},{"name":"士多町","zip_code":"9610072"},{"name":"士多町東","zip_code":"9610071"},{"name":"七番町","zip_code":"9610863"},{"name":"十三原","zip_code":"9610888"},{"name":"十三原道上","zip_code":"9610829"},{"name":"十三原道下","zip_code":"9610828"},{"name":"十文字","zip_code":"9610027"},{"name":"菖蒲沢","zip_code":"9610922"},{"name":"昭和町","zip_code":"9610971"},{"name":"白井掛","zip_code":"9610924"},{"name":"白井掛下","zip_code":"9610923"},{"name":"白坂","zip_code":"9610835"},{"name":"新池","zip_code":"9610842"},{"name":"新蔵町","zip_code":"9610933"},{"name":"新白河","zip_code":"9610856"},{"name":"新高山","zip_code":"9610853"},{"name":"新夏梨","zip_code":"9610024"},{"name":"新道","zip_code":"9610037"},{"name":"菅生舘","zip_code":"9610811"},{"name":"関辺","zip_code":"9610021"},{"name":"瀬戸原","zip_code":"9610822"},{"name":"束前町","zip_code":"9610916"},{"name":"外薄葉","zip_code":"9610062"},{"name":"大","zip_code":"9610051"},{"name":"大工町","zip_code":"9610936"},{"name":"大信上新城","zip_code":"9690301"},{"name":"大信隈戸","zip_code":"9618002"},{"name":"大信下小屋","zip_code":"9690303"},{"name":"大信下新城","zip_code":"9690304"},{"name":"大信田園町府","zip_code":"9690305"},{"name":"大信豊地","zip_code":"9690306"},{"name":"大信中新城","zip_code":"9690307"},{"name":"大信増見","zip_code":"9690308"},{"name":"大信町屋","zip_code":"9690309"},{"name":"鷹匠町","zip_code":"9610953"},{"name":"高山","zip_code":"9610854"},{"name":"高山西","zip_code":"9610855"},{"name":"田島","zip_code":"9610015"},{"name":"立石","zip_code":"9610972"},{"name":"立石山","zip_code":"9610975"},{"name":"田中山","zip_code":"9610061"},{"name":"田町","zip_code":"9610073"},{"name":"鶴芝","zip_code":"9610866"},{"name":"鶴巻","zip_code":"9610087"},{"name":"鶴巻山","zip_code":"9610086"},{"name":"手代町","zip_code":"9610935"},{"name":"寺小路","zip_code":"9610914"},{"name":"天神町","zip_code":"9610954"},{"name":"道場小路","zip_code":"9610957"},{"name":"道場町","zip_code":"9610955"},{"name":"東武塚","zip_code":"9610817"},{"name":"土武塚","zip_code":"9610046"},{"name":"豊地","zip_code":"9610005"},{"name":"中島","zip_code":"9610823"},{"name":"中田","zip_code":"9610053"},{"name":"中野山","zip_code":"9610844"},{"name":"中町","zip_code":"9610951"},{"name":"中町北裏","zip_code":"9610952"},{"name":"中山","zip_code":"9610995"},{"name":"中山下","zip_code":"9610994"},{"name":"中山東","zip_code":"9610991"},{"name":"中山南","zip_code":"9610993"},{"name":"夏梨","zip_code":"9610025"},{"name":"南湖","zip_code":"9610812"},{"name":"仁井町","zip_code":"9610077"},{"name":"西大沼","zip_code":"9610816"},{"name":"西小丸山","zip_code":"9610832"},{"name":"西三坂","zip_code":"9610834"},{"name":"西三坂山","zip_code":"9610837"},{"name":"二番町","zip_code":"9610946"},{"name":"年貢町","zip_code":"9610903"},{"name":"登リ町","zip_code":"9610962"},{"name":"旗宿","zip_code":"9610038"},{"name":"八幡小路","zip_code":"9610941"},{"name":"八幡山","zip_code":"9610033"},{"name":"八竜神","zip_code":"9610047"},{"name":"花見坂","zip_code":"9610865"},{"name":"葉ノ木平","zip_code":"9610093"},{"name":"番士小路","zip_code":"9610902"},{"name":"日影","zip_code":"9610963"},{"name":"東形見","zip_code":"9610306"},{"name":"東蕪内","zip_code":"9610308"},{"name":"東釜子","zip_code":"9610303"},{"name":"東上野出島","zip_code":"9610302"},{"name":"東工業団地","zip_code":"9610304"},{"name":"東下野出島","zip_code":"9610301"},{"name":"東千田","zip_code":"9610305"},{"name":"東栃本","zip_code":"9610307"},{"name":"東深仁井田","zip_code":"9610309"},{"name":"東大沼","zip_code":"9610813"},{"name":"東小丸山","zip_code":"9610883"},{"name":"東三坂山","zip_code":"9610833"},{"name":"日向","zip_code":"9610964"},{"name":"風神下","zip_code":"9610861"},{"name":"風神山東","zip_code":"9610864"},{"name":"袋町","zip_code":"9610934"},{"name":"藤沢","zip_code":"9610043"},{"name":"藤沢山","zip_code":"9610044"},{"name":"舟田","zip_code":"9610013"},{"name":"古池","zip_code":"9610843"},{"name":"古高山","zip_code":"9610841"},{"name":"蛇石","zip_code":"9610804"},{"name":"豊年","zip_code":"9610801"},{"name":"町田","zip_code":"9610085"},{"name":"松並","zip_code":"9610873"},{"name":"真舟","zip_code":"9610983"},{"name":"丸小山","zip_code":"9610824"},{"name":"みさか","zip_code":"9610836"},{"name":"道東","zip_code":"9610031"},{"name":"南家ノ前","zip_code":"9610035"},{"name":"南池下","zip_code":"9610022"},{"name":"南中川原","zip_code":"9610052"},{"name":"南登リ町","zip_code":"9610851"},{"name":"南堀川端","zip_code":"9610992"},{"name":"南堀切","zip_code":"9610857"},{"name":"南町","zip_code":"9610932"},{"name":"南真舟","zip_code":"9610982"},{"name":"向新蔵","zip_code":"9610925"},{"name":"向寺","zip_code":"9610065"},{"name":"巡り矢","zip_code":"9610945"},{"name":"本沼","zip_code":"9610012"},{"name":"本町","zip_code":"9610905"},{"name":"本町北裏","zip_code":"9610906"},{"name":"文珠山","zip_code":"9610805"},{"name":"八百屋町","zip_code":"9610917"},{"name":"屋敷添","zip_code":"9610034"},{"name":"弥次郎窪","zip_code":"9610091"},{"name":"結城","zip_code":"9610041"},{"name":"友月山","zip_code":"9610926"},{"name":"横町","zip_code":"9610907"},{"name":"与惣小屋","zip_code":"9610881"},{"name":"与惣小屋山","zip_code":"9610882"},{"name":"四ツ谷","zip_code":"9610961"},{"name":"米村道北","zip_code":"9610078"},{"name":"米山越","zip_code":"9610871"},{"name":"羅漢前","zip_code":"9610066"},{"name":"六反山","zip_code":"9610092"}]},{"name":"須賀川市","divisions":[{"name":"あおば町","zip_code":"9620811"},{"name":"朝日田","zip_code":"9620816"},{"name":"旭町","zip_code":"9620834"},{"name":"芦田塚","zip_code":"9620868"},{"name":"愛宕山","zip_code":"9620867"},{"name":"雨田","zip_code":"9620721"},{"name":"池上町","zip_code":"9620843"},{"name":"池下","zip_code":"9620044"},{"name":"池ノ下町","zip_code":"9620058"},{"name":"泉田","zip_code":"9620046"},{"name":"市野関","zip_code":"9620726"},{"name":"一里坦","zip_code":"9620034"},{"name":"稲","zip_code":"9620042"},{"name":"稲荷町","zip_code":"9620024"},{"name":"今泉","zip_code":"9620301"},{"name":"岩崎","zip_code":"9620026"},{"name":"岩作","zip_code":"9620033"},{"name":"岩瀬森","zip_code":"9620003"},{"name":"岩渕","zip_code":"9620043"},{"name":"牛袋町","zip_code":"9620054"},{"name":"馬町","zip_code":"9620833"},{"name":"梅田","zip_code":"9620303"},{"name":"江花","zip_code":"9620204"},{"name":"江持","zip_code":"9620801"},{"name":"大桑原","zip_code":"9620056"},{"name":"大久保","zip_code":"9620312"},{"name":"大栗","zip_code":"9620722"},{"name":"大袋町","zip_code":"9620032"},{"name":"大町","zip_code":"9620839"},{"name":"岡東町","zip_code":"9620013"},{"name":"小倉","zip_code":"9620712"},{"name":"越久","zip_code":"9620051"},{"name":"卸町","zip_code":"9620053"},{"name":"影沼町","zip_code":"9620031"},{"name":"加治町","zip_code":"9620846"},{"name":"上小山田","zip_code":"9620713"},{"name":"上北町","zip_code":"9620841"},{"name":"北上町","zip_code":"9620864"},{"name":"北町","zip_code":"9620856"},{"name":"北横田","zip_code":"9620313"},{"name":"季の郷","zip_code":"9620405"},{"name":"木之崎","zip_code":"9620122"},{"name":"崩免","zip_code":"9620805"},{"name":"栗谷沢","zip_code":"9620866"},{"name":"弘法坦","zip_code":"9620848"},{"name":"向陽町","zip_code":"9620401"},{"name":"小作田","zip_code":"9620727"},{"name":"小中","zip_code":"9620202"},{"name":"境免","zip_code":"9620807"},{"name":"栄町","zip_code":"9620858"},{"name":"坂の上町","zip_code":"9620011"},{"name":"桜岡","zip_code":"9620821"},{"name":"五月雨","zip_code":"9620035"},{"name":"塩田","zip_code":"9620711"},{"name":"志茂","zip_code":"9620201"},{"name":"下小山田","zip_code":"9620714"},{"name":"下宿前","zip_code":"9620806"},{"name":"下宿町","zip_code":"9620007"},{"name":"上人坦","zip_code":"9620002"},{"name":"新田","zip_code":"9620824"},{"name":"陣場町","zip_code":"9620012"},{"name":"新町","zip_code":"9620055"},{"name":"諏訪町","zip_code":"9620847"},{"name":"勢至堂","zip_code":"9620205"},{"name":"芹沢町","zip_code":"9620036"},{"name":"千日堂","zip_code":"9620835"},{"name":"台","zip_code":"9620005"},{"name":"大黒町","zip_code":"9620023"},{"name":"高久田境","zip_code":"9620837"},{"name":"滝","zip_code":"9620211"},{"name":"舘ケ岡","zip_code":"9620404"},{"name":"館取町","zip_code":"9620021"},{"name":"田中","zip_code":"9620724"},{"name":"茶畑町","zip_code":"9620028"},{"name":"長禄町","zip_code":"9620857"},{"name":"塚田","zip_code":"9620859"},{"name":"堤","zip_code":"9620802"},{"name":"寺田","zip_code":"9620827"},{"name":"中宿","zip_code":"9620851"},{"name":"中曽根","zip_code":"9620804"},{"name":"長沼","zip_code":"9620203"},{"name":"仲の町","zip_code":"9620852"},{"name":"中町","zip_code":"9620845"},{"name":"中山","zip_code":"9620004"},{"name":"並木町","zip_code":"9620836"},{"name":"滑川","zip_code":"9620403"},{"name":"仁井田","zip_code":"9620402"},{"name":"西川","zip_code":"9620052"},{"name":"西川町","zip_code":"9620014"},{"name":"西田町","zip_code":"9620016"},{"name":"西の内町","zip_code":"9620017"},{"name":"虹の台","zip_code":"9620728"},{"name":"柱田","zip_code":"9620302"},{"name":"畑田","zip_code":"9620315"},{"name":"八幡町","zip_code":"9620831"},{"name":"八幡山","zip_code":"9620025"},{"name":"花岡","zip_code":"9620823"},{"name":"花の里","zip_code":"9620126"},{"name":"浜尾","zip_code":"9620812"},{"name":"東作","zip_code":"9620822"},{"name":"東町","zip_code":"9620844"},{"name":"日照田","zip_code":"9620725"},{"name":"日向町","zip_code":"9620015"},{"name":"広表","zip_code":"9620826"},{"name":"深渡戸","zip_code":"9620314"},{"name":"袋田","zip_code":"9620057"},{"name":"古河","zip_code":"9620803"},{"name":"古舘","zip_code":"9620861"},{"name":"古屋敷","zip_code":"9620854"},{"name":"桙衝","zip_code":"9620124"},{"name":"保土原","zip_code":"9620045"},{"name":"堀込","zip_code":"9620125"},{"name":"堀底町","zip_code":"9620027"},{"name":"牡丹園","zip_code":"9620815"},{"name":"前川","zip_code":"9620853"},{"name":"前田川","zip_code":"9620814"},{"name":"松塚","zip_code":"9620047"},{"name":"丸田町","zip_code":"9620022"},{"name":"緑町","zip_code":"9620863"},{"name":"南上町","zip_code":"9620817"},{"name":"南町","zip_code":"9620838"},{"name":"宮先町","zip_code":"9620842"},{"name":"宮の杜","zip_code":"9620406"},{"name":"妙見","zip_code":"9620865"},{"name":"狸森","zip_code":"9620723"},{"name":"本町","zip_code":"9620832"},{"name":"森宿","zip_code":"9620001"},{"name":"守屋","zip_code":"9620305"},{"name":"守谷舘","zip_code":"9620855"},{"name":"矢沢","zip_code":"9620311"},{"name":"矢田野","zip_code":"9620123"},{"name":"山寺道","zip_code":"9620006"},{"name":"横田","zip_code":"9620121"},{"name":"横山町","zip_code":"9620041"},{"name":"吉美根","zip_code":"9620059"},{"name":"六郎兵衛","zip_code":"9620862"},{"name":"六軒","zip_code":"9620825"},{"name":"和田","zip_code":"9620813"},{"name":"和田道","zip_code":"9620818"}]},{"name":"喜多方市","divisions":[{"name":"１丁目","zip_code":"9660819"},{"name":"２丁目","zip_code":"9660818"},{"name":"３丁目","zip_code":"9660817"},{"name":"青葉台","zip_code":"9660091"},{"name":"熱塩加納町相田","zip_code":"9660108"},{"name":"熱塩加納町熱塩","zip_code":"9660101"},{"name":"熱塩加納町居廻","zip_code":"9660107"},{"name":"熱塩加納町加納","zip_code":"9660103"},{"name":"熱塩加納町林際","zip_code":"9660106"},{"name":"熱塩加納町宮川","zip_code":"9660105"},{"name":"熱塩加納町山田","zip_code":"9660102"},{"name":"熱塩加納町米岡","zip_code":"9660104"},{"name":"飯田道上","zip_code":"9660887"},{"name":"石田","zip_code":"9660053"},{"name":"市道","zip_code":"9660868"},{"name":"一本木上","zip_code":"9660849"},{"name":"一本木下","zip_code":"9660848"},{"name":"井戸尻","zip_code":"9660057"},{"name":"稲清水","zip_code":"9660069"},{"name":"稲荷宮","zip_code":"9660087"},{"name":"岩月町入田付","zip_code":"9660001"},{"name":"岩月町大都","zip_code":"9660005"},{"name":"岩月町橿野","zip_code":"9660003"},{"name":"岩月町喜多方","zip_code":"9660004"},{"name":"岩月町宮津","zip_code":"9660002"},{"name":"梅竹","zip_code":"9660821"},{"name":"永久","zip_code":"9660838"},{"name":"江中子","zip_code":"9660085"},{"name":"扇田","zip_code":"9660867"},{"name":"大荒井","zip_code":"9660904"},{"name":"大坪","zip_code":"9660836"},{"name":"大豆田","zip_code":"9660037"},{"name":"大道田","zip_code":"9660839"},{"name":"大谷地","zip_code":"9660915"},{"name":"大谷地田","zip_code":"9660054"},{"name":"押切","zip_code":"9660094"},{"name":"押切東","zip_code":"9660095"},{"name":"押切南","zip_code":"9660096"},{"name":"御清水","zip_code":"9660814"},{"name":"御清水東","zip_code":"9660814"},{"name":"御清水南","zip_code":"9660825"},{"name":"小田","zip_code":"9660831"},{"name":"小田付道上","zip_code":"9660805"},{"name":"小田付道下","zip_code":"9660813"},{"name":"落合","zip_code":"9660803"},{"name":"御茶屋","zip_code":"9660894"},{"name":"加登","zip_code":"9660039"},{"name":"蝦蟆渕","zip_code":"9660891"},{"name":"上江","zip_code":"9660043"},{"name":"上川向","zip_code":"9660811"},{"name":"上三宮町上三宮","zip_code":"9660931"},{"name":"上三宮町三谷","zip_code":"9660933"},{"name":"上三宮町吉川","zip_code":"9660932"},{"name":"川下","zip_code":"9660842"},{"name":"北原","zip_code":"9660851"},{"name":"北町","zip_code":"9660072"},{"name":"北町上","zip_code":"9660006"},{"name":"行作","zip_code":"9660835"},{"name":"経壇","zip_code":"9660892"},{"name":"窪屋敷","zip_code":"9660874"},{"name":"熊倉町雄国","zip_code":"9660022"},{"name":"熊倉町熊倉","zip_code":"9660024"},{"name":"熊倉町新合","zip_code":"9660023"},{"name":"熊倉町都","zip_code":"9660021"},{"name":"慶徳町新宮","zip_code":"9660923"},{"name":"慶徳町豊岡","zip_code":"9660922"},{"name":"慶徳町松舞家","zip_code":"9660921"},{"name":"慶徳町山科","zip_code":"9660924"},{"name":"慶徳道上","zip_code":"9660872"},{"name":"慶徳道下","zip_code":"9660869"},{"name":"越巻","zip_code":"9660048"},{"name":"五ノ神","zip_code":"9660063"},{"name":"坂井道上","zip_code":"9660877"},{"name":"桜ガ丘","zip_code":"9660802"},{"name":"桜町","zip_code":"9660038"},{"name":"さつきが丘","zip_code":"9660841"},{"name":"沢ノ目","zip_code":"9660044"},{"name":"沢ノ免","zip_code":"9660827"},{"name":"塩川町天沼","zip_code":"9693538"},{"name":"塩川町新町","zip_code":"9693514"},{"name":"塩川町石橋","zip_code":"9693523"},{"name":"塩川町大在家","zip_code":"9693532"},{"name":"塩川町大田木","zip_code":"9693536"},{"name":"塩川町岡ノ前","zip_code":"9693521"},{"name":"塩川町会知","zip_code":"9693535"},{"name":"塩川町金橋","zip_code":"9693505"},{"name":"塩川町経塚","zip_code":"9693532"},{"name":"塩川町窪","zip_code":"9693506"},{"name":"塩川町源太屋敷","zip_code":"9693539"},{"name":"塩川町黄金田","zip_code":"9693525"},{"name":"塩川町五合","zip_code":"9693503"},{"name":"塩川町御殿場","zip_code":"9693527"},{"name":"塩川町小府根","zip_code":"9693532"},{"name":"塩川町四奈川","zip_code":"9693537"},{"name":"塩川町清水岸","zip_code":"9693524"},{"name":"塩川町新丁","zip_code":"9693522"},{"name":"塩川町諏訪町","zip_code":"9693526"},{"name":"塩川町諏訪前","zip_code":"9693525"},{"name":"塩川町反町","zip_code":"9693523"},{"name":"塩川町高道","zip_code":"9693532"},{"name":"塩川町竹ノ花","zip_code":"9693524"},{"name":"塩川町舘ノ内","zip_code":"9693524"},{"name":"塩川町遠田","zip_code":"9693534"},{"name":"塩川町常世","zip_code":"9693502"},{"name":"塩川町中町","zip_code":"9693513"},{"name":"塩川町中屋沢","zip_code":"9693504"},{"name":"塩川町新井田谷地","zip_code":"9693531"},{"name":"塩川町新江木","zip_code":"9693533"},{"name":"塩川町西ノ新田","zip_code":"9693534"},{"name":"塩川町東岡","zip_code":"9693521"},{"name":"塩川町東栄町","zip_code":"9693512"},{"name":"塩川町藤ノ木","zip_code":"9693532"},{"name":"塩川町町北","zip_code":"9693511"},{"name":"塩川町身神","zip_code":"9693521"},{"name":"塩川町三吉","zip_code":"9693501"},{"name":"塩川町吉沖","zip_code":"9693539"},{"name":"塩川町米沢町","zip_code":"9693515"},{"name":"清水が丘","zip_code":"9660093"},{"name":"清水台","zip_code":"9660092"},{"name":"下江","zip_code":"9660042"},{"name":"下川原","zip_code":"9660850"},{"name":"諏訪","zip_code":"9660896"},{"name":"関柴町上高額","zip_code":"9660015"},{"name":"関柴町西勝","zip_code":"9660014"},{"name":"関柴町下柴","zip_code":"9660012"},{"name":"関柴町関柴","zip_code":"9660011"},{"name":"関柴町豊芦","zip_code":"9660013"},{"name":"関柴町平林","zip_code":"9660016"},{"name":"関柴町三津井","zip_code":"9660017"},{"name":"瀬戸","zip_code":"9660033"},{"name":"銭田","zip_code":"9660047"},{"name":"千苅","zip_code":"9660853"},{"name":"千苅道上","zip_code":"9660854"},{"name":"惣座宮","zip_code":"9660064"},{"name":"台","zip_code":"9660055"},{"name":"太子堂","zip_code":"9660855"},{"name":"高郷町揚津","zip_code":"9694303"},{"name":"高郷町池ノ原","zip_code":"9694312"},{"name":"高郷町磐見","zip_code":"9694304"},{"name":"高郷町大田賀","zip_code":"9694316"},{"name":"高郷町上郷","zip_code":"9694301"},{"name":"高郷町川井","zip_code":"9694314"},{"name":"高郷町塩坪","zip_code":"9694313"},{"name":"高郷町夏井","zip_code":"9694315"},{"name":"高郷町西羽賀","zip_code":"9694311"},{"name":"高郷町峯","zip_code":"9694302"},{"name":"舘野","zip_code":"9660873"},{"name":"壇ノ前","zip_code":"9660884"},{"name":"長源段","zip_code":"9660856"},{"name":"通船場","zip_code":"9660097"},{"name":"鶴巻","zip_code":"9660875"},{"name":"寺田","zip_code":"9660865"},{"name":"寺西","zip_code":"9660068"},{"name":"寺町","zip_code":"9660861"},{"name":"寺町南","zip_code":"9660871"},{"name":"寺南","zip_code":"9660062"},{"name":"天満前","zip_code":"9660852"},{"name":"樋越","zip_code":"9660899"},{"name":"常盤台","zip_code":"9660801"},{"name":"常盤町","zip_code":"9660862"},{"name":"豊川町一井","zip_code":"9660912"},{"name":"豊川町沢部","zip_code":"9660913"},{"name":"豊川町高堂太","zip_code":"9660911"},{"name":"豊川町米室","zip_code":"9660914"},{"name":"長内","zip_code":"9660845"},{"name":"長面","zip_code":"9660049"},{"name":"中川原","zip_code":"9660065"},{"name":"中島","zip_code":"9660833"},{"name":"中清水","zip_code":"9660881"},{"name":"中台","zip_code":"9660035"},{"name":"中寺","zip_code":"9660882"},{"name":"中町","zip_code":"9660073"},{"name":"梨子ノ木","zip_code":"9660032"},{"name":"七百苅","zip_code":"9660864"},{"name":"南條","zip_code":"9660082"},{"name":"西井戸尻","zip_code":"9660084"},{"name":"西籠田","zip_code":"9660844"},{"name":"西町","zip_code":"9660081"},{"name":"西四ツ谷","zip_code":"9660086"},{"name":"二本木","zip_code":"9660034"},{"name":"沼田","zip_code":"9660804"},{"name":"畑台","zip_code":"9660035"},{"name":"花園","zip_code":"9660893"},{"name":"馬場","zip_code":"9660061"},{"name":"原田","zip_code":"9660046"},{"name":"番帳免","zip_code":"9660859"},{"name":"東小原","zip_code":"9660895"},{"name":"東籠田","zip_code":"9660843"},{"name":"東川原田","zip_code":"9660823"},{"name":"東桜ガ丘","zip_code":"9660007"},{"name":"東町","zip_code":"9660051"},{"name":"百苅田","zip_code":"9660832"},{"name":"広面","zip_code":"9660058"},{"name":"舞台田","zip_code":"9660031"},{"name":"古寺","zip_code":"9660866"},{"name":"細田","zip_code":"9660816"},{"name":"前田","zip_code":"9660862"},{"name":"前田上","zip_code":"9660837"},{"name":"蒔田","zip_code":"9660041"},{"name":"町北","zip_code":"9660858"},{"name":"町尻西","zip_code":"9660863"},{"name":"町尻東","zip_code":"9660826"},{"name":"町田","zip_code":"9660847"},{"name":"町田下","zip_code":"9660846"},{"name":"町西","zip_code":"9660857"},{"name":"松山町大飯坂","zip_code":"9660903"},{"name":"松山町鳥見山","zip_code":"9660901"},{"name":"松山町村松","zip_code":"9660902"},{"name":"見頃道上","zip_code":"9660898"},{"name":"水上","zip_code":"9660806"},{"name":"緑町","zip_code":"9660812"},{"name":"南原","zip_code":"9660045"},{"name":"南町","zip_code":"9660074"},{"name":"宮西","zip_code":"9660066"},{"name":"村西","zip_code":"9660067"},{"name":"屋敷免","zip_code":"9660056"},{"name":"谷地田","zip_code":"9660815"},{"name":"谷地田上","zip_code":"9660834"},{"name":"柳清水","zip_code":"9660036"},{"name":"柳原","zip_code":"9660822"},{"name":"山都町相川","zip_code":"9694107"},{"name":"山都町朝倉","zip_code":"9694106"},{"name":"山都町石堀古","zip_code":"9694147"},{"name":"山都町一川","zip_code":"9694102"},{"name":"山都町一ノ木","zip_code":"9694108"},{"name":"山都町入海","zip_code":"9694155"},{"name":"山都町岩渕","zip_code":"9694148"},{"name":"山都町上ノ原道西","zip_code":"9694113"},{"name":"山都町上ノ原道東","zip_code":"9694112"},{"name":"山都町上ノ山平","zip_code":"9694152"},{"name":"山都町馬放場","zip_code":"9694126"},{"name":"山都町江戸塚","zip_code":"9694119"},{"name":"山都町太田","zip_code":"9694121"},{"name":"山都町大林","zip_code":"9694167"},{"name":"山都町大山中","zip_code":"9694151"},{"name":"山都町上石打場","zip_code":"9694164"},{"name":"山都町上新田","zip_code":"9694162"},{"name":"山都町木曽","zip_code":"9694122"},{"name":"山都町北松ノ前","zip_code":"9694139"},{"name":"山都町久祢花","zip_code":"9694127"},{"name":"山都町蔵ノ後","zip_code":"9694111"},{"name":"山都町五十苅","zip_code":"9694115"},{"name":"山都町木幡","zip_code":"9694103"},{"name":"山都町小舟寺","zip_code":"9694101"},{"name":"山都町小松","zip_code":"9694157"},{"name":"山都町小山","zip_code":"9694114"},{"name":"山都町沢尻","zip_code":"9694166"},{"name":"山都町沢田","zip_code":"9694143"},{"name":"山都町三ノ宮","zip_code":"9694132"},{"name":"山都町清水上","zip_code":"9694116"},{"name":"山都町清水尻","zip_code":"9694117"},{"name":"山都町下石打場","zip_code":"9694163"},{"name":"山都町下殿戸","zip_code":"9694153"},{"name":"山都町蛇崩","zip_code":"9694138"},{"name":"山都町舘原","zip_code":"9694154"},{"name":"山都町田向","zip_code":"9694141"},{"name":"山都町殿戸","zip_code":"9694144"},{"name":"山都町中石打場","zip_code":"9694161"},{"name":"山都町中新田","zip_code":"9694123"},{"name":"山都町中野","zip_code":"9694137"},{"name":"山都町七十苅","zip_code":"9694142"},{"name":"山都町西川","zip_code":"9694156"},{"name":"山都町西原","zip_code":"9694145"},{"name":"山都町墓ノ後","zip_code":"9694124"},{"name":"山都町広古屋敷","zip_code":"9694146"},{"name":"山都町広中新田","zip_code":"9694135"},{"name":"山都町広野","zip_code":"9694131"},{"name":"山都町広葎田","zip_code":"9694133"},{"name":"山都町古屋敷","zip_code":"9694118"},{"name":"山都町蓬莱","zip_code":"9694104"},{"name":"山都町町尻","zip_code":"9694136"},{"name":"山都町三津合","zip_code":"9694105"},{"name":"山都町三ツ山","zip_code":"9694165"},{"name":"山都町葎田","zip_code":"9694134"},{"name":"山都町弥左エ門田","zip_code":"9694125"},{"name":"山都町谷地","zip_code":"9694149"},{"name":"山都町早稲谷","zip_code":"9694109"},{"name":"山ノ神","zip_code":"9660071"},{"name":"四百苅","zip_code":"9660052"},{"name":"六枚長","zip_code":"9660083"},{"name":"六百刈","zip_code":"9660824"}]},{"name":"相馬市","divisions":[{"name":"赤木","zip_code":"9792521"},{"name":"粟津","zip_code":"9760152"},{"name":"石上","zip_code":"9760006"},{"name":"磯部","zip_code":"9792501"},{"name":"今田","zip_code":"9792541"},{"name":"岩子","zip_code":"9760025"},{"name":"大坪","zip_code":"9760007"},{"name":"大野台","zip_code":"9760001"},{"name":"大曲","zip_code":"9760032"},{"name":"沖ノ内","zip_code":"9760016"},{"name":"小野","zip_code":"9760053"},{"name":"尾浜","zip_code":"9760022"},{"name":"柏崎","zip_code":"9760034"},{"name":"蒲庭","zip_code":"9792511"},{"name":"北飯渕","zip_code":"9760014"},{"name":"北小泉","zip_code":"9760012"},{"name":"黒木","zip_code":"9760052"},{"name":"小泉","zip_code":"9760013"},{"name":"光陽","zip_code":"9760005"},{"name":"椎木","zip_code":"9760002"},{"name":"立谷","zip_code":"9792531"},{"name":"玉野","zip_code":"9760154"},{"name":"長老内","zip_code":"9760004"},{"name":"塚部","zip_code":"9760003"},{"name":"塚ノ町","zip_code":"9760015"},{"name":"坪田","zip_code":"9792533"},{"name":"百槻","zip_code":"9760031"},{"name":"富沢","zip_code":"9792532"},{"name":"中野","zip_code":"9760037"},{"name":"中村","zip_code":"9760042"},{"name":"成田","zip_code":"9792542"},{"name":"新田","zip_code":"9760033"},{"name":"新沼","zip_code":"9760011"},{"name":"西山","zip_code":"9760041"},{"name":"日下石","zip_code":"9792522"},{"name":"初野","zip_code":"9760051"},{"name":"馬場野","zip_code":"9760036"},{"name":"原釜","zip_code":"9760021"},{"name":"東玉野","zip_code":"9760153"},{"name":"程田","zip_code":"9760035"},{"name":"南飯渕","zip_code":"9760026"},{"name":"本笑","zip_code":"9760024"},{"name":"山上","zip_code":"9760151"},{"name":"柚木","zip_code":"9792512"},{"name":"和田","zip_code":"9760023"}]},{"name":"二本松市","divisions":[{"name":"赤井沢","zip_code":"9640982"},{"name":"浅川","zip_code":"9640929"},{"name":"安達ケ原","zip_code":"9640938"},{"name":"鐙摺石","zip_code":"9640802"},{"name":"伊佐沼町","zip_code":"9640004"},{"name":"石ノ花","zip_code":"9640826"},{"name":"石畑","zip_code":"9640927"},{"name":"板目沢","zip_code":"9640015"},{"name":"市海道","zip_code":"9640914"},{"name":"井戸神","zip_code":"9640024"},{"name":"岩崎","zip_code":"9640823"},{"name":"丑子内","zip_code":"9640932"},{"name":"乳母沢","zip_code":"9640053"},{"name":"上原","zip_code":"9640898"},{"name":"江口","zip_code":"9640997"},{"name":"榎戸","zip_code":"9640937"},{"name":"大石ケ作","zip_code":"9640057"},{"name":"大稲場","zip_code":"9640954"},{"name":"大久保","zip_code":"9640963"},{"name":"大坂","zip_code":"9640048"},{"name":"大沢","zip_code":"9640849"},{"name":"大関","zip_code":"9640077"},{"name":"太田","zip_code":"9640111"},{"name":"大平中井","zip_code":"9640949"},{"name":"大壇","zip_code":"9640891"},{"name":"大平山","zip_code":"9640869"},{"name":"大町","zip_code":"9640996"},{"name":"大森沢","zip_code":"9640016"},{"name":"岡ノ内","zip_code":"9640975"},{"name":"沖","zip_code":"9640955"},{"name":"小沢","zip_code":"9691513"},{"name":"落合","zip_code":"9640832"},{"name":"小浜","zip_code":"9640313"},{"name":"表","zip_code":"9640901"},{"name":"郭内","zip_code":"9640904"},{"name":"隠里","zip_code":"9640842"},{"name":"片岸","zip_code":"9640863"},{"name":"金色","zip_code":"9640915"},{"name":"金色久保","zip_code":"9640807"},{"name":"冠木","zip_code":"9640987"},{"name":"上太田","zip_code":"9640321"},{"name":"上川崎","zip_code":"9691512"},{"name":"上新田","zip_code":"9640014"},{"name":"上長折","zip_code":"9640312"},{"name":"上葉木坂","zip_code":"9640073"},{"name":"上平内","zip_code":"9640848"},{"name":"上蓬田","zip_code":"9640926"},{"name":"亀谷","zip_code":"9640911"},{"name":"唐谷山","zip_code":"9640815"},{"name":"借宿","zip_code":"9640838"},{"name":"北トロミ","zip_code":"9640984"},{"name":"木藤次郎内","zip_code":"9640808"},{"name":"木ノ崎","zip_code":"9640956"},{"name":"木ノ根坂","zip_code":"9640087"},{"name":"向陽台","zip_code":"9640853"},{"name":"郡山台","zip_code":"9640854"},{"name":"小セ川","zip_code":"9640921"},{"name":"小関","zip_code":"9640065"},{"name":"小高内","zip_code":"9640974"},{"name":"木幡","zip_code":"9640203"},{"name":"古家","zip_code":"9640007"},{"name":"西勝田","zip_code":"9640314"},{"name":"才木山","zip_code":"9640063"},{"name":"西光内","zip_code":"9640933"},{"name":"在師","zip_code":"9640844"},{"name":"幸町","zip_code":"9640893"},{"name":"茶園","zip_code":"9640913"},{"name":"栄町","zip_code":"9640071"},{"name":"作","zip_code":"9640944"},{"name":"作田","zip_code":"9640986"},{"name":"笹屋","zip_code":"9640005"},{"name":"五月町","zip_code":"9640964"},{"name":"沢松倉","zip_code":"9640088"},{"name":"三合内","zip_code":"9640934"},{"name":"三雄山","zip_code":"9640058"},{"name":"塩沢","zip_code":"9640086"},{"name":"塩沢町","zip_code":"9640897"},{"name":"式部内","zip_code":"9640942"},{"name":"下町","zip_code":"9640825"},{"name":"渋川","zip_code":"9691403"},{"name":"島寺","zip_code":"9640922"},{"name":"島ノ内","zip_code":"9640935"},{"name":"下川崎","zip_code":"9691511"},{"name":"下平","zip_code":"9640804"},{"name":"下長折","zip_code":"9640316"},{"name":"下ノ内","zip_code":"9640805"},{"name":"下山田","zip_code":"9640883"},{"name":"上竹","zip_code":"9640912"},{"name":"正法寺町","zip_code":"9640876"},{"name":"昭和町","zip_code":"9640966"},{"name":"新座","zip_code":"9640882"},{"name":"新生町","zip_code":"9640976"},{"name":"新田","zip_code":"9640013"},{"name":"新林","zip_code":"9640828"},{"name":"神明石","zip_code":"9640952"},{"name":"水神","zip_code":"9640835"},{"name":"末広町","zip_code":"9640896"},{"name":"菅田","zip_code":"9640836"},{"name":"杉沢","zip_code":"9640302"},{"name":"杉田駄子内","zip_code":"9640862"},{"name":"杉田仲之内","zip_code":"9640833"},{"name":"杉田町","zip_code":"9640865"},{"name":"鈴石東町","zip_code":"9640962"},{"name":"鈴石町","zip_code":"9640972"},{"name":"硯石","zip_code":"9640023"},{"name":"住吉","zip_code":"9640867"},{"name":"諏訪原","zip_code":"9640824"},{"name":"関","zip_code":"9640812"},{"name":"瀬ノ上","zip_code":"9640841"},{"name":"芹沢","zip_code":"9640965"},{"name":"反返","zip_code":"9640827"},{"name":"反田","zip_code":"9640851"},{"name":"大根畑","zip_code":"9640084"},{"name":"大作","zip_code":"9640884"},{"name":"太子堂","zip_code":"9640957"},{"name":"高越松ケ作","zip_code":"9640886"},{"name":"高越屋戸","zip_code":"9640885"},{"name":"高田","zip_code":"9640985"},{"name":"高平","zip_code":"9640028"},{"name":"高西","zip_code":"9640817"},{"name":"岳温泉","zip_code":"9640074"},{"name":"岳温泉大和","zip_code":"9640062"},{"name":"岳温泉西大和","zip_code":"9640066"},{"name":"岳温泉深堀","zip_code":"9640061"},{"name":"岳温泉横森","zip_code":"9640064"},{"name":"竹柄","zip_code":"9640845"},{"name":"竹田","zip_code":"9640902"},{"name":"竹ノ内","zip_code":"9640958"},{"name":"岳東町","zip_code":"9640072"},{"name":"田沢","zip_code":"9640431"},{"name":"立石","zip_code":"9640038"},{"name":"舘野","zip_code":"9640868"},{"name":"舘野原","zip_code":"9640051"},{"name":"田町","zip_code":"9640993"},{"name":"坦子内","zip_code":"9640894"},{"name":"智恵子の森","zip_code":"9691405"},{"name":"長者宮","zip_code":"9640852"},{"name":"長命","zip_code":"9640866"},{"name":"槻木","zip_code":"9640875"},{"name":"鉄扇町","zip_code":"9640008"},{"name":"峠","zip_code":"9640846"},{"name":"藤太郎内","zip_code":"9640872"},{"name":"藤之前","zip_code":"9640881"},{"name":"百目木","zip_code":"9640433"},{"name":"十神","zip_code":"9640834"},{"name":"遠山","zip_code":"9640945"},{"name":"遠西","zip_code":"9640814"},{"name":"戸沢","zip_code":"9640201"},{"name":"苗松","zip_code":"9640054"},{"name":"中江","zip_code":"9640859"},{"name":"長折","zip_code":"9640311"},{"name":"中里","zip_code":"9640874"},{"name":"永田","zip_code":"9640075"},{"name":"中ノ目","zip_code":"9640001"},{"name":"中町","zip_code":"9640991"},{"name":"中森","zip_code":"9640924"},{"name":"中山田","zip_code":"9640026"},{"name":"長下","zip_code":"9640923"},{"name":"永田鍛治内","zip_code":"9640022"},{"name":"永田才木","zip_code":"9640011"},{"name":"永田積内","zip_code":"9640012"},{"name":"永田橋積","zip_code":"9640076"},{"name":"永田馬保内","zip_code":"9640021"},{"name":"永田御堂内","zip_code":"9640017"},{"name":"七ツ段","zip_code":"9640837"},{"name":"成上","zip_code":"9640855"},{"name":"成田","zip_code":"9640315"},{"name":"成田日向","zip_code":"9640892"},{"name":"成田町","zip_code":"9640871"},{"name":"二伊滝","zip_code":"9640003"},{"name":"西池","zip_code":"9640861"},{"name":"錦町","zip_code":"9640995"},{"name":"西新殿","zip_code":"9640304"},{"name":"西町","zip_code":"9640856"},{"name":"沼ケ作","zip_code":"9640953"},{"name":"根崎","zip_code":"9640903"},{"name":"萩坂","zip_code":"9640039"},{"name":"橋本","zip_code":"9640948"},{"name":"八万舘","zip_code":"9640803"},{"name":"初森","zip_code":"9640303"},{"name":"羽石","zip_code":"9640806"},{"name":"馬場平","zip_code":"9640055"},{"name":"原セ天ケ作","zip_code":"9640035"},{"name":"原セ大畑","zip_code":"9640042"},{"name":"原セ笠張","zip_code":"9640045"},{"name":"原セ上平","zip_code":"9640047"},{"name":"原セ上ノ内","zip_code":"9640044"},{"name":"原セ川原","zip_code":"9640037"},{"name":"原セ才木","zip_code":"9640036"},{"name":"原セ諏訪","zip_code":"9640043"},{"name":"原セ堰下","zip_code":"9640034"},{"name":"原セ仲谷地","zip_code":"9640049"},{"name":"原セ日照田","zip_code":"9640041"},{"name":"原セ山口","zip_code":"9640046"},{"name":"原田","zip_code":"9640816"},{"name":"針道","zip_code":"9640202"},{"name":"東裏","zip_code":"9640873"},{"name":"東新殿","zip_code":"9640301"},{"name":"東町","zip_code":"9640857"},{"name":"毘沙門堂","zip_code":"9640033"},{"name":"毘沙門堂山","zip_code":"9640032"},{"name":"姫子松","zip_code":"9640858"},{"name":"平石三丁目","zip_code":"9640992"},{"name":"平石高田","zip_code":"9640981"},{"name":"平石町","zip_code":"9640973"},{"name":"袋内","zip_code":"9640829"},{"name":"二又","zip_code":"9640006"},{"name":"不動","zip_code":"9640818"},{"name":"不動平","zip_code":"9640085"},{"name":"舟石","zip_code":"9640822"},{"name":"舟形石","zip_code":"9640821"},{"name":"舟形石山","zip_code":"9640813"},{"name":"細野","zip_code":"9640907"},{"name":"坊主滝","zip_code":"9640843"},{"name":"堀越","zip_code":"9640946"},{"name":"前田","zip_code":"9640831"},{"name":"前原","zip_code":"9640031"},{"name":"松岡","zip_code":"9640905"},{"name":"松林","zip_code":"9640947"},{"name":"水上","zip_code":"9640941"},{"name":"南トロミ","zip_code":"9640983"},{"name":"南町","zip_code":"9640994"},{"name":"箕輪","zip_code":"9640052"},{"name":"三原町","zip_code":"9640895"},{"name":"三保内","zip_code":"9640887"},{"name":"宮沢","zip_code":"9640081"},{"name":"宮戸","zip_code":"9640811"},{"name":"宮本","zip_code":"9640951"},{"name":"明主内","zip_code":"9640943"},{"name":"向作田","zip_code":"9640801"},{"name":"向原","zip_code":"9640916"},{"name":"本町","zip_code":"9640917"},{"name":"茂原","zip_code":"9640432"},{"name":"諸越谷","zip_code":"9640936"},{"name":"薬師","zip_code":"9640847"},{"name":"八坂町","zip_code":"9640961"},{"name":"社前","zip_code":"9640864"},{"name":"休石","zip_code":"9640082"},{"name":"休石原","zip_code":"9640083"},{"name":"屋戸入","zip_code":"9640025"},{"name":"矢ノ戸","zip_code":"9640931"},{"name":"山田","zip_code":"9640027"},{"name":"谷和子","zip_code":"9640925"},{"name":"油井","zip_code":"9691404"},{"name":"雄平台","zip_code":"9640056"},{"name":"湯川町","zip_code":"9640002"},{"name":"吉倉","zip_code":"9691401"},{"name":"米五町","zip_code":"9640971"},{"name":"米沢","zip_code":"9691402"},{"name":"蓬田","zip_code":"9640928"},{"name":"若宮","zip_code":"9640906"}]},{"name":"田村市","divisions":[{"name":"大越町上大越","zip_code":"9634111"},{"name":"大越町栗出","zip_code":"9634115"},{"name":"大越町下大越","zip_code":"9634112"},{"name":"大越町牧野","zip_code":"9634114"},{"name":"大越町早稲川","zip_code":"9634113"},{"name":"滝根町神俣","zip_code":"9633602"},{"name":"滝根町菅谷","zip_code":"9633601"},{"name":"滝根町広瀬","zip_code":"9633603"},{"name":"常葉町鹿山","zip_code":"9634604"},{"name":"常葉町久保","zip_code":"9634605"},{"name":"常葉町小桧山","zip_code":"9634614"},{"name":"常葉町関本","zip_code":"9634613"},{"name":"常葉町常葉","zip_code":"9634602"},{"name":"常葉町西向","zip_code":"9634603"},{"name":"常葉町新田作","zip_code":"9634606"},{"name":"常葉町堀田","zip_code":"9634611"},{"name":"常葉町山根","zip_code":"9634601"},{"name":"常葉町早稲川","zip_code":"9634612"},{"name":"船引町芦沢","zip_code":"9634316"},{"name":"船引町荒和田","zip_code":"9634322"},{"name":"船引町石沢","zip_code":"9634431"},{"name":"船引町石森","zip_code":"9634313"},{"name":"船引町今泉","zip_code":"9634311"},{"name":"船引町大倉","zip_code":"9634435"},{"name":"船引町門沢","zip_code":"9634203"},{"name":"船引町門鹿","zip_code":"9634434"},{"name":"船引町要田","zip_code":"9634323"},{"name":"船引町上移","zip_code":"9634541"},{"name":"船引町北移","zip_code":"9634545"},{"name":"船引町北鹿又","zip_code":"9634433"},{"name":"船引町椚山","zip_code":"9634202"},{"name":"船引町光陽台","zip_code":"9634318"},{"name":"船引町笹山","zip_code":"9634321"},{"name":"船引町東部台","zip_code":"9634317"},{"name":"船引町遠山沢","zip_code":"9634205"},{"name":"船引町長外路","zip_code":"9634432"},{"name":"船引町永谷","zip_code":"9634201"},{"name":"船引町中山","zip_code":"9634543"},{"name":"船引町成田","zip_code":"9634324"},{"name":"船引町新舘","zip_code":"9634436"},{"name":"船引町春山","zip_code":"9634315"},{"name":"船引町船引","zip_code":"9634312"},{"name":"船引町堀越","zip_code":"9634204"},{"name":"船引町南移","zip_code":"9634544"},{"name":"船引町文珠","zip_code":"9634314"},{"name":"船引町横道","zip_code":"9634542"},{"name":"都路町岩井沢","zip_code":"9634702"},{"name":"都路町古道","zip_code":"9634701"}]},{"name":"南相馬市","divisions":[{"name":"小高区泉沢","zip_code":"9792133"},{"name":"小高区井田川","zip_code":"9792144"},{"name":"小高区浦尻","zip_code":"9792145"},{"name":"小高区上根沢","zip_code":"9792155"},{"name":"小高区蛯沢","zip_code":"9792143"},{"name":"小高区大井","zip_code":"9792103"},{"name":"小高区大田和","zip_code":"9792163"},{"name":"小高区大富","zip_code":"9792174"},{"name":"小高区大町","zip_code":"9792123"},{"name":"小高区岡田","zip_code":"9792134"},{"name":"小高区小高","zip_code":"9792102"},{"name":"小高区女場","zip_code":"9792147"},{"name":"小高区小谷","zip_code":"9792173"},{"name":"小高区片草","zip_code":"9792101"},{"name":"小高区金谷","zip_code":"9792165"},{"name":"小高区上浦","zip_code":"9792153"},{"name":"小高区上町","zip_code":"9792115"},{"name":"小高区神山","zip_code":"9792154"},{"name":"小高区川房","zip_code":"9792164"},{"name":"小高区北鳩原","zip_code":"9792171"},{"name":"小高区小屋木","zip_code":"9792156"},{"name":"小高区下浦","zip_code":"9792146"},{"name":"小高区関場","zip_code":"9792113"},{"name":"小高区田町","zip_code":"9792112"},{"name":"小高区塚原","zip_code":"9792104"},{"name":"小高区角部内","zip_code":"9792142"},{"name":"小高区仲町","zip_code":"9792111"},{"name":"小高区行津","zip_code":"9792152"},{"name":"小高区西町","zip_code":"9792114"},{"name":"小高区羽倉","zip_code":"9792175"},{"name":"小高区飯崎","zip_code":"9792162"},{"name":"小高区東町","zip_code":"9792121"},{"name":"小高区福岡","zip_code":"9792131"},{"name":"小高区藤木","zip_code":"9792161"},{"name":"小高区水谷","zip_code":"9792132"},{"name":"小高区南鳩原","zip_code":"9792172"},{"name":"小高区南町","zip_code":"9792122"},{"name":"小高区耳谷","zip_code":"9792151"},{"name":"小高区村上","zip_code":"9792141"},{"name":"小高区本町","zip_code":"9792124"},{"name":"小高区吉名","zip_code":"9792157"},{"name":"鹿島区あさひ","zip_code":"9792336"},{"name":"鹿島区浮田","zip_code":"9792451"},{"name":"鹿島区牛河内","zip_code":"9792443"},{"name":"鹿島区江垂","zip_code":"9792331"},{"name":"鹿島区大内","zip_code":"9792322"},{"name":"鹿島区岡和田","zip_code":"9792444"},{"name":"鹿島区小島田","zip_code":"9792321"},{"name":"鹿島区御山","zip_code":"9792464"},{"name":"鹿島区鹿島","zip_code":"9792335"},{"name":"鹿島区上栃窪","zip_code":"9792462"},{"name":"鹿島区烏崎","zip_code":"9792323"},{"name":"鹿島区川子","zip_code":"9792324"},{"name":"鹿島区北海老","zip_code":"9792311"},{"name":"鹿島区北右田","zip_code":"9792313"},{"name":"鹿島区北屋形","zip_code":"9792303"},{"name":"鹿島区小池","zip_code":"9792453"},{"name":"鹿島区小山田","zip_code":"9792452"},{"name":"鹿島区塩崎","zip_code":"9792332"},{"name":"鹿島区橲原","zip_code":"9792454"},{"name":"鹿島区角川原","zip_code":"9792441"},{"name":"鹿島区寺内","zip_code":"9792333"},{"name":"鹿島区栃窪","zip_code":"9792463"},{"name":"鹿島区永田","zip_code":"9792305"},{"name":"鹿島区永渡","zip_code":"9792301"},{"name":"鹿島区西町","zip_code":"9792334"},{"name":"鹿島区南海老","zip_code":"9792312"},{"name":"鹿島区南右田","zip_code":"9792314"},{"name":"鹿島区南屋形","zip_code":"9792304"},{"name":"鹿島区南柚木","zip_code":"9792302"},{"name":"鹿島区山下","zip_code":"9792461"},{"name":"鹿島区横手","zip_code":"9792442"},{"name":"原町区青葉町","zip_code":"9750039"},{"name":"原町区旭町","zip_code":"9750004"},{"name":"原町区東町","zip_code":"9750002"},{"name":"原町区石神","zip_code":"9750075"},{"name":"原町区泉","zip_code":"9750023"},{"name":"原町区牛越","zip_code":"9750017"},{"name":"原町区江井","zip_code":"9750047"},{"name":"原町区大谷","zip_code":"9750078"},{"name":"原町区大木戸","zip_code":"9750061"},{"name":"原町区大原","zip_code":"9750079"},{"name":"原町区大町","zip_code":"9750001"},{"name":"原町区大甕","zip_code":"9750049"},{"name":"原町区小川町","zip_code":"9750011"},{"name":"原町区小木さく","zip_code":"9750055"},{"name":"原町区押釜","zip_code":"9750064"},{"name":"原町区萱浜","zip_code":"9750036"},{"name":"原町区片倉","zip_code":"9750058"},{"name":"原町区金沢","zip_code":"9750021"},{"name":"原町区上太田","zip_code":"9750059"},{"name":"原町区上北高平","zip_code":"9750027"},{"name":"原町区上渋佐","zip_code":"9750034"},{"name":"原町区上高平","zip_code":"9750026"},{"name":"原町区上町","zip_code":"9750013"},{"name":"原町区北泉","zip_code":"9750022"},{"name":"原町区北長野","zip_code":"9750072"},{"name":"原町区北新田","zip_code":"9750073"},{"name":"原町区北原","zip_code":"9750037"},{"name":"原町区北町","zip_code":"9750018"},{"name":"原町区国見町","zip_code":"9750015"},{"name":"原町区小沢","zip_code":"9750045"},{"name":"原町区小浜","zip_code":"9750043"},{"name":"原町区牛来","zip_code":"9750051"},{"name":"原町区栄町","zip_code":"9750003"},{"name":"原町区桜井町","zip_code":"9750032"},{"name":"原町区信田沢","zip_code":"9750076"},{"name":"原町区雫","zip_code":"9750042"},{"name":"原町区下江井","zip_code":"9750044"},{"name":"原町区下太田","zip_code":"9750041"},{"name":"原町区下北高平","zip_code":"9750024"},{"name":"原町区下渋佐","zip_code":"9750035"},{"name":"原町区下高平","zip_code":"9750025"},{"name":"原町区高","zip_code":"9750054"},{"name":"原町区高倉","zip_code":"9750077"},{"name":"原町区高見町","zip_code":"9750033"},{"name":"原町区堤谷","zip_code":"9750046"},{"name":"原町区鶴谷","zip_code":"9750056"},{"name":"原町区中太田","zip_code":"9750052"},{"name":"原町区長野","zip_code":"9750074"},{"name":"原町区仲町","zip_code":"9750016"},{"name":"原町区錦町","zip_code":"9750031"},{"name":"原町区西町","zip_code":"9750014"},{"name":"原町区橋本町","zip_code":"9750006"},{"name":"原町区馬場","zip_code":"9750063"},{"name":"原町区日の出町","zip_code":"9750038"},{"name":"原町区深野","zip_code":"9750071"},{"name":"原町区二見町","zip_code":"9750005"},{"name":"原町区本陣前","zip_code":"9750062"},{"name":"原町区益田","zip_code":"9750053"},{"name":"原町区三島町","zip_code":"9750012"},{"name":"原町区南町","zip_code":"9750007"},{"name":"原町区米々沢","zip_code":"9750048"},{"name":"原町区本町","zip_code":"9750008"},{"name":"原町区矢川原","zip_code":"9750057"}]},{"name":"伊達市","divisions":[{"name":"荒町","zip_code":"9600423"},{"name":"一本木","zip_code":"9600405"},{"name":"一本杉","zip_code":"9600421"},{"name":"一本松","zip_code":"9600437"},{"name":"右城","zip_code":"9600415"},{"name":"姥石","zip_code":"9600455"},{"name":"姥ケ懐","zip_code":"9600424"},{"name":"姥川","zip_code":"9600425"},{"name":"上台","zip_code":"9600488"},{"name":"江向","zip_code":"9600457"},{"name":"扇田","zip_code":"9600458"},{"name":"岡沼","zip_code":"9600408"},{"name":"岡前","zip_code":"9600418"},{"name":"篭田","zip_code":"9600485"},{"name":"鍛治屋川","zip_code":"9600427"},{"name":"柏木町","zip_code":"9600477"},{"name":"片町","zip_code":"9600461"},{"name":"上川原","zip_code":"9600433"},{"name":"上志和田","zip_code":"9600453"},{"name":"川原田","zip_code":"9600422"},{"name":"川原町","zip_code":"9600431"},{"name":"北後","zip_code":"9600468"},{"name":"北畑","zip_code":"9600417"},{"name":"沓形","zip_code":"9600474"},{"name":"久根妻","zip_code":"9600465"},{"name":"坂ノ上","zip_code":"9600428"},{"name":"坂ノ下","zip_code":"9600426"},{"name":"沢田","zip_code":"9600473"},{"name":"下川原","zip_code":"9600401"},{"name":"下志和田","zip_code":"9600451"},{"name":"志和田前","zip_code":"9600454"},{"name":"新町","zip_code":"9600441"},{"name":"神明前","zip_code":"9600445"},{"name":"菅田","zip_code":"9600442"},{"name":"諏訪西","zip_code":"9600443"},{"name":"諏訪野","zip_code":"9600446"},{"name":"諏訪前","zip_code":"9600444"},{"name":"堰上","zip_code":"9600435"},{"name":"堰下","zip_code":"9600434"},{"name":"瀬戸場","zip_code":"9600489"},{"name":"雪車町","zip_code":"9600412"},{"name":"高田","zip_code":"9600487"},{"name":"舘ノ内","zip_code":"9600467"},{"name":"田町","zip_code":"9600463"},{"name":"塚畑","zip_code":"9600429"},{"name":"月舘町上手渡","zip_code":"9600904"},{"name":"月舘町下手渡","zip_code":"9600903"},{"name":"月舘町月舘","zip_code":"9600902"},{"name":"月舘町糠田","zip_code":"9600905"},{"name":"月舘町布川","zip_code":"9600901"},{"name":"月舘町御代田","zip_code":"9600906"},{"name":"鶴田","zip_code":"9600482"},{"name":"鶴巻","zip_code":"9600476"},{"name":"寺前","zip_code":"9600447"},{"name":"堂ノ内","zip_code":"9600406"},{"name":"長岡","zip_code":"9600414"},{"name":"長川原","zip_code":"9600432"},{"name":"中志和田","zip_code":"9600452"},{"name":"中畑","zip_code":"9600416"},{"name":"長町","zip_code":"9600471"},{"name":"中道","zip_code":"9600456"},{"name":"梨子木町","zip_code":"9600411"},{"name":"根岸","zip_code":"9600466"},{"name":"根田","zip_code":"9600472"},{"name":"野崎","zip_code":"9600479"},{"name":"箱崎","zip_code":"9600502"},{"name":"馬場口","zip_code":"9600484"},{"name":"原島","zip_code":"9600404"},{"name":"日照","zip_code":"9600407"},{"name":"広前","zip_code":"9600419"},{"name":"伏黒","zip_code":"9600501"},{"name":"干供田","zip_code":"9600475"},{"name":"細谷","zip_code":"9600478"},{"name":"保原町１丁目","zip_code":"9600624"},{"name":"保原町２丁目","zip_code":"9600625"},{"name":"保原町３丁目","zip_code":"9600626"},{"name":"保原町４丁目","zip_code":"9600627"},{"name":"保原町５丁目","zip_code":"9600615"},{"name":"保原町６丁目","zip_code":"9600616"},{"name":"保原町７丁目","zip_code":"9600617"},{"name":"保原町８丁目","zip_code":"9600618"},{"name":"保原町９丁目","zip_code":"9600619"},{"name":"保原町１０丁目","zip_code":"9600607"},{"name":"保原町１１丁目","zip_code":"9600608"},{"name":"保原町１２丁目","zip_code":"9600609"},{"name":"保原町赤橋","zip_code":"9600669"},{"name":"保原町旭町","zip_code":"9600687"},{"name":"保原町油谷地","zip_code":"9600679"},{"name":"保原町泉町","zip_code":"9600653"},{"name":"保原町市柳町","zip_code":"9600622"},{"name":"保原町磐前通","zip_code":"9600614"},{"name":"保原町内町","zip_code":"9600613"},{"name":"保原町大泉","zip_code":"9600634"},{"name":"保原町大立目","zip_code":"9600632"},{"name":"保原町太田中","zip_code":"9600664"},{"name":"保原町大柳","zip_code":"9600675"},{"name":"保原町岡代","zip_code":"9600665"},{"name":"保原町小幡町","zip_code":"9600654"},{"name":"保原町柏町","zip_code":"9600651"},{"name":"保原町金原田","zip_code":"9600661"},{"name":"保原町上野崎","zip_code":"9600674"},{"name":"保原町上保原","zip_code":"9600684"},{"name":"保原町烏内","zip_code":"9600668"},{"name":"保原町北河原","zip_code":"9600638"},{"name":"保原町京門","zip_code":"9600678"},{"name":"保原町久保","zip_code":"9600602"},{"name":"保原町黄金町","zip_code":"9600685"},{"name":"保原町小蓋","zip_code":"9600647"},{"name":"保原町栄町","zip_code":"9600601"},{"name":"保原町清水町","zip_code":"9600649"},{"name":"保原町下河原","zip_code":"9600643"},{"name":"保原町下野崎","zip_code":"9600672"},{"name":"保原町将監","zip_code":"9600637"},{"name":"保原町城ノ内","zip_code":"9600611"},{"name":"保原町千刈","zip_code":"9600676"},{"name":"保原町台後","zip_code":"9600645"},{"name":"保原町高成田","zip_code":"9600683"},{"name":"保原町竹内町","zip_code":"9600686"},{"name":"保原町鉄炮町","zip_code":"9600606"},{"name":"保原町所沢","zip_code":"9600681"},{"name":"保原町富沢","zip_code":"9600682"},{"name":"保原町豊田","zip_code":"9600644"},{"name":"保原町中瀬","zip_code":"9600631"},{"name":"保原町中瀬町","zip_code":"9600657"},{"name":"保原町中村町","zip_code":"9600621"},{"name":"保原町二井田","zip_code":"9600633"},{"name":"保原町西新田","zip_code":"9600650"},{"name":"保原町西猫川","zip_code":"9600641"},{"name":"保原町西ノ内","zip_code":"9600659"},{"name":"保原町西町","zip_code":"9600652"},{"name":"保原町野崎","zip_code":"9600673"},{"name":"保原町柱田","zip_code":"9600662"},{"name":"保原町八幡台","zip_code":"9600667"},{"name":"保原町半道","zip_code":"9600635"},{"name":"保原町東小蓋","zip_code":"9600648"},{"name":"保原町東台後","zip_code":"9600646"},{"name":"保原町東猫川","zip_code":"9600642"},{"name":"保原町東野崎","zip_code":"9600671"},{"name":"保原町舟橋","zip_code":"9600663"},{"name":"保原町古川端","zip_code":"9600658"},{"name":"保原町古町","zip_code":"9600603"},{"name":"保原町前田町","zip_code":"9600623"},{"name":"保原町みずほ","zip_code":"9600688"},{"name":"保原町実町","zip_code":"9600628"},{"name":"保原町宮内町","zip_code":"9600655"},{"name":"保原町宮下","zip_code":"9600612"},{"name":"保原町村岡","zip_code":"9600666"},{"name":"保原町元木","zip_code":"9600604"},{"name":"保原町元町","zip_code":"9600605"},{"name":"保原町八幡町","zip_code":"9600656"},{"name":"保原町大和","zip_code":"9600636"},{"name":"保原町弥生町","zip_code":"9600629"},{"name":"保原町豊町","zip_code":"9600644"},{"name":"保原町六万坊","zip_code":"9600639"},{"name":"保原町早稲田","zip_code":"9600677"},{"name":"堀切端","zip_code":"9600481"},{"name":"前川原","zip_code":"9600403"},{"name":"前田","zip_code":"9600436"},{"name":"水抜","zip_code":"9600402"},{"name":"南堀","zip_code":"9600464"},{"name":"宮前","zip_code":"9600413"},{"name":"本町","zip_code":"9600462"},{"name":"屋敷間","zip_code":"9600448"},{"name":"梁川町青葉町","zip_code":"9600756"},{"name":"梁川町赤五輪","zip_code":"9600725"},{"name":"梁川町足駄木","zip_code":"9600723"},{"name":"梁川町粟野","zip_code":"9600711"},{"name":"梁川町五十沢","zip_code":"9600701"},{"name":"梁川町石井戸","zip_code":"9600774"},{"name":"梁川町壱丁田","zip_code":"9600764"},{"name":"梁川町右城町","zip_code":"9600745"},{"name":"梁川町内町","zip_code":"9600744"},{"name":"梁川町内山","zip_code":"9600723"},{"name":"梁川町上町","zip_code":"9600727"},{"name":"梁川町大清水","zip_code":"9600746"},{"name":"梁川町大関","zip_code":"9600765"},{"name":"梁川町大舘","zip_code":"9600715"},{"name":"梁川町大町","zip_code":"9600741"},{"name":"梁川町御八郎","zip_code":"9600712"},{"name":"梁川町上足駄木","zip_code":"9600723"},{"name":"梁川町上川原","zip_code":"9600753"},{"name":"梁川町上割田","zip_code":"9600772"},{"name":"梁川町北新井","zip_code":"9600724"},{"name":"梁川町北町頭","zip_code":"9600726"},{"name":"梁川町北町谷川","zip_code":"9600706"},{"name":"梁川町北本町","zip_code":"9600781"},{"name":"梁川町希望ケ丘","zip_code":"9600729"},{"name":"梁川町五反田","zip_code":"9600773"},{"name":"梁川町小梁川","zip_code":"9600785"},{"name":"梁川町幸町","zip_code":"9600757"},{"name":"梁川町栄町","zip_code":"9600754"},{"name":"梁川町桜岳","zip_code":"9600736"},{"name":"梁川町桜町","zip_code":"9600758"},{"name":"梁川町里見山","zip_code":"9600723"},{"name":"梁川町四石蒔","zip_code":"9600775"},{"name":"梁川町清水町","zip_code":"9600742"},{"name":"梁川町下川原","zip_code":"9600711"},{"name":"梁川町菖蒲沢","zip_code":"9600733"},{"name":"梁川町白川田","zip_code":"9600716"},{"name":"梁川町白根","zip_code":"9600721"},{"name":"梁川町大門道","zip_code":"9600763"},{"name":"梁川町田町","zip_code":"9600784"},{"name":"梁川町丹波塚","zip_code":"9600762"},{"name":"梁川町茶臼山","zip_code":"9600734"},{"name":"梁川町鶴ケ岡","zip_code":"9600735"},{"name":"梁川町天神前","zip_code":"9600728"},{"name":"梁川町天神町","zip_code":"9600731"},{"name":"梁川町伝樋","zip_code":"9600778"},{"name":"梁川町中久保","zip_code":"9600755"},{"name":"梁川町中町","zip_code":"9600782"},{"name":"梁川町西塩野川","zip_code":"9600709"},{"name":"梁川町西土橋","zip_code":"9600777"},{"name":"梁川町新田","zip_code":"9600767"},{"name":"梁川町二野袋","zip_code":"9600718"},{"name":"梁川町東大枝","zip_code":"9600702"},{"name":"梁川町東塩野川","zip_code":"9600708"},{"name":"梁川町東土橋","zip_code":"9600776"},{"name":"梁川町広瀬町","zip_code":"9600759"},{"name":"梁川町舟橋","zip_code":"9600769"},{"name":"梁川町舟生","zip_code":"9600704"},{"name":"梁川町古町","zip_code":"9600751"},{"name":"梁川町細谷","zip_code":"9600766"},{"name":"梁川町町裏","zip_code":"9600747"},{"name":"梁川町南町頭","zip_code":"9600732"},{"name":"梁川町南町谷川","zip_code":"9600707"},{"name":"梁川町南本町","zip_code":"9600786"},{"name":"梁川町向川原","zip_code":"9600717"},{"name":"梁川町元陣内","zip_code":"9600743"},{"name":"梁川町元舟場","zip_code":"9600705"},{"name":"梁川町本町","zip_code":"9600783"},{"name":"梁川町八筋","zip_code":"9600713"},{"name":"梁川町やながわ工業団地","zip_code":"9600719"},{"name":"梁川町柳田","zip_code":"9600768"},{"name":"梁川町山城舘","zip_code":"9600787"},{"name":"梁川町山舟生","zip_code":"9600703"},{"name":"梁川町八幡","zip_code":"9600722"},{"name":"梁川町陽光台","zip_code":"9600760"},{"name":"梁川町四日市","zip_code":"9600752"},{"name":"柳内","zip_code":"9600483"},{"name":"雷田","zip_code":"9600438"},{"name":"霊山町石田","zip_code":"9600807"},{"name":"霊山町泉原","zip_code":"9600803"},{"name":"霊山町大石","zip_code":"9600804"},{"name":"霊山町掛田","zip_code":"9600801"},{"name":"霊山町上小国","zip_code":"9600809"},{"name":"霊山町下小国","zip_code":"9600808"},{"name":"霊山町中川","zip_code":"9600805"},{"name":"霊山町山戸田","zip_code":"9600806"},{"name":"霊山町山野川","zip_code":"9600802"},{"name":"六角","zip_code":"9600486"}]},{"name":"本宮市","divisions":[{"name":"青田","zip_code":"9691107"},{"name":"荒井","zip_code":"9691104"},{"name":"稲沢","zip_code":"9691201"},{"name":"岩根","zip_code":"9691106"},{"name":"白岩","zip_code":"9691203"},{"name":"関下","zip_code":"9691105"},{"name":"高木","zip_code":"9691101"},{"name":"長屋","zip_code":"9691206"},{"name":"仁井田","zip_code":"9691103"},{"name":"糠沢","zip_code":"9691204"},{"name":"松沢","zip_code":"9691202"},{"name":"本宮赤坂","zip_code":"9691176"},{"name":"本宮天ヶ","zip_code":"9691158"},{"name":"本宮荒町","zip_code":"9691125"},{"name":"本宮石塚","zip_code":"9691139"},{"name":"本宮大榎","zip_code":"9691112"},{"name":"本宮近江内","zip_code":"9691166"},{"name":"本宮大森","zip_code":"9691144"},{"name":"本宮小幡","zip_code":"9691159"},{"name":"本宮小籏北","zip_code":"9691159"},{"name":"本宮欠下","zip_code":"9691161"},{"name":"本宮鍛冶免","zip_code":"9691129"},{"name":"本宮兼谷","zip_code":"9691141"},{"name":"本宮兼谷平","zip_code":"9691142"},{"name":"本宮鹿ノ子田","zip_code":"9691117"},{"name":"本宮上千束","zip_code":"9691152"},{"name":"本宮上町","zip_code":"9691134"},{"name":"本宮懸鉄","zip_code":"9691155"},{"name":"本宮北川原田","zip_code":"9691162"},{"name":"本宮北ノ内","zip_code":"9691172"},{"name":"本宮北山神","zip_code":"9691167"},{"name":"本宮九縄","zip_code":"9691136"},{"name":"本宮小原田","zip_code":"9691169"},{"name":"本宮栄田","zip_code":"9691148"},{"name":"本宮作田","zip_code":"9691111"},{"name":"本宮作田台","zip_code":"9691111"},{"name":"本宮塩田","zip_code":"9691154"},{"name":"本宮塩田入","zip_code":"9691153"},{"name":"本宮地蔵堂","zip_code":"9691176"},{"name":"本宮下台","zip_code":"9691118"},{"name":"本宮下町","zip_code":"9691132"},{"name":"本宮蛇ノ鼻","zip_code":"9691158"},{"name":"本宮白川","zip_code":"9691163"},{"name":"本宮諏訪","zip_code":"9691156"},{"name":"本宮関根","zip_code":"9691114"},{"name":"本宮瀬樋内","zip_code":"9691157"},{"name":"本宮千束","zip_code":"9691152"},{"name":"本宮反町","zip_code":"9691155"},{"name":"本宮大町","zip_code":"9691122"},{"name":"本宮竹花","zip_code":"9691175"},{"name":"本宮立石","zip_code":"9691115"},{"name":"本宮舘ノ越","zip_code":"9691121"},{"name":"本宮舘町","zip_code":"9691128"},{"name":"本宮田中","zip_code":"9691157"},{"name":"本宮太郎丸","zip_code":"9691137"},{"name":"本宮千代田","zip_code":"9691151"},{"name":"本宮土樋","zip_code":"9691135"},{"name":"本宮鉄砲町","zip_code":"9691127"},{"name":"本宮樋ノ口","zip_code":"9691171"},{"name":"本宮道屋敷","zip_code":"9691167"},{"name":"本宮戸崎","zip_code":"9691164"},{"name":"本宮富ヶ峰","zip_code":"9691109"},{"name":"本宮中條","zip_code":"9691133"},{"name":"本宮中台","zip_code":"9691165"},{"name":"本宮中野","zip_code":"9691173"},{"name":"本宮中野後","zip_code":"9691173"},{"name":"本宮仲町","zip_code":"9691124"},{"name":"本宮名郷","zip_code":"9691175"},{"name":"本宮名郷脇","zip_code":"9691175"},{"name":"本宮鍋田","zip_code":"9691156"},{"name":"本宮鳴瀬","zip_code":"9691138"},{"name":"本宮花町","zip_code":"9691147"},{"name":"本宮馬場","zip_code":"9691126"},{"name":"本宮万世","zip_code":"9691149"},{"name":"本宮東町","zip_code":"9691123"},{"name":"本宮東町裏","zip_code":"9691123"},{"name":"本宮一ッ屋","zip_code":"9691168"},{"name":"本宮雲雀田","zip_code":"9691155"},{"name":"本宮平井","zip_code":"9691158"},{"name":"本宮蛭田","zip_code":"9691135"},{"name":"本宮広町","zip_code":"9691159"},{"name":"本宮舞台","zip_code":"9691155"},{"name":"本宮弁天","zip_code":"9691116"},{"name":"本宮坊屋敷","zip_code":"9691113"},{"name":"本宮堀切","zip_code":"9691108"},{"name":"本宮南河原田","zip_code":"9691162"},{"name":"本宮南ノ内","zip_code":"9691174"},{"name":"本宮南町裡","zip_code":"9691131"},{"name":"本宮南山神","zip_code":"9691146"},{"name":"本宮柳ノ内","zip_code":"9691119"},{"name":"本宮山田","zip_code":"9691143"},{"name":"本宮矢来","zip_code":"9691129"},{"name":"本宮葭ヶ入","zip_code":"9691145"},{"name":"和田","zip_code":"9691205"}]},{"name":"伊達郡桑折町","divisions":[{"name":"赤坂","zip_code":"9691633"},{"name":"一里壇","zip_code":"9691633"},{"name":"上町","zip_code":"9691603"},{"name":"和尚堂","zip_code":"9691623"},{"name":"落合","zip_code":"9691634"},{"name":"上郡","zip_code":"9691661"},{"name":"仮屋","zip_code":"9691619"},{"name":"北半田","zip_code":"9691642"},{"name":"北町","zip_code":"9691601"},{"name":"狐崎","zip_code":"9691635"},{"name":"庫場","zip_code":"9691618"},{"name":"桑島","zip_code":"9691613"},{"name":"界","zip_code":"9691633"},{"name":"沢","zip_code":"9691615"},{"name":"芝堤","zip_code":"9691608"},{"name":"下郡","zip_code":"9691662"},{"name":"白銀","zip_code":"9691631"},{"name":"新町","zip_code":"9691628"},{"name":"陣屋","zip_code":"9691617"},{"name":"新吉町","zip_code":"9691625"},{"name":"新和町","zip_code":"9691624"},{"name":"杉ノ前","zip_code":"9691634"},{"name":"砂子沢","zip_code":"9691634"},{"name":"諏訪","zip_code":"9691627"},{"name":"堰合","zip_code":"9691605"},{"name":"堰下","zip_code":"9691604"},{"name":"田植","zip_code":"9691632"},{"name":"舘","zip_code":"9691616"},{"name":"伊達崎","zip_code":"9691663"},{"name":"寺坂","zip_code":"9691626"},{"name":"道場前","zip_code":"9691621"},{"name":"成田","zip_code":"9691652"},{"name":"西大隅","zip_code":"9691612"},{"name":"西段","zip_code":"9691607"},{"name":"西町","zip_code":"9691629"},{"name":"東大隅","zip_code":"9691611"},{"name":"東段","zip_code":"9691606"},{"name":"東八串","zip_code":"9691635"},{"name":"平沢","zip_code":"9691654"},{"name":"町裏","zip_code":"9691602"},{"name":"松原","zip_code":"9691653"},{"name":"万正寺","zip_code":"9691651"},{"name":"南半田","zip_code":"9691641"},{"name":"南町","zip_code":"9691622"},{"name":"本町","zip_code":"9691614"},{"name":"谷地","zip_code":"9691643"},{"name":"薮内","zip_code":"9691631"}]},{"name":"伊達郡国見町","divisions":[{"name":"石母田","zip_code":"9691701"},{"name":"泉田","zip_code":"9691782"},{"name":"板橋南","zip_code":"9691785"},{"name":"内谷","zip_code":"9691781"},{"name":"大木戸","zip_code":"9691713"},{"name":"貝田","zip_code":"9691711"},{"name":"川内","zip_code":"9691721"},{"name":"光明寺","zip_code":"9691712"},{"name":"小坂","zip_code":"9691784"},{"name":"小坂南","zip_code":"9691788"},{"name":"新泉田","zip_code":"9691786"},{"name":"新内谷","zip_code":"9691780"},{"name":"新小坂","zip_code":"9691787"},{"name":"新鳥取","zip_code":"9691789"},{"name":"高城","zip_code":"9691714"},{"name":"塚野目","zip_code":"9691751"},{"name":"徳江","zip_code":"9691741"},{"name":"鳥取","zip_code":"9691783"},{"name":"西大枝","zip_code":"9691722"},{"name":"藤田","zip_code":"9691761"},{"name":"森山","zip_code":"9691731"},{"name":"山崎","zip_code":"9691771"}]},{"name":"伊達郡川俣町","divisions":[{"name":"赤坂","zip_code":"9601465"},{"name":"秋山","zip_code":"9601409"},{"name":"飯坂","zip_code":"9601401"},{"name":"池ノ入","zip_code":"9601423"},{"name":"石川","zip_code":"9601476"},{"name":"上桜","zip_code":"9601414"},{"name":"後田","zip_code":"9601452"},{"name":"海老ケ作","zip_code":"9601485"},{"name":"延命神","zip_code":"9601484"},{"name":"大内","zip_code":"9601443"},{"name":"大作","zip_code":"9601435"},{"name":"大清水","zip_code":"9601431"},{"name":"大綱木","zip_code":"9601403"},{"name":"小島","zip_code":"9601489"},{"name":"柏崎","zip_code":"9601429"},{"name":"壁沢","zip_code":"9601478"},{"name":"川原田","zip_code":"9601436"},{"name":"瓦町","zip_code":"9601453"},{"name":"草ケ入","zip_code":"9601472"},{"name":"倉ケ作","zip_code":"9601477"},{"name":"後庵","zip_code":"9601442"},{"name":"小神","zip_code":"9601407"},{"name":"小作","zip_code":"9601434"},{"name":"小綱木","zip_code":"9601402"},{"name":"五百田","zip_code":"9601428"},{"name":"桜ケ作","zip_code":"9601473"},{"name":"三百田","zip_code":"9601487"},{"name":"下拍子","zip_code":"9601486"},{"name":"賤ノ田","zip_code":"9601433"},{"name":"新田","zip_code":"9601488"},{"name":"新中町","zip_code":"9601422"},{"name":"新宮","zip_code":"9601425"},{"name":"竹ノ内","zip_code":"9601455"},{"name":"舘","zip_code":"9601446"},{"name":"舘ノ腰","zip_code":"9601416"},{"name":"段ノ腰","zip_code":"9601427"},{"name":"壺ケ作","zip_code":"9601483"},{"name":"鶴沢","zip_code":"9601406"},{"name":"鉄炮町","zip_code":"9601421"},{"name":"寺久保","zip_code":"9601424"},{"name":"寺前","zip_code":"9601462"},{"name":"天神入","zip_code":"9601468"},{"name":"樋ノ口","zip_code":"9601463"},{"name":"道場","zip_code":"9601469"},{"name":"中島","zip_code":"9601445"},{"name":"中丁","zip_code":"9601456"},{"name":"仲ノ内","zip_code":"9601412"},{"name":"七窪","zip_code":"9601481"},{"name":"七曲","zip_code":"9601474"},{"name":"仁井町","zip_code":"9601415"},{"name":"西戸ノ内","zip_code":"9601471"},{"name":"西福沢","zip_code":"9601404"},{"name":"根本","zip_code":"9601444"},{"name":"橋本","zip_code":"9601417"},{"name":"八反田","zip_code":"9601454"},{"name":"羽田","zip_code":"9601408"},{"name":"早坂","zip_code":"9601475"},{"name":"東大清水","zip_code":"9601432"},{"name":"東福沢","zip_code":"9601405"},{"name":"広畑","zip_code":"9601413"},{"name":"日和田","zip_code":"9601426"},{"name":"細田","zip_code":"9601411"},{"name":"道内","zip_code":"9601441"},{"name":"宮ノ入","zip_code":"9601467"},{"name":"宮ノ脇","zip_code":"9601464"},{"name":"宮前","zip_code":"9601466"},{"name":"宮町","zip_code":"9601461"},{"name":"本町","zip_code":"9601451"},{"name":"元屋敷","zip_code":"9601482"},{"name":"山木屋","zip_code":"9601501"}]},{"name":"安達郡大玉村","divisions":[{"name":"大山","zip_code":"9691301"},{"name":"玉井","zip_code":"9640091"}]},{"name":"岩瀬郡鏡石町","divisions":[{"name":"旭町","zip_code":"9690404"},{"name":"池の台","zip_code":"9690402"},{"name":"池ノ原","zip_code":"9690401"},{"name":"大池","zip_code":"9690401"},{"name":"大宮","zip_code":"9690402"},{"name":"大山","zip_code":"9690404"},{"name":"岡ノ内","zip_code":"9690401"},{"name":"岡の台","zip_code":"9690404"},{"name":"鏡田かげ沼町","zip_code":"9690401"},{"name":"鏡沼","zip_code":"9690401"},{"name":"笠石","zip_code":"9690404"},{"name":"笠石原町","zip_code":"9690404"},{"name":"鹿島","zip_code":"9690401"},{"name":"蒲之沢町","zip_code":"9690401"},{"name":"借宿","zip_code":"9690403"},{"name":"川崎町","zip_code":"9690401"},{"name":"河原","zip_code":"9690402"},{"name":"北町","zip_code":"9690402"},{"name":"久来石","zip_code":"9690403"},{"name":"久来石南","zip_code":"9690403"},{"name":"小栗山","zip_code":"9690403"},{"name":"五斗蒔町","zip_code":"9690401"},{"name":"境","zip_code":"9690401"},{"name":"桜岡","zip_code":"9690403"},{"name":"桜町","zip_code":"9690401"},{"name":"城ノ内","zip_code":"9690403"},{"name":"新町","zip_code":"9690402"},{"name":"諏訪町","zip_code":"9690402"},{"name":"高久田","zip_code":"9690401"},{"name":"中央","zip_code":"9690404"},{"name":"堂前","zip_code":"9690403"},{"name":"豊郷","zip_code":"9690404"},{"name":"豊郷中","zip_code":"9690404"},{"name":"豊田","zip_code":"9690401"},{"name":"中町","zip_code":"9690404"},{"name":"成田","zip_code":"9690402"},{"name":"成田原町","zip_code":"9690402"},{"name":"成田東","zip_code":"9690402"},{"name":"仁井田","zip_code":"9690401"},{"name":"羽鳥","zip_code":"9690404"},{"name":"東鹿島","zip_code":"9690401"},{"name":"東河原","zip_code":"9690402"},{"name":"東町","zip_code":"9690404"},{"name":"深内町","zip_code":"9690401"},{"name":"不時沼","zip_code":"9690401"},{"name":"堀米","zip_code":"9690404"},{"name":"前山","zip_code":"9690401"},{"name":"緑町","zip_code":"9690404"},{"name":"南高久田","zip_code":"9690401"},{"name":"南町","zip_code":"9690404"},{"name":"本町","zip_code":"9690401"}]},{"name":"岩瀬郡天栄村","divisions":[{"name":"飯豊","zip_code":"9620512"},{"name":"大里","zip_code":"9620504"},{"name":"小川","zip_code":"9620516"},{"name":"沖内","zip_code":"9620513"},{"name":"柿之内","zip_code":"9620514"},{"name":"上松本","zip_code":"9620502"},{"name":"下松本","zip_code":"9620503"},{"name":"白子","zip_code":"9620511"},{"name":"高林","zip_code":"9620515"},{"name":"田良尾","zip_code":"9620622"},{"name":"羽鳥","zip_code":"9620623"},{"name":"牧之内","zip_code":"9620501"},{"name":"湯本","zip_code":"9620621"}]},{"name":"南会津郡下郷町","divisions":[{"name":"合川","zip_code":"9695333"},{"name":"荒石","zip_code":"9695315"},{"name":"澳田","zip_code":"9695331"},{"name":"石井","zip_code":"9695316"},{"name":"磯上","zip_code":"9695318"},{"name":"栄富","zip_code":"9695326"},{"name":"枝松","zip_code":"9695202"},{"name":"大内","zip_code":"9695207"},{"name":"大沢","zip_code":"9695205"},{"name":"大松川","zip_code":"9695334"},{"name":"落合","zip_code":"9695343"},{"name":"音金","zip_code":"9695342"},{"name":"小沼崎","zip_code":"9695208"},{"name":"桑取火","zip_code":"9695323"},{"name":"沢口","zip_code":"9695321"},{"name":"沢田","zip_code":"9695344"},{"name":"塩生","zip_code":"9695345"},{"name":"志源行","zip_code":"9695317"},{"name":"白岩","zip_code":"9695203"},{"name":"高陦","zip_code":"9695201"},{"name":"戸赤","zip_code":"9695312"},{"name":"豊成","zip_code":"9695311"},{"name":"中妻","zip_code":"9695332"},{"name":"中山","zip_code":"9695325"},{"name":"南倉沢","zip_code":"9695335"},{"name":"野際新田","zip_code":"9695341"},{"name":"原","zip_code":"9695313"},{"name":"日影","zip_code":"9695314"},{"name":"弥五島","zip_code":"9695204"},{"name":"安張","zip_code":"9695324"},{"name":"湯野上","zip_code":"9695206"},{"name":"領毛","zip_code":"9695322"}]},{"name":"南会津郡檜枝岐村","divisions":[{"name":"居平","zip_code":"9670521"},{"name":"上ノ台","zip_code":"9670524"},{"name":"尾瀬沼","zip_code":"9670532"},{"name":"上ノ原","zip_code":"9670522"},{"name":"下ノ台","zip_code":"9670523"},{"name":"下ノ原","zip_code":"9670525"},{"name":"滝沢","zip_code":"9670526"},{"name":"燧ケ岳","zip_code":"9670531"},{"name":"見通","zip_code":"9670527"},{"name":"葭ケ平","zip_code":"9670528"}]},{"name":"南会津郡只見町","divisions":[{"name":"荒島","zip_code":"9680443"},{"name":"石伏","zip_code":"9680422"},{"name":"大倉","zip_code":"9680602"},{"name":"小川","zip_code":"9680434"},{"name":"叶津","zip_code":"9680415"},{"name":"亀岡","zip_code":"9680445"},{"name":"蒲生","zip_code":"9680414"},{"name":"熊倉","zip_code":"9680444"},{"name":"黒沢","zip_code":"9680432"},{"name":"黒谷","zip_code":"9680441"},{"name":"小林","zip_code":"9680601"},{"name":"坂田","zip_code":"9680606"},{"name":"塩沢","zip_code":"9680411"},{"name":"塩ノ岐","zip_code":"9680604"},{"name":"十島","zip_code":"9680412"},{"name":"田子倉","zip_code":"9680423"},{"name":"只見","zip_code":"9680421"},{"name":"長浜","zip_code":"9680442"},{"name":"楢戸","zip_code":"9680431"},{"name":"二軒在家","zip_code":"9680605"},{"name":"福井","zip_code":"9680433"},{"name":"布沢","zip_code":"9680607"},{"name":"梁取","zip_code":"9680603"},{"name":"寄岩","zip_code":"9680413"}]},{"name":"南会津郡南会津町","divisions":[{"name":"青柳","zip_code":"9670507"},{"name":"東","zip_code":"9670605"},{"name":"穴原","zip_code":"9670341"},{"name":"井桁","zip_code":"9670321"},{"name":"和泉田","zip_code":"9670641"},{"name":"糸沢","zip_code":"9670014"},{"name":"伊与戸","zip_code":"9670317"},{"name":"岩下","zip_code":"9670323"},{"name":"内川","zip_code":"9670511"},{"name":"大久保","zip_code":"9670319"},{"name":"大新田","zip_code":"9670603"},{"name":"大橋","zip_code":"9670604"},{"name":"大原","zip_code":"9670513"},{"name":"大桃","zip_code":"9670515"},{"name":"押戸","zip_code":"9670331"},{"name":"小野島","zip_code":"9670642"},{"name":"貝原","zip_code":"9670335"},{"name":"片貝","zip_code":"9670632"},{"name":"金井沢","zip_code":"9670024"},{"name":"上ミノ原","zip_code":"9670344"},{"name":"川衣","zip_code":"9670346"},{"name":"川島","zip_code":"9670012"},{"name":"木伏","zip_code":"9670601"},{"name":"栗生沢","zip_code":"9670011"},{"name":"高野","zip_code":"9670021"},{"name":"小塩","zip_code":"9670506"},{"name":"小高林","zip_code":"9670343"},{"name":"小立岩","zip_code":"9670514"},{"name":"界","zip_code":"9670631"},{"name":"塩江","zip_code":"9670022"},{"name":"塩ノ原","zip_code":"9670302"},{"name":"静川","zip_code":"9670025"},{"name":"下山","zip_code":"9670634"},{"name":"精舎","zip_code":"9670322"},{"name":"白沢","zip_code":"9670503"},{"name":"新田原","zip_code":"9670311"},{"name":"水石","zip_code":"9670307"},{"name":"助木生","zip_code":"9670342"},{"name":"関本","zip_code":"9670013"},{"name":"高杖原","zip_code":"9670315"},{"name":"滝原","zip_code":"9670015"},{"name":"田島","zip_code":"9670004"},{"name":"多々石","zip_code":"9670502"},{"name":"たのせ","zip_code":"9670301"},{"name":"田部","zip_code":"9670002"},{"name":"丹藤","zip_code":"9670007"},{"name":"角生","zip_code":"9670332"},{"name":"藤生","zip_code":"9670016"},{"name":"鴇巣","zip_code":"9670621"},{"name":"木賊","zip_code":"9670345"},{"name":"戸中","zip_code":"9670305"},{"name":"富山","zip_code":"9670633"},{"name":"中荒井","zip_code":"9670005"},{"name":"永田","zip_code":"9670006"},{"name":"長野","zip_code":"9670001"},{"name":"熨斗戸","zip_code":"9670312"},{"name":"耻風","zip_code":"9670512"},{"name":"浜野","zip_code":"9670504"},{"name":"針生","zip_code":"9670026"},{"name":"番屋","zip_code":"9670324"},{"name":"福米沢","zip_code":"9670023"},{"name":"福渡","zip_code":"9670303"},{"name":"古町","zip_code":"9670501"},{"name":"前沢","zip_code":"9670306"},{"name":"松戸原","zip_code":"9670304"},{"name":"水無","zip_code":"9670003"},{"name":"水根沢","zip_code":"9670602"},{"name":"水引","zip_code":"9670334"},{"name":"宮里","zip_code":"9670347"},{"name":"宮沢","zip_code":"9670505"},{"name":"宮床","zip_code":"9670622"},{"name":"森戸","zip_code":"9670313"},{"name":"八木ノ沢","zip_code":"9670318"},{"name":"八総","zip_code":"9670314"},{"name":"山口","zip_code":"9670611"},{"name":"湯ノ花","zip_code":"9670333"},{"name":"吉高","zip_code":"9670336"}]},{"name":"耶麻郡北塩原村","divisions":[{"name":"大塩","zip_code":"9660402"},{"name":"北山","zip_code":"9660404"},{"name":"下吉","zip_code":"9660405"},{"name":"関屋","zip_code":"9660403"},{"name":"檜原","zip_code":"9660501"}]},{"name":"耶麻郡西会津町","divisions":[{"name":"奥川飯里","zip_code":"9694734"},{"name":"奥川飯沢","zip_code":"9694732"},{"name":"奥川飯根","zip_code":"9694731"},{"name":"奥川大綱木","zip_code":"9694733"},{"name":"奥川高陽根","zip_code":"9694737"},{"name":"奥川豊島","zip_code":"9694735"},{"name":"奥川元島","zip_code":"9694736"},{"name":"尾野本","zip_code":"9694402"},{"name":"上野尻","zip_code":"9694512"},{"name":"下谷","zip_code":"9694405"},{"name":"下野尻","zip_code":"9694515"},{"name":"新郷笹川","zip_code":"9694622"},{"name":"新郷豊洲","zip_code":"9694623"},{"name":"新郷冨士","zip_code":"9694621"},{"name":"新郷三河","zip_code":"9694624"},{"name":"束松","zip_code":"9694403"},{"name":"登世島","zip_code":"9694401"},{"name":"野沢","zip_code":"9694406"},{"name":"宝坂宝坂","zip_code":"9694514"},{"name":"宝坂屋敷","zip_code":"9694513"},{"name":"睦合","zip_code":"9694404"},{"name":"群岡","zip_code":"9694511"}]},{"name":"耶麻郡磐梯町","divisions":[{"name":"赤枝","zip_code":"9693303"},{"name":"大谷","zip_code":"9693304"},{"name":"更科","zip_code":"9693302"},{"name":"磐梯","zip_code":"9693301"}]},{"name":"耶麻郡猪苗代町","divisions":[{"name":"芦原","zip_code":"9693121"},{"name":"新町","zip_code":"9693122"},{"name":"家ノ前","zip_code":"9693101"},{"name":"雷","zip_code":"9693111"},{"name":"出雲壇","zip_code":"9693111"},{"name":"板橋北","zip_code":"9693111"},{"name":"今泉","zip_code":"9693131"},{"name":"磐里","zip_code":"9693141"},{"name":"磐根","zip_code":"9693286"},{"name":"上ノ山","zip_code":"9693101"},{"name":"右近山","zip_code":"9693102"},{"name":"裏町","zip_code":"9693121"},{"name":"太田","zip_code":"9693111"},{"name":"太田西","zip_code":"9693111"},{"name":"大道西","zip_code":"9693113"},{"name":"大谷地","zip_code":"9693101"},{"name":"翁沢","zip_code":"9693285"},{"name":"小黒川","zip_code":"9693111"},{"name":"長田","zip_code":"9693283"},{"name":"オヒテ川","zip_code":"9693121"},{"name":"カキ田","zip_code":"9693122"},{"name":"ガギ田","zip_code":"9693122"},{"name":"欠上り","zip_code":"9693101"},{"name":"堅田","zip_code":"9693132"},{"name":"金田","zip_code":"9692272"},{"name":"鹿野境","zip_code":"9693103"},{"name":"上ザル田","zip_code":"9693121"},{"name":"上村前","zip_code":"9693103"},{"name":"上村東","zip_code":"9693103"},{"name":"上屋敷","zip_code":"9693131"},{"name":"川桁","zip_code":"9692663"},{"name":"北ノ林","zip_code":"9693101"},{"name":"北半坂","zip_code":"9693113"},{"name":"行人壇","zip_code":"9693101"},{"name":"桐木沢","zip_code":"9693103"},{"name":"窪田","zip_code":"9693111"},{"name":"窪ノ内","zip_code":"9693111"},{"name":"窪南","zip_code":"9693111"},{"name":"グミ沢原","zip_code":"9693101"},{"name":"蚕養","zip_code":"9692752"},{"name":"古城跡","zip_code":"9693123"},{"name":"古城町","zip_code":"9693123"},{"name":"御三壇","zip_code":"9693111"},{"name":"五百苅","zip_code":"9693111"},{"name":"五輪原","zip_code":"9693103"},{"name":"坂下","zip_code":"9693122"},{"name":"猿壇","zip_code":"9693111"},{"name":"酸奨沢","zip_code":"9693282"},{"name":"渋谷","zip_code":"9693101"},{"name":"清水","zip_code":"9693101"},{"name":"清水端","zip_code":"9693101"},{"name":"下園","zip_code":"9693131"},{"name":"下辺沢","zip_code":"9693101"},{"name":"菖蒲田","zip_code":"9693101"},{"name":"城南","zip_code":"9693123"},{"name":"新地","zip_code":"9693113"},{"name":"新堀田東","zip_code":"9693101"},{"name":"新堀向","zip_code":"9693131"},{"name":"新堀西","zip_code":"9693101"},{"name":"諏訪前","zip_code":"9693103"},{"name":"諏訪東","zip_code":"9693103"},{"name":"諏訪西","zip_code":"9693103"},{"name":"関都","zip_code":"9692273"},{"name":"堰間上","zip_code":"9693101"},{"name":"芹沢","zip_code":"9693101"},{"name":"茶園","zip_code":"9693113"},{"name":"千代田","zip_code":"9693133"},{"name":"塚田","zip_code":"9693122"},{"name":"津金沢","zip_code":"9693121"},{"name":"土湯沢山","zip_code":"9693101"},{"name":"堤","zip_code":"9693112"},{"name":"堤下","zip_code":"9693113"},{"name":"堤北","zip_code":"9693113"},{"name":"壺楊","zip_code":"9692274"},{"name":"鶴田","zip_code":"9693123"},{"name":"鶴峰西","zip_code":"9693113"},{"name":"寺後","zip_code":"9693112"},{"name":"寺東","zip_code":"9693121"},{"name":"樋場","zip_code":"9693113"},{"name":"樋場道下","zip_code":"9693113"},{"name":"土手間","zip_code":"9693101"},{"name":"中小松","zip_code":"9692271"},{"name":"中町","zip_code":"9693112"},{"name":"中道西","zip_code":"9693101"},{"name":"長坂","zip_code":"9693101"},{"name":"梨木西","zip_code":"9693121"},{"name":"並杉西","zip_code":"9693113"},{"name":"西舘","zip_code":"9693131"},{"name":"西葉山","zip_code":"9693281"},{"name":"西峰","zip_code":"9693102"},{"name":"二丁田","zip_code":"9693111"},{"name":"沼田","zip_code":"9693111"},{"name":"沼ノ倉","zip_code":"9693101"},{"name":"猫石山","zip_code":"9693102"},{"name":"禰次","zip_code":"9693103"},{"name":"土町","zip_code":"9693113"},{"name":"土町西裡","zip_code":"9693113"},{"name":"土町南","zip_code":"9693113"},{"name":"ハノ木沢","zip_code":"9693103"},{"name":"馬場","zip_code":"9693112"},{"name":"林崎","zip_code":"9693103"},{"name":"葉山","zip_code":"9693102"},{"name":"半坂","zip_code":"9693113"},{"name":"東町裏","zip_code":"9693111"},{"name":"東谷地","zip_code":"9693131"},{"name":"雛草","zip_code":"9693102"},{"name":"琵琶沢原","zip_code":"9693101"},{"name":"不動","zip_code":"9693287"},{"name":"弁才天西","zip_code":"9693112"},{"name":"辺沢","zip_code":"9693101"},{"name":"程塚","zip_code":"9693101"},{"name":"町島田","zip_code":"9693103"},{"name":"町尻","zip_code":"9693122"},{"name":"町東","zip_code":"9693121"},{"name":"町西","zip_code":"9693113"},{"name":"三郷","zip_code":"9692661"},{"name":"三ツ屋","zip_code":"9693101"},{"name":"三ツ和","zip_code":"9693284"},{"name":"南半坂","zip_code":"9693113"},{"name":"見禰","zip_code":"9693102"},{"name":"見禰山","zip_code":"9693102"},{"name":"明円","zip_code":"9693111"},{"name":"村中","zip_code":"9693101"},{"name":"村東下","zip_code":"9693111"},{"name":"村東","zip_code":"9693111"},{"name":"村南","zip_code":"9693131"},{"name":"村北","zip_code":"9693101"},{"name":"本町","zip_code":"9693122"},{"name":"八幡","zip_code":"9692662"},{"name":"山神原","zip_code":"9693101"},{"name":"山潟","zip_code":"9692275"},{"name":"横まくり","zip_code":"9693121"},{"name":"横マクリ","zip_code":"9693121"},{"name":"六角","zip_code":"9693141"},{"name":"若宮","zip_code":"9692751"},{"name":"綿場","zip_code":"9693288"}]},{"name":"河沼郡会津坂下町","divisions":[{"name":"合川","zip_code":"9696517"},{"name":"青木","zip_code":"9696511"},{"name":"青津","zip_code":"9696518"},{"name":"家ノ前乙","zip_code":"9696535"},{"name":"石田","zip_code":"9696553"},{"name":"市中新町甲","zip_code":"9696563"},{"name":"市中一番甲","zip_code":"9696536"},{"name":"市中二番甲","zip_code":"9696543"},{"name":"市中三番甲","zip_code":"9696547"},{"name":"市中四番甲","zip_code":"9696557"},{"name":"一丁田甲","zip_code":"9696562"},{"name":"稲荷塚","zip_code":"9696566"},{"name":"戌亥乙","zip_code":"9696537"},{"name":"牛川","zip_code":"9696576"},{"name":"宇内","zip_code":"9696503"},{"name":"姥ケ下乙","zip_code":"9696538"},{"name":"海老細","zip_code":"9696523"},{"name":"御池田","zip_code":"9696519"},{"name":"大沖","zip_code":"9696573"},{"name":"大上","zip_code":"9696507"},{"name":"大堀川西甲","zip_code":"9696544"},{"name":"小川原","zip_code":"9696534"},{"name":"開津","zip_code":"9696525"},{"name":"片門","zip_code":"9696581"},{"name":"勝大","zip_code":"9696575"},{"name":"金上","zip_code":"9696521"},{"name":"上窪道北乙","zip_code":"9696538"},{"name":"上四十石甲","zip_code":"9696541"},{"name":"上沼ノ上丙","zip_code":"9696538"},{"name":"上ノ台乙","zip_code":"9696533"},{"name":"北小川原乙","zip_code":"9696534"},{"name":"北逆水甲","zip_code":"9696556"},{"name":"気多宮","zip_code":"9696583"},{"name":"光明寺東甲","zip_code":"9696542"},{"name":"五香","zip_code":"9696514"},{"name":"五反田","zip_code":"9696545"},{"name":"五ノ併","zip_code":"9696526"},{"name":"逆水","zip_code":"9696556"},{"name":"坂本","zip_code":"9696586"},{"name":"沢ノ目","zip_code":"9696555"},{"name":"四十石","zip_code":"9696541"},{"name":"上口","zip_code":"9696531"},{"name":"新開津","zip_code":"9696528"},{"name":"西南町裏甲","zip_code":"9696553"},{"name":"惣六","zip_code":"9696565"},{"name":"大道","zip_code":"9696561"},{"name":"台ノ下","zip_code":"9696533"},{"name":"高寺","zip_code":"9696582"},{"name":"立川","zip_code":"9696513"},{"name":"舘ノ内甲","zip_code":"9696552"},{"name":"舘ノ下","zip_code":"9696551"},{"name":"束松","zip_code":"9696587"},{"name":"茶屋町甲","zip_code":"9696548"},{"name":"束原","zip_code":"9696524"},{"name":"津尻","zip_code":"9696502"},{"name":"樋島","zip_code":"9696574"},{"name":"塔寺","zip_code":"9696584"},{"name":"東南町裏甲","zip_code":"9696544"},{"name":"中泉","zip_code":"9696516"},{"name":"中岩田","zip_code":"9696564"},{"name":"中岡甲","zip_code":"9696562"},{"name":"長井","zip_code":"9696501"},{"name":"新舘","zip_code":"9696505"},{"name":"西ノ宮乙","zip_code":"9696537"},{"name":"沼越","zip_code":"9696512"},{"name":"沼田甲","zip_code":"9696567"},{"name":"羽林","zip_code":"9696572"},{"name":"原道東甲","zip_code":"9696534"},{"name":"東川前丙","zip_code":"9696532"},{"name":"東上口甲","zip_code":"9696531"},{"name":"東屋敷添乙","zip_code":"9696535"},{"name":"白狐","zip_code":"9696571"},{"name":"福原","zip_code":"9696527"},{"name":"福原前","zip_code":"9696515"},{"name":"船杉","zip_code":"9696585"},{"name":"古市乙","zip_code":"9696539"},{"name":"古町川尻","zip_code":"9696549"},{"name":"古屋敷甲","zip_code":"9696542"},{"name":"曲田","zip_code":"9696546"},{"name":"松ノ目","zip_code":"9696554"},{"name":"三谷","zip_code":"9696519"},{"name":"道下丙","zip_code":"9696532"},{"name":"見明","zip_code":"9696506"},{"name":"宮古","zip_code":"9696522"},{"name":"八日沢","zip_code":"9696504"}]},{"name":"河沼郡湯川村","divisions":[{"name":"笈川","zip_code":"9693543"},{"name":"熊ノ目","zip_code":"9693554"},{"name":"桜町","zip_code":"9693545"},{"name":"佐野目","zip_code":"9693555"},{"name":"清水田","zip_code":"9693544"},{"name":"勝常","zip_code":"9693556"},{"name":"田川","zip_code":"9693553"},{"name":"堂畑","zip_code":"9693551"},{"name":"浜崎","zip_code":"9693541"},{"name":"三川","zip_code":"9693552"},{"name":"湊","zip_code":"9693542"}]},{"name":"河沼郡柳津町","divisions":[{"name":"飯谷","zip_code":"9697206"},{"name":"猪倉野","zip_code":"9697204"},{"name":"芋小屋","zip_code":"9697323"},{"name":"大成沢","zip_code":"9697325"},{"name":"大柳","zip_code":"9697202"},{"name":"胄中","zip_code":"9697324"},{"name":"軽井沢","zip_code":"9697203"},{"name":"久保田","zip_code":"9697312"},{"name":"黒沢","zip_code":"9697322"},{"name":"郷戸","zip_code":"9697205"},{"name":"五畳敷","zip_code":"9697313"},{"name":"小椿","zip_code":"9697207"},{"name":"砂子原","zip_code":"9697321"},{"name":"琵琶首","zip_code":"9697326"},{"name":"藤","zip_code":"9697208"},{"name":"細八","zip_code":"9697209"},{"name":"牧沢","zip_code":"9697314"},{"name":"柳津","zip_code":"9697201"},{"name":"湯八木沢","zip_code":"9697311"},{"name":"四つ谷","zip_code":"9697315"}]},{"name":"大沼郡三島町","divisions":[{"name":"浅岐","zip_code":"9697518"},{"name":"大石田","zip_code":"9697407"},{"name":"大谷","zip_code":"9697517"},{"name":"大登","zip_code":"9697516"},{"name":"川井","zip_code":"9697515"},{"name":"桑原","zip_code":"9697512"},{"name":"小山","zip_code":"9697403"},{"name":"高清水","zip_code":"9697404"},{"name":"滝原","zip_code":"9697405"},{"name":"滝谷","zip_code":"9697514"},{"name":"名入","zip_code":"9697402"},{"name":"西方","zip_code":"9697401"},{"name":"早戸","zip_code":"9697406"},{"name":"桧原","zip_code":"9697413"},{"name":"間方","zip_code":"9697519"},{"name":"宮下","zip_code":"9697511"}]},{"name":"大沼郡金山町","divisions":[{"name":"大栗山","zip_code":"9680002"},{"name":"大志","zip_code":"9680005"},{"name":"大塩","zip_code":"9680326"},{"name":"川口","zip_code":"9680011"},{"name":"小栗山","zip_code":"9680012"},{"name":"越川","zip_code":"9680321"},{"name":"滝沢","zip_code":"9680325"},{"name":"田沢","zip_code":"9680324"},{"name":"玉梨","zip_code":"9680014"},{"name":"太郎布","zip_code":"9680004"},{"name":"中川","zip_code":"9680006"},{"name":"西谷","zip_code":"9680015"},{"name":"沼沢","zip_code":"9680003"},{"name":"八町","zip_code":"9680013"},{"name":"本名","zip_code":"9680016"},{"name":"水沼","zip_code":"9680001"},{"name":"山入","zip_code":"9680323"},{"name":"横田","zip_code":"9680322"}]},{"name":"大沼郡昭和村","divisions":[{"name":"大芦","zip_code":"9680214"},{"name":"小野川","zip_code":"9680211"},{"name":"喰丸","zip_code":"9680212"},{"name":"小中津川","zip_code":"9680104"},{"name":"佐倉","zip_code":"9680215"},{"name":"下中津川","zip_code":"9680103"},{"name":"野尻","zip_code":"9680102"},{"name":"松山","zip_code":"9680101"},{"name":"両原","zip_code":"9680213"}]},{"name":"大沼郡会津美里町","divisions":[{"name":"赤留","zip_code":"9696272"},{"name":"旭市川","zip_code":"9696222"},{"name":"旭杉原","zip_code":"9696226"},{"name":"旭館端","zip_code":"9696221"},{"name":"旭寺入","zip_code":"9696223"},{"name":"旭三寄","zip_code":"9696225"},{"name":"旭無量","zip_code":"9696224"},{"name":"穴田","zip_code":"9696351"},{"name":"穴田乙","zip_code":"9696352"},{"name":"油田","zip_code":"9696266"},{"name":"荒井","zip_code":"9696171"},{"name":"荒井甲","zip_code":"9696027"},{"name":"荒井前","zip_code":"9696161"},{"name":"家西","zip_code":"9696111"},{"name":"家西甲","zip_code":"9696037"},{"name":"家ノ下","zip_code":"9696206"},{"name":"家東甲","zip_code":"9696112"},{"name":"石切畑","zip_code":"9696151"},{"name":"石切畑甲","zip_code":"9696046"},{"name":"石田甲","zip_code":"9696307"},{"name":"上野川原","zip_code":"9696036"},{"name":"内川原","zip_code":"9696261"},{"name":"梅ノ木","zip_code":"9696261"},{"name":"漆原北","zip_code":"9696265"},{"name":"上平","zip_code":"9696407"},{"name":"上町甲","zip_code":"9696061"},{"name":"駅前","zip_code":"9696101"},{"name":"延命寺前","zip_code":"9696121"},{"name":"延命寺前乙","zip_code":"9696306"},{"name":"延命寺前甲","zip_code":"9696305"},{"name":"大石","zip_code":"9696131"},{"name":"大川端甲","zip_code":"9696057"},{"name":"大八郷","zip_code":"9696141"},{"name":"大八郷乙","zip_code":"9696333"},{"name":"大道上","zip_code":"9696173"},{"name":"大道上甲","zip_code":"9696022"},{"name":"大室","zip_code":"9696242"},{"name":"荻窪","zip_code":"9696254"},{"name":"沖田","zip_code":"9696343"},{"name":"御蔵南","zip_code":"9696265"},{"name":"小沢","zip_code":"9696409"},{"name":"尾岐窪","zip_code":"9696231"},{"name":"思堀","zip_code":"9696051"},{"name":"思堀向","zip_code":"9696102"},{"name":"御田","zip_code":"9696205"},{"name":"鹿島","zip_code":"9696262"},{"name":"勝原","zip_code":"9696213"},{"name":"上村北","zip_code":"9696103"},{"name":"上村西道上","zip_code":"9696104"},{"name":"上村西道下","zip_code":"9696104"},{"name":"上村東","zip_code":"9696105"},{"name":"上村南","zip_code":"9696105"},{"name":"川添","zip_code":"9696265"},{"name":"川原町北","zip_code":"9696159"},{"name":"川原町","zip_code":"9696041"},{"name":"川原町北甲","zip_code":"9696024"},{"name":"川原町甲","zip_code":"9696152"},{"name":"観音北","zip_code":"9696262"},{"name":"北浦","zip_code":"9696154"},{"name":"北浦甲","zip_code":"9696045"},{"name":"北川原","zip_code":"9696155"},{"name":"北川原甲","zip_code":"9696047"},{"name":"北原","zip_code":"9696316"},{"name":"北原乙","zip_code":"9696318"},{"name":"北原甲","zip_code":"9696317"},{"name":"倉田","zip_code":"9696342"},{"name":"車川原","zip_code":"9696113"},{"name":"車川原甲","zip_code":"9696068"},{"name":"黒川","zip_code":"9696052"},{"name":"黒川内","zip_code":"9696106"},{"name":"黒沢","zip_code":"9696163"},{"name":"黒沢甲","zip_code":"9696304"},{"name":"御用地","zip_code":"9696062"},{"name":"御用地跡","zip_code":"9696114"},{"name":"御用地跡甲","zip_code":"9696063"},{"name":"御用地甲","zip_code":"9696038"},{"name":"近右エ門田","zip_code":"9696023"},{"name":"権現堂","zip_code":"9696174"},{"name":"権現堂甲","zip_code":"9696025"},{"name":"権現宮","zip_code":"9696261"},{"name":"権現宮甲","zip_code":"9696261"},{"name":"権現宮南","zip_code":"9696261"},{"name":"権現宮南甲","zip_code":"9696261"},{"name":"境野","zip_code":"9696404"},{"name":"佐賀瀬川","zip_code":"9696406"},{"name":"坂ノ下道上","zip_code":"9696206"},{"name":"坂ノ下道下","zip_code":"9696206"},{"name":"坂ノ下道下甲","zip_code":"9696206"},{"name":"佐布川","zip_code":"9696206"},{"name":"三本松甲","zip_code":"9696029"},{"name":"清水川甲","zip_code":"9696314"},{"name":"清水台","zip_code":"9696311"},{"name":"清水台甲","zip_code":"9696312"},{"name":"下川原","zip_code":"9696166"},{"name":"下川原甲","zip_code":"9696313"},{"name":"下堀","zip_code":"9696215"},{"name":"上戸原","zip_code":"9696256"},{"name":"新町","zip_code":"9696115"},{"name":"新丁西","zip_code":"9696267"},{"name":"新丁屋敷","zip_code":"9696266"},{"name":"新屋敷","zip_code":"9696402"},{"name":"新用地","zip_code":"9696107"},{"name":"杉","zip_code":"9696162"},{"name":"杉甲","zip_code":"9696301"},{"name":"杉屋","zip_code":"9696253"},{"name":"雀林","zip_code":"9696274"},{"name":"清竜寺北","zip_code":"9696263"},{"name":"堰下","zip_code":"9696108"},{"name":"堰向","zip_code":"9696033"},{"name":"堰向甲","zip_code":"9696034"},{"name":"瀬戸町","zip_code":"9696116"},{"name":"瀬戸町甲","zip_code":"9696042"},{"name":"瀬戸屋前","zip_code":"9696044"},{"name":"瀬戸屋前甲","zip_code":"9696156"},{"name":"惣印甲","zip_code":"9696055"},{"name":"惣印東","zip_code":"9696056"},{"name":"惣印南","zip_code":"9696054"},{"name":"宗頤町","zip_code":"9696109"},{"name":"外川原","zip_code":"9696262"},{"name":"外川原甲","zip_code":"9696262"},{"name":"台ノ下","zip_code":"9696204"},{"name":"高田","zip_code":"9696264"},{"name":"高田乙","zip_code":"9696264"},{"name":"高田甲","zip_code":"9696264"},{"name":"高田中川原道下","zip_code":"9696206"},{"name":"高田前川原","zip_code":"9696203"},{"name":"高田道上","zip_code":"9696261"},{"name":"高田村東","zip_code":"9696202"},{"name":"竹原","zip_code":"9696032"},{"name":"立石田","zip_code":"9696411"},{"name":"館ノ越","zip_code":"9696266"},{"name":"舘ノ廻","zip_code":"9696175"},{"name":"舘ノ廻甲","zip_code":"9696021"},{"name":"館南","zip_code":"9696265"},{"name":"地尻","zip_code":"9696261"},{"name":"長光寺南","zip_code":"9696265"},{"name":"鶴野辺","zip_code":"9696403"},{"name":"寺崎","zip_code":"9696271"},{"name":"寺ノ前","zip_code":"9696122"},{"name":"寺ノ前甲","zip_code":"9696073"},{"name":"堂ノ前","zip_code":"9696353"},{"name":"堂ノ前甲","zip_code":"9696354"},{"name":"冨川","zip_code":"9696214"},{"name":"永井野","zip_code":"9696251"},{"name":"仲塚","zip_code":"9696118"},{"name":"仲塚甲","zip_code":"9696053"},{"name":"中樋","zip_code":"9696035"},{"name":"中道下","zip_code":"9696123"},{"name":"中道下甲","zip_code":"9696074"},{"name":"西裏","zip_code":"9696267"},{"name":"西裏屋敷添","zip_code":"9696266"},{"name":"西尾","zip_code":"9696244"},{"name":"西沖","zip_code":"9696355"},{"name":"西本","zip_code":"9696245"},{"name":"西谷地","zip_code":"9696085"},{"name":"西谷地甲","zip_code":"9696086"},{"name":"沼田","zip_code":"9696408"},{"name":"沼ノ上","zip_code":"9696271"},{"name":"橋丸","zip_code":"9696211"},{"name":"橋本乙","zip_code":"9696338"},{"name":"稗田乙","zip_code":"9696356"},{"name":"東尾岐","zip_code":"9696232"},{"name":"東川原","zip_code":"9696261"},{"name":"東谷地","zip_code":"9696124"},{"name":"東谷地甲","zip_code":"9696077"},{"name":"氷玉","zip_code":"9696143"},{"name":"旱泥","zip_code":"9696176"},{"name":"旱泥甲","zip_code":"9696028"},{"name":"蛭ケ窪","zip_code":"9696078"},{"name":"広面","zip_code":"9696031"},{"name":"福重岡","zip_code":"9696144"},{"name":"布才地","zip_code":"9696266"},{"name":"藤家館","zip_code":"9696212"},{"name":"船場","zip_code":"9696133"},{"name":"船場甲","zip_code":"9696069"},{"name":"蛇ノ宮甲","zip_code":"9696315"},{"name":"法憧寺北","zip_code":"9696262"},{"name":"法憧寺北甲","zip_code":"9696262"},{"name":"法憧寺東","zip_code":"9696262"},{"name":"法憧寺南","zip_code":"9696262"},{"name":"法憧寺南甲","zip_code":"9696262"},{"name":"本郷村西乙","zip_code":"9696332"},{"name":"穂馬","zip_code":"9696135"},{"name":"本郷","zip_code":"9696125"},{"name":"本郷入口中道上甲","zip_code":"9696066"},{"name":"本郷入口道上甲","zip_code":"9696065"},{"name":"本郷入口道上","zip_code":"9696117"},{"name":"本郷上","zip_code":"9696071"},{"name":"本郷上甲","zip_code":"9696127"},{"name":"本郷甲","zip_code":"9696126"},{"name":"本郷千苅","zip_code":"9696336"},{"name":"本郷千苅乙","zip_code":"9696337"},{"name":"本郷高田町","zip_code":"9696132"},{"name":"本郷高田町甲","zip_code":"9696084"},{"name":"本郷前川原","zip_code":"9696177"},{"name":"本郷前川原甲","zip_code":"9696026"},{"name":"本郷道上","zip_code":"9696164"},{"name":"本郷道西","zip_code":"9696087"},{"name":"本郷道西甲","zip_code":"9696129"},{"name":"本郷道東","zip_code":"9696075"},{"name":"本郷道東甲","zip_code":"9696076"},{"name":"本郷村西","zip_code":"9696172"},{"name":"本郷村西甲","zip_code":"9696331"},{"name":"本郷村東乙","zip_code":"9696334"},{"name":"松岸","zip_code":"9696252"},{"name":"松木田","zip_code":"9696206"},{"name":"松沢","zip_code":"9696255"},{"name":"松原際","zip_code":"9696158"},{"name":"松原際甲","zip_code":"9696043"},{"name":"的場甲","zip_code":"9696058"},{"name":"真々川","zip_code":"9696128"},{"name":"真々川甲","zip_code":"9696072"},{"name":"丸山","zip_code":"9696323"},{"name":"丸山乙","zip_code":"9696324"},{"name":"丸山北","zip_code":"9696321"},{"name":"丸山北甲","zip_code":"9696322"},{"name":"三日町","zip_code":"9696134"},{"name":"三日町上","zip_code":"9696081"},{"name":"三日町上甲","zip_code":"9696082"},{"name":"三日町甲","zip_code":"9696079"},{"name":"三日町道上甲","zip_code":"9696083"},{"name":"水戸","zip_code":"9696203"},{"name":"宮川","zip_code":"9696243"},{"name":"宮北","zip_code":"9696263"},{"name":"宮後","zip_code":"9696325"},{"name":"宮後乙","zip_code":"9696327"},{"name":"宮後甲","zip_code":"9696326"},{"name":"宮里","zip_code":"9696207"},{"name":"宮ノ腰","zip_code":"9696204"},{"name":"宮林","zip_code":"9696263"},{"name":"宮林甲","zip_code":"9696263"},{"name":"六日町甲","zip_code":"9696059"},{"name":"向川原甲","zip_code":"9696118"},{"name":"向川原","zip_code":"9696064"},{"name":"村上","zip_code":"9696142"},{"name":"村上乙","zip_code":"9696335"},{"name":"村前","zip_code":"9696202"},{"name":"本屋敷","zip_code":"9696157"},{"name":"文珠西","zip_code":"9696263"},{"name":"文珠東","zip_code":"9696263"},{"name":"八木沢","zip_code":"9696273"},{"name":"安田","zip_code":"9696201"},{"name":"安田乙","zip_code":"9696201"},{"name":"谷地","zip_code":"9696268"},{"name":"谷地前","zip_code":"9696268"},{"name":"柳台","zip_code":"9696268"},{"name":"柳台甲","zip_code":"9696268"},{"name":"梁場上","zip_code":"9696119"},{"name":"梁場上甲","zip_code":"9696067"},{"name":"山道上","zip_code":"9696303"},{"name":"山道下","zip_code":"9696165"},{"name":"山道下甲","zip_code":"9696302"},{"name":"山南","zip_code":"9696145"},{"name":"山南乙","zip_code":"9696328"},{"name":"横堀下","zip_code":"9696146"},{"name":"横堀下乙","zip_code":"9696341"},{"name":"葭添","zip_code":"9696206"},{"name":"吉田","zip_code":"9696241"},{"name":"米田","zip_code":"9696405"},{"name":"竜興寺北","zip_code":"9696266"},{"name":"六地蔵","zip_code":"9696265"},{"name":"和田目","zip_code":"9696401"}]},{"name":"西白河郡西郷村","divisions":[{"name":"石塚南","zip_code":"9618043"},{"name":"石塚北","zip_code":"9618044"},{"name":"裏山南","zip_code":"9618047"},{"name":"小田倉","zip_code":"9618061"},{"name":"柏野","zip_code":"9618011"},{"name":"熊倉","zip_code":"9618091"},{"name":"下前田東","zip_code":"9618051"},{"name":"下前田西","zip_code":"9618056"},{"name":"鶴生","zip_code":"9618081"},{"name":"道南東","zip_code":"9618052"},{"name":"道南西","zip_code":"9618055"},{"name":"豊作東","zip_code":"9618041"},{"name":"豊作西","zip_code":"9618042"},{"name":"長坂","zip_code":"9618021"},{"name":"羽太","zip_code":"9618001"},{"name":"前山東","zip_code":"9618053"},{"name":"前山西","zip_code":"9618054"},{"name":"真船","zip_code":"9618071"},{"name":"屋敷裏東","zip_code":"9618046"},{"name":"屋敷裏西","zip_code":"9618045"},{"name":"米","zip_code":"9618031"}]},{"name":"西白河郡泉崎村","divisions":[{"name":"泉崎","zip_code":"9690101"},{"name":"太田川","zip_code":"9690104"},{"name":"北平山","zip_code":"9690103"},{"name":"関和久","zip_code":"9690106"},{"name":"踏瀬","zip_code":"9690105"}]},{"name":"西白河郡中島村","divisions":[{"name":"川原田","zip_code":"9610105"},{"name":"中島","zip_code":"9610103"},{"name":"滑津","zip_code":"9610102"},{"name":"二子塚","zip_code":"9610106"},{"name":"松崎","zip_code":"9610101"},{"name":"吉岡","zip_code":"9610104"}]},{"name":"西白河郡矢吹町","divisions":[{"name":"赤沢","zip_code":"9690206"},{"name":"曙町","zip_code":"9690272"},{"name":"一本木","zip_code":"9690236"},{"name":"井戸尻","zip_code":"9690287"},{"name":"大池","zip_code":"9690238"},{"name":"大久保","zip_code":"9690224"},{"name":"大町","zip_code":"9690201"},{"name":"神の内","zip_code":"9690252"},{"name":"上の前","zip_code":"9690257"},{"name":"上宮崎","zip_code":"9690246"},{"name":"川原","zip_code":"9690287"},{"name":"神田東","zip_code":"9690251"},{"name":"神田西","zip_code":"9690251"},{"name":"神田南","zip_code":"9690251"},{"name":"北浦","zip_code":"9690203"},{"name":"北町","zip_code":"9690211"},{"name":"子ハ清水","zip_code":"9690288"},{"name":"五本松","zip_code":"9690205"},{"name":"小松","zip_code":"9690271"},{"name":"境町","zip_code":"9690281"},{"name":"沢尻","zip_code":"9690258"},{"name":"三城目","zip_code":"9690242"},{"name":"下宮崎","zip_code":"9690246"},{"name":"上敷面","zip_code":"9690266"},{"name":"陣ケ岡","zip_code":"9690241"},{"name":"新町","zip_code":"9690202"},{"name":"住吉","zip_code":"9690257"},{"name":"諏訪清水","zip_code":"9690267"},{"name":"諏訪の前","zip_code":"9690247"},{"name":"堰の上","zip_code":"9690287"},{"name":"関山","zip_code":"9690204"},{"name":"善郷内","zip_code":"9690212"},{"name":"田内","zip_code":"9690288"},{"name":"滝八幡","zip_code":"9690284"},{"name":"舘沢","zip_code":"9690284"},{"name":"田町","zip_code":"9690227"},{"name":"堤","zip_code":"9690252"},{"name":"寺内","zip_code":"9690255"},{"name":"寺内東","zip_code":"9690255"},{"name":"寺内西","zip_code":"9690255"},{"name":"寺内南","zip_code":"9690255"},{"name":"寺の前","zip_code":"9690247"},{"name":"天開","zip_code":"9690241"},{"name":"東郷","zip_code":"9690248"},{"name":"中沖","zip_code":"9690243"},{"name":"中野目東","zip_code":"9690252"},{"name":"中野目西","zip_code":"9690252"},{"name":"中畑","zip_code":"9690264"},{"name":"中畑新田","zip_code":"9690236"},{"name":"中畑南","zip_code":"9690265"},{"name":"中町","zip_code":"9690221"},{"name":"中丸","zip_code":"9690231"},{"name":"鍋内","zip_code":"9690256"},{"name":"西長峰","zip_code":"9690226"},{"name":"根宿","zip_code":"9690263"},{"name":"白山","zip_code":"9690245"},{"name":"八幡町","zip_code":"9690222"},{"name":"花咲","zip_code":"9690285"},{"name":"花の里","zip_code":"9690233"},{"name":"馬場","zip_code":"9690281"},{"name":"東川原","zip_code":"9690243"},{"name":"東堤","zip_code":"9690252"},{"name":"東長峰","zip_code":"9690225"},{"name":"東の内","zip_code":"9690288"},{"name":"奉行塚","zip_code":"9690244"},{"name":"文京町","zip_code":"9690223"},{"name":"平鉢","zip_code":"9690254"},{"name":"牡丹平","zip_code":"9690237"},{"name":"本郷町","zip_code":"9690282"},{"name":"本城舘","zip_code":"9690232"},{"name":"前久保","zip_code":"9690257"},{"name":"前田","zip_code":"9690234"},{"name":"松倉","zip_code":"9690268"},{"name":"松房","zip_code":"9690262"},{"name":"丸の内","zip_code":"9690235"},{"name":"南町","zip_code":"9690283"},{"name":"明新上","zip_code":"9690253"},{"name":"明新中","zip_code":"9690253"},{"name":"明新下","zip_code":"9690253"},{"name":"明新原","zip_code":"9690253"},{"name":"明新東","zip_code":"9690253"},{"name":"明新西","zip_code":"9690253"},{"name":"本町","zip_code":"9690213"},{"name":"弥栄","zip_code":"9690261"},{"name":"谷中","zip_code":"9690244"},{"name":"矢吹","zip_code":"9690236"},{"name":"大和内","zip_code":"9690286"}]},{"name":"東白川郡棚倉町","divisions":[{"name":"板橋","zip_code":"9636113"},{"name":"一色","zip_code":"9636111"},{"name":"漆草","zip_code":"9636147"},{"name":"上台","zip_code":"9636114"},{"name":"大梅","zip_code":"9636145"},{"name":"岡田","zip_code":"9635662"},{"name":"金沢内","zip_code":"9636106"},{"name":"上手沢","zip_code":"9635681"},{"name":"北山本","zip_code":"9635685"},{"name":"小菅生","zip_code":"9636105"},{"name":"小爪","zip_code":"9636152"},{"name":"強梨","zip_code":"9636144"},{"name":"逆川","zip_code":"9636103"},{"name":"下手沢","zip_code":"9635682"},{"name":"下山本","zip_code":"9635683"},{"name":"瀬ケ野","zip_code":"9636153"},{"name":"関口","zip_code":"9636123"},{"name":"棚倉","zip_code":"9636131"},{"name":"玉野","zip_code":"9636112"},{"name":"塚原","zip_code":"9635664"},{"name":"堤","zip_code":"9636101"},{"name":"寺山","zip_code":"9635671"},{"name":"天王内","zip_code":"9636102"},{"name":"戸中","zip_code":"9636146"},{"name":"富岡","zip_code":"9636141"},{"name":"中山本","zip_code":"9635684"},{"name":"流","zip_code":"9635663"},{"name":"仁公儀","zip_code":"9636122"},{"name":"花園","zip_code":"9636121"},{"name":"檜木","zip_code":"9636104"},{"name":"福井","zip_code":"9636115"},{"name":"福岡","zip_code":"9636143"},{"name":"祝部内","zip_code":"9636151"},{"name":"八槻","zip_code":"9635672"},{"name":"山際","zip_code":"9636142"},{"name":"山田","zip_code":"9635661"}]},{"name":"東白川郡矢祭町","divisions":[{"name":"内川","zip_code":"9635322"},{"name":"大ぬかり","zip_code":"9635114"},{"name":"小田川","zip_code":"9635119"},{"name":"金沢","zip_code":"9635111"},{"name":"上関河内","zip_code":"9635115"},{"name":"高野","zip_code":"9635116"},{"name":"下石井","zip_code":"9635202"},{"name":"下関河内","zip_code":"9635113"},{"name":"関岡","zip_code":"9635321"},{"name":"戸塚","zip_code":"9635203"},{"name":"中石井","zip_code":"9635201"},{"name":"東舘","zip_code":"9635118"},{"name":"宝坂","zip_code":"9635112"},{"name":"茗荷","zip_code":"9635323"},{"name":"山下","zip_code":"9635117"}]},{"name":"東白川郡塙町","divisions":[{"name":"伊香","zip_code":"9635342"},{"name":"板庭","zip_code":"9635537"},{"name":"植田","zip_code":"9635343"},{"name":"大蕨","zip_code":"9635532"},{"name":"片貝","zip_code":"9635522"},{"name":"上石井","zip_code":"9635411"},{"name":"上渋井","zip_code":"9635406"},{"name":"川上","zip_code":"9635536"},{"name":"木野反","zip_code":"9635534"},{"name":"台宿","zip_code":"9635341"},{"name":"竹之内","zip_code":"9635404"},{"name":"田代","zip_code":"9635531"},{"name":"田野作","zip_code":"9635539"},{"name":"常世北野","zip_code":"9635402"},{"name":"常世中野","zip_code":"9635403"},{"name":"中塚","zip_code":"9635538"},{"name":"那倉","zip_code":"9635521"},{"name":"西河内","zip_code":"9635407"},{"name":"塙","zip_code":"9635405"},{"name":"東河内","zip_code":"9635401"},{"name":"堀越","zip_code":"9635408"},{"name":"真名畑","zip_code":"9635344"},{"name":"山形","zip_code":"9635535"},{"name":"湯岐","zip_code":"9635533"}]},{"name":"東白川郡鮫川村","divisions":[{"name":"青生野","zip_code":"9638404"},{"name":"赤坂中野","zip_code":"9638401"},{"name":"赤坂東野","zip_code":"9638403"},{"name":"赤坂西野","zip_code":"9638407"},{"name":"石井草","zip_code":"9638402"},{"name":"富田","zip_code":"9638406"},{"name":"西山","zip_code":"9638408"},{"name":"渡瀬","zip_code":"9635505"}]},{"name":"石川郡石川町","divisions":[{"name":"赤羽","zip_code":"9637826"},{"name":"秋台","zip_code":"9637864"},{"name":"新屋敷","zip_code":"9637884"},{"name":"石田","zip_code":"9637833"},{"name":"石塚","zip_code":"9637867"},{"name":"板橋","zip_code":"9637813"},{"name":"一ノ沢","zip_code":"9637849"},{"name":"江堀田","zip_code":"9637841"},{"name":"王子平","zip_code":"9637823"},{"name":"大内","zip_code":"9637872"},{"name":"大沢","zip_code":"9637815"},{"name":"大橋","zip_code":"9637881"},{"name":"大室","zip_code":"9637853"},{"name":"長郷田","zip_code":"9637848"},{"name":"形見","zip_code":"9637807"},{"name":"鹿ノ坂","zip_code":"9637862"},{"name":"北町","zip_code":"9637844"},{"name":"北山","zip_code":"9637802"},{"name":"北山形","zip_code":"9637811"},{"name":"草倉田","zip_code":"9637835"},{"name":"轡取","zip_code":"9637834"},{"name":"国見","zip_code":"9637876"},{"name":"古舘","zip_code":"9637847"},{"name":"境ノ内","zip_code":"9637842"},{"name":"坂路","zip_code":"9637804"},{"name":"沢井","zip_code":"9637825"},{"name":"塩沢","zip_code":"9637836"},{"name":"塩沼","zip_code":"9637818"},{"name":"塩ノ平","zip_code":"9637882"},{"name":"下泉","zip_code":"9637858"},{"name":"下ノ内","zip_code":"9637828"},{"name":"白石","zip_code":"9637856"},{"name":"新町","zip_code":"9637851"},{"name":"関根","zip_code":"9637852"},{"name":"双里","zip_code":"9637808"},{"name":"外国見","zip_code":"9637866"},{"name":"大五郎内","zip_code":"9637874"},{"name":"高田","zip_code":"9637845"},{"name":"立ケ岡","zip_code":"9637817"},{"name":"当町","zip_code":"9637857"},{"name":"飛ケ作","zip_code":"9637873"},{"name":"中田","zip_code":"9637803"},{"name":"中野","zip_code":"9637837"},{"name":"長久保","zip_code":"9637846"},{"name":"成亀","zip_code":"9637885"},{"name":"猫啼","zip_code":"9637855"},{"name":"原","zip_code":"9637824"},{"name":"宝殿前","zip_code":"9637821"},{"name":"母畑","zip_code":"9637831"},{"name":"前ノ内","zip_code":"9637871"},{"name":"曲木","zip_code":"9637838"},{"name":"曲ノ内","zip_code":"9637865"},{"name":"松木下","zip_code":"9637854"},{"name":"豆ケ平","zip_code":"9637816"},{"name":"南町","zip_code":"9637859"},{"name":"南山形","zip_code":"9637812"},{"name":"麦ノ内","zip_code":"9637883"},{"name":"弥吾","zip_code":"9637832"},{"name":"谷沢","zip_code":"9637806"},{"name":"屋敷ノ入","zip_code":"9637843"},{"name":"谷地","zip_code":"9637805"},{"name":"柳作","zip_code":"9637875"},{"name":"梁瀬","zip_code":"9637822"},{"name":"矢ノ目田","zip_code":"9637861"},{"name":"山形","zip_code":"9637814"},{"name":"湯郷渡","zip_code":"9637801"},{"name":"和久","zip_code":"9637886"},{"name":"渡里沢","zip_code":"9637863"}]},{"name":"石川郡玉川村","divisions":[{"name":"小高","zip_code":"9636312"},{"name":"川辺","zip_code":"9636313"},{"name":"岩法寺","zip_code":"9636311"},{"name":"北須釜","zip_code":"9636304"},{"name":"竜崎","zip_code":"9636316"},{"name":"中","zip_code":"9636315"},{"name":"蒜生","zip_code":"9636314"},{"name":"南須釜","zip_code":"9636302"},{"name":"山小屋","zip_code":"9636305"},{"name":"山新田","zip_code":"9636306"},{"name":"吉","zip_code":"9636303"},{"name":"四辻新田","zip_code":"9636301"}]},{"name":"石川郡平田村","divisions":[{"name":"小平","zip_code":"9638114"},{"name":"上蓬田","zip_code":"9638202"},{"name":"北方","zip_code":"9638112"},{"name":"九生滝","zip_code":"9638203"},{"name":"駒形","zip_code":"9638113"},{"name":"小松原","zip_code":"9638206"},{"name":"下蓬田","zip_code":"9638207"},{"name":"鴇子","zip_code":"9638204"},{"name":"中倉","zip_code":"9638115"},{"name":"永田","zip_code":"9638205"},{"name":"西山","zip_code":"9638116"},{"name":"東山","zip_code":"9638111"},{"name":"蓬田新田","zip_code":"9638201"}]},{"name":"石川郡浅川町","divisions":[{"name":"浅川","zip_code":"9636204"},{"name":"大草","zip_code":"9636214"},{"name":"太田輪","zip_code":"9636206"},{"name":"小貫","zip_code":"9636207"},{"name":"里白石","zip_code":"9636202"},{"name":"袖山","zip_code":"9636216"},{"name":"染","zip_code":"9636208"},{"name":"滝輪","zip_code":"9636205"},{"name":"中里","zip_code":"9636213"},{"name":"根岸","zip_code":"9636215"},{"name":"畑田","zip_code":"9636211"},{"name":"東大畑","zip_code":"9636218"},{"name":"福貴作","zip_code":"9636201"},{"name":"松野入","zip_code":"9636212"},{"name":"簑輪","zip_code":"9636217"},{"name":"山白石","zip_code":"9636203"}]},{"name":"石川郡古殿町","divisions":[{"name":"大久田","zip_code":"9638303"},{"name":"鎌田","zip_code":"9638307"},{"name":"仙石","zip_code":"9638308"},{"name":"竹貫","zip_code":"9638305"},{"name":"田口","zip_code":"9638306"},{"name":"松川","zip_code":"9638304"},{"name":"山上","zip_code":"9638302"},{"name":"論田","zip_code":"9638301"}]},{"name":"田村郡三春町","divisions":[{"name":"青石","zip_code":"9637702"},{"name":"赤坂","zip_code":"9637753"},{"name":"尼ケ谷","zip_code":"9637745"},{"name":"荒町","zip_code":"9637765"},{"name":"一本松","zip_code":"9637749"},{"name":"会下谷","zip_code":"9637757"},{"name":"恵下越","zip_code":"9637754"},{"name":"烏帽子石","zip_code":"9637752"},{"name":"大久保","zip_code":"9637749"},{"name":"大平","zip_code":"9637706"},{"name":"大町","zip_code":"9637759"},{"name":"小浜海道","zip_code":"9637762"},{"name":"御祭","zip_code":"9637772"},{"name":"貝山","zip_code":"9637719"},{"name":"担橋","zip_code":"9637769"},{"name":"鎌田前","zip_code":"9637741"},{"name":"上舞木","zip_code":"9637732"},{"name":"亀井","zip_code":"9637752"},{"name":"雁木田","zip_code":"9637747"},{"name":"北成田","zip_code":"9637781"},{"name":"北町","zip_code":"9637751"},{"name":"北向町","zip_code":"9637764"},{"name":"狐田","zip_code":"9637717"},{"name":"込木","zip_code":"9637712"},{"name":"熊耳","zip_code":"9637704"},{"name":"栗林","zip_code":"9637708"},{"name":"化粧坂","zip_code":"9637754"},{"name":"庚申坂","zip_code":"9637754"},{"name":"小金滝","zip_code":"9637758"},{"name":"小滝","zip_code":"9637709"},{"name":"御免町","zip_code":"9637767"},{"name":"斎藤","zip_code":"9637723"},{"name":"桜ケ丘","zip_code":"9637711"},{"name":"桜谷","zip_code":"9637758"},{"name":"実沢","zip_code":"9637701"},{"name":"山中","zip_code":"9637755"},{"name":"四軒丁","zip_code":"9637754"},{"name":"四反田","zip_code":"9637761"},{"name":"師範場","zip_code":"9637753"},{"name":"柴原","zip_code":"9637713"},{"name":"渋池","zip_code":"9637768"},{"name":"清水","zip_code":"9637753"},{"name":"清水畑","zip_code":"9637752"},{"name":"下舞木","zip_code":"9637731"},{"name":"庄司","zip_code":"9637703"},{"name":"丈六","zip_code":"9637743"},{"name":"新町","zip_code":"9637754"},{"name":"芹ケ沢","zip_code":"9637707"},{"name":"鷹巣","zip_code":"9637725"},{"name":"滝","zip_code":"9637714"},{"name":"燕清水","zip_code":"9637763"},{"name":"鶴蒔田","zip_code":"9637742"},{"name":"天王下","zip_code":"9637705"},{"name":"天王前","zip_code":"9637741"},{"name":"樋ノ口","zip_code":"9637761"},{"name":"富沢","zip_code":"9637782"},{"name":"中町","zip_code":"9637766"},{"name":"永作","zip_code":"9637753"},{"name":"七草木","zip_code":"9637786"},{"name":"仁井町","zip_code":"9637752"},{"name":"西方","zip_code":"9637722"},{"name":"沼沢","zip_code":"9637724"},{"name":"沼之倉","zip_code":"9637726"},{"name":"根本","zip_code":"9637716"},{"name":"八幡町","zip_code":"9637744"},{"name":"八方谷","zip_code":"9637712"},{"name":"馬場","zip_code":"9637746"},{"name":"春沢","zip_code":"9637721"},{"name":"春田","zip_code":"9637721"},{"name":"番組","zip_code":"9637754"},{"name":"番組頭","zip_code":"9637754"},{"name":"日向町","zip_code":"9637763"},{"name":"平沢","zip_code":"9637771"},{"name":"樋渡","zip_code":"9637715"},{"name":"深田和","zip_code":"9637773"},{"name":"蛇石","zip_code":"9637716"},{"name":"蛇沢","zip_code":"9637721"},{"name":"松橋","zip_code":"9637785"},{"name":"南成田","zip_code":"9637783"},{"name":"南町","zip_code":"9637756"},{"name":"持合畑","zip_code":"9637763"},{"name":"八島台","zip_code":"9637741"},{"name":"八十内","zip_code":"9637753"},{"name":"山崎","zip_code":"9637748"},{"name":"山田","zip_code":"9637733"},{"name":"弓町","zip_code":"9637754"},{"name":"過足","zip_code":"9637718"},{"name":"楽内","zip_code":"9637712"},{"name":"六升蒔","zip_code":"9637752"},{"name":"六斗蒔","zip_code":"9637784"}]},{"name":"田村郡小野町","divisions":[{"name":"飯豊","zip_code":"9633521"},{"name":"浮金","zip_code":"9633524"},{"name":"小戸神","zip_code":"9633522"},{"name":"小野赤沼","zip_code":"9633403"},{"name":"小野新町","zip_code":"9633401"},{"name":"小野山神","zip_code":"9633523"},{"name":"上羽出庭","zip_code":"9633316"},{"name":"雁股田","zip_code":"9633405"},{"name":"皮籠石","zip_code":"9633406"},{"name":"塩庭","zip_code":"9633314"},{"name":"菖蒲谷","zip_code":"9633404"},{"name":"夏井","zip_code":"9633312"},{"name":"南田原井","zip_code":"9633313"},{"name":"谷津作","zip_code":"9633402"},{"name":"湯沢","zip_code":"9633311"},{"name":"吉野辺","zip_code":"9633525"},{"name":"和名田","zip_code":"9633315"}]},{"name":"双葉郡広野町","divisions":[{"name":"折木","zip_code":"9790404"},{"name":"上浅見川","zip_code":"9790406"},{"name":"上北迫","zip_code":"9790401"},{"name":"広洋台","zip_code":"9790407"},{"name":"下浅見川","zip_code":"9790403"},{"name":"下北迫","zip_code":"9790402"},{"name":"中央台","zip_code":"9790408"},{"name":"夕筋","zip_code":"9790405"}]},{"name":"双葉郡楢葉町","divisions":[{"name":"井出","zip_code":"9790603"},{"name":"大谷","zip_code":"9790605"},{"name":"上小塙","zip_code":"9790515"},{"name":"上繁岡","zip_code":"9790606"},{"name":"北田","zip_code":"9790604"},{"name":"下小塙","zip_code":"9790514"},{"name":"下繁岡","zip_code":"9790602"},{"name":"波倉","zip_code":"9790601"},{"name":"前原","zip_code":"9790511"},{"name":"山田岡","zip_code":"9790513"},{"name":"山田浜","zip_code":"9790512"}]},{"name":"双葉郡富岡町","divisions":[{"name":"大菅","zip_code":"9791171"},{"name":"小良ケ浜","zip_code":"9791101"},{"name":"上郡山","zip_code":"9791131"},{"name":"上手岡","zip_code":"9791141"},{"name":"毛萱","zip_code":"9790622"},{"name":"小浜","zip_code":"9791111"},{"name":"桜","zip_code":"9791162"},{"name":"下郡山","zip_code":"9791132"},{"name":"中央","zip_code":"9791112"},{"name":"仏浜","zip_code":"9791121"},{"name":"本岡","zip_code":"9791151"},{"name":"本町","zip_code":"9791152"},{"name":"夜の森","zip_code":"9791161"}]},{"name":"双葉郡川内村","divisions":[{"name":"上川内","zip_code":"9791201"},{"name":"下川内","zip_code":"9791202"}]},{"name":"双葉郡大熊町","divisions":[{"name":"大川原","zip_code":"9791306"},{"name":"夫沢","zip_code":"9791301"},{"name":"小良浜","zip_code":"9791304"},{"name":"熊","zip_code":"9791305"},{"name":"熊川","zip_code":"9791303"},{"name":"小入野","zip_code":"9791302"},{"name":"下野上","zip_code":"9791308"},{"name":"野上","zip_code":"9791307"}]},{"name":"双葉郡双葉町","divisions":[{"name":"石熊","zip_code":"9791433"},{"name":"上羽鳥","zip_code":"9791442"},{"name":"鴻草","zip_code":"9791463"},{"name":"郡山","zip_code":"9791411"},{"name":"渋川","zip_code":"9791451"},{"name":"下羽鳥","zip_code":"9791441"},{"name":"新山","zip_code":"9791472"},{"name":"寺沢","zip_code":"9791453"},{"name":"中田","zip_code":"9791462"},{"name":"中野","zip_code":"9791401"},{"name":"中浜","zip_code":"9791402"},{"name":"長塚","zip_code":"9791471"},{"name":"細谷","zip_code":"9791412"},{"name":"前田","zip_code":"9791421"},{"name":"松倉","zip_code":"9791452"},{"name":"松迫","zip_code":"9791432"},{"name":"水沢","zip_code":"9791422"},{"name":"目迫","zip_code":"9791423"},{"name":"両竹","zip_code":"9791461"},{"name":"山田","zip_code":"9791431"}]},{"name":"双葉郡浪江町","divisions":[{"name":"赤宇木","zip_code":"9791751"},{"name":"井手","zip_code":"9791535"},{"name":"請戸","zip_code":"9791522"},{"name":"牛渡","zip_code":"9791526"},{"name":"大堀","zip_code":"9791544"},{"name":"小野田","zip_code":"9791543"},{"name":"小丸","zip_code":"9791545"},{"name":"加倉","zip_code":"9791536"},{"name":"苅宿","zip_code":"9791505"},{"name":"川添","zip_code":"9791531"},{"name":"川房","zip_code":"9791753"},{"name":"北幾世橋","zip_code":"9791512"},{"name":"幾世橋","zip_code":"9791513"},{"name":"権現堂","zip_code":"9791521"},{"name":"酒井","zip_code":"9791533"},{"name":"酒田","zip_code":"9791504"},{"name":"下津島","zip_code":"9791756"},{"name":"末森","zip_code":"9791542"},{"name":"高瀬","zip_code":"9791525"},{"name":"田尻","zip_code":"9791541"},{"name":"立野","zip_code":"9791501"},{"name":"棚塩","zip_code":"9791511"},{"name":"津島","zip_code":"9791757"},{"name":"中浜","zip_code":"9791523"},{"name":"西台","zip_code":"9791503"},{"name":"羽附","zip_code":"9791755"},{"name":"昼曽根","zip_code":"9791752"},{"name":"樋渡","zip_code":"9791532"},{"name":"藤橋","zip_code":"9791502"},{"name":"南津島","zip_code":"9791754"},{"name":"室原","zip_code":"9791706"},{"name":"両竹","zip_code":"9791524"},{"name":"谷津田","zip_code":"9791534"}]},{"name":"双葉郡葛尾村","divisions":[{"name":"落合","zip_code":"9791602"},{"name":"葛尾","zip_code":"9791601"},{"name":"上野川","zip_code":"9791604"},{"name":"野川","zip_code":"9791603"}]},{"name":"相馬郡新地町","divisions":[{"name":"今泉","zip_code":"9792705"},{"name":"大戸浜","zip_code":"9792704"},{"name":"小川","zip_code":"9792703"},{"name":"駒ケ嶺","zip_code":"9792611"},{"name":"杉目","zip_code":"9792706"},{"name":"福田","zip_code":"9792708"},{"name":"真弓","zip_code":"9792707"},{"name":"谷地小屋","zip_code":"9792702"},{"name":"埓木崎","zip_code":"9792701"}]},{"name":"相馬郡飯舘村","divisions":[{"name":"芦原","zip_code":"9601812"},{"name":"飯樋","zip_code":"9601721"},{"name":"伊丹沢","zip_code":"9601803"},{"name":"臼石","zip_code":"9601633"},{"name":"大倉","zip_code":"9601814"},{"name":"草野","zip_code":"9601801"},{"name":"小宮","zip_code":"9601811"},{"name":"佐須","zip_code":"9601815"},{"name":"須萱","zip_code":"9601635"},{"name":"関沢","zip_code":"9601804"},{"name":"関根","zip_code":"9601632"},{"name":"長泥","zip_code":"9601723"},{"name":"二枚橋","zip_code":"9601634"},{"name":"比曽","zip_code":"9601722"},{"name":"深谷","zip_code":"9601802"},{"name":"前田","zip_code":"9601636"},{"name":"松塚","zip_code":"9601631"},{"name":"八木沢","zip_code":"9601813"},{"name":"蕨平","zip_code":"9601724"}]}]}