{"name":"茨城県","cities":[{"name":"水戸市","divisions":[{"name":"青柳町","zip_code":"3100004"},{"name":"赤尾関町","zip_code":"3190314"},{"name":"赤塚","zip_code":"3114141"},{"name":"秋成町","zip_code":"3111122"},{"name":"圷大野","zip_code":"3100822"},{"name":"曙町","zip_code":"3100046"},{"name":"朝日町","zip_code":"3100831"},{"name":"愛宕町","zip_code":"3100054"},{"name":"木葉下町","zip_code":"3114165"},{"name":"有賀町","zip_code":"3190304"},{"name":"飯島町","zip_code":"3114155"},{"name":"飯富町","zip_code":"3114206"},{"name":"石川","zip_code":"3100905"},{"name":"石川町","zip_code":"3100904"},{"name":"泉町","zip_code":"3100026"},{"name":"岩根町","zip_code":"3114202"},{"name":"牛伏町","zip_code":"3190311"},{"name":"内原町","zip_code":"3190315"},{"name":"大串町","zip_code":"3111115"},{"name":"大足町","zip_code":"3190312"},{"name":"大塚町","zip_code":"3114143"},{"name":"大場町","zip_code":"3111125"},{"name":"大町","zip_code":"3100062"},{"name":"小原町","zip_code":"3190307"},{"name":"加倉井町","zip_code":"3114163"},{"name":"笠原町","zip_code":"3100852"},{"name":"金谷町","zip_code":"3114162"},{"name":"金町","zip_code":"3100066"},{"name":"上河内町","zip_code":"3100001"},{"name":"上国井町","zip_code":"3114203"},{"name":"上水戸","zip_code":"3100041"},{"name":"萱場町","zip_code":"3114154"},{"name":"川又町","zip_code":"3111112"},{"name":"瓦谷","zip_code":"3100814"},{"name":"河和田","zip_code":"3114152"},{"name":"河和田町","zip_code":"3114153"},{"name":"北見町","zip_code":"3100061"},{"name":"栗崎町","zip_code":"3111133"},{"name":"黒磯町","zip_code":"3190303"},{"name":"けやき台","zip_code":"3100842"},{"name":"小泉町","zip_code":"3111111"},{"name":"鯉淵町","zip_code":"3190323"},{"name":"五軒町","zip_code":"3100063"},{"name":"小林町","zip_code":"3190325"},{"name":"小吹町","zip_code":"3100914"},{"name":"五平町","zip_code":"3190324"},{"name":"紺屋町","zip_code":"3100816"},{"name":"栄町","zip_code":"3100064"},{"name":"酒門町","zip_code":"3100841"},{"name":"柵町","zip_code":"3100802"},{"name":"桜川","zip_code":"3100801"},{"name":"三の丸","zip_code":"3100011"},{"name":"塩崎町","zip_code":"3111114"},{"name":"渋井町","zip_code":"3100826"},{"name":"島田町","zip_code":"3111121"},{"name":"下入野町","zip_code":"3111123"},{"name":"下大野町","zip_code":"3111131"},{"name":"下国井町","zip_code":"3114205"},{"name":"下野町","zip_code":"3190322"},{"name":"下梅香","zip_code":"3100023"},{"name":"自由が丘","zip_code":"3100042"},{"name":"城東","zip_code":"3100012"},{"name":"城南","zip_code":"3100803"},{"name":"白梅","zip_code":"3100804"},{"name":"新荘","zip_code":"3100036"},{"name":"新原","zip_code":"3100045"},{"name":"水府町","zip_code":"3100005"},{"name":"末広町","zip_code":"3100053"},{"name":"杉崎町","zip_code":"3190306"},{"name":"住吉町","zip_code":"3100844"},{"name":"千波町","zip_code":"3100851"},{"name":"大工町","zip_code":"3100031"},{"name":"高田町","zip_code":"3190321"},{"name":"田島町","zip_code":"3190301"},{"name":"田野町","zip_code":"3100901"},{"name":"田谷町","zip_code":"3114204"},{"name":"ちとせ","zip_code":"3100051"},{"name":"中央","zip_code":"3100805"},{"name":"筑地町","zip_code":"3190313"},{"name":"天王町","zip_code":"3100025"},{"name":"東野町","zip_code":"3100846"},{"name":"東前","zip_code":"3111136"},{"name":"東前町","zip_code":"3111132"},{"name":"常磐町","zip_code":"3100033"},{"name":"中大野","zip_code":"3100821"},{"name":"中河内町","zip_code":"3100002"},{"name":"中原町","zip_code":"3190305"},{"name":"中丸町","zip_code":"3114146"},{"name":"成沢町","zip_code":"3114207"},{"name":"西大野","zip_code":"3100824"},{"name":"西原","zip_code":"3100044"},{"name":"根本","zip_code":"3100067"},{"name":"根本町","zip_code":"3100068"},{"name":"梅香","zip_code":"3100022"},{"name":"袴塚","zip_code":"3100055"},{"name":"八幡町","zip_code":"3100065"},{"name":"浜田","zip_code":"3100812"},{"name":"浜田町","zip_code":"3100813"},{"name":"東赤塚","zip_code":"3114142"},{"name":"東大野","zip_code":"3100823"},{"name":"東桜川","zip_code":"3100811"},{"name":"東台","zip_code":"3100818"},{"name":"東原","zip_code":"3100035"},{"name":"備前町","zip_code":"3100024"},{"name":"姫子","zip_code":"3114151"},{"name":"開江町","zip_code":"3114144"},{"name":"平須町","zip_code":"3100853"},{"name":"平戸町","zip_code":"3111113"},{"name":"藤井町","zip_code":"3114201"},{"name":"藤が原","zip_code":"3114208"},{"name":"藤柄町","zip_code":"3100833"},{"name":"双葉台","zip_code":"3114145"},{"name":"文京","zip_code":"3100056"},{"name":"堀町","zip_code":"3100903"},{"name":"本町","zip_code":"3100815"},{"name":"全隈町","zip_code":"3114161"},{"name":"松が丘","zip_code":"3100043"},{"name":"松本町","zip_code":"3100052"},{"name":"見川","zip_code":"3100912"},{"name":"見川町","zip_code":"3100913"},{"name":"緑町","zip_code":"3100034"},{"name":"南町","zip_code":"3100021"},{"name":"三野輪町","zip_code":"3190302"},{"name":"宮内町","zip_code":"3100834"},{"name":"宮町","zip_code":"3100015"},{"name":"三湯町","zip_code":"3190316"},{"name":"見和","zip_code":"3100911"},{"name":"元石川町","zip_code":"3100843"},{"name":"元台町","zip_code":"3100835"},{"name":"元山町","zip_code":"3100032"},{"name":"元吉田町","zip_code":"3100836"},{"name":"森戸町","zip_code":"3111124"},{"name":"谷田町","zip_code":"3100825"},{"name":"谷津町","zip_code":"3114164"},{"name":"柳河町","zip_code":"3100003"},{"name":"柳町","zip_code":"3100817"},{"name":"百合が丘町","zip_code":"3111134"},{"name":"吉沢町","zip_code":"3100845"},{"name":"吉田","zip_code":"3100832"},{"name":"吉沼町","zip_code":"3100827"},{"name":"米沢町","zip_code":"3100847"},{"name":"六反田町","zip_code":"3111135"},{"name":"若宮","zip_code":"3100013"},{"name":"若宮町","zip_code":"3100014"},{"name":"渡里町","zip_code":"3100902"}]},{"name":"日立市","divisions":[{"name":"相賀町","zip_code":"3170075"},{"name":"相田町","zip_code":"3191415"},{"name":"旭町","zip_code":"3170074"},{"name":"鮎川町","zip_code":"3160036"},{"name":"砂沢町","zip_code":"3191418"},{"name":"石名坂町","zip_code":"3191225"},{"name":"入四間町","zip_code":"3110402"},{"name":"会瀬町","zip_code":"3170076"},{"name":"大久保町","zip_code":"3160012"},{"name":"大沼町","zip_code":"3160022"},{"name":"大みか町","zip_code":"3191221"},{"name":"大和田町","zip_code":"3191234"},{"name":"小木津町","zip_code":"3191413"},{"name":"折笠町","zip_code":"3191412"},{"name":"鹿島町","zip_code":"3170071"},{"name":"金沢町","zip_code":"3160015"},{"name":"かみあい町","zip_code":"3191417"},{"name":"神峰町","zip_code":"3170064"},{"name":"川尻町","zip_code":"3191411"},{"name":"河原子町","zip_code":"3160005"},{"name":"神田町","zip_code":"3191233"},{"name":"久慈町","zip_code":"3191222"},{"name":"国分町","zip_code":"3160035"},{"name":"幸町","zip_code":"3170073"},{"name":"桜川町","zip_code":"3160002"},{"name":"下土木内町","zip_code":"3191232"},{"name":"下深荻町","zip_code":"3110404"},{"name":"十王町伊師","zip_code":"3191301"},{"name":"十王町伊師本郷","zip_code":"3191302"},{"name":"十王町黒坂","zip_code":"3191306"},{"name":"十王町城の丘","zip_code":"3191308"},{"name":"十王町高原","zip_code":"3191305"},{"name":"十王町友部","zip_code":"3191304"},{"name":"十王町友部東","zip_code":"3191303"},{"name":"十王町山部","zip_code":"3191307"},{"name":"城南町","zip_code":"3170077"},{"name":"白銀町","zip_code":"3170056"},{"name":"末広町","zip_code":"3160006"},{"name":"助川町","zip_code":"3170065"},{"name":"諏訪町","zip_code":"3160001"},{"name":"台原町","zip_code":"3160021"},{"name":"高鈴町","zip_code":"3170066"},{"name":"多賀町","zip_code":"3160003"},{"name":"田尻町","zip_code":"3191416"},{"name":"千石町","zip_code":"3160013"},{"name":"留町","zip_code":"3191231"},{"name":"中成沢町","zip_code":"3160033"},{"name":"中深荻町","zip_code":"3110401"},{"name":"中丸町","zip_code":"3160007"},{"name":"滑川町","zip_code":"3170053"},{"name":"滑川本町","zip_code":"3170051"},{"name":"成沢町","zip_code":"3160031"},{"name":"西成沢町","zip_code":"3160032"},{"name":"塙山町","zip_code":"3160011"},{"name":"東大沼町","zip_code":"3160023"},{"name":"東金沢町","zip_code":"3160014"},{"name":"東河内町","zip_code":"3110403"},{"name":"東多賀町","zip_code":"3160004"},{"name":"東町","zip_code":"3170061"},{"name":"東滑川町","zip_code":"3170052"},{"name":"東成沢町","zip_code":"3160034"},{"name":"日高町","zip_code":"3191414"},{"name":"平和町","zip_code":"3170062"},{"name":"弁天町","zip_code":"3170072"},{"name":"みかの原町","zip_code":"3160026"},{"name":"水木町","zip_code":"3160024"},{"name":"みなと町","zip_code":"3191223"},{"name":"南高野町","zip_code":"3191224"},{"name":"宮田町","zip_code":"3170055"},{"name":"本宮町","zip_code":"3170054"},{"name":"茂宮町","zip_code":"3191235"},{"name":"森山町","zip_code":"3160025"},{"name":"若葉町","zip_code":"3170063"}]},{"name":"土浦市","divisions":[{"name":"天川","zip_code":"3000818"},{"name":"荒川沖","zip_code":"3000873"},{"name":"荒川沖東","zip_code":"3000871"},{"name":"荒川沖西","zip_code":"3000874"},{"name":"荒川本郷","zip_code":"3000877"},{"name":"有明町","zip_code":"3000035"},{"name":"粟野町","zip_code":"3000002"},{"name":"飯田","zip_code":"3000802"},{"name":"生田町","zip_code":"3000047"},{"name":"板谷","zip_code":"3000007"},{"name":"今泉","zip_code":"3000001"},{"name":"大岩田","zip_code":"3000835"},{"name":"大志戸","zip_code":"3004103"},{"name":"おおつ野","zip_code":"3000028"},{"name":"大手町","zip_code":"3000044"},{"name":"大畑","zip_code":"3004111"},{"name":"大町","zip_code":"3000038"},{"name":"沖新田","zip_code":"3000872"},{"name":"沖宿町","zip_code":"3000023"},{"name":"小高","zip_code":"3004106"},{"name":"乙戸","zip_code":"3000844"},{"name":"乙戸南","zip_code":"3000845"},{"name":"小野","zip_code":"3004108"},{"name":"小山田","zip_code":"3000846"},{"name":"卸町","zip_code":"3000847"},{"name":"笠師町","zip_code":"3000008"},{"name":"粕毛","zip_code":"3000804"},{"name":"霞ケ岡町","zip_code":"3000825"},{"name":"上坂田","zip_code":"3004114"},{"name":"上高津","zip_code":"3000811"},{"name":"上高津新町","zip_code":"3000819"},{"name":"烏山","zip_code":"3000836"},{"name":"川口","zip_code":"3000033"},{"name":"神立中央","zip_code":"3000011"},{"name":"神立町","zip_code":"3000013"},{"name":"神立東","zip_code":"3000012"},{"name":"北荒川沖町","zip_code":"3000876"},{"name":"北神立町","zip_code":"3000015"},{"name":"木田余","zip_code":"3000026"},{"name":"木田余西台","zip_code":"3000056"},{"name":"木田余東台","zip_code":"3000027"},{"name":"小岩田","zip_code":"3000831"},{"name":"小岩田東","zip_code":"3000834"},{"name":"小岩田西","zip_code":"3000833"},{"name":"国分町","zip_code":"3000814"},{"name":"湖北","zip_code":"3000032"},{"name":"小松","zip_code":"3000823"},{"name":"小松ケ丘町","zip_code":"3000826"},{"name":"小山崎","zip_code":"3000004"},{"name":"桜ケ丘町","zip_code":"3000832"},{"name":"桜町","zip_code":"3000037"},{"name":"佐野子","zip_code":"3000803"},{"name":"沢辺","zip_code":"3004104"},{"name":"宍塚","zip_code":"3000805"},{"name":"下坂田","zip_code":"3004113"},{"name":"下高津","zip_code":"3000812"},{"name":"城北町","zip_code":"3000042"},{"name":"白鳥町","zip_code":"3000022"},{"name":"菅谷町","zip_code":"3000021"},{"name":"千束町","zip_code":"3000046"},{"name":"高岡","zip_code":"3004117"},{"name":"滝田","zip_code":"3000839"},{"name":"立田町","zip_code":"3000041"},{"name":"田土部","zip_code":"3004118"},{"name":"田中","zip_code":"3000048"},{"name":"田中町","zip_code":"3000049"},{"name":"田宮","zip_code":"3004105"},{"name":"田村町","zip_code":"3000024"},{"name":"千鳥ケ丘町","zip_code":"3000824"},{"name":"中央","zip_code":"3000043"},{"name":"都和","zip_code":"3000062"},{"name":"手野町","zip_code":"3000025"},{"name":"東崎町","zip_code":"3000031"},{"name":"東城寺","zip_code":"3004107"},{"name":"殿里","zip_code":"3000055"},{"name":"中","zip_code":"3000841"},{"name":"中荒川沖町","zip_code":"3000875"},{"name":"永井","zip_code":"3004101"},{"name":"中神立町","zip_code":"3000016"},{"name":"中高津","zip_code":"3000815"},{"name":"中都町","zip_code":"3000009"},{"name":"中貫","zip_code":"3000005"},{"name":"中村西根","zip_code":"3000849"},{"name":"中村東","zip_code":"3000850"},{"name":"中村南","zip_code":"3000843"},{"name":"永国","zip_code":"3000817"},{"name":"永国台","zip_code":"3000810"},{"name":"永国東町","zip_code":"3000816"},{"name":"並木","zip_code":"3000061"},{"name":"西神立","zip_code":"3000014"},{"name":"西並木町","zip_code":"3000068"},{"name":"西根西","zip_code":"3000848"},{"name":"西根南","zip_code":"3000842"},{"name":"西真鍋町","zip_code":"3000054"},{"name":"蓮河原新町","zip_code":"3000821"},{"name":"蓮河原町","zip_code":"3000822"},{"name":"東都和","zip_code":"3000067"},{"name":"東中貫町","zip_code":"3000006"},{"name":"東並木町","zip_code":"3000069"},{"name":"東真鍋町","zip_code":"3000052"},{"name":"東若松町","zip_code":"3000064"},{"name":"常名","zip_code":"3000065"},{"name":"富士崎","zip_code":"3000813"},{"name":"藤沢","zip_code":"3004115"},{"name":"藤沢新田","zip_code":"3004116"},{"name":"文京町","zip_code":"3000045"},{"name":"本郷","zip_code":"3004102"},{"name":"真鍋","zip_code":"3000051"},{"name":"真鍋新町","zip_code":"3000053"},{"name":"摩利山新田","zip_code":"3000838"},{"name":"右籾","zip_code":"3000837"},{"name":"港町","zip_code":"3000034"},{"name":"虫掛","zip_code":"3000066"},{"name":"紫ケ丘","zip_code":"3000003"},{"name":"桃園","zip_code":"3004112"},{"name":"矢作","zip_code":"3000801"},{"name":"大和町","zip_code":"3000036"},{"name":"若松町","zip_code":"3000063"}]},{"name":"古河市","divisions":[{"name":"旭町","zip_code":"3060012"},{"name":"新久田","zip_code":"3060044"},{"name":"砂井新田","zip_code":"3060224"},{"name":"磯部","zip_code":"3060225"},{"name":"稲宮","zip_code":"3060202"},{"name":"江口","zip_code":"3060105"},{"name":"大堤","zip_code":"3060236"},{"name":"大手町","zip_code":"3060032"},{"name":"大山","zip_code":"3060052"},{"name":"大和田","zip_code":"3060111"},{"name":"丘里","zip_code":"3060206"},{"name":"尾崎","zip_code":"3060101"},{"name":"女沼","zip_code":"3060226"},{"name":"恩名","zip_code":"3060104"},{"name":"葛生","zip_code":"3060211"},{"name":"上砂井","zip_code":"3060223"},{"name":"上大野","zip_code":"3060201"},{"name":"上片田","zip_code":"3060128"},{"name":"上辺見","zip_code":"3060234"},{"name":"上和田","zip_code":"3060122"},{"name":"北利根","zip_code":"3060213"},{"name":"北町","zip_code":"3060005"},{"name":"北間中橋","zip_code":"3060106"},{"name":"北山田","zip_code":"3060115"},{"name":"久能","zip_code":"3060212"},{"name":"けやき平","zip_code":"3060055"},{"name":"鴻巣","zip_code":"3060041"},{"name":"高野","zip_code":"3060214"},{"name":"古河","zip_code":"3060016"},{"name":"小堤","zip_code":"3060231"},{"name":"五部","zip_code":"3060123"},{"name":"駒ケ崎","zip_code":"3060045"},{"name":"駒込","zip_code":"3060121"},{"name":"駒羽根","zip_code":"3060221"},{"name":"幸町","zip_code":"3060024"},{"name":"坂間","zip_code":"3060056"},{"name":"桜町","zip_code":"3060036"},{"name":"三和","zip_code":"3060042"},{"name":"静町","zip_code":"3060001"},{"name":"下大野","zip_code":"3060204"},{"name":"下片田","zip_code":"3060127"},{"name":"下辺見","zip_code":"3060235"},{"name":"下山町","zip_code":"3060014"},{"name":"釈迦","zip_code":"3060222"},{"name":"新和田","zip_code":"3060116"},{"name":"関戸","zip_code":"3060205"},{"name":"立崎","zip_code":"3060047"},{"name":"茶屋新田","zip_code":"3060051"},{"name":"中央町","zip_code":"3060033"},{"name":"長左エ門新田","zip_code":"3060103"},{"name":"常盤町","zip_code":"3060007"},{"name":"鳥喰","zip_code":"3060043"},{"name":"中田","zip_code":"3060053"},{"name":"中田新田","zip_code":"3060054"},{"name":"名崎","zip_code":"3060110"},{"name":"西牛谷","zip_code":"3060233"},{"name":"錦町","zip_code":"3060037"},{"name":"西町","zip_code":"3060038"},{"name":"西間中橋","zip_code":"3060109"},{"name":"仁連","zip_code":"3060125"},{"name":"長谷","zip_code":"3060035"},{"name":"長谷町","zip_code":"3060034"},{"name":"原","zip_code":"3060026"},{"name":"原町","zip_code":"3060025"},{"name":"東","zip_code":"3060011"},{"name":"東牛谷","zip_code":"3060232"},{"name":"東本町","zip_code":"3060013"},{"name":"東間中橋","zip_code":"3060107"},{"name":"東諸川","zip_code":"3060124"},{"name":"東山田","zip_code":"3060112"},{"name":"平和町","zip_code":"3060006"},{"name":"本町","zip_code":"3060023"},{"name":"前林","zip_code":"3060216"},{"name":"牧野地","zip_code":"3060046"},{"name":"松並","zip_code":"3060021"},{"name":"水海","zip_code":"3060215"},{"name":"三杉町","zip_code":"3060002"},{"name":"緑町","zip_code":"3060003"},{"name":"南町","zip_code":"3060015"},{"name":"南間中橋","zip_code":"3060108"},{"name":"宮前町","zip_code":"3060031"},{"name":"諸川","zip_code":"3060126"},{"name":"谷貝","zip_code":"3060113"},{"name":"柳橋","zip_code":"3060203"},{"name":"山田","zip_code":"3060114"},{"name":"横山町","zip_code":"3060022"},{"name":"雷電町","zip_code":"3060004"}]},{"name":"石岡市","divisions":[{"name":"青田","zip_code":"3150148"},{"name":"旭台","zip_code":"3150038"},{"name":"荒金","zip_code":"3150021"},{"name":"池の台","zip_code":"3150030"},{"name":"石岡","zip_code":"3150001"},{"name":"石川","zip_code":"3150046"},{"name":"泉町","zip_code":"3150025"},{"name":"井関","zip_code":"3150047"},{"name":"宇治会","zip_code":"3150162"},{"name":"浦須","zip_code":"3150115"},{"name":"上曽","zip_code":"3150157"},{"name":"大砂","zip_code":"3150009"},{"name":"太田","zip_code":"3150102"},{"name":"大塚","zip_code":"3150105"},{"name":"大増","zip_code":"3150101"},{"name":"大谷津","zip_code":"3150036"},{"name":"小倉","zip_code":"3150165"},{"name":"小野越","zip_code":"3150144"},{"name":"小幡","zip_code":"3150155"},{"name":"小見","zip_code":"3150104"},{"name":"小山田","zip_code":"3150166"},{"name":"貝地","zip_code":"3150015"},{"name":"柿岡","zip_code":"3150116"},{"name":"柏原","zip_code":"3150002"},{"name":"柏原町","zip_code":"3150004"},{"name":"片岡","zip_code":"3150113"},{"name":"片野","zip_code":"3150136"},{"name":"金指","zip_code":"3150137"},{"name":"鹿の子","zip_code":"3150005"},{"name":"上青柳","zip_code":"3150154"},{"name":"上林","zip_code":"3150138"},{"name":"加生野","zip_code":"3150135"},{"name":"嘉良寿理","zip_code":"3150114"},{"name":"川又","zip_code":"3150134"},{"name":"瓦谷","zip_code":"3150111"},{"name":"北根本","zip_code":"3150044"},{"name":"北府中","zip_code":"3150012"},{"name":"鯨岡","zip_code":"3150163"},{"name":"碁石沢","zip_code":"3150010"},{"name":"小井戸","zip_code":"3150032"},{"name":"国府","zip_code":"3150014"},{"name":"小塙","zip_code":"3150161"},{"name":"小屋","zip_code":"3150164"},{"name":"栄松","zip_code":"3150019"},{"name":"佐久","zip_code":"3150117"},{"name":"柴内","zip_code":"3150143"},{"name":"柴間","zip_code":"3150124"},{"name":"下青柳","zip_code":"3150153"},{"name":"下林","zip_code":"3150131"},{"name":"正上内","zip_code":"3150011"},{"name":"菖蒲沢","zip_code":"3150146"},{"name":"須釜","zip_code":"3150151"},{"name":"杉並","zip_code":"3150027"},{"name":"杉の井","zip_code":"3150026"},{"name":"総社","zip_code":"3150016"},{"name":"染谷","zip_code":"3150007"},{"name":"高浜","zip_code":"3150045"},{"name":"田島","zip_code":"3150041"},{"name":"月岡","zip_code":"3150141"},{"name":"辻","zip_code":"3150147"},{"name":"東光台","zip_code":"3150033"},{"name":"中津川","zip_code":"3150043"},{"name":"中戸","zip_code":"3150103"},{"name":"並木","zip_code":"3150006"},{"name":"行里川","zip_code":"3150022"},{"name":"根当","zip_code":"3150029"},{"name":"根小屋","zip_code":"3150132"},{"name":"野田","zip_code":"3150118"},{"name":"八軒台","zip_code":"3150024"},{"name":"茨城","zip_code":"3150042"},{"name":"半田","zip_code":"3150133"},{"name":"半ノ木","zip_code":"3150028"},{"name":"東石岡","zip_code":"3150037"},{"name":"東大橋","zip_code":"3150031"},{"name":"東田中","zip_code":"3150034"},{"name":"東成井","zip_code":"3150122"},{"name":"東府中","zip_code":"3150023"},{"name":"府中","zip_code":"3150013"},{"name":"仏生寺","zip_code":"3150145"},{"name":"部原","zip_code":"3150112"},{"name":"細谷","zip_code":"3150152"},{"name":"真家","zip_code":"3150121"},{"name":"南台","zip_code":"3150035"},{"name":"三村","zip_code":"3150048"},{"name":"宮ケ崎","zip_code":"3150123"},{"name":"村上","zip_code":"3150008"},{"name":"山崎","zip_code":"3150125"},{"name":"谷向町","zip_code":"3150003"},{"name":"弓弦","zip_code":"3150142"},{"name":"吉生","zip_code":"3150156"},{"name":"龍明","zip_code":"3150167"},{"name":"若松","zip_code":"3150018"},{"name":"若宮","zip_code":"3150017"}]},{"name":"結城市","divisions":[{"name":"今宿","zip_code":"3070028"},{"name":"上成","zip_code":"3070045"},{"name":"江川大町","zip_code":"3070041"},{"name":"江川新宿","zip_code":"3070042"},{"name":"大木","zip_code":"3070031"},{"name":"大橋町","zip_code":"3070055"},{"name":"大谷瀬","zip_code":"3070002"},{"name":"小田林","zip_code":"3070007"},{"name":"粕礼","zip_code":"3070027"},{"name":"鹿窪","zip_code":"3070015"},{"name":"上山川","zip_code":"3070021"},{"name":"川木谷","zip_code":"3070005"},{"name":"久保田","zip_code":"3070012"},{"name":"国府町","zip_code":"3070051"},{"name":"五助","zip_code":"3070006"},{"name":"小森","zip_code":"3070011"},{"name":"山王","zip_code":"3070023"},{"name":"七五三場","zip_code":"3070038"},{"name":"城南町","zip_code":"3070054"},{"name":"新宿新田","zip_code":"3070034"},{"name":"新堤仲通り","zip_code":"3070016"},{"name":"新福寺","zip_code":"3070053"},{"name":"善右ヱ門新田","zip_code":"3070035"},{"name":"武井","zip_code":"3070043"},{"name":"田間","zip_code":"3070044"},{"name":"中央町","zip_code":"3070052"},{"name":"中","zip_code":"3070013"},{"name":"芳賀崎","zip_code":"3070026"},{"name":"浜野辺","zip_code":"3070025"},{"name":"林","zip_code":"3070014"},{"name":"東茂呂","zip_code":"3070037"},{"name":"富士見町","zip_code":"3070003"},{"name":"古宿新田","zip_code":"3070032"},{"name":"北南茂呂","zip_code":"3070036"},{"name":"水海道","zip_code":"3070024"},{"name":"みどり町","zip_code":"3070004"},{"name":"矢畑","zip_code":"3070022"},{"name":"山川新宿","zip_code":"3070033"},{"name":"結城","zip_code":"3070001"},{"name":"結城作","zip_code":"3070046"},{"name":"若宮","zip_code":"3070017"}]},{"name":"龍ケ崎市","divisions":[{"name":"東町","zip_code":"3010821"},{"name":"愛戸町","zip_code":"3010838"},{"name":"泉町","zip_code":"3010857"},{"name":"板橋町","zip_code":"3010801"},{"name":"稲荷新田町","zip_code":"3010045"},{"name":"入地町","zip_code":"3010046"},{"name":"薄倉町","zip_code":"3010805"},{"name":"大塚町","zip_code":"3010851"},{"name":"大留町","zip_code":"3010025"},{"name":"貝原塚町","zip_code":"3010856"},{"name":"門倉新田町","zip_code":"3010006"},{"name":"上大徳新町","zip_code":"3010817"},{"name":"上町","zip_code":"3010012"},{"name":"川崎町","zip_code":"3010048"},{"name":"川余郷","zip_code":"3010825"},{"name":"川原代町","zip_code":"3010005"},{"name":"北方町","zip_code":"3010021"},{"name":"久保台","zip_code":"3010001"},{"name":"高作町","zip_code":"3010802"},{"name":"光順田","zip_code":"3010822"},{"name":"向陽台","zip_code":"3010852"},{"name":"小柴","zip_code":"3010044"},{"name":"古城","zip_code":"3010834"},{"name":"小通幸谷町","zip_code":"3010034"},{"name":"米町","zip_code":"3010018"},{"name":"栄町","zip_code":"3010826"},{"name":"佐貫","zip_code":"3010032"},{"name":"佐貫町","zip_code":"3010033"},{"name":"佐沼町","zip_code":"3010812"},{"name":"下町","zip_code":"3010824"},{"name":"城ノ内","zip_code":"3010847"},{"name":"庄兵衛新田町","zip_code":"3010031"},{"name":"白羽","zip_code":"3010841"},{"name":"城下","zip_code":"3010833"},{"name":"新町","zip_code":"3010813"},{"name":"直鮒","zip_code":"3010815"},{"name":"須藤堀町","zip_code":"3010014"},{"name":"砂町","zip_code":"3010823"},{"name":"大徳町","zip_code":"3010816"},{"name":"高砂","zip_code":"3010814"},{"name":"高須町","zip_code":"3010026"},{"name":"出し山町","zip_code":"3010839"},{"name":"田町","zip_code":"3010835"},{"name":"寺後","zip_code":"3010836"},{"name":"豊田町","zip_code":"3010024"},{"name":"中里","zip_code":"3010854"},{"name":"中根台","zip_code":"3010002"},{"name":"長沖新田町","zip_code":"3010016"},{"name":"長沖町","zip_code":"3010015"},{"name":"長峰町","zip_code":"3010804"},{"name":"長山","zip_code":"3010042"},{"name":"奈戸岡","zip_code":"3010845"},{"name":"馴馬町","zip_code":"3010004"},{"name":"馴柴町","zip_code":"3010007"},{"name":"塗戸町","zip_code":"3010803"},{"name":"根町","zip_code":"3010837"},{"name":"羽黒町","zip_code":"3010023"},{"name":"羽原町","zip_code":"3010843"},{"name":"半田町","zip_code":"3010806"},{"name":"稗柄町","zip_code":"3010035"},{"name":"姫宮町","zip_code":"3010017"},{"name":"平台","zip_code":"3010003"},{"name":"平畑","zip_code":"3010844"},{"name":"藤ケ丘","zip_code":"3010855"},{"name":"別所町","zip_code":"3010846"},{"name":"松ケ丘","zip_code":"3010853"},{"name":"松葉","zip_code":"3010043"},{"name":"水門","zip_code":"3010013"},{"name":"緑町","zip_code":"3010832"},{"name":"南が丘","zip_code":"3010022"},{"name":"南中島町","zip_code":"3010047"},{"name":"宮渕町","zip_code":"3010811"},{"name":"八代町","zip_code":"3010842"},{"name":"野原町","zip_code":"3010831"},{"name":"横町","zip_code":"3010011"},{"name":"若柴町","zip_code":"3010041"}]},{"name":"下妻市","divisions":[{"name":"赤須","zip_code":"3040074"},{"name":"伊古立","zip_code":"3040803"},{"name":"石の宮","zip_code":"3040057"},{"name":"今泉","zip_code":"3040053"},{"name":"江","zip_code":"3040002"},{"name":"大木","zip_code":"3040004"},{"name":"大木新田","zip_code":"3040025"},{"name":"大串","zip_code":"3040023"},{"name":"大園木","zip_code":"3040801"},{"name":"長萱","zip_code":"3040804"},{"name":"小島","zip_code":"3040051"},{"name":"小野子町","zip_code":"3040063"},{"name":"数須","zip_code":"3040016"},{"name":"鎌庭","zip_code":"3040819"},{"name":"亀崎","zip_code":"3040050"},{"name":"加養","zip_code":"3040048"},{"name":"唐崎","zip_code":"3040805"},{"name":"北大宝","zip_code":"3040021"},{"name":"鬼怒","zip_code":"3040818"},{"name":"桐ケ瀬","zip_code":"3040073"},{"name":"鯨","zip_code":"3040802"},{"name":"黒駒","zip_code":"3040007"},{"name":"五箇","zip_code":"3040823"},{"name":"坂井","zip_code":"3040034"},{"name":"坂本新田","zip_code":"3040024"},{"name":"砂沼新田","zip_code":"3040055"},{"name":"下宮","zip_code":"3040013"},{"name":"尻手","zip_code":"3040071"},{"name":"柴","zip_code":"3040006"},{"name":"渋井","zip_code":"3040072"},{"name":"渋田","zip_code":"3040815"},{"name":"下木戸","zip_code":"3040028"},{"name":"下栗","zip_code":"3040811"},{"name":"下田","zip_code":"3040015"},{"name":"下妻甲","zip_code":"3040066"},{"name":"下妻乙","zip_code":"3040067"},{"name":"下妻丙","zip_code":"3040061"},{"name":"下妻丁","zip_code":"3040068"},{"name":"下妻戊","zip_code":"3040062"},{"name":"神明","zip_code":"3040011"},{"name":"関本下","zip_code":"3040003"},{"name":"宗道","zip_code":"3040814"},{"name":"大宝","zip_code":"3040022"},{"name":"高道祖","zip_code":"3040031"},{"name":"田下","zip_code":"3040812"},{"name":"田町","zip_code":"3040069"},{"name":"筑波島","zip_code":"3040017"},{"name":"中居指","zip_code":"3040054"},{"name":"中郷","zip_code":"3040014"},{"name":"長塚","zip_code":"3040056"},{"name":"新堀","zip_code":"3040049"},{"name":"二本紀","zip_code":"3040052"},{"name":"羽子","zip_code":"3040817"},{"name":"原","zip_code":"3040816"},{"name":"半谷","zip_code":"3040005"},{"name":"比毛","zip_code":"3040032"},{"name":"肘谷","zip_code":"3040047"},{"name":"樋橋","zip_code":"3040046"},{"name":"平方","zip_code":"3040001"},{"name":"平川戸","zip_code":"3040018"},{"name":"平沼","zip_code":"3040026"},{"name":"福田","zip_code":"3040027"},{"name":"袋畑","zip_code":"3040042"},{"name":"古沢","zip_code":"3040041"},{"name":"別府","zip_code":"3040821"},{"name":"堀篭","zip_code":"3040033"},{"name":"本宿町","zip_code":"3040065"},{"name":"本宗道","zip_code":"3040813"},{"name":"前河原","zip_code":"3040076"},{"name":"見田","zip_code":"3040806"},{"name":"皆葉","zip_code":"3040822"},{"name":"南原","zip_code":"3040075"},{"name":"村岡","zip_code":"3040824"},{"name":"本城町","zip_code":"3040064"},{"name":"柳原","zip_code":"3040044"},{"name":"谷田部","zip_code":"3040043"},{"name":"山尻","zip_code":"3040045"},{"name":"横根","zip_code":"3040035"},{"name":"若柳","zip_code":"3040012"}]},{"name":"常総市","divisions":[{"name":"相野谷町","zip_code":"3030002"},{"name":"東町","zip_code":"3030011"},{"name":"新井木町","zip_code":"3030016"},{"name":"伊左衛門新田町","zip_code":"3002525"},{"name":"内守谷町","zip_code":"3030043"},{"name":"内守谷町きぬの里","zip_code":"3030046"},{"name":"大崎町","zip_code":"3030012"},{"name":"大沢","zip_code":"3002727"},{"name":"大沢新田","zip_code":"3002745"},{"name":"大塚戸町","zip_code":"3030045"},{"name":"大生郷新田町","zip_code":"3002526"},{"name":"大生郷町","zip_code":"3002521"},{"name":"大輪町","zip_code":"3002512"},{"name":"岡田","zip_code":"3002743"},{"name":"沖新田町","zip_code":"3002504"},{"name":"小保川","zip_code":"3002703"},{"name":"川崎町","zip_code":"3002503"},{"name":"蔵持","zip_code":"3002722"},{"name":"蔵持新田","zip_code":"3002723"},{"name":"栗山新田","zip_code":"3002734"},{"name":"鴻野山","zip_code":"3002746"},{"name":"鴻野山新田","zip_code":"3002732"},{"name":"国生","zip_code":"3002741"},{"name":"小山戸町","zip_code":"3030006"},{"name":"五郎兵衛新田町","zip_code":"3002524"},{"name":"坂手町","zip_code":"3030042"},{"name":"崎房","zip_code":"3002747"},{"name":"笹塚新田町","zip_code":"3002523"},{"name":"左平太新田","zip_code":"3002735"},{"name":"篠山","zip_code":"3002721"},{"name":"十花町","zip_code":"3030018"},{"name":"上蛇町","zip_code":"3002502"},{"name":"新石下","zip_code":"3002706"},{"name":"菅生町","zip_code":"3030044"},{"name":"杉山","zip_code":"3002744"},{"name":"収納谷","zip_code":"3002713"},{"name":"大房","zip_code":"3002716"},{"name":"舘方","zip_code":"3002704"},{"name":"長助町","zip_code":"3030015"},{"name":"東野原","zip_code":"3002717"},{"name":"豊岡町","zip_code":"3030041"},{"name":"豊田","zip_code":"3002705"},{"name":"中妻町","zip_code":"3002505"},{"name":"中沼","zip_code":"3002726"},{"name":"中山町","zip_code":"3030001"},{"name":"花島町","zip_code":"3002511"},{"name":"羽生町","zip_code":"3002513"},{"name":"馬場","zip_code":"3002748"},{"name":"馬場新田","zip_code":"3002733"},{"name":"原宿","zip_code":"3002702"},{"name":"兵町","zip_code":"3030014"},{"name":"福二町","zip_code":"3002501"},{"name":"古間木","zip_code":"3002724"},{"name":"古間木新田","zip_code":"3002731"},{"name":"古間木沼新田","zip_code":"3002725"},{"name":"平内","zip_code":"3002714"},{"name":"平町","zip_code":"3030017"},{"name":"曲田","zip_code":"3002712"},{"name":"孫兵ヱ新田","zip_code":"3002736"},{"name":"三坂新田町","zip_code":"3002507"},{"name":"三坂町","zip_code":"3002506"},{"name":"水海道亀岡町","zip_code":"3030025"},{"name":"水海道川又町","zip_code":"3030032"},{"name":"水海道高野町","zip_code":"3030033"},{"name":"水海道栄町","zip_code":"3030024"},{"name":"水海道諏訪町","zip_code":"3030021"},{"name":"水海道宝町","zip_code":"3030023"},{"name":"水海道天満町","zip_code":"3030034"},{"name":"水海道橋本町","zip_code":"3030003"},{"name":"水海道淵頭町","zip_code":"3030022"},{"name":"水海道本町","zip_code":"3030026"},{"name":"水海道元町","zip_code":"3030004"},{"name":"水海道森下町","zip_code":"3030005"},{"name":"水海道山田町","zip_code":"3030031"},{"name":"箕輪町","zip_code":"3030013"},{"name":"向石下","zip_code":"3002742"},{"name":"本石下","zip_code":"3002707"},{"name":"本豊田","zip_code":"3002711"},{"name":"山口","zip_code":"3002715"},{"name":"横曽根新田町","zip_code":"3002522"},{"name":"若宮戸","zip_code":"3002701"}]},{"name":"常陸太田市","divisions":[{"name":"赤土町","zip_code":"3130102"},{"name":"芦間町","zip_code":"3130121"},{"name":"新地町","zip_code":"3130132"},{"name":"新宿町","zip_code":"3130007"},{"name":"粟原町","zip_code":"3130045"},{"name":"磯部町","zip_code":"3130042"},{"name":"稲木町","zip_code":"3130041"},{"name":"岩手町","zip_code":"3130112"},{"name":"内田町","zip_code":"3130037"},{"name":"内堀町","zip_code":"3130063"},{"name":"大方町","zip_code":"3130116"},{"name":"大里町","zip_code":"3130125"},{"name":"大菅町","zip_code":"3110508"},{"name":"大平町","zip_code":"3130124"},{"name":"大中町","zip_code":"3110505"},{"name":"大森町","zip_code":"3130021"},{"name":"岡田町","zip_code":"3130031"},{"name":"小沢町","zip_code":"3130038"},{"name":"小島町","zip_code":"3130135"},{"name":"落合町","zip_code":"3130036"},{"name":"小目町","zip_code":"3130033"},{"name":"折橋町","zip_code":"3110506"},{"name":"堅磐町","zip_code":"3130035"},{"name":"金井町","zip_code":"3130016"},{"name":"上大門町","zip_code":"3130001"},{"name":"上河合町","zip_code":"3130046"},{"name":"上高倉町","zip_code":"3130353"},{"name":"上土木内町","zip_code":"3130034"},{"name":"上利員町","zip_code":"3130104"},{"name":"上深荻町","zip_code":"3110509"},{"name":"上宮河内町","zip_code":"3130101"},{"name":"亀作町","zip_code":"3130023"},{"name":"河内西町","zip_code":"3110301"},{"name":"木崎一町","zip_code":"3130015"},{"name":"木崎二町","zip_code":"3130014"},{"name":"薬谷町","zip_code":"3130126"},{"name":"国安町","zip_code":"3130221"},{"name":"久米町","zip_code":"3130123"},{"name":"天下野町","zip_code":"3130351"},{"name":"小菅町","zip_code":"3110507"},{"name":"小妻町","zip_code":"3110503"},{"name":"寿町","zip_code":"3130064"},{"name":"小中町","zip_code":"3110504"},{"name":"栄町","zip_code":"3130005"},{"name":"里川町","zip_code":"3110501"},{"name":"里野宮町","zip_code":"3110325"},{"name":"沢目町","zip_code":"3130032"},{"name":"三才町","zip_code":"3130012"},{"name":"島町","zip_code":"3130047"},{"name":"下大門町","zip_code":"3130002"},{"name":"下河合町","zip_code":"3130044"},{"name":"下高倉町","zip_code":"3130352"},{"name":"下利員町","zip_code":"3130106"},{"name":"下宮河内町","zip_code":"3130103"},{"name":"常福地町","zip_code":"3110322"},{"name":"白羽町","zip_code":"3110324"},{"name":"瑞龍町","zip_code":"3130003"},{"name":"千寿町","zip_code":"3130111"},{"name":"高柿町","zip_code":"3130113"},{"name":"高貫町","zip_code":"3130024"},{"name":"竹合町","zip_code":"3130115"},{"name":"棚谷町","zip_code":"3130225"},{"name":"玉造町","zip_code":"3130122"},{"name":"田渡町","zip_code":"3130026"},{"name":"茅根町","zip_code":"3110323"},{"name":"天神林町","zip_code":"3130049"},{"name":"東連地町","zip_code":"3130224"},{"name":"徳田町","zip_code":"3110502"},{"name":"中城町","zip_code":"3130061"},{"name":"中染町","zip_code":"3130212"},{"name":"中利員町","zip_code":"3130105"},{"name":"中野町","zip_code":"3130134"},{"name":"西一町","zip_code":"3130056"},{"name":"西二町","zip_code":"3130055"},{"name":"西三町","zip_code":"3130054"},{"name":"西河内上町","zip_code":"3110314"},{"name":"西河内中町","zip_code":"3110313"},{"name":"西河内下町","zip_code":"3110312"},{"name":"西染町","zip_code":"3130215"},{"name":"西宮町","zip_code":"3130011"},{"name":"長谷町","zip_code":"3130027"},{"name":"幡町","zip_code":"3130025"},{"name":"花房町","zip_code":"3130131"},{"name":"塙町","zip_code":"3130062"},{"name":"馬場町","zip_code":"3130004"},{"name":"春友町","zip_code":"3110321"},{"name":"東一町","zip_code":"3130051"},{"name":"東二町","zip_code":"3130052"},{"name":"東三町","zip_code":"3130053"},{"name":"東染町","zip_code":"3130211"},{"name":"藤田町","zip_code":"3130048"},{"name":"増井町","zip_code":"3130008"},{"name":"町田町","zip_code":"3130213"},{"name":"町屋町","zip_code":"3110311"},{"name":"松栄町","zip_code":"3130133"},{"name":"松平町","zip_code":"3130222"},{"name":"真弓町","zip_code":"3130022"},{"name":"箕町","zip_code":"3130114"},{"name":"宮の郷町","zip_code":"3130117"},{"name":"宮本町","zip_code":"3130006"},{"name":"谷河原町","zip_code":"3130043"},{"name":"山下町","zip_code":"3130013"},{"name":"和久町","zip_code":"3130214"},{"name":"和田町","zip_code":"3130223"}]},{"name":"高萩市","divisions":[{"name":"赤浜","zip_code":"3180001"},{"name":"秋山","zip_code":"3180024"},{"name":"安良川","zip_code":"3180021"},{"name":"有明町","zip_code":"3180012"},{"name":"石滝","zip_code":"3180022"},{"name":"大能","zip_code":"3180103"},{"name":"春日町","zip_code":"3180031"},{"name":"上君田","zip_code":"3180105"},{"name":"上手綱","zip_code":"3180004"},{"name":"島名","zip_code":"3180023"},{"name":"下君田","zip_code":"3180106"},{"name":"下手綱","zip_code":"3180003"},{"name":"高戸","zip_code":"3180002"},{"name":"高萩","zip_code":"3180034"},{"name":"高浜町","zip_code":"3180013"},{"name":"中戸川","zip_code":"3180104"},{"name":"東本町","zip_code":"3180014"},{"name":"肥前町","zip_code":"3180011"},{"name":"福平","zip_code":"3180025"},{"name":"望海","zip_code":"3180005"},{"name":"本町","zip_code":"3180033"},{"name":"大和町","zip_code":"3180032"},{"name":"横川","zip_code":"3180101"},{"name":"若栗","zip_code":"3180102"}]},{"name":"北茨城市","divisions":[{"name":"磯原町磯原","zip_code":"3191541"},{"name":"磯原町内野","zip_code":"3191547"},{"name":"磯原町大塚","zip_code":"3191546"},{"name":"磯原町上相田","zip_code":"3191544"},{"name":"磯原町木皿","zip_code":"3191545"},{"name":"磯原町豊田","zip_code":"3191543"},{"name":"磯原町本町","zip_code":"3191542"},{"name":"大津町","zip_code":"3191702"},{"name":"大津町五浦","zip_code":"3191703"},{"name":"大津町北町","zip_code":"3191704"},{"name":"関南町神岡上","zip_code":"3191714"},{"name":"関南町神岡下","zip_code":"3191715"},{"name":"関南町里根川","zip_code":"3191712"},{"name":"関南町関本下","zip_code":"3191711"},{"name":"関南町仁井田","zip_code":"3191713"},{"name":"関本町小川","zip_code":"3191727"},{"name":"関本町才丸","zip_code":"3191726"},{"name":"関本町関本上","zip_code":"3191721"},{"name":"関本町関本中","zip_code":"3191723"},{"name":"関本町八反","zip_code":"3191724"},{"name":"関本町福田","zip_code":"3191722"},{"name":"関本町富士ケ丘","zip_code":"3191725"},{"name":"中郷町足洗","zip_code":"3191552"},{"name":"中郷町粟野","zip_code":"3191554"},{"name":"中郷町石岡","zip_code":"3191558"},{"name":"中郷町小野矢指","zip_code":"3191555"},{"name":"中郷町上桜井","zip_code":"3191559"},{"name":"中郷町汐見ケ丘","zip_code":"3191553"},{"name":"中郷町下桜井","zip_code":"3191551"},{"name":"中郷町日棚","zip_code":"3191556"},{"name":"中郷町松井","zip_code":"3191557"},{"name":"華川町小豆畑","zip_code":"3191538"},{"name":"華川町臼場","zip_code":"3191535"},{"name":"華川町上小津田","zip_code":"3191532"},{"name":"華川町下小津田","zip_code":"3191533"},{"name":"華川町車","zip_code":"3191534"},{"name":"華川町下相田","zip_code":"3191537"},{"name":"華川町中妻","zip_code":"3191536"},{"name":"華川町花園","zip_code":"3191531"},{"name":"平潟町","zip_code":"3191701"}]},{"name":"笠間市","divisions":[{"name":"赤坂","zip_code":"3091616"},{"name":"安居","zip_code":"3190206"},{"name":"旭町","zip_code":"3091717"},{"name":"飯合","zip_code":"3091632"},{"name":"飯田","zip_code":"3091605"},{"name":"池野辺","zip_code":"3091602"},{"name":"石井","zip_code":"3091613"},{"name":"石寺","zip_code":"3091607"},{"name":"泉","zip_code":"3190209"},{"name":"市野谷","zip_code":"3190208"},{"name":"稲田","zip_code":"3091635"},{"name":"大郷戸","zip_code":"3091636"},{"name":"大古山","zip_code":"3091724"},{"name":"大田町","zip_code":"3091738"},{"name":"大橋","zip_code":"3091601"},{"name":"大渕","zip_code":"3091604"},{"name":"押辺","zip_code":"3190205"},{"name":"小原","zip_code":"3091701"},{"name":"笠間","zip_code":"3091611"},{"name":"柏井","zip_code":"3091713"},{"name":"片庭","zip_code":"3091637"},{"name":"金井","zip_code":"3091615"},{"name":"上市原","zip_code":"3091731"},{"name":"上加賀田","zip_code":"3091623"},{"name":"上郷","zip_code":"3190201"},{"name":"北吉原","zip_code":"3091624"},{"name":"来栖","zip_code":"3091625"},{"name":"鯉淵","zip_code":"3091703"},{"name":"鴻巣","zip_code":"3091706"},{"name":"五平","zip_code":"3091702"},{"name":"下市毛","zip_code":"3091626"},{"name":"下市原","zip_code":"3091733"},{"name":"下加賀田","zip_code":"3091726"},{"name":"下郷","zip_code":"3190202"},{"name":"住吉","zip_code":"3091716"},{"name":"平町","zip_code":"3091722"},{"name":"中央","zip_code":"3091737"},{"name":"手越","zip_code":"3091621"},{"name":"寺崎","zip_code":"3091614"},{"name":"友部駅前","zip_code":"3091735"},{"name":"中市原","zip_code":"3091732"},{"name":"長兎路","zip_code":"3091712"},{"name":"随分附","zip_code":"3091711"},{"name":"仁古田","zip_code":"3091714"},{"name":"箱田","zip_code":"3091631"},{"name":"土師","zip_code":"3190204"},{"name":"橋爪","zip_code":"3091721"},{"name":"東平","zip_code":"3091705"},{"name":"日沢","zip_code":"3091606"},{"name":"日草場","zip_code":"3091612"},{"name":"福島","zip_code":"3190207"},{"name":"福田","zip_code":"3091603"},{"name":"福原","zip_code":"3091634"},{"name":"南小泉","zip_code":"3091725"},{"name":"南友部","zip_code":"3091734"},{"name":"南吉原","zip_code":"3091622"},{"name":"美原","zip_code":"3091704"},{"name":"本戸","zip_code":"3091633"},{"name":"八雲","zip_code":"3091736"},{"name":"矢野下","zip_code":"3091723"},{"name":"湯崎","zip_code":"3091715"},{"name":"吉岡","zip_code":"3190203"}]},{"name":"取手市","divisions":[{"name":"青柳","zip_code":"3020006"},{"name":"市之代","zip_code":"3020037"},{"name":"稲","zip_code":"3020026"},{"name":"井野","zip_code":"3020011"},{"name":"井野台","zip_code":"3020015"},{"name":"井野団地","zip_code":"3020012"},{"name":"大留","zip_code":"3001523"},{"name":"小堀","zip_code":"3020003"},{"name":"大曲","zip_code":"3001503"},{"name":"岡","zip_code":"3001546"},{"name":"押切","zip_code":"3001521"},{"name":"小文間","zip_code":"3020001"},{"name":"貝塚","zip_code":"3020036"},{"name":"神住","zip_code":"3001542"},{"name":"片町","zip_code":"3001513"},{"name":"上萱場","zip_code":"3001506"},{"name":"上高井","zip_code":"3020035"},{"name":"萱場","zip_code":"3001504"},{"name":"神浦","zip_code":"3001524"},{"name":"椚木","zip_code":"3001511"},{"name":"桑原","zip_code":"3020017"},{"name":"毛有","zip_code":"3001537"},{"name":"小泉","zip_code":"3001539"},{"name":"光風台","zip_code":"3001536"},{"name":"小浮気","zip_code":"3001531"},{"name":"駒場","zip_code":"3020027"},{"name":"米ノ井","zip_code":"3020033"},{"name":"桜が丘","zip_code":"3001525"},{"name":"山王","zip_code":"3001544"},{"name":"紫水","zip_code":"3001508"},{"name":"渋沼","zip_code":"3001534"},{"name":"清水","zip_code":"3001535"},{"name":"下萱場","zip_code":"3001505"},{"name":"下高井","zip_code":"3020038"},{"name":"新川","zip_code":"3001502"},{"name":"新取手","zip_code":"3020031"},{"name":"新町","zip_code":"3020024"},{"name":"台宿","zip_code":"3020013"},{"name":"高須","zip_code":"3001522"},{"name":"中央町","zip_code":"3020014"},{"name":"長兵衛新田","zip_code":"3020002"},{"name":"寺田","zip_code":"3020021"},{"name":"戸頭","zip_code":"3020034"},{"name":"取手","zip_code":"3020004"},{"name":"中内","zip_code":"3001543"},{"name":"中田","zip_code":"3001533"},{"name":"中原町","zip_code":"3020016"},{"name":"西","zip_code":"3020025"},{"name":"野々井","zip_code":"3020032"},{"name":"配松","zip_code":"3001541"},{"name":"白山","zip_code":"3020023"},{"name":"浜田","zip_code":"3001507"},{"name":"東","zip_code":"3020005"},{"name":"平野","zip_code":"3001515"},{"name":"藤代","zip_code":"3001512"},{"name":"藤代南","zip_code":"3001516"},{"name":"双葉","zip_code":"3001501"},{"name":"本郷","zip_code":"3020022"},{"name":"宮和田","zip_code":"3001514"},{"name":"谷中","zip_code":"3001532"},{"name":"ゆめみ野","zip_code":"3020039"},{"name":"吉田","zip_code":"3020007"},{"name":"米田","zip_code":"3001538"},{"name":"和田","zip_code":"3001545"}]},{"name":"牛久市","divisions":[{"name":"井ノ岡町","zip_code":"3001282"},{"name":"牛久町","zip_code":"3001221"},{"name":"岡見町","zip_code":"3001204"},{"name":"奥原町","zip_code":"3001283"},{"name":"小坂町","zip_code":"3001286"},{"name":"女化町","zip_code":"3001214"},{"name":"柏田町","zip_code":"3001211"},{"name":"桂町","zip_code":"3001281"},{"name":"上太田町","zip_code":"3001213"},{"name":"上柏田","zip_code":"3001232"},{"name":"神谷","zip_code":"3001216"},{"name":"刈谷町","zip_code":"3001235"},{"name":"久野町","zip_code":"3001288"},{"name":"結束町","zip_code":"3001212"},{"name":"栄町","zip_code":"3001233"},{"name":"さくら台","zip_code":"3001217"},{"name":"猪子町","zip_code":"3001231"},{"name":"島田町","zip_code":"3001284"},{"name":"下根町","zip_code":"3001203"},{"name":"正直町","zip_code":"3001285"},{"name":"城中町","zip_code":"3001223"},{"name":"庄兵衛新田町","zip_code":"3001224"},{"name":"新地町","zip_code":"3001225"},{"name":"田宮","zip_code":"3001237"},{"name":"田宮町","zip_code":"3001236"},{"name":"中央","zip_code":"3001234"},{"name":"遠山町","zip_code":"3001215"},{"name":"中根町","zip_code":"3001202"},{"name":"東大和田町","zip_code":"3001205"},{"name":"東猯穴町","zip_code":"3001201"},{"name":"ひたち野西","zip_code":"3001206"},{"name":"ひたち野東","zip_code":"3001207"},{"name":"福田町","zip_code":"3001287"},{"name":"南","zip_code":"3001222"}]},{"name":"つくば市","divisions":[{"name":"赤塚","zip_code":"3050062"},{"name":"明石","zip_code":"3004203"},{"name":"旭","zip_code":"3050804"},{"name":"安食","zip_code":"3004205"},{"name":"あしび野","zip_code":"3001261"},{"name":"吾妻","zip_code":"3050031"},{"name":"天久保","zip_code":"3050005"},{"name":"天宝喜","zip_code":"3001253"},{"name":"新井","zip_code":"3050835"},{"name":"新牧田","zip_code":"3050076"},{"name":"飯田","zip_code":"3050874"},{"name":"池田","zip_code":"3004243"},{"name":"池の台","zip_code":"3050901"},{"name":"池向","zip_code":"3001269"},{"name":"泉","zip_code":"3004235"},{"name":"磯部","zip_code":"3004248"},{"name":"市之台","zip_code":"3050073"},{"name":"稲岡","zip_code":"3050071"},{"name":"稲荷原","zip_code":"3001259"},{"name":"稲荷前","zip_code":"3050061"},{"name":"今泉","zip_code":"3050855"},{"name":"今鹿島","zip_code":"3002641"},{"name":"上野","zip_code":"3050002"},{"name":"上ノ室","zip_code":"3050023"},{"name":"臼井","zip_code":"3004211"},{"name":"梅ケ丘","zip_code":"3001275"},{"name":"梅園","zip_code":"3050045"},{"name":"漆所","zip_code":"3004216"},{"name":"榎戸","zip_code":"3050853"},{"name":"大","zip_code":"3050016"},{"name":"大井","zip_code":"3001243"},{"name":"大形","zip_code":"3004221"},{"name":"大久保","zip_code":"3002611"},{"name":"大白硲","zip_code":"3050845"},{"name":"大砂","zip_code":"3002612"},{"name":"大曽根","zip_code":"3003253"},{"name":"大貫","zip_code":"3004218"},{"name":"大舟戸","zip_code":"3001267"},{"name":"大穂","zip_code":"3050801"},{"name":"大わし","zip_code":"3050851"},{"name":"岡村新田","zip_code":"3050026"},{"name":"小茎","zip_code":"3001255"},{"name":"長高野","zip_code":"3003265"},{"name":"小沢","zip_code":"3004215"},{"name":"小田","zip_code":"3004223"},{"name":"鬼ケ窪","zip_code":"3002651"},{"name":"小野川","zip_code":"3050053"},{"name":"小野崎","zip_code":"3050034"},{"name":"面野井","zip_code":"3002653"},{"name":"学園の森","zip_code":"3050816"},{"name":"学園南","zip_code":"3050818"},{"name":"梶内","zip_code":"3050064"},{"name":"鹿島台","zip_code":"3003254"},{"name":"春日","zip_code":"3050821"},{"name":"片田","zip_code":"3050877"},{"name":"葛城根崎","zip_code":"3050824"},{"name":"香取台","zip_code":"3002657"},{"name":"要","zip_code":"3002622"},{"name":"上岩崎","zip_code":"3001274"},{"name":"上大島","zip_code":"3004351"},{"name":"上萱丸","zip_code":"3050871"},{"name":"かみかわ","zip_code":"3002668"},{"name":"上河原崎","zip_code":"3002661"},{"name":"上郷","zip_code":"3002645"},{"name":"上境","zip_code":"3050011"},{"name":"上里","zip_code":"3002614"},{"name":"上沢","zip_code":"3004246"},{"name":"上菅間","zip_code":"3004241"},{"name":"上原","zip_code":"3050055"},{"name":"上広岡","zip_code":"3050041"},{"name":"上横場","zip_code":"3050854"},{"name":"苅間","zip_code":"3050822"},{"name":"神郡","zip_code":"3004212"},{"name":"観音台","zip_code":"3050856"},{"name":"吉瀬","zip_code":"3050022"},{"name":"北太田","zip_code":"3004232"},{"name":"北郷","zip_code":"3050811"},{"name":"北中島","zip_code":"3050072"},{"name":"北中妻","zip_code":"3050066"},{"name":"北原","zip_code":"3003266"},{"name":"君島","zip_code":"3004233"},{"name":"茎崎","zip_code":"3001272"},{"name":"国松","zip_code":"3004354"},{"name":"九万坪","zip_code":"3001262"},{"name":"倉掛","zip_code":"3050024"},{"name":"栗原","zip_code":"3050001"},{"name":"研究学園","zip_code":"3050817"},{"name":"小泉","zip_code":"3004236"},{"name":"高野","zip_code":"3002642"},{"name":"高野台","zip_code":"3050074"},{"name":"高野原新田","zip_code":"3004202"},{"name":"小白硲","zip_code":"3050844"},{"name":"五人受","zip_code":"3002616"},{"name":"木俣","zip_code":"3002644"},{"name":"駒込","zip_code":"3001277"},{"name":"小山","zip_code":"3001276"},{"name":"小和田","zip_code":"3004224"},{"name":"金田","zip_code":"3050018"},{"name":"佐","zip_code":"3003251"},{"name":"妻木","zip_code":"3050028"},{"name":"西郷","zip_code":"3050036"},{"name":"境田","zip_code":"3050867"},{"name":"境松","zip_code":"3050864"},{"name":"栄","zip_code":"3050013"},{"name":"桜","zip_code":"3050003"},{"name":"桜が丘","zip_code":"3001271"},{"name":"さくらの森","zip_code":"3050019"},{"name":"酒丸","zip_code":"3002637"},{"name":"大角豆","zip_code":"3050043"},{"name":"篠崎","zip_code":"3003264"},{"name":"柴崎","zip_code":"3050004"},{"name":"島","zip_code":"3050833"},{"name":"島名","zip_code":"3002655"},{"name":"下岩崎","zip_code":"3001273"},{"name":"下大島","zip_code":"3004222"},{"name":"下萱丸","zip_code":"3050872"},{"name":"下河原崎","zip_code":"3002662"},{"name":"下原","zip_code":"3050063"},{"name":"下平塚","zip_code":"3050813"},{"name":"下広岡","zip_code":"3050042"},{"name":"下別府","zip_code":"3002666"},{"name":"下横場","zip_code":"3050075"},{"name":"自由ケ丘","zip_code":"3001266"},{"name":"松栄","zip_code":"3050014"},{"name":"城山","zip_code":"3001251"},{"name":"陣場","zip_code":"3050847"},{"name":"菅間","zip_code":"3001246"},{"name":"杉木","zip_code":"3004217"},{"name":"諏訪","zip_code":"3002658"},{"name":"千現","zip_code":"3050047"},{"name":"台町","zip_code":"3050868"},{"name":"平","zip_code":"3050846"},{"name":"高崎","zip_code":"3001245"},{"name":"高須賀","zip_code":"3002665"},{"name":"高田","zip_code":"3002652"},{"name":"鷹野原","zip_code":"3050077"},{"name":"高見原","zip_code":"3001252"},{"name":"高山","zip_code":"3002669"},{"name":"高良田","zip_code":"3002664"},{"name":"田倉","zip_code":"3002615"},{"name":"竹園","zip_code":"3050032"},{"name":"立原","zip_code":"3050802"},{"name":"館野","zip_code":"3050067"},{"name":"田中","zip_code":"3004244"},{"name":"玉取","zip_code":"3003255"},{"name":"田水山","zip_code":"3004251"},{"name":"筑波","zip_code":"3004352"},{"name":"筑穂","zip_code":"3003257"},{"name":"作谷","zip_code":"3004204"},{"name":"土田","zip_code":"3002636"},{"name":"手子生","zip_code":"3002647"},{"name":"手代木","zip_code":"3050834"},{"name":"寺具","zip_code":"3004201"},{"name":"天王台","zip_code":"3050006"},{"name":"東光台","zip_code":"3002635"},{"name":"遠東","zip_code":"3002633"},{"name":"豊里の杜","zip_code":"3002648"},{"name":"中内","zip_code":"3050068"},{"name":"中菅間","zip_code":"3004242"},{"name":"中根","zip_code":"3050012"},{"name":"中野","zip_code":"3050873"},{"name":"中東原新田","zip_code":"3002634"},{"name":"中別府","zip_code":"3002667"},{"name":"長峰","zip_code":"3050052"},{"name":"中山","zip_code":"3001268"},{"name":"鍋沼新田","zip_code":"3002663"},{"name":"並木","zip_code":"3050044"},{"name":"西大井","zip_code":"3001260"},{"name":"西大沼","zip_code":"3050054"},{"name":"西大橋","zip_code":"3050831"},{"name":"西岡","zip_code":"3050832"},{"name":"西栗山","zip_code":"3050876"},{"name":"西高野","zip_code":"3002613"},{"name":"西沢","zip_code":"3002624"},{"name":"西の沢","zip_code":"3050902"},{"name":"西原","zip_code":"3050815"},{"name":"西平塚","zip_code":"3050814"},{"name":"二の宮","zip_code":"3050051"},{"name":"沼崎","zip_code":"3002631"},{"name":"沼田","zip_code":"3004353"},{"name":"根崎","zip_code":"3050865"},{"name":"野畑","zip_code":"3002643"},{"name":"蓮沼","zip_code":"3003262"},{"name":"八幡台","zip_code":"3050843"},{"name":"百家","zip_code":"3002638"},{"name":"泊崎","zip_code":"3001264"},{"name":"花島新田","zip_code":"3050875"},{"name":"花園","zip_code":"3050029"},{"name":"花畑","zip_code":"3050805"},{"name":"花室","zip_code":"3050025"},{"name":"羽成","zip_code":"3050857"},{"name":"原","zip_code":"3050823"},{"name":"春風台","zip_code":"3050007"},{"name":"万博公園西","zip_code":"3002659"},{"name":"東","zip_code":"3050046"},{"name":"東新井","zip_code":"3050033"},{"name":"東岡","zip_code":"3050027"},{"name":"東平塚","zip_code":"3050812"},{"name":"東丸山","zip_code":"3050862"},{"name":"樋の沢","zip_code":"3001242"},{"name":"平沢","zip_code":"3004213"},{"name":"富士見台","zip_code":"3001263"},{"name":"藤本","zip_code":"3050852"},{"name":"古来","zip_code":"3050021"},{"name":"古館","zip_code":"3050866"},{"name":"北条","zip_code":"3004231"},{"name":"房内","zip_code":"3001278"},{"name":"宝陽台","zip_code":"3001254"},{"name":"細見","zip_code":"3001265"},{"name":"洞下","zip_code":"3004249"},{"name":"本沢","zip_code":"3002623"},{"name":"前野","zip_code":"3003267"},{"name":"牧園","zip_code":"3001241"},{"name":"真瀬","zip_code":"3002656"},{"name":"松代","zip_code":"3050035"},{"name":"松塚","zip_code":"3050015"},{"name":"松野木","zip_code":"3050056"},{"name":"松の里","zip_code":"3050903"},{"name":"水堀","zip_code":"3002654"},{"name":"緑が丘","zip_code":"3050863"},{"name":"緑ケ原","zip_code":"3002646"},{"name":"みどりの","zip_code":"3050881"},{"name":"みどりの中央","zip_code":"3050882"},{"name":"みどりの東","zip_code":"3050883"},{"name":"みどりの南","zip_code":"3050884"},{"name":"南中妻","zip_code":"3050065"},{"name":"南原","zip_code":"3050803"},{"name":"水守","zip_code":"3004245"},{"name":"御幸が丘","zip_code":"3050841"},{"name":"明神","zip_code":"3001257"},{"name":"森の里","zip_code":"3001256"},{"name":"柳橋","zip_code":"3050842"},{"name":"谷田部","zip_code":"3050861"},{"name":"山木","zip_code":"3004234"},{"name":"山口","zip_code":"3004214"},{"name":"山中","zip_code":"3050836"},{"name":"横町","zip_code":"3050017"},{"name":"吉沼","zip_code":"3002617"},{"name":"流星台","zip_code":"3050008"},{"name":"六斗","zip_code":"3001258"},{"name":"若栗","zip_code":"3001248"},{"name":"若葉","zip_code":"3001249"},{"name":"若森","zip_code":"3003252"},{"name":"和台","zip_code":"3004247"}]},{"name":"ひたちなか市","divisions":[{"name":"青葉町","zip_code":"3120056"},{"name":"赤坂","zip_code":"3111241"},{"name":"浅井内","zip_code":"3111264"},{"name":"阿字ケ浦町","zip_code":"3111201"},{"name":"雨沢谷津","zip_code":"3111255"},{"name":"石川町","zip_code":"3120057"},{"name":"磯崎町","zip_code":"3111202"},{"name":"市毛","zip_code":"3120033"},{"name":"稲田","zip_code":"3120061"},{"name":"牛久保","zip_code":"3111213"},{"name":"後野","zip_code":"3120014"},{"name":"枝川","zip_code":"3120035"},{"name":"大平","zip_code":"3120023"},{"name":"和尚塚","zip_code":"3111263"},{"name":"小貫山","zip_code":"3120007"},{"name":"表町","zip_code":"3120047"},{"name":"海門町","zip_code":"3111222"},{"name":"春日町","zip_code":"3120048"},{"name":"勝倉","zip_code":"3120024"},{"name":"勝田泉町","zip_code":"3120046"},{"name":"勝田中央","zip_code":"3120045"},{"name":"勝田中原町","zip_code":"3120027"},{"name":"勝田本町","zip_code":"3120026"},{"name":"金上","zip_code":"3120022"},{"name":"上野","zip_code":"3120013"},{"name":"烏ケ台","zip_code":"3111207"},{"name":"北神敷台","zip_code":"3111243"},{"name":"共栄町","zip_code":"3120043"},{"name":"高野","zip_code":"3120002"},{"name":"国神前","zip_code":"3111236"},{"name":"小砂町","zip_code":"3120015"},{"name":"後台","zip_code":"3120031"},{"name":"小谷金","zip_code":"3111253"},{"name":"西光地","zip_code":"3120058"},{"name":"幸町","zip_code":"3111226"},{"name":"栄町","zip_code":"3111223"},{"name":"笹野町","zip_code":"3120018"},{"name":"佐和","zip_code":"3120001"},{"name":"沢メキ","zip_code":"3111211"},{"name":"四十発句","zip_code":"3111247"},{"name":"釈迦町","zip_code":"3111225"},{"name":"十三奉行","zip_code":"3111205"},{"name":"新光町","zip_code":"3120005"},{"name":"関戸","zip_code":"3111237"},{"name":"相金町","zip_code":"3111246"},{"name":"外野","zip_code":"3120053"},{"name":"大成町","zip_code":"3120055"},{"name":"高場","zip_code":"3120062"},{"name":"武田","zip_code":"3120025"},{"name":"館山","zip_code":"3111245"},{"name":"田中後","zip_code":"3111235"},{"name":"田彦","zip_code":"3120063"},{"name":"田宮原","zip_code":"3111248"},{"name":"足崎","zip_code":"3120003"},{"name":"津田","zip_code":"3120032"},{"name":"津田東","zip_code":"3120036"},{"name":"鶴代","zip_code":"3111261"},{"name":"洞下町","zip_code":"3111227"},{"name":"堂端","zip_code":"3120051"},{"name":"道メキ","zip_code":"3111262"},{"name":"殿山町","zip_code":"3111212"},{"name":"中根","zip_code":"3120011"},{"name":"長砂","zip_code":"3120004"},{"name":"長堀町","zip_code":"3120017"},{"name":"新堤","zip_code":"3111254"},{"name":"西赤坂","zip_code":"3111242"},{"name":"西大島","zip_code":"3120041"},{"name":"西十三奉行","zip_code":"3111206"},{"name":"はしかべ","zip_code":"3120054"},{"name":"八幡町","zip_code":"3111228"},{"name":"東石川","zip_code":"3120052"},{"name":"東大島","zip_code":"3120042"},{"name":"東本町","zip_code":"3111215"},{"name":"平磯町","zip_code":"3111203"},{"name":"平磯遠原町","zip_code":"3111204"},{"name":"富士ノ上","zip_code":"3111218"},{"name":"富士ノ下","zip_code":"3111217"},{"name":"船窪","zip_code":"3111266"},{"name":"部田野","zip_code":"3111252"},{"name":"堀川","zip_code":"3111233"},{"name":"堀口","zip_code":"3120034"},{"name":"前浜","zip_code":"3120006"},{"name":"松戸町","zip_code":"3120016"},{"name":"馬渡","zip_code":"3120012"},{"name":"廻り目","zip_code":"3111267"},{"name":"美田多町","zip_code":"3111238"},{"name":"三反田","zip_code":"3120021"},{"name":"湊泉町","zip_code":"3111216"},{"name":"湊中央","zip_code":"3111229"},{"name":"湊中原","zip_code":"3111268"},{"name":"湊本町","zip_code":"3111221"},{"name":"南神敷台","zip_code":"3111244"},{"name":"峰後","zip_code":"3111234"},{"name":"狢谷津","zip_code":"3111265"},{"name":"元町","zip_code":"3120044"},{"name":"柳が丘","zip_code":"3111232"},{"name":"柳沢","zip_code":"3111231"},{"name":"山崎","zip_code":"3111251"},{"name":"山ノ上町","zip_code":"3111224"},{"name":"和田町","zip_code":"3111214"}]},{"name":"鹿嶋市","divisions":[{"name":"粟生","zip_code":"3140021"},{"name":"青塚","zip_code":"3112211"},{"name":"明石","zip_code":"3140002"},{"name":"旭ケ丘","zip_code":"3140017"},{"name":"荒井","zip_code":"3112204"},{"name":"泉川","zip_code":"3140015"},{"name":"大船津","zip_code":"3140036"},{"name":"下津","zip_code":"3140004"},{"name":"和","zip_code":"3112215"},{"name":"神野","zip_code":"3140037"},{"name":"木滝","zip_code":"3140028"},{"name":"木滝佐田谷原入会","zip_code":"3140026"},{"name":"宮中","zip_code":"3140031"},{"name":"国末","zip_code":"3140016"},{"name":"厨","zip_code":"3140030"},{"name":"荒野","zip_code":"3112221"},{"name":"小宮作","zip_code":"3140003"},{"name":"小山","zip_code":"3112222"},{"name":"佐田","zip_code":"3140027"},{"name":"猿田","zip_code":"3140044"},{"name":"志崎","zip_code":"3112207"},{"name":"清水","zip_code":"3140001"},{"name":"下塙","zip_code":"3140025"},{"name":"城山","zip_code":"3140038"},{"name":"神向寺","zip_code":"3140007"},{"name":"新浜","zip_code":"3140013"},{"name":"須賀","zip_code":"3140047"},{"name":"大小志崎","zip_code":"3112201"},{"name":"高天原","zip_code":"3140005"},{"name":"武井","zip_code":"3112206"},{"name":"武井釜","zip_code":"3112202"},{"name":"棚木","zip_code":"3112214"},{"name":"田野辺","zip_code":"3140042"},{"name":"田谷","zip_code":"3140043"},{"name":"田谷沼","zip_code":"3140048"},{"name":"津賀","zip_code":"3112205"},{"name":"角折","zip_code":"3112212"},{"name":"爪木","zip_code":"3140046"},{"name":"中","zip_code":"3112213"},{"name":"長栖","zip_code":"3140022"},{"name":"奈良毛","zip_code":"3112224"},{"name":"沼尾","zip_code":"3140041"},{"name":"根三田","zip_code":"3140035"},{"name":"鉢形","zip_code":"3140034"},{"name":"鉢形台","zip_code":"3140033"},{"name":"浜津賀","zip_code":"3112203"},{"name":"林","zip_code":"3112223"},{"name":"光","zip_code":"3140014"},{"name":"平井","zip_code":"3140012"},{"name":"緑ヶ丘","zip_code":"3140039"},{"name":"港ケ丘","zip_code":"3140011"},{"name":"宮下","zip_code":"3140032"},{"name":"宮津台","zip_code":"3140006"},{"name":"山之上","zip_code":"3140045"},{"name":"谷原","zip_code":"3140023"},{"name":"鰐川","zip_code":"3140024"}]},{"name":"潮来市","divisions":[{"name":"あやめ","zip_code":"3112425"},{"name":"潮来","zip_code":"3112424"},{"name":"牛堀","zip_code":"3112436"},{"name":"上戸","zip_code":"3112435"},{"name":"大生","zip_code":"3112402"},{"name":"大賀","zip_code":"3112401"},{"name":"大洲","zip_code":"3112422"},{"name":"大塚野","zip_code":"3112426"},{"name":"大山","zip_code":"3112441"},{"name":"釜谷","zip_code":"3112403"},{"name":"川尾","zip_code":"3112440"},{"name":"清水","zip_code":"3112431"},{"name":"小泉","zip_code":"3112442"},{"name":"小泉南","zip_code":"3112444"},{"name":"下田","zip_code":"3112407"},{"name":"島須","zip_code":"3112434"},{"name":"新宮","zip_code":"3112406"},{"name":"新宮南","zip_code":"3112443"},{"name":"須賀","zip_code":"3112448"},{"name":"須賀南","zip_code":"3112446"},{"name":"洲崎","zip_code":"3112408"},{"name":"築地","zip_code":"3112405"},{"name":"辻","zip_code":"3112421"},{"name":"徳島","zip_code":"3112418"},{"name":"永山","zip_code":"3112437"},{"name":"延方","zip_code":"3112415"},{"name":"延方東","zip_code":"3112409"},{"name":"延方西","zip_code":"3112410"},{"name":"日の出","zip_code":"3112423"},{"name":"福島","zip_code":"3112419"},{"name":"古高","zip_code":"3112449"},{"name":"堀之内","zip_code":"3112433"},{"name":"前川","zip_code":"3112416"},{"name":"曲松","zip_code":"3112447"},{"name":"曲松南","zip_code":"3112445"},{"name":"水原","zip_code":"3112404"},{"name":"宮前","zip_code":"3112412"},{"name":"茂木","zip_code":"3112432"},{"name":"米島","zip_code":"3112417"}]},{"name":"守谷市","divisions":[{"name":"赤法花","zip_code":"3020111"},{"name":"板戸井","zip_code":"3020101"},{"name":"大柏","zip_code":"3020116"},{"name":"大木","zip_code":"3020107"},{"name":"大山新田","zip_code":"3020103"},{"name":"乙子","zip_code":"3020123"},{"name":"久保ケ丘","zip_code":"3020104"},{"name":"けやき台","zip_code":"3020128"},{"name":"高野","zip_code":"3020125"},{"name":"御所ケ丘","zip_code":"3020119"},{"name":"小山","zip_code":"3020122"},{"name":"鈴塚","zip_code":"3020126"},{"name":"立沢","zip_code":"3020118"},{"name":"中央","zip_code":"3020115"},{"name":"同地","zip_code":"3020112"},{"name":"野木崎","zip_code":"3020117"},{"name":"ひがし野","zip_code":"3020131"},{"name":"本町","zip_code":"3020109"},{"name":"松ケ丘","zip_code":"3020127"},{"name":"松並","zip_code":"3020108"},{"name":"松前台","zip_code":"3020102"},{"name":"みずき野","zip_code":"3020121"},{"name":"美園","zip_code":"3020124"},{"name":"緑","zip_code":"3020106"},{"name":"薬師台","zip_code":"3020105"},{"name":"百合ケ丘","zip_code":"3020110"}]},{"name":"常陸大宮市","divisions":[{"name":"秋田","zip_code":"3114611"},{"name":"石沢","zip_code":"3192135"},{"name":"泉","zip_code":"3192144"},{"name":"入本郷","zip_code":"3192415"},{"name":"岩崎","zip_code":"3192211"},{"name":"姥賀町","zip_code":"3192251"},{"name":"宇留野","zip_code":"3192145"},{"name":"大岩","zip_code":"3192418"},{"name":"小倉","zip_code":"3192203"},{"name":"長田","zip_code":"3193116"},{"name":"小瀬沢","zip_code":"3192412"},{"name":"小田野","zip_code":"3192602"},{"name":"小玉","zip_code":"3192405"},{"name":"小貫","zip_code":"3193112"},{"name":"小野","zip_code":"3192133"},{"name":"小場","zip_code":"3192132"},{"name":"門井","zip_code":"3114501"},{"name":"金井","zip_code":"3114614"},{"name":"上伊勢畑","zip_code":"3114617"},{"name":"上岩瀬","zip_code":"3192142"},{"name":"上大賀","zip_code":"3192212"},{"name":"上小瀬","zip_code":"3192401"},{"name":"上町","zip_code":"3192261"},{"name":"上檜沢","zip_code":"3192511"},{"name":"上村田","zip_code":"3192136"},{"name":"北塩子","zip_code":"3192226"},{"name":"北町","zip_code":"3192254"},{"name":"北富田","zip_code":"3193104"},{"name":"国長","zip_code":"3192404"},{"name":"久隆","zip_code":"3193101"},{"name":"小祝","zip_code":"3192213"},{"name":"工業団地","zip_code":"3192134"},{"name":"小舟","zip_code":"3192411"},{"name":"栄町","zip_code":"3192264"},{"name":"塩原","zip_code":"3192202"},{"name":"下伊勢畑","zip_code":"3114615"},{"name":"下岩瀬","zip_code":"3192141"},{"name":"下小瀬","zip_code":"3192402"},{"name":"下町","zip_code":"3192262"},{"name":"下檜沢","zip_code":"3192512"},{"name":"下村田","zip_code":"3192131"},{"name":"千田","zip_code":"3192416"},{"name":"鷹巣","zip_code":"3192214"},{"name":"高部","zip_code":"3192601"},{"name":"高渡町","zip_code":"3192253"},{"name":"田子内町","zip_code":"3192256"},{"name":"辰ノ口","zip_code":"3192201"},{"name":"照田","zip_code":"3192227"},{"name":"照山","zip_code":"3193113"},{"name":"東野","zip_code":"3192224"},{"name":"富岡","zip_code":"3192204"},{"name":"鷲子","zip_code":"3192603"},{"name":"那賀","zip_code":"3192403"},{"name":"中居","zip_code":"3114612"},{"name":"長倉","zip_code":"3114613"},{"name":"長沢","zip_code":"3193117"},{"name":"中富町","zip_code":"3192265"},{"name":"西塩子","zip_code":"3192225"},{"name":"西野内","zip_code":"3193106"},{"name":"根本","zip_code":"3192143"},{"name":"野上","zip_code":"3193114"},{"name":"野口","zip_code":"3114503"},{"name":"野口平","zip_code":"3114502"},{"name":"野田","zip_code":"3114618"},{"name":"野中町","zip_code":"3192255"},{"name":"八田","zip_code":"3192221"},{"name":"東富町","zip_code":"3192252"},{"name":"氷之沢","zip_code":"3192513"},{"name":"桧山","zip_code":"3114616"},{"name":"舟生","zip_code":"3193107"},{"name":"松之草","zip_code":"3192413"},{"name":"南町","zip_code":"3192263"},{"name":"宮の郷","zip_code":"3192205"},{"name":"三美","zip_code":"3192223"},{"name":"盛金","zip_code":"3193102"},{"name":"諸沢","zip_code":"3193105"},{"name":"山方","zip_code":"3193111"},{"name":"家和楽","zip_code":"3193103"},{"name":"抽ケ台町","zip_code":"3192266"},{"name":"油河内","zip_code":"3192417"},{"name":"吉丸","zip_code":"3192414"},{"name":"若林","zip_code":"3192222"}]},{"name":"那珂市","divisions":[{"name":"飯田","zip_code":"3110134"},{"name":"瓜連","zip_code":"3192102"},{"name":"大内","zip_code":"3110125"},{"name":"鹿島","zip_code":"3110135"},{"name":"門部","zip_code":"3110136"},{"name":"上河内","zip_code":"3110116"},{"name":"上国井","zip_code":"3110123"},{"name":"北酒出","zip_code":"3110131"},{"name":"鴻巣","zip_code":"3110133"},{"name":"後台","zip_code":"3110111"},{"name":"古徳","zip_code":"3192105"},{"name":"静","zip_code":"3192106"},{"name":"下江戸","zip_code":"3110126"},{"name":"下大賀","zip_code":"3192107"},{"name":"菅谷","zip_code":"3110105"},{"name":"杉","zip_code":"3110106"},{"name":"竹ノ内","zip_code":"3110110"},{"name":"田崎","zip_code":"3110124"},{"name":"津田","zip_code":"3110112"},{"name":"堤","zip_code":"3110104"},{"name":"戸","zip_code":"3110122"},{"name":"戸崎","zip_code":"3110121"},{"name":"豊喰","zip_code":"3110117"},{"name":"中里","zip_code":"3192103"},{"name":"中台","zip_code":"3110113"},{"name":"西木倉","zip_code":"3110115"},{"name":"額田北郷","zip_code":"3110108"},{"name":"額田東郷","zip_code":"3110109"},{"name":"額田南郷","zip_code":"3110107"},{"name":"東木倉","zip_code":"3110114"},{"name":"平野","zip_code":"3192104"},{"name":"福田","zip_code":"3110118"},{"name":"南酒出","zip_code":"3110132"},{"name":"向山","zip_code":"3110102"},{"name":"本米崎","zip_code":"3110101"},{"name":"横堀","zip_code":"3110103"}]},{"name":"筑西市","divisions":[{"name":"赤浜","zip_code":"3004523"},{"name":"旭ケ丘","zip_code":"3080836"},{"name":"新井新田","zip_code":"3004516"},{"name":"有田","zip_code":"3004512"},{"name":"飯島","zip_code":"3080064"},{"name":"飯田","zip_code":"3080835"},{"name":"伊讃美","zip_code":"3080853"},{"name":"伊佐山","zip_code":"3080856"},{"name":"石塔","zip_code":"3080075"},{"name":"石原田","zip_code":"3080055"},{"name":"泉","zip_code":"3080076"},{"name":"板橋","zip_code":"3080116"},{"name":"市野辺","zip_code":"3080827"},{"name":"一本松","zip_code":"3080842"},{"name":"井出蛯沢","zip_code":"3091108"},{"name":"稲野辺","zip_code":"3080805"},{"name":"稲荷","zip_code":"3080106"},{"name":"犬塚","zip_code":"3080117"},{"name":"井上","zip_code":"3080101"},{"name":"上野","zip_code":"3080129"},{"name":"内淀","zip_code":"3004507"},{"name":"江","zip_code":"3080128"},{"name":"海老江","zip_code":"3004538"},{"name":"海老ケ島","zip_code":"3004517"},{"name":"大島","zip_code":"3091125"},{"name":"大関","zip_code":"3080015"},{"name":"大塚","zip_code":"3080813"},{"name":"大林","zip_code":"3004537"},{"name":"大谷","zip_code":"3080852"},{"name":"岡芹","zip_code":"3080051"},{"name":"小川","zip_code":"3080857"},{"name":"奥田","zip_code":"3080012"},{"name":"小栗","zip_code":"3091101"},{"name":"女方","zip_code":"3080854"},{"name":"押尾","zip_code":"3004511"},{"name":"落合","zip_code":"3080002"},{"name":"乙","zip_code":"3080041"},{"name":"小林","zip_code":"3080806"},{"name":"折本","zip_code":"3080007"},{"name":"嘉家佐和","zip_code":"3080837"},{"name":"梶内","zip_code":"3080107"},{"name":"門井","zip_code":"3091107"},{"name":"金丸","zip_code":"3080804"},{"name":"上川中子","zip_code":"3080815"},{"name":"上中山","zip_code":"3080017"},{"name":"上西郷谷","zip_code":"3004502"},{"name":"上平塚","zip_code":"3080067"},{"name":"上星谷","zip_code":"3091111"},{"name":"神分","zip_code":"3080063"},{"name":"川澄","zip_code":"3080801"},{"name":"川連","zip_code":"3080814"},{"name":"木戸","zip_code":"3080104"},{"name":"久地楽","zip_code":"3091103"},{"name":"口戸","zip_code":"3080071"},{"name":"倉持","zip_code":"3004515"},{"name":"栗島","zip_code":"3080061"},{"name":"黒子","zip_code":"3080102"},{"name":"桑山","zip_code":"3091127"},{"name":"甲","zip_code":"3080021"},{"name":"国府田","zip_code":"3080004"},{"name":"子思儀","zip_code":"3080077"},{"name":"五所宮","zip_code":"3080866"},{"name":"小塙","zip_code":"3080862"},{"name":"幸町","zip_code":"3080848"},{"name":"鷺島","zip_code":"3004532"},{"name":"笹塚","zip_code":"3080065"},{"name":"山王堂","zip_code":"3004514"},{"name":"三郷","zip_code":"3091105"},{"name":"柴山","zip_code":"3080072"},{"name":"島","zip_code":"3080823"},{"name":"清水","zip_code":"3091126"},{"name":"下江連","zip_code":"3080851"},{"name":"下岡崎","zip_code":"3080826"},{"name":"下川島","zip_code":"3080855"},{"name":"下川中子","zip_code":"3004545"},{"name":"下郷谷","zip_code":"3091123"},{"name":"下高田","zip_code":"3080011"},{"name":"下中山","zip_code":"3080825"},{"name":"下野殿","zip_code":"3080844"},{"name":"下平塚","zip_code":"3080066"},{"name":"下星谷","zip_code":"3091122"},{"name":"菅谷","zip_code":"3080052"},{"name":"関舘","zip_code":"3080113"},{"name":"関本肥土","zip_code":"3080124"},{"name":"関本上","zip_code":"3080122"},{"name":"関本上中","zip_code":"3080123"},{"name":"関本下","zip_code":"3080127"},{"name":"関本中","zip_code":"3080126"},{"name":"関本分中","zip_code":"3080125"},{"name":"掉ケ島","zip_code":"3080864"},{"name":"高島","zip_code":"3080807"},{"name":"高津","zip_code":"3004534"},{"name":"竹垣","zip_code":"3004543"},{"name":"田宿","zip_code":"3004505"},{"name":"玉戸","zip_code":"3080847"},{"name":"知行","zip_code":"3091124"},{"name":"筑瀬","zip_code":"3080074"},{"name":"築地","zip_code":"3004531"},{"name":"塚原","zip_code":"3080822"},{"name":"辻","zip_code":"3080103"},{"name":"寺上野","zip_code":"3004525"},{"name":"徳持","zip_code":"3080816"},{"name":"外塚","zip_code":"3080053"},{"name":"直井","zip_code":"3080803"},{"name":"中上野","zip_code":"3004524"},{"name":"中舘","zip_code":"3080005"},{"name":"中根","zip_code":"3004513"},{"name":"中村新田","zip_code":"3080108"},{"name":"鍋山","zip_code":"3004506"},{"name":"成田","zip_code":"3080821"},{"name":"成井","zip_code":"3004533"},{"name":"新治","zip_code":"3091106"},{"name":"二木成","zip_code":"3080841"},{"name":"西石田","zip_code":"3080834"},{"name":"西大島","zip_code":"3080062"},{"name":"西方","zip_code":"3080845"},{"name":"西保末","zip_code":"3080105"},{"name":"西谷貝","zip_code":"3080054"},{"name":"西山田","zip_code":"3080867"},{"name":"西榎生","zip_code":"3080832"},{"name":"布川","zip_code":"3080846"},{"name":"猫島","zip_code":"3004501"},{"name":"野","zip_code":"3080016"},{"name":"野田","zip_code":"3080833"},{"name":"野殿","zip_code":"3080843"},{"name":"灰塚","zip_code":"3080863"},{"name":"羽方","zip_code":"3080014"},{"name":"蓮沼","zip_code":"3091115"},{"name":"八田","zip_code":"3080013"},{"name":"花田","zip_code":"3080114"},{"name":"花橋","zip_code":"3080115"},{"name":"林","zip_code":"3080073"},{"name":"東石田","zip_code":"3004521"},{"name":"東保末","zip_code":"3004536"},{"name":"東榎生","zip_code":"3080831"},{"name":"樋口","zip_code":"3080001"},{"name":"深見","zip_code":"3080812"},{"name":"藤ケ谷","zip_code":"3080112"},{"name":"船玉","zip_code":"3080121"},{"name":"舟生","zip_code":"3080111"},{"name":"古内","zip_code":"3004544"},{"name":"古郡","zip_code":"3091104"},{"name":"丙","zip_code":"3080031"},{"name":"細田","zip_code":"3091114"},{"name":"蒔田","zip_code":"3080003"},{"name":"松原","zip_code":"3004541"},{"name":"みどり町","zip_code":"3080042"},{"name":"宮後","zip_code":"3004503"},{"name":"宮山","zip_code":"3004504"},{"name":"向上野","zip_code":"3004522"},{"name":"向川澄","zip_code":"3091117"},{"name":"村田","zip_code":"3004546"},{"name":"茂田","zip_code":"3080811"},{"name":"森添島","zip_code":"3080861"},{"name":"谷中","zip_code":"3080056"},{"name":"谷永島","zip_code":"3091121"},{"name":"柳","zip_code":"3091113"},{"name":"八幡","zip_code":"3091112"},{"name":"谷部","zip_code":"3080006"},{"name":"山崎","zip_code":"3080865"},{"name":"谷原","zip_code":"3004535"},{"name":"横島","zip_code":"3080802"},{"name":"横塚","zip_code":"3091116"},{"name":"吉田","zip_code":"3004542"},{"name":"榎生","zip_code":"3080838"},{"name":"蓬田","zip_code":"3091102"},{"name":"蕨","zip_code":"3080824"}]},{"name":"坂東市","divisions":[{"name":"岩井","zip_code":"3060631"},{"name":"内野山","zip_code":"3060514"},{"name":"生子","zip_code":"3060504"},{"name":"生子新田","zip_code":"3060503"},{"name":"大口","zip_code":"3060615"},{"name":"大口新田","zip_code":"3060613"},{"name":"大崎","zip_code":"3060622"},{"name":"大馬新田","zip_code":"3060601"},{"name":"大谷口","zip_code":"3060621"},{"name":"小山","zip_code":"3060626"},{"name":"神田山","zip_code":"3060617"},{"name":"神田山新田","zip_code":"3060611"},{"name":"上出島","zip_code":"3060654"},{"name":"借宿","zip_code":"3060657"},{"name":"勘助新田","zip_code":"3060603"},{"name":"木間ケ瀬","zip_code":"3060643"},{"name":"桐木","zip_code":"3060636"},{"name":"鵠戸","zip_code":"3060641"},{"name":"沓掛","zip_code":"3060515"},{"name":"栗山新田","zip_code":"3060513"},{"name":"小泉","zip_code":"3060635"},{"name":"幸神平","zip_code":"3060608"},{"name":"幸田","zip_code":"3060606"},{"name":"幸田新田","zip_code":"3060604"},{"name":"古布内","zip_code":"3060644"},{"name":"駒跿","zip_code":"3060653"},{"name":"逆井","zip_code":"3060501"},{"name":"左平太新田","zip_code":"3060512"},{"name":"下出島","zip_code":"3060633"},{"name":"庄右衛門新田","zip_code":"3060614"},{"name":"菅谷","zip_code":"3060505"},{"name":"寺久","zip_code":"3060656"},{"name":"冨田","zip_code":"3060652"},{"name":"中里","zip_code":"3060634"},{"name":"長須","zip_code":"3060645"},{"name":"長谷","zip_code":"3060642"},{"name":"猫実","zip_code":"3060616"},{"name":"猫実新田","zip_code":"3060612"},{"name":"半谷","zip_code":"3060651"},{"name":"平八新田","zip_code":"3060602"},{"name":"辺田","zip_code":"3060632"},{"name":"法師戸","zip_code":"3060623"},{"name":"孫兵エ新田","zip_code":"3060511"},{"name":"馬立","zip_code":"3060605"},{"name":"みどり町","zip_code":"3060637"},{"name":"みむら","zip_code":"3060655"},{"name":"莚打","zip_code":"3060625"},{"name":"矢作","zip_code":"3060624"},{"name":"山","zip_code":"3060502"},{"name":"弓田","zip_code":"3060607"}]},{"name":"稲敷市","divisions":[{"name":"阿波","zip_code":"3000621"},{"name":"阿波崎","zip_code":"3000602"},{"name":"甘田","zip_code":"3000626"},{"name":"飯島","zip_code":"3000727"},{"name":"飯出","zip_code":"3000632"},{"name":"伊崎","zip_code":"3001413"},{"name":"伊佐津","zip_code":"3001411"},{"name":"伊佐部","zip_code":"3000603"},{"name":"市崎","zip_code":"3000612"},{"name":"稲波","zip_code":"3000503"},{"name":"犬塚","zip_code":"3000507"},{"name":"戌渡","zip_code":"3001414"},{"name":"浮島","zip_code":"3000641"},{"name":"江戸崎乙","zip_code":"3000509"},{"name":"江戸崎甲","zip_code":"3000504"},{"name":"江戸崎みらい","zip_code":"3000529"},{"name":"大島","zip_code":"3000721"},{"name":"太田","zip_code":"3001423"},{"name":"岡飯出","zip_code":"3000633"},{"name":"押砂","zip_code":"3000744"},{"name":"小野","zip_code":"3001425"},{"name":"柏木","zip_code":"3000634"},{"name":"柏木古渡","zip_code":"3000637"},{"name":"釜井","zip_code":"3000604"},{"name":"蒲ケ山","zip_code":"3000522"},{"name":"上君山","zip_code":"3000528"},{"name":"上須田","zip_code":"3000737"},{"name":"上根本","zip_code":"3010902"},{"name":"上之島","zip_code":"3000732"},{"name":"上馬渡","zip_code":"3000643"},{"name":"桑山","zip_code":"3000513"},{"name":"結佐","zip_code":"3000734"},{"name":"神崎本宿","zip_code":"3000746"},{"name":"幸田","zip_code":"3000605"},{"name":"石納","zip_code":"3000733"},{"name":"小羽賀","zip_code":"3000524"},{"name":"駒塚","zip_code":"3000514"},{"name":"境島","zip_code":"3000723"},{"name":"佐倉","zip_code":"3000508"},{"name":"佐原組新田","zip_code":"3000749"},{"name":"佐原下手","zip_code":"3000725"},{"name":"椎塚","zip_code":"3000512"},{"name":"四箇","zip_code":"3000623"},{"name":"信太古渡","zip_code":"3000502"},{"name":"柴崎","zip_code":"3001412"},{"name":"清水","zip_code":"3000614"},{"name":"下太田","zip_code":"3001424"},{"name":"下君山","zip_code":"3000527"},{"name":"下須田","zip_code":"3000601"},{"name":"下根本","zip_code":"3010901"},{"name":"下馬渡","zip_code":"3000642"},{"name":"神宮寺","zip_code":"3000622"},{"name":"新橋","zip_code":"3000613"},{"name":"須賀津","zip_code":"3000625"},{"name":"月出里","zip_code":"3000521"},{"name":"角崎","zip_code":"3001416"},{"name":"清久島","zip_code":"3000748"},{"name":"高田","zip_code":"3000511"},{"name":"手賀組新田","zip_code":"3000741"},{"name":"寺内","zip_code":"3001426"},{"name":"時崎","zip_code":"3000523"},{"name":"中島","zip_code":"3000611"},{"name":"中山","zip_code":"3001415"},{"name":"西代","zip_code":"3000726"},{"name":"沼田","zip_code":"3000506"},{"name":"羽賀","zip_code":"3000525"},{"name":"羽賀浦","zip_code":"3001427"},{"name":"橋向","zip_code":"3000745"},{"name":"八千石","zip_code":"3000736"},{"name":"鳩崎","zip_code":"3000501"},{"name":"羽生","zip_code":"3000636"},{"name":"東大沼","zip_code":"3000616"},{"name":"福田","zip_code":"3000617"},{"name":"古渡","zip_code":"3000638"},{"name":"堀川","zip_code":"3001421"},{"name":"堀之内","zip_code":"3000635"},{"name":"曲渕","zip_code":"3000743"},{"name":"町田","zip_code":"3000615"},{"name":"松山","zip_code":"3000526"},{"name":"狸穴","zip_code":"3001417"},{"name":"三島","zip_code":"3000722"},{"name":"三次","zip_code":"3000631"},{"name":"光葉","zip_code":"3000607"},{"name":"南太田","zip_code":"3001422"},{"name":"南ケ丘","zip_code":"3000515"},{"name":"南山来","zip_code":"3000624"},{"name":"村田","zip_code":"3000505"},{"name":"本新","zip_code":"3000731"},{"name":"八筋川","zip_code":"3000724"},{"name":"余津谷","zip_code":"3000747"},{"name":"四ッ谷","zip_code":"3000742"},{"name":"六角","zip_code":"3000735"},{"name":"脇川","zip_code":"3000606"}]},{"name":"かすみがうら市","divisions":[{"name":"有河","zip_code":"3000212"},{"name":"粟田","zip_code":"3150078"},{"name":"安食","zip_code":"3000205"},{"name":"飯田","zip_code":"3150063"},{"name":"市川","zip_code":"3150071"},{"name":"稲吉","zip_code":"3150054"},{"name":"稲吉東","zip_code":"3150053"},{"name":"稲吉南","zip_code":"3150055"},{"name":"岩坪","zip_code":"3000203"},{"name":"牛渡","zip_code":"3000213"},{"name":"大峰","zip_code":"3150064"},{"name":"大和田","zip_code":"3000124"},{"name":"男神","zip_code":"3000132"},{"name":"柏崎","zip_code":"3000201"},{"name":"上稲吉","zip_code":"3150056"},{"name":"上大堤","zip_code":"3000127"},{"name":"上軽部","zip_code":"3000123"},{"name":"上佐谷","zip_code":"3150065"},{"name":"上志筑","zip_code":"3150076"},{"name":"上土田","zip_code":"3150057"},{"name":"加茂","zip_code":"3000135"},{"name":"五反田","zip_code":"3150061"},{"name":"坂","zip_code":"3000214"},{"name":"宍倉","zip_code":"3000121"},{"name":"志戸崎","zip_code":"3000211"},{"name":"下稲吉","zip_code":"3150052"},{"name":"下大堤","zip_code":"3000131"},{"name":"下軽部","zip_code":"3000204"},{"name":"下佐谷","zip_code":"3150067"},{"name":"下志筑","zip_code":"3150074"},{"name":"下土田","zip_code":"3150058"},{"name":"高倉","zip_code":"3150077"},{"name":"田伏","zip_code":"3000202"},{"name":"戸崎","zip_code":"3000136"},{"name":"中佐谷","zip_code":"3150066"},{"name":"中志筑","zip_code":"3150075"},{"name":"中台","zip_code":"3000133"},{"name":"新治","zip_code":"3150051"},{"name":"西成井","zip_code":"3000122"},{"name":"西野寺","zip_code":"3150073"},{"name":"東野寺","zip_code":"3150072"},{"name":"深谷","zip_code":"3000134"},{"name":"三ツ木","zip_code":"3000125"},{"name":"南根本","zip_code":"3000126"},{"name":"山本","zip_code":"3150068"},{"name":"雪入","zip_code":"3150069"},{"name":"横堀","zip_code":"3150062"}]},{"name":"桜川市","divisions":[{"name":"青木","zip_code":"3091241"},{"name":"青柳","zip_code":"3091456"},{"name":"明日香","zip_code":"3091216"},{"name":"阿部田","zip_code":"3091234"},{"name":"飯淵","zip_code":"3091202"},{"name":"池亀","zip_code":"3091332"},{"name":"磯部","zip_code":"3091457"},{"name":"稲","zip_code":"3091458"},{"name":"犬田","zip_code":"3091217"},{"name":"今泉","zip_code":"3091464"},{"name":"入野","zip_code":"3091345"},{"name":"岩瀬","zip_code":"3091211"},{"name":"上野原地新田","zip_code":"3091226"},{"name":"大泉","zip_code":"3091201"},{"name":"大国玉","zip_code":"3091244"},{"name":"大曽根","zip_code":"3091232"},{"name":"大月","zip_code":"3091335"},{"name":"長方","zip_code":"3091222"},{"name":"門毛","zip_code":"3091341"},{"name":"金敷","zip_code":"3091245"},{"name":"上城","zip_code":"3091454"},{"name":"亀岡","zip_code":"3091343"},{"name":"加茂部","zip_code":"3091452"},{"name":"木植","zip_code":"3091465"},{"name":"久原","zip_code":"3091204"},{"name":"鍬田","zip_code":"3091223"},{"name":"小塩","zip_code":"3091336"},{"name":"御領","zip_code":"3091215"},{"name":"坂本","zip_code":"3091334"},{"name":"猿田","zip_code":"3091466"},{"name":"下泉","zip_code":"3091225"},{"name":"曽根","zip_code":"3091462"},{"name":"高久","zip_code":"3091243"},{"name":"高幡","zip_code":"3091463"},{"name":"高森","zip_code":"3091246"},{"name":"堤上","zip_code":"3091205"},{"name":"富岡","zip_code":"3091203"},{"name":"富谷","zip_code":"3091347"},{"name":"友部","zip_code":"3091453"},{"name":"中泉","zip_code":"3091224"},{"name":"中里","zip_code":"3091346"},{"name":"西飯岡","zip_code":"3091221"},{"name":"西小塙","zip_code":"3091451"},{"name":"西桜川","zip_code":"3091213"},{"name":"羽田","zip_code":"3091242"},{"name":"東飯田","zip_code":"3091233"},{"name":"東桜川","zip_code":"3091214"},{"name":"平澤","zip_code":"3091331"},{"name":"福崎","zip_code":"3091337"},{"name":"富士見台","zip_code":"3091212"},{"name":"本郷","zip_code":"3091227"},{"name":"真壁町飯塚","zip_code":"3004417"},{"name":"真壁町伊佐々","zip_code":"3004416"},{"name":"真壁町大塚新田","zip_code":"3004428"},{"name":"真壁町上小幡","zip_code":"3004401"},{"name":"真壁町上谷貝","zip_code":"3004427"},{"name":"真壁町亀熊","zip_code":"3004422"},{"name":"真壁町源法寺","zip_code":"3004424"},{"name":"真壁町酒寄","zip_code":"3004413"},{"name":"真壁町桜井","zip_code":"3004405"},{"name":"真壁町椎尾","zip_code":"3004414"},{"name":"真壁町下小幡","zip_code":"3004402"},{"name":"真壁町下谷貝","zip_code":"3004426"},{"name":"真壁町白井","zip_code":"3004404"},{"name":"真壁町田","zip_code":"3004411"},{"name":"真壁町長岡","zip_code":"3004403"},{"name":"真壁町羽鳥","zip_code":"3004412"},{"name":"真壁町塙世","zip_code":"3004423"},{"name":"真壁町原方","zip_code":"3004421"},{"name":"真壁町東矢貝","zip_code":"3004429"},{"name":"真壁町東山田","zip_code":"3004415"},{"name":"真壁町古城","zip_code":"3004407"},{"name":"真壁町細芝","zip_code":"3004425"},{"name":"真壁町真壁","zip_code":"3004408"},{"name":"真壁町山尾","zip_code":"3004406"},{"name":"松田","zip_code":"3091461"},{"name":"間中","zip_code":"3091342"},{"name":"水戸","zip_code":"3091455"},{"name":"南飯田","zip_code":"3091344"},{"name":"本木","zip_code":"3091231"},{"name":"山口","zip_code":"3091333"}]},{"name":"神栖市","divisions":[{"name":"息栖","zip_code":"3140133"},{"name":"居切","zip_code":"3140052"},{"name":"石神","zip_code":"3140124"},{"name":"太田","zip_code":"3140254"},{"name":"太田新町","zip_code":"3140257"},{"name":"大野原","zip_code":"3140144"},{"name":"大野原中央","zip_code":"3140128"},{"name":"奥野谷","zip_code":"3140116"},{"name":"賀","zip_code":"3140134"},{"name":"神栖","zip_code":"3140143"},{"name":"木崎","zip_code":"3140127"},{"name":"北浜","zip_code":"3140101"},{"name":"知手","zip_code":"3140115"},{"name":"知手中央","zip_code":"3140112"},{"name":"芝崎","zip_code":"3140123"},{"name":"下幡木","zip_code":"3140131"},{"name":"須田","zip_code":"3140253"},{"name":"砂山","zip_code":"3140255"},{"name":"高浜","zip_code":"3140125"},{"name":"田畑","zip_code":"3140126"},{"name":"筒井","zip_code":"3140132"},{"name":"土合北","zip_code":"3140342"},{"name":"土合中央","zip_code":"3140347"},{"name":"土合西","zip_code":"3140346"},{"name":"土合東","zip_code":"3140344"},{"name":"土合本町","zip_code":"3140343"},{"name":"土合南","zip_code":"3140345"},{"name":"東和田","zip_code":"3140102"},{"name":"日川","zip_code":"3140114"},{"name":"萩原","zip_code":"3140122"},{"name":"波崎","zip_code":"3140408"},{"name":"波崎新港","zip_code":"3140407"},{"name":"東深芝","zip_code":"3140103"},{"name":"光","zip_code":"3140051"},{"name":"平泉","zip_code":"3140146"},{"name":"平泉外１２入会","zip_code":"3140145"},{"name":"平泉東","zip_code":"3140145"},{"name":"深芝","zip_code":"3140148"},{"name":"深芝南","zip_code":"3140142"},{"name":"堀割","zip_code":"3140135"},{"name":"溝口","zip_code":"3140121"},{"name":"南浜","zip_code":"3140111"},{"name":"矢田部","zip_code":"3140341"},{"name":"柳川","zip_code":"3140252"},{"name":"柳川中央","zip_code":"3140258"},{"name":"横瀬","zip_code":"3140113"},{"name":"若松中央","zip_code":"3140256"},{"name":"鰐川","zip_code":"3140147"}]},{"name":"行方市","divisions":[{"name":"青沼","zip_code":"3113831"},{"name":"麻生","zip_code":"3113832"},{"name":"天掛","zip_code":"3113814"},{"name":"荒宿","zip_code":"3113518"},{"name":"井貝","zip_code":"3113803"},{"name":"石神","zip_code":"3113827"},{"name":"板峰","zip_code":"3113817"},{"name":"井上","zip_code":"3113515"},{"name":"井上藤井","zip_code":"3113516"},{"name":"宇崎","zip_code":"3113824"},{"name":"内宿","zip_code":"3111705"},{"name":"岡","zip_code":"3113822"},{"name":"沖洲","zip_code":"3113508"},{"name":"於下","zip_code":"3113802"},{"name":"小高","zip_code":"3113804"},{"name":"小貫","zip_code":"3111724"},{"name":"小幡","zip_code":"3111715"},{"name":"北高岡","zip_code":"3111716"},{"name":"蔵川","zip_code":"3113821"},{"name":"五町田","zip_code":"3113807"},{"name":"小牧","zip_code":"3113816"},{"name":"籠田","zip_code":"3113813"},{"name":"西蓮寺","zip_code":"3113514"},{"name":"島並","zip_code":"3113835"},{"name":"白浜","zip_code":"3113823"},{"name":"四鹿","zip_code":"3113811"},{"name":"新宮","zip_code":"3113815"},{"name":"杉平","zip_code":"3113812"},{"name":"芹沢","zip_code":"3113501"},{"name":"玉造乙","zip_code":"3113511"},{"name":"玉造甲","zip_code":"3113512"},{"name":"手賀","zip_code":"3113513"},{"name":"富田","zip_code":"3113833"},{"name":"中根","zip_code":"3111713"},{"name":"長野江","zip_code":"3111701"},{"name":"次木","zip_code":"3111722"},{"name":"行方","zip_code":"3113801"},{"name":"成田","zip_code":"3111703"},{"name":"根小屋","zip_code":"3113825"},{"name":"捻木","zip_code":"3113503"},{"name":"橋門","zip_code":"3113805"},{"name":"羽生","zip_code":"3113507"},{"name":"浜","zip_code":"3113505"},{"name":"繁昌","zip_code":"3111712"},{"name":"藤井","zip_code":"3113517"},{"name":"船子","zip_code":"3113806"},{"name":"粗毛","zip_code":"3113834"},{"name":"南","zip_code":"3113836"},{"name":"南高岡","zip_code":"3111714"},{"name":"三和","zip_code":"3111702"},{"name":"八木蒔","zip_code":"3113506"},{"name":"谷島","zip_code":"3113504"},{"name":"矢幡","zip_code":"3113826"},{"name":"山田","zip_code":"3111704"},{"name":"行戸","zip_code":"3111723"},{"name":"吉川","zip_code":"3111711"},{"name":"両宿","zip_code":"3111721"},{"name":"若海","zip_code":"3113502"}]},{"name":"鉾田市","divisions":[{"name":"青柳","zip_code":"3111535"},{"name":"青山","zip_code":"3112101"},{"name":"秋山","zip_code":"3111506"},{"name":"阿玉","zip_code":"3112118"},{"name":"荒地","zip_code":"3111411"},{"name":"安房","zip_code":"3111504"},{"name":"飯島","zip_code":"3112112"},{"name":"飯名","zip_code":"3111521"},{"name":"江川","zip_code":"3112114"},{"name":"大蔵","zip_code":"3112117"},{"name":"大竹","zip_code":"3111513"},{"name":"大戸","zip_code":"3111502"},{"name":"大和田","zip_code":"3111536"},{"name":"梶山","zip_code":"3112104"},{"name":"柏熊","zip_code":"3111511"},{"name":"柏熊新田","zip_code":"3111424"},{"name":"勝下","zip_code":"3111422"},{"name":"勝下新田","zip_code":"3111421"},{"name":"烟田","zip_code":"3111515"},{"name":"上太田","zip_code":"3111405"},{"name":"上釜","zip_code":"3111403"},{"name":"上沢","zip_code":"3112111"},{"name":"上冨田","zip_code":"3111532"},{"name":"上幡木","zip_code":"3112113"},{"name":"借宿","zip_code":"3111527"},{"name":"串挽","zip_code":"3111523"},{"name":"汲上","zip_code":"3112103"},{"name":"子生","zip_code":"3111414"},{"name":"駒木根","zip_code":"3111505"},{"name":"沢尻","zip_code":"3111404"},{"name":"鹿田","zip_code":"3111416"},{"name":"下太田","zip_code":"3111402"},{"name":"下冨田","zip_code":"3111533"},{"name":"白塚","zip_code":"3111512"},{"name":"新鉾田","zip_code":"3111516"},{"name":"新鉾田西","zip_code":"3111518"},{"name":"菅野谷","zip_code":"3111531"},{"name":"台濁沢","zip_code":"3112102"},{"name":"高田","zip_code":"3111524"},{"name":"滝浜","zip_code":"3111423"},{"name":"田崎","zip_code":"3111406"},{"name":"玉田","zip_code":"3111412"},{"name":"造谷","zip_code":"3111415"},{"name":"塔ケ崎","zip_code":"3111522"},{"name":"当間","zip_code":"3111528"},{"name":"常磐","zip_code":"3111427"},{"name":"徳宿","zip_code":"3111503"},{"name":"鳥栖","zip_code":"3111534"},{"name":"中居","zip_code":"3112115"},{"name":"野友","zip_code":"3111525"},{"name":"半原","zip_code":"3111526"},{"name":"冷水","zip_code":"3111413"},{"name":"札","zip_code":"3112116"},{"name":"二重作","zip_code":"3112105"},{"name":"舟木","zip_code":"3111501"},{"name":"鉾田","zip_code":"3111517"},{"name":"箕輪","zip_code":"3111401"},{"name":"紅葉","zip_code":"3111537"},{"name":"樅山","zip_code":"3111426"},{"name":"安塚","zip_code":"3111514"},{"name":"湯坪","zip_code":"3111425"}]},{"name":"つくばみらい市","divisions":[{"name":"青木","zip_code":"3002346"},{"name":"青古新田","zip_code":"3002348"},{"name":"足高","zip_code":"3002315"},{"name":"新戸","zip_code":"3002354"},{"name":"板橋","zip_code":"3002307"},{"name":"伊丹","zip_code":"3002323"},{"name":"市野深","zip_code":"3002355"},{"name":"伊奈東","zip_code":"3002308"},{"name":"弥柳","zip_code":"3002342"},{"name":"大和田","zip_code":"3002303"},{"name":"押砂","zip_code":"3002411"},{"name":"小島新田","zip_code":"3002352"},{"name":"鬼長","zip_code":"3002432"},{"name":"小張","zip_code":"3002353"},{"name":"神住新田","zip_code":"3002331"},{"name":"加藤","zip_code":"3002424"},{"name":"上小目","zip_code":"3002431"},{"name":"上島","zip_code":"3002326"},{"name":"上長沼","zip_code":"3002453"},{"name":"上平柳","zip_code":"3002335"},{"name":"川崎","zip_code":"3002425"},{"name":"神生","zip_code":"3002312"},{"name":"北袋","zip_code":"3002456"},{"name":"北山","zip_code":"3002407"},{"name":"絹の台","zip_code":"3002436"},{"name":"小絹","zip_code":"3002445"},{"name":"坂野新田","zip_code":"3002402"},{"name":"山王新田","zip_code":"3002332"},{"name":"山谷","zip_code":"3002336"},{"name":"紫峰ヶ丘","zip_code":"3002359"},{"name":"下小目","zip_code":"3002433"},{"name":"下島","zip_code":"3002324"},{"name":"下長沼","zip_code":"3002454"},{"name":"下平柳","zip_code":"3002333"},{"name":"重右衛門新田","zip_code":"3002305"},{"name":"十和","zip_code":"3002455"},{"name":"城中","zip_code":"3002314"},{"name":"杉下","zip_code":"3002444"},{"name":"善助新田","zip_code":"3002351"},{"name":"台","zip_code":"3002401"},{"name":"高岡","zip_code":"3002301"},{"name":"田村","zip_code":"3002413"},{"name":"樛木","zip_code":"3002452"},{"name":"筒戸","zip_code":"3002435"},{"name":"寺畑","zip_code":"3002441"},{"name":"戸崎","zip_code":"3002322"},{"name":"戸茂","zip_code":"3002321"},{"name":"中島","zip_code":"3002325"},{"name":"長渡呂","zip_code":"3002345"},{"name":"長渡呂新田","zip_code":"3002344"},{"name":"中原","zip_code":"3002403"},{"name":"中平柳","zip_code":"3002334"},{"name":"成瀬","zip_code":"3002423"},{"name":"仁左衛門新田","zip_code":"3002405"},{"name":"西楢戸","zip_code":"3002415"},{"name":"西ノ台","zip_code":"3002442"},{"name":"西ノ台南","zip_code":"3002443"},{"name":"西丸山","zip_code":"3002421"},{"name":"日川","zip_code":"3002412"},{"name":"野堀","zip_code":"3002311"},{"name":"東栗山","zip_code":"3002313"},{"name":"東楢戸","zip_code":"3002416"},{"name":"奉社","zip_code":"3002356"},{"name":"平沼","zip_code":"3002434"},{"name":"福岡","zip_code":"3002406"},{"name":"福田","zip_code":"3002341"},{"name":"福原","zip_code":"3002327"},{"name":"富士見ヶ丘","zip_code":"3002417"},{"name":"豊体","zip_code":"3002347"},{"name":"武兵衛新田","zip_code":"3002304"},{"name":"古川","zip_code":"3002422"},{"name":"細代","zip_code":"3002446"},{"name":"真木","zip_code":"3002414"},{"name":"狸穴","zip_code":"3002302"},{"name":"南","zip_code":"3002404"},{"name":"南太田","zip_code":"3002306"},{"name":"箕輪","zip_code":"3002451"},{"name":"宮戸","zip_code":"3002426"},{"name":"狸渕","zip_code":"3002343"},{"name":"谷井田","zip_code":"3002337"},{"name":"谷口","zip_code":"3002357"},{"name":"陽光台","zip_code":"3002358"}]},{"name":"小美玉市","divisions":[{"name":"飯前","zip_code":"3113404"},{"name":"江戸","zip_code":"3190122"},{"name":"大笹","zip_code":"3190137"},{"name":"大谷","zip_code":"3190126"},{"name":"小川","zip_code":"3113423"},{"name":"小曽納","zip_code":"3190125"},{"name":"堅倉","zip_code":"3190106"},{"name":"上合","zip_code":"3113405"},{"name":"上玉里","zip_code":"3113436"},{"name":"上馬場","zip_code":"3190115"},{"name":"上吉影","zip_code":"3113403"},{"name":"川戸","zip_code":"3113412"},{"name":"川中子","zip_code":"3113431"},{"name":"倉数","zip_code":"3113417"},{"name":"栗又四ケ","zip_code":"3113434"},{"name":"小岩戸","zip_code":"3190107"},{"name":"小塙","zip_code":"3113425"},{"name":"西郷地","zip_code":"3190102"},{"name":"佐才","zip_code":"3113402"},{"name":"三箇","zip_code":"3190104"},{"name":"柴高","zip_code":"3190103"},{"name":"下玉里","zip_code":"3113432"},{"name":"下馬場","zip_code":"3113426"},{"name":"下吉影","zip_code":"3113406"},{"name":"世楽","zip_code":"3113401"},{"name":"高崎","zip_code":"3113433"},{"name":"高田","zip_code":"3190135"},{"name":"田木谷","zip_code":"3113435"},{"name":"竹原","zip_code":"3190113"},{"name":"竹原下郷","zip_code":"3190112"},{"name":"竹原中郷","zip_code":"3190114"},{"name":"鶴田","zip_code":"3190105"},{"name":"手堤","zip_code":"3190136"},{"name":"寺崎","zip_code":"3190131"},{"name":"外之内","zip_code":"3113414"},{"name":"中台","zip_code":"3190116"},{"name":"中延","zip_code":"3113422"},{"name":"中野谷","zip_code":"3190111"},{"name":"納場","zip_code":"3190134"},{"name":"野田","zip_code":"3113411"},{"name":"羽刈","zip_code":"3190121"},{"name":"橋場美","zip_code":"3190101"},{"name":"幡谷","zip_code":"3113424"},{"name":"羽鳥","zip_code":"3190123"},{"name":"花野井","zip_code":"3190124"},{"name":"張星","zip_code":"3190133"},{"name":"東田中","zip_code":"3113437"},{"name":"百里","zip_code":"3113415"},{"name":"部室","zip_code":"3190132"},{"name":"先後","zip_code":"3190108"},{"name":"宮田","zip_code":"3113421"},{"name":"山野","zip_code":"3113413"},{"name":"与沢","zip_code":"3113416"}]},{"name":"東茨城郡茨城町","divisions":[{"name":"網掛","zip_code":"3113137"},{"name":"秋葉","zip_code":"3113147"},{"name":"飯沼","zip_code":"3113152"},{"name":"馬渡","zip_code":"3113111"},{"name":"海老沢","zip_code":"3113135"},{"name":"大戸","zip_code":"3113114"},{"name":"奥谷","zip_code":"3113156"},{"name":"小堤","zip_code":"3113131"},{"name":"小幡","zip_code":"3113157"},{"name":"上雨ケ谷","zip_code":"3113145"},{"name":"上飯沼","zip_code":"3113153"},{"name":"上石崎","zip_code":"3113122"},{"name":"神宿","zip_code":"3113134"},{"name":"神谷","zip_code":"3113141"},{"name":"木部","zip_code":"3113151"},{"name":"下座","zip_code":"3113146"},{"name":"小鶴","zip_code":"3113107"},{"name":"駒場","zip_code":"3113132"},{"name":"駒渡","zip_code":"3113104"},{"name":"越安","zip_code":"3113106"},{"name":"近藤","zip_code":"3113113"},{"name":"桜の郷","zip_code":"3113117"},{"name":"下雨ケ谷","zip_code":"3113144"},{"name":"下飯沼","zip_code":"3113154"},{"name":"下石崎","zip_code":"3113125"},{"name":"下土師","zip_code":"3113155"},{"name":"城之内","zip_code":"3113138"},{"name":"蕎麦原","zip_code":"3113105"},{"name":"中央工業団地","zip_code":"3113108"},{"name":"常井","zip_code":"3113112"},{"name":"鳥羽田","zip_code":"3113142"},{"name":"中石崎","zip_code":"3113124"},{"name":"長岡","zip_code":"3113116"},{"name":"生井沢","zip_code":"3113143"},{"name":"野曽","zip_code":"3113103"},{"name":"前田","zip_code":"3113115"},{"name":"南川又","zip_code":"3113101"},{"name":"南栗崎","zip_code":"3113102"},{"name":"南島田","zip_code":"3113133"},{"name":"宮ケ崎","zip_code":"3113136"},{"name":"谷田部","zip_code":"3113121"},{"name":"若宮","zip_code":"3113123"}]},{"name":"東茨城郡大洗町","divisions":[{"name":"磯浜町","zip_code":"3111301"},{"name":"磯道","zip_code":"3111302"},{"name":"大貫町","zip_code":"3111311"},{"name":"神山町","zip_code":"3111312"},{"name":"五反田","zip_code":"3111306"},{"name":"桜道","zip_code":"3111307"},{"name":"東光台","zip_code":"3111303"},{"name":"成田町","zip_code":"3111313"},{"name":"港中央","zip_code":"3111305"},{"name":"和銅","zip_code":"3111304"}]},{"name":"東茨城郡城里町","divisions":[{"name":"粟","zip_code":"3114321"},{"name":"阿波山","zip_code":"3114344"},{"name":"石塚","zip_code":"3114303"},{"name":"磯野","zip_code":"3114312"},{"name":"岩船","zip_code":"3114331"},{"name":"大網","zip_code":"3114403"},{"name":"小勝","zip_code":"3114402"},{"name":"小坂","zip_code":"3114316"},{"name":"勝見沢","zip_code":"3114317"},{"name":"上青山","zip_code":"3114305"},{"name":"上赤沢","zip_code":"3114405"},{"name":"上圷","zip_code":"3114323"},{"name":"上阿野沢","zip_code":"3114342"},{"name":"上泉","zip_code":"3114301"},{"name":"上入野","zip_code":"3114313"},{"name":"上古内","zip_code":"3114315"},{"name":"北方","zip_code":"3114325"},{"name":"御前山","zip_code":"3114341"},{"name":"真端","zip_code":"3114404"},{"name":"塩子","zip_code":"3114401"},{"name":"下青山","zip_code":"3114304"},{"name":"下赤沢","zip_code":"3114406"},{"name":"下圷","zip_code":"3114322"},{"name":"下阿野沢","zip_code":"3114343"},{"name":"下古内","zip_code":"3114314"},{"name":"錫高野","zip_code":"3114335"},{"name":"高久","zip_code":"3114324"},{"name":"高根","zip_code":"3114333"},{"name":"高根台","zip_code":"3114332"},{"name":"徳蔵","zip_code":"3114407"},{"name":"那珂西","zip_code":"3114302"},{"name":"春園","zip_code":"3114306"},{"name":"孫根","zip_code":"3114334"},{"name":"増井","zip_code":"3114311"}]},{"name":"那珂郡東海村","divisions":[{"name":"石神内宿","zip_code":"3191102"},{"name":"石神外宿","zip_code":"3191101"},{"name":"亀下","zip_code":"3191104"},{"name":"白方","zip_code":"3191106"},{"name":"白方中央","zip_code":"3191109"},{"name":"須和間","zip_code":"3191114"},{"name":"竹瓦","zip_code":"3191103"},{"name":"照沼","zip_code":"3191113"},{"name":"東海","zip_code":"3191117"},{"name":"豊岡","zip_code":"3191105"},{"name":"豊白","zip_code":"3191107"},{"name":"舟石川","zip_code":"3191111"},{"name":"舟石川駅西","zip_code":"3191116"},{"name":"舟石川駅東","zip_code":"3191118"},{"name":"船場","zip_code":"3191115"},{"name":"村松","zip_code":"3191112"},{"name":"村松北","zip_code":"3191108"}]},{"name":"久慈郡大子町","divisions":[{"name":"相川","zip_code":"3193534"},{"name":"浅川","zip_code":"3193541"},{"name":"芦野倉","zip_code":"3193538"},{"name":"池田","zip_code":"3193551"},{"name":"内大野","zip_code":"3193515"},{"name":"上岡","zip_code":"3193531"},{"name":"大沢","zip_code":"3193366"},{"name":"大生瀬","zip_code":"3193513"},{"name":"上金沢","zip_code":"3193535"},{"name":"上郷","zip_code":"3193703"},{"name":"上野宮","zip_code":"3193704"},{"name":"川山","zip_code":"3193556"},{"name":"北田気","zip_code":"3193521"},{"name":"北富田","zip_code":"3193363"},{"name":"北吉沢","zip_code":"3193701"},{"name":"久野瀬","zip_code":"3193522"},{"name":"小生瀬","zip_code":"3193512"},{"name":"頃藤","zip_code":"3193361"},{"name":"西金","zip_code":"3193362"},{"name":"左貫","zip_code":"3193543"},{"name":"下金沢","zip_code":"3193533"},{"name":"下津原","zip_code":"3193524"},{"name":"下野宮","zip_code":"3193555"},{"name":"外大野","zip_code":"3193514"},{"name":"大子","zip_code":"3193526"},{"name":"高柴","zip_code":"3193511"},{"name":"高田","zip_code":"3193554"},{"name":"田野沢","zip_code":"3193536"},{"name":"栃原","zip_code":"3193365"},{"name":"中郷","zip_code":"3193705"},{"name":"初原","zip_code":"3193542"},{"name":"塙","zip_code":"3193537"},{"name":"袋田","zip_code":"3193523"},{"name":"槇野地","zip_code":"3193544"},{"name":"町付","zip_code":"3193702"},{"name":"南田気","zip_code":"3193525"},{"name":"冥賀","zip_code":"3193553"},{"name":"盛金","zip_code":"3193364"},{"name":"矢田","zip_code":"3193552"},{"name":"山田","zip_code":"3193532"}]},{"name":"稲敷郡美浦村","divisions":[{"name":"受領","zip_code":"3000424"},{"name":"牛込","zip_code":"3000409"},{"name":"大須賀津","zip_code":"3000422"},{"name":"太田","zip_code":"3000411"},{"name":"大塚","zip_code":"3000416"},{"name":"大谷","zip_code":"3000413"},{"name":"大山","zip_code":"3000402"},{"name":"興津","zip_code":"3000425"},{"name":"木","zip_code":"3000433"},{"name":"木原","zip_code":"3000421"},{"name":"郷中","zip_code":"3000420"},{"name":"山王","zip_code":"3000419"},{"name":"信太","zip_code":"3000414"},{"name":"定光","zip_code":"3000432"},{"name":"土浦","zip_code":"3000404"},{"name":"土屋","zip_code":"3000426"},{"name":"中野内","zip_code":"3000435"},{"name":"根火","zip_code":"3000408"},{"name":"根本","zip_code":"3000436"},{"name":"花見塚","zip_code":"3000418"},{"name":"布佐","zip_code":"3000427"},{"name":"舟子","zip_code":"3000428"},{"name":"堀田","zip_code":"3000434"},{"name":"馬掛","zip_code":"3000401"},{"name":"間野","zip_code":"3000405"},{"name":"馬見山","zip_code":"3000403"},{"name":"美駒","zip_code":"3000415"},{"name":"みどり台","zip_code":"3000410"},{"name":"見晴","zip_code":"3000437"},{"name":"宮地","zip_code":"3000412"},{"name":"本橋","zip_code":"3000431"},{"name":"茂呂","zip_code":"3000423"},{"name":"八井田","zip_code":"3000407"},{"name":"谷中","zip_code":"3000417"},{"name":"山内","zip_code":"3000406"}]},{"name":"稲敷郡阿見町","divisions":[{"name":"青宿","zip_code":"3000301"},{"name":"曙","zip_code":"3000306"},{"name":"阿見","zip_code":"3000331"},{"name":"荒川沖","zip_code":"3001151"},{"name":"荒川本郷","zip_code":"3001152"},{"name":"飯倉","zip_code":"3000324"},{"name":"石川","zip_code":"3000313"},{"name":"うずら野","zip_code":"3000341"},{"name":"大形","zip_code":"3000323"},{"name":"大室","zip_code":"3000303"},{"name":"岡崎","zip_code":"3000335"},{"name":"追原","zip_code":"3000314"},{"name":"掛馬","zip_code":"3000304"},{"name":"香澄の里","zip_code":"3000315"},{"name":"上長","zip_code":"3001154"},{"name":"君島","zip_code":"3000322"},{"name":"小池","zip_code":"3001157"},{"name":"島津","zip_code":"3000311"},{"name":"実穀","zip_code":"3001153"},{"name":"上条","zip_code":"3000325"},{"name":"鈴木","zip_code":"3000334"},{"name":"住吉","zip_code":"3001158"},{"name":"竹来","zip_code":"3000305"},{"name":"中央","zip_code":"3000332"},{"name":"中郷","zip_code":"3000337"},{"name":"南平台","zip_code":"3000312"},{"name":"西郷","zip_code":"3000336"},{"name":"廻戸","zip_code":"3000302"},{"name":"塙","zip_code":"3000321"},{"name":"福田","zip_code":"3001156"},{"name":"星の里","zip_code":"3000326"},{"name":"本郷","zip_code":"3001159"},{"name":"吉原","zip_code":"3001155"},{"name":"若栗","zip_code":"3000333"}]},{"name":"稲敷郡河内町","divisions":[{"name":"片巻","zip_code":"3001404"},{"name":"金江津","zip_code":"3001403"},{"name":"源清田","zip_code":"3001324"},{"name":"幸谷","zip_code":"3001332"},{"name":"古河林","zip_code":"3001322"},{"name":"小林町歩","zip_code":"3001334"},{"name":"猿島","zip_code":"3001327"},{"name":"下加納","zip_code":"3001406"},{"name":"下町歩","zip_code":"3001314"},{"name":"十三間戸","zip_code":"3001401"},{"name":"十里","zip_code":"3001315"},{"name":"庄布川","zip_code":"3001311"},{"name":"角崎町歩","zip_code":"3001333"},{"name":"大徳鍋子新田","zip_code":"3001336"},{"name":"田川","zip_code":"3001313"},{"name":"手栗","zip_code":"3001323"},{"name":"長竿","zip_code":"3001312"},{"name":"羽子騎","zip_code":"3001321"},{"name":"平川","zip_code":"3001402"},{"name":"布鎌","zip_code":"3001316"},{"name":"平三郎","zip_code":"3001325"},{"name":"生板","zip_code":"3001331"},{"name":"生板鍋子新田","zip_code":"3001335"},{"name":"宮淵","zip_code":"3001326"},{"name":"竜ケ崎町歩","zip_code":"3001337"}]},{"name":"結城郡八千代町","divisions":[{"name":"芦ケ谷","zip_code":"3003555"},{"name":"芦ケ谷新田","zip_code":"3003556"},{"name":"新井","zip_code":"3003519"},{"name":"粟野","zip_code":"3003535"},{"name":"磯","zip_code":"3003562"},{"name":"今里","zip_code":"3003531"},{"name":"大里","zip_code":"3003514"},{"name":"太田","zip_code":"3003534"},{"name":"大戸新田","zip_code":"3003571"},{"name":"大間木","zip_code":"3003552"},{"name":"大渡戸","zip_code":"3003515"},{"name":"尾崎","zip_code":"3003554"},{"name":"貝谷","zip_code":"3003526"},{"name":"粕礼","zip_code":"3003503"},{"name":"片角","zip_code":"3003533"},{"name":"苅橋","zip_code":"3003537"},{"name":"川尻","zip_code":"3003521"},{"name":"久下田","zip_code":"3003513"},{"name":"栗山","zip_code":"3003551"},{"name":"小屋","zip_code":"3003512"},{"name":"佐野","zip_code":"3003505"},{"name":"塩本","zip_code":"3003501"},{"name":"下山川","zip_code":"3003502"},{"name":"新地","zip_code":"3003541"},{"name":"新地新田","zip_code":"3003543"},{"name":"菅谷","zip_code":"3003572"},{"name":"瀬戸井","zip_code":"3003511"},{"name":"高崎","zip_code":"3003516"},{"name":"坪井","zip_code":"3003517"},{"name":"中野","zip_code":"3003536"},{"name":"成田","zip_code":"3003506"},{"name":"仁江戸","zip_code":"3003539"},{"name":"西大山","zip_code":"3003504"},{"name":"沼森","zip_code":"3003525"},{"name":"野爪","zip_code":"3003518"},{"name":"八町","zip_code":"3003523"},{"name":"東大山","zip_code":"3003538"},{"name":"東原","zip_code":"3003527"},{"name":"東蕗田","zip_code":"3003545"},{"name":"兵庫","zip_code":"3003524"},{"name":"平塚","zip_code":"3003561"},{"name":"蕗田","zip_code":"3003553"},{"name":"福岡","zip_code":"3003542"},{"name":"袋","zip_code":"3003522"},{"name":"本郷","zip_code":"3003532"},{"name":"松本","zip_code":"3003565"},{"name":"水口","zip_code":"3003564"},{"name":"村貫","zip_code":"3003563"},{"name":"若","zip_code":"3003544"}]},{"name":"猿島郡五霞町","divisions":[{"name":"江川","zip_code":"3060303"},{"name":"大福田","zip_code":"3060311"},{"name":"川妻","zip_code":"3060314"},{"name":"幸主","zip_code":"3060304"},{"name":"小手指","zip_code":"3060315"},{"name":"小福田","zip_code":"3060307"},{"name":"山王","zip_code":"3060302"},{"name":"山王山","zip_code":"3060301"},{"name":"釈迦","zip_code":"3060316"},{"name":"新幸谷","zip_code":"3060312"},{"name":"原宿台","zip_code":"3060306"},{"name":"冬木","zip_code":"3060305"},{"name":"前林","zip_code":"3060317"},{"name":"元栗橋","zip_code":"3060313"}]},{"name":"猿島郡境町","divisions":[{"name":"一ノ谷","zip_code":"3060422"},{"name":"稲尾","zip_code":"3060407"},{"name":"内門","zip_code":"3060414"},{"name":"浦向","zip_code":"3060427"},{"name":"金岡","zip_code":"3060426"},{"name":"上小橋","zip_code":"3060434"},{"name":"桐ケ作","zip_code":"3060424"},{"name":"栗山","zip_code":"3060412"},{"name":"猿山","zip_code":"3060402"},{"name":"志鳥","zip_code":"3060401"},{"name":"下砂井","zip_code":"3060411"},{"name":"下小橋","zip_code":"3060432"},{"name":"蛇池","zip_code":"3060403"},{"name":"染谷","zip_code":"3060421"},{"name":"塚崎","zip_code":"3060405"},{"name":"長井戸","zip_code":"3060404"},{"name":"西泉田","zip_code":"3060431"},{"name":"新田戸","zip_code":"3060425"},{"name":"伏木","zip_code":"3060416"},{"name":"百戸","zip_code":"3060423"},{"name":"山崎","zip_code":"3060413"},{"name":"陽光台","zip_code":"3060435"},{"name":"横塚","zip_code":"3060406"},{"name":"若林","zip_code":"3060417"},{"name":"大歩","zip_code":"3060415"}]},{"name":"北相馬郡利根町","divisions":[{"name":"奥山","zip_code":"3001603"},{"name":"押付新田","zip_code":"3001634"},{"name":"押戸","zip_code":"3001602"},{"name":"加納新田","zip_code":"3001612"},{"name":"上曽根","zip_code":"3001635"},{"name":"四季の丘","zip_code":"3001626"},{"name":"下井","zip_code":"3001633"},{"name":"下曽根","zip_code":"3001632"},{"name":"惣新田","zip_code":"3001611"},{"name":"大平","zip_code":"3001605"},{"name":"大房","zip_code":"3001601"},{"name":"立木","zip_code":"3001616"},{"name":"立崎","zip_code":"3001614"},{"name":"中田切","zip_code":"3001624"},{"name":"中谷","zip_code":"3001615"},{"name":"八幡台","zip_code":"3001623"},{"name":"羽中","zip_code":"3001625"},{"name":"羽根野","zip_code":"3001636"},{"name":"早尾","zip_code":"3001631"},{"name":"東奥山新田","zip_code":"3001613"},{"name":"布川","zip_code":"3001622"},{"name":"福木","zip_code":"3001621"},{"name":"もえぎ野台","zip_code":"3001606"},{"name":"横須賀","zip_code":"3001604"}]}]}