{"name":"栃木県","cities":[{"name":"宇都宮市","divisions":[{"name":"相野沢町","zip_code":"3291113"},{"name":"明保野町","zip_code":"3200845"},{"name":"旭","zip_code":"3200818"},{"name":"芦沼町","zip_code":"3210404"},{"name":"飯田町","zip_code":"3210347"},{"name":"飯山町","zip_code":"3212101"},{"name":"池上町","zip_code":"3200801"},{"name":"石井町","zip_code":"3210912"},{"name":"石那田町","zip_code":"3212103"},{"name":"泉が丘","zip_code":"3210952"},{"name":"泉町","zip_code":"3200034"},{"name":"板戸町","zip_code":"3213221"},{"name":"一条","zip_code":"3200821"},{"name":"一の沢","zip_code":"3200047"},{"name":"一ノ沢町","zip_code":"3200049"},{"name":"一番町","zip_code":"3200812"},{"name":"今泉","zip_code":"3210966"},{"name":"今泉新町","zip_code":"3210961"},{"name":"今泉町","zip_code":"3210962"},{"name":"今里町","zip_code":"3210402"},{"name":"今宮","zip_code":"3210166"},{"name":"岩曽町","zip_code":"3210973"},{"name":"岩原町","zip_code":"3212117"},{"name":"岩本町","zip_code":"3210976"},{"name":"インターパーク","zip_code":"3210118"},{"name":"上野町","zip_code":"3210981"},{"name":"上田町","zip_code":"3210405"},{"name":"駅前通り","zip_code":"3210964"},{"name":"江曽島","zip_code":"3210107"},{"name":"江曽島本町","zip_code":"3210101"},{"name":"江曽島町","zip_code":"3210102"},{"name":"江野町","zip_code":"3200802"},{"name":"大網町","zip_code":"3212111"},{"name":"大曽","zip_code":"3200014"},{"name":"大塚町","zip_code":"3210161"},{"name":"大通り","zip_code":"3200811"},{"name":"大谷町","zip_code":"3210345"},{"name":"御蔵町","zip_code":"3200823"},{"name":"小幡","zip_code":"3200036"},{"name":"海道町","zip_code":"3210971"},{"name":"春日町","zip_code":"3210108"},{"name":"金田町","zip_code":"3210406"},{"name":"叶谷町","zip_code":"3291117"},{"name":"上大曽町","zip_code":"3200013"},{"name":"上大塚町","zip_code":"3291106"},{"name":"上欠町","zip_code":"3200855"},{"name":"上金井町","zip_code":"3212115"},{"name":"上桑島町","zip_code":"3210913"},{"name":"上小池町","zip_code":"3212104"},{"name":"上小倉町","zip_code":"3210401"},{"name":"上籠谷町","zip_code":"3213233"},{"name":"上田原町","zip_code":"3291112"},{"name":"上戸祭","zip_code":"3200058"},{"name":"上戸祭町","zip_code":"3200051"},{"name":"上御田町","zip_code":"3210115"},{"name":"上横倉町","zip_code":"3212112"},{"name":"上横田町","zip_code":"3210106"},{"name":"刈沼町","zip_code":"3213224"},{"name":"川田町","zip_code":"3210111"},{"name":"川俣町","zip_code":"3210977"},{"name":"川向町","zip_code":"3210965"},{"name":"河原町","zip_code":"3200822"},{"name":"瓦谷町","zip_code":"3200002"},{"name":"関白町","zip_code":"3210412"},{"name":"菊水町","zip_code":"3200844"},{"name":"北一の沢町","zip_code":"3200048"},{"name":"北若松原","zip_code":"3210153"},{"name":"京町","zip_code":"3200842"},{"name":"清住","zip_code":"3200037"},{"name":"清原工業団地","zip_code":"3213231"},{"name":"清原台","zip_code":"3213223"},{"name":"桑島町","zip_code":"3213234"},{"name":"越戸","zip_code":"3210951"},{"name":"越戸町","zip_code":"3210951"},{"name":"古賀志町","zip_code":"3210341"},{"name":"五代","zip_code":"3210135"},{"name":"鐺山町","zip_code":"3213235"},{"name":"駒生","zip_code":"3200066"},{"name":"駒生町","zip_code":"3200065"},{"name":"材木町","zip_code":"3200042"},{"name":"幸町","zip_code":"3200848"},{"name":"栄町","zip_code":"3200024"},{"name":"逆面町","zip_code":"3291111"},{"name":"鷺の谷町","zip_code":"3200854"},{"name":"桜","zip_code":"3200043"},{"name":"下ケ橋町","zip_code":"3291101"},{"name":"さつき","zip_code":"3210141"},{"name":"さるやま町","zip_code":"3210922"},{"name":"三番町","zip_code":"3200814"},{"name":"篠井町","zip_code":"3212102"},{"name":"下荒針町","zip_code":"3210346"},{"name":"下岡本町","zip_code":"3291104"},{"name":"下欠町","zip_code":"3200853"},{"name":"下金井町","zip_code":"3212114"},{"name":"下川俣町","zip_code":"3210972"},{"name":"下河原","zip_code":"3200824"},{"name":"下河原町","zip_code":"3200825"},{"name":"下桑島町","zip_code":"3210914"},{"name":"下栗","zip_code":"3210924"},{"name":"下栗町","zip_code":"3210923"},{"name":"下小池町","zip_code":"3212105"},{"name":"下小倉町","zip_code":"3210403"},{"name":"下反町町","zip_code":"3210122"},{"name":"下田原町","zip_code":"3291115"},{"name":"下砥上町","zip_code":"3200852"},{"name":"下戸祭","zip_code":"3200055"},{"name":"下平出町","zip_code":"3210903"},{"name":"下横倉町","zip_code":"3212113"},{"name":"下横田町","zip_code":"3210124"},{"name":"宿郷","zip_code":"3210945"},{"name":"城東","zip_code":"3210935"},{"name":"城南","zip_code":"3210117"},{"name":"松風台","zip_code":"3210413"},{"name":"昭和","zip_code":"3200032"},{"name":"白沢町","zip_code":"3291102"},{"name":"新富町","zip_code":"3210133"},{"name":"新町","zip_code":"3200831"},{"name":"末広","zip_code":"3210144"},{"name":"雀の宮","zip_code":"3210132"},{"name":"雀宮町","zip_code":"3210121"},{"name":"砂田町","zip_code":"3210113"},{"name":"住吉町","zip_code":"3200864"},{"name":"関堀町","zip_code":"3210975"},{"name":"千波町","zip_code":"3200022"},{"name":"大寛","zip_code":"3200867"},{"name":"台新田","zip_code":"3210104"},{"name":"台新田町","zip_code":"3210103"},{"name":"高砂町","zip_code":"3210134"},{"name":"高松町","zip_code":"3210416"},{"name":"宝井町","zip_code":"3291114"},{"name":"宝木町","zip_code":"3200061"},{"name":"宝木本町","zip_code":"3200075"},{"name":"滝の原","zip_code":"3200846"},{"name":"滝谷町","zip_code":"3200847"},{"name":"竹下町","zip_code":"3213236"},{"name":"竹林町","zip_code":"3210974"},{"name":"田下町","zip_code":"3210343"},{"name":"田野町","zip_code":"3210344"},{"name":"中央","zip_code":"3200806"},{"name":"中央本町","zip_code":"3200805"},{"name":"鶴田","zip_code":"3200857"},{"name":"鶴田町","zip_code":"3200851"},{"name":"天神","zip_code":"3200816"},{"name":"伝馬町","zip_code":"3200035"},{"name":"道場宿町","zip_code":"3213237"},{"name":"東谷町","zip_code":"3210123"},{"name":"砥上町","zip_code":"3200856"},{"name":"徳次郎町","zip_code":"3212116"},{"name":"戸祭","zip_code":"3200056"},{"name":"戸祭台","zip_code":"3200017"},{"name":"戸祭町","zip_code":"3200053"},{"name":"戸祭元町","zip_code":"3200031"},{"name":"豊郷台","zip_code":"3200003"},{"name":"問屋町","zip_code":"3210911"},{"name":"中一の沢町","zip_code":"3200045"},{"name":"中今泉","zip_code":"3210968"},{"name":"長岡町","zip_code":"3200004"},{"name":"中岡本町","zip_code":"3291105"},{"name":"中河原町","zip_code":"3200815"},{"name":"中久保","zip_code":"3210906"},{"name":"中里町","zip_code":"3210414"},{"name":"中島町","zip_code":"3210114"},{"name":"中戸祭","zip_code":"3200057"},{"name":"中戸祭町","zip_code":"3200052"},{"name":"仲町","zip_code":"3200023"},{"name":"長峰町","zip_code":"3291107"},{"name":"西","zip_code":"3200861"},{"name":"西一の沢町","zip_code":"3200046"},{"name":"西刑部町","zip_code":"3210917"},{"name":"西川田","zip_code":"3210152"},{"name":"西川田東町","zip_code":"3210154"},{"name":"西川田本町","zip_code":"3210158"},{"name":"西川田町","zip_code":"3210151"},{"name":"西川田南","zip_code":"3210155"},{"name":"錦","zip_code":"3210967"},{"name":"西大寛","zip_code":"3200866"},{"name":"西の宮","zip_code":"3200064"},{"name":"西原","zip_code":"3200862"},{"name":"西原町","zip_code":"3200826"},{"name":"新里町","zip_code":"3212118"},{"name":"二番町","zip_code":"3200813"},{"name":"野高谷町","zip_code":"3213222"},{"name":"野沢町","zip_code":"3200071"},{"name":"羽牛田町","zip_code":"3210127"},{"name":"八幡台","zip_code":"3200015"},{"name":"花園町","zip_code":"3200843"},{"name":"花房","zip_code":"3200827"},{"name":"花房本町","zip_code":"3200828"},{"name":"塙田","zip_code":"3200027"},{"name":"馬場通り","zip_code":"3200026"},{"name":"針ケ谷","zip_code":"3210137"},{"name":"針ケ谷町","zip_code":"3210147"},{"name":"東今泉","zip_code":"3210941"},{"name":"東浦町","zip_code":"3210167"},{"name":"東岡本町","zip_code":"3291103"},{"name":"東刑部町","zip_code":"3210915"},{"name":"東木代町","zip_code":"3210916"},{"name":"東宿郷","zip_code":"3210953"},{"name":"東宝木町","zip_code":"3200062"},{"name":"東戸祭","zip_code":"3200054"},{"name":"東塙田","zip_code":"3200021"},{"name":"東原町","zip_code":"3210168"},{"name":"東町","zip_code":"3210985"},{"name":"東峰町","zip_code":"3210944"},{"name":"東簗瀬","zip_code":"3210925"},{"name":"東横田町","zip_code":"3210116"},{"name":"日の出","zip_code":"3200832"},{"name":"氷室町","zip_code":"3213232"},{"name":"兵庫塚","zip_code":"3210138"},{"name":"兵庫塚町","zip_code":"3210156"},{"name":"平出工業団地","zip_code":"3210905"},{"name":"平出町","zip_code":"3210901"},{"name":"平塚町","zip_code":"3210918"},{"name":"平松町","zip_code":"3210931"},{"name":"平松本町","zip_code":"3210932"},{"name":"福岡町","zip_code":"3210342"},{"name":"富士見が丘","zip_code":"3200011"},{"name":"富士見町","zip_code":"3210146"},{"name":"二荒町","zip_code":"3200804"},{"name":"双葉","zip_code":"3210164"},{"name":"不動前","zip_code":"3200833"},{"name":"冬室町","zip_code":"3210417"},{"name":"古田町","zip_code":"3291108"},{"name":"星が丘","zip_code":"3200038"},{"name":"細谷","zip_code":"3200073"},{"name":"細谷町","zip_code":"3200074"},{"name":"本町","zip_code":"3200033"},{"name":"本丸町","zip_code":"3200817"},{"name":"幕田町","zip_code":"3210157"},{"name":"曲師町","zip_code":"3200803"},{"name":"松が峰","zip_code":"3200807"},{"name":"松田新田町","zip_code":"3210407"},{"name":"松原","zip_code":"3200041"},{"name":"満美穴町","zip_code":"3213225"},{"name":"操町","zip_code":"3200863"},{"name":"瑞穂","zip_code":"3210921"},{"name":"御田長島町","zip_code":"3210125"},{"name":"緑","zip_code":"3210165"},{"name":"みどり野町","zip_code":"3210136"},{"name":"南一の沢町","zip_code":"3200044"},{"name":"南大通り","zip_code":"3210963"},{"name":"南高砂町","zip_code":"3210143"},{"name":"南町","zip_code":"3210142"},{"name":"峰","zip_code":"3210942"},{"name":"峰町","zip_code":"3210943"},{"name":"宮園町","zip_code":"3200808"},{"name":"宮の内","zip_code":"3210131"},{"name":"宮原","zip_code":"3200835"},{"name":"宮町","zip_code":"3200025"},{"name":"宮みらい","zip_code":"3210969"},{"name":"宮本町","zip_code":"3210163"},{"name":"宮山田町","zip_code":"3210411"},{"name":"御幸ケ原町","zip_code":"3210982"},{"name":"御幸町","zip_code":"3210984"},{"name":"御幸本町","zip_code":"3210983"},{"name":"睦町","zip_code":"3200865"},{"name":"免ノ内町","zip_code":"3210415"},{"name":"元今泉","zip_code":"3210954"},{"name":"茂原","zip_code":"3210145"},{"name":"茂原町","zip_code":"3210126"},{"name":"屋板町","zip_code":"3210112"},{"name":"八千代","zip_code":"3210169"},{"name":"柳田町","zip_code":"3210902"},{"name":"簗瀬","zip_code":"3210934"},{"name":"簗瀬町","zip_code":"3210933"},{"name":"大和","zip_code":"3210162"},{"name":"山本","zip_code":"3200012"},{"name":"山本町","zip_code":"3200016"},{"name":"弥生","zip_code":"3200837"},{"name":"ゆいの杜","zip_code":"3213226"},{"name":"陽西町","zip_code":"3200063"},{"name":"陽東","zip_code":"3210904"},{"name":"陽南","zip_code":"3200834"},{"name":"横田新町","zip_code":"3210105"},{"name":"横山","zip_code":"3200005"},{"name":"横山町","zip_code":"3200001"},{"name":"吉野","zip_code":"3200838"},{"name":"立伏町","zip_code":"3291116"},{"name":"六道町","zip_code":"3200841"},{"name":"若草","zip_code":"3200072"},{"name":"若松原","zip_code":"3210139"}]},{"name":"足利市","divisions":[{"name":"相生町","zip_code":"3260052"},{"name":"赤松台","zip_code":"3260062"},{"name":"県町","zip_code":"3260328"},{"name":"朝倉町","zip_code":"3260823"},{"name":"旭町","zip_code":"3260802"},{"name":"荒金町","zip_code":"3260832"},{"name":"新宿町","zip_code":"3260834"},{"name":"粟谷町","zip_code":"3260103"},{"name":"家富町","zip_code":"3260803"},{"name":"鵤木町","zip_code":"3260014"},{"name":"井草町","zip_code":"3260811"},{"name":"伊勢町","zip_code":"3260053"},{"name":"伊勢南町","zip_code":"3260054"},{"name":"板倉町","zip_code":"3260102"},{"name":"稲岡町","zip_code":"3294212"},{"name":"今福町","zip_code":"3260842"},{"name":"岩井町","zip_code":"3260046"},{"name":"永楽町","zip_code":"3260055"},{"name":"江川町","zip_code":"3260067"},{"name":"大岩町","zip_code":"3260841"},{"name":"大久保町","zip_code":"3260012"},{"name":"大月町","zip_code":"3260005"},{"name":"大沼田町","zip_code":"3260011"},{"name":"大橋町","zip_code":"3260051"},{"name":"大前町","zip_code":"3260845"},{"name":"奥戸町","zip_code":"3294215"},{"name":"小曽根町","zip_code":"3260326"},{"name":"小俣町","zip_code":"3260141"},{"name":"小俣南町","zip_code":"3260142"},{"name":"利保町","zip_code":"3260006"},{"name":"鹿島町","zip_code":"3260844"},{"name":"樺崎町","zip_code":"3260004"},{"name":"上渋垂町","zip_code":"3260335"},{"name":"借宿町","zip_code":"3260826"},{"name":"川崎町","zip_code":"3260013"},{"name":"久保田町","zip_code":"3260324"},{"name":"毛野新町","zip_code":"3260016"},{"name":"寿町","zip_code":"3260025"},{"name":"駒場町","zip_code":"3294217"},{"name":"栄町","zip_code":"3260815"},{"name":"里矢場町","zip_code":"3260835"},{"name":"猿田町","zip_code":"3260023"},{"name":"島田町","zip_code":"3260337"},{"name":"下渋垂町","zip_code":"3260334"},{"name":"昌平町","zip_code":"3260813"},{"name":"新山町","zip_code":"3260063"},{"name":"末広町","zip_code":"3260031"},{"name":"助戸","zip_code":"3260044"},{"name":"助戸大橋町","zip_code":"3260048"},{"name":"助戸新山町","zip_code":"3260041"},{"name":"助戸仲町","zip_code":"3260043"},{"name":"助戸東山町","zip_code":"3260042"},{"name":"菅田町","zip_code":"3260007"},{"name":"大正町","zip_code":"3260807"},{"name":"大町","zip_code":"3260056"},{"name":"大門通","zip_code":"3260812"},{"name":"高松町","zip_code":"3260325"},{"name":"田島町","zip_code":"3260061"},{"name":"多田木町","zip_code":"3294214"},{"name":"田所町","zip_code":"3260066"},{"name":"田中町","zip_code":"3260822"},{"name":"千歳町","zip_code":"3260045"},{"name":"月谷町","zip_code":"3260068"},{"name":"常見町","zip_code":"3260022"},{"name":"寺岡町","zip_code":"3294213"},{"name":"通","zip_code":"3260814"},{"name":"常盤町","zip_code":"3260026"},{"name":"巴町","zip_code":"3260805"},{"name":"問屋町","zip_code":"3260333"},{"name":"中川町","zip_code":"3260825"},{"name":"名草上町","zip_code":"3260001"},{"name":"名草中町","zip_code":"3260002"},{"name":"名草下町","zip_code":"3260003"},{"name":"西新井町","zip_code":"3260837"},{"name":"錦町","zip_code":"3260047"},{"name":"西砂原後町","zip_code":"3260065"},{"name":"西宮町","zip_code":"3260817"},{"name":"西場町","zip_code":"3294211"},{"name":"野田町","zip_code":"3260322"},{"name":"羽刈町","zip_code":"3260327"},{"name":"迫間町","zip_code":"3294216"},{"name":"葉鹿町","zip_code":"3260143"},{"name":"葉鹿南町","zip_code":"3260144"},{"name":"花園町","zip_code":"3260033"},{"name":"東砂原後町","zip_code":"3260064"},{"name":"久松町","zip_code":"3260034"},{"name":"福居町","zip_code":"3260338"},{"name":"福富新町","zip_code":"3260332"},{"name":"福富町","zip_code":"3260331"},{"name":"富士見町","zip_code":"3260037"},{"name":"藤本町","zip_code":"3260833"},{"name":"堀込町","zip_code":"3260831"},{"name":"本城","zip_code":"3260808"},{"name":"真砂町","zip_code":"3260032"},{"name":"松田町","zip_code":"3260101"},{"name":"丸山町","zip_code":"3260057"},{"name":"瑞穂野町","zip_code":"3260323"},{"name":"緑町","zip_code":"3260816"},{"name":"南大町","zip_code":"3260836"},{"name":"南町","zip_code":"3260821"},{"name":"宮北町","zip_code":"3260027"},{"name":"元学町","zip_code":"3260058"},{"name":"百頭町","zip_code":"3260336"},{"name":"八椚町","zip_code":"3260015"},{"name":"柳原町","zip_code":"3260806"},{"name":"梁田町","zip_code":"3260321"},{"name":"山川町","zip_code":"3260021"},{"name":"山下町","zip_code":"3260846"},{"name":"弥生町","zip_code":"3260036"},{"name":"八幡町","zip_code":"3260824"},{"name":"有楽町","zip_code":"3260801"},{"name":"雪輪町","zip_code":"3260804"},{"name":"芳町","zip_code":"3260035"},{"name":"五十部町","zip_code":"3260843"},{"name":"若草町","zip_code":"3260024"}]},{"name":"栃木市","divisions":[{"name":"旭町","zip_code":"3280035"},{"name":"梓町","zip_code":"3280131"},{"name":"新井町","zip_code":"3280061"},{"name":"泉川町","zip_code":"3280062"},{"name":"泉町","zip_code":"3280014"},{"name":"出流町","zip_code":"3280206"},{"name":"今泉町","zip_code":"3280027"},{"name":"入舟町","zip_code":"3280016"},{"name":"祝町","zip_code":"3280052"},{"name":"岩出町","zip_code":"3280063"},{"name":"梅沢町","zip_code":"3280204"},{"name":"大久保町","zip_code":"3280202"},{"name":"大塚町","zip_code":"3280007"},{"name":"大平町新","zip_code":"3294425"},{"name":"大平町牛久","zip_code":"3294401"},{"name":"大平町榎本","zip_code":"3294422"},{"name":"大平町上高島","zip_code":"3294413"},{"name":"大平町川連","zip_code":"3294407"},{"name":"大平町北武井","zip_code":"3294412"},{"name":"大平町蔵井","zip_code":"3294403"},{"name":"大平町下高島","zip_code":"3294414"},{"name":"大平町下皆川","zip_code":"3294406"},{"name":"大平町富田","zip_code":"3294404"},{"name":"大平町土与","zip_code":"3294402"},{"name":"大平町西野田","zip_code":"3294421"},{"name":"大平町西水代","zip_code":"3294423"},{"name":"大平町西山田","zip_code":"3294405"},{"name":"大平町伯仲","zip_code":"3294424"},{"name":"大平町真弓","zip_code":"3294415"},{"name":"大平町横堀","zip_code":"3294411"},{"name":"大皆川町","zip_code":"3280068"},{"name":"大宮町","zip_code":"3280011"},{"name":"大森町","zip_code":"3280133"},{"name":"小野口町","zip_code":"3280065"},{"name":"嘉右衛門町","zip_code":"3280072"},{"name":"柏倉町","zip_code":"3280066"},{"name":"片柳町","zip_code":"3280053"},{"name":"河合町","zip_code":"3280041"},{"name":"川原田町","zip_code":"3280123"},{"name":"神田町","zip_code":"3280032"},{"name":"木野地町","zip_code":"3280122"},{"name":"久保田町","zip_code":"3280021"},{"name":"国府町","zip_code":"3280006"},{"name":"高谷町","zip_code":"3280023"},{"name":"小平町","zip_code":"3280073"},{"name":"境町","zip_code":"3280043"},{"name":"志鳥町","zip_code":"3280064"},{"name":"城内町","zip_code":"3280033"},{"name":"昭和町","zip_code":"3280013"},{"name":"尻内町","zip_code":"3280203"},{"name":"惣社町","zip_code":"3280002"},{"name":"薗部町","zip_code":"3280074"},{"name":"大光寺町","zip_code":"3280003"},{"name":"大町","zip_code":"3280071"},{"name":"田村町","zip_code":"3280004"},{"name":"千塚町","zip_code":"3280135"},{"name":"都賀町家中","zip_code":"3280111"},{"name":"都賀町臼久保","zip_code":"3280105"},{"name":"都賀町大柿","zip_code":"3280101"},{"name":"都賀町大橋","zip_code":"3280106"},{"name":"都賀町合戦場","zip_code":"3280113"},{"name":"都賀町木","zip_code":"3280104"},{"name":"都賀町富張","zip_code":"3280102"},{"name":"都賀町原宿","zip_code":"3280103"},{"name":"都賀町平川","zip_code":"3280112"},{"name":"都賀町深沢","zip_code":"3280107"},{"name":"都賀町升塚","zip_code":"3280114"},{"name":"仲方町","zip_code":"3280132"},{"name":"仲仕上町","zip_code":"3280025"},{"name":"鍋山町","zip_code":"3280205"},{"name":"西方町金井","zip_code":"3220602"},{"name":"西方町金崎","zip_code":"3220601"},{"name":"西方町本郷","zip_code":"3220603"},{"name":"西方町本城","zip_code":"3220606"},{"name":"西方町真名子","zip_code":"3220605"},{"name":"西方町元","zip_code":"3220604"},{"name":"錦町","zip_code":"3280017"},{"name":"沼和田町","zip_code":"3280042"},{"name":"野中町","zip_code":"3280124"},{"name":"箱森町","zip_code":"3280075"},{"name":"樋ノ口町","zip_code":"3280024"},{"name":"日ノ出町","zip_code":"3280031"},{"name":"平井町","zip_code":"3280054"},{"name":"平柳町","zip_code":"3280012"},{"name":"吹上町","zip_code":"3280125"},{"name":"藤岡町赤麻","zip_code":"3231102"},{"name":"藤岡町石川","zip_code":"3290316"},{"name":"藤岡町内野","zip_code":"3231103"},{"name":"藤岡町太田","zip_code":"3231108"},{"name":"藤岡町大田和","zip_code":"3231107"},{"name":"藤岡町大前","zip_code":"3231101"},{"name":"藤岡町甲","zip_code":"3231105"},{"name":"藤岡町下宮","zip_code":"3491221"},{"name":"藤岡町帯刀","zip_code":"3290317"},{"name":"藤岡町都賀","zip_code":"3231106"},{"name":"藤岡町富吉","zip_code":"3290311"},{"name":"藤岡町中根","zip_code":"3290319"},{"name":"藤岡町西前原","zip_code":"3290318"},{"name":"藤岡町新波","zip_code":"3290314"},{"name":"藤岡町蛭沼","zip_code":"3290312"},{"name":"藤岡町藤岡","zip_code":"3231104"},{"name":"藤岡町部屋","zip_code":"3290315"},{"name":"藤岡町緑川","zip_code":"3290313"},{"name":"藤田町","zip_code":"3280026"},{"name":"富士見町","zip_code":"3280044"},{"name":"星野町","zip_code":"3280201"},{"name":"細堀町","zip_code":"3280121"},{"name":"本町","zip_code":"3280034"},{"name":"皆川城内町","zip_code":"3280067"},{"name":"湊町","zip_code":"3280045"},{"name":"宮田町","zip_code":"3280022"},{"name":"宮町","zip_code":"3280134"},{"name":"室町","zip_code":"3280036"},{"name":"柳橋町","zip_code":"3280051"},{"name":"柳原町","zip_code":"3280001"},{"name":"倭町","zip_code":"3280037"},{"name":"寄居町","zip_code":"3280005"},{"name":"万町","zip_code":"3280015"}]},{"name":"佐野市","divisions":[{"name":"相生町","zip_code":"3270023"},{"name":"会沢町","zip_code":"3270511"},{"name":"赤坂町","zip_code":"3270004"},{"name":"赤見町","zip_code":"3270104"},{"name":"秋山町","zip_code":"3270517"},{"name":"あくと町","zip_code":"3270525"},{"name":"浅沼町","zip_code":"3270831"},{"name":"朝日町","zip_code":"3270011"},{"name":"鐙塚町","zip_code":"3270815"},{"name":"飯田町","zip_code":"3270825"},{"name":"伊賀町","zip_code":"3270021"},{"name":"石塚町","zip_code":"3270103"},{"name":"出流原町","zip_code":"3270102"},{"name":"伊勢山町","zip_code":"3270817"},{"name":"犬伏上町","zip_code":"3270806"},{"name":"犬伏中町","zip_code":"3270805"},{"name":"犬伏下町","zip_code":"3270804"},{"name":"犬伏新町","zip_code":"3270803"},{"name":"伊保内町","zip_code":"3270034"},{"name":"岩崎町","zip_code":"3270307"},{"name":"植上町","zip_code":"3270832"},{"name":"植下町","zip_code":"3270835"},{"name":"植野町","zip_code":"3270837"},{"name":"梅園町","zip_code":"3270322"},{"name":"大蔵町","zip_code":"3270012"},{"name":"大栗町","zip_code":"3270807"},{"name":"大古屋町","zip_code":"3270033"},{"name":"大橋町","zip_code":"3270003"},{"name":"小見町","zip_code":"3270316"},{"name":"柿平町","zip_code":"3270515"},{"name":"嘉多山町","zip_code":"3270523"},{"name":"金井上町","zip_code":"3270015"},{"name":"金吹町","zip_code":"3270007"},{"name":"金屋下町","zip_code":"3270025"},{"name":"金屋仲町","zip_code":"3270026"},{"name":"庚申塚町","zip_code":"3270032"},{"name":"上台町","zip_code":"3270006"},{"name":"上羽田町","zip_code":"3270042"},{"name":"亀井町","zip_code":"3270024"},{"name":"閑馬町","zip_code":"3270321"},{"name":"北茂呂町","zip_code":"3270827"},{"name":"君田町","zip_code":"3270043"},{"name":"葛生西","zip_code":"3270507"},{"name":"葛生東","zip_code":"3270501"},{"name":"久保町","zip_code":"3270845"},{"name":"黒袴町","zip_code":"3270813"},{"name":"越名町","zip_code":"3270822"},{"name":"小中町","zip_code":"3270001"},{"name":"栄町","zip_code":"3270816"},{"name":"作原町","zip_code":"3270301"},{"name":"七軒町","zip_code":"3270005"},{"name":"寺中町","zip_code":"3270836"},{"name":"下羽田町","zip_code":"3270044"},{"name":"下彦間町","zip_code":"3270325"},{"name":"白岩町","zip_code":"3270302"},{"name":"新吉水町","zip_code":"3270314"},{"name":"関川町","zip_code":"3270811"},{"name":"仙波町","zip_code":"3280221"},{"name":"大祝町","zip_code":"3270016"},{"name":"大町","zip_code":"3270017"},{"name":"高砂町","zip_code":"3270022"},{"name":"高萩町","zip_code":"3270821"},{"name":"高橋町","zip_code":"3270045"},{"name":"高山町","zip_code":"3270823"},{"name":"田島町","zip_code":"3270031"},{"name":"多田町","zip_code":"3270311"},{"name":"田沼町","zip_code":"3270317"},{"name":"田之入町","zip_code":"3270841"},{"name":"築地町","zip_code":"3270502"},{"name":"寺久保町","zip_code":"3270101"},{"name":"天神町","zip_code":"3270847"},{"name":"天明町","zip_code":"3270014"},{"name":"栃本町","zip_code":"3270312"},{"name":"戸奈良町","zip_code":"3270323"},{"name":"富岡町","zip_code":"3270844"},{"name":"戸室町","zip_code":"3270306"},{"name":"豊代町","zip_code":"3270512"},{"name":"長坂町","zip_code":"3270524"},{"name":"中町","zip_code":"3270504"},{"name":"並木町","zip_code":"3270002"},{"name":"奈良渕町","zip_code":"3270842"},{"name":"西浦町","zip_code":"3270814"},{"name":"韮川町","zip_code":"3270802"},{"name":"長谷場町","zip_code":"3270303"},{"name":"鉢木町","zip_code":"3270508"},{"name":"飛駒町","zip_code":"3270231"},{"name":"富士町","zip_code":"3270801"},{"name":"富士見町","zip_code":"3270503"},{"name":"船越町","zip_code":"3270305"},{"name":"船津川町","zip_code":"3270035"},{"name":"堀米町","zip_code":"3270843"},{"name":"本町","zip_code":"3270013"},{"name":"馬門町","zip_code":"3270824"},{"name":"牧町","zip_code":"3270513"},{"name":"町谷町","zip_code":"3270812"},{"name":"御神楽町","zip_code":"3270304"},{"name":"水木町","zip_code":"3270516"},{"name":"宮下町","zip_code":"3270509"},{"name":"村上町","zip_code":"3270046"},{"name":"免鳥町","zip_code":"3270041"},{"name":"茂呂山町","zip_code":"3270826"},{"name":"山形町","zip_code":"3270324"},{"name":"山越町","zip_code":"3270318"},{"name":"山菅町","zip_code":"3270505"},{"name":"大和町","zip_code":"3270027"},{"name":"吉水駅前","zip_code":"3270315"},{"name":"吉水町","zip_code":"3270313"},{"name":"米山南町","zip_code":"3270818"},{"name":"万町","zip_code":"3270028"},{"name":"若松町","zip_code":"3270846"},{"name":"若宮上町","zip_code":"3270833"},{"name":"若宮下町","zip_code":"3270834"}]},{"name":"鹿沼市","divisions":[{"name":"麻苧町","zip_code":"3220058"},{"name":"旭が丘","zip_code":"3220345"},{"name":"朝日町","zip_code":"3220035"},{"name":"東町","zip_code":"3220022"},{"name":"油田町","zip_code":"3220342"},{"name":"池ノ森","zip_code":"3220018"},{"name":"石橋町","zip_code":"3220055"},{"name":"泉町","zip_code":"3220062"},{"name":"磯町","zip_code":"3220536"},{"name":"板荷","zip_code":"3211111"},{"name":"今宮町","zip_code":"3220068"},{"name":"入粟野","zip_code":"3220307"},{"name":"上野町","zip_code":"3220021"},{"name":"大和田町","zip_code":"3220525"},{"name":"御成橋町","zip_code":"3220005"},{"name":"貝島町","zip_code":"3220027"},{"name":"柏木","zip_code":"3220304"},{"name":"加園","zip_code":"3220252"},{"name":"上石川","zip_code":"3220015"},{"name":"上大久保","zip_code":"3220102"},{"name":"上粕尾","zip_code":"3220423"},{"name":"上久我","zip_code":"3220254"},{"name":"上材木町","zip_code":"3220065"},{"name":"上田町","zip_code":"3220066"},{"name":"上殿町","zip_code":"3220045"},{"name":"上永野","zip_code":"3280211"},{"name":"上奈良部町","zip_code":"3220522"},{"name":"上南摩町","zip_code":"3220346"},{"name":"上日向","zip_code":"3220076"},{"name":"亀和田町","zip_code":"3220534"},{"name":"北赤塚町","zip_code":"3220533"},{"name":"北半田","zip_code":"3220301"},{"name":"銀座","zip_code":"3220052"},{"name":"草久","zip_code":"3220101"},{"name":"口粟野","zip_code":"3220305"},{"name":"久野","zip_code":"3220303"},{"name":"久保町","zip_code":"3220051"},{"name":"晃望台","zip_code":"3220024"},{"name":"高谷","zip_code":"3220009"},{"name":"古賀志町","zip_code":"3220008"},{"name":"幸町","zip_code":"3220023"},{"name":"栄町","zip_code":"3220028"},{"name":"坂田山","zip_code":"3220069"},{"name":"酒野谷","zip_code":"3220047"},{"name":"笹原田","zip_code":"3220078"},{"name":"さつき町","zip_code":"3220014"},{"name":"佐目町","zip_code":"3220343"},{"name":"三幸町","zip_code":"3220041"},{"name":"塩山町","zip_code":"3220527"},{"name":"下石川","zip_code":"3220017"},{"name":"下大久保","zip_code":"3220103"},{"name":"下粕尾","zip_code":"3220421"},{"name":"下久我","zip_code":"3220253"},{"name":"下材木町","zip_code":"3220056"},{"name":"下沢","zip_code":"3220256"},{"name":"下武子町","zip_code":"3220004"},{"name":"下田町","zip_code":"3220036"},{"name":"下遠部","zip_code":"3220079"},{"name":"下永野","zip_code":"3280212"},{"name":"下奈良部町","zip_code":"3220523"},{"name":"下南摩町","zip_code":"3220341"},{"name":"下日向","zip_code":"3220075"},{"name":"下横町","zip_code":"3220054"},{"name":"白桑田","zip_code":"3220011"},{"name":"末広町","zip_code":"3220038"},{"name":"千手町","zip_code":"3220061"},{"name":"千渡","zip_code":"3220002"},{"name":"武子","zip_code":"3220007"},{"name":"玉田町","zip_code":"3220072"},{"name":"寺町","zip_code":"3220057"},{"name":"天神町","zip_code":"3220067"},{"name":"栃窪","zip_code":"3220001"},{"name":"戸張町","zip_code":"3220063"},{"name":"富岡","zip_code":"3220006"},{"name":"鳥居跡町","zip_code":"3220044"},{"name":"中粟野","zip_code":"3220306"},{"name":"中粕尾","zip_code":"3220422"},{"name":"中田町","zip_code":"3220037"},{"name":"仲町","zip_code":"3220053"},{"name":"奈佐原町","zip_code":"3220528"},{"name":"仁神堂町","zip_code":"3220003"},{"name":"西鹿沼町","zip_code":"3220073"},{"name":"西沢町","zip_code":"3220344"},{"name":"西茂呂","zip_code":"3220029"},{"name":"日光奈良部町","zip_code":"3220521"},{"name":"楡木町","zip_code":"3220526"},{"name":"野沢町","zip_code":"3220535"},{"name":"野尻","zip_code":"3220251"},{"name":"花岡町","zip_code":"3220049"},{"name":"東末広町","zip_code":"3220039"},{"name":"引田","zip_code":"3220255"},{"name":"日吉町","zip_code":"3220074"},{"name":"深岩","zip_code":"3220077"},{"name":"深津","zip_code":"3220013"},{"name":"深程","zip_code":"3220302"},{"name":"藤江町","zip_code":"3220532"},{"name":"府中町","zip_code":"3220034"},{"name":"府所町","zip_code":"3220033"},{"name":"府所本町","zip_code":"3220032"},{"name":"文化橋町","zip_code":"3220064"},{"name":"蓬莱町","zip_code":"3220042"},{"name":"松原","zip_code":"3220012"},{"name":"緑町","zip_code":"3220025"},{"name":"南上野町","zip_code":"3220531"},{"name":"みなみ町","zip_code":"3220524"},{"name":"見野","zip_code":"3220071"},{"name":"睦町","zip_code":"3220031"},{"name":"村井町","zip_code":"3220048"},{"name":"樅山町","zip_code":"3220046"},{"name":"茂呂","zip_code":"3220026"},{"name":"万町","zip_code":"3220043"},{"name":"流通センター","zip_code":"3220016"}]},{"name":"日光市","divisions":[{"name":"相生町","zip_code":"3211413"},{"name":"赤下","zip_code":"3212604"},{"name":"足尾町","zip_code":"3211511"},{"name":"足尾町赤倉","zip_code":"3211502"},{"name":"足尾町赤沢","zip_code":"3211524"},{"name":"足尾町愛宕下","zip_code":"3211501"},{"name":"足尾町上の平","zip_code":"3211505"},{"name":"足尾町掛水","zip_code":"3211512"},{"name":"足尾町上間藤","zip_code":"3211504"},{"name":"足尾町下間藤","zip_code":"3211506"},{"name":"足尾町砂畑","zip_code":"3211515"},{"name":"足尾町通洞","zip_code":"3211514"},{"name":"足尾町遠下","zip_code":"3211521"},{"name":"足尾町中才","zip_code":"3211522"},{"name":"足尾町南橋","zip_code":"3211507"},{"name":"足尾町深沢","zip_code":"3211503"},{"name":"足尾町本山","zip_code":"3211508"},{"name":"足尾町松原","zip_code":"3211523"},{"name":"足尾町向原","zip_code":"3211513"},{"name":"五十里","zip_code":"3212615"},{"name":"石屋町","zip_code":"3211405"},{"name":"和泉","zip_code":"3211425"},{"name":"板橋","zip_code":"3211102"},{"name":"稲荷町","zip_code":"3211411"},{"name":"猪倉","zip_code":"3212344"},{"name":"今市","zip_code":"3211261"},{"name":"今市本町","zip_code":"3211272"},{"name":"岩崎","zip_code":"3211104"},{"name":"薄井沢","zip_code":"3212333"},{"name":"大桑町","zip_code":"3212411"},{"name":"大沢町","zip_code":"3212341"},{"name":"大室","zip_code":"3212332"},{"name":"大渡","zip_code":"3212402"},{"name":"荊沢","zip_code":"3212336"},{"name":"嘉多蔵","zip_code":"3212354"},{"name":"上栗山","zip_code":"3212715"},{"name":"上鉢石町","zip_code":"3211401"},{"name":"上三依","zip_code":"3212802"},{"name":"柄倉","zip_code":"3212524"},{"name":"川治温泉川治","zip_code":"3212611"},{"name":"川治温泉高原","zip_code":"3212612"},{"name":"川治温泉滝","zip_code":"3212614"},{"name":"川俣","zip_code":"3212717"},{"name":"川室","zip_code":"3212401"},{"name":"吉沢","zip_code":"3211273"},{"name":"鬼怒川温泉大原","zip_code":"3212522"},{"name":"鬼怒川温泉滝","zip_code":"3212526"},{"name":"清滝","zip_code":"3211444"},{"name":"清滝安良沢町","zip_code":"3211441"},{"name":"清滝桜ケ丘町","zip_code":"3211443"},{"name":"清滝新細尾町","zip_code":"3211448"},{"name":"清滝丹勢町","zip_code":"3211442"},{"name":"清滝中安戸町","zip_code":"3211446"},{"name":"清滝和の代町","zip_code":"3211447"},{"name":"木和田島","zip_code":"3212345"},{"name":"久次良町","zip_code":"3211436"},{"name":"沓掛","zip_code":"3212353"},{"name":"倉ケ崎","zip_code":"3212412"},{"name":"倉ケ崎新田","zip_code":"3212413"},{"name":"栗原","zip_code":"3212421"},{"name":"黒部","zip_code":"3212713"},{"name":"小倉","zip_code":"3211106"},{"name":"御幸町","zip_code":"3211404"},{"name":"小佐越","zip_code":"3212525"},{"name":"小代","zip_code":"3211107"},{"name":"小林","zip_code":"3212352"},{"name":"小百","zip_code":"3212426"},{"name":"佐下部","zip_code":"3212427"},{"name":"沢又","zip_code":"3212355"},{"name":"山内","zip_code":"3211431"},{"name":"塩野室町","zip_code":"3212351"},{"name":"七里","zip_code":"3211423"},{"name":"下の内","zip_code":"3211276"},{"name":"下鉢石町","zip_code":"3211403"},{"name":"瀬川","zip_code":"3211263"},{"name":"瀬尾","zip_code":"3211264"},{"name":"芹沢","zip_code":"3212804"},{"name":"芹沼","zip_code":"3212405"},{"name":"千本木","zip_code":"3211277"},{"name":"高柴","zip_code":"3212422"},{"name":"高徳","zip_code":"3212523"},{"name":"高原","zip_code":"3212616"},{"name":"滝ケ原","zip_code":"3211356"},{"name":"匠町","zip_code":"3211433"},{"name":"丹勢","zip_code":"3211449"},{"name":"中央町","zip_code":"3211266"},{"name":"中宮祠","zip_code":"3211661"},{"name":"手岡","zip_code":"3211103"},{"name":"東和町","zip_code":"3211412"},{"name":"所野","zip_code":"3211421"},{"name":"土沢","zip_code":"3211274"},{"name":"独鈷沢","zip_code":"3212805"},{"name":"轟","zip_code":"3212404"},{"name":"豊田","zip_code":"3212414"},{"name":"土呂部","zip_code":"3212714"},{"name":"中小来川","zip_code":"3211354"},{"name":"長畑","zip_code":"3211108"},{"name":"中鉢石町","zip_code":"3211402"},{"name":"中三依","zip_code":"3212803"},{"name":"並木町","zip_code":"3211271"},{"name":"西小来川","zip_code":"3211355"},{"name":"西川","zip_code":"3212603"},{"name":"日光","zip_code":"3211415"},{"name":"根室","zip_code":"3212342"},{"name":"野門","zip_code":"3212716"},{"name":"野口","zip_code":"3211424"},{"name":"花石町","zip_code":"3211435"},{"name":"原宿","zip_code":"3212423"},{"name":"針貝","zip_code":"3212331"},{"name":"萩垣面","zip_code":"3211414"},{"name":"日蔭","zip_code":"3212712"},{"name":"東小来川","zip_code":"3211351"},{"name":"一ツ石","zip_code":"3212602"},{"name":"日向","zip_code":"3212711"},{"name":"平ケ崎","zip_code":"3211262"},{"name":"藤原","zip_code":"3212613"},{"name":"文挾町","zip_code":"3211105"},{"name":"宝殿","zip_code":"3211422"},{"name":"細尾町","zip_code":"3211445"},{"name":"本町","zip_code":"3211434"},{"name":"町谷","zip_code":"3212403"},{"name":"松原町","zip_code":"3211406"},{"name":"水無","zip_code":"3212334"},{"name":"南小来川","zip_code":"3211353"},{"name":"宮小来川","zip_code":"3211352"},{"name":"明神","zip_code":"3211101"},{"name":"室瀬","zip_code":"3211275"},{"name":"森友","zip_code":"3212335"},{"name":"安川町","zip_code":"3211432"},{"name":"矢野口","zip_code":"3212356"},{"name":"山口","zip_code":"3212343"},{"name":"山久保","zip_code":"3211426"},{"name":"湯西川","zip_code":"3212601"},{"name":"湯元","zip_code":"3211662"},{"name":"横川","zip_code":"3212801"},{"name":"若杉町","zip_code":"3211407"},{"name":"若間","zip_code":"3212718"}]},{"name":"小山市","divisions":[{"name":"暁","zip_code":"3290211"},{"name":"網戸","zip_code":"3290215"},{"name":"雨ケ谷","zip_code":"3230826"},{"name":"雨ケ谷新田","zip_code":"3230824"},{"name":"荒井","zip_code":"3230013"},{"name":"荒川","zip_code":"3230006"},{"name":"粟宮","zip_code":"3290201"},{"name":"飯塚","zip_code":"3230017"},{"name":"井岡","zip_code":"3230054"},{"name":"生駒","zip_code":"3230051"},{"name":"石ノ上","zip_code":"3230045"},{"name":"出井","zip_code":"3230808"},{"name":"稲葉郷","zip_code":"3230021"},{"name":"犬塚","zip_code":"3230811"},{"name":"今里","zip_code":"3230067"},{"name":"美しが丘","zip_code":"3290207"},{"name":"駅東通り","zip_code":"3230022"},{"name":"駅南町","zip_code":"3230822"},{"name":"大川島","zip_code":"3230058"},{"name":"大本","zip_code":"3230009"},{"name":"押切","zip_code":"3290228"},{"name":"乙女","zip_code":"3290214"},{"name":"小宅","zip_code":"3230001"},{"name":"小山","zip_code":"3230825"},{"name":"鏡","zip_code":"3290229"},{"name":"上石塚","zip_code":"3230063"},{"name":"上泉","zip_code":"3230056"},{"name":"上国府塚","zip_code":"3230066"},{"name":"上生井","zip_code":"3290222"},{"name":"上初田","zip_code":"3230069"},{"name":"神山","zip_code":"3230828"},{"name":"萱橋","zip_code":"3230804"},{"name":"喜沢","zip_code":"3230014"},{"name":"北飯田","zip_code":"3230803"},{"name":"生良","zip_code":"3290221"},{"name":"黒本","zip_code":"3230002"},{"name":"小薬","zip_code":"3230008"},{"name":"小袋","zip_code":"3230053"},{"name":"寒川","zip_code":"3290226"},{"name":"三拝川岸","zip_code":"3230015"},{"name":"塩沢","zip_code":"3230043"},{"name":"渋井","zip_code":"3230005"},{"name":"島田","zip_code":"3230004"},{"name":"下石塚","zip_code":"3230064"},{"name":"下泉","zip_code":"3230055"},{"name":"下河原田","zip_code":"3230052"},{"name":"下国府塚","zip_code":"3230065"},{"name":"下生井","zip_code":"3290223"},{"name":"下初田","zip_code":"3230068"},{"name":"城東","zip_code":"3230807"},{"name":"城北","zip_code":"3230029"},{"name":"白鳥","zip_code":"3290224"},{"name":"城山町","zip_code":"3230025"},{"name":"神明町","zip_code":"3230033"},{"name":"千駄塚","zip_code":"3290202"},{"name":"卒島","zip_code":"3230061"},{"name":"大行寺","zip_code":"3230041"},{"name":"高椅","zip_code":"3230154"},{"name":"田川","zip_code":"3230151"},{"name":"武井","zip_code":"3230815"},{"name":"立木","zip_code":"3230062"},{"name":"田間","zip_code":"3230814"},{"name":"中央町","zip_code":"3230023"},{"name":"塚崎","zip_code":"3230818"},{"name":"天神町","zip_code":"3230032"},{"name":"外城","zip_code":"3230042"},{"name":"土塔","zip_code":"3230812"},{"name":"中河原","zip_code":"3230157"},{"name":"中久喜","zip_code":"3230806"},{"name":"中里","zip_code":"3290227"},{"name":"中島","zip_code":"3230156"},{"name":"楢木","zip_code":"3290216"},{"name":"西黒田","zip_code":"3290203"},{"name":"西城南","zip_code":"3230820"},{"name":"延島","zip_code":"3230152"},{"name":"延島新田","zip_code":"3230153"},{"name":"萩島","zip_code":"3230046"},{"name":"迫間田","zip_code":"3290225"},{"name":"鉢形","zip_code":"3230801"},{"name":"花垣町","zip_code":"3230027"},{"name":"羽川","zip_code":"3230012"},{"name":"東黒田","zip_code":"3290204"},{"name":"東島田","zip_code":"3230003"},{"name":"東城南","zip_code":"3230829"},{"name":"東野田","zip_code":"3230817"},{"name":"東間々田","zip_code":"3290206"},{"name":"東山田","zip_code":"3230802"},{"name":"神鳥谷","zip_code":"3230034"},{"name":"平和","zip_code":"3290212"},{"name":"福良","zip_code":"3230155"},{"name":"扶桑","zip_code":"3230016"},{"name":"本郷町","zip_code":"3230026"},{"name":"松沼","zip_code":"3230007"},{"name":"間中","zip_code":"3230044"},{"name":"間々田","zip_code":"3290205"},{"name":"三峯","zip_code":"3230821"},{"name":"南飯田","zip_code":"3290213"},{"name":"南和泉","zip_code":"3230816"},{"name":"南乙女","zip_code":"3290217"},{"name":"南小林","zip_code":"3230057"},{"name":"南半田","zip_code":"3230011"},{"name":"宮本町","zip_code":"3230024"},{"name":"向野","zip_code":"3230805"},{"name":"向原新田","zip_code":"3230823"},{"name":"梁","zip_code":"3230158"},{"name":"八幡町","zip_code":"3230031"},{"name":"横倉","zip_code":"3230813"},{"name":"横倉新田","zip_code":"3230819"},{"name":"若木町","zip_code":"3230028"}]},{"name":"真岡市","divisions":[{"name":"青田","zip_code":"3214531"},{"name":"青谷","zip_code":"3214312"},{"name":"赤羽","zip_code":"3214401"},{"name":"阿部岡","zip_code":"3214512"},{"name":"阿部品","zip_code":"3214517"},{"name":"荒町","zip_code":"3214305"},{"name":"飯貝","zip_code":"3214405"},{"name":"砂ケ原","zip_code":"3214546"},{"name":"石島","zip_code":"3214507"},{"name":"伊勢崎","zip_code":"3214342"},{"name":"大沼","zip_code":"3214356"},{"name":"大根田","zip_code":"3214506"},{"name":"大谷新町","zip_code":"3214332"},{"name":"大谷台町","zip_code":"3214338"},{"name":"大谷本町","zip_code":"3214333"},{"name":"大和田","zip_code":"3214508"},{"name":"沖","zip_code":"3214505"},{"name":"加倉","zip_code":"3214347"},{"name":"粕田","zip_code":"3214353"},{"name":"勝瓜","zip_code":"3214366"},{"name":"上江連","zip_code":"3214536"},{"name":"上大曽","zip_code":"3214542"},{"name":"上大田和","zip_code":"3214411"},{"name":"上大沼","zip_code":"3214355"},{"name":"上高間木","zip_code":"3214337"},{"name":"上鷺谷","zip_code":"3214416"},{"name":"上谷貝","zip_code":"3214541"},{"name":"亀山","zip_code":"3214363"},{"name":"茅堤","zip_code":"3214344"},{"name":"鬼怒ケ丘","zip_code":"3214367"},{"name":"君島","zip_code":"3214316"},{"name":"京泉","zip_code":"3214406"},{"name":"久下田","zip_code":"3214521"},{"name":"久下田西","zip_code":"3214522"},{"name":"熊倉","zip_code":"3214369"},{"name":"熊倉町","zip_code":"3214362"},{"name":"桑ノ川","zip_code":"3214503"},{"name":"小橋","zip_code":"3214343"},{"name":"小林","zip_code":"3214321"},{"name":"古山","zip_code":"3214535"},{"name":"境","zip_code":"3214534"},{"name":"さくら","zip_code":"3214523"},{"name":"道祖土","zip_code":"3214315"},{"name":"鹿","zip_code":"3214504"},{"name":"島","zip_code":"3214326"},{"name":"清水","zip_code":"3214402"},{"name":"下大曽","zip_code":"3214543"},{"name":"下大田和","zip_code":"3214413"},{"name":"下大沼","zip_code":"3214357"},{"name":"下高間木","zip_code":"3214335"},{"name":"下籠谷","zip_code":"3214415"},{"name":"下鷺谷","zip_code":"3214414"},{"name":"須釜","zip_code":"3214313"},{"name":"反町","zip_code":"3214515"},{"name":"大道泉","zip_code":"3214545"},{"name":"台町","zip_code":"3214306"},{"name":"高勢町","zip_code":"3214341"},{"name":"高田","zip_code":"3214511"},{"name":"田島","zip_code":"3214404"},{"name":"田町","zip_code":"3214325"},{"name":"鶴田","zip_code":"3214302"},{"name":"寺内","zip_code":"3214345"},{"name":"寺久保","zip_code":"3214368"},{"name":"寺分","zip_code":"3214354"},{"name":"東光寺","zip_code":"3214309"},{"name":"中","zip_code":"3214351"},{"name":"中郷","zip_code":"3214308"},{"name":"長島","zip_code":"3214532"},{"name":"長田","zip_code":"3214364"},{"name":"長沼","zip_code":"3214539"},{"name":"並木町","zip_code":"3214361"},{"name":"西大島","zip_code":"3214537"},{"name":"西高間木","zip_code":"3214336"},{"name":"西郷","zip_code":"3214307"},{"name":"西田井","zip_code":"3214301"},{"name":"西沼","zip_code":"3214324"},{"name":"根小屋","zip_code":"3214516"},{"name":"根本","zip_code":"3214311"},{"name":"白布ケ丘","zip_code":"3214331"},{"name":"八條","zip_code":"3214303"},{"name":"原町","zip_code":"3214403"},{"name":"東大島","zip_code":"3214322"},{"name":"東郷","zip_code":"3214304"},{"name":"東沼","zip_code":"3214323"},{"name":"程島","zip_code":"3214533"},{"name":"堀内","zip_code":"3214412"},{"name":"堀込","zip_code":"3214544"},{"name":"松山町","zip_code":"3214346"},{"name":"水戸部","zip_code":"3214514"},{"name":"南高岡","zip_code":"3214314"},{"name":"三谷","zip_code":"3214513"},{"name":"物井","zip_code":"3214502"},{"name":"谷貝新田","zip_code":"3214547"},{"name":"八木岡","zip_code":"3214334"},{"name":"柳林","zip_code":"3214365"},{"name":"横田","zip_code":"3214501"},{"name":"若旅","zip_code":"3214551"},{"name":"鷲巣","zip_code":"3214538"}]},{"name":"大田原市","divisions":[{"name":"赤瀬","zip_code":"3240015"},{"name":"浅香","zip_code":"3240043"},{"name":"荒井","zip_code":"3240061"},{"name":"新宿","zip_code":"3240413"},{"name":"市野沢","zip_code":"3240006"},{"name":"今泉","zip_code":"3240064"},{"name":"薄葉","zip_code":"3240035"},{"name":"宇田川","zip_code":"3240022"},{"name":"雲岩寺","zip_code":"3240213"},{"name":"大神","zip_code":"3240025"},{"name":"大久保","zip_code":"3240204"},{"name":"大豆田","zip_code":"3240242"},{"name":"大輪","zip_code":"3240236"},{"name":"岡","zip_code":"3240065"},{"name":"荻野目","zip_code":"3240027"},{"name":"奥沢","zip_code":"3240017"},{"name":"乙連沢","zip_code":"3240001"},{"name":"加治屋","zip_code":"3240046"},{"name":"片田","zip_code":"3240223"},{"name":"片府田","zip_code":"3240414"},{"name":"鹿畑","zip_code":"3240013"},{"name":"上石上","zip_code":"3240037"},{"name":"上奥沢","zip_code":"3240018"},{"name":"亀久","zip_code":"3240221"},{"name":"川上","zip_code":"3240214"},{"name":"川田","zip_code":"3240208"},{"name":"河原","zip_code":"3240207"},{"name":"木佐美","zip_code":"3240202"},{"name":"北大和久","zip_code":"3240016"},{"name":"北金丸","zip_code":"3240011"},{"name":"北滝","zip_code":"3240224"},{"name":"北野上","zip_code":"3240231"},{"name":"久野又","zip_code":"3240205"},{"name":"倉骨","zip_code":"3240014"},{"name":"黒羽田町","zip_code":"3240233"},{"name":"黒羽向町","zip_code":"3240241"},{"name":"小滝","zip_code":"3240003"},{"name":"小船渡","zip_code":"3240402"},{"name":"佐久山","zip_code":"3240032"},{"name":"寒井","zip_code":"3240246"},{"name":"佐良土","zip_code":"3240404"},{"name":"品川","zip_code":"3240415"},{"name":"下石上","zip_code":"3240036"},{"name":"城山","zip_code":"3240052"},{"name":"新富町","zip_code":"3240055"},{"name":"末広","zip_code":"3240042"},{"name":"須賀川","zip_code":"3240211"},{"name":"須佐木","zip_code":"3240212"},{"name":"住吉町","zip_code":"3240057"},{"name":"狭原","zip_code":"3240401"},{"name":"滝岡","zip_code":"3240026"},{"name":"滝沢","zip_code":"3240033"},{"name":"親園","zip_code":"3240044"},{"name":"中央","zip_code":"3240056"},{"name":"寺宿","zip_code":"3240203"},{"name":"戸野内","zip_code":"3240066"},{"name":"富池","zip_code":"3240004"},{"name":"中田原","zip_code":"3240062"},{"name":"中野内","zip_code":"3240206"},{"name":"中の原","zip_code":"3240405"},{"name":"南方","zip_code":"3240215"},{"name":"練貫","zip_code":"3240005"},{"name":"野崎","zip_code":"3240038"},{"name":"蜂巣","zip_code":"3240244"},{"name":"花園","zip_code":"3240023"},{"name":"羽田","zip_code":"3240002"},{"name":"桧木沢","zip_code":"3240245"},{"name":"平沢","zip_code":"3240034"},{"name":"蛭田","zip_code":"3240412"},{"name":"蛭畑","zip_code":"3240411"},{"name":"福原","zip_code":"3240024"},{"name":"藤沢","zip_code":"3240031"},{"name":"富士見","zip_code":"3240028"},{"name":"堀之内","zip_code":"3240235"},{"name":"本町","zip_code":"3240041"},{"name":"前田","zip_code":"3240234"},{"name":"町島","zip_code":"3240063"},{"name":"実取","zip_code":"3240045"},{"name":"南金丸","zip_code":"3240012"},{"name":"美原","zip_code":"3240047"},{"name":"紫塚","zip_code":"3240058"},{"name":"元町","zip_code":"3240053"},{"name":"矢倉","zip_code":"3240222"},{"name":"八塩","zip_code":"3240232"},{"name":"山の手","zip_code":"3240051"},{"name":"湯津上","zip_code":"3240403"},{"name":"余瀬","zip_code":"3240243"},{"name":"両郷","zip_code":"3240201"},{"name":"若草","zip_code":"3240021"},{"name":"若松町","zip_code":"3240054"}]},{"name":"矢板市","divisions":[{"name":"東町","zip_code":"3292136"},{"name":"荒井","zip_code":"3292121"},{"name":"安沢","zip_code":"3291572"},{"name":"石関","zip_code":"3291576"},{"name":"泉","zip_code":"3292504"},{"name":"扇町","zip_code":"3292161"},{"name":"大槻","zip_code":"3291575"},{"name":"乙畑","zip_code":"3291574"},{"name":"鹿島町","zip_code":"3292163"},{"name":"片岡","zip_code":"3291571"},{"name":"片俣","zip_code":"3292155"},{"name":"上伊佐野","zip_code":"3292501"},{"name":"上太田","zip_code":"3292513"},{"name":"上町","zip_code":"3292123"},{"name":"川崎反町","zip_code":"3292144"},{"name":"木幡","zip_code":"3292142"},{"name":"倉掛","zip_code":"3292154"},{"name":"幸岡","zip_code":"3292151"},{"name":"越畑","zip_code":"3291573"},{"name":"こぶし台","zip_code":"3291579"},{"name":"境林","zip_code":"3292143"},{"name":"沢","zip_code":"3292132"},{"name":"塩田","zip_code":"3292156"},{"name":"下伊佐野","zip_code":"3292502"},{"name":"下太田","zip_code":"3292124"},{"name":"末広町","zip_code":"3292162"},{"name":"高塩","zip_code":"3292153"},{"name":"立足","zip_code":"3292505"},{"name":"館ノ川","zip_code":"3292152"},{"name":"田野原","zip_code":"3292503"},{"name":"玉田","zip_code":"3291577"},{"name":"土屋","zip_code":"3292131"},{"name":"富田","zip_code":"3292145"},{"name":"豊田","zip_code":"3292133"},{"name":"中","zip_code":"3292135"},{"name":"長井","zip_code":"3292514"},{"name":"成田","zip_code":"3292134"},{"name":"早川町","zip_code":"3292141"},{"name":"針生","zip_code":"3292122"},{"name":"東泉","zip_code":"3292512"},{"name":"平野","zip_code":"3292506"},{"name":"本町","zip_code":"3292164"},{"name":"矢板","zip_code":"3292165"},{"name":"山田","zip_code":"3292511"},{"name":"山苗代","zip_code":"3291578"}]},{"name":"那須塩原市","divisions":[{"name":"青木","zip_code":"3250103"},{"name":"東町","zip_code":"3292721"},{"name":"あたご町","zip_code":"3292725"},{"name":"阿波町","zip_code":"3250073"},{"name":"安藤町","zip_code":"3250021"},{"name":"井口","zip_code":"3292763"},{"name":"石林","zip_code":"3292711"},{"name":"板室","zip_code":"3250111"},{"name":"一区町","zip_code":"3292732"},{"name":"宇都野","zip_code":"3292816"},{"name":"扇町","zip_code":"3292726"},{"name":"大原間","zip_code":"3293153"},{"name":"大原間西","zip_code":"3293157"},{"name":"遅野沢","zip_code":"3292803"},{"name":"折戸","zip_code":"3292804"},{"name":"春日町","zip_code":"3250075"},{"name":"金沢","zip_code":"3292812"},{"name":"鹿野崎","zip_code":"3293121"},{"name":"鹿野崎新田","zip_code":"3250104"},{"name":"上赤田","zip_code":"3292748"},{"name":"上厚崎","zip_code":"3250026"},{"name":"上大塚新田","zip_code":"3293134"},{"name":"上大貫","zip_code":"3292814"},{"name":"上郷屋","zip_code":"3293127"},{"name":"上塩原","zip_code":"3292923"},{"name":"上中野","zip_code":"3293154"},{"name":"上横林","zip_code":"3292805"},{"name":"亀山","zip_code":"3250102"},{"name":"唐杉","zip_code":"3293131"},{"name":"木曾畑中","zip_code":"3293145"},{"name":"北赤田","zip_code":"3292741"},{"name":"北栄町","zip_code":"3250039"},{"name":"北二つ室","zip_code":"3292734"},{"name":"北弥六","zip_code":"3293132"},{"name":"北和田","zip_code":"3293151"},{"name":"共墾社","zip_code":"3250027"},{"name":"清住町","zip_code":"3250067"},{"name":"木綿畑","zip_code":"3250116"},{"name":"沓掛","zip_code":"3293133"},{"name":"黒磯","zip_code":"3250017"},{"name":"黒磯幸町","zip_code":"3250057"},{"name":"越堀","zip_code":"3250012"},{"name":"五軒町","zip_code":"3292753"},{"name":"小結","zip_code":"3250035"},{"name":"材木町","zip_code":"3250048"},{"name":"埼玉","zip_code":"3250033"},{"name":"桜町","zip_code":"3250042"},{"name":"笹沼","zip_code":"3293155"},{"name":"佐野","zip_code":"3293142"},{"name":"三区町","zip_code":"3292745"},{"name":"三本木","zip_code":"3293143"},{"name":"塩野崎","zip_code":"3293122"},{"name":"塩野崎新田","zip_code":"3293123"},{"name":"塩原","zip_code":"3292921"},{"name":"鴫内","zip_code":"3250118"},{"name":"島方","zip_code":"3293152"},{"name":"下厚崎","zip_code":"3250025"},{"name":"下大貫","zip_code":"3292815"},{"name":"下田野","zip_code":"3292811"},{"name":"下永田","zip_code":"3292712"},{"name":"下中野","zip_code":"3293146"},{"name":"新朝日","zip_code":"3250054"},{"name":"新南","zip_code":"3292704"},{"name":"新町","zip_code":"3250071"},{"name":"新緑町","zip_code":"3250066"},{"name":"末広町","zip_code":"3250061"},{"name":"住吉町","zip_code":"3250062"},{"name":"関根","zip_code":"3292701"},{"name":"関谷","zip_code":"3292801"},{"name":"千本松","zip_code":"3292747"},{"name":"大黒町","zip_code":"3250046"},{"name":"高阿津","zip_code":"3292813"},{"name":"高砂町","zip_code":"3250045"},{"name":"高林","zip_code":"3250107"},{"name":"高柳","zip_code":"3292707"},{"name":"太夫塚","zip_code":"3292735"},{"name":"中央町","zip_code":"3250052"},{"name":"槻沢","zip_code":"3292703"},{"name":"寺子","zip_code":"3250011"},{"name":"東栄","zip_code":"3250016"},{"name":"洞島","zip_code":"3250106"},{"name":"戸田","zip_code":"3250114"},{"name":"豊浦","zip_code":"3250023"},{"name":"豊浦北町","zip_code":"3250038"},{"name":"豊浦町","zip_code":"3250064"},{"name":"豊浦中町","zip_code":"3250063"},{"name":"豊浦南町","zip_code":"3250065"},{"name":"豊住町","zip_code":"3250072"},{"name":"鳥野目","zip_code":"3250036"},{"name":"中内","zip_code":"3293126"},{"name":"中塩原","zip_code":"3292924"},{"name":"永田町","zip_code":"3292727"},{"name":"鍋掛","zip_code":"3250013"},{"name":"並木町","zip_code":"3250031"},{"name":"二区町","zip_code":"3292733"},{"name":"西赤田","zip_code":"3292744"},{"name":"西朝日町","zip_code":"3292722"},{"name":"西岩崎","zip_code":"3250101"},{"name":"西遅沢","zip_code":"3292764"},{"name":"錦町","zip_code":"3250058"},{"name":"西幸町","zip_code":"3292724"},{"name":"西栄町","zip_code":"3292728"},{"name":"西新町","zip_code":"3250076"},{"name":"西富山","zip_code":"3292762"},{"name":"西原町","zip_code":"3292755"},{"name":"西三島","zip_code":"3292756"},{"name":"西大和","zip_code":"3292754"},{"name":"接骨木","zip_code":"3292807"},{"name":"沼野田和","zip_code":"3293144"},{"name":"野間","zip_code":"3250014"},{"name":"橋本町","zip_code":"3250043"},{"name":"波立","zip_code":"3293124"},{"name":"原町","zip_code":"3250015"},{"name":"東赤田","zip_code":"3292742"},{"name":"東遅沢","zip_code":"3292761"},{"name":"東小屋","zip_code":"3293147"},{"name":"東関根","zip_code":"3292702"},{"name":"東豊浦","zip_code":"3250022"},{"name":"東原","zip_code":"3250034"},{"name":"東三島","zip_code":"3292751"},{"name":"東大和町","zip_code":"3250041"},{"name":"蟇沼","zip_code":"3292802"},{"name":"二つ室","zip_code":"3292731"},{"name":"方京","zip_code":"3293156"},{"name":"細竹","zip_code":"3250113"},{"name":"本郷町","zip_code":"3250053"},{"name":"本町","zip_code":"3250056"},{"name":"前弥六","zip_code":"3293135"},{"name":"前弥六南町","zip_code":"3293136"},{"name":"松浦町","zip_code":"3250074"},{"name":"三島","zip_code":"3292752"},{"name":"緑","zip_code":"3292713"},{"name":"南赤田","zip_code":"3292743"},{"name":"南郷屋","zip_code":"3292705"},{"name":"南町","zip_code":"3292723"},{"name":"箕輪","zip_code":"3250105"},{"name":"美原町","zip_code":"3250037"},{"name":"宮町","zip_code":"3250055"},{"name":"無栗屋","zip_code":"3293125"},{"name":"睦","zip_code":"3292706"},{"name":"百村","zip_code":"3250115"},{"name":"箭坪","zip_code":"3250108"},{"name":"山中新田","zip_code":"3293141"},{"name":"弥生町","zip_code":"3250044"},{"name":"油井","zip_code":"3250112"},{"name":"湯宮","zip_code":"3250117"},{"name":"豊町","zip_code":"3250051"},{"name":"湯本塩原","zip_code":"3292922"},{"name":"横林","zip_code":"3292806"},{"name":"四区町","zip_code":"3292746"},{"name":"若草町","zip_code":"3250032"},{"name":"若葉町","zip_code":"3250047"},{"name":"渡辺","zip_code":"3250024"}]},{"name":"さくら市","divisions":[{"name":"氏家","zip_code":"3291311"},{"name":"氏家新田","zip_code":"3291315"},{"name":"卯の里","zip_code":"3291323"},{"name":"上野","zip_code":"3291306"},{"name":"小入","zip_code":"3291415"},{"name":"大中","zip_code":"3291325"},{"name":"押上","zip_code":"3291334"},{"name":"柿木沢","zip_code":"3291314"},{"name":"柿木沢新田","zip_code":"3291313"},{"name":"鍛冶ケ沢","zip_code":"3291304"},{"name":"葛城","zip_code":"3291413"},{"name":"金枝","zip_code":"3291405"},{"name":"鹿子畑","zip_code":"3291404"},{"name":"蒲須坂","zip_code":"3291332"},{"name":"上阿久津","zip_code":"3291316"},{"name":"上河戸","zip_code":"3291401"},{"name":"北草川","zip_code":"3291322"},{"name":"喜連川","zip_code":"3291412"},{"name":"草川","zip_code":"3291324"},{"name":"桜ケ丘","zip_code":"3291416"},{"name":"櫻野","zip_code":"3291312"},{"name":"下河戸","zip_code":"3291402"},{"name":"早乙女","zip_code":"3291414"},{"name":"富野岡","zip_code":"3291327"},{"name":"長久保","zip_code":"3291333"},{"name":"箱森新田","zip_code":"3291301"},{"name":"狹間田","zip_code":"3291305"},{"name":"馬場","zip_code":"3291321"},{"name":"フィオーレ喜連川","zip_code":"3291417"},{"name":"穂積","zip_code":"3291403"},{"name":"松島","zip_code":"3291331"},{"name":"松山","zip_code":"3291303"},{"name":"松山新田","zip_code":"3291302"},{"name":"南和田","zip_code":"3291406"},{"name":"向河原","zip_code":"3291326"},{"name":"鷲宿","zip_code":"3291411"}]},{"name":"那須烏山市","divisions":[{"name":"旭","zip_code":"3210624"},{"name":"愛宕台","zip_code":"3210629"},{"name":"岩子","zip_code":"3210521"},{"name":"宇井","zip_code":"3210527"},{"name":"大金","zip_code":"3210522"},{"name":"大木須","zip_code":"3210613"},{"name":"大桶","zip_code":"3210602"},{"name":"大里","zip_code":"3210516"},{"name":"大沢","zip_code":"3210612"},{"name":"小倉","zip_code":"3210528"},{"name":"落合","zip_code":"3210636"},{"name":"表","zip_code":"3210623"},{"name":"金井","zip_code":"3210628"},{"name":"神長","zip_code":"3210632"},{"name":"上川井","zip_code":"3210505"},{"name":"上境","zip_code":"3210617"},{"name":"興野","zip_code":"3210611"},{"name":"熊田","zip_code":"3210502"},{"name":"鴻野山","zip_code":"3210534"},{"name":"小河原","zip_code":"3210511"},{"name":"小木須","zip_code":"3210614"},{"name":"小白井","zip_code":"3210535"},{"name":"小塙","zip_code":"3210513"},{"name":"小原沢","zip_code":"3210615"},{"name":"三箇","zip_code":"3210531"},{"name":"志鳥","zip_code":"3210501"},{"name":"下川井","zip_code":"3210504"},{"name":"下境","zip_code":"3210616"},{"name":"城東","zip_code":"3210622"},{"name":"白久","zip_code":"3210601"},{"name":"城山","zip_code":"3210631"},{"name":"曲畑","zip_code":"3210523"},{"name":"高瀬","zip_code":"3210512"},{"name":"滝","zip_code":"3210633"},{"name":"滝田","zip_code":"3210605"},{"name":"田野倉","zip_code":"3210526"},{"name":"中央","zip_code":"3210621"},{"name":"月次","zip_code":"3210503"},{"name":"東原","zip_code":"3210517"},{"name":"中山","zip_code":"3210604"},{"name":"野上","zip_code":"3210634"},{"name":"初音","zip_code":"3210626"},{"name":"福岡","zip_code":"3210525"},{"name":"藤田","zip_code":"3210532"},{"name":"曲田","zip_code":"3210515"},{"name":"南","zip_code":"3210627"},{"name":"南大和久","zip_code":"3210533"},{"name":"宮原","zip_code":"3210625"},{"name":"向田","zip_code":"3210635"},{"name":"森田","zip_code":"3210514"},{"name":"谷浅見","zip_code":"3210603"},{"name":"八ケ代","zip_code":"3210524"},{"name":"横枕","zip_code":"3210618"}]},{"name":"下野市","divisions":[{"name":"石橋","zip_code":"3290511"},{"name":"磯部","zip_code":"3230111"},{"name":"医大前","zip_code":"3290403"},{"name":"駅東","zip_code":"3290413"},{"name":"大松山","zip_code":"3290519"},{"name":"上川島","zip_code":"3230103"},{"name":"上古山","zip_code":"3290501"},{"name":"上台","zip_code":"3290504"},{"name":"上大領","zip_code":"3290517"},{"name":"上坪山","zip_code":"3230113"},{"name":"上吉田","zip_code":"3230102"},{"name":"烏ケ森","zip_code":"3290411"},{"name":"川中子","zip_code":"3290415"},{"name":"祇園","zip_code":"3290434"},{"name":"絹板","zip_code":"3230114"},{"name":"小金井","zip_code":"3290414"},{"name":"国分寺","zip_code":"3290417"},{"name":"笹原","zip_code":"3290402"},{"name":"三王山","zip_code":"3230101"},{"name":"柴","zip_code":"3290412"},{"name":"下石橋","zip_code":"3290512"},{"name":"下古山","zip_code":"3290502"},{"name":"下大領","zip_code":"3290513"},{"name":"下坪山","zip_code":"3230115"},{"name":"下長田","zip_code":"3290503"},{"name":"下文狹","zip_code":"3290424"},{"name":"下吉田","zip_code":"3230106"},{"name":"大光寺","zip_code":"3290516"},{"name":"田中","zip_code":"3290425"},{"name":"中川島","zip_code":"3230104"},{"name":"中大領","zip_code":"3290515"},{"name":"成田","zip_code":"3290421"},{"name":"仁良川","zip_code":"3290432"},{"name":"橋本","zip_code":"3290506"},{"name":"花田","zip_code":"3230116"},{"name":"花の木","zip_code":"3290518"},{"name":"東根","zip_code":"3230112"},{"name":"東前原","zip_code":"3290514"},{"name":"文教","zip_code":"3290507"},{"name":"別当河原","zip_code":"3230107"},{"name":"細谷","zip_code":"3290505"},{"name":"町田","zip_code":"3290422"},{"name":"緑","zip_code":"3290433"},{"name":"箕輪","zip_code":"3290401"},{"name":"紫","zip_code":"3290418"},{"name":"本吉田","zip_code":"3230105"},{"name":"薬師寺","zip_code":"3290431"},{"name":"谷地賀","zip_code":"3290423"}]},{"name":"河内郡上三川町","divisions":[{"name":"石田","zip_code":"3290521"},{"name":"磯岡","zip_code":"3290606"},{"name":"大山","zip_code":"3290525"},{"name":"上蒲生","zip_code":"3290617"},{"name":"上神主","zip_code":"3290527"},{"name":"上郷","zip_code":"3290604"},{"name":"上三川","zip_code":"3290611"},{"name":"上文挾","zip_code":"3290601"},{"name":"川中子","zip_code":"3290522"},{"name":"五分一","zip_code":"3290614"},{"name":"坂上","zip_code":"3290613"},{"name":"鞘堂","zip_code":"3290526"},{"name":"三本木","zip_code":"3290612"},{"name":"下蒲生","zip_code":"3290616"},{"name":"下神主","zip_code":"3290529"},{"name":"しらさぎ","zip_code":"3290618"},{"name":"多功","zip_code":"3290524"},{"name":"天神町","zip_code":"3290530"},{"name":"西木代","zip_code":"3290608"},{"name":"西蓼沼","zip_code":"3290605"},{"name":"西汗","zip_code":"3290607"},{"name":"東蓼沼","zip_code":"3290603"},{"name":"東汗","zip_code":"3290602"},{"name":"三村","zip_code":"3290615"},{"name":"梁","zip_code":"3290523"},{"name":"ゆうきが丘","zip_code":"3290528"}]},{"name":"芳賀郡益子町","divisions":[{"name":"芦沼","zip_code":"3214102"},{"name":"梅ケ内","zip_code":"3214223"},{"name":"大郷戸","zip_code":"3214221"},{"name":"大沢","zip_code":"3214104"},{"name":"大平","zip_code":"3214103"},{"name":"小宅","zip_code":"3214101"},{"name":"上大羽","zip_code":"3214212"},{"name":"上山","zip_code":"3214226"},{"name":"北中","zip_code":"3214105"},{"name":"小泉","zip_code":"3214222"},{"name":"下大羽","zip_code":"3214211"},{"name":"城内坂","zip_code":"3214218"},{"name":"長堤","zip_code":"3214225"},{"name":"七井","zip_code":"3214106"},{"name":"七井中央","zip_code":"3214107"},{"name":"生田目","zip_code":"3214215"},{"name":"塙","zip_code":"3214216"},{"name":"東田井","zip_code":"3214227"},{"name":"前沢","zip_code":"3214214"},{"name":"益子","zip_code":"3214217"},{"name":"本沼","zip_code":"3214224"},{"name":"山本","zip_code":"3214213"}]},{"name":"芳賀郡茂木町","divisions":[{"name":"鮎田","zip_code":"3213535"},{"name":"天子","zip_code":"3213621"},{"name":"飯","zip_code":"3213626"},{"name":"飯野","zip_code":"3213702"},{"name":"入郷","zip_code":"3213705"},{"name":"烏生田","zip_code":"3213541"},{"name":"後郷","zip_code":"3213561"},{"name":"青梅","zip_code":"3213534"},{"name":"大瀬","zip_code":"3213554"},{"name":"大畑","zip_code":"3213553"},{"name":"小貫","zip_code":"3213627"},{"name":"小深","zip_code":"3213707"},{"name":"小山","zip_code":"3213624"},{"name":"神井","zip_code":"3213536"},{"name":"上後郷","zip_code":"3213543"},{"name":"上菅又","zip_code":"3213546"},{"name":"河井","zip_code":"3213703"},{"name":"河又","zip_code":"3213706"},{"name":"北高岡","zip_code":"3213622"},{"name":"木幡","zip_code":"3213623"},{"name":"黒田","zip_code":"3213557"},{"name":"小井戸","zip_code":"3213566"},{"name":"坂井","zip_code":"3213544"},{"name":"九石","zip_code":"3213542"},{"name":"塩田","zip_code":"3213565"},{"name":"下菅又","zip_code":"3213545"},{"name":"千本","zip_code":"3213547"},{"name":"竹原","zip_code":"3213552"},{"name":"所草","zip_code":"3213555"},{"name":"生井","zip_code":"3213551"},{"name":"林","zip_code":"3213563"},{"name":"桧山","zip_code":"3114411"},{"name":"深沢","zip_code":"3213628"},{"name":"福手","zip_code":"3213625"},{"name":"馬門","zip_code":"3213562"},{"name":"牧野","zip_code":"3213704"},{"name":"増井","zip_code":"3213564"},{"name":"町田","zip_code":"3213556"},{"name":"三坂","zip_code":"3213532"},{"name":"茂木","zip_code":"3213531"},{"name":"山内","zip_code":"3213701"}]},{"name":"芳賀郡市貝町","divisions":[{"name":"赤羽","zip_code":"3213426"},{"name":"石下","zip_code":"3213422"},{"name":"市塙","zip_code":"3213423"},{"name":"大谷津","zip_code":"3213405"},{"name":"上根","zip_code":"3213424"},{"name":"刈生田","zip_code":"3213411"},{"name":"笹原田","zip_code":"3213421"},{"name":"塩田","zip_code":"3213406"},{"name":"椎谷","zip_code":"3213414"},{"name":"杉山","zip_code":"3213415"},{"name":"竹内","zip_code":"3213401"},{"name":"多田羅","zip_code":"3213425"},{"name":"田野辺","zip_code":"3213412"},{"name":"続谷","zip_code":"3213404"},{"name":"羽仏","zip_code":"3213403"},{"name":"文谷","zip_code":"3213413"},{"name":"見上","zip_code":"3213402"}]},{"name":"芳賀郡芳賀町","divisions":[{"name":"稲毛田","zip_code":"3213303"},{"name":"打越新田","zip_code":"3213314"},{"name":"祖母井","zip_code":"3213304"},{"name":"上稲毛田","zip_code":"3213302"},{"name":"上延生","zip_code":"3213311"},{"name":"北長島","zip_code":"3213323"},{"name":"給部","zip_code":"3213301"},{"name":"下高根沢","zip_code":"3213321"},{"name":"下延生","zip_code":"3213312"},{"name":"西高橋","zip_code":"3213315"},{"name":"西水沼","zip_code":"3213324"},{"name":"芳賀台","zip_code":"3213325"},{"name":"東高橋","zip_code":"3213313"},{"name":"東水沼","zip_code":"3213322"},{"name":"芳志戸","zip_code":"3213305"},{"name":"八ッ木","zip_code":"3213306"},{"name":"与能","zip_code":"3213316"}]},{"name":"下都賀郡壬生町","divisions":[{"name":"あけぼの町","zip_code":"3210206"},{"name":"いずみ町","zip_code":"3210213"},{"name":"駅東町","zip_code":"3210222"},{"name":"落合","zip_code":"3210218"},{"name":"おもちゃのまち","zip_code":"3210202"},{"name":"表町","zip_code":"3210224"},{"name":"上稲葉","zip_code":"3210236"},{"name":"上田","zip_code":"3210231"},{"name":"北小林","zip_code":"3210207"},{"name":"国谷","zip_code":"3210211"},{"name":"寿町","zip_code":"3210212"},{"name":"幸町","zip_code":"3210203"},{"name":"至宝","zip_code":"3210217"},{"name":"下稲葉","zip_code":"3210237"},{"name":"助谷","zip_code":"3210233"},{"name":"大師町","zip_code":"3210228"},{"name":"中央町","zip_code":"3210226"},{"name":"通町","zip_code":"3210227"},{"name":"中泉","zip_code":"3210232"},{"name":"七ツ石","zip_code":"3210235"},{"name":"羽生田","zip_code":"3210234"},{"name":"福和田","zip_code":"3210219"},{"name":"藤井","zip_code":"3210221"},{"name":"本丸","zip_code":"3210225"},{"name":"緑町","zip_code":"3210204"},{"name":"壬生甲","zip_code":"3210214"},{"name":"壬生乙","zip_code":"3210215"},{"name":"壬生丁","zip_code":"3210216"},{"name":"みぶ羽生田産業団地","zip_code":"3210238"},{"name":"元町","zip_code":"3210223"},{"name":"安塚","zip_code":"3210201"},{"name":"若草町","zip_code":"3210205"}]},{"name":"下都賀郡野木町","divisions":[{"name":"潤島","zip_code":"3290102"},{"name":"川田","zip_code":"3290105"},{"name":"佐川野","zip_code":"3290104"},{"name":"友沼","zip_code":"3290101"},{"name":"中谷","zip_code":"3290113"},{"name":"野木","zip_code":"3290114"},{"name":"野渡","zip_code":"3290115"},{"name":"丸林","zip_code":"3290111"},{"name":"南赤塚","zip_code":"3290112"},{"name":"若林","zip_code":"3290103"}]},{"name":"下都賀郡岩舟町","divisions":[{"name":"五十畑","zip_code":"3294302"},{"name":"和泉","zip_code":"3294303"},{"name":"小野寺","zip_code":"3294314"},{"name":"上岡","zip_code":"3294313"},{"name":"静","zip_code":"3294307"},{"name":"静戸","zip_code":"3294305"},{"name":"静和","zip_code":"3294304"},{"name":"下岡","zip_code":"3294312"},{"name":"下津原","zip_code":"3294308"},{"name":"畳岡","zip_code":"3294309"},{"name":"新里","zip_code":"3294316"},{"name":"古江","zip_code":"3294311"},{"name":"曲ケ島","zip_code":"3294306"},{"name":"三谷","zip_code":"3294315"},{"name":"鷲巣","zip_code":"3294301"}]},{"name":"塩谷郡塩谷町","divisions":[{"name":"飯岡","zip_code":"3292225"},{"name":"泉","zip_code":"3292337"},{"name":"上沢","zip_code":"3292339"},{"name":"上平","zip_code":"3292335"},{"name":"大久保","zip_code":"3292334"},{"name":"大宮","zip_code":"3292332"},{"name":"風見","zip_code":"3292336"},{"name":"風見山田","zip_code":"3292338"},{"name":"金枝","zip_code":"3292224"},{"name":"上寺島","zip_code":"3212501"},{"name":"喜佐見","zip_code":"3292212"},{"name":"熊ノ木","zip_code":"3292213"},{"name":"佐貫","zip_code":"3292442"},{"name":"下寺島","zip_code":"3292215"},{"name":"田所","zip_code":"3292331"},{"name":"玉生","zip_code":"3292221"},{"name":"道下","zip_code":"3292222"},{"name":"鳥羽新田","zip_code":"3292211"},{"name":"原荻野目","zip_code":"3292223"},{"name":"東房","zip_code":"3292214"},{"name":"肘内","zip_code":"3292333"},{"name":"船生","zip_code":"3292441"},{"name":"芦場新田","zip_code":"3292226"}]},{"name":"塩谷郡高根沢町","divisions":[{"name":"飯室","zip_code":"3291205"},{"name":"石末","zip_code":"3291225"},{"name":"太田","zip_code":"3291217"},{"name":"大谷","zip_code":"3291226"},{"name":"柿木沢","zip_code":"3291201"},{"name":"上阿久津","zip_code":"3291235"},{"name":"上柏崎","zip_code":"3291212"},{"name":"上高根沢","zip_code":"3291224"},{"name":"亀梨","zip_code":"3291211"},{"name":"給部","zip_code":"3291215"},{"name":"栗ケ島","zip_code":"3291223"},{"name":"桑窪","zip_code":"3291216"},{"name":"光陽台","zip_code":"3291232"},{"name":"下柏崎","zip_code":"3291213"},{"name":"寺渡戸","zip_code":"3291222"},{"name":"中阿久津","zip_code":"3291234"},{"name":"中柏崎","zip_code":"3291214"},{"name":"西高谷","zip_code":"3291221"},{"name":"狭間田","zip_code":"3291202"},{"name":"花岡","zip_code":"3291207"},{"name":"平田","zip_code":"3291206"},{"name":"伏久","zip_code":"3291203"},{"name":"文挾","zip_code":"3291204"},{"name":"宝積寺","zip_code":"3291233"},{"name":"宝石台","zip_code":"3291231"}]},{"name":"那須郡那須町","divisions":[{"name":"芦野","zip_code":"3293443"},{"name":"梓","zip_code":"3293432"},{"name":"伊王野","zip_code":"3293436"},{"name":"稲沢","zip_code":"3293447"},{"name":"漆塚","zip_code":"3293221"},{"name":"大島","zip_code":"3293223"},{"name":"大畑","zip_code":"3293431"},{"name":"大和須","zip_code":"3293433"},{"name":"高久甲","zip_code":"3250304"},{"name":"高久乙","zip_code":"3250303"},{"name":"高久丙","zip_code":"3250002"},{"name":"寺子","zip_code":"3293444"},{"name":"寺子乙","zip_code":"3250003"},{"name":"寺子丙","zip_code":"3293222"},{"name":"富岡","zip_code":"3293212"},{"name":"豊原","zip_code":"3293213"},{"name":"豊原甲","zip_code":"3293211"},{"name":"豊原乙","zip_code":"3293224"},{"name":"豊原丙","zip_code":"3293225"},{"name":"沼野井","zip_code":"3293446"},{"name":"東岩崎","zip_code":"3293445"},{"name":"蓑沢","zip_code":"3293437"},{"name":"睦家","zip_code":"3293435"},{"name":"梁瀬","zip_code":"3293434"},{"name":"湯本","zip_code":"3250301"},{"name":"横岡","zip_code":"3293214"},{"name":"寄居","zip_code":"3293441"}]},{"name":"那須郡那珂川町","divisions":[{"name":"大内","zip_code":"3240605"},{"name":"大那地","zip_code":"3240606"},{"name":"大山田上郷","zip_code":"3240601"},{"name":"大山田下郷","zip_code":"3240602"},{"name":"小川","zip_code":"3240501"},{"name":"恩田","zip_code":"3240503"},{"name":"片平","zip_code":"3240515"},{"name":"北向田","zip_code":"3240617"},{"name":"薬利","zip_code":"3240504"},{"name":"久那瀬","zip_code":"3240614"},{"name":"小砂","zip_code":"3240611"},{"name":"小口","zip_code":"3240618"},{"name":"浄法寺","zip_code":"3240506"},{"name":"白久","zip_code":"3240513"},{"name":"高岡","zip_code":"3240514"},{"name":"健武","zip_code":"3240608"},{"name":"富山","zip_code":"3240616"},{"name":"馬頭","zip_code":"3240613"},{"name":"東戸田","zip_code":"3240516"},{"name":"松野","zip_code":"3240615"},{"name":"三輪","zip_code":"3240502"},{"name":"盛泉","zip_code":"3240604"},{"name":"谷川","zip_code":"3240603"},{"name":"谷田","zip_code":"3240512"},{"name":"矢又","zip_code":"3240607"},{"name":"芳井","zip_code":"3240505"},{"name":"吉田","zip_code":"3240511"},{"name":"和見","zip_code":"3240612"}]}]}