{"name":"群馬県","cities":[{"name":"前橋市","divisions":[{"name":"青梨子町","zip_code":"3703573"},{"name":"青葉町","zip_code":"3710826"},{"name":"青柳町","zip_code":"3710056"},{"name":"朝倉町","zip_code":"3710811"},{"name":"朝日が丘町","zip_code":"3710832"},{"name":"朝日町","zip_code":"3710014"},{"name":"天川大島町","zip_code":"3792154"},{"name":"天川原町","zip_code":"3710803"},{"name":"天川町","zip_code":"3710802"},{"name":"新井町","zip_code":"3792112"},{"name":"荒口町","zip_code":"3792107"},{"name":"荒子町","zip_code":"3792106"},{"name":"荒牧町","zip_code":"3710044"},{"name":"飯土井町","zip_code":"3792111"},{"name":"池端町","zip_code":"3703571"},{"name":"石倉町","zip_code":"3710841"},{"name":"石関町","zip_code":"3710006"},{"name":"泉沢町","zip_code":"3792101"},{"name":"市之関町","zip_code":"3710245"},{"name":"今井町","zip_code":"3792116"},{"name":"岩神町","zip_code":"3710035"},{"name":"笂井町","zip_code":"3792115"},{"name":"江木町","zip_code":"3710002"},{"name":"江田町","zip_code":"3710836"},{"name":"大胡町","zip_code":"3710223"},{"name":"大手町","zip_code":"3710026"},{"name":"大利根町","zip_code":"3710825"},{"name":"大友町","zip_code":"3710847"},{"name":"大前田町","zip_code":"3710243"},{"name":"大渡町","zip_code":"3710854"},{"name":"荻窪町","zip_code":"3710001"},{"name":"女屋町","zip_code":"3792163"},{"name":"表町","zip_code":"3710024"},{"name":"柏倉町","zip_code":"3710246"},{"name":"粕川町新屋","zip_code":"3710206"},{"name":"粕川町稲里","zip_code":"3710207"},{"name":"粕川町女渕","zip_code":"3710214"},{"name":"粕川町上東田面","zip_code":"3710211"},{"name":"粕川町込皆戸","zip_code":"3710216"},{"name":"粕川町下東田面","zip_code":"3710212"},{"name":"粕川町膳","zip_code":"3710204"},{"name":"粕川町月田","zip_code":"3710203"},{"name":"粕川町中","zip_code":"3710205"},{"name":"粕川町中之沢","zip_code":"3710201"},{"name":"粕川町西田面","zip_code":"3710217"},{"name":"粕川町一日市","zip_code":"3710213"},{"name":"粕川町深津","zip_code":"3710215"},{"name":"粕川町前皆戸","zip_code":"3710218"},{"name":"粕川町室沢","zip_code":"3710202"},{"name":"勝沢町","zip_code":"3710124"},{"name":"金丸町","zip_code":"3710121"},{"name":"上青梨子町","zip_code":"3703572"},{"name":"上泉町","zip_code":"3710007"},{"name":"上大島町","zip_code":"3792153"},{"name":"上大屋町","zip_code":"3710222"},{"name":"上沖町","zip_code":"3710052"},{"name":"上小出町","zip_code":"3710037"},{"name":"上佐鳥町","zip_code":"3710816"},{"name":"上新田町","zip_code":"3710821"},{"name":"上長磯町","zip_code":"3792165"},{"name":"上細井町","zip_code":"3710051"},{"name":"上増田町","zip_code":"3792114"},{"name":"亀泉町","zip_code":"3710004"},{"name":"亀里町","zip_code":"3792147"},{"name":"川端町","zip_code":"3710041"},{"name":"川原町","zip_code":"3710046"},{"name":"川曲町","zip_code":"3710823"},{"name":"河原浜町","zip_code":"3710224"},{"name":"神沢の森","zip_code":"3792103"},{"name":"北代田町","zip_code":"3710055"},{"name":"清野町","zip_code":"3703574"},{"name":"公田町","zip_code":"3792146"},{"name":"小相木町","zip_code":"3710831"},{"name":"紅雲町","zip_code":"3710025"},{"name":"幸塚町","zip_code":"3710053"},{"name":"後閑町","zip_code":"3710813"},{"name":"国領町","zip_code":"3710033"},{"name":"後家町","zip_code":"3710834"},{"name":"小坂子町","zip_code":"3710122"},{"name":"小島田町","zip_code":"3792162"},{"name":"小神明町","zip_code":"3710134"},{"name":"五代町","zip_code":"3710132"},{"name":"駒形町","zip_code":"3792122"},{"name":"小屋原町","zip_code":"3792121"},{"name":"山王町","zip_code":"3792123"},{"name":"敷島町","zip_code":"3710036"},{"name":"下阿内町","zip_code":"3792142"},{"name":"下石倉町","zip_code":"3710842"},{"name":"下大島町","zip_code":"3792152"},{"name":"下大屋町","zip_code":"3792102"},{"name":"下沖町","zip_code":"3710011"},{"name":"下川町","zip_code":"3792144"},{"name":"下小出町","zip_code":"3710031"},{"name":"下佐鳥町","zip_code":"3710815"},{"name":"下新田町","zip_code":"3710822"},{"name":"下長磯町","zip_code":"3792151"},{"name":"下細井町","zip_code":"3710054"},{"name":"下増田町","zip_code":"3792113"},{"name":"城東町","zip_code":"3710016"},{"name":"昭和町","zip_code":"3710034"},{"name":"新前橋町","zip_code":"3710843"},{"name":"住吉町","zip_code":"3710021"},{"name":"関根町","zip_code":"3710047"},{"name":"総社町","zip_code":"3710853"},{"name":"総社町植野","zip_code":"3710851"},{"name":"総社町桜が丘","zip_code":"3710858"},{"name":"総社町総社","zip_code":"3710852"},{"name":"総社町高井","zip_code":"3710856"},{"name":"高井町","zip_code":"3710857"},{"name":"高花台","zip_code":"3710123"},{"name":"滝窪町","zip_code":"3710235"},{"name":"田口町","zip_code":"3710048"},{"name":"千代田町","zip_code":"3710022"},{"name":"堤町","zip_code":"3710003"},{"name":"鶴が谷町","zip_code":"3792108"},{"name":"鶴光路町","zip_code":"3792141"},{"name":"稲荷新田町","zip_code":"3710824"},{"name":"徳丸町","zip_code":"3792135"},{"name":"鳥取町","zip_code":"3710131"},{"name":"富田町","zip_code":"3792161"},{"name":"鳥羽町","zip_code":"3710845"},{"name":"問屋町","zip_code":"3710855"},{"name":"苗ケ島町","zip_code":"3710241"},{"name":"中内町","zip_code":"3792133"},{"name":"南橘町","zip_code":"3710043"},{"name":"新堀町","zip_code":"3792143"},{"name":"西大室町","zip_code":"3792104"},{"name":"西片貝町","zip_code":"3710013"},{"name":"西善町","zip_code":"3792131"},{"name":"日輪寺町","zip_code":"3710042"},{"name":"二之宮町","zip_code":"3792117"},{"name":"ぬで島町","zip_code":"3710817"},{"name":"野中町","zip_code":"3792166"},{"name":"端気町","zip_code":"3710133"},{"name":"箱田町","zip_code":"3710837"},{"name":"鼻毛石町","zip_code":"3710244"},{"name":"馬場町","zip_code":"3710242"},{"name":"東上野町","zip_code":"3792164"},{"name":"東大室町","zip_code":"3792105"},{"name":"東片貝町","zip_code":"3710012"},{"name":"東金丸町","zip_code":"3710234"},{"name":"東善町","zip_code":"3792132"},{"name":"光が丘町","zip_code":"3710833"},{"name":"樋越町","zip_code":"3710221"},{"name":"日吉町","zip_code":"3710017"},{"name":"広瀬町","zip_code":"3710812"},{"name":"富士見町赤城山","zip_code":"3710101"},{"name":"富士見町石井","zip_code":"3710105"},{"name":"富士見町市之木場","zip_code":"3710106"},{"name":"富士見町漆窪","zip_code":"3710113"},{"name":"富士見町小沢","zip_code":"3710115"},{"name":"富士見町小暮","zip_code":"3710103"},{"name":"富士見町米野","zip_code":"3710111"},{"name":"富士見町田島","zip_code":"3710114"},{"name":"富士見町時沢","zip_code":"3710104"},{"name":"富士見町原之郷","zip_code":"3710116"},{"name":"富士見町引田","zip_code":"3710112"},{"name":"富士見町皆沢","zip_code":"3710102"},{"name":"富士見町山口","zip_code":"3710107"},{"name":"富士見町横室","zip_code":"3710117"},{"name":"古市町","zip_code":"3710844"},{"name":"文京町","zip_code":"3710801"},{"name":"平和町","zip_code":"3710027"},{"name":"房丸町","zip_code":"3792136"},{"name":"堀越町","zip_code":"3710231"},{"name":"堀之下町","zip_code":"3710005"},{"name":"本町","zip_code":"3710023"},{"name":"前箱田町","zip_code":"3710835"},{"name":"三河町","zip_code":"3710015"},{"name":"三俣町","zip_code":"3710018"},{"name":"緑が丘町","zip_code":"3710045"},{"name":"南町","zip_code":"3710805"},{"name":"嶺町","zip_code":"3710125"},{"name":"宮地町","zip_code":"3710814"},{"name":"三夜沢町","zip_code":"3710247"},{"name":"茂木町","zip_code":"3710232"},{"name":"元総社町","zip_code":"3710846"},{"name":"横沢町","zip_code":"3710233"},{"name":"横手町","zip_code":"3792145"},{"name":"力丸町","zip_code":"3792134"},{"name":"龍蔵寺町","zip_code":"3710057"},{"name":"六供町","zip_code":"3710804"},{"name":"若宮町","zip_code":"3710032"}]},{"name":"高崎市","divisions":[{"name":"相生町","zip_code":"3700811"},{"name":"赤坂町","zip_code":"3700818"},{"name":"阿久津町","zip_code":"3701211"},{"name":"旭町","zip_code":"3700052"},{"name":"足門町","zip_code":"3703531"},{"name":"東町","zip_code":"3700045"},{"name":"あら町","zip_code":"3700831"},{"name":"飯玉町","zip_code":"3700063"},{"name":"飯塚町","zip_code":"3700069"},{"name":"石原町","zip_code":"3700864"},{"name":"井出町","zip_code":"3703534"},{"name":"稲荷町","zip_code":"3700062"},{"name":"井野町","zip_code":"3700004"},{"name":"岩押町","zip_code":"3700044"},{"name":"岩鼻町","zip_code":"3701208"},{"name":"請地町","zip_code":"3700067"},{"name":"後疋間町","zip_code":"3703518"},{"name":"歌川町","zip_code":"3700807"},{"name":"江木町","zip_code":"3700046"},{"name":"大沢町","zip_code":"3700012"},{"name":"大橋町","zip_code":"3700803"},{"name":"大八木町","zip_code":"3700072"},{"name":"沖町","zip_code":"3700086"},{"name":"貝沢町","zip_code":"3700042"},{"name":"鍛冶町","zip_code":"3700838"},{"name":"片岡町","zip_code":"3700862"},{"name":"嘉多町","zip_code":"3700814"},{"name":"金井淵町","zip_code":"3700882"},{"name":"金古町","zip_code":"3703511"},{"name":"上大島町","zip_code":"3703335"},{"name":"上大類町","zip_code":"3700031"},{"name":"上小鳥町","zip_code":"3700078"},{"name":"上小塙町","zip_code":"3700077"},{"name":"上里見町","zip_code":"3703345"},{"name":"上佐野町","zip_code":"3700857"},{"name":"上滝町","zip_code":"3700027"},{"name":"上豊岡町","zip_code":"3700871"},{"name":"上中居町","zip_code":"3700851"},{"name":"上並榎町","zip_code":"3700801"},{"name":"上室田町","zip_code":"3703346"},{"name":"上和田町","zip_code":"3700806"},{"name":"菊地町","zip_code":"3700084"},{"name":"北新波町","zip_code":"3700082"},{"name":"北久保町","zip_code":"3700872"},{"name":"北通町","zip_code":"3700056"},{"name":"北原町","zip_code":"3703513"},{"name":"北双葉町","zip_code":"3700842"},{"name":"木部町","zip_code":"3701212"},{"name":"京目町","zip_code":"3700011"},{"name":"行力町","zip_code":"3700088"},{"name":"九蔵町","zip_code":"3700058"},{"name":"倉賀野町","zip_code":"3701201"},{"name":"倉渕町岩氷","zip_code":"3703404"},{"name":"倉渕町川浦","zip_code":"3703405"},{"name":"倉渕町権田","zip_code":"3703401"},{"name":"倉渕町三ノ倉","zip_code":"3703402"},{"name":"倉渕町水沼","zip_code":"3703403"},{"name":"栗崎町","zip_code":"3701205"},{"name":"剣崎町","zip_code":"3700883"},{"name":"神戸町","zip_code":"3703336"},{"name":"小八木町","zip_code":"3700071"},{"name":"栄町","zip_code":"3700841"},{"name":"佐野窪町","zip_code":"3700856"},{"name":"鞘町","zip_code":"3700827"},{"name":"新後閑町","zip_code":"3700845"},{"name":"柴崎町","zip_code":"3700035"},{"name":"芝塚町","zip_code":"3700064"},{"name":"島野町","zip_code":"3700015"},{"name":"下大島町","zip_code":"3700886"},{"name":"下大類町","zip_code":"3700034"},{"name":"下小鳥町","zip_code":"3700074"},{"name":"下小塙町","zip_code":"3700076"},{"name":"下斉田町","zip_code":"3700025"},{"name":"下里見町","zip_code":"3703343"},{"name":"下佐野町","zip_code":"3700855"},{"name":"下滝町","zip_code":"3700026"},{"name":"下豊岡町","zip_code":"3700873"},{"name":"下中居町","zip_code":"3700853"},{"name":"下之城町","zip_code":"3700854"},{"name":"下室田町","zip_code":"3703342"},{"name":"下横町","zip_code":"3700837"},{"name":"下和田町","zip_code":"3700846"},{"name":"十文字町","zip_code":"3703331"},{"name":"宿大類町","zip_code":"3700032"},{"name":"宿横手町","zip_code":"3700022"},{"name":"正観寺町","zip_code":"3700008"},{"name":"昭和町","zip_code":"3700068"},{"name":"白岩町","zip_code":"3703332"},{"name":"白銀町","zip_code":"3700825"},{"name":"城山町","zip_code":"3700866"},{"name":"新紺屋町","zip_code":"3700821"},{"name":"真町","zip_code":"3700054"},{"name":"新田町","zip_code":"3700833"},{"name":"新保田中町","zip_code":"3700003"},{"name":"新保町","zip_code":"3700018"},{"name":"新町","zip_code":"3701301"},{"name":"末広町","zip_code":"3700065"},{"name":"菅谷町","zip_code":"3703522"},{"name":"砂賀町","zip_code":"3700832"},{"name":"住吉町","zip_code":"3700804"},{"name":"堰代町","zip_code":"3700817"},{"name":"台新田町","zip_code":"3701206"},{"name":"台町","zip_code":"3700805"},{"name":"高砂町","zip_code":"3700047"},{"name":"高関町","zip_code":"3700043"},{"name":"高浜町","zip_code":"3703333"},{"name":"高松町","zip_code":"3700829"},{"name":"竜見町","zip_code":"3700835"},{"name":"田町","zip_code":"3700824"},{"name":"塚田町","zip_code":"3703515"},{"name":"筑縄町","zip_code":"3700075"},{"name":"椿町","zip_code":"3700059"},{"name":"鶴見町","zip_code":"3700848"},{"name":"寺尾町","zip_code":"3700865"},{"name":"天神町","zip_code":"3700061"},{"name":"稲荷台町","zip_code":"3703516"},{"name":"通町","zip_code":"3700053"},{"name":"常盤町","zip_code":"3700816"},{"name":"問屋町","zip_code":"3700006"},{"name":"問屋町西","zip_code":"3700007"},{"name":"中泉町","zip_code":"3703524"},{"name":"中居町","zip_code":"3700852"},{"name":"中大類町","zip_code":"3700033"},{"name":"中尾町","zip_code":"3700001"},{"name":"中紺屋町","zip_code":"3700823"},{"name":"中里町","zip_code":"3703532"},{"name":"中里見町","zip_code":"3703344"},{"name":"中島町","zip_code":"3700023"},{"name":"中豊岡町","zip_code":"3700874"},{"name":"中室田町","zip_code":"3703347"},{"name":"並榎町","zip_code":"3700802"},{"name":"成田町","zip_code":"3700812"},{"name":"西国分町","zip_code":"3703512"},{"name":"西島町","zip_code":"3700017"},{"name":"西横手町","zip_code":"3700021"},{"name":"日光町","zip_code":"3700048"},{"name":"根小屋町","zip_code":"3701214"},{"name":"乗附町","zip_code":"3700867"},{"name":"萩原町","zip_code":"3700013"},{"name":"鼻高町","zip_code":"3700868"},{"name":"浜川町","zip_code":"3700081"},{"name":"浜尻町","zip_code":"3700005"},{"name":"榛名湖町","zip_code":"3703348"},{"name":"榛名山町","zip_code":"3703341"},{"name":"東貝沢町","zip_code":"3700041"},{"name":"東国分町","zip_code":"3703514"},{"name":"東中里町","zip_code":"3701204"},{"name":"引間町","zip_code":"3703517"},{"name":"聖石町","zip_code":"3700863"},{"name":"日高町","zip_code":"3700002"},{"name":"檜物町","zip_code":"3700839"},{"name":"冷水町","zip_code":"3703519"},{"name":"福島町","zip_code":"3703523"},{"name":"藤塚町","zip_code":"3700875"},{"name":"双葉町","zip_code":"3700843"},{"name":"保渡田町","zip_code":"3703533"},{"name":"本郷町","zip_code":"3703334"},{"name":"町屋町","zip_code":"3700881"},{"name":"箕郷町生原","zip_code":"3703102"},{"name":"箕郷町柏木沢","zip_code":"3703101"},{"name":"箕郷町金敷平","zip_code":"3703114"},{"name":"箕郷町上芝","zip_code":"3703104"},{"name":"箕郷町下芝","zip_code":"3703103"},{"name":"箕郷町白川","zip_code":"3703117"},{"name":"箕郷町善地","zip_code":"3703112"},{"name":"箕郷町富岡","zip_code":"3703115"},{"name":"箕郷町中野","zip_code":"3703111"},{"name":"箕郷町西明屋","zip_code":"3703105"},{"name":"箕郷町東明屋","zip_code":"3703106"},{"name":"箕郷町松之沢","zip_code":"3703113"},{"name":"箕郷町矢原","zip_code":"3703107"},{"name":"箕郷町和田山","zip_code":"3703116"},{"name":"三ツ子沢町","zip_code":"3703337"},{"name":"三ツ寺町","zip_code":"3703525"},{"name":"緑町","zip_code":"3700073"},{"name":"南新波町","zip_code":"3700083"},{"name":"南大類町","zip_code":"3700036"},{"name":"南町","zip_code":"3700834"},{"name":"宮沢町","zip_code":"3703338"},{"name":"宮原町","zip_code":"3701202"},{"name":"宮元町","zip_code":"3700828"},{"name":"棟高町","zip_code":"3703521"},{"name":"元紺屋町","zip_code":"3700057"},{"name":"元島名町","zip_code":"3700014"},{"name":"本町","zip_code":"3700813"},{"name":"八島町","zip_code":"3700849"},{"name":"矢島町","zip_code":"3700016"},{"name":"八千代町","zip_code":"3700861"},{"name":"矢中町","zip_code":"3701203"},{"name":"柳川町","zip_code":"3700815"},{"name":"山田町","zip_code":"3700066"},{"name":"山名町","zip_code":"3701213"},{"name":"八幡原町","zip_code":"3700024"},{"name":"八幡町","zip_code":"3700884"},{"name":"弓町","zip_code":"3700051"},{"name":"吉井町池","zip_code":"3702107"},{"name":"吉井町石神","zip_code":"3702114"},{"name":"吉井町岩井","zip_code":"3702103"},{"name":"吉井町岩崎","zip_code":"3702131"},{"name":"吉井町大沢","zip_code":"3702125"},{"name":"吉井町小串","zip_code":"3702111"},{"name":"吉井町片山","zip_code":"3702135"},{"name":"吉井町上奥平","zip_code":"3702139"},{"name":"吉井町黒熊","zip_code":"3702112"},{"name":"吉井町小暮","zip_code":"3702102"},{"name":"吉井町小棚","zip_code":"3702136"},{"name":"吉井町坂口","zip_code":"3702137"},{"name":"吉井町塩","zip_code":"3702124"},{"name":"吉井町塩川","zip_code":"3702134"},{"name":"吉井町下奥平","zip_code":"3702138"},{"name":"吉井町下長根","zip_code":"3702121"},{"name":"吉井町神保","zip_code":"3702123"},{"name":"吉井町多比良","zip_code":"3702115"},{"name":"吉井町高","zip_code":"3702122"},{"name":"吉井町多胡","zip_code":"3702116"},{"name":"吉井町中島","zip_code":"3702105"},{"name":"吉井町長根","zip_code":"3702127"},{"name":"吉井町南陽台","zip_code":"3702101"},{"name":"吉井町東谷","zip_code":"3702126"},{"name":"吉井町深沢","zip_code":"3702113"},{"name":"吉井町本郷","zip_code":"3702128"},{"name":"吉井町馬庭","zip_code":"3702104"},{"name":"吉井町矢田","zip_code":"3702106"},{"name":"吉井町吉井","zip_code":"3702132"},{"name":"吉井町吉井川","zip_code":"3702133"},{"name":"四ツ屋町","zip_code":"3700819"},{"name":"寄合町","zip_code":"3700822"},{"name":"羅漢町","zip_code":"3700055"},{"name":"楽間町","zip_code":"3700087"},{"name":"連雀町","zip_code":"3700826"},{"name":"若田町","zip_code":"3700885"},{"name":"若松町","zip_code":"3700836"},{"name":"我峰町","zip_code":"3700085"},{"name":"和田多中町","zip_code":"3700844"},{"name":"綿貫町","zip_code":"3701207"},{"name":"和田町","zip_code":"3700847"}]},{"name":"桐生市","divisions":[{"name":"相生町","zip_code":"3760011"},{"name":"旭町","zip_code":"3760037"},{"name":"東町","zip_code":"3760032"},{"name":"泉町","zip_code":"3760033"},{"name":"稲荷町","zip_code":"3760022"},{"name":"梅田町","zip_code":"3760601"},{"name":"永楽町","zip_code":"3760044"},{"name":"織姫町","zip_code":"3760024"},{"name":"川内町","zip_code":"3760041"},{"name":"川岸町","zip_code":"3760036"},{"name":"清瀬町","zip_code":"3760026"},{"name":"黒保根町上田沢","zip_code":"3760145"},{"name":"黒保根町下田沢","zip_code":"3760144"},{"name":"黒保根町宿廻","zip_code":"3760143"},{"name":"黒保根町水沼","zip_code":"3760141"},{"name":"黒保根町八木原","zip_code":"3760142"},{"name":"小梅町","zip_code":"3760004"},{"name":"小曾根町","zip_code":"3760043"},{"name":"琴平町","zip_code":"3760003"},{"name":"境野町","zip_code":"3760002"},{"name":"桜木町","zip_code":"3760012"},{"name":"新宿","zip_code":"3760006"},{"name":"末広町","zip_code":"3760045"},{"name":"高砂町","zip_code":"3760038"},{"name":"堤町","zip_code":"3760042"},{"name":"天神町","zip_code":"3760052"},{"name":"巴町","zip_code":"3760021"},{"name":"仲町","zip_code":"3760035"},{"name":"新里町赤城山","zip_code":"3760137"},{"name":"新里町板橋","zip_code":"3760136"},{"name":"新里町大久保","zip_code":"3760133"},{"name":"新里町奥沢","zip_code":"3760131"},{"name":"新里町小林","zip_code":"3760124"},{"name":"新里町関","zip_code":"3760134"},{"name":"新里町高泉","zip_code":"3760135"},{"name":"新里町武井","zip_code":"3760123"},{"name":"新里町鶴ケ谷","zip_code":"3760132"},{"name":"新里町新川","zip_code":"3760121"},{"name":"新里町野","zip_code":"3760122"},{"name":"新里町山上","zip_code":"3760125"},{"name":"錦町","zip_code":"3760023"},{"name":"西久方町","zip_code":"3760054"},{"name":"浜松町","zip_code":"3760007"},{"name":"東","zip_code":"3760034"},{"name":"東久方町","zip_code":"3760053"},{"name":"菱町","zip_code":"3760001"},{"name":"平井町","zip_code":"3760051"},{"name":"広沢町","zip_code":"3760013"},{"name":"広沢町間ノ島","zip_code":"3760014"},{"name":"本町","zip_code":"3760031"},{"name":"美原町","zip_code":"3760025"},{"name":"宮前町","zip_code":"3760046"},{"name":"宮本町","zip_code":"3760056"},{"name":"三吉町","zip_code":"3760005"},{"name":"元宿町","zip_code":"3760027"},{"name":"横山町","zip_code":"3760055"}]},{"name":"伊勢崎市","divisions":[{"name":"間野谷町","zip_code":"3792201"},{"name":"赤堀今井町","zip_code":"3792215"},{"name":"赤堀鹿島町","zip_code":"3792202"},{"name":"東町","zip_code":"3792231"},{"name":"阿弥大寺町","zip_code":"3720821"},{"name":"安堀町","zip_code":"3720007"},{"name":"飯島町","zip_code":"3720854"},{"name":"磯町","zip_code":"3792217"},{"name":"市場町","zip_code":"3792211"},{"name":"稲荷町","zip_code":"3720804"},{"name":"乾町","zip_code":"3720005"},{"name":"今泉町","zip_code":"3720031"},{"name":"今井町","zip_code":"3720823"},{"name":"太田町","zip_code":"3720006"},{"name":"大手町","zip_code":"3720048"},{"name":"鹿島町","zip_code":"3720015"},{"name":"粕川町","zip_code":"3720023"},{"name":"上泉町","zip_code":"3720045"},{"name":"上植木本町","zip_code":"3720013"},{"name":"上諏訪町","zip_code":"3720021"},{"name":"上田町","zip_code":"3792225"},{"name":"上蓮町","zip_code":"3720851"},{"name":"北千木町","zip_code":"3720032"},{"name":"喜多町","zip_code":"3720056"},{"name":"国定町","zip_code":"3792221"},{"name":"曲輪町","zip_code":"3720055"},{"name":"華蔵寺町","zip_code":"3720003"},{"name":"下道寺町","zip_code":"3720843"},{"name":"小泉町","zip_code":"3792232"},{"name":"香林町","zip_code":"3792206"},{"name":"国領町","zip_code":"3720853"},{"name":"寿町","zip_code":"3720052"},{"name":"五目牛町","zip_code":"3792213"},{"name":"境","zip_code":"3700124"},{"name":"境東","zip_code":"3700123"},{"name":"境伊与久","zip_code":"3700105"},{"name":"境小此木","zip_code":"3700135"},{"name":"境女塚","zip_code":"3700121"},{"name":"境上武士","zip_code":"3700127"},{"name":"境上渕名","zip_code":"3700102"},{"name":"境上矢島","zip_code":"3700111"},{"name":"境木島","zip_code":"3700104"},{"name":"境栄","zip_code":"3700122"},{"name":"境島村","zip_code":"3700134"},{"name":"境下武士","zip_code":"3700126"},{"name":"境下渕名","zip_code":"3700103"},{"name":"境新栄","zip_code":"3700114"},{"name":"境百々","zip_code":"3700117"},{"name":"境百々東","zip_code":"3700116"},{"name":"境中島","zip_code":"3700133"},{"name":"境西今井","zip_code":"3700112"},{"name":"境萩原","zip_code":"3700125"},{"name":"境東新井","zip_code":"3700101"},{"name":"境平塚","zip_code":"3700132"},{"name":"境保泉","zip_code":"3700128"},{"name":"境三ツ木","zip_code":"3700113"},{"name":"境美原","zip_code":"3700115"},{"name":"境米岡","zip_code":"3700131"},{"name":"山王町","zip_code":"3720831"},{"name":"三光町","zip_code":"3720046"},{"name":"三和町","zip_code":"3720011"},{"name":"柴町","zip_code":"3720824"},{"name":"下植木町","zip_code":"3720024"},{"name":"下蓮町","zip_code":"3720852"},{"name":"下触町","zip_code":"3792214"},{"name":"昭和町","zip_code":"3720014"},{"name":"新栄町","zip_code":"3720038"},{"name":"末広町","zip_code":"3720057"},{"name":"大正寺町","zip_code":"3720841"},{"name":"田中島町","zip_code":"3720802"},{"name":"田中町","zip_code":"3720814"},{"name":"田部井町","zip_code":"3792222"},{"name":"中央町","zip_code":"3720042"},{"name":"堤下町","zip_code":"3720004"},{"name":"堤西町","zip_code":"3720002"},{"name":"連取本町","zip_code":"3720817"},{"name":"連取元町","zip_code":"3720818"},{"name":"連取町","zip_code":"3720812"},{"name":"富塚町","zip_code":"3720833"},{"name":"戸谷塚町","zip_code":"3720825"},{"name":"豊城町","zip_code":"3720012"},{"name":"中町","zip_code":"3720822"},{"name":"長沼町","zip_code":"3720855"},{"name":"西小保方町","zip_code":"3792224"},{"name":"西上之宮町","zip_code":"3720816"},{"name":"西久保町","zip_code":"3792204"},{"name":"西田町","zip_code":"3720058"},{"name":"西野町","zip_code":"3792216"},{"name":"韮塚町","zip_code":"3720813"},{"name":"野町","zip_code":"3792205"},{"name":"羽黒町","zip_code":"3720844"},{"name":"波志江町","zip_code":"3720001"},{"name":"八寸町","zip_code":"3792236"},{"name":"東小保方町","zip_code":"3792234"},{"name":"東上之宮町","zip_code":"3720815"},{"name":"東本町","zip_code":"3720025"},{"name":"日乃出町","zip_code":"3720022"},{"name":"平井町","zip_code":"3792233"},{"name":"ひろせ町","zip_code":"3720039"},{"name":"福島町","zip_code":"3720826"},{"name":"平和町","zip_code":"3720041"},{"name":"堀口町","zip_code":"3720834"},{"name":"堀下町","zip_code":"3792212"},{"name":"本関町","zip_code":"3720016"},{"name":"本町","zip_code":"3720047"},{"name":"曲沢町","zip_code":"3792203"},{"name":"馬見塚町","zip_code":"3720842"},{"name":"緑町","zip_code":"3720043"},{"name":"南千木町","zip_code":"3720033"},{"name":"三室町","zip_code":"3792235"},{"name":"美茂呂町","zip_code":"3720037"},{"name":"宮子町","zip_code":"3720801"},{"name":"宮古町","zip_code":"3720803"},{"name":"宮前町","zip_code":"3720026"},{"name":"宗高町","zip_code":"3720053"},{"name":"茂呂町","zip_code":"3720034"},{"name":"茂呂南町","zip_code":"3720036"},{"name":"八坂町","zip_code":"3720044"},{"name":"八斗島町","zip_code":"3720827"},{"name":"柳原町","zip_code":"3720054"},{"name":"八幡町","zip_code":"3720051"},{"name":"除ケ町","zip_code":"3720832"},{"name":"若葉町","zip_code":"3720811"}]},{"name":"太田市","divisions":[{"name":"阿久津町","zip_code":"3700402"},{"name":"朝日町","zip_code":"3730814"},{"name":"新井町","zip_code":"3730852"},{"name":"安養寺町","zip_code":"3700422"},{"name":"飯田町","zip_code":"3730851"},{"name":"飯塚町","zip_code":"3730817"},{"name":"石橋町","zip_code":"3730007"},{"name":"石原町","zip_code":"3730808"},{"name":"泉町","zip_code":"3730845"},{"name":"市場町","zip_code":"3730013"},{"name":"出塚町","zip_code":"3700424"},{"name":"岩瀬川町","zip_code":"3730841"},{"name":"岩松町","zip_code":"3700403"},{"name":"植木野町","zip_code":"3730014"},{"name":"牛沢町","zip_code":"3730833"},{"name":"内ケ島町","zip_code":"3730813"},{"name":"大久保町","zip_code":"3792306"},{"name":"大島町","zip_code":"3730055"},{"name":"大舘町","zip_code":"3700423"},{"name":"大原町","zip_code":"3792304"},{"name":"大鷲町","zip_code":"3730075"},{"name":"沖野町","zip_code":"3730045"},{"name":"沖之郷町","zip_code":"3730804"},{"name":"押切町","zip_code":"3700405"},{"name":"尾島町","zip_code":"3700401"},{"name":"粕川町","zip_code":"3700421"},{"name":"金山町","zip_code":"3730027"},{"name":"上強戸町","zip_code":"3730074"},{"name":"上小林町","zip_code":"3730024"},{"name":"上田島町","zip_code":"3730044"},{"name":"亀岡町","zip_code":"3700411"},{"name":"北金井町","zip_code":"3730003"},{"name":"清原町","zip_code":"3730012"},{"name":"熊野町","zip_code":"3730025"},{"name":"強戸町","zip_code":"3730004"},{"name":"小角田町","zip_code":"3700427"},{"name":"小舞木町","zip_code":"3730818"},{"name":"下小林町","zip_code":"3730807"},{"name":"下田島町","zip_code":"3730844"},{"name":"下浜田町","zip_code":"3730821"},{"name":"城西町","zip_code":"3730038"},{"name":"庄屋町","zip_code":"3730822"},{"name":"新道町","zip_code":"3730037"},{"name":"末広町","zip_code":"3730862"},{"name":"菅塩町","zip_code":"3730002"},{"name":"すずかけ町","zip_code":"3700413"},{"name":"スバル町","zip_code":"3730028"},{"name":"世良田町","zip_code":"3700426"},{"name":"太子町","zip_code":"3700412"},{"name":"台之郷町","zip_code":"3730801"},{"name":"高瀬町","zip_code":"3730072"},{"name":"高林東町","zip_code":"3730825"},{"name":"高林西町","zip_code":"3730828"},{"name":"高林南町","zip_code":"3730827"},{"name":"高林北町","zip_code":"3730829"},{"name":"高林寿町","zip_code":"3730824"},{"name":"宝町","zip_code":"3730042"},{"name":"只上町","zip_code":"3730011"},{"name":"鶴生田町","zip_code":"3730008"},{"name":"寺井町","zip_code":"3730052"},{"name":"天良町","zip_code":"3730051"},{"name":"徳川町","zip_code":"3700425"},{"name":"富沢町","zip_code":"3730832"},{"name":"富若町","zip_code":"3730023"},{"name":"鳥山町","zip_code":"3730053"},{"name":"鳥山上町","zip_code":"3730061"},{"name":"鳥山中町","zip_code":"3730062"},{"name":"鳥山下町","zip_code":"3730063"},{"name":"中根町","zip_code":"3730846"},{"name":"長手町","zip_code":"3730054"},{"name":"成塚町","zip_code":"3730006"},{"name":"新島町","zip_code":"3730819"},{"name":"新野町","zip_code":"3730032"},{"name":"西新町","zip_code":"3730847"},{"name":"西長岡町","zip_code":"3730001"},{"name":"西野谷町","zip_code":"3730043"},{"name":"西本町","zip_code":"3730033"},{"name":"西矢島町","zip_code":"3730823"},{"name":"新田赤堀町","zip_code":"3700331"},{"name":"新田市町","zip_code":"3700304"},{"name":"新田市野井町","zip_code":"3700314"},{"name":"新田市野倉町","zip_code":"3700306"},{"name":"新田大町","zip_code":"3700351"},{"name":"新田大根町","zip_code":"3700347"},{"name":"新田金井町","zip_code":"3700341"},{"name":"新田嘉祢町","zip_code":"3700352"},{"name":"新田上江田町","zip_code":"3700342"},{"name":"新田上田中町","zip_code":"3700346"},{"name":"新田上中町","zip_code":"3700353"},{"name":"新田木崎町","zip_code":"3700321"},{"name":"新田小金井町","zip_code":"3700303"},{"name":"新田小金町","zip_code":"3700302"},{"name":"新田権右衛門町","zip_code":"3700355"},{"name":"新田下江田町","zip_code":"3700333"},{"name":"新田下田中町","zip_code":"3700343"},{"name":"新田反町町","zip_code":"3700313"},{"name":"新田高尾町","zip_code":"3700334"},{"name":"新田多村新田町","zip_code":"3700305"},{"name":"新田溜池町","zip_code":"3700354"},{"name":"新田天良町","zip_code":"3700301"},{"name":"新田中江田町","zip_code":"3700332"},{"name":"新田萩町","zip_code":"3700356"},{"name":"新田花香塚町","zip_code":"3700345"},{"name":"新田早川町","zip_code":"3700344"},{"name":"新田瑞木町","zip_code":"3700311"},{"name":"新田村田町","zip_code":"3700312"},{"name":"韮川町","zip_code":"3730029"},{"name":"八幡町","zip_code":"3730056"},{"name":"浜町","zip_code":"3730853"},{"name":"原宿町","zip_code":"3730071"},{"name":"東今泉町","zip_code":"3730021"},{"name":"東金井町","zip_code":"3730022"},{"name":"東新町","zip_code":"3730015"},{"name":"東長岡町","zip_code":"3730812"},{"name":"東別所町","zip_code":"3730815"},{"name":"東本町","zip_code":"3730026"},{"name":"東矢島町","zip_code":"3730816"},{"name":"備前島町","zip_code":"3700404"},{"name":"福沢町","zip_code":"3730831"},{"name":"藤阿久町","zip_code":"3730034"},{"name":"藤久良町","zip_code":"3730035"},{"name":"二ツ小屋町","zip_code":"3700417"},{"name":"古戸町","zip_code":"3730826"},{"name":"別所町","zip_code":"3730041"},{"name":"細谷町","zip_code":"3730842"},{"name":"堀口町","zip_code":"3700414"},{"name":"本町","zip_code":"3730057"},{"name":"前小屋町","zip_code":"3700406"},{"name":"前島町","zip_code":"3700416"},{"name":"丸山町","zip_code":"3730018"},{"name":"緑町","zip_code":"3730073"},{"name":"南ケ丘町","zip_code":"3700415"},{"name":"南矢島町","zip_code":"3730861"},{"name":"武蔵島町","zip_code":"3700418"},{"name":"茂木町","zip_code":"3730809"},{"name":"八重笠町","zip_code":"3730805"},{"name":"安良岡町","zip_code":"3730811"},{"name":"矢田堀町","zip_code":"3730016"},{"name":"矢場町","zip_code":"3730803"},{"name":"矢場新町","zip_code":"3730802"},{"name":"藪塚町","zip_code":"3792301"},{"name":"山之神町","zip_code":"3792302"},{"name":"由良町","zip_code":"3730036"},{"name":"吉沢町","zip_code":"3730019"},{"name":"米沢町","zip_code":"3730843"},{"name":"寄合町","zip_code":"3792303"},{"name":"龍舞町","zip_code":"3730806"},{"name":"六千石町","zip_code":"3792305"},{"name":"脇屋町","zip_code":"3730031"}]},{"name":"沼田市","divisions":[{"name":"秋塚町","zip_code":"3780076"},{"name":"石墨町","zip_code":"3780077"},{"name":"井土上町","zip_code":"3780035"},{"name":"今井町","zip_code":"3780025"},{"name":"岩本町","zip_code":"3780021"},{"name":"薄根町","zip_code":"3780031"},{"name":"宇楚井町","zip_code":"3780068"},{"name":"大釜町","zip_code":"3780067"},{"name":"岡谷町","zip_code":"3780061"},{"name":"恩田町","zip_code":"3780034"},{"name":"鍛冶町","zip_code":"3780018"},{"name":"上川田町","zip_code":"3780026"},{"name":"上久屋町","zip_code":"3780003"},{"name":"上沼須町","zip_code":"3780011"},{"name":"上之町","zip_code":"3780047"},{"name":"上原町","zip_code":"3780051"},{"name":"上発知町","zip_code":"3780071"},{"name":"久屋原町","zip_code":"3780005"},{"name":"材木町","zip_code":"3780045"},{"name":"栄町","zip_code":"3780014"},{"name":"桜町","zip_code":"3780052"},{"name":"篠尾町","zip_code":"3780023"},{"name":"佐山町","zip_code":"3780078"},{"name":"清水町","zip_code":"3780016"},{"name":"下川田町","zip_code":"3780024"},{"name":"下久屋町","zip_code":"3780004"},{"name":"下沼田町","zip_code":"3780063"},{"name":"下之町","zip_code":"3780044"},{"name":"下発知町","zip_code":"3780074"},{"name":"白岩町","zip_code":"3780033"},{"name":"白沢町岩室","zip_code":"3780123"},{"name":"白沢町尾合","zip_code":"3780124"},{"name":"白沢町上古語父","zip_code":"3780126"},{"name":"白沢町下古語父","zip_code":"3780127"},{"name":"白沢町高平","zip_code":"3780121"},{"name":"白沢町生枝","zip_code":"3780122"},{"name":"白沢町平出","zip_code":"3780125"},{"name":"新町","zip_code":"3780013"},{"name":"硯田町","zip_code":"3780032"},{"name":"善桂寺町","zip_code":"3780064"},{"name":"高橋場町","zip_code":"3780056"},{"name":"戸鹿野町","zip_code":"3780015"},{"name":"戸神町","zip_code":"3780001"},{"name":"利根町青木","zip_code":"3780314"},{"name":"利根町穴原","zip_code":"3780305"},{"name":"利根町石戸新田","zip_code":"3780326"},{"name":"利根町老神","zip_code":"3780322"},{"name":"利根町大原","zip_code":"3780323"},{"name":"利根町大楊","zip_code":"3780304"},{"name":"利根町追貝","zip_code":"3780303"},{"name":"利根町柿平","zip_code":"3780307"},{"name":"利根町小松","zip_code":"3780311"},{"name":"利根町砂川","zip_code":"3780315"},{"name":"利根町園原","zip_code":"3780324"},{"name":"利根町高戸谷","zip_code":"3780321"},{"name":"利根町多那","zip_code":"3780317"},{"name":"利根町千鳥","zip_code":"3780302"},{"name":"利根町二本松","zip_code":"3780316"},{"name":"利根町根利","zip_code":"3780312"},{"name":"利根町日影南郷","zip_code":"3780313"},{"name":"利根町日向南郷","zip_code":"3780306"},{"name":"利根町平川","zip_code":"3780301"},{"name":"利根町輪組","zip_code":"3780325"},{"name":"中発知町","zip_code":"3780072"},{"name":"中町","zip_code":"3780048"},{"name":"奈良町","zip_code":"3780075"},{"name":"西倉内町","zip_code":"3780042"},{"name":"西原新町","zip_code":"3780054"},{"name":"沼須町","zip_code":"3780012"},{"name":"馬喰町","zip_code":"3780046"},{"name":"原町","zip_code":"3780066"},{"name":"榛名町","zip_code":"3780041"},{"name":"東倉内町","zip_code":"3780043"},{"name":"東原新町","zip_code":"3780053"},{"name":"坊新田町","zip_code":"3780017"},{"name":"発知新田町","zip_code":"3780073"},{"name":"堀廻町","zip_code":"3780065"},{"name":"町田町","zip_code":"3780062"},{"name":"屋形原町","zip_code":"3780022"},{"name":"柳町","zip_code":"3780055"},{"name":"横塚町","zip_code":"3780002"}]},{"name":"館林市","divisions":[{"name":"青柳町","zip_code":"3740035"},{"name":"赤土町","zip_code":"3740053"},{"name":"赤生田町","zip_code":"3740013"},{"name":"赤生田本町","zip_code":"3740014"},{"name":"朝日町","zip_code":"3740063"},{"name":"足次町","zip_code":"3740073"},{"name":"入ケ谷町","zip_code":"3740045"},{"name":"大街道","zip_code":"3740066"},{"name":"大島町","zip_code":"3740001"},{"name":"大新田町","zip_code":"3740072"},{"name":"大手町","zip_code":"3740023"},{"name":"大谷町","zip_code":"3740054"},{"name":"岡野町","zip_code":"3740067"},{"name":"尾曳町","zip_code":"3740019"},{"name":"加法師町","zip_code":"3740022"},{"name":"上赤生田町","zip_code":"3740015"},{"name":"上早川田町","zip_code":"3740079"},{"name":"上三林町","zip_code":"3740046"},{"name":"北成島町","zip_code":"3740057"},{"name":"木戸町","zip_code":"3740077"},{"name":"楠町","zip_code":"3740004"},{"name":"小桑原町","zip_code":"3740037"},{"name":"近藤町","zip_code":"3740042"},{"name":"栄町","zip_code":"3740052"},{"name":"坂下町","zip_code":"3740069"},{"name":"下早川田町","zip_code":"3740071"},{"name":"下三林町","zip_code":"3740044"},{"name":"城町","zip_code":"3740018"},{"name":"新栄町","zip_code":"3740051"},{"name":"新宿","zip_code":"3740026"},{"name":"諏訪町","zip_code":"3740036"},{"name":"瀬戸谷町","zip_code":"3740021"},{"name":"代官町","zip_code":"3740064"},{"name":"台宿町","zip_code":"3740068"},{"name":"高根町","zip_code":"3740074"},{"name":"田谷町","zip_code":"3740002"},{"name":"千塚町","zip_code":"3740009"},{"name":"千代田町","zip_code":"3740028"},{"name":"つつじ町","zip_code":"3740017"},{"name":"当郷町","zip_code":"3740006"},{"name":"苗木町","zip_code":"3740043"},{"name":"仲町","zip_code":"3740029"},{"name":"成島町","zip_code":"3740055"},{"name":"西高根町","zip_code":"3740075"},{"name":"西本町","zip_code":"3740065"},{"name":"西美園町","zip_code":"3740038"},{"name":"野辺町","zip_code":"3740047"},{"name":"花山町","zip_code":"3740005"},{"name":"羽附旭町","zip_code":"3740012"},{"name":"羽附町","zip_code":"3740011"},{"name":"東広内町","zip_code":"3740061"},{"name":"東美園町","zip_code":"3740031"},{"name":"日向町","zip_code":"3740076"},{"name":"広内町","zip_code":"3740062"},{"name":"富士原町","zip_code":"3740041"},{"name":"富士見町","zip_code":"3740027"},{"name":"分福町","zip_code":"3740034"},{"name":"傍示塚町","zip_code":"3740078"},{"name":"細内町","zip_code":"3740008"},{"name":"堀工町","zip_code":"3740033"},{"name":"本町","zip_code":"3740024"},{"name":"松沼町","zip_code":"3740056"},{"name":"松原","zip_code":"3740016"},{"name":"美園町","zip_code":"3740039"},{"name":"緑町","zip_code":"3740025"},{"name":"南美園町","zip_code":"3740032"},{"name":"四ツ谷町","zip_code":"3740003"},{"name":"若宮町","zip_code":"3740007"}]},{"name":"渋川市","divisions":[{"name":"赤城町勝保沢","zip_code":"3791122"},{"name":"赤城町上三原田","zip_code":"3791125"},{"name":"赤城町北赤城山","zip_code":"3791111"},{"name":"赤城町北上野","zip_code":"3791105"},{"name":"赤城町栄","zip_code":"3791114"},{"name":"赤城町敷島","zip_code":"3791104"},{"name":"赤城町滝沢","zip_code":"3791124"},{"name":"赤城町棚下","zip_code":"3791101"},{"name":"赤城町樽","zip_code":"3791127"},{"name":"赤城町津久田","zip_code":"3791103"},{"name":"赤城町長井小川田","zip_code":"3791102"},{"name":"赤城町溝呂木","zip_code":"3791115"},{"name":"赤城町見立","zip_code":"3791123"},{"name":"赤城町南赤城山","zip_code":"3791113"},{"name":"赤城町三原田","zip_code":"3791126"},{"name":"赤城町宮田","zip_code":"3791121"},{"name":"赤城町深山","zip_code":"3791112"},{"name":"赤城町持柏木","zip_code":"3791116"},{"name":"阿久津","zip_code":"3770031"},{"name":"有馬","zip_code":"3770005"},{"name":"伊香保町伊香保","zip_code":"3770102"},{"name":"伊香保町水沢","zip_code":"3770103"},{"name":"伊香保町湯中子","zip_code":"3770101"},{"name":"石原","zip_code":"3770007"},{"name":"祖母島","zip_code":"3770024"},{"name":"小野子","zip_code":"3770312"},{"name":"金井","zip_code":"3770027"},{"name":"上白井","zip_code":"3770201"},{"name":"川島","zip_code":"3770025"},{"name":"北牧","zip_code":"3770205"},{"name":"渋川","zip_code":"3770008"},{"name":"白井","zip_code":"3770204"},{"name":"中郷","zip_code":"3770202"},{"name":"中村","zip_code":"3770002"},{"name":"南牧","zip_code":"3770026"},{"name":"半田","zip_code":"3770004"},{"name":"吹屋","zip_code":"3770203"},{"name":"北橘町赤城山","zip_code":"3770051"},{"name":"北橘町上南室","zip_code":"3770055"},{"name":"北橘町上箱田","zip_code":"3770052"},{"name":"北橘町小室","zip_code":"3770065"},{"name":"北橘町下南室","zip_code":"3770054"},{"name":"北橘町下箱田","zip_code":"3770061"},{"name":"北橘町箱田","zip_code":"3770053"},{"name":"北橘町八崎","zip_code":"3770064"},{"name":"北橘町分郷八崎","zip_code":"3770063"},{"name":"北橘町真壁","zip_code":"3770062"},{"name":"行幸田","zip_code":"3770006"},{"name":"村上","zip_code":"3770311"},{"name":"八木原","zip_code":"3770003"},{"name":"横堀","zip_code":"3770206"}]},{"name":"藤岡市","divisions":[{"name":"鮎川","zip_code":"3750042"},{"name":"牛田","zip_code":"3750034"},{"name":"岡之郷","zip_code":"3750011"},{"name":"鬼石","zip_code":"3701401"},{"name":"金井","zip_code":"3750045"},{"name":"上大塚","zip_code":"3750054"},{"name":"上落合","zip_code":"3750057"},{"name":"上栗須","zip_code":"3750016"},{"name":"上戸塚","zip_code":"3750013"},{"name":"上日野","zip_code":"3750047"},{"name":"川除","zip_code":"3750033"},{"name":"小林","zip_code":"3750021"},{"name":"坂原","zip_code":"3701404"},{"name":"三波川","zip_code":"3701405"},{"name":"三本木","zip_code":"3750037"},{"name":"篠塚","zip_code":"3750017"},{"name":"下大塚","zip_code":"3750052"},{"name":"下栗須","zip_code":"3750014"},{"name":"下戸塚","zip_code":"3750012"},{"name":"下日野","zip_code":"3750046"},{"name":"浄法寺","zip_code":"3701406"},{"name":"白石","zip_code":"3750055"},{"name":"神田","zip_code":"3750032"},{"name":"高山","zip_code":"3750036"},{"name":"立石","zip_code":"3750002"},{"name":"立石新田","zip_code":"3750003"},{"name":"中","zip_code":"3750005"},{"name":"中大塚","zip_code":"3750053"},{"name":"中栗須","zip_code":"3750015"},{"name":"中島","zip_code":"3750001"},{"name":"西平井","zip_code":"3750044"},{"name":"根岸","zip_code":"3750022"},{"name":"東平井","zip_code":"3750043"},{"name":"藤岡","zip_code":"3750024"},{"name":"保美","zip_code":"3750035"},{"name":"保美濃山","zip_code":"3701403"},{"name":"本郷","zip_code":"3750023"},{"name":"三ツ木","zip_code":"3750056"},{"name":"緑埜","zip_code":"3750041"},{"name":"本動堂","zip_code":"3750051"},{"name":"森","zip_code":"3750004"},{"name":"森新田","zip_code":"3750006"},{"name":"矢場","zip_code":"3750031"},{"name":"譲原","zip_code":"3701402"}]},{"name":"富岡市","divisions":[{"name":"相野田","zip_code":"3702306"},{"name":"一ノ宮","zip_code":"3702452"},{"name":"岩染","zip_code":"3702322"},{"name":"宇田","zip_code":"3702451"},{"name":"大島","zip_code":"3702335"},{"name":"岡本","zip_code":"3702321"},{"name":"蚊沼","zip_code":"3702466"},{"name":"神農原","zip_code":"3702455"},{"name":"上黒岩","zip_code":"3702345"},{"name":"上小林","zip_code":"3702456"},{"name":"上高尾","zip_code":"3702317"},{"name":"上高瀬","zip_code":"3702334"},{"name":"上丹生","zip_code":"3702461"},{"name":"神成","zip_code":"3702463"},{"name":"君川","zip_code":"3702313"},{"name":"黒川","zip_code":"3702344"},{"name":"桑原","zip_code":"3702301"},{"name":"後賀","zip_code":"3702304"},{"name":"小桑原","zip_code":"3702302"},{"name":"下黒岩","zip_code":"3702341"},{"name":"下高尾","zip_code":"3702311"},{"name":"下高瀬","zip_code":"3702332"},{"name":"下丹生","zip_code":"3702462"},{"name":"白岩","zip_code":"3702305"},{"name":"曾木","zip_code":"3702315"},{"name":"内匠","zip_code":"3702331"},{"name":"田篠","zip_code":"3702314"},{"name":"田島","zip_code":"3702454"},{"name":"富岡","zip_code":"3702316"},{"name":"中沢","zip_code":"3702465"},{"name":"中高瀬","zip_code":"3702333"},{"name":"七日市","zip_code":"3702343"},{"name":"南蛇井","zip_code":"3702464"},{"name":"野上","zip_code":"3702323"},{"name":"原","zip_code":"3702467"},{"name":"藤木","zip_code":"3702307"},{"name":"別保","zip_code":"3702342"},{"name":"星田","zip_code":"3702312"},{"name":"南後箇","zip_code":"3702324"},{"name":"宮崎","zip_code":"3702453"},{"name":"妙義町大牛","zip_code":"3790202"},{"name":"妙義町上高田","zip_code":"3702411"},{"name":"妙義町北山","zip_code":"3790205"},{"name":"妙義町下高田","zip_code":"3702412"},{"name":"妙義町菅原","zip_code":"3790208"},{"name":"妙義町岳","zip_code":"3790203"},{"name":"妙義町中里","zip_code":"3790206"},{"name":"妙義町行沢","zip_code":"3790204"},{"name":"妙義町古立","zip_code":"3790207"},{"name":"妙義町妙義","zip_code":"3790201"},{"name":"妙義町諸戸","zip_code":"3790209"},{"name":"妙義町八木連","zip_code":"3702413"},{"name":"蕨","zip_code":"3702303"}]},{"name":"安中市","divisions":[{"name":"秋間みのりが丘","zip_code":"3790109"},{"name":"安中","zip_code":"3790116"},{"name":"磯部","zip_code":"3790127"},{"name":"板鼻","zip_code":"3790111"},{"name":"岩井","zip_code":"3790112"},{"name":"大竹","zip_code":"3790121"},{"name":"大谷","zip_code":"3790113"},{"name":"小俣","zip_code":"3790105"},{"name":"上後閑","zip_code":"3790108"},{"name":"上間仁田","zip_code":"3790123"},{"name":"郷原","zip_code":"3790135"},{"name":"高別当","zip_code":"3790132"},{"name":"鷺宮","zip_code":"3790124"},{"name":"下秋間","zip_code":"3790104"},{"name":"下磯部","zip_code":"3790129"},{"name":"下後閑","zip_code":"3790106"},{"name":"下間仁田","zip_code":"3790122"},{"name":"中秋間","zip_code":"3790103"},{"name":"中後閑","zip_code":"3790107"},{"name":"中宿","zip_code":"3790115"},{"name":"中野谷","zip_code":"3790125"},{"name":"西上秋間","zip_code":"3790101"},{"name":"西上磯部","zip_code":"3790126"},{"name":"野殿","zip_code":"3790114"},{"name":"原市","zip_code":"3790133"},{"name":"東上秋間","zip_code":"3790102"},{"name":"東上磯部","zip_code":"3790128"},{"name":"古屋","zip_code":"3790131"},{"name":"松井田町新井","zip_code":"3790216"},{"name":"松井田町入山","zip_code":"3790305"},{"name":"松井田町行田","zip_code":"3790226"},{"name":"松井田町小日向","zip_code":"3790213"},{"name":"松井田町上増田","zip_code":"3790211"},{"name":"松井田町北野牧","zip_code":"3790304"},{"name":"松井田町国衙","zip_code":"3790214"},{"name":"松井田町五料","zip_code":"3790302"},{"name":"松井田町坂本","zip_code":"3790307"},{"name":"松井田町下増田","zip_code":"3790212"},{"name":"松井田町高梨子","zip_code":"3790215"},{"name":"松井田町峠","zip_code":"3890121"},{"name":"松井田町新堀","zip_code":"3790221"},{"name":"松井田町二軒在家","zip_code":"3790223"},{"name":"松井田町西野牧","zip_code":"3790303"},{"name":"松井田町原","zip_code":"3790306"},{"name":"松井田町土塩","zip_code":"3790217"},{"name":"松井田町人見","zip_code":"3790224"},{"name":"松井田町松井田","zip_code":"3790222"},{"name":"松井田町八城","zip_code":"3790225"},{"name":"松井田町横川","zip_code":"3790301"},{"name":"嶺","zip_code":"3790136"},{"name":"簗瀬","zip_code":"3790134"}]},{"name":"みどり市","divisions":[{"name":"東町荻原","zip_code":"3760306"},{"name":"東町草木","zip_code":"3760302"},{"name":"東町神戸","zip_code":"3760304"},{"name":"東町小中","zip_code":"3760308"},{"name":"東町座間","zip_code":"3760303"},{"name":"東町小夜戸","zip_code":"3760305"},{"name":"東町沢入","zip_code":"3760301"},{"name":"東町花輪","zip_code":"3760307"},{"name":"大間々町浅原","zip_code":"3760114"},{"name":"大間々町大間々","zip_code":"3760101"},{"name":"大間々町小平","zip_code":"3760111"},{"name":"大間々町上神梅","zip_code":"3760104"},{"name":"大間々町桐原","zip_code":"3760102"},{"name":"大間々町塩沢","zip_code":"3760116"},{"name":"大間々町塩原","zip_code":"3760115"},{"name":"大間々町下神梅","zip_code":"3760103"},{"name":"大間々町高津戸","zip_code":"3760113"},{"name":"大間々町長尾根","zip_code":"3760112"},{"name":"笠懸町阿左美","zip_code":"3792311"},{"name":"笠懸町久宮","zip_code":"3792312"},{"name":"笠懸町西鹿田","zip_code":"3792314"},{"name":"笠懸町鹿","zip_code":"3792313"}]},{"name":"北群馬郡榛東村","divisions":[{"name":"新井","zip_code":"3703503"},{"name":"上野原","zip_code":"3703505"},{"name":"長岡","zip_code":"3703501"},{"name":"広馬場","zip_code":"3703504"},{"name":"山子田","zip_code":"3703502"}]},{"name":"北群馬郡吉岡町","divisions":[{"name":"漆原","zip_code":"3703601"},{"name":"大久保","zip_code":"3703602"},{"name":"小倉","zip_code":"3703607"},{"name":"上野田","zip_code":"3703606"},{"name":"北下","zip_code":"3703605"},{"name":"下野田","zip_code":"3703608"},{"name":"陣場","zip_code":"3703603"},{"name":"南下","zip_code":"3703604"}]},{"name":"多野郡上野村","divisions":[{"name":"乙父","zip_code":"3701616"},{"name":"乙母","zip_code":"3701615"},{"name":"勝山","zip_code":"3701613"},{"name":"川和","zip_code":"3701614"},{"name":"楢原","zip_code":"3701617"},{"name":"新羽","zip_code":"3701611"},{"name":"野栗沢","zip_code":"3701612"}]},{"name":"多野郡神流町","divisions":[{"name":"相原","zip_code":"3701511"},{"name":"青梨","zip_code":"3701512"},{"name":"麻生","zip_code":"3701502"},{"name":"尾附","zip_code":"3701604"},{"name":"神ケ原","zip_code":"3701602"},{"name":"柏木","zip_code":"3701501"},{"name":"黒田","zip_code":"3701506"},{"name":"小平","zip_code":"3701513"},{"name":"塩沢","zip_code":"3701514"},{"name":"生利","zip_code":"3701503"},{"name":"船子","zip_code":"3701515"},{"name":"平原","zip_code":"3701603"},{"name":"万場","zip_code":"3701504"},{"name":"森戸","zip_code":"3701505"},{"name":"魚尾","zip_code":"3701601"}]},{"name":"甘楽郡下仁田町","divisions":[{"name":"青倉","zip_code":"3702611"},{"name":"大桑原","zip_code":"3702613"},{"name":"風口","zip_code":"3702614"},{"name":"上小坂","zip_code":"3702621"},{"name":"川井","zip_code":"3702606"},{"name":"栗山","zip_code":"3702605"},{"name":"下小坂","zip_code":"3702623"},{"name":"下郷","zip_code":"3702616"},{"name":"下仁田","zip_code":"3702601"},{"name":"中小坂","zip_code":"3702622"},{"name":"西野牧","zip_code":"3702627"},{"name":"白山","zip_code":"3702602"},{"name":"東野牧","zip_code":"3702624"},{"name":"平原","zip_code":"3702612"},{"name":"馬山","zip_code":"3702603"},{"name":"南野牧","zip_code":"3702626"},{"name":"宮室","zip_code":"3702615"},{"name":"本宿","zip_code":"3702625"},{"name":"吉崎","zip_code":"3702604"}]},{"name":"甘楽郡南牧村","divisions":[{"name":"磐戸","zip_code":"3702804"},{"name":"大塩沢","zip_code":"3702801"},{"name":"大仁田","zip_code":"3702812"},{"name":"大日向","zip_code":"3702806"},{"name":"小沢","zip_code":"3702802"},{"name":"熊倉","zip_code":"3702815"},{"name":"千原","zip_code":"3702803"},{"name":"砥沢","zip_code":"3702813"},{"name":"羽沢","zip_code":"3702814"},{"name":"檜沢","zip_code":"3702805"},{"name":"星尾","zip_code":"3702816"},{"name":"六車","zip_code":"3702811"}]},{"name":"甘楽郡甘楽町","divisions":[{"name":"秋畑","zip_code":"3702204"},{"name":"天引","zip_code":"3702217"},{"name":"上野","zip_code":"3702201"},{"name":"小川","zip_code":"3702211"},{"name":"小幡","zip_code":"3702202"},{"name":"金井","zip_code":"3702216"},{"name":"国峰","zip_code":"3702205"},{"name":"白倉","zip_code":"3702213"},{"name":"善慶寺","zip_code":"3702206"},{"name":"造石","zip_code":"3702215"},{"name":"轟","zip_code":"3702203"},{"name":"庭谷","zip_code":"3702214"},{"name":"福島","zip_code":"3702212"}]},{"name":"吾妻郡中之条町","divisions":[{"name":"青山","zip_code":"3770422"},{"name":"赤岩","zip_code":"3771311"},{"name":"赤坂","zip_code":"3770417"},{"name":"蟻川","zip_code":"3770416"},{"name":"伊勢町","zip_code":"3770423"},{"name":"市城","zip_code":"3770421"},{"name":"入山","zip_code":"3771701"},{"name":"岩本","zip_code":"3770431"},{"name":"太子","zip_code":"3771703"},{"name":"大塚","zip_code":"3770413"},{"name":"折田","zip_code":"3770544"},{"name":"上沢渡","zip_code":"3770541"},{"name":"小雨","zip_code":"3771704"},{"name":"五反田","zip_code":"3770432"},{"name":"四万","zip_code":"3770601"},{"name":"下沢渡","zip_code":"3770542"},{"name":"大道","zip_code":"3770411"},{"name":"平","zip_code":"3770414"},{"name":"栃窪","zip_code":"3770412"},{"name":"中之条町","zip_code":"3770424"},{"name":"生須","zip_code":"3771702"},{"name":"西中之条","zip_code":"3770425"},{"name":"日影","zip_code":"3771312"},{"name":"山田","zip_code":"3770543"},{"name":"横尾","zip_code":"3770415"}]},{"name":"吾妻郡長野原町","divisions":[{"name":"応桑","zip_code":"3771310"},{"name":"大津","zip_code":"3771308"},{"name":"川原畑","zip_code":"3771301"},{"name":"川原湯","zip_code":"3771302"},{"name":"北軽井沢","zip_code":"3771412"},{"name":"長野原","zip_code":"3771304"},{"name":"羽根尾","zip_code":"3771307"},{"name":"林","zip_code":"3771309"},{"name":"古森","zip_code":"3771306"},{"name":"与喜屋","zip_code":"3771305"},{"name":"横壁","zip_code":"3771303"}]},{"name":"吾妻郡嬬恋村","divisions":[{"name":"芦生田","zip_code":"3771523"},{"name":"今井","zip_code":"3771521"},{"name":"大笹","zip_code":"3771613"},{"name":"大前","zip_code":"3771512"},{"name":"門貝","zip_code":"3771527"},{"name":"鎌原","zip_code":"3771403"},{"name":"西窪","zip_code":"3771525"},{"name":"田代","zip_code":"3771614"},{"name":"袋倉","zip_code":"3771522"},{"name":"干俣","zip_code":"3771528"},{"name":"三原","zip_code":"3771526"}]},{"name":"吾妻郡草津町","divisions":[{"name":"草津","zip_code":"3771711"},{"name":"前口","zip_code":"3771712"}]},{"name":"吾妻郡高山村","divisions":[{"name":"尻高","zip_code":"3770701"},{"name":"中山","zip_code":"3770702"}]},{"name":"吾妻郡東吾妻町","divisions":[{"name":"厚田","zip_code":"3770812"},{"name":"新巻","zip_code":"3770303"},{"name":"泉沢","zip_code":"3703321"},{"name":"岩井","zip_code":"3770804"},{"name":"岩下","zip_code":"3770815"},{"name":"植栗","zip_code":"3770805"},{"name":"大柏木","zip_code":"3770935"},{"name":"大戸","zip_code":"3770931"},{"name":"岡崎","zip_code":"3703311"},{"name":"奥田","zip_code":"3770304"},{"name":"金井","zip_code":"3770803"},{"name":"川戸","zip_code":"3703322"},{"name":"小泉","zip_code":"3770806"},{"name":"郷原","zip_code":"3770811"},{"name":"五町田","zip_code":"3770305"},{"name":"須賀尾","zip_code":"3770934"},{"name":"萩生","zip_code":"3770932"},{"name":"箱島","zip_code":"3770301"},{"name":"原町","zip_code":"3770801"},{"name":"松谷","zip_code":"3770814"},{"name":"三島","zip_code":"3770813"},{"name":"本宿","zip_code":"3770933"},{"name":"矢倉","zip_code":"3770816"}]},{"name":"利根郡片品村","divisions":[{"name":"鎌田","zip_code":"3780415"},{"name":"越本","zip_code":"3780413"},{"name":"下平","zip_code":"3780405"},{"name":"須賀川","zip_code":"3780401"},{"name":"菅沼","zip_code":"3780403"},{"name":"摺淵","zip_code":"3780406"},{"name":"築地","zip_code":"3780404"},{"name":"土出","zip_code":"3780412"},{"name":"戸倉","zip_code":"3780411"},{"name":"幡谷","zip_code":"3780407"},{"name":"花咲","zip_code":"3780408"},{"name":"針山","zip_code":"3780409"},{"name":"東小川","zip_code":"3780414"},{"name":"御座入","zip_code":"3780402"}]},{"name":"利根郡川場村","divisions":[{"name":"太田川","zip_code":"3780104"},{"name":"川場湯原","zip_code":"3780102"},{"name":"小田川","zip_code":"3780105"},{"name":"立岩","zip_code":"3780112"},{"name":"天神","zip_code":"3780114"},{"name":"中野","zip_code":"3780103"},{"name":"生品","zip_code":"3780113"},{"name":"萩室","zip_code":"3780111"},{"name":"門前","zip_code":"3780115"},{"name":"谷地","zip_code":"3780101"}]},{"name":"利根郡昭和村","divisions":[{"name":"赤城原","zip_code":"3791207"},{"name":"糸井","zip_code":"3791203"},{"name":"生越","zip_code":"3791201"},{"name":"貝野瀬","zip_code":"3791202"},{"name":"川額","zip_code":"3791205"},{"name":"橡久保","zip_code":"3791206"},{"name":"森下","zip_code":"3791204"}]},{"name":"利根郡みなかみ町","divisions":[{"name":"相俣","zip_code":"3791404"},{"name":"阿能川","zip_code":"3791618"},{"name":"新巻","zip_code":"3791411"},{"name":"粟沢","zip_code":"3791723"},{"name":"石倉","zip_code":"3791311"},{"name":"入須川","zip_code":"3791416"},{"name":"大穴","zip_code":"3791727"},{"name":"大沼","zip_code":"3791302"},{"name":"小川","zip_code":"3791312"},{"name":"小日向","zip_code":"3791612"},{"name":"鹿野沢","zip_code":"3791611"},{"name":"上津","zip_code":"3791315"},{"name":"上牧","zip_code":"3791303"},{"name":"川上","zip_code":"3791616"},{"name":"幸知","zip_code":"3791726"},{"name":"後閑","zip_code":"3791305"},{"name":"小仁田","zip_code":"3791615"},{"name":"猿ケ京温泉","zip_code":"3791403"},{"name":"下津","zip_code":"3791314"},{"name":"下牧","zip_code":"3791304"},{"name":"須川","zip_code":"3791418"},{"name":"高日向","zip_code":"3791613"},{"name":"谷川","zip_code":"3791619"},{"name":"月夜野","zip_code":"3791313"},{"name":"綱子","zip_code":"3791725"},{"name":"寺間","zip_code":"3791614"},{"name":"永井","zip_code":"3791401"},{"name":"奈女沢","zip_code":"3791301"},{"name":"西峰須川","zip_code":"3791415"},{"name":"羽場","zip_code":"3791412"},{"name":"東峰","zip_code":"3791417"},{"name":"吹路","zip_code":"3791402"},{"name":"藤原","zip_code":"3791721"},{"name":"布施","zip_code":"3791414"},{"name":"真庭","zip_code":"3791308"},{"name":"政所","zip_code":"3791307"},{"name":"向山","zip_code":"3791724"},{"name":"師","zip_code":"3791306"},{"name":"師田","zip_code":"3791413"},{"name":"湯宿温泉","zip_code":"3791409"},{"name":"湯原","zip_code":"3791617"},{"name":"湯桧曽","zip_code":"3791728"},{"name":"夜後","zip_code":"3791722"},{"name":"吉本","zip_code":"3791601"}]},{"name":"佐波郡玉村町","divisions":[{"name":"飯倉","zip_code":"3701116"},{"name":"飯塚","zip_code":"3701102"},{"name":"板井","zip_code":"3701135"},{"name":"宇貫","zip_code":"3701126"},{"name":"上飯島","zip_code":"3701121"},{"name":"上新田","zip_code":"3701133"},{"name":"上之手","zip_code":"3701127"},{"name":"上福島","zip_code":"3701104"},{"name":"上茂木","zip_code":"3701122"},{"name":"川井","zip_code":"3701117"},{"name":"小泉","zip_code":"3701114"},{"name":"後箇","zip_code":"3701128"},{"name":"五料","zip_code":"3701115"},{"name":"斎田","zip_code":"3701131"},{"name":"下新田","zip_code":"3701132"},{"name":"下之宮","zip_code":"3701112"},{"name":"下茂木","zip_code":"3701123"},{"name":"角渕","zip_code":"3701124"},{"name":"南玉","zip_code":"3701111"},{"name":"箱石","zip_code":"3701113"},{"name":"樋越","zip_code":"3701103"},{"name":"福島","zip_code":"3701105"},{"name":"藤川","zip_code":"3701101"},{"name":"八幡原","zip_code":"3701125"},{"name":"与六分","zip_code":"3701134"}]},{"name":"邑楽郡板倉町","divisions":[{"name":"朝日野","zip_code":"3740112"},{"name":"飯野","zip_code":"3740123"},{"name":"泉野","zip_code":"3740113"},{"name":"板倉","zip_code":"3740132"},{"name":"岩田","zip_code":"3740133"},{"name":"内蔵新田","zip_code":"3740135"},{"name":"海老瀬","zip_code":"3740111"},{"name":"大蔵","zip_code":"3740131"},{"name":"大高嶋","zip_code":"3740122"},{"name":"大荷場","zip_code":"3740104"},{"name":"大曲","zip_code":"3740105"},{"name":"下五箇","zip_code":"3740121"},{"name":"西岡","zip_code":"3740107"},{"name":"西岡新田","zip_code":"3740106"},{"name":"離","zip_code":"3740102"},{"name":"細谷","zip_code":"3740103"},{"name":"籾谷","zip_code":"3740134"},{"name":"除川","zip_code":"3740101"}]},{"name":"邑楽郡明和町","divisions":[{"name":"入ケ谷","zip_code":"3700711"},{"name":"梅原","zip_code":"3700714"},{"name":"江口","zip_code":"3700706"},{"name":"大佐貫","zip_code":"3700715"},{"name":"大輪","zip_code":"3700718"},{"name":"上江黒","zip_code":"3700702"},{"name":"川俣","zip_code":"3700716"},{"name":"下江黒","zip_code":"3700703"},{"name":"須賀","zip_code":"3700717"},{"name":"千津井","zip_code":"3700705"},{"name":"田島","zip_code":"3700707"},{"name":"斗合田","zip_code":"3700704"},{"name":"中谷","zip_code":"3700713"},{"name":"新里","zip_code":"3700708"},{"name":"南大島","zip_code":"3700701"},{"name":"矢島","zip_code":"3700712"}]},{"name":"邑楽郡千代田町","divisions":[{"name":"赤岩","zip_code":"3700503"},{"name":"上五箇","zip_code":"3700726"},{"name":"上中森","zip_code":"3700725"},{"name":"萱野","zip_code":"3700722"},{"name":"木崎","zip_code":"3700721"},{"name":"下中森","zip_code":"3700724"},{"name":"昭和","zip_code":"3700723"},{"name":"新福寺","zip_code":"3700505"},{"name":"瀬戸井","zip_code":"3700727"},{"name":"鍋谷","zip_code":"3700502"},{"name":"福島","zip_code":"3700501"},{"name":"舞木","zip_code":"3700504"}]},{"name":"邑楽郡大泉町","divisions":[{"name":"朝日","zip_code":"3700514"},{"name":"いずみ","zip_code":"3700531"},{"name":"丘山","zip_code":"3700534"},{"name":"上小泉","zip_code":"3700512"},{"name":"北小泉","zip_code":"3700511"},{"name":"古海","zip_code":"3700524"},{"name":"坂田","zip_code":"3700532"},{"name":"下小泉","zip_code":"3700515"},{"name":"城之内","zip_code":"3700518"},{"name":"住吉","zip_code":"3700521"},{"name":"仙石","zip_code":"3700533"},{"name":"中央","zip_code":"3700516"},{"name":"西小泉","zip_code":"3700517"},{"name":"東小泉","zip_code":"3700513"},{"name":"日の出","zip_code":"3700525"},{"name":"富士","zip_code":"3700522"},{"name":"古氷","zip_code":"3700536"},{"name":"吉田","zip_code":"3700523"},{"name":"寄木戸","zip_code":"3700535"}]},{"name":"邑楽郡邑楽町","divisions":[{"name":"赤堀","zip_code":"3700614"},{"name":"秋妻","zip_code":"3700606"},{"name":"明野","zip_code":"3700602"},{"name":"石打","zip_code":"3700604"},{"name":"鶉","zip_code":"3700601"},{"name":"鶉新田","zip_code":"3700611"},{"name":"光善寺","zip_code":"3700616"},{"name":"篠塚","zip_code":"3700615"},{"name":"新中野","zip_code":"3700612"},{"name":"中野","zip_code":"3700603"},{"name":"藤川","zip_code":"3700605"},{"name":"狸塚","zip_code":"3700613"}]}]}