{"name":"埼玉県","cities":[{"name":"さいたま市西区","divisions":[{"name":"飯田","zip_code":"3310058"},{"name":"飯田新田","zip_code":"3310068"},{"name":"植田谷本","zip_code":"3310053"},{"name":"植田谷本村新田","zip_code":"3310067"},{"name":"内野本郷","zip_code":"3310045"},{"name":"指扇","zip_code":"3310047"},{"name":"指扇領辻","zip_code":"3310076"},{"name":"指扇領別所","zip_code":"3310073"},{"name":"佐知川","zip_code":"3310064"},{"name":"三条町","zip_code":"3310056"},{"name":"島根","zip_code":"3310054"},{"name":"昭和","zip_code":"3310055"},{"name":"清河寺","zip_code":"3310048"},{"name":"高木","zip_code":"3310071"},{"name":"塚本","zip_code":"3310066"},{"name":"塚本町","zip_code":"3310060"},{"name":"土屋","zip_code":"3310062"},{"name":"中釘","zip_code":"3310077"},{"name":"中野林","zip_code":"3310057"},{"name":"西遊馬","zip_code":"3310061"},{"name":"西新井","zip_code":"3310049"},{"name":"平方領々家","zip_code":"3310072"},{"name":"二ツ宮","zip_code":"3310065"},{"name":"プラザ","zip_code":"3310063"},{"name":"宝来","zip_code":"3310074"},{"name":"水判土","zip_code":"3310059"},{"name":"峰岸","zip_code":"3310075"},{"name":"三橋","zip_code":"3310052"},{"name":"宮前町","zip_code":"3310046"},{"name":"湯木町","zip_code":"3310069"}]},{"name":"さいたま市北区","divisions":[{"name":"植竹町","zip_code":"3310813"},{"name":"大成町","zip_code":"3310815"},{"name":"上加","zip_code":"3310824"},{"name":"櫛引町","zip_code":"3310825"},{"name":"今羽町","zip_code":"3310801"},{"name":"土呂町","zip_code":"3310804"},{"name":"奈良町","zip_code":"3310822"},{"name":"日進町","zip_code":"3310823"},{"name":"東大成町","zip_code":"3310814"},{"name":"別所町","zip_code":"3310821"},{"name":"本郷町","zip_code":"3310802"},{"name":"盆栽町","zip_code":"3310805"},{"name":"見沼","zip_code":"3310803"},{"name":"宮原町","zip_code":"3310812"},{"name":"吉野町","zip_code":"3310811"}]},{"name":"さいたま市大宮区","divisions":[{"name":"東町","zip_code":"3300841"},{"name":"天沼町","zip_code":"3300834"},{"name":"大成町","zip_code":"3300852"},{"name":"大原","zip_code":"3300836"},{"name":"上小町","zip_code":"3300855"},{"name":"吉敷町","zip_code":"3300843"},{"name":"北袋町","zip_code":"3300835"},{"name":"櫛引町","zip_code":"3300851"},{"name":"桜木町","zip_code":"3300854"},{"name":"下町","zip_code":"3300844"},{"name":"寿能町","zip_code":"3300805"},{"name":"浅間町","zip_code":"3300842"},{"name":"大門町","zip_code":"3300846"},{"name":"高鼻町","zip_code":"3300803"},{"name":"土手町","zip_code":"3300801"},{"name":"仲町","zip_code":"3300845"},{"name":"錦町","zip_code":"3300853"},{"name":"堀の内町","zip_code":"3300804"},{"name":"三橋","zip_code":"3300856"},{"name":"宮町","zip_code":"3300802"}]},{"name":"さいたま市見沼区","divisions":[{"name":"大谷","zip_code":"3370014"},{"name":"大和田町","zip_code":"3370053"},{"name":"卸町","zip_code":"3370004"},{"name":"加田屋","zip_code":"3370022"},{"name":"加田屋新田","zip_code":"3370027"},{"name":"片柳","zip_code":"3370024"},{"name":"片柳東","zip_code":"3370023"},{"name":"上山口新田","zip_code":"3370044"},{"name":"小深作","zip_code":"3370005"},{"name":"笹丸","zip_code":"3370031"},{"name":"島町","zip_code":"3370006"},{"name":"新右エ門新田","zip_code":"3370045"},{"name":"砂町","zip_code":"3370054"},{"name":"染谷","zip_code":"3370026"},{"name":"中川","zip_code":"3370043"},{"name":"新堤","zip_code":"3370013"},{"name":"西山新田","zip_code":"3370035"},{"name":"西山村新田","zip_code":"3370034"},{"name":"蓮沼","zip_code":"3370015"},{"name":"春岡","zip_code":"3370008"},{"name":"春野","zip_code":"3370002"},{"name":"東新井","zip_code":"3370032"},{"name":"東大宮","zip_code":"3370051"},{"name":"東宮下","zip_code":"3370012"},{"name":"東門前","zip_code":"3370016"},{"name":"膝子","zip_code":"3370021"},{"name":"深作","zip_code":"3370003"},{"name":"風渡野","zip_code":"3370017"},{"name":"堀崎町","zip_code":"3370052"},{"name":"丸ケ崎","zip_code":"3370001"},{"name":"丸ケ崎町","zip_code":"3370007"},{"name":"御蔵","zip_code":"3370033"},{"name":"南中野","zip_code":"3370042"},{"name":"南中丸","zip_code":"3370041"},{"name":"宮ケ谷塔","zip_code":"3370011"},{"name":"見山","zip_code":"3370036"},{"name":"山","zip_code":"3370025"}]},{"name":"さいたま市中央区","divisions":[{"name":"上峰","zip_code":"3380014"},{"name":"円阿弥","zip_code":"3380007"},{"name":"大戸","zip_code":"3380012"},{"name":"上落合","zip_code":"3380001"},{"name":"桜丘","zip_code":"3380005"},{"name":"下落合","zip_code":"3380002"},{"name":"新都心","zip_code":"3300081"},{"name":"新中里","zip_code":"3380011"},{"name":"鈴谷","zip_code":"3380013"},{"name":"八王子","zip_code":"3380006"},{"name":"本町西","zip_code":"3380004"},{"name":"本町東","zip_code":"3380003"}]},{"name":"さいたま市桜区","divisions":[{"name":"大久保領家","zip_code":"3380826"},{"name":"上大久保","zip_code":"3380824"},{"name":"五関","zip_code":"3380815"},{"name":"在家","zip_code":"3380813"},{"name":"栄和","zip_code":"3380823"},{"name":"桜田","zip_code":"3380833"},{"name":"新開","zip_code":"3380834"},{"name":"下大久保","zip_code":"3380825"},{"name":"宿","zip_code":"3380814"},{"name":"昭和","zip_code":"3380817"},{"name":"白鍬","zip_code":"3380811"},{"name":"神田","zip_code":"3380812"},{"name":"田島","zip_code":"3380837"},{"name":"塚本","zip_code":"3380816"},{"name":"道場","zip_code":"3380835"},{"name":"中島","zip_code":"3380822"},{"name":"西堀","zip_code":"3380832"},{"name":"町谷","zip_code":"3380836"},{"name":"南元宿","zip_code":"3380831"},{"name":"山久保","zip_code":"3380821"}]},{"name":"さいたま市浦和区","divisions":[{"name":"大原","zip_code":"3300046"},{"name":"上木崎","zip_code":"3300071"},{"name":"木崎","zip_code":"3300042"},{"name":"岸町","zip_code":"3300064"},{"name":"北浦和","zip_code":"3300074"},{"name":"皇山町","zip_code":"3300045"},{"name":"駒場","zip_code":"3300051"},{"name":"神明","zip_code":"3300065"},{"name":"瀬ケ崎","zip_code":"3300044"},{"name":"大東","zip_code":"3300043"},{"name":"高砂","zip_code":"3300063"},{"name":"常盤","zip_code":"3300061"},{"name":"仲町","zip_code":"3300062"},{"name":"針ヶ谷","zip_code":"3300075"},{"name":"東岸町","zip_code":"3300054"},{"name":"東高砂町","zip_code":"3300055"},{"name":"東仲町","zip_code":"3300056"},{"name":"前地","zip_code":"3300053"},{"name":"三崎","zip_code":"3300041"},{"name":"元町","zip_code":"3300073"},{"name":"本太","zip_code":"3300052"},{"name":"領家","zip_code":"3300072"}]},{"name":"さいたま市南区","divisions":[{"name":"内谷","zip_code":"3360034"},{"name":"円正寺","zip_code":"3360043"},{"name":"大谷口","zip_code":"3360042"},{"name":"大谷場","zip_code":"3360016"},{"name":"鹿手袋","zip_code":"3360031"},{"name":"白幡","zip_code":"3360022"},{"name":"神明","zip_code":"3360023"},{"name":"関","zip_code":"3360038"},{"name":"太田窪","zip_code":"3360015"},{"name":"辻","zip_code":"3360026"},{"name":"堤外","zip_code":"3360036"},{"name":"沼影","zip_code":"3360027"},{"name":"根岸","zip_code":"3360024"},{"name":"広ケ谷戸","zip_code":"3360041"},{"name":"文蔵","zip_code":"3360025"},{"name":"別所","zip_code":"3360021"},{"name":"曲本","zip_code":"3360033"},{"name":"松本","zip_code":"3360035"},{"name":"南浦和","zip_code":"3360017"},{"name":"南本町","zip_code":"3360018"},{"name":"四谷","zip_code":"3360032"}]},{"name":"さいたま市緑区","divisions":[{"name":"井沼方","zip_code":"3360921"},{"name":"大崎","zip_code":"3360974"},{"name":"大牧","zip_code":"3360922"},{"name":"大間木","zip_code":"3360923"},{"name":"大谷口","zip_code":"3360934"},{"name":"上野田","zip_code":"3360977"},{"name":"北原","zip_code":"3360966"},{"name":"玄蕃新田","zip_code":"3360961"},{"name":"道祖土","zip_code":"3360907"},{"name":"芝原","zip_code":"3360917"},{"name":"下野田","zip_code":"3360962"},{"name":"下山口新田","zip_code":"3360925"},{"name":"新宿","zip_code":"3360913"},{"name":"太田窪","zip_code":"3360936"},{"name":"大道","zip_code":"3360905"},{"name":"大門","zip_code":"3360963"},{"name":"代山","zip_code":"3360975"},{"name":"高畑","zip_code":"3360971"},{"name":"寺山","zip_code":"3360976"},{"name":"中尾","zip_code":"3360932"},{"name":"中野田","zip_code":"3360972"},{"name":"南部領辻","zip_code":"3360973"},{"name":"蓮見新田","zip_code":"3360924"},{"name":"原山","zip_code":"3360931"},{"name":"馬場","zip_code":"3360912"},{"name":"東浦和","zip_code":"3360926"},{"name":"東大門","zip_code":"3360964"},{"name":"松木","zip_code":"3360918"},{"name":"間宮","zip_code":"3360965"},{"name":"三浦","zip_code":"3360906"},{"name":"見沼","zip_code":"3360915"},{"name":"三室","zip_code":"3360911"},{"name":"宮後","zip_code":"3360914"},{"name":"宮本","zip_code":"3360916"},{"name":"山崎","zip_code":"3360903"}]},{"name":"さいたま市岩槻区","divisions":[{"name":"相野原","zip_code":"3390071"},{"name":"愛宕町","zip_code":"3390066"},{"name":"飯塚","zip_code":"3390031"},{"name":"岩槻","zip_code":"3390061"},{"name":"上野","zip_code":"3390073"},{"name":"浮谷","zip_code":"3390037"},{"name":"裏慈恩寺","zip_code":"3390002"},{"name":"大口","zip_code":"3390013"},{"name":"太田","zip_code":"3390052"},{"name":"大戸","zip_code":"3390014"},{"name":"大野島","zip_code":"3390018"},{"name":"大森","zip_code":"3390017"},{"name":"大谷","zip_code":"3390015"},{"name":"尾ケ崎","zip_code":"3390027"},{"name":"尾ケ崎新田","zip_code":"3390026"},{"name":"表慈恩寺","zip_code":"3390008"},{"name":"釣上","zip_code":"3390024"},{"name":"釣上新田","zip_code":"3390025"},{"name":"加倉","zip_code":"3390056"},{"name":"掛","zip_code":"3390078"},{"name":"柏崎","zip_code":"3390045"},{"name":"金重","zip_code":"3390075"},{"name":"鹿室","zip_code":"3390001"},{"name":"上里","zip_code":"3390006"},{"name":"黒谷","zip_code":"3390033"},{"name":"古ケ場","zip_code":"3390072"},{"name":"小溝","zip_code":"3390003"},{"name":"笹久保","zip_code":"3390034"},{"name":"笹久保新田","zip_code":"3390035"},{"name":"慈恩寺","zip_code":"3390009"},{"name":"城南","zip_code":"3390043"},{"name":"城町","zip_code":"3390053"},{"name":"真福寺","zip_code":"3390044"},{"name":"末田","zip_code":"3390021"},{"name":"諏訪","zip_code":"3390007"},{"name":"高曽根","zip_code":"3390022"},{"name":"徳力","zip_code":"3390004"},{"name":"仲町","zip_code":"3390054"},{"name":"長宮","zip_code":"3390011"},{"name":"並木","zip_code":"3390068"},{"name":"新方須賀","zip_code":"3390016"},{"name":"西原","zip_code":"3390081"},{"name":"西原台","zip_code":"3390082"},{"name":"西町","zip_code":"3390067"},{"name":"野孫","zip_code":"3390023"},{"name":"原町","zip_code":"3390047"},{"name":"東岩槻","zip_code":"3390005"},{"name":"東町","zip_code":"3390055"},{"name":"日の出町","zip_code":"3390064"},{"name":"府内","zip_code":"3390042"},{"name":"平林寺","zip_code":"3390076"},{"name":"本宿","zip_code":"3390074"},{"name":"本町","zip_code":"3390057"},{"name":"本丸","zip_code":"3390058"},{"name":"馬込","zip_code":"3390077"},{"name":"増長","zip_code":"3390012"},{"name":"南下新井","zip_code":"3390032"},{"name":"南辻","zip_code":"3390062"},{"name":"南平野","zip_code":"3390051"},{"name":"箕輪","zip_code":"3390069"},{"name":"宮町","zip_code":"3390065"},{"name":"美幸町","zip_code":"3390063"},{"name":"村国","zip_code":"3390041"},{"name":"谷下","zip_code":"3390046"},{"name":"横根","zip_code":"3390036"}]},{"name":"川越市","divisions":[{"name":"安比奈新田","zip_code":"3501173"},{"name":"青柳","zip_code":"3501164"},{"name":"旭町","zip_code":"3501126"},{"name":"天沼新田","zip_code":"3500806"},{"name":"新宿","zip_code":"3501125"},{"name":"新宿町","zip_code":"3501124"},{"name":"池辺","zip_code":"3501171"},{"name":"伊佐沼","zip_code":"3500855"},{"name":"石田","zip_code":"3500837"},{"name":"石田本郷","zip_code":"3500835"},{"name":"石原町","zip_code":"3500824"},{"name":"泉町","zip_code":"3500026"},{"name":"伊勢原町","zip_code":"3501108"},{"name":"稲荷町","zip_code":"3501144"},{"name":"今泉","zip_code":"3500015"},{"name":"今成","zip_code":"3501105"},{"name":"今福","zip_code":"3501151"},{"name":"牛子","zip_code":"3500017"},{"name":"上戸","zip_code":"3500816"},{"name":"上戸新町","zip_code":"3500817"},{"name":"扇河岸","zip_code":"3501134"},{"name":"大仙波","zip_code":"3500032"},{"name":"大仙波新田","zip_code":"3501128"},{"name":"大塚","zip_code":"3501129"},{"name":"大塚新田","zip_code":"3501161"},{"name":"大塚新町","zip_code":"3501178"},{"name":"大手町","zip_code":"3500057"},{"name":"大中居","zip_code":"3500021"},{"name":"大袋","zip_code":"3501168"},{"name":"大袋新田","zip_code":"3501167"},{"name":"小ケ谷","zip_code":"3501104"},{"name":"御成町","zip_code":"3500841"},{"name":"萱沼","zip_code":"3500012"},{"name":"笠幡","zip_code":"3501175"},{"name":"かし野台","zip_code":"3501179"},{"name":"霞ケ関東","zip_code":"3501103"},{"name":"霞ケ関北","zip_code":"3501109"},{"name":"かすみ野","zip_code":"3501174"},{"name":"上老袋","zip_code":"3500845"},{"name":"上新河岸","zip_code":"3501135"},{"name":"上寺山","zip_code":"3500826"},{"name":"上野田町","zip_code":"3501112"},{"name":"上松原","zip_code":"3501154"},{"name":"鴨田","zip_code":"3500844"},{"name":"川越","zip_code":"3500852"},{"name":"川鶴","zip_code":"3501176"},{"name":"かわつる三芳野","zip_code":"3501177"},{"name":"岸","zip_code":"3501132"},{"name":"岸町","zip_code":"3501131"},{"name":"北田島","zip_code":"3500842"},{"name":"喜多町","zip_code":"3500061"},{"name":"木野目","zip_code":"3500016"},{"name":"久下戸","zip_code":"3500011"},{"name":"鯨井","zip_code":"3500815"},{"name":"鯨井新田","zip_code":"3500809"},{"name":"久保町","zip_code":"3500055"},{"name":"熊野町","zip_code":"3501146"},{"name":"郭町","zip_code":"3500053"},{"name":"広栄町","zip_code":"3501117"},{"name":"小仙波","zip_code":"3500031"},{"name":"小仙波町","zip_code":"3500036"},{"name":"小堤","zip_code":"3500811"},{"name":"寿町","zip_code":"3501116"},{"name":"小中居","zip_code":"3500022"},{"name":"小室","zip_code":"3501106"},{"name":"幸町","zip_code":"3500063"},{"name":"栄","zip_code":"3500803"},{"name":"三久保町","zip_code":"3500054"},{"name":"三光町","zip_code":"3500067"},{"name":"鹿飼","zip_code":"3500834"},{"name":"志多町","zip_code":"3500051"},{"name":"渋井","zip_code":"3500013"},{"name":"清水町","zip_code":"3501145"},{"name":"下赤坂","zip_code":"3501155"},{"name":"下老袋","zip_code":"3500848"},{"name":"下小坂","zip_code":"3500812"},{"name":"下新河岸","zip_code":"3501136"},{"name":"下広谷","zip_code":"3500804"},{"name":"下松原","zip_code":"3501153"},{"name":"城下町","zip_code":"3500853"},{"name":"新富町","zip_code":"3500043"},{"name":"神明町","zip_code":"3500823"},{"name":"末広町","zip_code":"3500064"},{"name":"菅間","zip_code":"3500832"},{"name":"菅原町","zip_code":"3500046"},{"name":"砂","zip_code":"3501133"},{"name":"砂久保","zip_code":"3501152"},{"name":"砂新田","zip_code":"3501137"},{"name":"諏訪町","zip_code":"3501147"},{"name":"仙波町","zip_code":"3500034"},{"name":"高島","zip_code":"3500004"},{"name":"竹野","zip_code":"3500801"},{"name":"田町","zip_code":"3501113"},{"name":"月吉町","zip_code":"3500825"},{"name":"寺井","zip_code":"3500854"},{"name":"寺尾","zip_code":"3501141"},{"name":"寺山","zip_code":"3500827"},{"name":"東明寺","zip_code":"3500843"},{"name":"通町","zip_code":"3500044"},{"name":"豊田新田","zip_code":"3501119"},{"name":"豊田町","zip_code":"3501110"},{"name":"豊田本","zip_code":"3501118"},{"name":"問屋町","zip_code":"3500856"},{"name":"中老袋","zip_code":"3500846"},{"name":"中台","zip_code":"3501159"},{"name":"仲町","zip_code":"3500065"},{"name":"中原町","zip_code":"3500042"},{"name":"中福","zip_code":"3501156"},{"name":"中福東","zip_code":"3501157"},{"name":"並木","zip_code":"3500023"},{"name":"並木新町","zip_code":"3500024"},{"name":"並木西町","zip_code":"3500025"},{"name":"西小仙波町","zip_code":"3500035"},{"name":"日東町","zip_code":"3501160"},{"name":"野田","zip_code":"3501111"},{"name":"野田町","zip_code":"3501115"},{"name":"氷川町","zip_code":"3500851"},{"name":"東田町","zip_code":"3501114"},{"name":"東本宿","zip_code":"3500847"},{"name":"平塚","zip_code":"3500814"},{"name":"平塚新田","zip_code":"3500813"},{"name":"広谷新町","zip_code":"3500805"},{"name":"府川","zip_code":"3500831"},{"name":"福田","zip_code":"3500821"},{"name":"藤木町","zip_code":"3500018"},{"name":"藤倉","zip_code":"3501166"},{"name":"藤間","zip_code":"3501142"},{"name":"富士見","zip_code":"3500802"},{"name":"富士見町","zip_code":"3500033"},{"name":"藤原町","zip_code":"3501143"},{"name":"古市場","zip_code":"3500014"},{"name":"古谷上","zip_code":"3500001"},{"name":"古谷本郷","zip_code":"3500002"},{"name":"増形","zip_code":"3501172"},{"name":"松江町","zip_code":"3500056"},{"name":"松郷","zip_code":"3500857"},{"name":"的場","zip_code":"3501101"},{"name":"的場新町","zip_code":"3501107"},{"name":"的場北","zip_code":"3501102"},{"name":"南大塚","zip_code":"3501162"},{"name":"南田島","zip_code":"3500027"},{"name":"南台","zip_code":"3501165"},{"name":"南通町","zip_code":"3500045"},{"name":"宮下町","zip_code":"3500052"},{"name":"宮元町","zip_code":"3500838"},{"name":"むさし野","zip_code":"3501170"},{"name":"むさし野南","zip_code":"3501158"},{"name":"元町","zip_code":"3500062"},{"name":"八ツ島","zip_code":"3500003"},{"name":"谷中","zip_code":"3500836"},{"name":"山城","zip_code":"3501169"},{"name":"山田","zip_code":"3500822"},{"name":"吉田","zip_code":"3500807"},{"name":"吉田新町","zip_code":"3500808"},{"name":"芳野台","zip_code":"3500833"},{"name":"四都野台","zip_code":"3501163"},{"name":"連雀町","zip_code":"3500066"},{"name":"六軒町","zip_code":"3500041"},{"name":"脇田新町","zip_code":"3501121"},{"name":"脇田本町","zip_code":"3501123"},{"name":"脇田町","zip_code":"3501122"}]},{"name":"熊谷市","divisions":[{"name":"相上","zip_code":"3690106"},{"name":"赤城町","zip_code":"3600826"},{"name":"曙町","zip_code":"3600033"},{"name":"飯塚","zip_code":"3600231"},{"name":"池上","zip_code":"3600011"},{"name":"石原","zip_code":"3600816"},{"name":"伊勢町","zip_code":"3600821"},{"name":"板井","zip_code":"3600105"},{"name":"市ノ坪","zip_code":"3600236"},{"name":"今井","zip_code":"3600005"},{"name":"江波","zip_code":"3600212"},{"name":"榎町","zip_code":"3600823"},{"name":"円光","zip_code":"3600813"},{"name":"小江川","zip_code":"3600103"},{"name":"大麻生","zip_code":"3600835"},{"name":"太井","zip_code":"3600025"},{"name":"大塚","zip_code":"3600002"},{"name":"大野","zip_code":"3600221"},{"name":"大原","zip_code":"3600812"},{"name":"押切","zip_code":"3600111"},{"name":"小曽根","zip_code":"3600017"},{"name":"男沼","zip_code":"3600242"},{"name":"柿沼","zip_code":"3600803"},{"name":"籠原南","zip_code":"3600847"},{"name":"冑山","zip_code":"3690104"},{"name":"鎌倉町","zip_code":"3600046"},{"name":"上江袋","zip_code":"3600234"},{"name":"上恩田","zip_code":"3600125"},{"name":"上川上","zip_code":"3600004"},{"name":"上新田","zip_code":"3600117"},{"name":"上須戸","zip_code":"3600213"},{"name":"上中条","zip_code":"3600001"},{"name":"上奈良","zip_code":"3600805"},{"name":"上根","zip_code":"3600217"},{"name":"上之","zip_code":"3600012"},{"name":"川原明戸","zip_code":"3600837"},{"name":"河原町","zip_code":"3600035"},{"name":"吉所敷","zip_code":"3600136"},{"name":"銀座","zip_code":"3600032"},{"name":"久下","zip_code":"3600026"},{"name":"葛和田","zip_code":"3600222"},{"name":"屈戸","zip_code":"3600131"},{"name":"久保島","zip_code":"3600831"},{"name":"熊谷","zip_code":"3600016"},{"name":"小泉","zip_code":"3600122"},{"name":"肥塚","zip_code":"3600015"},{"name":"江南中央","zip_code":"3600114"},{"name":"小島","zip_code":"3600832"},{"name":"小八林","zip_code":"3690103"},{"name":"桜木町","zip_code":"3600036"},{"name":"桜町","zip_code":"3600814"},{"name":"佐谷田","zip_code":"3600023"},{"name":"塩","zip_code":"3600104"},{"name":"柴","zip_code":"3600106"},{"name":"四方寺","zip_code":"3600006"},{"name":"下恩田","zip_code":"3600123"},{"name":"下川上","zip_code":"3600003"},{"name":"下奈良","zip_code":"3600802"},{"name":"下増田","zip_code":"3600851"},{"name":"拾六間","zip_code":"3600846"},{"name":"新川","zip_code":"3600027"},{"name":"末広","zip_code":"3600031"},{"name":"須賀広","zip_code":"3600102"},{"name":"瀬南","zip_code":"3600834"},{"name":"善ケ島","zip_code":"3600211"},{"name":"千代","zip_code":"3600107"},{"name":"代","zip_code":"3600804"},{"name":"高本","zip_code":"3600134"},{"name":"高柳","zip_code":"3600855"},{"name":"田島","zip_code":"3600215"},{"name":"玉井","zip_code":"3600853"},{"name":"玉井南","zip_code":"3600854"},{"name":"玉作","zip_code":"3690102"},{"name":"俵瀬","zip_code":"3600223"},{"name":"中央","zip_code":"3600018"},{"name":"月見町","zip_code":"3600825"},{"name":"筑波","zip_code":"3600037"},{"name":"津田","zip_code":"3690101"},{"name":"津田新田","zip_code":"3600132"},{"name":"出来島","zip_code":"3600244"},{"name":"手島","zip_code":"3600121"},{"name":"道ケ谷戸","zip_code":"3600232"},{"name":"戸出","zip_code":"3600022"},{"name":"問屋町","zip_code":"3600024"},{"name":"永井太田","zip_code":"3600237"},{"name":"中恩田","zip_code":"3600124"},{"name":"中曽根","zip_code":"3600133"},{"name":"仲町","zip_code":"3600047"},{"name":"中奈良","zip_code":"3600801"},{"name":"中西","zip_code":"3600013"},{"name":"奈良新田","zip_code":"3600806"},{"name":"成沢","zip_code":"3600115"},{"name":"新島","zip_code":"3600817"},{"name":"新堀","zip_code":"3600841"},{"name":"新堀新田","zip_code":"3600842"},{"name":"西城","zip_code":"3600214"},{"name":"西野","zip_code":"3600216"},{"name":"西別府","zip_code":"3600857"},{"name":"沼黒","zip_code":"3600135"},{"name":"野原","zip_code":"3600101"},{"name":"箱田","zip_code":"3600014"},{"name":"原井","zip_code":"3600235"},{"name":"原島","zip_code":"3600811"},{"name":"東別府","zip_code":"3600852"},{"name":"日向","zip_code":"3600224"},{"name":"樋春","zip_code":"3600112"},{"name":"平塚新田","zip_code":"3600163"},{"name":"平戸","zip_code":"3600021"},{"name":"広瀬","zip_code":"3600833"},{"name":"武体","zip_code":"3600836"},{"name":"船木台","zip_code":"3690108"},{"name":"別府","zip_code":"3600856"},{"name":"弁財","zip_code":"3600225"},{"name":"星川","zip_code":"3600043"},{"name":"本石","zip_code":"3600815"},{"name":"本町","zip_code":"3600042"},{"name":"万吉","zip_code":"3600161"},{"name":"間々田","zip_code":"3600243"},{"name":"万平町","zip_code":"3600034"},{"name":"御稜威ケ原","zip_code":"3600844"},{"name":"三ケ尻","zip_code":"3600843"},{"name":"御正新田","zip_code":"3600113"},{"name":"三本","zip_code":"3600116"},{"name":"美土里町","zip_code":"3600845"},{"name":"箕輪","zip_code":"3690105"},{"name":"見晴町","zip_code":"3600824"},{"name":"宮町","zip_code":"3600041"},{"name":"宮前町","zip_code":"3600045"},{"name":"宮本町","zip_code":"3600822"},{"name":"向谷","zip_code":"3690107"},{"name":"村岡","zip_code":"3600162"},{"name":"妻沼","zip_code":"3600201"},{"name":"妻沼小島","zip_code":"3600245"},{"name":"妻沼台","zip_code":"3600241"},{"name":"妻沼中央","zip_code":"3600204"},{"name":"妻沼西","zip_code":"3600238"},{"name":"妻沼東","zip_code":"3600202"},{"name":"楊井","zip_code":"3600164"},{"name":"八木田","zip_code":"3600233"},{"name":"八ツ口","zip_code":"3600218"},{"name":"弥藤吾","zip_code":"3600203"},{"name":"弥生","zip_code":"3600044"}]},{"name":"川口市","divisions":[{"name":"青木","zip_code":"3320031"},{"name":"赤井","zip_code":"3340073"},{"name":"赤芝新田","zip_code":"3330824"},{"name":"赤山","zip_code":"3330825"},{"name":"朝日","zip_code":"3320001"},{"name":"新井宿","zip_code":"3330826"},{"name":"新井町","zip_code":"3320005"},{"name":"荒川町","zip_code":"3320029"},{"name":"安行","zip_code":"3340059"},{"name":"安行北谷","zip_code":"3340054"},{"name":"安行吉蔵","zip_code":"3340053"},{"name":"安行小山","zip_code":"3340055"},{"name":"安行慈林","zip_code":"3340071"},{"name":"安行藤八","zip_code":"3340051"},{"name":"安行西立野","zip_code":"3330812"},{"name":"安行原","zip_code":"3340057"},{"name":"安行吉岡","zip_code":"3340072"},{"name":"安行領家","zip_code":"3340058"},{"name":"安行出羽","zip_code":"3340052"},{"name":"安行領在家","zip_code":"3330836"},{"name":"安行領根岸","zip_code":"3330834"},{"name":"飯塚","zip_code":"3320023"},{"name":"飯原町","zip_code":"3320024"},{"name":"伊刈","zip_code":"3330865"},{"name":"石神","zip_code":"3330823"},{"name":"江戸","zip_code":"3340074"},{"name":"江戸袋","zip_code":"3340075"},{"name":"大竹","zip_code":"3340067"},{"name":"金山町","zip_code":"3320014"},{"name":"上青木","zip_code":"3330844"},{"name":"上青木西","zip_code":"3330845"},{"name":"川口","zip_code":"3320015"},{"name":"河原町","zip_code":"3320007"},{"name":"木曽呂","zip_code":"3330831"},{"name":"北園町","zip_code":"3330862"},{"name":"北原台","zip_code":"3330815"},{"name":"久左衛門新田","zip_code":"3330804"},{"name":"行衛","zip_code":"3330814"},{"name":"源左衛門新田","zip_code":"3330822"},{"name":"神戸","zip_code":"3330832"},{"name":"小谷場","zip_code":"3330857"},{"name":"在家町","zip_code":"3330863"},{"name":"幸町","zip_code":"3320016"},{"name":"栄町","zip_code":"3320017"},{"name":"坂下町","zip_code":"3340003"},{"name":"桜町","zip_code":"3340001"},{"name":"差間","zip_code":"3330816"},{"name":"里","zip_code":"3340005"},{"name":"芝","zip_code":"3330866"},{"name":"芝下","zip_code":"3330848"},{"name":"芝新町","zip_code":"3330851"},{"name":"芝園町","zip_code":"3330853"},{"name":"芝高木","zip_code":"3330868"},{"name":"芝塚原","zip_code":"3330856"},{"name":"芝中田","zip_code":"3330847"},{"name":"芝西","zip_code":"3330855"},{"name":"芝東町","zip_code":"3330867"},{"name":"芝樋ノ爪","zip_code":"3330852"},{"name":"芝富士","zip_code":"3330854"},{"name":"芝宮根町","zip_code":"3330869"},{"name":"末広","zip_code":"3320006"},{"name":"長蔵","zip_code":"3330807"},{"name":"長蔵新田","zip_code":"3330808"},{"name":"辻","zip_code":"3340004"},{"name":"藤兵衛新田","zip_code":"3330803"},{"name":"戸塚","zip_code":"3330811"},{"name":"戸塚境町","zip_code":"3330806"},{"name":"戸塚鋏町","zip_code":"3330805"},{"name":"戸塚東","zip_code":"3330802"},{"name":"中青木","zip_code":"3320032"},{"name":"仲町","zip_code":"3320022"},{"name":"並木","zip_code":"3320034"},{"name":"並木元町","zip_code":"3320033"},{"name":"新堀","zip_code":"3340061"},{"name":"新堀町","zip_code":"3340068"},{"name":"西青木","zip_code":"3320035"},{"name":"西新井宿","zip_code":"3330833"},{"name":"西川口","zip_code":"3320021"},{"name":"西立野","zip_code":"3330813"},{"name":"榛松","zip_code":"3340062"},{"name":"蓮沼","zip_code":"3340064"},{"name":"八幡木","zip_code":"3340012"},{"name":"鳩ヶ谷本町","zip_code":"3340002"},{"name":"鳩ヶ谷緑町","zip_code":"3340015"},{"name":"原町","zip_code":"3320025"},{"name":"東内野","zip_code":"3330821"},{"name":"東貝塚","zip_code":"3340066"},{"name":"東川口","zip_code":"3330801"},{"name":"東本郷","zip_code":"3340063"},{"name":"東領家","zip_code":"3320003"},{"name":"舟戸町","zip_code":"3320013"},{"name":"本町","zip_code":"3320012"},{"name":"本蓮","zip_code":"3340076"},{"name":"前上町","zip_code":"3330843"},{"name":"前川","zip_code":"3330842"},{"name":"前川町","zip_code":"3330841"},{"name":"前田","zip_code":"3340014"},{"name":"前野宿","zip_code":"3340065"},{"name":"道合","zip_code":"3330835"},{"name":"三ツ和","zip_code":"3340011"},{"name":"緑町","zip_code":"3320027"},{"name":"南町","zip_code":"3320026"},{"name":"南鳩ヶ谷","zip_code":"3340013"},{"name":"南前川","zip_code":"3330846"},{"name":"峯","zip_code":"3340056"},{"name":"宮町","zip_code":"3320028"},{"name":"元郷","zip_code":"3320011"},{"name":"柳崎","zip_code":"3330861"},{"name":"柳根町","zip_code":"3330864"},{"name":"弥平","zip_code":"3320002"},{"name":"領家","zip_code":"3320004"}]},{"name":"行田市","divisions":[{"name":"旭町","zip_code":"3610074"},{"name":"荒木","zip_code":"3610011"},{"name":"壱里山町","zip_code":"3610046"},{"name":"犬塚","zip_code":"3610081"},{"name":"忍","zip_code":"3610077"},{"name":"押上町","zip_code":"3610045"},{"name":"小見","zip_code":"3610007"},{"name":"利田","zip_code":"3610034"},{"name":"門井町","zip_code":"3610044"},{"name":"上池守","zip_code":"3610066"},{"name":"北河原","zip_code":"3610001"},{"name":"行田","zip_code":"3610073"},{"name":"小敷田","zip_code":"3610065"},{"name":"小針","zip_code":"3610024"},{"name":"駒形","zip_code":"3610055"},{"name":"斎条","zip_code":"3610005"},{"name":"栄町","zip_code":"3610071"},{"name":"酒巻","zip_code":"3610002"},{"name":"埼玉","zip_code":"3610025"},{"name":"桜町","zip_code":"3610022"},{"name":"佐間","zip_code":"3610032"},{"name":"皿尾","zip_code":"3610063"},{"name":"清水町","zip_code":"3610047"},{"name":"下池守","zip_code":"3610067"},{"name":"下忍","zip_code":"3610037"},{"name":"下須戸","zip_code":"3610012"},{"name":"下中条","zip_code":"3610003"},{"name":"城西","zip_code":"3610057"},{"name":"城南","zip_code":"3610054"},{"name":"白川戸","zip_code":"3610006"},{"name":"水城公園","zip_code":"3610053"},{"name":"須加","zip_code":"3610004"},{"name":"関根","zip_code":"3610015"},{"name":"棚田町","zip_code":"3610041"},{"name":"中央","zip_code":"3610078"},{"name":"堤根","zip_code":"3610035"},{"name":"天満","zip_code":"3610076"},{"name":"藤間","zip_code":"3610014"},{"name":"中江袋","zip_code":"3610083"},{"name":"中里","zip_code":"3610064"},{"name":"長野","zip_code":"3610023"},{"name":"西新町","zip_code":"3610042"},{"name":"野","zip_code":"3610026"},{"name":"樋上","zip_code":"3610036"},{"name":"深水町","zip_code":"3610043"},{"name":"富士見町","zip_code":"3610021"},{"name":"藤原町","zip_code":"3610016"},{"name":"本丸","zip_code":"3610052"},{"name":"前谷","zip_code":"3610038"},{"name":"真名板","zip_code":"3610013"},{"name":"馬見塚","zip_code":"3610082"},{"name":"緑町","zip_code":"3610031"},{"name":"南河原","zip_code":"3610084"},{"name":"宮本","zip_code":"3610072"},{"name":"向町","zip_code":"3610075"},{"name":"持田","zip_code":"3610056"},{"name":"谷郷","zip_code":"3610062"},{"name":"矢場","zip_code":"3610051"},{"name":"若小玉","zip_code":"3610017"},{"name":"渡柳","zip_code":"3610033"},{"name":"和田","zip_code":"3610061"}]},{"name":"秩父市","divisions":[{"name":"相生町","zip_code":"3680026"},{"name":"阿保町","zip_code":"3680016"},{"name":"荒川小野原","zip_code":"3691804"},{"name":"荒川上田野","zip_code":"3691802"},{"name":"荒川久那","zip_code":"3691801"},{"name":"荒川白久","zip_code":"3691912"},{"name":"荒川贄川","zip_code":"3691911"},{"name":"荒川日野","zip_code":"3691803"},{"name":"伊古田","zip_code":"3680063"},{"name":"和泉町","zip_code":"3691874"},{"name":"上野町","zip_code":"3680031"},{"name":"浦山","zip_code":"3691873"},{"name":"太田","zip_code":"3680065"},{"name":"大滝","zip_code":"3691901"},{"name":"大野原","zip_code":"3680005"},{"name":"大畑町","zip_code":"3680011"},{"name":"大宮","zip_code":"3680023"},{"name":"小柱","zip_code":"3680061"},{"name":"金室町","zip_code":"3680014"},{"name":"上影森","zip_code":"3691872"},{"name":"上町","zip_code":"3680035"},{"name":"上宮地町","zip_code":"3680024"},{"name":"上吉田","zip_code":"3691505"},{"name":"久那","zip_code":"3680053"},{"name":"熊木町","zip_code":"3680032"},{"name":"黒谷","zip_code":"3680001"},{"name":"桜木町","zip_code":"3680025"},{"name":"定峰","zip_code":"3680003"},{"name":"品沢","zip_code":"3680064"},{"name":"下影森","zip_code":"3691871"},{"name":"下宮地町","zip_code":"3680021"},{"name":"下吉田","zip_code":"3691503"},{"name":"滝の上町","zip_code":"3680012"},{"name":"田村","zip_code":"3680055"},{"name":"近戸町","zip_code":"3680052"},{"name":"寺尾","zip_code":"3680056"},{"name":"道生町","zip_code":"3680045"},{"name":"栃谷","zip_code":"3680002"},{"name":"中津川","zip_code":"3691903"},{"name":"中町","zip_code":"3680043"},{"name":"中宮地町","zip_code":"3680022"},{"name":"中村町","zip_code":"3680051"},{"name":"永田町","zip_code":"3680013"},{"name":"野坂町","zip_code":"3680033"},{"name":"番場町","zip_code":"3680041"},{"name":"東町","zip_code":"3680042"},{"name":"日野田町","zip_code":"3680034"},{"name":"別所","zip_code":"3680054"},{"name":"堀切","zip_code":"3680066"},{"name":"蒔田","zip_code":"3680062"},{"name":"三峰","zip_code":"3691902"},{"name":"みどりが丘","zip_code":"3680067"},{"name":"宮側町","zip_code":"3680046"},{"name":"本町","zip_code":"3680044"},{"name":"柳田町","zip_code":"3680015"},{"name":"山田","zip_code":"3680004"},{"name":"吉田阿熊","zip_code":"3691502"},{"name":"吉田石間","zip_code":"3691504"},{"name":"吉田太田部","zip_code":"3691506"},{"name":"吉田久長","zip_code":"3691501"}]},{"name":"所沢市","divisions":[{"name":"青葉台","zip_code":"3591105"},{"name":"旭町","zip_code":"3590036"},{"name":"荒幡","zip_code":"3591133"},{"name":"泉町","zip_code":"3591112"},{"name":"岩岡町","zip_code":"3591102"},{"name":"牛沼","zip_code":"3590026"},{"name":"榎町","zip_code":"3591104"},{"name":"金山町","zip_code":"3591128"},{"name":"上新井","zip_code":"3591142"},{"name":"上安松","zip_code":"3590025"},{"name":"上山口","zip_code":"3591153"},{"name":"神米金","zip_code":"3590005"},{"name":"亀ケ谷","zip_code":"3590014"},{"name":"北秋津","zip_code":"3590038"},{"name":"北岩岡","zip_code":"3590007"},{"name":"北所沢町","zip_code":"3590046"},{"name":"北中","zip_code":"3591101"},{"name":"北野","zip_code":"3591152"},{"name":"北野新町","zip_code":"3591155"},{"name":"北野南","zip_code":"3591156"},{"name":"北原町","zip_code":"3590004"},{"name":"喜多町","zip_code":"3591113"},{"name":"北有楽町","zip_code":"3591114"},{"name":"くすのき台","zip_code":"3590037"},{"name":"久米","zip_code":"3591131"},{"name":"けやき台","zip_code":"3591118"},{"name":"糀谷","zip_code":"3591166"},{"name":"向陽町","zip_code":"3591103"},{"name":"小手指台","zip_code":"3591148"},{"name":"小手指町","zip_code":"3591141"},{"name":"小手指南","zip_code":"3591146"},{"name":"小手指元町","zip_code":"3591147"},{"name":"寿町","zip_code":"3591122"},{"name":"こぶし町","zip_code":"3590033"},{"name":"坂之下","zip_code":"3590012"},{"name":"狭山ケ丘","zip_code":"3591161"},{"name":"下新井","zip_code":"3590031"},{"name":"下富","zip_code":"3590001"},{"name":"下安松","zip_code":"3590024"},{"name":"勝楽寺","zip_code":"3591154"},{"name":"城","zip_code":"3590013"},{"name":"新郷","zip_code":"3590016"},{"name":"所沢新町","zip_code":"3590006"},{"name":"中新井","zip_code":"3590041"},{"name":"中富","zip_code":"3590002"},{"name":"中富南","zip_code":"3590003"},{"name":"並木","zip_code":"3590042"},{"name":"西新井町","zip_code":"3590035"},{"name":"西狭山ケ丘","zip_code":"3591163"},{"name":"西住吉","zip_code":"3591126"},{"name":"西所沢","zip_code":"3591144"},{"name":"花園","zip_code":"3590047"},{"name":"林","zip_code":"3591167"},{"name":"東新井町","zip_code":"3590034"},{"name":"東狭山ケ丘","zip_code":"3591106"},{"name":"東住吉","zip_code":"3591124"},{"name":"東町","zip_code":"3591116"},{"name":"東所沢","zip_code":"3590021"},{"name":"東所沢和田","zip_code":"3590023"},{"name":"日比田","zip_code":"3590015"},{"name":"日吉町","zip_code":"3591123"},{"name":"星の宮","zip_code":"3591127"},{"name":"堀之内","zip_code":"3591165"},{"name":"本郷","zip_code":"3590022"},{"name":"松が丘","zip_code":"3591132"},{"name":"松郷","zip_code":"3590027"},{"name":"松葉町","zip_code":"3590044"},{"name":"三ケ島","zip_code":"3591164"},{"name":"緑町","zip_code":"3591111"},{"name":"南住吉","zip_code":"3591125"},{"name":"南永井","zip_code":"3590011"},{"name":"美原町","zip_code":"3590045"},{"name":"宮本町","zip_code":"3591143"},{"name":"御幸町","zip_code":"3591115"},{"name":"元町","zip_code":"3591121"},{"name":"山口","zip_code":"3591145"},{"name":"弥生町","zip_code":"3590043"},{"name":"有楽町","zip_code":"3591117"},{"name":"若狭","zip_code":"3591151"},{"name":"若松町","zip_code":"3590032"},{"name":"和ケ原","zip_code":"3591162"}]},{"name":"飯能市","divisions":[{"name":"青木","zip_code":"3570003"},{"name":"赤沢","zip_code":"3570128"},{"name":"茜台","zip_code":"3570069"},{"name":"吾野","zip_code":"3570216"},{"name":"芦苅場","zip_code":"3570013"},{"name":"阿須","zip_code":"3570046"},{"name":"東町","zip_code":"3570034"},{"name":"稲荷町","zip_code":"3570037"},{"name":"井上","zip_code":"3570212"},{"name":"岩沢","zip_code":"3570023"},{"name":"岩渕","zip_code":"3570048"},{"name":"大河原","zip_code":"3570065"},{"name":"落合","zip_code":"3570047"},{"name":"笠縫","zip_code":"3570045"},{"name":"上赤工","zip_code":"3570125"},{"name":"上直竹上分","zip_code":"3570056"},{"name":"上直竹下分","zip_code":"3570055"},{"name":"上長沢","zip_code":"3570206"},{"name":"上名栗","zip_code":"3570111"},{"name":"上畑","zip_code":"3570053"},{"name":"唐竹","zip_code":"3570127"},{"name":"苅生","zip_code":"3570051"},{"name":"川崎","zip_code":"3570011"},{"name":"川寺","zip_code":"3570044"},{"name":"北川","zip_code":"3570201"},{"name":"久下","zip_code":"3570064"},{"name":"久須美","zip_code":"3570068"},{"name":"小岩井","zip_code":"3570066"},{"name":"小久保","zip_code":"3570015"},{"name":"虎秀","zip_code":"3570204"},{"name":"小瀬戸","zip_code":"3570067"},{"name":"坂石","zip_code":"3570215"},{"name":"坂石町分","zip_code":"3570213"},{"name":"栄町","zip_code":"3570025"},{"name":"坂元","zip_code":"3570218"},{"name":"下赤工","zip_code":"3570126"},{"name":"下加治","zip_code":"3570016"},{"name":"下川崎","zip_code":"3570012"},{"name":"下直竹","zip_code":"3570054"},{"name":"下名栗","zip_code":"3570112"},{"name":"下畑","zip_code":"3570052"},{"name":"白子","zip_code":"3570205"},{"name":"新光","zip_code":"3570022"},{"name":"新町","zip_code":"3570004"},{"name":"征矢町","zip_code":"3570049"},{"name":"高山","zip_code":"3570202"},{"name":"中居","zip_code":"3570002"},{"name":"仲町","zip_code":"3570038"},{"name":"中藤上郷","zip_code":"3570121"},{"name":"中藤中郷","zip_code":"3570122"},{"name":"中藤下郷","zip_code":"3570123"},{"name":"中山","zip_code":"3570006"},{"name":"長沢","zip_code":"3570203"},{"name":"永田","zip_code":"3570062"},{"name":"永田台","zip_code":"3570061"},{"name":"双柳","zip_code":"3570021"},{"name":"八幡町","zip_code":"3570033"},{"name":"原市場","zip_code":"3570124"},{"name":"原町","zip_code":"3570005"},{"name":"飯能","zip_code":"3570063"},{"name":"平戸","zip_code":"3570211"},{"name":"平松","zip_code":"3570014"},{"name":"本町","zip_code":"3570032"},{"name":"前ケ貫","zip_code":"3570043"},{"name":"美杉台","zip_code":"3570041"},{"name":"緑町","zip_code":"3570024"},{"name":"南","zip_code":"3570214"},{"name":"南川","zip_code":"3570217"},{"name":"南町","zip_code":"3570036"},{"name":"宮沢","zip_code":"3570001"},{"name":"矢颪","zip_code":"3570042"},{"name":"柳町","zip_code":"3570035"},{"name":"山手町","zip_code":"3570031"}]},{"name":"加須市","divisions":[{"name":"阿佐間","zip_code":"3491144"},{"name":"愛宕","zip_code":"3470057"},{"name":"新井新田","zip_code":"3491146"},{"name":"阿良川","zip_code":"3470047"},{"name":"飯積","zip_code":"3491211"},{"name":"伊賀袋","zip_code":"3491215"},{"name":"今鉾","zip_code":"3470024"},{"name":"芋茎","zip_code":"3470112"},{"name":"牛重","zip_code":"3470103"},{"name":"内田ケ谷","zip_code":"3470122"},{"name":"生出","zip_code":"3491143"},{"name":"大桑","zip_code":"3470010"},{"name":"大越","zip_code":"3470001"},{"name":"大室","zip_code":"3470027"},{"name":"岡古井","zip_code":"3470058"},{"name":"小野袋","zip_code":"3491202"},{"name":"柏戸","zip_code":"3491203"},{"name":"上崎","zip_code":"3470125"},{"name":"上高柳","zip_code":"3470101"},{"name":"上種足","zip_code":"3470115"},{"name":"上樋遣川","zip_code":"3470003"},{"name":"上三俣","zip_code":"3470006"},{"name":"川口","zip_code":"3470014"},{"name":"騎西","zip_code":"3470105"},{"name":"北大桑","zip_code":"3491147"},{"name":"北小浜","zip_code":"3470011"},{"name":"北篠崎","zip_code":"3470013"},{"name":"北下新井","zip_code":"3491134"},{"name":"北辻","zip_code":"3470023"},{"name":"北平野","zip_code":"3491135"},{"name":"久下","zip_code":"3470063"},{"name":"串作","zip_code":"3470041"},{"name":"外記新田","zip_code":"3491154"},{"name":"鴻茎","zip_code":"3470111"},{"name":"琴寄","zip_code":"3491133"},{"name":"駒場","zip_code":"3491214"},{"name":"栄","zip_code":"3491213"},{"name":"佐波","zip_code":"3491151"},{"name":"志多見","zip_code":"3470042"},{"name":"下崎","zip_code":"3470123"},{"name":"下高柳","zip_code":"3470033"},{"name":"下種足","zip_code":"3470113"},{"name":"下樋遣川","zip_code":"3470005"},{"name":"下三俣","zip_code":"3470007"},{"name":"下谷","zip_code":"3470053"},{"name":"杓子木","zip_code":"3491142"},{"name":"正能","zip_code":"3470107"},{"name":"新川通","zip_code":"3491153"},{"name":"新利根","zip_code":"3491158"},{"name":"砂原","zip_code":"3491155"},{"name":"諏訪","zip_code":"3470061"},{"name":"外川","zip_code":"3470106"},{"name":"外田ケ谷","zip_code":"3470126"},{"name":"外野","zip_code":"3470002"},{"name":"大門町","zip_code":"3470068"},{"name":"多門寺","zip_code":"3470012"},{"name":"中央","zip_code":"3470055"},{"name":"常泉","zip_code":"3470034"},{"name":"東栄","zip_code":"3470064"},{"name":"道地","zip_code":"3470121"},{"name":"道目","zip_code":"3491157"},{"name":"戸川","zip_code":"3470051"},{"name":"戸崎","zip_code":"3470108"},{"name":"土手","zip_code":"3470056"},{"name":"戸室","zip_code":"3470116"},{"name":"豊野台","zip_code":"3491148"},{"name":"中種足","zip_code":"3470114"},{"name":"中ノ目","zip_code":"3470124"},{"name":"中樋遣川","zip_code":"3470008"},{"name":"中渡","zip_code":"3491131"},{"name":"西ノ谷","zip_code":"3470117"},{"name":"根古屋","zip_code":"3470104"},{"name":"旗井","zip_code":"3491132"},{"name":"鳩山町","zip_code":"3470019"},{"name":"花崎","zip_code":"3470032"},{"name":"花崎北","zip_code":"3470016"},{"name":"浜町","zip_code":"3470018"},{"name":"日出安","zip_code":"3470102"},{"name":"平永","zip_code":"3470046"},{"name":"富士見町","zip_code":"3470045"},{"name":"不動岡","zip_code":"3470054"},{"name":"船越","zip_code":"3470021"},{"name":"古川","zip_code":"3470004"},{"name":"細間","zip_code":"3491156"},{"name":"本郷","zip_code":"3491216"},{"name":"本町","zip_code":"3470066"},{"name":"間口","zip_code":"3491145"},{"name":"町屋新田","zip_code":"3470052"},{"name":"松永新田","zip_code":"3491141"},{"name":"水深","zip_code":"3470022"},{"name":"南大桑","zip_code":"3470015"},{"name":"南小浜","zip_code":"3470028"},{"name":"南篠崎","zip_code":"3470017"},{"name":"南町","zip_code":"3470031"},{"name":"向古河","zip_code":"3491205"},{"name":"麦倉","zip_code":"3491212"},{"name":"向川岸町","zip_code":"3470067"},{"name":"睦町","zip_code":"3470062"},{"name":"馬内","zip_code":"3470043"},{"name":"元町","zip_code":"3470065"},{"name":"柳生","zip_code":"3491201"},{"name":"弥兵衛","zip_code":"3491152"},{"name":"油井ケ島","zip_code":"3470026"},{"name":"陽光台","zip_code":"3491204"},{"name":"礼羽","zip_code":"3470044"},{"name":"割目","zip_code":"3470025"}]},{"name":"本庄市","divisions":[{"name":"朝日町","zip_code":"3670026"},{"name":"新井","zip_code":"3670075"},{"name":"五十子","zip_code":"3670027"},{"name":"今井","zip_code":"3670036"},{"name":"いまい台","zip_code":"3670038"},{"name":"鵜森","zip_code":"3670016"},{"name":"駅南","zip_code":"3670041"},{"name":"小島","zip_code":"3670061"},{"name":"小島南","zip_code":"3670062"},{"name":"柏","zip_code":"3670045"},{"name":"上仁手","zip_code":"3670007"},{"name":"北堀","zip_code":"3670031"},{"name":"共栄","zip_code":"3670037"},{"name":"銀座","zip_code":"3670052"},{"name":"久々宇","zip_code":"3670005"},{"name":"栗崎","zip_code":"3670032"},{"name":"けや木","zip_code":"3670042"},{"name":"見福","zip_code":"3670044"},{"name":"児玉町秋山","zip_code":"3670213"},{"name":"児玉町飯倉","zip_code":"3670225"},{"name":"児玉町稲沢","zip_code":"3670251"},{"name":"児玉町入浅見","zip_code":"3670203"},{"name":"児玉町太駄","zip_code":"3670254"},{"name":"児玉町金屋","zip_code":"3670216"},{"name":"児玉町上真下","zip_code":"3670205"},{"name":"児玉町吉田林","zip_code":"3670211"},{"name":"児玉町共栄","zip_code":"3670206"},{"name":"児玉町元田","zip_code":"3670252"},{"name":"児玉町河内","zip_code":"3670253"},{"name":"児玉町小平","zip_code":"3670214"},{"name":"児玉町児玉","zip_code":"3670212"},{"name":"児玉町児玉南","zip_code":"3670218"},{"name":"児玉町塩谷","zip_code":"3670223"},{"name":"児玉町下浅見","zip_code":"3670202"},{"name":"児玉町下真下","zip_code":"3670207"},{"name":"児玉町高関","zip_code":"3670201"},{"name":"児玉町高柳","zip_code":"3670224"},{"name":"児玉町田端","zip_code":"3670222"},{"name":"児玉町長沖","zip_code":"3670215"},{"name":"児玉町八幡山","zip_code":"3670217"},{"name":"児玉町蛭川","zip_code":"3670204"},{"name":"児玉町保木野","zip_code":"3670221"},{"name":"児玉町宮内","zip_code":"3670226"},{"name":"寿","zip_code":"3670023"},{"name":"小和瀬","zip_code":"3670011"},{"name":"栄","zip_code":"3670046"},{"name":"山王堂","zip_code":"3670071"},{"name":"四季の里","zip_code":"3670039"},{"name":"四方田","zip_code":"3670034"},{"name":"下仁手","zip_code":"3670001"},{"name":"下野堂","zip_code":"3670063"},{"name":"杉山","zip_code":"3670074"},{"name":"諏訪町","zip_code":"3670018"},{"name":"台町","zip_code":"3670003"},{"name":"滝瀬","zip_code":"3670013"},{"name":"田中","zip_code":"3670006"},{"name":"中央","zip_code":"3670053"},{"name":"千代田","zip_code":"3670054"},{"name":"照若町","zip_code":"3670056"},{"name":"西五十子","zip_code":"3670025"},{"name":"西富田","zip_code":"3670035"},{"name":"仁手","zip_code":"3670002"},{"name":"沼和田","zip_code":"3670072"},{"name":"東五十子","zip_code":"3670024"},{"name":"東台","zip_code":"3670021"},{"name":"東富田","zip_code":"3670033"},{"name":"日の出","zip_code":"3670022"},{"name":"傍示堂","zip_code":"3670017"},{"name":"堀田","zip_code":"3670014"},{"name":"本庄","zip_code":"3670051"},{"name":"前原","zip_code":"3670047"},{"name":"万年寺","zip_code":"3670064"},{"name":"緑","zip_code":"3670043"},{"name":"南","zip_code":"3670048"},{"name":"都島","zip_code":"3670073"},{"name":"宮戸","zip_code":"3670012"},{"name":"牧西","zip_code":"3670015"},{"name":"本町","zip_code":"3670004"},{"name":"若泉","zip_code":"3670055"},{"name":"早稲田の杜","zip_code":"3670030"}]},{"name":"東松山市","divisions":[{"name":"あずま町","zip_code":"3550048"},{"name":"石橋","zip_code":"3550072"},{"name":"和泉町","zip_code":"3550026"},{"name":"市ノ川","zip_code":"3550006"},{"name":"今泉","zip_code":"3550042"},{"name":"岩殿","zip_code":"3550065"},{"name":"大黒部","zip_code":"3550046"},{"name":"大谷","zip_code":"3550008"},{"name":"岡","zip_code":"3550001"},{"name":"御茶山町","zip_code":"3550022"},{"name":"柏崎","zip_code":"3550034"},{"name":"上押垂","zip_code":"3550074"},{"name":"上唐子","zip_code":"3550077"},{"name":"加美町","zip_code":"3550011"},{"name":"上野本","zip_code":"3550073"},{"name":"葛袋","zip_code":"3550061"},{"name":"毛塚","zip_code":"3550064"},{"name":"神戸","zip_code":"3550066"},{"name":"五領町","zip_code":"3550031"},{"name":"小松原町","zip_code":"3550013"},{"name":"材木町","zip_code":"3550016"},{"name":"幸町","zip_code":"3550025"},{"name":"桜山台","zip_code":"3550052"},{"name":"沢口町","zip_code":"3550004"},{"name":"下青鳥","zip_code":"3550075"},{"name":"下押垂","zip_code":"3550041"},{"name":"下唐子","zip_code":"3550076"},{"name":"下野本","zip_code":"3550036"},{"name":"正代","zip_code":"3550044"},{"name":"新郷","zip_code":"3550071"},{"name":"新宿町","zip_code":"3550032"},{"name":"神明町","zip_code":"3550021"},{"name":"砂田町","zip_code":"3550019"},{"name":"高坂","zip_code":"3550047"},{"name":"田木","zip_code":"3550053"},{"name":"殿山町","zip_code":"3550003"},{"name":"西本宿","zip_code":"3550062"},{"name":"野田","zip_code":"3550007"},{"name":"白山台","zip_code":"3550051"},{"name":"旗立台","zip_code":"3550054"},{"name":"早俣","zip_code":"3550043"},{"name":"東平","zip_code":"3550002"},{"name":"日吉町","zip_code":"3550012"},{"name":"古凍","zip_code":"3550035"},{"name":"本町","zip_code":"3550015"},{"name":"松風台","zip_code":"3550055"},{"name":"松葉町","zip_code":"3550017"},{"name":"松本町","zip_code":"3550014"},{"name":"松山","zip_code":"3550005"},{"name":"松山町","zip_code":"3550018"},{"name":"美土里町","zip_code":"3550027"},{"name":"宮鼻","zip_code":"3550045"},{"name":"元宿","zip_code":"3550063"},{"name":"箭弓町","zip_code":"3550028"},{"name":"山崎町","zip_code":"3550033"},{"name":"六反町","zip_code":"3550023"},{"name":"六軒町","zip_code":"3550024"},{"name":"若松町","zip_code":"3550037"}]},{"name":"春日部市","divisions":[{"name":"赤崎","zip_code":"3440126"},{"name":"赤沼","zip_code":"3440015"},{"name":"飯沼","zip_code":"3440125"},{"name":"一ノ割","zip_code":"3440031"},{"name":"牛島","zip_code":"3440004"},{"name":"内牧","zip_code":"3440051"},{"name":"梅田","zip_code":"3440052"},{"name":"梅田本町","zip_code":"3440053"},{"name":"榎","zip_code":"3440135"},{"name":"大枝","zip_code":"3440023"},{"name":"大沼","zip_code":"3440038"},{"name":"大畑","zip_code":"3440022"},{"name":"大場","zip_code":"3440021"},{"name":"大衾","zip_code":"3440116"},{"name":"粕壁","zip_code":"3440061"},{"name":"粕壁東","zip_code":"3440062"},{"name":"金崎","zip_code":"3440117"},{"name":"上大増新田","zip_code":"3440037"},{"name":"上金崎","zip_code":"3440111"},{"name":"上吉妻","zip_code":"3440103"},{"name":"上蛭田","zip_code":"3440046"},{"name":"上柳","zip_code":"3440121"},{"name":"神間","zip_code":"3440132"},{"name":"木崎","zip_code":"3440106"},{"name":"椚","zip_code":"3440133"},{"name":"倉常","zip_code":"3440136"},{"name":"小平","zip_code":"3440105"},{"name":"小渕","zip_code":"3440007"},{"name":"米崎","zip_code":"3440124"},{"name":"米島","zip_code":"3440115"},{"name":"栄町","zip_code":"3440058"},{"name":"下大増新田","zip_code":"3440036"},{"name":"下吉妻","zip_code":"3440104"},{"name":"下蛭田","zip_code":"3440043"},{"name":"下柳","zip_code":"3440122"},{"name":"新川","zip_code":"3440003"},{"name":"新宿新田","zip_code":"3440113"},{"name":"水角","zip_code":"3440127"},{"name":"薄谷","zip_code":"3440034"},{"name":"千間","zip_code":"3440024"},{"name":"武里中野","zip_code":"3440026"},{"name":"立野","zip_code":"3440134"},{"name":"中央","zip_code":"3440067"},{"name":"銚子口","zip_code":"3440013"},{"name":"塚崎","zip_code":"3440107"},{"name":"道口蛭田","zip_code":"3440045"},{"name":"道順川戸","zip_code":"3440047"},{"name":"豊野町","zip_code":"3440014"},{"name":"永沼","zip_code":"3440123"},{"name":"新方袋","zip_code":"3440056"},{"name":"西親野井","zip_code":"3440101"},{"name":"西金野井","zip_code":"3440112"},{"name":"西八木崎","zip_code":"3440059"},{"name":"西宝珠花","zip_code":"3440102"},{"name":"八丁目","zip_code":"3440006"},{"name":"花積","zip_code":"3440044"},{"name":"浜川戸","zip_code":"3440054"},{"name":"東中野","zip_code":"3440114"},{"name":"樋堀","zip_code":"3440005"},{"name":"樋籠","zip_code":"3440002"},{"name":"備後東","zip_code":"3440032"},{"name":"備後西","zip_code":"3440033"},{"name":"藤塚","zip_code":"3440011"},{"name":"不動院野","zip_code":"3440001"},{"name":"本田町","zip_code":"3440016"},{"name":"増戸","zip_code":"3440042"},{"name":"増富","zip_code":"3440041"},{"name":"増田新田","zip_code":"3440025"},{"name":"緑町","zip_code":"3440063"},{"name":"南","zip_code":"3440064"},{"name":"南栄町","zip_code":"3440057"},{"name":"南中曽根","zip_code":"3440048"},{"name":"八木崎町","zip_code":"3440055"},{"name":"谷原","zip_code":"3440065"},{"name":"谷原新田","zip_code":"3440035"},{"name":"豊町","zip_code":"3440066"},{"name":"芦橋","zip_code":"3440131"},{"name":"六軒町","zip_code":"3440012"}]},{"name":"狭山市","divisions":[{"name":"青柳","zip_code":"3501301"},{"name":"稲荷山","zip_code":"3501324"},{"name":"入間川","zip_code":"3501305"},{"name":"鵜ノ木","zip_code":"3501323"},{"name":"加佐志","zip_code":"3501314"},{"name":"柏原","zip_code":"3501335"},{"name":"柏原新田","zip_code":"3501336"},{"name":"上赤坂","zip_code":"3501313"},{"name":"上奥富","zip_code":"3501333"},{"name":"上広瀬","zip_code":"3501321"},{"name":"祇園","zip_code":"3501307"},{"name":"北入曽","zip_code":"3501315"},{"name":"笹井","zip_code":"3501327"},{"name":"狭山","zip_code":"3501334"},{"name":"狭山台","zip_code":"3501304"},{"name":"沢","zip_code":"3501303"},{"name":"下奥富","zip_code":"3501332"},{"name":"下広瀬","zip_code":"3501322"},{"name":"新狭山","zip_code":"3501331"},{"name":"中央","zip_code":"3501308"},{"name":"つつじ野","zip_code":"3501326"},{"name":"中新田","zip_code":"3501311"},{"name":"根岸","zip_code":"3501325"},{"name":"東三ツ木","zip_code":"3501302"},{"name":"広瀬","zip_code":"3501319"},{"name":"広瀬台","zip_code":"3501328"},{"name":"広瀬東","zip_code":"3501320"},{"name":"富士見","zip_code":"3501306"},{"name":"堀兼","zip_code":"3501312"},{"name":"水野","zip_code":"3501317"},{"name":"南入曽","zip_code":"3501316"}]},{"name":"羽生市","divisions":[{"name":"稲子","zip_code":"3480061"},{"name":"今泉","zip_code":"3480017"},{"name":"大沼","zip_code":"3480016"},{"name":"尾崎","zip_code":"3480062"},{"name":"加羽ケ崎","zip_code":"3480031"},{"name":"上岩瀬","zip_code":"3480044"},{"name":"上川崎","zip_code":"3480035"},{"name":"上川俣","zip_code":"3480056"},{"name":"上新郷","zip_code":"3480041"},{"name":"上手子林","zip_code":"3480025"},{"name":"上羽生","zip_code":"3480027"},{"name":"上村君","zip_code":"3480005"},{"name":"川崎","zip_code":"3480039"},{"name":"喜右エ門新田","zip_code":"3480014"},{"name":"北","zip_code":"3480057"},{"name":"北荻島","zip_code":"3480015"},{"name":"北袋","zip_code":"3480028"},{"name":"桑崎","zip_code":"3480043"},{"name":"神戸","zip_code":"3480024"},{"name":"小須賀","zip_code":"3480042"},{"name":"小松","zip_code":"3480037"},{"name":"小松台","zip_code":"3480038"},{"name":"下岩瀬","zip_code":"3480045"},{"name":"下川崎","zip_code":"3480034"},{"name":"下新郷","zip_code":"3480047"},{"name":"下新田","zip_code":"3480048"},{"name":"下手子林","zip_code":"3480022"},{"name":"下羽生","zip_code":"3480026"},{"name":"下村君","zip_code":"3480006"},{"name":"須影","zip_code":"3480033"},{"name":"砂山","zip_code":"3480036"},{"name":"中央","zip_code":"3480058"},{"name":"堤","zip_code":"3480001"},{"name":"常木","zip_code":"3480003"},{"name":"中岩瀬","zip_code":"3480046"},{"name":"中手子林","zip_code":"3480021"},{"name":"西","zip_code":"3480054"},{"name":"羽生","zip_code":"3480055"},{"name":"東","zip_code":"3480052"},{"name":"秀安","zip_code":"3480032"},{"name":"日野手新田","zip_code":"3480013"},{"name":"藤井上組","zip_code":"3480064"},{"name":"藤井下組","zip_code":"3480065"},{"name":"発戸","zip_code":"3480063"},{"name":"本川俣","zip_code":"3480051"},{"name":"町屋","zip_code":"3480023"},{"name":"三田ケ谷","zip_code":"3480011"},{"name":"南","zip_code":"3480053"},{"name":"南羽生","zip_code":"3480071"},{"name":"名","zip_code":"3480002"},{"name":"弥勒","zip_code":"3480004"},{"name":"与兵エ新田","zip_code":"3480012"}]},{"name":"鴻巣市","divisions":[{"name":"愛の町","zip_code":"3650068"},{"name":"赤城","zip_code":"3650002"},{"name":"赤城台","zip_code":"3650001"},{"name":"赤見台","zip_code":"3650064"},{"name":"新井","zip_code":"3650011"},{"name":"安養寺","zip_code":"3650021"},{"name":"市ノ縄","zip_code":"3650072"},{"name":"稲荷町","zip_code":"3650063"},{"name":"榎戸","zip_code":"3690123"},{"name":"生出塚","zip_code":"3650033"},{"name":"大芦","zip_code":"3690137"},{"name":"大間","zip_code":"3650054"},{"name":"笠原","zip_code":"3650023"},{"name":"鎌塚","zip_code":"3690112"},{"name":"加美","zip_code":"3650078"},{"name":"上会下","zip_code":"3650012"},{"name":"上生出塚","zip_code":"3650034"},{"name":"上谷","zip_code":"3650027"},{"name":"川面","zip_code":"3650061"},{"name":"北新宿","zip_code":"3690116"},{"name":"北中野","zip_code":"3650058"},{"name":"北根","zip_code":"3650003"},{"name":"屈巣","zip_code":"3650014"},{"name":"郷地","zip_code":"3650022"},{"name":"鴻巣","zip_code":"3650028"},{"name":"小松","zip_code":"3650041"},{"name":"小谷","zip_code":"3690133"},{"name":"幸町","zip_code":"3650057"},{"name":"境","zip_code":"3650013"},{"name":"栄町","zip_code":"3650055"},{"name":"逆川","zip_code":"3650047"},{"name":"三町免","zip_code":"3690134"},{"name":"下生出塚","zip_code":"3650035"},{"name":"下忍","zip_code":"3690113"},{"name":"下谷","zip_code":"3650025"},{"name":"常光","zip_code":"3650024"},{"name":"新宿","zip_code":"3690111"},{"name":"神明","zip_code":"3650074"},{"name":"すみれ野","zip_code":"3650067"},{"name":"関新田","zip_code":"3650004"},{"name":"滝馬室","zip_code":"3650044"},{"name":"中央","zip_code":"3650032"},{"name":"筑波","zip_code":"3690114"},{"name":"堤町","zip_code":"3650056"},{"name":"寺谷","zip_code":"3650071"},{"name":"天神","zip_code":"3650036"},{"name":"中井","zip_code":"3650065"},{"name":"西中曽根","zip_code":"3650026"},{"name":"人形","zip_code":"3650037"},{"name":"糠田","zip_code":"3650059"},{"name":"登戸","zip_code":"3650052"},{"name":"八幡田","zip_code":"3650073"},{"name":"荊原","zip_code":"3690124"},{"name":"原馬室","zip_code":"3650043"},{"name":"氷川町","zip_code":"3650045"},{"name":"東","zip_code":"3650039"},{"name":"ひばり野","zip_code":"3650031"},{"name":"広田","zip_code":"3650005"},{"name":"吹上","zip_code":"3690136"},{"name":"吹上富士見","zip_code":"3690121"},{"name":"吹上本町","zip_code":"3690115"},{"name":"袋","zip_code":"3690131"},{"name":"富士見町","zip_code":"3650046"},{"name":"本町","zip_code":"3650038"},{"name":"本宮町","zip_code":"3650076"},{"name":"前砂","zip_code":"3690132"},{"name":"松原","zip_code":"3650042"},{"name":"箕田","zip_code":"3650062"},{"name":"三ツ木","zip_code":"3650066"},{"name":"緑町","zip_code":"3650053"},{"name":"南","zip_code":"3690122"},{"name":"宮地","zip_code":"3650075"},{"name":"宮前","zip_code":"3650051"},{"name":"明用","zip_code":"3690135"},{"name":"雷電","zip_code":"3650077"}]},{"name":"深谷市","divisions":[{"name":"秋元町","zip_code":"3660053"},{"name":"明戸","zip_code":"3660024"},{"name":"新井","zip_code":"3660016"},{"name":"荒川","zip_code":"3691245"},{"name":"石塚","zip_code":"3660011"},{"name":"伊勢方","zip_code":"3660836"},{"name":"稲荷町","zip_code":"3660026"},{"name":"稲荷町北","zip_code":"3660028"},{"name":"今泉","zip_code":"3690215"},{"name":"後榛沢","zip_code":"3690222"},{"name":"内ケ島","zip_code":"3660831"},{"name":"上野台","zip_code":"3660801"},{"name":"江原","zip_code":"3660012"},{"name":"大塚島","zip_code":"3660838"},{"name":"大塚","zip_code":"3660003"},{"name":"大谷","zip_code":"3660814"},{"name":"岡","zip_code":"3690201"},{"name":"岡里","zip_code":"3690202"},{"name":"岡部","zip_code":"3690211"},{"name":"起会","zip_code":"3660837"},{"name":"小前田","zip_code":"3691246"},{"name":"折之口","zip_code":"3660812"},{"name":"樫合","zip_code":"3660816"},{"name":"柏合","zip_code":"3660817"},{"name":"上柴町東","zip_code":"3660051"},{"name":"上柴町西","zip_code":"3660052"},{"name":"上手計","zip_code":"3660004"},{"name":"上原","zip_code":"3691109"},{"name":"上増田","zip_code":"3660021"},{"name":"萱場","zip_code":"3660818"},{"name":"川本明戸","zip_code":"3691103"},{"name":"北阿賀野","zip_code":"3660008"},{"name":"北根","zip_code":"3691242"},{"name":"櫛引","zip_code":"3660815"},{"name":"櫛挽","zip_code":"3690212"},{"name":"沓掛","zip_code":"3690225"},{"name":"黒田","zip_code":"3691244"},{"name":"国済寺","zip_code":"3660033"},{"name":"国済寺町","zip_code":"3660031"},{"name":"寿町","zip_code":"3660025"},{"name":"境","zip_code":"3660813"},{"name":"栄町","zip_code":"3660827"},{"name":"桜ケ丘","zip_code":"3660802"},{"name":"下手計","zip_code":"3660002"},{"name":"宿根","zip_code":"3660810"},{"name":"上敷免","zip_code":"3660029"},{"name":"白草台","zip_code":"3691106"},{"name":"新戒","zip_code":"3660019"},{"name":"菅沼","zip_code":"3691104"},{"name":"瀬山","zip_code":"3691102"},{"name":"高島","zip_code":"3660010"},{"name":"高畑","zip_code":"3660832"},{"name":"武川","zip_code":"3691111"},{"name":"田所町","zip_code":"3660826"},{"name":"田中","zip_code":"3691108"},{"name":"田谷","zip_code":"3660821"},{"name":"血洗島","zip_code":"3660006"},{"name":"天神町","zip_code":"3660027"},{"name":"常盤町","zip_code":"3660034"},{"name":"戸森","zip_code":"3660833"},{"name":"長在家","zip_code":"3691101"},{"name":"中瀬","zip_code":"3660001"},{"name":"永田","zip_code":"3691243"},{"name":"仲町","zip_code":"3660822"},{"name":"成塚","zip_code":"3660018"},{"name":"西大沼","zip_code":"3660829"},{"name":"西島町","zip_code":"3660824"},{"name":"西田","zip_code":"3690224"},{"name":"沼尻","zip_code":"3660017"},{"name":"蓮沼","zip_code":"3660015"},{"name":"畠山","zip_code":"3691107"},{"name":"幡羅町","zip_code":"3660032"},{"name":"原郷","zip_code":"3660035"},{"name":"針ケ谷","zip_code":"3690213"},{"name":"榛沢","zip_code":"3690223"},{"name":"榛沢新田","zip_code":"3690221"},{"name":"東大沼","zip_code":"3660828"},{"name":"東方","zip_code":"3660041"},{"name":"東方町","zip_code":"3660042"},{"name":"人見","zip_code":"3660811"},{"name":"深谷町","zip_code":"3660825"},{"name":"普済寺","zip_code":"3690203"},{"name":"藤野木","zip_code":"3660014"},{"name":"二ツ小屋","zip_code":"3660061"},{"name":"堀米","zip_code":"3660013"},{"name":"本郷","zip_code":"3690214"},{"name":"本田","zip_code":"3691105"},{"name":"本田ケ谷","zip_code":"3660022"},{"name":"前小屋","zip_code":"3660062"},{"name":"曲田","zip_code":"3660834"},{"name":"町田","zip_code":"3660005"},{"name":"緑ケ丘","zip_code":"3660054"},{"name":"緑台","zip_code":"3691247"},{"name":"南阿賀野","zip_code":"3660007"},{"name":"見晴町","zip_code":"3660819"},{"name":"宮ケ谷戸","zip_code":"3660023"},{"name":"武蔵野","zip_code":"3691241"},{"name":"本住町","zip_code":"3660823"},{"name":"矢島","zip_code":"3660839"},{"name":"谷之","zip_code":"3660835"},{"name":"山河","zip_code":"3690217"},{"name":"山崎","zip_code":"3690216"},{"name":"横瀬","zip_code":"3660009"}]},{"name":"上尾市","divisions":[{"name":"上尾下","zip_code":"3620025"},{"name":"上尾宿","zip_code":"3620012"},{"name":"上尾村","zip_code":"3620013"},{"name":"浅間台","zip_code":"3620073"},{"name":"東町","zip_code":"3620031"},{"name":"畔吉","zip_code":"3620065"},{"name":"愛宕","zip_code":"3620034"},{"name":"泉台","zip_code":"3620062"},{"name":"壱丁目","zip_code":"3620046"},{"name":"井戸木","zip_code":"3620071"},{"name":"今泉","zip_code":"3620047"},{"name":"上野","zip_code":"3620058"},{"name":"上野本郷","zip_code":"3620056"},{"name":"大谷本郷","zip_code":"3620044"},{"name":"柏座","zip_code":"3620075"},{"name":"春日","zip_code":"3620074"},{"name":"上","zip_code":"3620001"},{"name":"上町","zip_code":"3620037"},{"name":"川","zip_code":"3620048"},{"name":"瓦葺","zip_code":"3620022"},{"name":"久保","zip_code":"3620007"},{"name":"小泉","zip_code":"3620063"},{"name":"小敷谷","zip_code":"3620064"},{"name":"五番町","zip_code":"3620024"},{"name":"栄町","zip_code":"3620033"},{"name":"地頭方","zip_code":"3620051"},{"name":"須ケ谷","zip_code":"3620004"},{"name":"菅谷","zip_code":"3620003"},{"name":"堤崎","zip_code":"3620054"},{"name":"戸崎","zip_code":"3620053"},{"name":"中新井","zip_code":"3620052"},{"name":"仲町","zip_code":"3620035"},{"name":"中妻","zip_code":"3620072"},{"name":"中分","zip_code":"3620067"},{"name":"西貝塚","zip_code":"3620057"},{"name":"錦町","zip_code":"3620006"},{"name":"西宮下","zip_code":"3620043"},{"name":"西門前","zip_code":"3620005"},{"name":"原市","zip_code":"3620021"},{"name":"原市北","zip_code":"3620026"},{"name":"原市中","zip_code":"3620023"},{"name":"原新町","zip_code":"3620016"},{"name":"日の出","zip_code":"3620032"},{"name":"平方","zip_code":"3620059"},{"name":"平方領々家","zip_code":"3620055"},{"name":"平塚","zip_code":"3620011"},{"name":"藤波","zip_code":"3620061"},{"name":"富士見","zip_code":"3620041"},{"name":"二ツ宮","zip_code":"3620017"},{"name":"弁財","zip_code":"3620076"},{"name":"本町","zip_code":"3620014"},{"name":"緑丘","zip_code":"3620015"},{"name":"南","zip_code":"3620002"},{"name":"宮本町","zip_code":"3620036"},{"name":"向山","zip_code":"3620045"},{"name":"谷津","zip_code":"3620042"},{"name":"領家","zip_code":"3620066"}]},{"name":"草加市","divisions":[{"name":"青柳","zip_code":"3400002"},{"name":"青柳町","zip_code":"3400007"},{"name":"旭町","zip_code":"3400053"},{"name":"遊馬町","zip_code":"3400032"},{"name":"稲荷","zip_code":"3400003"},{"name":"柿木町","zip_code":"3400001"},{"name":"学園町","zip_code":"3400042"},{"name":"北谷","zip_code":"3400046"},{"name":"北谷町","zip_code":"3400047"},{"name":"金明町","zip_code":"3400052"},{"name":"小山","zip_code":"3400045"},{"name":"栄町","zip_code":"3400011"},{"name":"新栄町","zip_code":"3400056"},{"name":"新善町","zip_code":"3400054"},{"name":"神明","zip_code":"3400012"},{"name":"住吉","zip_code":"3400014"},{"name":"清門町","zip_code":"3400055"},{"name":"瀬崎","zip_code":"3400022"},{"name":"草加","zip_code":"3400043"},{"name":"高砂","zip_code":"3400015"},{"name":"中央","zip_code":"3400016"},{"name":"長栄町","zip_code":"3400051"},{"name":"手代町","zip_code":"3400021"},{"name":"苗塚町","zip_code":"3400036"},{"name":"中根","zip_code":"3400005"},{"name":"西町","zip_code":"3400035"},{"name":"新里町","zip_code":"3400031"},{"name":"花栗","zip_code":"3400044"},{"name":"原町","zip_code":"3400048"},{"name":"氷川町","zip_code":"3400034"},{"name":"弁天","zip_code":"3400004"},{"name":"松江","zip_code":"3400013"},{"name":"松原","zip_code":"3400041"},{"name":"谷塚","zip_code":"3400028"},{"name":"谷塚上町","zip_code":"3400024"},{"name":"谷塚仲町","zip_code":"3400025"},{"name":"谷塚町","zip_code":"3400023"},{"name":"柳島町","zip_code":"3400033"},{"name":"八幡町","zip_code":"3400006"},{"name":"吉町","zip_code":"3400017"},{"name":"両新田東町","zip_code":"3400026"},{"name":"両新田西町","zip_code":"3400027"}]},{"name":"越谷市","divisions":[{"name":"赤山町","zip_code":"3430807"},{"name":"赤山本町","zip_code":"3430808"},{"name":"東町","zip_code":"3430826"},{"name":"伊原","zip_code":"3430831"},{"name":"大沢","zip_code":"3430025"},{"name":"大里","zip_code":"3430031"},{"name":"大杉","zip_code":"3430005"},{"name":"大竹","zip_code":"3430034"},{"name":"大泊","zip_code":"3430044"},{"name":"大林","zip_code":"3430021"},{"name":"大房","zip_code":"3430027"},{"name":"大松","zip_code":"3430004"},{"name":"大間野町","zip_code":"3430844"},{"name":"大道","zip_code":"3430035"},{"name":"大吉","zip_code":"3430008"},{"name":"小曽川","zip_code":"3430802"},{"name":"恩間","zip_code":"3430033"},{"name":"恩間新田","zip_code":"3430037"},{"name":"上間久里","zip_code":"3430043"},{"name":"蒲生","zip_code":"3430838"},{"name":"蒲生茜町","zip_code":"3430843"},{"name":"蒲生旭町","zip_code":"3430842"},{"name":"蒲生愛宕町","zip_code":"3430834"},{"name":"蒲生寿町","zip_code":"3430836"},{"name":"蒲生東町","zip_code":"3430841"},{"name":"蒲生西町","zip_code":"3430835"},{"name":"蒲生南町","zip_code":"3430833"},{"name":"蒲生本町","zip_code":"3430837"},{"name":"川柳町","zip_code":"3430827"},{"name":"瓦曽根","zip_code":"3430821"},{"name":"北後谷","zip_code":"3430854"},{"name":"北川崎","zip_code":"3430006"},{"name":"北越谷","zip_code":"3430026"},{"name":"越ケ谷","zip_code":"3430024"},{"name":"越ケ谷本町","zip_code":"3430818"},{"name":"御殿町","zip_code":"3430811"},{"name":"相模町","zip_code":"3430823"},{"name":"三野宮","zip_code":"3430036"},{"name":"七左町","zip_code":"3430851"},{"name":"下間久里","zip_code":"3430045"},{"name":"新川町","zip_code":"3430852"},{"name":"神明町","zip_code":"3430805"},{"name":"砂原","zip_code":"3430803"},{"name":"千間台東","zip_code":"3430042"},{"name":"千間台西","zip_code":"3430041"},{"name":"大成町","zip_code":"3430825"},{"name":"中島","zip_code":"3430013"},{"name":"中町","zip_code":"3430817"},{"name":"長島","zip_code":"3430853"},{"name":"西新井","zip_code":"3430855"},{"name":"西方","zip_code":"3430822"},{"name":"野島","zip_code":"3430801"},{"name":"登戸町","zip_code":"3430846"},{"name":"花田","zip_code":"3430015"},{"name":"東大沢","zip_code":"3430022"},{"name":"東越谷","zip_code":"3430023"},{"name":"東柳田町","zip_code":"3430814"},{"name":"平方","zip_code":"3430002"},{"name":"平方南町","zip_code":"3430001"},{"name":"袋山","zip_code":"3430032"},{"name":"船渡","zip_code":"3430003"},{"name":"増林","zip_code":"3430011"},{"name":"増森","zip_code":"3430012"},{"name":"南荻島","zip_code":"3430804"},{"name":"南越谷","zip_code":"3430845"},{"name":"南町","zip_code":"3430832"},{"name":"宮前","zip_code":"3430014"},{"name":"宮本町","zip_code":"3430806"},{"name":"向畑","zip_code":"3430007"},{"name":"元柳田町","zip_code":"3430815"},{"name":"弥栄町","zip_code":"3430046"},{"name":"弥十郎","zip_code":"3430047"},{"name":"谷中町","zip_code":"3430856"},{"name":"柳町","zip_code":"3430812"},{"name":"弥生町","zip_code":"3430816"},{"name":"流通団地","zip_code":"3430824"}]},{"name":"蕨市","divisions":[{"name":"北町","zip_code":"3350001"},{"name":"中央","zip_code":"3350004"},{"name":"塚越","zip_code":"3350002"},{"name":"錦町","zip_code":"3350005"},{"name":"南町","zip_code":"3350003"}]},{"name":"戸田市","divisions":[{"name":"上戸田","zip_code":"3350022"},{"name":"川岸","zip_code":"3350015"},{"name":"喜沢","zip_code":"3350013"},{"name":"喜沢南","zip_code":"3350014"},{"name":"笹目","zip_code":"3350034"},{"name":"笹目南町","zip_code":"3350035"},{"name":"笹目北町","zip_code":"3350033"},{"name":"下笹目","zip_code":"3350037"},{"name":"下戸田","zip_code":"3350011"},{"name":"下前","zip_code":"3350016"},{"name":"戸田公園","zip_code":"3350024"},{"name":"中町","zip_code":"3350012"},{"name":"新曽","zip_code":"3350021"},{"name":"新曽南","zip_code":"3350026"},{"name":"早瀬","zip_code":"3350036"},{"name":"氷川町","zip_code":"3350027"},{"name":"美女木","zip_code":"3350031"},{"name":"美女木東","zip_code":"3350032"},{"name":"本町","zip_code":"3350023"},{"name":"南町","zip_code":"3350025"}]},{"name":"入間市","divisions":[{"name":"東町","zip_code":"3580002"},{"name":"新久","zip_code":"3580031"},{"name":"上小谷田","zip_code":"3580027"},{"name":"牛沢町","zip_code":"3580051"},{"name":"扇台","zip_code":"3580023"},{"name":"扇町屋","zip_code":"3580022"},{"name":"鍵山","zip_code":"3580004"},{"name":"春日町","zip_code":"3580006"},{"name":"金子中央","zip_code":"3580048"},{"name":"上藤沢","zip_code":"3580013"},{"name":"上谷ケ貫","zip_code":"3580042"},{"name":"河原町","zip_code":"3580008"},{"name":"久保稲荷","zip_code":"3580024"},{"name":"黒須","zip_code":"3580007"},{"name":"向陽台","zip_code":"3580001"},{"name":"駒形富士山","zip_code":"3580017"},{"name":"小谷田","zip_code":"3580026"},{"name":"狭山ケ原","zip_code":"3580032"},{"name":"狭山台","zip_code":"3580033"},{"name":"下藤沢","zip_code":"3580011"},{"name":"下谷ケ貫","zip_code":"3580041"},{"name":"新光","zip_code":"3580055"},{"name":"善蔵新田","zip_code":"3580025"},{"name":"高倉","zip_code":"3580021"},{"name":"高根","zip_code":"3580016"},{"name":"寺竹","zip_code":"3580045"},{"name":"豊岡","zip_code":"3580003"},{"name":"中神","zip_code":"3580035"},{"name":"西三ツ木","zip_code":"3580043"},{"name":"二本木","zip_code":"3580015"},{"name":"根岸","zip_code":"3580034"},{"name":"野田","zip_code":"3580054"},{"name":"花ノ木","zip_code":"3580036"},{"name":"東藤沢","zip_code":"3580012"},{"name":"仏子","zip_code":"3580053"},{"name":"三ツ木台","zip_code":"3580044"},{"name":"南峯","zip_code":"3580046"},{"name":"宮寺","zip_code":"3580014"},{"name":"宮前町","zip_code":"3580005"},{"name":"木蓮寺","zip_code":"3580047"},{"name":"森坂","zip_code":"3580052"}]},{"name":"朝霞市","divisions":[{"name":"青葉台","zip_code":"3510016"},{"name":"朝志ケ丘","zip_code":"3510035"},{"name":"岡","zip_code":"3510007"},{"name":"上内間木","zip_code":"3510001"},{"name":"北原","zip_code":"3510036"},{"name":"幸町","zip_code":"3510015"},{"name":"栄町","zip_code":"3510012"},{"name":"下内間木","zip_code":"3510002"},{"name":"泉水","zip_code":"3510024"},{"name":"台","zip_code":"3510003"},{"name":"田島","zip_code":"3510032"},{"name":"仲町","zip_code":"3510006"},{"name":"西原","zip_code":"3510034"},{"name":"西弁財","zip_code":"3510021"},{"name":"根岸","zip_code":"3510004"},{"name":"根岸台","zip_code":"3510005"},{"name":"浜崎","zip_code":"3510033"},{"name":"東弁財","zip_code":"3510022"},{"name":"膝折","zip_code":"3510013"},{"name":"膝折町","zip_code":"3510014"},{"name":"本町","zip_code":"3510011"},{"name":"溝沼","zip_code":"3510023"},{"name":"三原","zip_code":"3510025"},{"name":"宮戸","zip_code":"3510031"}]},{"name":"志木市","divisions":[{"name":"柏町","zip_code":"3530007"},{"name":"上宗岡","zip_code":"3530001"},{"name":"幸町","zip_code":"3530005"},{"name":"下宗岡","zip_code":"3530003"},{"name":"館","zip_code":"3530006"},{"name":"中宗岡","zip_code":"3530002"},{"name":"本町","zip_code":"3530004"},{"name":"宗岡","zip_code":"3530008"}]},{"name":"和光市","divisions":[{"name":"下新倉","zip_code":"3510111"},{"name":"白子","zip_code":"3510101"},{"name":"諏訪","zip_code":"3510102"},{"name":"諏訪原団地","zip_code":"3510103"},{"name":"中央","zip_code":"3510113"},{"name":"新倉","zip_code":"3510115"},{"name":"西大和団地","zip_code":"3510105"},{"name":"広沢","zip_code":"3510106"},{"name":"本町","zip_code":"3510114"},{"name":"松ノ木島町","zip_code":"3510116"},{"name":"丸山台","zip_code":"3510112"},{"name":"南","zip_code":"3510104"}]},{"name":"新座市","divisions":[{"name":"あたご","zip_code":"3520021"},{"name":"池田","zip_code":"3520015"},{"name":"石神","zip_code":"3520033"},{"name":"大和田","zip_code":"3520004"},{"name":"片山","zip_code":"3520025"},{"name":"北野","zip_code":"3520003"},{"name":"栗原","zip_code":"3520035"},{"name":"栄","zip_code":"3520014"},{"name":"新堀","zip_code":"3520032"},{"name":"菅沢","zip_code":"3520017"},{"name":"道場","zip_code":"3520024"},{"name":"東北","zip_code":"3520001"},{"name":"中野","zip_code":"3520005"},{"name":"新座","zip_code":"3520006"},{"name":"新塚","zip_code":"3520013"},{"name":"西堀","zip_code":"3520031"},{"name":"野寺","zip_code":"3520034"},{"name":"野火止","zip_code":"3520011"},{"name":"畑中","zip_code":"3520012"},{"name":"馬場","zip_code":"3520016"},{"name":"東","zip_code":"3520002"},{"name":"堀ノ内","zip_code":"3520023"},{"name":"本多","zip_code":"3520022"}]},{"name":"桶川市","divisions":[{"name":"赤堀","zip_code":"3630002"},{"name":"朝日","zip_code":"3630023"},{"name":"泉","zip_code":"3630021"},{"name":"加納","zip_code":"3630001"},{"name":"上日出谷","zip_code":"3630026"},{"name":"鴨川","zip_code":"3630024"},{"name":"川田谷","zip_code":"3630027"},{"name":"北","zip_code":"3630011"},{"name":"倉田","zip_code":"3630006"},{"name":"五丁台","zip_code":"3630004"},{"name":"寿","zip_code":"3630016"},{"name":"小針領家","zip_code":"3630007"},{"name":"坂田","zip_code":"3630008"},{"name":"坂田東","zip_code":"3630009"},{"name":"篠津","zip_code":"3630003"},{"name":"下日出谷","zip_code":"3630025"},{"name":"下日出谷西","zip_code":"3630028"},{"name":"神明","zip_code":"3630014"},{"name":"末広","zip_code":"3630012"},{"name":"舎人新田","zip_code":"3630005"},{"name":"西","zip_code":"3630017"},{"name":"東","zip_code":"3630013"},{"name":"南","zip_code":"3630015"},{"name":"若宮","zip_code":"3630022"}]},{"name":"久喜市","divisions":[{"name":"青毛","zip_code":"3460011"},{"name":"青葉","zip_code":"3460013"},{"name":"新井","zip_code":"3491115"},{"name":"伊坂","zip_code":"3491121"},{"name":"上内","zip_code":"3400211"},{"name":"江面","zip_code":"3460029"},{"name":"太田袋","zip_code":"3460023"},{"name":"上川崎","zip_code":"3400204"},{"name":"上清久","zip_code":"3460038"},{"name":"上早見","zip_code":"3460021"},{"name":"上町","zip_code":"3460006"},{"name":"河原井町","zip_code":"3460028"},{"name":"河原代","zip_code":"3491114"},{"name":"北青柳","zip_code":"3460024"},{"name":"北中曽根","zip_code":"3460036"},{"name":"北広島","zip_code":"3491111"},{"name":"狐塚","zip_code":"3491113"},{"name":"久本寺","zip_code":"3400212"},{"name":"清久町","zip_code":"3460035"},{"name":"久喜北","zip_code":"3460007"},{"name":"久喜新","zip_code":"3460032"},{"name":"久喜中央","zip_code":"3460003"},{"name":"久喜東","zip_code":"3460016"},{"name":"久喜本","zip_code":"3460031"},{"name":"葛梅","zip_code":"3400214"},{"name":"栗橋","zip_code":"3491104"},{"name":"栗橋北","zip_code":"3491101"},{"name":"栗橋中央","zip_code":"3491102"},{"name":"栗橋東","zip_code":"3491103"},{"name":"栗原","zip_code":"3460012"},{"name":"小右衛門","zip_code":"3491105"},{"name":"古久喜","zip_code":"3460001"},{"name":"栄","zip_code":"3400215"},{"name":"桜田","zip_code":"3400203"},{"name":"佐間","zip_code":"3491124"},{"name":"島川","zip_code":"3491116"},{"name":"下清久","zip_code":"3460033"},{"name":"下早見","zip_code":"3460022"},{"name":"菖蒲町小林","zip_code":"3460115"},{"name":"菖蒲町上大崎","zip_code":"3460111"},{"name":"菖蒲町上栢間","zip_code":"3460114"},{"name":"菖蒲町河原井","zip_code":"3460102"},{"name":"菖蒲町三箇","zip_code":"3460104"},{"name":"菖蒲町柴山枝郷","zip_code":"3460112"},{"name":"菖蒲町下栢間","zip_code":"3460113"},{"name":"菖蒲町菖蒲","zip_code":"3460106"},{"name":"菖蒲町昭和沼","zip_code":"3460101"},{"name":"菖蒲町台","zip_code":"3460103"},{"name":"菖蒲町新堀","zip_code":"3460105"},{"name":"砂原","zip_code":"3400218"},{"name":"外野","zip_code":"3400205"},{"name":"高柳","zip_code":"3491125"},{"name":"所久喜","zip_code":"3460034"},{"name":"中里","zip_code":"3491112"},{"name":"中妻","zip_code":"3400213"},{"name":"西","zip_code":"3460015"},{"name":"西大輪","zip_code":"3400206"},{"name":"野久喜","zip_code":"3460002"},{"name":"八甫","zip_code":"3400201"},{"name":"原","zip_code":"3460026"},{"name":"東大輪","zip_code":"3400202"},{"name":"樋ノ口","zip_code":"3460025"},{"name":"本町","zip_code":"3460005"},{"name":"間鎌","zip_code":"3491123"},{"name":"松永","zip_code":"3491122"},{"name":"緑","zip_code":"3491106"},{"name":"南","zip_code":"3460004"},{"name":"南栗橋","zip_code":"3491117"},{"name":"除堀","zip_code":"3460027"},{"name":"吉羽","zip_code":"3460014"},{"name":"六万部","zip_code":"3460037"},{"name":"鷲宮","zip_code":"3400217"},{"name":"鷲宮中央","zip_code":"3400216"}]},{"name":"北本市","divisions":[{"name":"朝日","zip_code":"3640011"},{"name":"東間","zip_code":"3640007"},{"name":"荒井","zip_code":"3640026"},{"name":"石戸","zip_code":"3640024"},{"name":"石戸宿","zip_code":"3640025"},{"name":"北中丸","zip_code":"3640012"},{"name":"北本","zip_code":"3640006"},{"name":"北本宿","zip_code":"3640021"},{"name":"栄","zip_code":"3640027"},{"name":"下石戸上","zip_code":"3640022"},{"name":"下石戸下","zip_code":"3640023"},{"name":"高尾","zip_code":"3640034"},{"name":"中央","zip_code":"3640031"},{"name":"中丸","zip_code":"3640013"},{"name":"西高尾","zip_code":"3640035"},{"name":"深井","zip_code":"3640001"},{"name":"二ツ家","zip_code":"3640014"},{"name":"古市場","zip_code":"3640003"},{"name":"本町","zip_code":"3640033"},{"name":"緑","zip_code":"3640032"},{"name":"宮内","zip_code":"3640002"},{"name":"本宿","zip_code":"3640005"},{"name":"山中","zip_code":"3640004"}]},{"name":"八潮市","divisions":[{"name":"伊草","zip_code":"3400806"},{"name":"伊勢野","zip_code":"3400821"},{"name":"浮塚","zip_code":"3400835"},{"name":"大瀬","zip_code":"3400822"},{"name":"大曽根","zip_code":"3400834"},{"name":"垳","zip_code":"3400824"},{"name":"上馬場","zip_code":"3400803"},{"name":"木曽根","zip_code":"3400813"},{"name":"小作田","zip_code":"3400804"},{"name":"古新田","zip_code":"3400823"},{"name":"新町","zip_code":"3400807"},{"name":"大原","zip_code":"3400825"},{"name":"中央","zip_code":"3400816"},{"name":"鶴ケ曽根","zip_code":"3400802"},{"name":"中馬場","zip_code":"3400812"},{"name":"西袋","zip_code":"3400833"},{"name":"二丁目","zip_code":"3400811"},{"name":"八條","zip_code":"3400801"},{"name":"松之木","zip_code":"3400805"},{"name":"緑町","zip_code":"3400808"},{"name":"南後谷","zip_code":"3400831"},{"name":"南川崎","zip_code":"3400814"},{"name":"八潮","zip_code":"3400815"},{"name":"柳之宮","zip_code":"3400832"}]},{"name":"富士見市","divisions":[{"name":"榎町","zip_code":"3540016"},{"name":"貝塚","zip_code":"3540012"},{"name":"勝瀬","zip_code":"3540031"},{"name":"上沢","zip_code":"3540034"},{"name":"上南畑","zip_code":"3540002"},{"name":"下南畑","zip_code":"3540004"},{"name":"諏訪","zip_code":"3540023"},{"name":"関沢","zip_code":"3540025"},{"name":"鶴瀬東","zip_code":"3540024"},{"name":"鶴瀬西","zip_code":"3540026"},{"name":"鶴馬","zip_code":"3540021"},{"name":"南畑新田","zip_code":"3540003"},{"name":"西みずほ台","zip_code":"3540018"},{"name":"羽沢","zip_code":"3540033"},{"name":"針ケ谷","zip_code":"3540017"},{"name":"東大久保","zip_code":"3540001"},{"name":"東みずほ台","zip_code":"3540015"},{"name":"ふじみ野西","zip_code":"3540035"},{"name":"ふじみ野東","zip_code":"3540036"},{"name":"水子","zip_code":"3540011"},{"name":"水谷","zip_code":"3540014"},{"name":"水谷東","zip_code":"3540013"},{"name":"みどり野東","zip_code":"3540006"},{"name":"みどり野西","zip_code":"3540008"},{"name":"みどり野南","zip_code":"3540007"},{"name":"みどり野北","zip_code":"3540005"},{"name":"山室","zip_code":"3540022"},{"name":"渡戸","zip_code":"3540032"}]},{"name":"三郷市","divisions":[{"name":"東町","zip_code":"3410036"},{"name":"泉","zip_code":"3410054"},{"name":"市助","zip_code":"3410033"},{"name":"岩野木","zip_code":"3410031"},{"name":"後谷","zip_code":"3410014"},{"name":"采女","zip_code":"3410011"},{"name":"大広戸","zip_code":"3410022"},{"name":"鎌倉","zip_code":"3410046"},{"name":"上口","zip_code":"3410055"},{"name":"上彦川戸","zip_code":"3410006"},{"name":"上彦名","zip_code":"3410004"},{"name":"幸房","zip_code":"3410026"},{"name":"駒形","zip_code":"3410008"},{"name":"小谷堀","zip_code":"3410013"},{"name":"栄","zip_code":"3410043"},{"name":"笹塚","zip_code":"3410027"},{"name":"さつき平","zip_code":"3410021"},{"name":"下彦川戸","zip_code":"3410007"},{"name":"新三郷ららシティ","zip_code":"3410009"},{"name":"新和","zip_code":"3410034"},{"name":"前間","zip_code":"3410015"},{"name":"高州","zip_code":"3410037"},{"name":"鷹野","zip_code":"3410035"},{"name":"田中新田","zip_code":"3410016"},{"name":"丹後","zip_code":"3410017"},{"name":"天神","zip_code":"3410051"},{"name":"戸ケ崎","zip_code":"3410044"},{"name":"仁蔵","zip_code":"3410023"},{"name":"花和田","zip_code":"3410041"},{"name":"番匠免","zip_code":"3410056"},{"name":"半田","zip_code":"3410012"},{"name":"彦糸","zip_code":"3410001"},{"name":"彦江","zip_code":"3410058"},{"name":"彦音","zip_code":"3410002"},{"name":"彦川戸","zip_code":"3410005"},{"name":"彦倉","zip_code":"3410053"},{"name":"彦沢","zip_code":"3410057"},{"name":"彦成","zip_code":"3410003"},{"name":"彦野","zip_code":"3410052"},{"name":"三郷","zip_code":"3410024"},{"name":"南蓮沼","zip_code":"3410028"},{"name":"茂田井","zip_code":"3410025"},{"name":"谷口","zip_code":"3410042"},{"name":"谷中","zip_code":"3410032"},{"name":"寄巻","zip_code":"3410045"},{"name":"早稲田","zip_code":"3410018"}]},{"name":"蓮田市","divisions":[{"name":"綾瀬","zip_code":"3490126"},{"name":"井沼","zip_code":"3490135"},{"name":"閏戸","zip_code":"3490133"},{"name":"江ケ崎","zip_code":"3490102"},{"name":"御前橋","zip_code":"3490125"},{"name":"貝塚","zip_code":"3490132"},{"name":"上","zip_code":"3490122"},{"name":"上平野","zip_code":"3490136"},{"name":"川島","zip_code":"3490112"},{"name":"黒浜","zip_code":"3490101"},{"name":"駒崎","zip_code":"3490134"},{"name":"桜台","zip_code":"3490113"},{"name":"笹山","zip_code":"3490103"},{"name":"城","zip_code":"3490143"},{"name":"末広","zip_code":"3490124"},{"name":"関山","zip_code":"3490121"},{"name":"高虫","zip_code":"3490137"},{"name":"椿山","zip_code":"3490144"},{"name":"西新宿","zip_code":"3490141"},{"name":"西城","zip_code":"3490145"},{"name":"根金","zip_code":"3490131"},{"name":"蓮田","zip_code":"3490115"},{"name":"東","zip_code":"3490111"},{"name":"本町","zip_code":"3490123"},{"name":"馬込","zip_code":"3490114"},{"name":"緑町","zip_code":"3490104"},{"name":"南新宿","zip_code":"3490142"},{"name":"見沼町","zip_code":"3490127"},{"name":"山ノ内","zip_code":"3490128"}]},{"name":"坂戸市","divisions":[{"name":"粟生田","zip_code":"3500239"},{"name":"青木","zip_code":"3500207"},{"name":"赤尾","zip_code":"3500201"},{"name":"浅羽","zip_code":"3500238"},{"name":"浅羽野","zip_code":"3500237"},{"name":"芦山町","zip_code":"3500273"},{"name":"厚川","zip_code":"3500242"},{"name":"石井","zip_code":"3500212"},{"name":"伊豆の山町","zip_code":"3500275"},{"name":"泉町","zip_code":"3500231"},{"name":"今西","zip_code":"3500267"},{"name":"欠ノ上","zip_code":"3500254"},{"name":"片柳","zip_code":"3500219"},{"name":"片柳新田","zip_code":"3500218"},{"name":"金田","zip_code":"3500268"},{"name":"鎌倉町","zip_code":"3500221"},{"name":"上吉田","zip_code":"3500271"},{"name":"萱方","zip_code":"3500243"},{"name":"北浅羽","zip_code":"3500266"},{"name":"北大塚","zip_code":"3500253"},{"name":"北峰","zip_code":"3500258"},{"name":"けやき台","zip_code":"3500248"},{"name":"紺屋","zip_code":"3500204"},{"name":"小沼","zip_code":"3500202"},{"name":"小山","zip_code":"3500257"},{"name":"栄","zip_code":"3500213"},{"name":"坂戸","zip_code":"3500217"},{"name":"沢木","zip_code":"3500261"},{"name":"三光町","zip_code":"3500235"},{"name":"島田","zip_code":"3500211"},{"name":"清水町","zip_code":"3500222"},{"name":"成願寺","zip_code":"3500255"},{"name":"新ケ谷","zip_code":"3500278"},{"name":"末広町","zip_code":"3500272"},{"name":"関間","zip_code":"3500215"},{"name":"善能寺","zip_code":"3500256"},{"name":"竹之内","zip_code":"3500264"},{"name":"多和目","zip_code":"3500246"},{"name":"千代田","zip_code":"3500214"},{"name":"塚越","zip_code":"3500209"},{"name":"塚崎","zip_code":"3500251"},{"name":"鶴舞","zip_code":"3500241"},{"name":"戸口","zip_code":"3500276"},{"name":"戸宮","zip_code":"3500208"},{"name":"中小坂","zip_code":"3500206"},{"name":"中里","zip_code":"3500252"},{"name":"仲町","zip_code":"3500227"},{"name":"中富町","zip_code":"3500232"},{"name":"長岡","zip_code":"3500265"},{"name":"新堀","zip_code":"3500262"},{"name":"西坂戸","zip_code":"3500247"},{"name":"にっさい花みず木","zip_code":"3500269"},{"name":"花影町","zip_code":"3500236"},{"name":"東坂戸","zip_code":"3500205"},{"name":"東和田","zip_code":"3500277"},{"name":"日の出町","zip_code":"3500225"},{"name":"堀込","zip_code":"3500263"},{"name":"本町","zip_code":"3500226"},{"name":"溝端町","zip_code":"3500274"},{"name":"緑町","zip_code":"3500234"},{"name":"南町","zip_code":"3500233"},{"name":"元町","zip_code":"3500228"},{"name":"森戸","zip_code":"3500244"},{"name":"薬師町","zip_code":"3500229"},{"name":"柳町","zip_code":"3500216"},{"name":"八幡","zip_code":"3500223"},{"name":"山田町","zip_code":"3500224"},{"name":"横沼","zip_code":"3500203"},{"name":"四日市場","zip_code":"3500245"}]},{"name":"幸手市","divisions":[{"name":"内国府間","zip_code":"3400103"},{"name":"円藤内","zip_code":"3400104"},{"name":"香日向","zip_code":"3400164"},{"name":"上宇和田","zip_code":"3400124"},{"name":"神扇","zip_code":"3400146"},{"name":"上高野","zip_code":"3400155"},{"name":"上吉羽","zip_code":"3400121"},{"name":"北","zip_code":"3400111"},{"name":"木立","zip_code":"3400123"},{"name":"権現堂","zip_code":"3400112"},{"name":"栄","zip_code":"3400154"},{"name":"幸手","zip_code":"3400113"},{"name":"下宇和田","zip_code":"3400125"},{"name":"下川崎","zip_code":"3400162"},{"name":"下吉羽","zip_code":"3400126"},{"name":"神明内","zip_code":"3400122"},{"name":"惣新田","zip_code":"3400133"},{"name":"外国府間","zip_code":"3400101"},{"name":"高須賀","zip_code":"3400102"},{"name":"千塚","zip_code":"3400161"},{"name":"天神島","zip_code":"3400152"},{"name":"戸島","zip_code":"3400144"},{"name":"中","zip_code":"3400115"},{"name":"中川崎","zip_code":"3400163"},{"name":"中島","zip_code":"3400132"},{"name":"中野","zip_code":"3400142"},{"name":"長間","zip_code":"3400143"},{"name":"西","zip_code":"3400116"},{"name":"西関宿","zip_code":"3400131"},{"name":"花島","zip_code":"3400134"},{"name":"東","zip_code":"3400114"},{"name":"平須賀","zip_code":"3400145"},{"name":"平野","zip_code":"3400141"},{"name":"細野","zip_code":"3400136"},{"name":"槇野地","zip_code":"3400135"},{"name":"松石","zip_code":"3400105"},{"name":"緑台","zip_code":"3400151"},{"name":"南","zip_code":"3400156"},{"name":"吉野","zip_code":"3400153"}]},{"name":"鶴ヶ島市","divisions":[{"name":"太田ヶ谷","zip_code":"3502214"},{"name":"上新田","zip_code":"3502225"},{"name":"上広谷","zip_code":"3502203"},{"name":"共栄町","zip_code":"3502212"},{"name":"五味ヶ谷","zip_code":"3502202"},{"name":"下新田","zip_code":"3502222"},{"name":"新町","zip_code":"3502227"},{"name":"脚折","zip_code":"3502213"},{"name":"脚折町","zip_code":"3502211"},{"name":"高倉","zip_code":"3502223"},{"name":"鶴ヶ丘","zip_code":"3502204"},{"name":"中新田","zip_code":"3502226"},{"name":"羽折町","zip_code":"3502221"},{"name":"藤金","zip_code":"3502206"},{"name":"富士見","zip_code":"3502201"},{"name":"町屋","zip_code":"3502224"},{"name":"松ヶ丘","zip_code":"3502205"},{"name":"三ツ木","zip_code":"3502217"},{"name":"三ツ木新田","zip_code":"3502216"},{"name":"三ツ木新町","zip_code":"3502219"},{"name":"南町","zip_code":"3502215"},{"name":"柳戸町","zip_code":"3502218"}]},{"name":"日高市","divisions":[{"name":"旭ケ丘","zip_code":"3501203"},{"name":"馬引沢","zip_code":"3501225"},{"name":"梅原","zip_code":"3501246"},{"name":"大谷沢","zip_code":"3501222"},{"name":"女影","zip_code":"3501227"},{"name":"女影新田","zip_code":"3501214"},{"name":"上鹿山","zip_code":"3501234"},{"name":"鹿山","zip_code":"3501231"},{"name":"北平沢","zip_code":"3501242"},{"name":"久保","zip_code":"3501254"},{"name":"栗坪","zip_code":"3501245"},{"name":"高麗川","zip_code":"3501249"},{"name":"駒寺野新田","zip_code":"3501202"},{"name":"高麗本郷","zip_code":"3501251"},{"name":"四本木","zip_code":"3501248"},{"name":"下大谷沢","zip_code":"3501221"},{"name":"下鹿山","zip_code":"3501233"},{"name":"下高萩新田","zip_code":"3501212"},{"name":"清流","zip_code":"3501252"},{"name":"台","zip_code":"3501253"},{"name":"高岡","zip_code":"3501247"},{"name":"高富","zip_code":"3501223"},{"name":"高萩","zip_code":"3501213"},{"name":"高萩東","zip_code":"3501215"},{"name":"田木","zip_code":"3501224"},{"name":"田波目","zip_code":"3501201"},{"name":"中鹿山","zip_code":"3501232"},{"name":"中沢","zip_code":"3501226"},{"name":"新堀","zip_code":"3501243"},{"name":"新堀新田","zip_code":"3501204"},{"name":"楡木","zip_code":"3501235"},{"name":"野々宮","zip_code":"3501244"},{"name":"原宿","zip_code":"3501205"},{"name":"南平沢","zip_code":"3501206"},{"name":"武蔵台","zip_code":"3501255"},{"name":"森戸新田","zip_code":"3501211"},{"name":"猿田","zip_code":"3501236"},{"name":"猿田上ノ台","zip_code":"3501237"},{"name":"山根","zip_code":"3501241"},{"name":"横手","zip_code":"3501257"}]},{"name":"吉川市","divisions":[{"name":"会野谷","zip_code":"3420016"},{"name":"旭","zip_code":"3420008"},{"name":"飯島","zip_code":"3420025"},{"name":"加藤","zip_code":"3420022"},{"name":"上内川","zip_code":"3420001"},{"name":"上笹塚","zip_code":"3420017"},{"name":"川富","zip_code":"3420052"},{"name":"川野","zip_code":"3420051"},{"name":"川藤","zip_code":"3420005"},{"name":"木売","zip_code":"3420045"},{"name":"木売新田","zip_code":"3420044"},{"name":"共保","zip_code":"3420046"},{"name":"きよみ野","zip_code":"3420058"},{"name":"小松川","zip_code":"3420043"},{"name":"栄町","zip_code":"3420050"},{"name":"皿沼","zip_code":"3420023"},{"name":"鹿見塚","zip_code":"3420021"},{"name":"下内川","zip_code":"3420002"},{"name":"拾壱軒","zip_code":"3420007"},{"name":"新栄","zip_code":"3420059"},{"name":"須賀","zip_code":"3420057"},{"name":"関","zip_code":"3420053"},{"name":"関新田","zip_code":"3420014"},{"name":"高富","zip_code":"3420036"},{"name":"高久","zip_code":"3420035"},{"name":"道庭","zip_code":"3420034"},{"name":"土場","zip_code":"3420026"},{"name":"富新田","zip_code":"3420037"},{"name":"中井","zip_code":"3420015"},{"name":"中川台","zip_code":"3420047"},{"name":"中島","zip_code":"3420031"},{"name":"中曽根","zip_code":"3420033"},{"name":"中野","zip_code":"3420042"},{"name":"鍋小路","zip_code":"3420004"},{"name":"八子新田","zip_code":"3420003"},{"name":"半割","zip_code":"3420024"},{"name":"平方新田","zip_code":"3420012"},{"name":"平沼","zip_code":"3420056"},{"name":"深井新田","zip_code":"3420011"},{"name":"二ツ沼","zip_code":"3420032"},{"name":"保","zip_code":"3420041"},{"name":"美南","zip_code":"3420038"},{"name":"南広島","zip_code":"3420006"},{"name":"三輪野江","zip_code":"3420027"},{"name":"吉川","zip_code":"3420055"},{"name":"吉川団地","zip_code":"3420054"},{"name":"吉屋","zip_code":"3420013"}]},{"name":"ふじみ野市","divisions":[{"name":"旭","zip_code":"3560055"},{"name":"池上","zip_code":"3560019"},{"name":"市沢","zip_code":"3560057"},{"name":"上野台","zip_code":"3560017"},{"name":"上ノ原","zip_code":"3560021"},{"name":"うれし野","zip_code":"3560056"},{"name":"大井","zip_code":"3560053"},{"name":"大井中央","zip_code":"3560058"},{"name":"大井武蔵野","zip_code":"3560054"},{"name":"大原","zip_code":"3560003"},{"name":"霞ケ丘","zip_code":"3560006"},{"name":"上福岡","zip_code":"3560004"},{"name":"亀久保","zip_code":"3560051"},{"name":"川崎","zip_code":"3560001"},{"name":"北野","zip_code":"3560007"},{"name":"清見","zip_code":"3560002"},{"name":"駒西","zip_code":"3560029"},{"name":"駒林","zip_code":"3560034"},{"name":"駒林元町","zip_code":"3560038"},{"name":"桜ケ丘","zip_code":"3560059"},{"name":"新駒林","zip_code":"3560030"},{"name":"新田","zip_code":"3560033"},{"name":"水宮","zip_code":"3560020"},{"name":"滝","zip_code":"3560012"},{"name":"築地","zip_code":"3560026"},{"name":"鶴ケ岡","zip_code":"3560045"},{"name":"鶴ケ舞","zip_code":"3560041"},{"name":"苗間","zip_code":"3560052"},{"name":"仲","zip_code":"3560025"},{"name":"中ノ島","zip_code":"3560023"},{"name":"中福岡","zip_code":"3560013"},{"name":"中丸","zip_code":"3560016"},{"name":"長宮","zip_code":"3560022"},{"name":"西","zip_code":"3560005"},{"name":"西鶴ケ岡","zip_code":"3560044"},{"name":"西原","zip_code":"3560028"},{"name":"花ノ木","zip_code":"3560015"},{"name":"東久保","zip_code":"3560042"},{"name":"福岡","zip_code":"3560011"},{"name":"福岡新田","zip_code":"3560014"},{"name":"福岡中央","zip_code":"3560031"},{"name":"福岡武蔵野","zip_code":"3560037"},{"name":"富士見台","zip_code":"3560032"},{"name":"ふじみ野","zip_code":"3560050"},{"name":"松山","zip_code":"3560027"},{"name":"丸山","zip_code":"3560035"},{"name":"緑ケ丘","zip_code":"3560043"},{"name":"南台","zip_code":"3560036"},{"name":"本新田","zip_code":"3560018"},{"name":"元福岡","zip_code":"3560008"},{"name":"谷田","zip_code":"3560024"}]},{"name":"白岡市","divisions":[{"name":"荒井新田","zip_code":"3490202"},{"name":"太田新井","zip_code":"3490225"},{"name":"岡泉","zip_code":"3490226"},{"name":"上野田","zip_code":"3490221"},{"name":"小久喜","zip_code":"3490217"},{"name":"実ケ谷","zip_code":"3490216"},{"name":"篠津","zip_code":"3490204"},{"name":"柴山","zip_code":"3490201"},{"name":"下大崎","zip_code":"3490203"},{"name":"下野田","zip_code":"3490223"},{"name":"白岡","zip_code":"3490218"},{"name":"白岡東","zip_code":"3490219"},{"name":"新白岡","zip_code":"3490212"},{"name":"千駄野","zip_code":"3490215"},{"name":"高岩","zip_code":"3490213"},{"name":"爪田ケ谷","zip_code":"3490222"},{"name":"寺塚","zip_code":"3490214"},{"name":"西","zip_code":"3490205"},{"name":"彦兵衛","zip_code":"3490224"},{"name":"野牛","zip_code":"3490211"}]},{"name":"北足立郡伊奈町","divisions":[{"name":"内宿台","zip_code":"3620812"},{"name":"大針","zip_code":"3620803"},{"name":"学園","zip_code":"3620813"},{"name":"寿","zip_code":"3620807"},{"name":"小針内宿","zip_code":"3620801"},{"name":"小針新宿","zip_code":"3620808"},{"name":"小室","zip_code":"3620806"},{"name":"栄","zip_code":"3620805"},{"name":"西小針","zip_code":"3620811"},{"name":"羽貫","zip_code":"3620802"},{"name":"本町","zip_code":"3620804"}]},{"name":"入間郡三芳町","divisions":[{"name":"上富","zip_code":"3540045"},{"name":"北永井","zip_code":"3540044"},{"name":"竹間沢","zip_code":"3540043"},{"name":"竹間沢東","zip_code":"3540046"},{"name":"藤久保","zip_code":"3540041"},{"name":"みよし台","zip_code":"3540042"}]},{"name":"入間郡毛呂山町","divisions":[{"name":"旭台","zip_code":"3500444"},{"name":"阿諏訪","zip_code":"3500455"},{"name":"市場","zip_code":"3500434"},{"name":"岩井","zip_code":"3500441"},{"name":"岩井西","zip_code":"3500465"},{"name":"岩井東","zip_code":"3500467"},{"name":"大谷木","zip_code":"3500452"},{"name":"大類","zip_code":"3500432"},{"name":"川角","zip_code":"3500436"},{"name":"小田谷","zip_code":"3500446"},{"name":"権現堂","zip_code":"3500454"},{"name":"西戸","zip_code":"3500438"},{"name":"下川原","zip_code":"3500435"},{"name":"宿谷","zip_code":"3500453"},{"name":"滝ノ入","zip_code":"3500456"},{"name":"中央","zip_code":"3500461"},{"name":"葛貫","zip_code":"3500445"},{"name":"長瀬","zip_code":"3500443"},{"name":"苦林","zip_code":"3500431"},{"name":"西大久保","zip_code":"3500433"},{"name":"平山","zip_code":"3500466"},{"name":"前久保","zip_code":"3500442"},{"name":"前久保南","zip_code":"3500463"},{"name":"南台","zip_code":"3500464"},{"name":"箕和田","zip_code":"3500437"},{"name":"目白台","zip_code":"3500439"},{"name":"毛呂本郷","zip_code":"3500451"},{"name":"若山","zip_code":"3500462"}]},{"name":"入間郡越生町","divisions":[{"name":"上野","zip_code":"3500415"},{"name":"上野東","zip_code":"3500417"},{"name":"大谷","zip_code":"3500403"},{"name":"越生","zip_code":"3500416"},{"name":"越生東","zip_code":"3500414"},{"name":"鹿下","zip_code":"3500402"},{"name":"上谷","zip_code":"3500407"},{"name":"黒岩","zip_code":"3500411"},{"name":"黒山","zip_code":"3500424"},{"name":"小杉","zip_code":"3500422"},{"name":"大満","zip_code":"3500423"},{"name":"龍ケ谷","zip_code":"3500425"},{"name":"津久根","zip_code":"3500405"},{"name":"堂山","zip_code":"3500406"},{"name":"成瀬","zip_code":"3500404"},{"name":"西和田","zip_code":"3500412"},{"name":"如意","zip_code":"3500413"},{"name":"古池","zip_code":"3500401"},{"name":"麦原","zip_code":"3500421"}]},{"name":"比企郡滑川町","divisions":[{"name":"伊古","zip_code":"3550806"},{"name":"和泉","zip_code":"3550807"},{"name":"菅田","zip_code":"3550808"},{"name":"月輪","zip_code":"3550813"},{"name":"月の輪","zip_code":"3550815"},{"name":"土塩","zip_code":"3550801"},{"name":"中尾","zip_code":"3550804"},{"name":"羽尾","zip_code":"3550811"},{"name":"福田","zip_code":"3550803"},{"name":"水房","zip_code":"3550805"},{"name":"みなみ野","zip_code":"3550814"},{"name":"都","zip_code":"3550812"},{"name":"山田","zip_code":"3550802"}]},{"name":"比企郡嵐山町","divisions":[{"name":"大蔵","zip_code":"3550222"},{"name":"越畑","zip_code":"3550206"},{"name":"勝田","zip_code":"3550203"},{"name":"鎌形","zip_code":"3550225"},{"name":"川島","zip_code":"3550213"},{"name":"志賀","zip_code":"3550214"},{"name":"将軍沢","zip_code":"3550224"},{"name":"菅谷","zip_code":"3550221"},{"name":"杉山","zip_code":"3550211"},{"name":"千手堂","zip_code":"3550227"},{"name":"太郎丸","zip_code":"3550212"},{"name":"遠山","zip_code":"3550226"},{"name":"根岸","zip_code":"3550223"},{"name":"花見台","zip_code":"3550204"},{"name":"平沢","zip_code":"3550215"},{"name":"広野","zip_code":"3550205"},{"name":"古里","zip_code":"3550201"},{"name":"むさし台","zip_code":"3550216"},{"name":"吉田","zip_code":"3550202"}]},{"name":"比企郡小川町","divisions":[{"name":"青山","zip_code":"3550324"},{"name":"飯田","zip_code":"3550333"},{"name":"伊勢根","zip_code":"3550304"},{"name":"大塚","zip_code":"3550328"},{"name":"小川","zip_code":"3550321"},{"name":"角山","zip_code":"3550316"},{"name":"笠原","zip_code":"3550334"},{"name":"上古寺","zip_code":"3550325"},{"name":"上横田","zip_code":"3550312"},{"name":"木部","zip_code":"3550335"},{"name":"木呂子","zip_code":"3550337"},{"name":"高谷","zip_code":"3550311"},{"name":"腰越","zip_code":"3550327"},{"name":"下里","zip_code":"3550323"},{"name":"下古寺","zip_code":"3550326"},{"name":"下横田","zip_code":"3550313"},{"name":"勝呂","zip_code":"3550336"},{"name":"鷹巣","zip_code":"3550302"},{"name":"高見","zip_code":"3550306"},{"name":"中爪","zip_code":"3550314"},{"name":"奈良梨","zip_code":"3550303"},{"name":"西古里","zip_code":"3550301"},{"name":"能増","zip_code":"3550305"},{"name":"原川","zip_code":"3550317"},{"name":"東小川","zip_code":"3550322"},{"name":"ひばり台","zip_code":"3550318"},{"name":"増尾","zip_code":"3550332"},{"name":"みどりが丘","zip_code":"3550315"},{"name":"靱負","zip_code":"3550331"}]},{"name":"比企郡川島町","divisions":[{"name":"飯島","zip_code":"3500153"},{"name":"伊草","zip_code":"3500158"},{"name":"一本木","zip_code":"3500115"},{"name":"牛ケ谷戸","zip_code":"3500127"},{"name":"梅ノ木","zip_code":"3500101"},{"name":"小見野","zip_code":"3500105"},{"name":"表","zip_code":"3500133"},{"name":"角泉","zip_code":"3500156"},{"name":"加胡","zip_code":"3500107"},{"name":"上伊草","zip_code":"3500152"},{"name":"上大屋敷","zip_code":"3500142"},{"name":"上小見野","zip_code":"3500106"},{"name":"上狢","zip_code":"3500136"},{"name":"上八ツ林","zip_code":"3500121"},{"name":"かわじま","zip_code":"3500168"},{"name":"北園部","zip_code":"3500163"},{"name":"釘無","zip_code":"3500155"},{"name":"紫竹","zip_code":"3500132"},{"name":"芝沼","zip_code":"3500104"},{"name":"下伊草","zip_code":"3500157"},{"name":"下大屋敷","zip_code":"3500144"},{"name":"下小見野","zip_code":"3500102"},{"name":"下狢","zip_code":"3500135"},{"name":"下八ツ林","zip_code":"3500122"},{"name":"正直","zip_code":"3500162"},{"name":"白井沼","zip_code":"3500128"},{"name":"出丸下郷","zip_code":"3500141"},{"name":"出丸中郷","zip_code":"3500143"},{"name":"出丸本","zip_code":"3500145"},{"name":"東部","zip_code":"3500113"},{"name":"鳥羽井","zip_code":"3500117"},{"name":"鳥羽井新田","zip_code":"3500112"},{"name":"戸守","zip_code":"3500166"},{"name":"中山","zip_code":"3500165"},{"name":"長楽","zip_code":"3500161"},{"name":"新堀","zip_code":"3500134"},{"name":"西谷","zip_code":"3500147"},{"name":"畑中","zip_code":"3500123"},{"name":"八幡","zip_code":"3500151"},{"name":"東大塚","zip_code":"3500114"},{"name":"東野","zip_code":"3500125"},{"name":"平沼","zip_code":"3500131"},{"name":"吹塚","zip_code":"3500164"},{"name":"曲師","zip_code":"3500146"},{"name":"松永","zip_code":"3500103"},{"name":"南園部","zip_code":"3500167"},{"name":"三保谷宿","zip_code":"3500124"},{"name":"宮前","zip_code":"3500137"},{"name":"虫塚","zip_code":"3500116"},{"name":"安塚","zip_code":"3500154"},{"name":"谷中","zip_code":"3500111"},{"name":"山ケ谷戸","zip_code":"3500126"},{"name":"吉原","zip_code":"3500138"}]},{"name":"比企郡吉見町","divisions":[{"name":"荒子","zip_code":"3550131"},{"name":"飯島新田","zip_code":"3550132"},{"name":"今泉","zip_code":"3550103"},{"name":"江綱","zip_code":"3550136"},{"name":"江和井","zip_code":"3550133"},{"name":"大串","zip_code":"3550134"},{"name":"大和田","zip_code":"3550127"},{"name":"蚊斗谷","zip_code":"3550125"},{"name":"上銀谷","zip_code":"3550115"},{"name":"上砂","zip_code":"3550105"},{"name":"上細谷","zip_code":"3550165"},{"name":"北下砂","zip_code":"3550111"},{"name":"北吉見","zip_code":"3550155"},{"name":"久保田","zip_code":"3550137"},{"name":"久保田新田","zip_code":"3550124"},{"name":"久米田","zip_code":"3550153"},{"name":"黒岩","zip_code":"3550166"},{"name":"小新井","zip_code":"3550164"},{"name":"御所","zip_code":"3550151"},{"name":"古名","zip_code":"3550114"},{"name":"古名新田","zip_code":"3550113"},{"name":"地頭方","zip_code":"3550104"},{"name":"下銀谷","zip_code":"3550116"},{"name":"下細谷","zip_code":"3550118"},{"name":"須ノ子新田","zip_code":"3550123"},{"name":"高尾新田","zip_code":"3550122"},{"name":"田甲","zip_code":"3550167"},{"name":"中新井","zip_code":"3550119"},{"name":"中曽根","zip_code":"3550106"},{"name":"長谷","zip_code":"3550156"},{"name":"西吉見","zip_code":"3550157"},{"name":"蓮沼新田","zip_code":"3550121"},{"name":"東野","zip_code":"3550110"},{"name":"一ツ木","zip_code":"3550101"},{"name":"本沢","zip_code":"3550163"},{"name":"前河内","zip_code":"3550135"},{"name":"松崎","zip_code":"3550162"},{"name":"丸貫","zip_code":"3550112"},{"name":"万光寺","zip_code":"3550126"},{"name":"南吉見","zip_code":"3550154"},{"name":"明秋","zip_code":"3550102"},{"name":"谷口","zip_code":"3550117"},{"name":"山ノ下","zip_code":"3550161"},{"name":"和名","zip_code":"3550152"}]},{"name":"比企郡鳩山町","divisions":[{"name":"赤沼","zip_code":"3500321"},{"name":"石坂","zip_code":"3500311"},{"name":"泉井","zip_code":"3500305"},{"name":"今宿","zip_code":"3500322"},{"name":"大橋","zip_code":"3500302"},{"name":"奥田","zip_code":"3500301"},{"name":"楓ケ丘","zip_code":"3500314"},{"name":"熊井","zip_code":"3500303"},{"name":"小用","zip_code":"3500323"},{"name":"須江","zip_code":"3500307"},{"name":"高野倉","zip_code":"3500304"},{"name":"竹本","zip_code":"3500306"},{"name":"鳩ケ丘","zip_code":"3500312"},{"name":"松ケ丘","zip_code":"3500313"},{"name":"大豆戸","zip_code":"3500324"}]},{"name":"比企郡ときがわ町","divisions":[{"name":"大附","zip_code":"3550363"},{"name":"大野","zip_code":"3550366"},{"name":"椚平","zip_code":"3550365"},{"name":"雲河原","zip_code":"3550351"},{"name":"五明","zip_code":"3550343"},{"name":"関堀","zip_code":"3550356"},{"name":"瀬戸元上","zip_code":"3550358"},{"name":"瀬戸元下","zip_code":"3550359"},{"name":"田黒","zip_code":"3550341"},{"name":"田中","zip_code":"3550357"},{"name":"玉川","zip_code":"3550342"},{"name":"西平","zip_code":"3550364"},{"name":"番匠","zip_code":"3550354"},{"name":"馬場","zip_code":"3550355"},{"name":"日影","zip_code":"3550344"},{"name":"別所","zip_code":"3550352"},{"name":"本郷","zip_code":"3550353"},{"name":"桃木","zip_code":"3550361"}]},{"name":"秩父郡横瀬町","divisions":[{"name":"芦ケ久保","zip_code":"3680071"},{"name":"横瀬","zip_code":"3680072"}]},{"name":"秩父郡皆野町","divisions":[{"name":"大淵","zip_code":"3691623"},{"name":"金崎","zip_code":"3691621"},{"name":"金沢","zip_code":"3691601"},{"name":"上日野沢","zip_code":"3691626"},{"name":"国神","zip_code":"3691622"},{"name":"下田野","zip_code":"3691413"},{"name":"下日野沢","zip_code":"3691625"},{"name":"野巻","zip_code":"3691624"},{"name":"三沢","zip_code":"3691411"},{"name":"皆野","zip_code":"3691412"}]},{"name":"秩父郡長瀞町","divisions":[{"name":"井戸","zip_code":"3691312"},{"name":"岩田","zip_code":"3691311"},{"name":"中野上","zip_code":"3691303"},{"name":"長瀞","zip_code":"3691305"},{"name":"野上下郷","zip_code":"3691302"},{"name":"風布","zip_code":"3691313"},{"name":"本野上","zip_code":"3691304"},{"name":"矢那瀬","zip_code":"3691301"}]},{"name":"秩父郡小鹿野町","divisions":[{"name":"飯田","zip_code":"3680111"},{"name":"伊豆沢","zip_code":"3680104"},{"name":"小鹿野","zip_code":"3680105"},{"name":"河原沢","zip_code":"3680113"},{"name":"三山","zip_code":"3680112"},{"name":"下小鹿野","zip_code":"3680101"},{"name":"長留","zip_code":"3680102"},{"name":"般若","zip_code":"3680103"},{"name":"日尾","zip_code":"3680115"},{"name":"藤倉","zip_code":"3680114"},{"name":"両神小森","zip_code":"3680202"},{"name":"両神薄","zip_code":"3680201"}]},{"name":"秩父郡東秩父村","divisions":[{"name":"大内沢","zip_code":"3550371"},{"name":"奥沢","zip_code":"3550373"},{"name":"皆谷","zip_code":"3550376"},{"name":"坂本","zip_code":"3550372"},{"name":"白石","zip_code":"3550377"},{"name":"御堂","zip_code":"3550375"},{"name":"安戸","zip_code":"3550374"}]},{"name":"児玉郡美里町","divisions":[{"name":"阿那志","zip_code":"3670103"},{"name":"甘粕","zip_code":"3670113"},{"name":"猪俣","zip_code":"3670115"},{"name":"北十条","zip_code":"3670107"},{"name":"木部","zip_code":"3670112"},{"name":"駒衣","zip_code":"3670119"},{"name":"小茂田","zip_code":"3670101"},{"name":"下児玉","zip_code":"3670108"},{"name":"白石","zip_code":"3670117"},{"name":"関","zip_code":"3670102"},{"name":"円良田","zip_code":"3670116"},{"name":"中里","zip_code":"3670114"},{"name":"沼上","zip_code":"3670105"},{"name":"根木","zip_code":"3670104"},{"name":"広木","zip_code":"3670118"},{"name":"古郡","zip_code":"3670111"},{"name":"南十条","zip_code":"3670106"}]},{"name":"児玉郡神川町","divisions":[{"name":"池田","zip_code":"3670234"},{"name":"植竹","zip_code":"3670245"},{"name":"上阿久原","zip_code":"3670312"},{"name":"熊野堂","zip_code":"3670243"},{"name":"小浜","zip_code":"3670236"},{"name":"四軒在家","zip_code":"3670248"},{"name":"下阿久原","zip_code":"3670311"},{"name":"新宿","zip_code":"3670235"},{"name":"関口","zip_code":"3670246"},{"name":"中新里","zip_code":"3670231"},{"name":"新里","zip_code":"3670232"},{"name":"二ノ宮","zip_code":"3670233"},{"name":"貫井","zip_code":"3670237"},{"name":"原新田","zip_code":"3670242"},{"name":"肥土","zip_code":"3670238"},{"name":"元阿保","zip_code":"3670247"},{"name":"元原","zip_code":"3670241"},{"name":"矢納","zip_code":"3670313"},{"name":"八日市","zip_code":"3670244"},{"name":"渡瀬","zip_code":"3670301"}]},{"name":"児玉郡上里町","divisions":[{"name":"大御堂","zip_code":"3690315"},{"name":"忍保","zip_code":"3690303"},{"name":"金久保","zip_code":"3690301"},{"name":"嘉美","zip_code":"3690307"},{"name":"五明","zip_code":"3690317"},{"name":"七本木","zip_code":"3690306"},{"name":"神保原町","zip_code":"3690305"},{"name":"帯刀","zip_code":"3690312"},{"name":"堤","zip_code":"3690313"},{"name":"勅使河原","zip_code":"3690311"},{"name":"長浜","zip_code":"3690316"},{"name":"八町河原","zip_code":"3690304"},{"name":"毘沙吐","zip_code":"3690308"},{"name":"藤木戸","zip_code":"3690318"},{"name":"黛","zip_code":"3690302"},{"name":"三町","zip_code":"3690314"}]},{"name":"大里郡寄居町","divisions":[{"name":"赤浜","zip_code":"3691211"},{"name":"秋山","zip_code":"3691233"},{"name":"今市","zip_code":"3691214"},{"name":"折原","zip_code":"3691234"},{"name":"金尾","zip_code":"3691236"},{"name":"小園","zip_code":"3691217"},{"name":"桜沢","zip_code":"3691202"},{"name":"末野","zip_code":"3691205"},{"name":"鷹巣","zip_code":"3691213"},{"name":"立原","zip_code":"3691231"},{"name":"露梨子","zip_code":"3691222"},{"name":"富田","zip_code":"3691216"},{"name":"西ノ入","zip_code":"3691225"},{"name":"西古里","zip_code":"3691212"},{"name":"鉢形","zip_code":"3691224"},{"name":"風布","zip_code":"3691235"},{"name":"藤田","zip_code":"3691204"},{"name":"保田原","zip_code":"3691221"},{"name":"三ケ山","zip_code":"3691223"},{"name":"三品","zip_code":"3691232"},{"name":"牟礼","zip_code":"3691215"},{"name":"用土","zip_code":"3691201"},{"name":"寄居","zip_code":"3691203"}]},{"name":"南埼玉郡宮代町","divisions":[{"name":"学園台","zip_code":"3450826"},{"name":"笠原","zip_code":"3450822"},{"name":"金原","zip_code":"3450816"},{"name":"川端","zip_code":"3450804"},{"name":"国納","zip_code":"3450834"},{"name":"逆井","zip_code":"3450825"},{"name":"須賀","zip_code":"3450831"},{"name":"中央","zip_code":"3450821"},{"name":"道佛","zip_code":"3450811"},{"name":"中","zip_code":"3450815"},{"name":"中島","zip_code":"3450802"},{"name":"西粂原","zip_code":"3450833"},{"name":"西原","zip_code":"3450817"},{"name":"東","zip_code":"3450814"},{"name":"東粂原","zip_code":"3450832"},{"name":"東姫宮","zip_code":"3450813"},{"name":"姫宮","zip_code":"3450812"},{"name":"本田","zip_code":"3450827"},{"name":"宮代","zip_code":"3450823"},{"name":"宮代台","zip_code":"3450835"},{"name":"宮東","zip_code":"3450803"},{"name":"百間","zip_code":"3450801"},{"name":"山崎","zip_code":"3450824"},{"name":"和戸","zip_code":"3450836"}]},{"name":"北葛飾郡杉戸町","divisions":[{"name":"内田","zip_code":"3450035"},{"name":"大島","zip_code":"3450042"},{"name":"大塚","zip_code":"3450022"},{"name":"北蓮沼","zip_code":"3450021"},{"name":"木津内","zip_code":"3450001"},{"name":"木野川","zip_code":"3450003"},{"name":"倉松","zip_code":"3450034"},{"name":"才羽","zip_code":"3450014"},{"name":"佐左エ門","zip_code":"3450033"},{"name":"下高野","zip_code":"3450043"},{"name":"下野","zip_code":"3450044"},{"name":"杉戸","zip_code":"3450036"},{"name":"清地","zip_code":"3450025"},{"name":"高野台東","zip_code":"3450047"},{"name":"高野台西","zip_code":"3450045"},{"name":"高野台南","zip_code":"3450046"},{"name":"堤根","zip_code":"3450024"},{"name":"椿","zip_code":"3450013"},{"name":"遠野","zip_code":"3450031"},{"name":"並塚","zip_code":"3450015"},{"name":"茨島","zip_code":"3450041"},{"name":"屏風","zip_code":"3450011"},{"name":"広戸沼","zip_code":"3450032"},{"name":"深輪","zip_code":"3450012"},{"name":"本郷","zip_code":"3450023"},{"name":"宮前","zip_code":"3450004"},{"name":"目沼","zip_code":"3450005"},{"name":"本島","zip_code":"3450037"},{"name":"鷲巣","zip_code":"3450002"}]},{"name":"北葛飾郡松伏町","divisions":[{"name":"魚沼","zip_code":"3430101"},{"name":"大川戸","zip_code":"3430106"},{"name":"金杉","zip_code":"3430103"},{"name":"上赤岩","zip_code":"3430115"},{"name":"下赤岩","zip_code":"3430116"},{"name":"田島","zip_code":"3430105"},{"name":"田島東","zip_code":"3430104"},{"name":"田中","zip_code":"3430117"},{"name":"築比地","zip_code":"3430102"},{"name":"松葉","zip_code":"3430112"},{"name":"松伏","zip_code":"3430111"},{"name":"ゆめみ野","zip_code":"3430113"},{"name":"ゆめみ野東","zip_code":"3430114"}]}]}