{"name":"千葉県","cities":[{"name":"千葉市中央区","divisions":[{"name":"青葉町","zip_code":"2600852"},{"name":"赤井町","zip_code":"2600804"},{"name":"旭町","zip_code":"2600002"},{"name":"市場町","zip_code":"2600855"},{"name":"稲荷町","zip_code":"2600833"},{"name":"亥鼻","zip_code":"2600856"},{"name":"今井","zip_code":"2600834"},{"name":"今井町","zip_code":"2600815"},{"name":"院内","zip_code":"2600018"},{"name":"鵜の森町","zip_code":"2600816"},{"name":"大森町","zip_code":"2600811"},{"name":"生実町","zip_code":"2600813"},{"name":"春日","zip_code":"2600033"},{"name":"葛城","zip_code":"2600853"},{"name":"要町","zip_code":"2600017"},{"name":"亀井町","zip_code":"2600011"},{"name":"亀岡町","zip_code":"2600857"},{"name":"川崎町","zip_code":"2600835"},{"name":"川戸町","zip_code":"2600802"},{"name":"栄町","zip_code":"2600016"},{"name":"寒川町","zip_code":"2600832"},{"name":"塩田町","zip_code":"2600823"},{"name":"汐見丘町","zip_code":"2600034"},{"name":"白旗","zip_code":"2600841"},{"name":"新宿","zip_code":"2600021"},{"name":"新千葉","zip_code":"2600031"},{"name":"新田町","zip_code":"2600027"},{"name":"新町","zip_code":"2600028"},{"name":"神明町","zip_code":"2600022"},{"name":"末広","zip_code":"2600843"},{"name":"蘇我","zip_code":"2600822"},{"name":"蘇我町","zip_code":"2600822"},{"name":"大巌寺町","zip_code":"2600812"},{"name":"千葉寺町","zip_code":"2600844"},{"name":"千葉港","zip_code":"2600026"},{"name":"中央","zip_code":"2600013"},{"name":"中央港","zip_code":"2600024"},{"name":"椿森","zip_code":"2600042"},{"name":"鶴沢町","zip_code":"2600003"},{"name":"出洲港","zip_code":"2600023"},{"name":"道場南","zip_code":"2600005"},{"name":"道場北","zip_code":"2600006"},{"name":"問屋町","zip_code":"2600025"},{"name":"長洲","zip_code":"2600854"},{"name":"新浜町","zip_code":"2600826"},{"name":"仁戸名町","zip_code":"2600801"},{"name":"登戸","zip_code":"2600032"},{"name":"花輪町","zip_code":"2600803"},{"name":"浜野町","zip_code":"2600824"},{"name":"東千葉","zip_code":"2600041"},{"name":"東本町","zip_code":"2600004"},{"name":"富士見","zip_code":"2600015"},{"name":"弁天","zip_code":"2600045"},{"name":"星久喜町","zip_code":"2600808"},{"name":"本千葉町","zip_code":"2600014"},{"name":"本町","zip_code":"2600012"},{"name":"松ケ丘町","zip_code":"2600807"},{"name":"松波","zip_code":"2600044"},{"name":"港町","zip_code":"2600831"},{"name":"南生実町","zip_code":"2600814"},{"name":"南町","zip_code":"2600842"},{"name":"都町","zip_code":"2600001"},{"name":"宮崎","zip_code":"2600806"},{"name":"宮崎町","zip_code":"2600805"},{"name":"村田町","zip_code":"2600825"},{"name":"矢作町","zip_code":"2600851"},{"name":"祐光","zip_code":"2600007"},{"name":"若草","zip_code":"2600821"}]},{"name":"千葉市花見川区","divisions":[{"name":"朝日ケ丘","zip_code":"2620019"},{"name":"朝日ケ丘町","zip_code":"2620017"},{"name":"天戸町","zip_code":"2620043"},{"name":"内山町","zip_code":"2620002"},{"name":"宇那谷町","zip_code":"2620003"},{"name":"柏井","zip_code":"2620048"},{"name":"柏井町","zip_code":"2620041"},{"name":"検見川町","zip_code":"2620023"},{"name":"こてはし台","zip_code":"2620005"},{"name":"犢橋町","zip_code":"2620013"},{"name":"作新台","zip_code":"2620045"},{"name":"さつきが丘","zip_code":"2620014"},{"name":"三角町","zip_code":"2620011"},{"name":"武石町","zip_code":"2620031"},{"name":"大日町","zip_code":"2620004"},{"name":"千種町","zip_code":"2620012"},{"name":"長作台","zip_code":"2620047"},{"name":"長作町","zip_code":"2620044"},{"name":"浪花町","zip_code":"2620024"},{"name":"西小中台","zip_code":"2620016"},{"name":"畑町","zip_code":"2620018"},{"name":"花島町","zip_code":"2620042"},{"name":"花園","zip_code":"2620025"},{"name":"花園町","zip_code":"2620021"},{"name":"花見川","zip_code":"2620046"},{"name":"幕張町","zip_code":"2620032"},{"name":"幕張本郷","zip_code":"2620033"},{"name":"瑞穂","zip_code":"2620026"},{"name":"南花園","zip_code":"2620022"},{"name":"み春野","zip_code":"2620007"},{"name":"宮野木台","zip_code":"2620015"},{"name":"横戸台","zip_code":"2620006"},{"name":"横戸町","zip_code":"2620001"}]},{"name":"千葉市稲毛区","divisions":[{"name":"穴川","zip_code":"2630024"},{"name":"穴川町","zip_code":"2630025"},{"name":"あやめ台","zip_code":"2630052"},{"name":"稲丘町","zip_code":"2630033"},{"name":"稲毛","zip_code":"2630034"},{"name":"稲毛台町","zip_code":"2630032"},{"name":"稲毛町","zip_code":"2630035"},{"name":"稲毛東","zip_code":"2630031"},{"name":"柏台","zip_code":"2630053"},{"name":"黒砂","zip_code":"2630042"},{"name":"黒砂台","zip_code":"2630041"},{"name":"小仲台","zip_code":"2630043"},{"name":"小中台町","zip_code":"2630044"},{"name":"小深町","zip_code":"2630003"},{"name":"作草部","zip_code":"2630015"},{"name":"作草部町","zip_code":"2630014"},{"name":"山王町","zip_code":"2630002"},{"name":"園生町","zip_code":"2630051"},{"name":"千草台","zip_code":"2630013"},{"name":"天台","zip_code":"2630016"},{"name":"天台町","zip_code":"2630011"},{"name":"轟町","zip_code":"2630021"},{"name":"長沼町","zip_code":"2630005"},{"name":"長沼原町","zip_code":"2630001"},{"name":"萩台町","zip_code":"2630012"},{"name":"緑町","zip_code":"2630023"},{"name":"宮野木町","zip_code":"2630054"},{"name":"弥生町","zip_code":"2630022"},{"name":"六方町","zip_code":"2630004"}]},{"name":"千葉市若葉区","divisions":[{"name":"愛生町","zip_code":"2640031"},{"name":"五十土町","zip_code":"2650063"},{"name":"和泉町","zip_code":"2650052"},{"name":"大井戸町","zip_code":"2650075"},{"name":"大草町","zip_code":"2640011"},{"name":"太田町","zip_code":"2640013"},{"name":"大広町","zip_code":"2650064"},{"name":"大宮台","zip_code":"2640015"},{"name":"大宮町","zip_code":"2640016"},{"name":"小倉台","zip_code":"2640006"},{"name":"小倉町","zip_code":"2640007"},{"name":"御成台","zip_code":"2650077"},{"name":"小間子町","zip_code":"2650046"},{"name":"貝塚","zip_code":"2640020"},{"name":"貝塚町","zip_code":"2640023"},{"name":"加曽利町","zip_code":"2640017"},{"name":"金親町","zip_code":"2640001"},{"name":"上泉町","zip_code":"2650045"},{"name":"川井町","zip_code":"2650062"},{"name":"北大宮台","zip_code":"2640014"},{"name":"北谷津町","zip_code":"2650067"},{"name":"古泉町","zip_code":"2650042"},{"name":"御殿町","zip_code":"2650074"},{"name":"坂月町","zip_code":"2640012"},{"name":"桜木","zip_code":"2640028"},{"name":"桜木北","zip_code":"2640029"},{"name":"更科町","zip_code":"2650073"},{"name":"佐和町","zip_code":"2650065"},{"name":"下泉町","zip_code":"2650044"},{"name":"下田町","zip_code":"2650076"},{"name":"高品町","zip_code":"2640024"},{"name":"高根町","zip_code":"2650061"},{"name":"多部田町","zip_code":"2650066"},{"name":"旦谷町","zip_code":"2650071"},{"name":"千城台東","zip_code":"2640002"},{"name":"千城台西","zip_code":"2640004"},{"name":"千城台南","zip_code":"2640003"},{"name":"千城台北","zip_code":"2640005"},{"name":"都賀","zip_code":"2640025"},{"name":"都賀の台","zip_code":"2640033"},{"name":"殿台町","zip_code":"2640036"},{"name":"富田町","zip_code":"2650041"},{"name":"中田町","zip_code":"2650043"},{"name":"中野町","zip_code":"2650051"},{"name":"西都賀","zip_code":"2640026"},{"name":"野呂町","zip_code":"2650053"},{"name":"原町","zip_code":"2640034"},{"name":"東寺山町","zip_code":"2640035"},{"name":"みつわ台","zip_code":"2640032"},{"name":"源町","zip_code":"2640037"},{"name":"谷当町","zip_code":"2650072"},{"name":"若松台","zip_code":"2640027"},{"name":"若松町","zip_code":"2640021"}]},{"name":"千葉市緑区","divisions":[{"name":"あすみが丘","zip_code":"2670066"},{"name":"あすみが丘東","zip_code":"2670067"},{"name":"板倉町","zip_code":"2670064"},{"name":"大金沢町","zip_code":"2660014"},{"name":"大木戸町","zip_code":"2670057"},{"name":"大椎町","zip_code":"2670065"},{"name":"大高町","zip_code":"2670054"},{"name":"大野台","zip_code":"2670056"},{"name":"落井町","zip_code":"2660025"},{"name":"越智町","zip_code":"2670055"},{"name":"小山町","zip_code":"2670063"},{"name":"おゆみ野","zip_code":"2660031"},{"name":"おゆみ野有吉","zip_code":"2660034"},{"name":"おゆみ野中央","zip_code":"2660032"},{"name":"おゆみ野南","zip_code":"2660033"},{"name":"鎌取町","zip_code":"2660011"},{"name":"上大和田町","zip_code":"2670051"},{"name":"刈田子町","zip_code":"2660021"},{"name":"小金沢町","zip_code":"2660015"},{"name":"椎名崎町","zip_code":"2660016"},{"name":"下大和田町","zip_code":"2670052"},{"name":"大膳野町","zip_code":"2660006"},{"name":"高田町","zip_code":"2660003"},{"name":"高津戸町","zip_code":"2670053"},{"name":"土気町","zip_code":"2670061"},{"name":"富岡町","zip_code":"2660022"},{"name":"中西町","zip_code":"2660024"},{"name":"東山科町","zip_code":"2660001"},{"name":"平川町","zip_code":"2660004"},{"name":"平山町","zip_code":"2660002"},{"name":"古市場町","zip_code":"2660026"},{"name":"辺田町","zip_code":"2660007"},{"name":"誉田町","zip_code":"2660005"},{"name":"茂呂町","zip_code":"2660023"},{"name":"小食土町","zip_code":"2670062"}]},{"name":"千葉市美浜区","divisions":[{"name":"磯辺","zip_code":"2610012"},{"name":"稲毛海岸","zip_code":"2610005"},{"name":"打瀬","zip_code":"2610013"},{"name":"幸町","zip_code":"2610001"},{"name":"新港","zip_code":"2610002"},{"name":"高洲","zip_code":"2610004"},{"name":"高浜","zip_code":"2610003"},{"name":"豊砂","zip_code":"2610024"},{"name":"中瀬","zip_code":"2610023"},{"name":"浜田","zip_code":"2610025"},{"name":"ひび野","zip_code":"2610021"},{"name":"幕張西","zip_code":"2610026"},{"name":"真砂","zip_code":"2610011"},{"name":"美浜","zip_code":"2610022"},{"name":"若葉","zip_code":"2610014"}]},{"name":"銚子市","divisions":[{"name":"赤塚町","zip_code":"2880844"},{"name":"海鹿島町","zip_code":"2880005"},{"name":"芦崎町","zip_code":"2880861"},{"name":"愛宕町","zip_code":"2880007"},{"name":"新生町","zip_code":"2880056"},{"name":"粟島町","zip_code":"2880034"},{"name":"飯沼町","zip_code":"2880051"},{"name":"犬吠埼","zip_code":"2880012"},{"name":"犬若","zip_code":"2880015"},{"name":"今宮町","zip_code":"2880804"},{"name":"上野町","zip_code":"2880805"},{"name":"植松町","zip_code":"2880071"},{"name":"内浜町","zip_code":"2880068"},{"name":"大橋町","zip_code":"2880046"},{"name":"岡野台町","zip_code":"2880852"},{"name":"小浜町","zip_code":"2880821"},{"name":"親田町","zip_code":"2880823"},{"name":"垣根町","zip_code":"2880835"},{"name":"垣根見晴台","zip_code":"2880833"},{"name":"笠上町","zip_code":"2880004"},{"name":"春日台町","zip_code":"2880816"},{"name":"春日町","zip_code":"2880814"},{"name":"唐子町","zip_code":"2880801"},{"name":"川口町","zip_code":"2880001"},{"name":"北小川町","zip_code":"2880037"},{"name":"君ケ浜","zip_code":"2880011"},{"name":"清川町","zip_code":"2880817"},{"name":"黒生町","zip_code":"2880003"},{"name":"小長町","zip_code":"2880866"},{"name":"小畑新町","zip_code":"2880021"},{"name":"小畑町","zip_code":"2880022"},{"name":"後飯町","zip_code":"2880064"},{"name":"小船木町","zip_code":"2880864"},{"name":"幸町","zip_code":"2880073"},{"name":"栄町","zip_code":"2880812"},{"name":"榊町","zip_code":"2880006"},{"name":"桜井町","zip_code":"2880876"},{"name":"笹本町","zip_code":"2880873"},{"name":"猿田町","zip_code":"2880855"},{"name":"三軒町","zip_code":"2880045"},{"name":"潮見町","zip_code":"2880025"},{"name":"忍町","zip_code":"2880867"},{"name":"柴崎町","zip_code":"2880842"},{"name":"清水町","zip_code":"2880063"},{"name":"正明寺町","zip_code":"2880856"},{"name":"白石町","zip_code":"2880853"},{"name":"新地町","zip_code":"2880067"},{"name":"新町","zip_code":"2880825"},{"name":"陣屋町","zip_code":"2880055"},{"name":"末広町","zip_code":"2880042"},{"name":"台町","zip_code":"2880813"},{"name":"高神原町","zip_code":"2880027"},{"name":"高神東町","zip_code":"2880023"},{"name":"高神西町","zip_code":"2880026"},{"name":"高田町","zip_code":"2880862"},{"name":"高野町","zip_code":"2880834"},{"name":"竹町","zip_code":"2880062"},{"name":"田中町","zip_code":"2880065"},{"name":"茶畑町","zip_code":"2880854"},{"name":"中央町","zip_code":"2880041"},{"name":"塚本町","zip_code":"2880868"},{"name":"天王台","zip_code":"2880024"},{"name":"通町","zip_code":"2880075"},{"name":"外川台町","zip_code":"2880016"},{"name":"外川町","zip_code":"2880014"},{"name":"常世田町","zip_code":"2880824"},{"name":"富川町","zip_code":"2880871"},{"name":"豊里台","zip_code":"2880874"},{"name":"名洗町","zip_code":"2880035"},{"name":"中島町","zip_code":"2880858"},{"name":"仲町","zip_code":"2880077"},{"name":"長崎町","zip_code":"2880013"},{"name":"長塚町","zip_code":"2880837"},{"name":"長山町","zip_code":"2880865"},{"name":"西小川町","zip_code":"2880036"},{"name":"西芝町","zip_code":"2880044"},{"name":"野尻町","zip_code":"2880863"},{"name":"橋本町","zip_code":"2880074"},{"name":"浜町","zip_code":"2880052"},{"name":"馬場町","zip_code":"2880054"},{"name":"東小川町","zip_code":"2880032"},{"name":"東芝町","zip_code":"2880043"},{"name":"東町","zip_code":"2880053"},{"name":"双葉町","zip_code":"2880048"},{"name":"船木町","zip_code":"2880857"},{"name":"本城町","zip_code":"2880831"},{"name":"本町","zip_code":"2880076"},{"name":"前宿町","zip_code":"2880031"},{"name":"松岸町","zip_code":"2880836"},{"name":"松岸見晴台","zip_code":"2880832"},{"name":"松本町","zip_code":"2880802"},{"name":"三門町","zip_code":"2880851"},{"name":"三崎町","zip_code":"2880815"},{"name":"港町","zip_code":"2880061"},{"name":"南小川町","zip_code":"2880033"},{"name":"南町","zip_code":"2880038"},{"name":"三宅町","zip_code":"2880845"},{"name":"宮原町","zip_code":"2880877"},{"name":"妙見町","zip_code":"2880811"},{"name":"明神町","zip_code":"2880002"},{"name":"森戸町","zip_code":"2880872"},{"name":"諸持町","zip_code":"2880875"},{"name":"八木町","zip_code":"2880822"},{"name":"弥生町","zip_code":"2880072"},{"name":"八幡町","zip_code":"2880803"},{"name":"四日市場台","zip_code":"2880843"},{"name":"四日市場町","zip_code":"2880841"},{"name":"余山町","zip_code":"2880846"},{"name":"若宮町","zip_code":"2880047"},{"name":"和田町","zip_code":"2880066"}]},{"name":"市川市","divisions":[{"name":"相之川","zip_code":"2720143"},{"name":"新井","zip_code":"2720144"},{"name":"伊勢宿","zip_code":"2720106"},{"name":"市川","zip_code":"2720034"},{"name":"市川南","zip_code":"2720033"},{"name":"稲越町","zip_code":"2720831"},{"name":"入船","zip_code":"2720134"},{"name":"大洲","zip_code":"2720032"},{"name":"大野町","zip_code":"2720805"},{"name":"大町","zip_code":"2720801"},{"name":"大和田","zip_code":"2720025"},{"name":"押切","zip_code":"2720107"},{"name":"鬼越","zip_code":"2720022"},{"name":"鬼高","zip_code":"2720015"},{"name":"欠真間","zip_code":"2720142"},{"name":"柏井町","zip_code":"2720802"},{"name":"加藤新田","zip_code":"2720124"},{"name":"上妙典","zip_code":"2720112"},{"name":"河原","zip_code":"2720101"},{"name":"香取","zip_code":"2720141"},{"name":"北方","zip_code":"2720815"},{"name":"北国分","zip_code":"2720836"},{"name":"行徳駅前","zip_code":"2720133"},{"name":"国府台","zip_code":"2720827"},{"name":"高谷","zip_code":"2720013"},{"name":"高谷新町","zip_code":"2720011"},{"name":"国分","zip_code":"2720834"},{"name":"幸","zip_code":"2720123"},{"name":"塩浜","zip_code":"2720127"},{"name":"塩焼","zip_code":"2720114"},{"name":"島尻","zip_code":"2720145"},{"name":"下貝塚","zip_code":"2720821"},{"name":"下新宿","zip_code":"2720102"},{"name":"下妙典","zip_code":"2720113"},{"name":"新田","zip_code":"2720035"},{"name":"末広","zip_code":"2720121"},{"name":"菅野","zip_code":"2720824"},{"name":"須和田","zip_code":"2720825"},{"name":"関ケ島","zip_code":"2720105"},{"name":"曽谷","zip_code":"2720832"},{"name":"高石神","zip_code":"2720814"},{"name":"高浜町","zip_code":"2720125"},{"name":"宝","zip_code":"2720122"},{"name":"田尻","zip_code":"2720014"},{"name":"千鳥町","zip_code":"2720126"},{"name":"稲荷木","zip_code":"2720024"},{"name":"富浜","zip_code":"2720115"},{"name":"中国分","zip_code":"2720835"},{"name":"中山","zip_code":"2720813"},{"name":"新浜","zip_code":"2720136"},{"name":"原木","zip_code":"2720004"},{"name":"東大和田","zip_code":"2720026"},{"name":"東国分","zip_code":"2720833"},{"name":"東菅野","zip_code":"2720823"},{"name":"東浜","zip_code":"2720003"},{"name":"日之出","zip_code":"2720135"},{"name":"平田","zip_code":"2720031"},{"name":"広尾","zip_code":"2720146"},{"name":"福栄","zip_code":"2720137"},{"name":"二俣","zip_code":"2720001"},{"name":"二俣新町","zip_code":"2720002"},{"name":"奉免町","zip_code":"2720803"},{"name":"北方町","zip_code":"2720811"},{"name":"堀之内","zip_code":"2720837"},{"name":"本行徳","zip_code":"2720103"},{"name":"本塩","zip_code":"2720104"},{"name":"真間","zip_code":"2720826"},{"name":"湊","zip_code":"2720131"},{"name":"湊新田","zip_code":"2720132"},{"name":"南大野","zip_code":"2720804"},{"name":"南行徳","zip_code":"2720138"},{"name":"南八幡","zip_code":"2720023"},{"name":"宮久保","zip_code":"2720822"},{"name":"妙典","zip_code":"2720111"},{"name":"本北方","zip_code":"2720816"},{"name":"八幡","zip_code":"2720021"},{"name":"若宮","zip_code":"2720812"}]},{"name":"船橋市","divisions":[{"name":"旭町","zip_code":"2730041"},{"name":"東町","zip_code":"2730863"},{"name":"市場","zip_code":"2730001"},{"name":"印内","zip_code":"2730039"},{"name":"印内町","zip_code":"2730025"},{"name":"大穴町","zip_code":"2740066"},{"name":"大穴南","zip_code":"2740067"},{"name":"大穴北","zip_code":"2740068"},{"name":"大神保町","zip_code":"2740082"},{"name":"海神","zip_code":"2730021"},{"name":"海神町","zip_code":"2730022"},{"name":"海神町東","zip_code":"2730028"},{"name":"海神町西","zip_code":"2730027"},{"name":"海神町南","zip_code":"2730024"},{"name":"葛飾町","zip_code":"2730032"},{"name":"金杉","zip_code":"2730853"},{"name":"金杉台","zip_code":"2730852"},{"name":"金杉町","zip_code":"2730854"},{"name":"金堀町","zip_code":"2740054"},{"name":"上山町","zip_code":"2730046"},{"name":"北本町","zip_code":"2730864"},{"name":"行田","zip_code":"2730044"},{"name":"行田町","zip_code":"2730043"},{"name":"楠が山町","zip_code":"2740055"},{"name":"車方町","zip_code":"2740051"},{"name":"高野台","zip_code":"2740801"},{"name":"古作","zip_code":"2730037"},{"name":"古作町","zip_code":"2730038"},{"name":"小野田町","zip_code":"2740081"},{"name":"小室町","zip_code":"2701471"},{"name":"米ケ崎町","zip_code":"2730861"},{"name":"古和釜町","zip_code":"2740061"},{"name":"栄町","zip_code":"2730018"},{"name":"咲が丘","zip_code":"2740807"},{"name":"潮見町","zip_code":"2730016"},{"name":"芝山","zip_code":"2740816"},{"name":"新高根","zip_code":"2740814"},{"name":"神保町","zip_code":"2740056"},{"name":"鈴身町","zip_code":"2740052"},{"name":"駿河台","zip_code":"2730862"},{"name":"高瀬町","zip_code":"2730014"},{"name":"高根台","zip_code":"2740065"},{"name":"高根町","zip_code":"2740817"},{"name":"滝台","zip_code":"2740074"},{"name":"滝台町","zip_code":"2740075"},{"name":"田喜野井","zip_code":"2740073"},{"name":"坪井町","zip_code":"2740062"},{"name":"坪井東","zip_code":"2740060"},{"name":"坪井西","zip_code":"2740069"},{"name":"豊富町","zip_code":"2740053"},{"name":"中野木","zip_code":"2740826"},{"name":"夏見","zip_code":"2730865"},{"name":"夏見台","zip_code":"2730866"},{"name":"夏見町","zip_code":"2730867"},{"name":"七林町","zip_code":"2740821"},{"name":"習志野","zip_code":"2740071"},{"name":"習志野台","zip_code":"2740063"},{"name":"西浦","zip_code":"2730017"},{"name":"西習志野","zip_code":"2740815"},{"name":"西船","zip_code":"2730031"},{"name":"二宮","zip_code":"2740823"},{"name":"飯山満町","zip_code":"2740822"},{"name":"浜町","zip_code":"2730012"},{"name":"東中山","zip_code":"2730036"},{"name":"東船橋","zip_code":"2730002"},{"name":"日の出","zip_code":"2730015"},{"name":"藤原","zip_code":"2730047"},{"name":"二子町","zip_code":"2730034"},{"name":"二和東","zip_code":"2740805"},{"name":"二和西","zip_code":"2740806"},{"name":"本郷町","zip_code":"2730033"},{"name":"本町","zip_code":"2730005"},{"name":"前原東","zip_code":"2740824"},{"name":"前原西","zip_code":"2740825"},{"name":"前貝塚町","zip_code":"2730042"},{"name":"馬込町","zip_code":"2730851"},{"name":"馬込西","zip_code":"2730855"},{"name":"松が丘","zip_code":"2740064"},{"name":"丸山","zip_code":"2730048"},{"name":"三咲","zip_code":"2740812"},{"name":"三咲町","zip_code":"2740811"},{"name":"緑台","zip_code":"2740818"},{"name":"湊町","zip_code":"2730011"},{"name":"南海神","zip_code":"2730023"},{"name":"南本町","zip_code":"2730004"},{"name":"南三咲","zip_code":"2740813"},{"name":"みやぎ台","zip_code":"2740804"},{"name":"三山","zip_code":"2740072"},{"name":"宮本","zip_code":"2730003"},{"name":"本中山","zip_code":"2730035"},{"name":"八木が谷","zip_code":"2740802"},{"name":"八木が谷町","zip_code":"2740803"},{"name":"薬円台","zip_code":"2740077"},{"name":"薬園台町","zip_code":"2740076"},{"name":"山手","zip_code":"2730045"},{"name":"山野町","zip_code":"2730026"},{"name":"若松","zip_code":"2730013"}]},{"name":"館山市","divisions":[{"name":"相浜","zip_code":"2940235"},{"name":"安布里","zip_code":"2940043"},{"name":"安東","zip_code":"2940005"},{"name":"飯沼","zip_code":"2940016"},{"name":"出野尾","zip_code":"2940026"},{"name":"伊戸","zip_code":"2940314"},{"name":"稲","zip_code":"2940012"},{"name":"犬石","zip_code":"2940226"},{"name":"上野原","zip_code":"2940042"},{"name":"江田","zip_code":"2940009"},{"name":"大網","zip_code":"2940044"},{"name":"大井","zip_code":"2940002"},{"name":"大賀","zip_code":"2940031"},{"name":"大戸","zip_code":"2940025"},{"name":"岡田","zip_code":"2940024"},{"name":"加賀名","zip_code":"2940306"},{"name":"笠名","zip_code":"2940032"},{"name":"神余","zip_code":"2940023"},{"name":"上真倉","zip_code":"2940038"},{"name":"亀ケ原","zip_code":"2940052"},{"name":"川名","zip_code":"2940057"},{"name":"見物","zip_code":"2940305"},{"name":"香","zip_code":"2940301"},{"name":"国分","zip_code":"2940018"},{"name":"腰越","zip_code":"2940007"},{"name":"小沼","zip_code":"2940312"},{"name":"小原","zip_code":"2940058"},{"name":"古茂口","zip_code":"2940015"},{"name":"坂井","zip_code":"2940311"},{"name":"坂足","zip_code":"2940313"},{"name":"作名","zip_code":"2940029"},{"name":"佐野","zip_code":"2940225"},{"name":"塩見","zip_code":"2940302"},{"name":"下真倉","zip_code":"2940048"},{"name":"新宿","zip_code":"2940046"},{"name":"洲崎","zip_code":"2940316"},{"name":"洲宮","zip_code":"2940223"},{"name":"薗","zip_code":"2940006"},{"name":"大神宮","zip_code":"2940233"},{"name":"高井","zip_code":"2940041"},{"name":"竹原","zip_code":"2940001"},{"name":"館山","zip_code":"2940036"},{"name":"中里","zip_code":"2940231"},{"name":"長須賀","zip_code":"2940037"},{"name":"那古","zip_code":"2940055"},{"name":"南条","zip_code":"2940017"},{"name":"西川名","zip_code":"2940315"},{"name":"西長田","zip_code":"2940027"},{"name":"沼","zip_code":"2940034"},{"name":"波左間","zip_code":"2940307"},{"name":"畑","zip_code":"2940022"},{"name":"浜田","zip_code":"2940303"},{"name":"早物","zip_code":"2940304"},{"name":"坂田","zip_code":"2940308"},{"name":"東長田","zip_code":"2940028"},{"name":"広瀬","zip_code":"2940008"},{"name":"富士見","zip_code":"2940035"},{"name":"藤原","zip_code":"2940224"},{"name":"二子","zip_code":"2940011"},{"name":"船形","zip_code":"2940056"},{"name":"宝貝","zip_code":"2940013"},{"name":"北条","zip_code":"2940045"},{"name":"北条正木","zip_code":"2940053"},{"name":"正木","zip_code":"2940051"},{"name":"水岡","zip_code":"2940004"},{"name":"水玉","zip_code":"2940003"},{"name":"湊","zip_code":"2940054"},{"name":"宮城","zip_code":"2940033"},{"name":"布沼","zip_code":"2940221"},{"name":"布良","zip_code":"2940234"},{"name":"茂名","zip_code":"2940222"},{"name":"山本","zip_code":"2940014"},{"name":"山荻","zip_code":"2940021"},{"name":"八幡","zip_code":"2940047"},{"name":"竜岡","zip_code":"2940232"}]},{"name":"木更津市","divisions":[{"name":"朝日","zip_code":"2920055"},{"name":"吾妻","zip_code":"2920065"},{"name":"有吉","zip_code":"2920021"},{"name":"井尻","zip_code":"2920026"},{"name":"伊豆島","zip_code":"2920034"},{"name":"岩根","zip_code":"2920061"},{"name":"犬成","zip_code":"2920033"},{"name":"牛込","zip_code":"2920001"},{"name":"牛袋","zip_code":"2920012"},{"name":"牛袋野","zip_code":"2920011"},{"name":"瓜倉","zip_code":"2920007"},{"name":"江川","zip_code":"2920063"},{"name":"大稲","zip_code":"2920211"},{"name":"大久保","zip_code":"2920815"},{"name":"太田","zip_code":"2920044"},{"name":"大寺","zip_code":"2920024"},{"name":"貝渕","zip_code":"2920833"},{"name":"かずさ鎌足","zip_code":"2920818"},{"name":"上烏田","zip_code":"2920813"},{"name":"上根岸","zip_code":"2920215"},{"name":"上望陀","zip_code":"2920022"},{"name":"茅野","zip_code":"2920204"},{"name":"茅野七曲","zip_code":"2920202"},{"name":"祇園","zip_code":"2920052"},{"name":"木更津","zip_code":"2920056"},{"name":"北浜町","zip_code":"2920006"},{"name":"清川","zip_code":"2920051"},{"name":"清見台","zip_code":"2920045"},{"name":"清見台東","zip_code":"2920041"},{"name":"清見台南","zip_code":"2920042"},{"name":"草敷","zip_code":"2920811"},{"name":"久津間","zip_code":"2920004"},{"name":"畔戸","zip_code":"2920005"},{"name":"下内橋","zip_code":"2920213"},{"name":"港南台","zip_code":"2920827"},{"name":"小浜","zip_code":"2920824"},{"name":"幸町","zip_code":"2920803"},{"name":"坂戸市場","zip_code":"2990271"},{"name":"桜井","zip_code":"2920822"},{"name":"桜井新町","zip_code":"2920823"},{"name":"桜町","zip_code":"2920821"},{"name":"笹子","zip_code":"2920032"},{"name":"佐野","zip_code":"2920206"},{"name":"潮浜","zip_code":"2920838"},{"name":"潮見","zip_code":"2920834"},{"name":"下烏田","zip_code":"2920816"},{"name":"下郡","zip_code":"2920205"},{"name":"下宮田","zip_code":"2920217"},{"name":"下望陀","zip_code":"2920023"},{"name":"請西","zip_code":"2920801"},{"name":"請西東","zip_code":"2920806"},{"name":"請西南","zip_code":"2920807"},{"name":"新宿","zip_code":"2920066"},{"name":"新田","zip_code":"2920832"},{"name":"新港","zip_code":"2920836"},{"name":"菅生","zip_code":"2920036"},{"name":"曽根","zip_code":"2920027"},{"name":"高砂","zip_code":"2920016"},{"name":"高柳","zip_code":"2920014"},{"name":"田川","zip_code":"2920207"},{"name":"中央","zip_code":"2920067"},{"name":"築地","zip_code":"2920835"},{"name":"椿","zip_code":"2920031"},{"name":"十日市場","zip_code":"2920025"},{"name":"戸国","zip_code":"2920214"},{"name":"中尾","zip_code":"2920035"},{"name":"中烏田","zip_code":"2920817"},{"name":"中里","zip_code":"2920064"},{"name":"中島","zip_code":"2920008"},{"name":"中島地先海ほたる","zip_code":"2920071"},{"name":"中野","zip_code":"2920002"},{"name":"中の島","zip_code":"2920839"},{"name":"永井作","zip_code":"2920053"},{"name":"長須賀","zip_code":"2920054"},{"name":"西岩根","zip_code":"2920062"},{"name":"根岸","zip_code":"2920216"},{"name":"畑沢","zip_code":"2920825"},{"name":"畑沢南","zip_code":"2920826"},{"name":"八幡台","zip_code":"2920814"},{"name":"羽鳥野","zip_code":"2920819"},{"name":"東太田","zip_code":"2920043"},{"name":"東中央","zip_code":"2920057"},{"name":"日の出町","zip_code":"2920037"},{"name":"富士見","zip_code":"2920831"},{"name":"文京","zip_code":"2920804"},{"name":"ほたる野","zip_code":"2920038"},{"name":"本郷","zip_code":"2920015"},{"name":"真舟","zip_code":"2920802"},{"name":"真里","zip_code":"2920212"},{"name":"真里谷","zip_code":"2920201"},{"name":"万石","zip_code":"2920003"},{"name":"木材港","zip_code":"2920837"},{"name":"矢那","zip_code":"2920812"},{"name":"大和","zip_code":"2920805"},{"name":"山本七曲","zip_code":"2920203"},{"name":"若葉町","zip_code":"2920013"}]},{"name":"松戸市","divisions":[{"name":"秋山","zip_code":"2702223"},{"name":"旭町","zip_code":"2710043"},{"name":"岩瀬","zip_code":"2710076"},{"name":"大金平","zip_code":"2700006"},{"name":"大橋","zip_code":"2702224"},{"name":"大谷口","zip_code":"2700005"},{"name":"大谷口新田","zip_code":"2700036"},{"name":"上総内","zip_code":"2700018"},{"name":"金ケ作","zip_code":"2702251"},{"name":"紙敷","zip_code":"2702221"},{"name":"上本郷","zip_code":"2710064"},{"name":"上矢切","zip_code":"2710094"},{"name":"河原塚","zip_code":"2702254"},{"name":"北松戸","zip_code":"2710063"},{"name":"串崎新田","zip_code":"2702216"},{"name":"串崎南町","zip_code":"2702215"},{"name":"久保平賀","zip_code":"2700012"},{"name":"栗ケ沢","zip_code":"2700022"},{"name":"栗山","zip_code":"2710097"},{"name":"幸田","zip_code":"2700001"},{"name":"幸谷","zip_code":"2700017"},{"name":"古ケ崎","zip_code":"2710068"},{"name":"小金","zip_code":"2700014"},{"name":"小金上総町","zip_code":"2700015"},{"name":"小金きよしケ丘","zip_code":"2700013"},{"name":"小金清志町","zip_code":"2700016"},{"name":"小金原","zip_code":"2700021"},{"name":"五香","zip_code":"2702213"},{"name":"五香西","zip_code":"2702218"},{"name":"五香南","zip_code":"2702212"},{"name":"五香六実","zip_code":"2702211"},{"name":"小根本","zip_code":"2710073"},{"name":"小山","zip_code":"2710093"},{"name":"胡録台","zip_code":"2710075"},{"name":"栄町","zip_code":"2710062"},{"name":"栄町西","zip_code":"2710061"},{"name":"七右衛門新田","zip_code":"2710041"},{"name":"下矢切","zip_code":"2710096"},{"name":"新作","zip_code":"2710052"},{"name":"新松戸","zip_code":"2700034"},{"name":"新松戸東","zip_code":"2700033"},{"name":"新松戸南","zip_code":"2700035"},{"name":"新松戸北","zip_code":"2700032"},{"name":"千駄堀","zip_code":"2702252"},{"name":"高塚新田","zip_code":"2702222"},{"name":"高柳","zip_code":"2702202"},{"name":"高柳新田","zip_code":"2702201"},{"name":"竹ケ花","zip_code":"2710072"},{"name":"竹ケ花西町","zip_code":"2710071"},{"name":"田中新田","zip_code":"2702255"},{"name":"常盤平","zip_code":"2702261"},{"name":"常盤平陣屋前","zip_code":"2702265"},{"name":"常盤平西窪町","zip_code":"2702266"},{"name":"常盤平双葉町","zip_code":"2702262"},{"name":"常盤平松葉町","zip_code":"2702264"},{"name":"常盤平柳町","zip_code":"2702263"},{"name":"殿平賀","zip_code":"2700004"},{"name":"仲井町","zip_code":"2702242"},{"name":"中金杉","zip_code":"2700007"},{"name":"中根","zip_code":"2710053"},{"name":"中根長津町","zip_code":"2710054"},{"name":"中矢切","zip_code":"2710095"},{"name":"中和倉","zip_code":"2700025"},{"name":"西馬橋","zip_code":"2710044"},{"name":"西馬橋相川町","zip_code":"2710045"},{"name":"西馬橋蔵元町","zip_code":"2710046"},{"name":"西馬橋幸町","zip_code":"2710047"},{"name":"西馬橋広手町","zip_code":"2710048"},{"name":"二十世紀が丘柿の木町","zip_code":"2710088"},{"name":"二十世紀が丘戸山町","zip_code":"2710082"},{"name":"二十世紀が丘中松町","zip_code":"2710085"},{"name":"二十世紀が丘梨元町","zip_code":"2710083"},{"name":"二十世紀が丘萩町","zip_code":"2710086"},{"name":"二十世紀が丘丸山町","zip_code":"2710084"},{"name":"二十世紀が丘美野里町","zip_code":"2710081"},{"name":"根木内","zip_code":"2700011"},{"name":"根本","zip_code":"2710077"},{"name":"野菊野","zip_code":"2702243"},{"name":"八ケ崎","zip_code":"2700023"},{"name":"八ケ崎緑町","zip_code":"2700024"},{"name":"初富飛地","zip_code":"2702217"},{"name":"東平賀","zip_code":"2700003"},{"name":"東松戸","zip_code":"2702225"},{"name":"日暮","zip_code":"2702253"},{"name":"樋野口","zip_code":"2710067"},{"name":"平賀","zip_code":"2700002"},{"name":"二ツ木","zip_code":"2700027"},{"name":"二ツ木二葉町","zip_code":"2700028"},{"name":"本町","zip_code":"2710091"},{"name":"牧の原","zip_code":"2702267"},{"name":"松戸","zip_code":"2710092"},{"name":"松戸新田","zip_code":"2702241"},{"name":"松飛台","zip_code":"2702214"},{"name":"馬橋","zip_code":"2710051"},{"name":"三ケ月","zip_code":"2700026"},{"name":"緑ケ丘","zip_code":"2710074"},{"name":"南花島","zip_code":"2710065"},{"name":"稔台","zip_code":"2702231"},{"name":"三矢小台","zip_code":"2710087"},{"name":"六実","zip_code":"2702204"},{"name":"主水新田","zip_code":"2710042"},{"name":"横須賀","zip_code":"2700031"},{"name":"吉井町","zip_code":"2710066"},{"name":"六高台","zip_code":"2702203"},{"name":"六高台西","zip_code":"2702205"},{"name":"和名ケ谷","zip_code":"2702232"}]},{"name":"野田市","divisions":[{"name":"泉","zip_code":"2700239"},{"name":"今上","zip_code":"2780025"},{"name":"岩名","zip_code":"2780055"},{"name":"大殿井","zip_code":"2780017"},{"name":"岡田","zip_code":"2700223"},{"name":"尾崎","zip_code":"2700235"},{"name":"尾崎台","zip_code":"2700238"},{"name":"親野井","zip_code":"2700227"},{"name":"小山","zip_code":"2700231"},{"name":"柏寺","zip_code":"2700214"},{"name":"春日町","zip_code":"2780052"},{"name":"金杉","zip_code":"2780007"},{"name":"上三ケ尾","zip_code":"2780013"},{"name":"上花輪","zip_code":"2780033"},{"name":"上花輪新町","zip_code":"2780034"},{"name":"木野崎","zip_code":"2780002"},{"name":"木間ケ瀬","zip_code":"2700222"},{"name":"桐ケ作","zip_code":"2700213"},{"name":"光葉町","zip_code":"2780057"},{"name":"五木","zip_code":"2780054"},{"name":"五木新田","zip_code":"2780056"},{"name":"五木新町","zip_code":"2780053"},{"name":"古布内","zip_code":"2700221"},{"name":"座生","zip_code":"2780045"},{"name":"桜木","zip_code":"2780028"},{"name":"桜台","zip_code":"2780032"},{"name":"桜の里","zip_code":"2780048"},{"name":"清水","zip_code":"2780043"},{"name":"清水公園東","zip_code":"2780047"},{"name":"下三ケ尾","zip_code":"2780014"},{"name":"関宿内町","zip_code":"2700204"},{"name":"関宿江戸町","zip_code":"2700205"},{"name":"関宿三軒家","zip_code":"2700201"},{"name":"関宿台町","zip_code":"2700202"},{"name":"関宿元町","zip_code":"2700203"},{"name":"関宿町","zip_code":"2700206"},{"name":"瀬戸","zip_code":"2780012"},{"name":"堤台","zip_code":"2780044"},{"name":"堤根","zip_code":"2780021"},{"name":"つつみ野","zip_code":"2780038"},{"name":"鶴奉","zip_code":"2780003"},{"name":"中里","zip_code":"2700237"},{"name":"中戸","zip_code":"2700215"},{"name":"中根","zip_code":"2780031"},{"name":"中野台","zip_code":"2780035"},{"name":"中野台鹿島町","zip_code":"2780036"},{"name":"七光台","zip_code":"2780051"},{"name":"次木","zip_code":"2700228"},{"name":"西高野","zip_code":"2700216"},{"name":"西三ケ尾","zip_code":"2780015"},{"name":"新田戸","zip_code":"2700212"},{"name":"野田","zip_code":"2780037"},{"name":"花井","zip_code":"2780026"},{"name":"はやま","zip_code":"2700217"},{"name":"蕃昌","zip_code":"2780041"},{"name":"東金野井","zip_code":"2700236"},{"name":"東高野","zip_code":"2700211"},{"name":"東宝珠花","zip_code":"2700226"},{"name":"日の出町","zip_code":"2700234"},{"name":"平井","zip_code":"2700225"},{"name":"二ツ塚","zip_code":"2780016"},{"name":"船形","zip_code":"2700233"},{"name":"丸井","zip_code":"2700224"},{"name":"みずき","zip_code":"2780027"},{"name":"三ツ堀","zip_code":"2780011"},{"name":"宮崎","zip_code":"2780005"},{"name":"莚打","zip_code":"2700232"},{"name":"目吹","zip_code":"2780001"},{"name":"谷津","zip_code":"2780046"},{"name":"柳沢","zip_code":"2780006"},{"name":"山崎","zip_code":"2780022"},{"name":"山崎梅の台","zip_code":"2780024"},{"name":"山崎貝塚町","zip_code":"2780023"},{"name":"横内","zip_code":"2780004"},{"name":"吉春","zip_code":"2780042"}]},{"name":"茂原市","divisions":[{"name":"粟生野","zip_code":"2994106"},{"name":"芦網","zip_code":"2970066"},{"name":"石神","zip_code":"2970058"},{"name":"内長谷","zip_code":"2970062"},{"name":"榎神房","zip_code":"2994115"},{"name":"榎神房飛地","zip_code":"2994118"},{"name":"大沢","zip_code":"2994125"},{"name":"大芝","zip_code":"2970033"},{"name":"大登","zip_code":"2970072"},{"name":"押日","zip_code":"2970075"},{"name":"桂","zip_code":"2994127"},{"name":"桂飛地","zip_code":"2994128"},{"name":"上太田","zip_code":"2994124"},{"name":"上永吉","zip_code":"2970036"},{"name":"上茂原","zip_code":"2970052"},{"name":"萱場","zip_code":"2994111"},{"name":"川島飛地","zip_code":"2970014"},{"name":"上林","zip_code":"2970019"},{"name":"木崎","zip_code":"2970016"},{"name":"北高根飛地","zip_code":"2970003"},{"name":"北塚","zip_code":"2970009"},{"name":"黒戸","zip_code":"2970071"},{"name":"国府関","zip_code":"2970067"},{"name":"小萱場","zip_code":"2994117"},{"name":"小轡","zip_code":"2970004"},{"name":"腰当","zip_code":"2970007"},{"name":"小林","zip_code":"2970074"},{"name":"猿袋","zip_code":"2970041"},{"name":"三ケ谷","zip_code":"2970042"},{"name":"柴名","zip_code":"2994126"},{"name":"渋谷","zip_code":"2970008"},{"name":"清水","zip_code":"2994101"},{"name":"下太田","zip_code":"2994123"},{"name":"下永吉","zip_code":"2970035"},{"name":"庄吉","zip_code":"2970076"},{"name":"新小轡","zip_code":"2970006"},{"name":"墨田","zip_code":"2970053"},{"name":"千沢","zip_code":"2994103"},{"name":"千町","zip_code":"2970002"},{"name":"台田","zip_code":"2970044"},{"name":"高師","zip_code":"2970029"},{"name":"高師台","zip_code":"2970078"},{"name":"高師町","zip_code":"2970021"},{"name":"高田","zip_code":"2994116"},{"name":"立木","zip_code":"2970043"},{"name":"中善寺","zip_code":"2970057"},{"name":"中部","zip_code":"2970027"},{"name":"千代田町","zip_code":"2970023"},{"name":"綱島","zip_code":"2970055"},{"name":"東郷","zip_code":"2970017"},{"name":"道表","zip_code":"2970028"},{"name":"東部台","zip_code":"2970015"},{"name":"中之郷飛地","zip_code":"2970013"},{"name":"中の島町","zip_code":"2970034"},{"name":"長尾","zip_code":"2970073"},{"name":"長清水","zip_code":"2970038"},{"name":"長谷","zip_code":"2970063"},{"name":"七渡","zip_code":"2970001"},{"name":"西野","zip_code":"2994112"},{"name":"萩原町","zip_code":"2970018"},{"name":"早野","zip_code":"2970037"},{"name":"早野新田","zip_code":"2970031"},{"name":"東茂原","zip_code":"2970032"},{"name":"法目","zip_code":"2994113"},{"name":"本小轡","zip_code":"2970005"},{"name":"本納","zip_code":"2994114"},{"name":"町保","zip_code":"2970022"},{"name":"真名","zip_code":"2970077"},{"name":"御蔵芝","zip_code":"2994102"},{"name":"緑ケ丘","zip_code":"2970065"},{"name":"緑町","zip_code":"2970025"},{"name":"南吉田","zip_code":"2994104"},{"name":"箕輪","zip_code":"2970064"},{"name":"六ツ野","zip_code":"2970012"},{"name":"茂原","zip_code":"2970026"},{"name":"茂原西","zip_code":"2970039"},{"name":"野牛","zip_code":"2970045"},{"name":"八千代","zip_code":"2970024"},{"name":"山崎","zip_code":"2970061"},{"name":"谷本","zip_code":"2970011"},{"name":"八幡原","zip_code":"2970054"},{"name":"弓渡","zip_code":"2994105"},{"name":"吉井上","zip_code":"2994122"},{"name":"吉井下","zip_code":"2994121"},{"name":"六田台","zip_code":"2970056"},{"name":"鷲巣","zip_code":"2970051"}]},{"name":"成田市","divisions":[{"name":"青山","zip_code":"2890112"},{"name":"赤荻","zip_code":"2860832"},{"name":"赤坂","zip_code":"2860017"},{"name":"芦田","zip_code":"2860831"},{"name":"東町","zip_code":"2860025"},{"name":"吾妻","zip_code":"2860018"},{"name":"荒海","zip_code":"2860818"},{"name":"安西","zip_code":"2860803"},{"name":"飯田町","zip_code":"2860041"},{"name":"飯仲","zip_code":"2860046"},{"name":"囲護台","zip_code":"2860035"},{"name":"磯部","zip_code":"2860811"},{"name":"伊能","zip_code":"2870204"},{"name":"飯岡","zip_code":"2860813"},{"name":"ウイング土屋","zip_code":"2860029"},{"name":"臼作","zip_code":"2870235"},{"name":"江弁須","zip_code":"2860047"},{"name":"大生","zip_code":"2860817"},{"name":"大清水","zip_code":"2860122"},{"name":"大菅","zip_code":"2890121"},{"name":"大竹","zip_code":"2860841"},{"name":"大沼","zip_code":"2870213"},{"name":"大袋","zip_code":"2860043"},{"name":"大室","zip_code":"2860821"},{"name":"大山","zip_code":"2860131"},{"name":"大和田","zip_code":"2890109"},{"name":"押畑","zip_code":"2860845"},{"name":"小野","zip_code":"2890106"},{"name":"上町","zip_code":"2860032"},{"name":"上福田","zip_code":"2860842"},{"name":"加良部","zip_code":"2860036"},{"name":"川上","zip_code":"2870244"},{"name":"川栗","zip_code":"2860125"},{"name":"官林","zip_code":"2870221"},{"name":"北須賀","zip_code":"2860006"},{"name":"北羽鳥","zip_code":"2860807"},{"name":"吉岡","zip_code":"2820010"},{"name":"木の根","zip_code":"2820005"},{"name":"久井崎","zip_code":"2870232"},{"name":"久住中央","zip_code":"2860819"},{"name":"久米","zip_code":"2860136"},{"name":"久米野","zip_code":"2860126"},{"name":"倉水","zip_code":"2890113"},{"name":"小泉","zip_code":"2860823"},{"name":"公津の杜","zip_code":"2860048"},{"name":"郷部","zip_code":"2860014"},{"name":"御所の内","zip_code":"2860137"},{"name":"小菅","zip_code":"2820027"},{"name":"小浮","zip_code":"2890101"},{"name":"駒井野","zip_code":"2820021"},{"name":"幸町","zip_code":"2860028"},{"name":"桜田","zip_code":"2870217"},{"name":"佐野","zip_code":"2860808"},{"name":"猿山","zip_code":"2890107"},{"name":"三里塚御料","zip_code":"2860116"},{"name":"三里塚光ケ丘","zip_code":"2860117"},{"name":"地蔵原新田","zip_code":"2890115"},{"name":"三里塚","zip_code":"2820011"},{"name":"下方","zip_code":"2860005"},{"name":"芝","zip_code":"2860822"},{"name":"柴田","zip_code":"2870201"},{"name":"下金山","zip_code":"2860836"},{"name":"下福田","zip_code":"2860843"},{"name":"新泉","zip_code":"2860825"},{"name":"新川","zip_code":"2890126"},{"name":"新駒井野","zip_code":"2860123"},{"name":"新田","zip_code":"2870224"},{"name":"新町","zip_code":"2860031"},{"name":"関戸","zip_code":"2860835"},{"name":"浅間","zip_code":"2870206"},{"name":"宗吾","zip_code":"2860004"},{"name":"大栄十余三","zip_code":"2870243"},{"name":"台方","zip_code":"2860003"},{"name":"高","zip_code":"2890103"},{"name":"高岡","zip_code":"2890108"},{"name":"高倉","zip_code":"2890122"},{"name":"宝田","zip_code":"2860844"},{"name":"竜台","zip_code":"2860801"},{"name":"田町","zip_code":"2860024"},{"name":"玉造","zip_code":"2860011"},{"name":"多良貝","zip_code":"2870242"},{"name":"土室","zip_code":"2860815"},{"name":"土屋","zip_code":"2860021"},{"name":"津富浦","zip_code":"2870236"},{"name":"寺台","zip_code":"2860022"},{"name":"天神峰","zip_code":"2820002"},{"name":"天浪","zip_code":"2820001"},{"name":"稲荷山","zip_code":"2870233"},{"name":"東峰","zip_code":"2820003"},{"name":"東和田","zip_code":"2860134"},{"name":"所","zip_code":"2870211"},{"name":"取香","zip_code":"2820006"},{"name":"冬父","zip_code":"2890104"},{"name":"十余三","zip_code":"2820009"},{"name":"中里","zip_code":"2890105"},{"name":"中台","zip_code":"2860015"},{"name":"中野","zip_code":"2870237"},{"name":"仲町","zip_code":"2860027"},{"name":"名木","zip_code":"2890111"},{"name":"名古屋","zip_code":"2890116"},{"name":"南敷","zip_code":"2870216"},{"name":"奈土","zip_code":"2870205"},{"name":"七沢","zip_code":"2890117"},{"name":"長田","zip_code":"2860108"},{"name":"長沼","zip_code":"2860804"},{"name":"並木町","zip_code":"2860045"},{"name":"滑川","zip_code":"2890125"},{"name":"成田","zip_code":"2860023"},{"name":"成井","zip_code":"2890114"},{"name":"成毛","zip_code":"2860816"},{"name":"南部","zip_code":"2860806"},{"name":"南平台","zip_code":"2860042"},{"name":"西和泉","zip_code":"2860827"},{"name":"西大須賀","zip_code":"2890124"},{"name":"西三里塚","zip_code":"2860115"},{"name":"新妻","zip_code":"2860837"},{"name":"野毛平","zip_code":"2860824"},{"name":"野馬込","zip_code":"2890102"},{"name":"橋賀台","zip_code":"2860037"},{"name":"畑ケ田","zip_code":"2860124"},{"name":"幡谷","zip_code":"2860814"},{"name":"花崎町","zip_code":"2860033"},{"name":"はなのき台","zip_code":"2860007"},{"name":"馬場","zip_code":"2860132"},{"name":"東和泉","zip_code":"2860826"},{"name":"東金山","zip_code":"2860833"},{"name":"東三里塚","zip_code":"2820012"},{"name":"東ノ台","zip_code":"2870212"},{"name":"一坪田","zip_code":"2870227"},{"name":"不動ケ岡","zip_code":"2860044"},{"name":"船形","zip_code":"2860001"},{"name":"古込","zip_code":"2820004"},{"name":"堀籠","zip_code":"2870202"},{"name":"北部","zip_code":"2860802"},{"name":"堀之内","zip_code":"2820007"},{"name":"本三里塚","zip_code":"2860118"},{"name":"本城","zip_code":"2860114"},{"name":"本町","zip_code":"2860026"},{"name":"前林","zip_code":"2870222"},{"name":"馬乗里","zip_code":"2870215"},{"name":"松子","zip_code":"2870234"},{"name":"馬橋","zip_code":"2860034"},{"name":"松崎","zip_code":"2860846"},{"name":"美郷台","zip_code":"2860013"},{"name":"水掛","zip_code":"2860812"},{"name":"水の上","zip_code":"2870241"},{"name":"南三里塚","zip_code":"2860113"},{"name":"南羽鳥","zip_code":"2860805"},{"name":"村田","zip_code":"2870203"},{"name":"八代","zip_code":"2860002"},{"name":"山口","zip_code":"2860012"},{"name":"山之作","zip_code":"2860135"},{"name":"横山","zip_code":"2870214"},{"name":"吉倉","zip_code":"2860133"},{"name":"四谷","zip_code":"2890123"},{"name":"米野","zip_code":"2860016"},{"name":"和田","zip_code":"2860834"}]},{"name":"佐倉市","divisions":[{"name":"青菅","zip_code":"2850852"},{"name":"畔田","zip_code":"2850835"},{"name":"天辺","zip_code":"2850064"},{"name":"飯重","zip_code":"2850832"},{"name":"飯田","zip_code":"2850032"},{"name":"飯田台","zip_code":"2850031"},{"name":"飯塚","zip_code":"2850076"},{"name":"飯野","zip_code":"2850003"},{"name":"飯野町","zip_code":"2850009"},{"name":"石川","zip_code":"2850813"},{"name":"稲荷台","zip_code":"2850864"},{"name":"井野","zip_code":"2850855"},{"name":"井野町","zip_code":"2850856"},{"name":"岩富","zip_code":"2850071"},{"name":"岩富町","zip_code":"2850072"},{"name":"岩名","zip_code":"2850004"},{"name":"印南","zip_code":"2850822"},{"name":"臼井","zip_code":"2850863"},{"name":"臼井田","zip_code":"2850861"},{"name":"臼井台","zip_code":"2850866"},{"name":"内田","zip_code":"2850077"},{"name":"裏新町","zip_code":"2850024"},{"name":"瓜坪新田","zip_code":"2850055"},{"name":"江原","zip_code":"2850824"},{"name":"江原新田","zip_code":"2850823"},{"name":"江原台","zip_code":"2850825"},{"name":"王子台","zip_code":"2850837"},{"name":"大崎台","zip_code":"2850817"},{"name":"大作","zip_code":"2850802"},{"name":"大佐倉","zip_code":"2850041"},{"name":"大篠塚","zip_code":"2850806"},{"name":"大蛇町","zip_code":"2850043"},{"name":"太田","zip_code":"2850808"},{"name":"小竹","zip_code":"2850853"},{"name":"生谷","zip_code":"2850836"},{"name":"表町","zip_code":"2850811"},{"name":"海隣寺町","zip_code":"2850013"},{"name":"角来","zip_code":"2850821"},{"name":"鹿島干拓","zip_code":"2850008"},{"name":"鏑木仲田町","zip_code":"2850026"},{"name":"鏑木町","zip_code":"2850025"},{"name":"上勝田","zip_code":"2850054"},{"name":"上志津","zip_code":"2850846"},{"name":"上志津原","zip_code":"2850844"},{"name":"上代","zip_code":"2850044"},{"name":"上別所","zip_code":"2850066"},{"name":"木野子","zip_code":"2850801"},{"name":"神門","zip_code":"2850803"},{"name":"小篠塚","zip_code":"2850805"},{"name":"米戸","zip_code":"2850057"},{"name":"栄町","zip_code":"2850014"},{"name":"坂戸","zip_code":"2850078"},{"name":"寒風","zip_code":"2850062"},{"name":"山王","zip_code":"2850807"},{"name":"下勝田","zip_code":"2850053"},{"name":"下志津","zip_code":"2850841"},{"name":"下志津原","zip_code":"2850842"},{"name":"下根","zip_code":"2850006"},{"name":"下根町","zip_code":"2850007"},{"name":"樹木町","zip_code":"2850035"},{"name":"城","zip_code":"2850815"},{"name":"上座","zip_code":"2850854"},{"name":"城内町","zip_code":"2850017"},{"name":"白銀","zip_code":"2850045"},{"name":"新臼井田","zip_code":"2850862"},{"name":"新町","zip_code":"2850023"},{"name":"千成","zip_code":"2850034"},{"name":"染井野","zip_code":"2850831"},{"name":"高岡","zip_code":"2850046"},{"name":"高崎","zip_code":"2850061"},{"name":"田町","zip_code":"2850012"},{"name":"土浮","zip_code":"2850001"},{"name":"坪山新田","zip_code":"2850056"},{"name":"寺崎","zip_code":"2850818"},{"name":"藤治台","zip_code":"2850816"},{"name":"直弥","zip_code":"2850065"},{"name":"中志津","zip_code":"2850843"},{"name":"中尾余町","zip_code":"2850022"},{"name":"長熊","zip_code":"2850051"},{"name":"七曲","zip_code":"2850073"},{"name":"鍋山町","zip_code":"2850033"},{"name":"並木町","zip_code":"2850015"},{"name":"西志津","zip_code":"2850845"},{"name":"西御門","zip_code":"2850074"},{"name":"西ユーカリが丘","zip_code":"2850850"},{"name":"萩山新田","zip_code":"2850002"},{"name":"八幡台","zip_code":"2850867"},{"name":"羽鳥","zip_code":"2850833"},{"name":"春路","zip_code":"2850814"},{"name":"藤沢町","zip_code":"2850036"},{"name":"将門町","zip_code":"2850042"},{"name":"先崎","zip_code":"2850851"},{"name":"馬渡","zip_code":"2850804"},{"name":"南臼井台","zip_code":"2850865"},{"name":"南ユーカリが丘","zip_code":"2850859"},{"name":"宮内","zip_code":"2850075"},{"name":"宮小路町","zip_code":"2850016"},{"name":"宮ノ台","zip_code":"2850857"},{"name":"宮前","zip_code":"2850005"},{"name":"宮本","zip_code":"2850063"},{"name":"弥勒町","zip_code":"2850038"},{"name":"六崎","zip_code":"2850812"},{"name":"最上町","zip_code":"2850021"},{"name":"本町","zip_code":"2850037"},{"name":"八木","zip_code":"2850052"},{"name":"野狐台町","zip_code":"2850039"},{"name":"山崎","zip_code":"2850011"},{"name":"ユーカリが丘","zip_code":"2850858"},{"name":"吉見","zip_code":"2850834"}]},{"name":"東金市","divisions":[{"name":"粟生飛地","zip_code":"2830035"},{"name":"荒生","zip_code":"2830032"},{"name":"家之子","zip_code":"2830001"},{"name":"砂古瀬","zip_code":"2830056"},{"name":"一之袋","zip_code":"2830057"},{"name":"上谷","zip_code":"2830046"},{"name":"大沼","zip_code":"2830034"},{"name":"大沼田","zip_code":"2830051"},{"name":"丘山台","zip_code":"2830826"},{"name":"押堀","zip_code":"2830065"},{"name":"小野","zip_code":"2830821"},{"name":"家徳","zip_code":"2830062"},{"name":"上布田","zip_code":"2830834"},{"name":"上武射田","zip_code":"2830011"},{"name":"川場","zip_code":"2830064"},{"name":"北幸谷","zip_code":"2830047"},{"name":"北之幸谷","zip_code":"2830061"},{"name":"季美の森東","zip_code":"2830822"},{"name":"求名","zip_code":"2830002"},{"name":"幸田","zip_code":"2830048"},{"name":"極楽寺","zip_code":"2830835"},{"name":"小沼田","zip_code":"2830044"},{"name":"士農田","zip_code":"2830013"},{"name":"下武射田","zip_code":"2830012"},{"name":"下谷","zip_code":"2830054"},{"name":"宿","zip_code":"2830033"},{"name":"酒蔵","zip_code":"2830831"},{"name":"薄島","zip_code":"2830031"},{"name":"関内","zip_code":"2830014"},{"name":"関下","zip_code":"2830038"},{"name":"台方","zip_code":"2830811"},{"name":"高倉","zip_code":"2830022"},{"name":"滝","zip_code":"2830825"},{"name":"滝沢","zip_code":"2830833"},{"name":"田中","zip_code":"2830814"},{"name":"田間","zip_code":"2830005"},{"name":"丹尾","zip_code":"2830824"},{"name":"東金","zip_code":"2830802"},{"name":"道庭","zip_code":"2830003"},{"name":"殿廻","zip_code":"2830025"},{"name":"中野","zip_code":"2830026"},{"name":"西中","zip_code":"2830045"},{"name":"西野飛地","zip_code":"2830042"},{"name":"西福俵","zip_code":"2830816"},{"name":"二之袋","zip_code":"2830052"},{"name":"東岩崎","zip_code":"2830068"},{"name":"東上宿","zip_code":"2830067"},{"name":"東新宿","zip_code":"2830006"},{"name":"東中","zip_code":"2830021"},{"name":"東中島","zip_code":"2830053"},{"name":"菱沼","zip_code":"2830016"},{"name":"日吉台","zip_code":"2830803"},{"name":"広瀬","zip_code":"2830041"},{"name":"福俵","zip_code":"2830812"},{"name":"藤下飛地","zip_code":"2830043"},{"name":"二又","zip_code":"2830004"},{"name":"不動堂飛地","zip_code":"2830036"},{"name":"細屋敷","zip_code":"2830037"},{"name":"堀上","zip_code":"2830063"},{"name":"堀之内","zip_code":"2830027"},{"name":"前之内","zip_code":"2830015"},{"name":"松之郷","zip_code":"2830805"},{"name":"大豆谷","zip_code":"2830815"},{"name":"三浦名","zip_code":"2830028"},{"name":"三ケ尻","zip_code":"2830832"},{"name":"御門","zip_code":"2830024"},{"name":"南上宿","zip_code":"2830066"},{"name":"宮","zip_code":"2830023"},{"name":"八坂台","zip_code":"2830801"},{"name":"山口","zip_code":"2830813"},{"name":"山田","zip_code":"2830823"},{"name":"油井","zip_code":"2830804"},{"name":"依古島","zip_code":"2830055"}]},{"name":"旭市","divisions":[{"name":"秋田","zip_code":"2890518"},{"name":"足川","zip_code":"2892522"},{"name":"イ","zip_code":"2892511"},{"name":"飯岡","zip_code":"2892705"},{"name":"幾世","zip_code":"2892607"},{"name":"泉川","zip_code":"2892534"},{"name":"井戸野","zip_code":"2892531"},{"name":"入野","zip_code":"2890515"},{"name":"岩井","zip_code":"2892602"},{"name":"岩崎","zip_code":"2892711"},{"name":"後草","zip_code":"2892613"},{"name":"江ケ崎","zip_code":"2892614"},{"name":"大塚原","zip_code":"2892533"},{"name":"大間手","zip_code":"2892603"},{"name":"鏑木","zip_code":"2890511"},{"name":"鎌数","zip_code":"2892505"},{"name":"上永井","zip_code":"2892704"},{"name":"川口","zip_code":"2892535"},{"name":"行内","zip_code":"2892707"},{"name":"清滝","zip_code":"2892606"},{"name":"倉橋","zip_code":"2892611"},{"name":"琴田","zip_code":"2892605"},{"name":"駒込","zip_code":"2892532"},{"name":"権田沼新田","zip_code":"2892715"},{"name":"櫻井","zip_code":"2890504"},{"name":"さくら台","zip_code":"2890506"},{"name":"三川","zip_code":"2892714"},{"name":"椎名内","zip_code":"2892514"},{"name":"下永井","zip_code":"2892706"},{"name":"神宮寺","zip_code":"2892524"},{"name":"新町","zip_code":"2892501"},{"name":"清和乙","zip_code":"2890501"},{"name":"清和甲","zip_code":"2890507"},{"name":"関戸","zip_code":"2890514"},{"name":"高生","zip_code":"2892604"},{"name":"長尾","zip_code":"2892615"},{"name":"長部","zip_code":"2890502"},{"name":"中谷里","zip_code":"2892523"},{"name":"ニ","zip_code":"2892504"},{"name":"西足洗","zip_code":"2892515"},{"name":"仁玉","zip_code":"2892525"},{"name":"野中","zip_code":"2892513"},{"name":"ハ","zip_code":"2892521"},{"name":"萩園","zip_code":"2892713"},{"name":"塙","zip_code":"2892702"},{"name":"東足洗","zip_code":"2892512"},{"name":"平松","zip_code":"2892708"},{"name":"舟戸","zip_code":"2890513"},{"name":"蛇園","zip_code":"2892612"},{"name":"松ケ谷","zip_code":"2892601"},{"name":"萬歳","zip_code":"2890505"},{"name":"萬力","zip_code":"2890517"},{"name":"溝原","zip_code":"2890503"},{"name":"南堀之内","zip_code":"2890512"},{"name":"見広","zip_code":"2892616"},{"name":"狢野","zip_code":"2892701"},{"name":"八木","zip_code":"2892703"},{"name":"横根","zip_code":"2892712"},{"name":"米込","zip_code":"2890516"},{"name":"ロ","zip_code":"2892516"}]},{"name":"習志野市","divisions":[{"name":"茜浜","zip_code":"2750024"},{"name":"秋津","zip_code":"2750025"},{"name":"泉町","zip_code":"2750006"},{"name":"大久保","zip_code":"2750011"},{"name":"香澄","zip_code":"2750022"},{"name":"奏の杜","zip_code":"2750028"},{"name":"鷺沼","zip_code":"2750014"},{"name":"鷺沼台","zip_code":"2750015"},{"name":"芝園","zip_code":"2750023"},{"name":"新栄","zip_code":"2750005"},{"name":"袖ケ浦","zip_code":"2750021"},{"name":"津田沼","zip_code":"2750016"},{"name":"花咲","zip_code":"2750013"},{"name":"東習志野","zip_code":"2750001"},{"name":"藤崎","zip_code":"2750017"},{"name":"実籾","zip_code":"2750002"},{"name":"実籾本郷","zip_code":"2750003"},{"name":"本大久保","zip_code":"2750012"},{"name":"屋敷","zip_code":"2750004"},{"name":"谷津","zip_code":"2750026"},{"name":"谷津町","zip_code":"2750027"}]},{"name":"柏市","divisions":[{"name":"青田新田飛地","zip_code":"2770881"},{"name":"青葉台","zip_code":"2770055"},{"name":"あかね町","zip_code":"2770027"},{"name":"明原","zip_code":"2770843"},{"name":"あけぼの","zip_code":"2770841"},{"name":"曙橋","zip_code":"2701451"},{"name":"旭町","zip_code":"2770852"},{"name":"東","zip_code":"2770014"},{"name":"東上町","zip_code":"2770011"},{"name":"東台本町","zip_code":"2770013"},{"name":"泉","zip_code":"2701456"},{"name":"泉町","zip_code":"2770022"},{"name":"泉村新田","zip_code":"2701457"},{"name":"伊勢原","zip_code":"2770883"},{"name":"今谷上町","zip_code":"2770074"},{"name":"今谷南町","zip_code":"2770073"},{"name":"岩井","zip_code":"2701445"},{"name":"岩井村新田","zip_code":"2701446"},{"name":"永楽台","zip_code":"2770086"},{"name":"大青田","zip_code":"2770805"},{"name":"大井","zip_code":"2770902"},{"name":"大井新田","zip_code":"2770901"},{"name":"大島田","zip_code":"2770922"},{"name":"大津ケ丘","zip_code":"2770921"},{"name":"大塚町","zip_code":"2770026"},{"name":"大室","zip_code":"2770813"},{"name":"大山台","zip_code":"2770837"},{"name":"加賀","zip_code":"2770051"},{"name":"風早","zip_code":"2770924"},{"name":"柏","zip_code":"2770005"},{"name":"柏下","zip_code":"2770004"},{"name":"柏中村下","zip_code":"2770006"},{"name":"柏の葉","zip_code":"2770882"},{"name":"柏堀之内新田","zip_code":"2770003"},{"name":"片山","zip_code":"2701453"},{"name":"片山新田","zip_code":"2701452"},{"name":"金山","zip_code":"2701455"},{"name":"上利根","zip_code":"2770811"},{"name":"かやの町","zip_code":"2770846"},{"name":"北柏","zip_code":"2770832"},{"name":"北柏台","zip_code":"2770836"},{"name":"亀甲台町","zip_code":"2770031"},{"name":"小青田","zip_code":"2770803"},{"name":"高南台","zip_code":"2770942"},{"name":"五條谷","zip_code":"2770913"},{"name":"酒井根","zip_code":"2770053"},{"name":"逆井","zip_code":"2770042"},{"name":"逆井藤ノ台","zip_code":"2770041"},{"name":"桜台","zip_code":"2770012"},{"name":"しいの木台","zip_code":"2770945"},{"name":"篠籠田","zip_code":"2770862"},{"name":"宿連寺","zip_code":"2770826"},{"name":"正連寺","zip_code":"2770814"},{"name":"新柏","zip_code":"2770084"},{"name":"新逆井","zip_code":"2770044"},{"name":"新富町","zip_code":"2770856"},{"name":"新十余二","zip_code":"2770804"},{"name":"水道橋","zip_code":"2701461"},{"name":"末広町","zip_code":"2770842"},{"name":"関場町","zip_code":"2770028"},{"name":"千間橋","zip_code":"2701462"},{"name":"染井入新田","zip_code":"2701442"},{"name":"高田","zip_code":"2770861"},{"name":"高柳","zip_code":"2770941"},{"name":"高柳新田","zip_code":"2770943"},{"name":"中央","zip_code":"2770023"},{"name":"中央町","zip_code":"2770021"},{"name":"千代田","zip_code":"2770025"},{"name":"塚崎","zip_code":"2770923"},{"name":"つくしが丘","zip_code":"2770072"},{"name":"手賀","zip_code":"2701465"},{"name":"手賀新田","zip_code":"2701466"},{"name":"手賀の杜","zip_code":"2701447"},{"name":"常盤台","zip_code":"2770087"},{"name":"戸張","zip_code":"2770008"},{"name":"戸張新田","zip_code":"2770007"},{"name":"富里","zip_code":"2770081"},{"name":"豊上町","zip_code":"2770858"},{"name":"豊四季","zip_code":"2770863"},{"name":"豊四季台","zip_code":"2770845"},{"name":"豊住","zip_code":"2770071"},{"name":"豊平町","zip_code":"2770857"},{"name":"十余二","zip_code":"2770872"},{"name":"中新宿","zip_code":"2770066"},{"name":"中十余二","zip_code":"2770873"},{"name":"中原","zip_code":"2770085"},{"name":"名戸ケ谷","zip_code":"2770032"},{"name":"西柏台","zip_code":"2770886"},{"name":"西町","zip_code":"2770844"},{"name":"西原","zip_code":"2770885"},{"name":"西山","zip_code":"2770063"},{"name":"根戸","zip_code":"2770831"},{"name":"根戸新田","zip_code":"2770833"},{"name":"八幡町","zip_code":"2770016"},{"name":"花野井","zip_code":"2770812"},{"name":"光ケ丘","zip_code":"2770065"},{"name":"光ケ丘団地","zip_code":"2770062"},{"name":"東柏","zip_code":"2770017"},{"name":"東逆井","zip_code":"2770045"},{"name":"東中新宿","zip_code":"2770061"},{"name":"東山","zip_code":"2770064"},{"name":"日立台","zip_code":"2770083"},{"name":"ひばりが丘","zip_code":"2770088"},{"name":"藤ケ谷","zip_code":"2770931"},{"name":"藤ケ谷新田","zip_code":"2770932"},{"name":"藤心","zip_code":"2770034"},{"name":"布施","zip_code":"2770825"},{"name":"布瀬","zip_code":"2701464"},{"name":"布施下","zip_code":"2770822"},{"name":"布施新田","zip_code":"2770824"},{"name":"布瀬新田","zip_code":"2701463"},{"name":"布施新町","zip_code":"2770823"},{"name":"船戸","zip_code":"2770802"},{"name":"船戸山高野","zip_code":"2770801"},{"name":"弁天下","zip_code":"2770821"},{"name":"増尾","zip_code":"2770033"},{"name":"増尾台","zip_code":"2770052"},{"name":"松ケ崎","zip_code":"2770835"},{"name":"松ケ崎新田","zip_code":"2770834"},{"name":"松葉町","zip_code":"2770827"},{"name":"緑ケ丘","zip_code":"2770082"},{"name":"みどり台","zip_code":"2770884"},{"name":"緑台","zip_code":"2770903"},{"name":"南柏","zip_code":"2770855"},{"name":"南柏中央","zip_code":"2770075"},{"name":"南逆井","zip_code":"2770043"},{"name":"南高柳","zip_code":"2770944"},{"name":"南増尾","zip_code":"2770054"},{"name":"箕輪","zip_code":"2770912"},{"name":"箕輪新田","zip_code":"2770911"},{"name":"向原町","zip_code":"2770851"},{"name":"柳戸","zip_code":"2701454"},{"name":"弥生町","zip_code":"2770015"},{"name":"豊町","zip_code":"2770854"},{"name":"吉野沢","zip_code":"2770853"},{"name":"呼塚","zip_code":"2770002"},{"name":"呼塚新田","zip_code":"2770001"},{"name":"若柴","zip_code":"2770871"},{"name":"若白毛","zip_code":"2701444"},{"name":"若葉町","zip_code":"2770024"},{"name":"鷲野谷","zip_code":"2701443"},{"name":"鷲野谷新田","zip_code":"2701441"}]},{"name":"勝浦市","divisions":[{"name":"赤羽根","zip_code":"2995263"},{"name":"荒川","zip_code":"2995273"},{"name":"市野川","zip_code":"2995202"},{"name":"市野郷","zip_code":"2995201"},{"name":"出水","zip_code":"2995235"},{"name":"上野","zip_code":"2995266"},{"name":"植野","zip_code":"2995265"},{"name":"植野元宮田","zip_code":"2995267"},{"name":"鵜原","zip_code":"2995243"},{"name":"大楠","zip_code":"2995217"},{"name":"大沢","zip_code":"2995256"},{"name":"大森","zip_code":"2995261"},{"name":"大森上植野入会地","zip_code":"2995251"},{"name":"興津","zip_code":"2995245"},{"name":"興津久保山台","zip_code":"2995246"},{"name":"貝掛","zip_code":"2995272"},{"name":"勝浦","zip_code":"2995234"},{"name":"蟹田","zip_code":"2995212"},{"name":"上植野","zip_code":"2995252"},{"name":"川津","zip_code":"2995232"},{"name":"串浜","zip_code":"2995226"},{"name":"小羽戸","zip_code":"2995218"},{"name":"小松野","zip_code":"2995219"},{"name":"佐野","zip_code":"2995206"},{"name":"沢倉","zip_code":"2995231"},{"name":"宿戸","zip_code":"2995216"},{"name":"白井久保","zip_code":"2995215"},{"name":"白木","zip_code":"2995214"},{"name":"新官","zip_code":"2995224"},{"name":"新戸","zip_code":"2995228"},{"name":"杉戸","zip_code":"2995205"},{"name":"関谷","zip_code":"2995222"},{"name":"台宿","zip_code":"2995254"},{"name":"墨名","zip_code":"2995225"},{"name":"中倉","zip_code":"2995204"},{"name":"中里","zip_code":"2995262"},{"name":"中島","zip_code":"2995264"},{"name":"中谷","zip_code":"2995227"},{"name":"名木","zip_code":"2995253"},{"name":"芳賀","zip_code":"2995213"},{"name":"花里","zip_code":"2995203"},{"name":"浜勝浦","zip_code":"2995233"},{"name":"浜行川","zip_code":"2995255"},{"name":"平田","zip_code":"2995221"},{"name":"部原","zip_code":"2995223"},{"name":"法花","zip_code":"2995271"},{"name":"松野","zip_code":"2995211"},{"name":"松部","zip_code":"2995241"},{"name":"南山田","zip_code":"2995274"},{"name":"守谷","zip_code":"2995244"},{"name":"吉尾","zip_code":"2995242"}]},{"name":"市原市","divisions":[{"name":"相川","zip_code":"2900252"},{"name":"青葉台","zip_code":"2990117"},{"name":"青柳","zip_code":"2990102"},{"name":"青柳海岸","zip_code":"2990103"},{"name":"青柳北","zip_code":"2990101"},{"name":"安久谷","zip_code":"2900509"},{"name":"浅井小向","zip_code":"2900251"},{"name":"旭五所","zip_code":"2900063"},{"name":"安須","zip_code":"2900253"},{"name":"朝生原","zip_code":"2900535"},{"name":"姉崎","zip_code":"2990111"},{"name":"姉崎海岸","zip_code":"2990107"},{"name":"姉崎西","zip_code":"2990119"},{"name":"海士有木","zip_code":"2900207"},{"name":"天羽田","zip_code":"2990126"},{"name":"新井","zip_code":"2900522"},{"name":"新生","zip_code":"2900257"},{"name":"新巻","zip_code":"2900212"},{"name":"飯沼","zip_code":"2900037"},{"name":"池和田","zip_code":"2900516"},{"name":"石川","zip_code":"2900511"},{"name":"石神","zip_code":"2900534"},{"name":"石塚","zip_code":"2900537"},{"name":"泉台","zip_code":"2990114"},{"name":"磯ケ谷","zip_code":"2900204"},{"name":"飯給","zip_code":"2900543"},{"name":"市原","zip_code":"2900015"},{"name":"市場","zip_code":"2900505"},{"name":"糸久","zip_code":"2900262"},{"name":"犬成","zip_code":"2900166"},{"name":"今津朝山","zip_code":"2990106"},{"name":"今富","zip_code":"2900265"},{"name":"不入斗","zip_code":"2990115"},{"name":"岩","zip_code":"2900228"},{"name":"岩崎","zip_code":"2900047"},{"name":"岩崎西","zip_code":"2900046"},{"name":"岩野見","zip_code":"2900052"},{"name":"上原","zip_code":"2900222"},{"name":"牛久","zip_code":"2900225"},{"name":"馬立","zip_code":"2900221"},{"name":"潤井戸","zip_code":"2900171"},{"name":"うるいど南","zip_code":"2900170"},{"name":"江子田","zip_code":"2900508"},{"name":"大桶","zip_code":"2900211"},{"name":"大久保","zip_code":"2900532"},{"name":"大蔵","zip_code":"2900234"},{"name":"大作","zip_code":"2900172"},{"name":"大坪","zip_code":"2900208"},{"name":"大戸","zip_code":"2900542"},{"name":"大厩","zip_code":"2900002"},{"name":"大和田","zip_code":"2900553"},{"name":"荻作","zip_code":"2900177"},{"name":"奥野","zip_code":"2900513"},{"name":"押沼","zip_code":"2900157"},{"name":"小田部","zip_code":"2900176"},{"name":"折津","zip_code":"2900533"},{"name":"海保","zip_code":"2900266"},{"name":"柿木台","zip_code":"2900548"},{"name":"風戸","zip_code":"2900241"},{"name":"柏原","zip_code":"2990105"},{"name":"神代","zip_code":"2900258"},{"name":"片又木","zip_code":"2990113"},{"name":"勝間","zip_code":"2900174"},{"name":"金沢","zip_code":"2900233"},{"name":"上高根","zip_code":"2900243"},{"name":"加茂","zip_code":"2900025"},{"name":"栢橋","zip_code":"2900235"},{"name":"川在","zip_code":"2900213"},{"name":"神崎","zip_code":"2900178"},{"name":"菊間","zip_code":"2900007"},{"name":"喜多","zip_code":"2900167"},{"name":"北国分寺台","zip_code":"2900071"},{"name":"吉沢","zip_code":"2900523"},{"name":"君塚","zip_code":"2900051"},{"name":"久々津","zip_code":"2900179"},{"name":"草刈","zip_code":"2900156"},{"name":"久保","zip_code":"2900552"},{"name":"五井","zip_code":"2900056"},{"name":"五井金杉","zip_code":"2900057"},{"name":"五井中央西","zip_code":"2900081"},{"name":"五井中央東","zip_code":"2900054"},{"name":"五井西","zip_code":"2900038"},{"name":"五井東","zip_code":"2900055"},{"name":"五井海岸","zip_code":"2900058"},{"name":"五井南海岸","zip_code":"2900045"},{"name":"高坂","zip_code":"2900254"},{"name":"光風台","zip_code":"2900255"},{"name":"小折","zip_code":"2900269"},{"name":"郡本","zip_code":"2900013"},{"name":"小草畑","zip_code":"2900526"},{"name":"国分寺台中央","zip_code":"2900073"},{"name":"国本","zip_code":"2900531"},{"name":"古敷谷","zip_code":"2900528"},{"name":"五所","zip_code":"2900066"},{"name":"古都辺","zip_code":"2900165"},{"name":"駒込","zip_code":"2900559"},{"name":"小谷田","zip_code":"2900529"},{"name":"権現堂","zip_code":"2900209"},{"name":"金剛地","zip_code":"2900162"},{"name":"西広","zip_code":"2900022"},{"name":"桜台","zip_code":"2990127"},{"name":"佐是","zip_code":"2900229"},{"name":"更級","zip_code":"2900050"},{"name":"椎津","zip_code":"2990118"},{"name":"椎の木台","zip_code":"2990128"},{"name":"島田","zip_code":"2900506"},{"name":"島野","zip_code":"2900034"},{"name":"下野","zip_code":"2900154"},{"name":"下矢田","zip_code":"2900518"},{"name":"十五沢","zip_code":"2900263"},{"name":"宿","zip_code":"2900503"},{"name":"白塚","zip_code":"2990104"},{"name":"白金町","zip_code":"2900059"},{"name":"真ケ谷","zip_code":"2900502"},{"name":"菅野","zip_code":"2900539"},{"name":"諏訪","zip_code":"2900026"},{"name":"瀬又","zip_code":"2900151"},{"name":"惣社","zip_code":"2900023"},{"name":"高倉","zip_code":"2900161"},{"name":"高滝","zip_code":"2900555"},{"name":"高田","zip_code":"2900152"},{"name":"滝口","zip_code":"2900173"},{"name":"武士","zip_code":"2900203"},{"name":"辰巳台東","zip_code":"2900003"},{"name":"辰巳台西","zip_code":"2900004"},{"name":"立野","zip_code":"2990121"},{"name":"田尾","zip_code":"2900515"},{"name":"田淵","zip_code":"2900546"},{"name":"田淵旧日竹","zip_code":"2900545"},{"name":"玉前","zip_code":"2900041"},{"name":"玉前西","zip_code":"2900044"},{"name":"千種","zip_code":"2990109"},{"name":"千種海岸","zip_code":"2990108"},{"name":"ちはら台西","zip_code":"2900143"},{"name":"ちはら台東","zip_code":"2900141"},{"name":"ちはら台南","zip_code":"2900142"},{"name":"廿五里","zip_code":"2900032"},{"name":"月崎","zip_code":"2900547"},{"name":"月出","zip_code":"2900527"},{"name":"土宇","zip_code":"2900215"},{"name":"鶴舞","zip_code":"2900512"},{"name":"出津","zip_code":"2900042"},{"name":"出津西","zip_code":"2900043"},{"name":"寺谷","zip_code":"2900236"},{"name":"徳氏","zip_code":"2900544"},{"name":"戸面","zip_code":"2900536"},{"name":"外部田","zip_code":"2900551"},{"name":"豊成","zip_code":"2990122"},{"name":"中","zip_code":"2900226"},{"name":"中高根","zip_code":"2900242"},{"name":"中野","zip_code":"2900153"},{"name":"永吉","zip_code":"2900168"},{"name":"奈良","zip_code":"2900164"},{"name":"新堀","zip_code":"2900206"},{"name":"西国吉","zip_code":"2900231"},{"name":"西国分寺台","zip_code":"2900072"},{"name":"西五所","zip_code":"2900065"},{"name":"西野","zip_code":"2900261"},{"name":"西野谷","zip_code":"2900014"},{"name":"根田","zip_code":"2900024"},{"name":"能満","zip_code":"2900011"},{"name":"野毛","zip_code":"2900033"},{"name":"葉木","zip_code":"2900175"},{"name":"畑木","zip_code":"2990112"},{"name":"原田","zip_code":"2900507"},{"name":"番場","zip_code":"2900155"},{"name":"東国吉","zip_code":"2900163"},{"name":"東国分寺台","zip_code":"2900074"},{"name":"東五所","zip_code":"2900064"},{"name":"引田","zip_code":"2900256"},{"name":"櫃挾","zip_code":"2900214"},{"name":"平田","zip_code":"2900053"},{"name":"平野","zip_code":"2900541"},{"name":"深城","zip_code":"2990123"},{"name":"福増","zip_code":"2900202"},{"name":"藤井","zip_code":"2900012"},{"name":"二日市場","zip_code":"2900216"},{"name":"不入","zip_code":"2900554"},{"name":"古市場","zip_code":"2900008"},{"name":"平蔵","zip_code":"2900524"},{"name":"奉免","zip_code":"2900224"},{"name":"堀越","zip_code":"2900504"},{"name":"本郷","zip_code":"2900556"},{"name":"町田","zip_code":"2900267"},{"name":"松ケ島","zip_code":"2900035"},{"name":"松ケ島西","zip_code":"2900036"},{"name":"松崎","zip_code":"2900217"},{"name":"万田野","zip_code":"2900549"},{"name":"水沢","zip_code":"2900514"},{"name":"南岩崎","zip_code":"2900244"},{"name":"南国分寺台","zip_code":"2900075"},{"name":"皆吉","zip_code":"2900232"},{"name":"宮原","zip_code":"2900264"},{"name":"妙香","zip_code":"2900223"},{"name":"迎田","zip_code":"2990116"},{"name":"村上","zip_code":"2900031"},{"name":"門前","zip_code":"2900016"},{"name":"矢田","zip_code":"2900517"},{"name":"柳川","zip_code":"2900538"},{"name":"柳原","zip_code":"2900268"},{"name":"藪","zip_code":"2900227"},{"name":"山木","zip_code":"2900005"},{"name":"山倉","zip_code":"2900201"},{"name":"山口","zip_code":"2900558"},{"name":"山小川","zip_code":"2900521"},{"name":"山田","zip_code":"2900205"},{"name":"山田橋","zip_code":"2900021"},{"name":"八幡","zip_code":"2900062"},{"name":"八幡石塚","zip_code":"2900061"},{"name":"八幡海岸通","zip_code":"2900067"},{"name":"八幡北町","zip_code":"2900069"},{"name":"八幡浦","zip_code":"2900068"},{"name":"有秋台東","zip_code":"2990124"},{"name":"有秋台西","zip_code":"2990125"},{"name":"養老","zip_code":"2900557"},{"name":"米沢","zip_code":"2900501"},{"name":"米原","zip_code":"2900525"},{"name":"若宮","zip_code":"2900006"},{"name":"分目","zip_code":"2900259"}]},{"name":"流山市","divisions":[{"name":"青田","zip_code":"2700112"},{"name":"市野谷","zip_code":"2700137"},{"name":"後平井","zip_code":"2700151"},{"name":"江戸川台東","zip_code":"2700111"},{"name":"江戸川台西","zip_code":"2700115"},{"name":"大畔","zip_code":"2700122"},{"name":"思井","zip_code":"2700154"},{"name":"加","zip_code":"2700176"},{"name":"上貝塚","zip_code":"2700171"},{"name":"上新宿","zip_code":"2700125"},{"name":"上新宿新田","zip_code":"2700126"},{"name":"木","zip_code":"2700162"},{"name":"北","zip_code":"2700117"},{"name":"桐ケ谷","zip_code":"2700172"},{"name":"こうのす台","zip_code":"2700102"},{"name":"駒木","zip_code":"2700132"},{"name":"駒木台","zip_code":"2700113"},{"name":"小屋","zip_code":"2700118"},{"name":"芝崎","zip_code":"2700146"},{"name":"下花輪","zip_code":"2700174"},{"name":"十太夫","zip_code":"2700133"},{"name":"谷","zip_code":"2700173"},{"name":"中","zip_code":"2700153"},{"name":"中野久木","zip_code":"2700116"},{"name":"長崎","zip_code":"2700134"},{"name":"流山","zip_code":"2700164"},{"name":"名都借","zip_code":"2700145"},{"name":"西初石","zip_code":"2700121"},{"name":"西平井","zip_code":"2700156"},{"name":"西深井","zip_code":"2700107"},{"name":"西松ケ丘","zip_code":"2700142"},{"name":"野々下","zip_code":"2700135"},{"name":"東初石","zip_code":"2700114"},{"name":"東深井","zip_code":"2700101"},{"name":"平方","zip_code":"2700105"},{"name":"平方原新田","zip_code":"2700104"},{"name":"平方村新田","zip_code":"2700106"},{"name":"鰭ケ崎","zip_code":"2700161"},{"name":"深井新田","zip_code":"2700108"},{"name":"富士見台","zip_code":"2700127"},{"name":"古間木","zip_code":"2700136"},{"name":"平和台","zip_code":"2700157"},{"name":"前ケ崎","zip_code":"2700144"},{"name":"前平井","zip_code":"2700152"},{"name":"松ケ丘","zip_code":"2700141"},{"name":"美田","zip_code":"2700131"},{"name":"南","zip_code":"2700124"},{"name":"南流山","zip_code":"2700163"},{"name":"美原","zip_code":"2700103"},{"name":"宮園","zip_code":"2700155"},{"name":"三輪野山","zip_code":"2700175"},{"name":"向小金","zip_code":"2700143"},{"name":"若葉台","zip_code":"2700123"}]},{"name":"八千代市","divisions":[{"name":"神久保","zip_code":"2760008"},{"name":"大和田","zip_code":"2760045"},{"name":"大和田新田","zip_code":"2760035"},{"name":"尾崎","zip_code":"2760048"},{"name":"勝田","zip_code":"2760024"},{"name":"勝田台","zip_code":"2760023"},{"name":"勝田台北","zip_code":"2760020"},{"name":"勝田台南","zip_code":"2760025"},{"name":"神野","zip_code":"2760016"},{"name":"上高野","zip_code":"2760022"},{"name":"萱田","zip_code":"2760043"},{"name":"萱田町","zip_code":"2760044"},{"name":"桑納","zip_code":"2760006"},{"name":"小池","zip_code":"2760001"},{"name":"佐山","zip_code":"2760011"},{"name":"島田","zip_code":"2760005"},{"name":"島田台","zip_code":"2760004"},{"name":"下市場","zip_code":"2760026"},{"name":"下高野","zip_code":"2760021"},{"name":"桑橋","zip_code":"2760007"},{"name":"大学町","zip_code":"2760003"},{"name":"高津","zip_code":"2760035"},{"name":"高津東","zip_code":"2760037"},{"name":"平戸","zip_code":"2760017"},{"name":"保品","zip_code":"2760013"},{"name":"堀の内","zip_code":"2760012"},{"name":"真木野","zip_code":"2760002"},{"name":"緑が丘","zip_code":"2760049"},{"name":"麦丸","zip_code":"2760041"},{"name":"村上","zip_code":"2760027"},{"name":"村上南","zip_code":"2760029"},{"name":"八千代台東","zip_code":"2760032"},{"name":"八千代台西","zip_code":"2760034"},{"name":"八千代台南","zip_code":"2760033"},{"name":"八千代台北","zip_code":"2760031"},{"name":"ゆりのき台","zip_code":"2760042"},{"name":"吉橋","zip_code":"2760047"},{"name":"米本","zip_code":"2760014"}]},{"name":"我孫子市","divisions":[{"name":"相島新田","zip_code":"2701106"},{"name":"青山","zip_code":"2701173"},{"name":"青山台","zip_code":"2701175"},{"name":"我孫子","zip_code":"2701166"},{"name":"我孫子新田","zip_code":"2701155"},{"name":"新木","zip_code":"2701112"},{"name":"新木野","zip_code":"2701114"},{"name":"新木村下","zip_code":"2701118"},{"name":"泉","zip_code":"2701142"},{"name":"都部","zip_code":"2701131"},{"name":"都部新田","zip_code":"2701135"},{"name":"都部村新田","zip_code":"2701134"},{"name":"江蔵地","zip_code":"2701113"},{"name":"大作新田","zip_code":"2701115"},{"name":"岡発戸","zip_code":"2701137"},{"name":"岡発戸新田","zip_code":"2701136"},{"name":"上沼田","zip_code":"2701133"},{"name":"北新田","zip_code":"2701172"},{"name":"久寺家","zip_code":"2701163"},{"name":"高野山","zip_code":"2701145"},{"name":"高野山新田","zip_code":"2701146"},{"name":"寿","zip_code":"2701152"},{"name":"湖北台","zip_code":"2701132"},{"name":"栄","zip_code":"2701141"},{"name":"下ケ戸","zip_code":"2701138"},{"name":"柴崎","zip_code":"2701177"},{"name":"柴崎台","zip_code":"2701176"},{"name":"下沼田","zip_code":"2701117"},{"name":"新々田","zip_code":"2701104"},{"name":"浅間前新田","zip_code":"2701116"},{"name":"台田","zip_code":"2701167"},{"name":"つくし野","zip_code":"2701164"},{"name":"天王台","zip_code":"2701143"},{"name":"中里","zip_code":"2701122"},{"name":"中里新田","zip_code":"2701126"},{"name":"中沼田","zip_code":"2701125"},{"name":"中峠","zip_code":"2701121"},{"name":"中峠台","zip_code":"2701128"},{"name":"中峠村下","zip_code":"2701127"},{"name":"並木","zip_code":"2701165"},{"name":"根戸","zip_code":"2701168"},{"name":"根戸新田","zip_code":"2701156"},{"name":"白山","zip_code":"2701154"},{"name":"東我孫子","zip_code":"2701144"},{"name":"日の出","zip_code":"2701174"},{"name":"日秀","zip_code":"2701123"},{"name":"日秀新田","zip_code":"2701124"},{"name":"布佐","zip_code":"2701101"},{"name":"布佐下新田","zip_code":"2701107"},{"name":"布佐酉町","zip_code":"2701103"},{"name":"布佐平和台","zip_code":"2701108"},{"name":"布施","zip_code":"2701162"},{"name":"布施下","zip_code":"2701161"},{"name":"船戸","zip_code":"2701158"},{"name":"古戸","zip_code":"2701111"},{"name":"弁天下","zip_code":"2701171"},{"name":"本町","zip_code":"2701151"},{"name":"三河屋新田","zip_code":"2701105"},{"name":"緑","zip_code":"2701153"},{"name":"南青山","zip_code":"2701178"},{"name":"南新木","zip_code":"2701119"},{"name":"都","zip_code":"2701102"},{"name":"呼塚新田","zip_code":"2701157"},{"name":"若松","zip_code":"2701147"}]},{"name":"鴨川市","divisions":[{"name":"天津","zip_code":"2995503"},{"name":"天面","zip_code":"2992864"},{"name":"粟斗","zip_code":"2960031"},{"name":"池田","zip_code":"2960024"},{"name":"和泉","zip_code":"2960045"},{"name":"磯村","zip_code":"2960003"},{"name":"内浦","zip_code":"2995502"},{"name":"打墨","zip_code":"2960035"},{"name":"江見青木","zip_code":"2992842"},{"name":"江見内遠野","zip_code":"2992847"},{"name":"江見外堀","zip_code":"2992846"},{"name":"江見太夫崎","zip_code":"2992865"},{"name":"江見東真門","zip_code":"2992844"},{"name":"江見西真門","zip_code":"2992845"},{"name":"江見吉浦","zip_code":"2992866"},{"name":"大川面","zip_code":"2960121"},{"name":"大幡","zip_code":"2960124"},{"name":"大山平塚","zip_code":"2960237"},{"name":"押切","zip_code":"2960023"},{"name":"太田学","zip_code":"2960025"},{"name":"貝渚","zip_code":"2960004"},{"name":"釜沼","zip_code":"2960231"},{"name":"上","zip_code":"2992858"},{"name":"上小原","zip_code":"2960103"},{"name":"川代","zip_code":"2960015"},{"name":"北小町","zip_code":"2960101"},{"name":"京田","zip_code":"2960022"},{"name":"清澄","zip_code":"2995505"},{"name":"金束","zip_code":"2960233"},{"name":"古畑","zip_code":"2960234"},{"name":"小湊","zip_code":"2995501"},{"name":"佐野","zip_code":"2960236"},{"name":"下小原","zip_code":"2960102"},{"name":"主基西","zip_code":"2960106"},{"name":"代","zip_code":"2992854"},{"name":"大里","zip_code":"2960011"},{"name":"竹平","zip_code":"2960021"},{"name":"田原西","zip_code":"2960013"},{"name":"寺門","zip_code":"2960122"},{"name":"仲","zip_code":"2960111"},{"name":"仲町","zip_code":"2992851"},{"name":"北風原","zip_code":"2960123"},{"name":"奈良林","zip_code":"2960235"},{"name":"成川","zip_code":"2960105"},{"name":"西","zip_code":"2992856"},{"name":"西江見","zip_code":"2992841"},{"name":"西町","zip_code":"2960043"},{"name":"西山","zip_code":"2992867"},{"name":"滑谷","zip_code":"2960034"},{"name":"畑","zip_code":"2992855"},{"name":"花房","zip_code":"2960032"},{"name":"浜荻","zip_code":"2995504"},{"name":"坂東","zip_code":"2960016"},{"name":"東","zip_code":"2992857"},{"name":"東江見","zip_code":"2992843"},{"name":"東町","zip_code":"2960041"},{"name":"東元浜荻飛地","zip_code":"2960042"},{"name":"平塚","zip_code":"2960232"},{"name":"広場","zip_code":"2960044"},{"name":"二子","zip_code":"2992852"},{"name":"太尾","zip_code":"2960014"},{"name":"太海","zip_code":"2992862"},{"name":"太海浜","zip_code":"2992863"},{"name":"太海西","zip_code":"2992861"},{"name":"細野","zip_code":"2960114"},{"name":"前原","zip_code":"2960002"},{"name":"松尾寺","zip_code":"2960115"},{"name":"南小町","zip_code":"2960104"},{"name":"宮","zip_code":"2992853"},{"name":"宮山","zip_code":"2960112"},{"name":"八色","zip_code":"2960033"},{"name":"横尾","zip_code":"2960125"},{"name":"横渚","zip_code":"2960001"},{"name":"吉尾西","zip_code":"2960126"},{"name":"吉尾平塚","zip_code":"2960113"},{"name":"四方木","zip_code":"2995506"},{"name":"来秀","zip_code":"2960012"}]},{"name":"鎌ケ谷市","divisions":[{"name":"粟野","zip_code":"2730132"},{"name":"右京塚","zip_code":"2730102"},{"name":"鎌ケ谷","zip_code":"2730105"},{"name":"軽井沢","zip_code":"2730131"},{"name":"北中沢","zip_code":"2730111"},{"name":"北初富","zip_code":"2730126"},{"name":"串崎新田","zip_code":"2730127"},{"name":"くぬぎ山","zip_code":"2730128"},{"name":"佐津間","zip_code":"2730136"},{"name":"新鎌ケ谷","zip_code":"2730107"},{"name":"中央","zip_code":"2730124"},{"name":"富岡","zip_code":"2730101"},{"name":"中佐津間","zip_code":"2730135"},{"name":"中沢","zip_code":"2730118"},{"name":"中沢新町","zip_code":"2730119"},{"name":"西佐津間","zip_code":"2730134"},{"name":"西道野辺","zip_code":"2730117"},{"name":"初富","zip_code":"2730121"},{"name":"初富本町","zip_code":"2730125"},{"name":"東鎌ケ谷","zip_code":"2730104"},{"name":"東中沢","zip_code":"2730112"},{"name":"東初富","zip_code":"2730122"},{"name":"東道野辺","zip_code":"2730115"},{"name":"馬込沢","zip_code":"2730116"},{"name":"丸山","zip_code":"2730103"},{"name":"道野辺","zip_code":"2730114"},{"name":"道野辺中央","zip_code":"2730113"},{"name":"道野辺本町","zip_code":"2730137"},{"name":"南鎌ケ谷","zip_code":"2730106"},{"name":"南佐津間","zip_code":"2730133"},{"name":"南初富","zip_code":"2730123"}]},{"name":"君津市","divisions":[{"name":"青柳","zip_code":"2920454"},{"name":"愛宕","zip_code":"2920445"},{"name":"泉","zip_code":"2991112"},{"name":"市宿","zip_code":"2921153"},{"name":"糸川","zip_code":"2921145"},{"name":"芋窪","zip_code":"2920433"},{"name":"岩出","zip_code":"2920442"},{"name":"植畑","zip_code":"2921166"},{"name":"内箕輪","zip_code":"2991175"},{"name":"内蓑輪","zip_code":"2991176"},{"name":"浦田","zip_code":"2920432"},{"name":"大井","zip_code":"2991103"},{"name":"大井戸","zip_code":"2921146"},{"name":"大岩","zip_code":"2921173"},{"name":"大戸見","zip_code":"2920512"},{"name":"大戸見旧名殿","zip_code":"2920514"},{"name":"大野台","zip_code":"2921151"},{"name":"大山野","zip_code":"2991123"},{"name":"大鷲","zip_code":"2991102"},{"name":"大鷲新田","zip_code":"2991101"},{"name":"大和田","zip_code":"2991146"},{"name":"荻作","zip_code":"2921156"},{"name":"奥米","zip_code":"2921175"},{"name":"大坂","zip_code":"2920511"},{"name":"小櫃台","zip_code":"2920412"},{"name":"折木沢","zip_code":"2920533"},{"name":"賀恵渕","zip_code":"2920404"},{"name":"香木原","zip_code":"2920527"},{"name":"かずさ小糸","zip_code":"2921149"},{"name":"加名盛","zip_code":"2920513"},{"name":"鹿野山","zip_code":"2921155"},{"name":"鎌滝","zip_code":"2921158"},{"name":"上","zip_code":"2991107"},{"name":"上新田","zip_code":"2920452"},{"name":"上湯江","zip_code":"2991138"},{"name":"釜生","zip_code":"2920535"},{"name":"川俣","zip_code":"2920524"},{"name":"川谷","zip_code":"2920415"},{"name":"北久保","zip_code":"2991164"},{"name":"北子安","zip_code":"2991161"},{"name":"君津","zip_code":"2991141"},{"name":"君津台","zip_code":"2991143"},{"name":"行馬","zip_code":"2921148"},{"name":"黄和田畑","zip_code":"2920537"},{"name":"草川原","zip_code":"2920525"},{"name":"久保","zip_code":"2991152"},{"name":"蔵玉","zip_code":"2920536"},{"name":"栗坪","zip_code":"2920435"},{"name":"久留里","zip_code":"2920422"},{"name":"久留里市場","zip_code":"2920421"},{"name":"久留里大谷","zip_code":"2920414"},{"name":"久留里大和田","zip_code":"2920423"},{"name":"小市部","zip_code":"2920416"},{"name":"小糸大谷","zip_code":"2921142"},{"name":"高坂","zip_code":"2991165"},{"name":"郡","zip_code":"2991127"},{"name":"小山野","zip_code":"2991126"},{"name":"坂田","zip_code":"2991142"},{"name":"坂畑","zip_code":"2920532"},{"name":"笹","zip_code":"2920526"},{"name":"貞元","zip_code":"2991133"},{"name":"皿引","zip_code":"2991116"},{"name":"三田","zip_code":"2920403"},{"name":"新御堂","zip_code":"2991136"},{"name":"下湯江","zip_code":"2991131"},{"name":"宿原","zip_code":"2921176"},{"name":"小香","zip_code":"2991137"},{"name":"白駒","zip_code":"2991105"},{"name":"末吉","zip_code":"2920451"},{"name":"杉谷","zip_code":"2991135"},{"name":"清和市場","zip_code":"2921154"},{"name":"草牛","zip_code":"2991114"},{"name":"外箕輪","zip_code":"2991173"},{"name":"台","zip_code":"2991153"},{"name":"大中","zip_code":"2920522"},{"name":"高水","zip_code":"2920516"},{"name":"滝原","zip_code":"2920534"},{"name":"旅名","zip_code":"2921178"},{"name":"俵田","zip_code":"2920455"},{"name":"塚原","zip_code":"2921147"},{"name":"作木","zip_code":"2991124"},{"name":"辻森","zip_code":"2921172"},{"name":"寺沢","zip_code":"2920443"},{"name":"常代","zip_code":"2991121"},{"name":"戸崎","zip_code":"2920441"},{"name":"利根","zip_code":"2920521"},{"name":"富田","zip_code":"2920444"},{"name":"豊田","zip_code":"2920523"},{"name":"豊英","zip_code":"2921179"},{"name":"中島","zip_code":"2991106"},{"name":"中富","zip_code":"2991132"},{"name":"中野","zip_code":"2991151"},{"name":"長石","zip_code":"2921143"},{"name":"西粟倉","zip_code":"2921168"},{"name":"西猪原","zip_code":"2921162"},{"name":"西坂田","zip_code":"2991145"},{"name":"西原","zip_code":"2920402"},{"name":"西日笠","zip_code":"2921165"},{"name":"日渡根","zip_code":"2921152"},{"name":"糠田","zip_code":"2991104"},{"name":"糠田飛地","zip_code":"2921140"},{"name":"怒田沢","zip_code":"2921177"},{"name":"怒田","zip_code":"2920431"},{"name":"根本","zip_code":"2921141"},{"name":"練木","zip_code":"2991108"},{"name":"長谷川","zip_code":"2920411"},{"name":"浜子","zip_code":"2991122"},{"name":"東粟倉","zip_code":"2921163"},{"name":"東猪原","zip_code":"2921161"},{"name":"東坂田","zip_code":"2991144"},{"name":"東日笠","zip_code":"2921164"},{"name":"尾車","zip_code":"2991113"},{"name":"人見","zip_code":"2991147"},{"name":"平田","zip_code":"2921167"},{"name":"平山","zip_code":"2920502"},{"name":"広岡","zip_code":"2920503"},{"name":"福岡","zip_code":"2921157"},{"name":"藤林","zip_code":"2920531"},{"name":"二入","zip_code":"2921171"},{"name":"法木","zip_code":"2921144"},{"name":"法木作","zip_code":"2991174"},{"name":"正木","zip_code":"2921174"},{"name":"馬登","zip_code":"2991115"},{"name":"南久保","zip_code":"2991154"},{"name":"南子安","zip_code":"2991162"},{"name":"三直","zip_code":"2991172"},{"name":"箕輪","zip_code":"2920453"},{"name":"宮下","zip_code":"2991117"},{"name":"向郷","zip_code":"2920434"},{"name":"六手","zip_code":"2991111"},{"name":"杢師","zip_code":"2991163"},{"name":"八重原","zip_code":"2991171"},{"name":"柳城","zip_code":"2920515"},{"name":"山高原","zip_code":"2991125"},{"name":"山滝野","zip_code":"2920501"},{"name":"山本","zip_code":"2920401"},{"name":"八幡","zip_code":"2991134"},{"name":"陽光台","zip_code":"2991166"},{"name":"吉野","zip_code":"2920413"}]},{"name":"富津市","divisions":[{"name":"相川","zip_code":"2991615"},{"name":"相野谷","zip_code":"2930031"},{"name":"青木","zip_code":"2930012"},{"name":"新井","zip_code":"2930022"},{"name":"一色","zip_code":"2930033"},{"name":"不入斗","zip_code":"2991613"},{"name":"岩坂","zip_code":"2991608"},{"name":"岩瀬","zip_code":"2930043"},{"name":"岩本","zip_code":"2991746"},{"name":"上後","zip_code":"2991753"},{"name":"宇藤原","zip_code":"2991732"},{"name":"売津","zip_code":"2991617"},{"name":"大川崎","zip_code":"2991736"},{"name":"大田和","zip_code":"2991735"},{"name":"大堀","zip_code":"2930001"},{"name":"大森","zip_code":"2991758"},{"name":"押切","zip_code":"2991757"},{"name":"恩田","zip_code":"2991751"},{"name":"海良","zip_code":"2991616"},{"name":"数馬","zip_code":"2991606"},{"name":"加藤","zip_code":"2991609"},{"name":"金谷","zip_code":"2991861"},{"name":"上","zip_code":"2930041"},{"name":"上飯野","zip_code":"2930005"},{"name":"亀沢","zip_code":"2930051"},{"name":"亀田","zip_code":"2930057"},{"name":"川名","zip_code":"2930023"},{"name":"絹","zip_code":"2930034"},{"name":"小久保","zip_code":"2930042"},{"name":"小志駒","zip_code":"2991747"},{"name":"近藤","zip_code":"2930046"},{"name":"桜井","zip_code":"2991602"},{"name":"桜井総稱鬼泪山","zip_code":"2991601"},{"name":"笹毛","zip_code":"2930055"},{"name":"佐貫","zip_code":"2930058"},{"name":"更和","zip_code":"2991603"},{"name":"志駒","zip_code":"2991745"},{"name":"篠部","zip_code":"2930024"},{"name":"下飯野","zip_code":"2930006"},{"name":"障子谷","zip_code":"2930032"},{"name":"新富","zip_code":"2930011"},{"name":"関","zip_code":"2991734"},{"name":"関尻","zip_code":"2991752"},{"name":"台原","zip_code":"2991604"},{"name":"高溝","zip_code":"2991733"},{"name":"田倉","zip_code":"2991731"},{"name":"竹岡","zip_code":"2991621"},{"name":"田原","zip_code":"2991755"},{"name":"千種新田","zip_code":"2930036"},{"name":"鶴岡","zip_code":"2930054"},{"name":"寺尾","zip_code":"2991759"},{"name":"豊岡","zip_code":"2991742"},{"name":"中","zip_code":"2930044"},{"name":"長崎","zip_code":"2991611"},{"name":"梨沢","zip_code":"2991744"},{"name":"西大和田","zip_code":"2930035"},{"name":"西川","zip_code":"2930013"},{"name":"萩生","zip_code":"2991622"},{"name":"花香谷","zip_code":"2930053"},{"name":"花輪","zip_code":"2991618"},{"name":"東大和田","zip_code":"2991737"},{"name":"二間塚","zip_code":"2930002"},{"name":"富津","zip_code":"2930021"},{"name":"宝竜寺","zip_code":"2930052"},{"name":"本郷","zip_code":"2930003"},{"name":"前久保","zip_code":"2930004"},{"name":"湊","zip_code":"2991607"},{"name":"御代原","zip_code":"2991741"},{"name":"六野","zip_code":"2991756"},{"name":"望井","zip_code":"2991605"},{"name":"八田沼","zip_code":"2930045"},{"name":"山中","zip_code":"2991743"},{"name":"山脇","zip_code":"2991754"},{"name":"八幡","zip_code":"2930056"},{"name":"横山","zip_code":"2991612"}]},{"name":"浦安市","divisions":[{"name":"明海","zip_code":"2790014"},{"name":"今川","zip_code":"2790022"},{"name":"入船","zip_code":"2790012"},{"name":"海楽","zip_code":"2790003"},{"name":"北栄","zip_code":"2790002"},{"name":"高洲","zip_code":"2790023"},{"name":"千鳥","zip_code":"2790032"},{"name":"鉄鋼通り","zip_code":"2790025"},{"name":"当代島","zip_code":"2790001"},{"name":"富岡","zip_code":"2790021"},{"name":"猫実","zip_code":"2790004"},{"name":"東野","zip_code":"2790042"},{"name":"日の出","zip_code":"2790013"},{"name":"富士見","zip_code":"2790043"},{"name":"弁天","zip_code":"2790026"},{"name":"堀江","zip_code":"2790041"},{"name":"舞浜","zip_code":"2790031"},{"name":"港","zip_code":"2790024"},{"name":"美浜","zip_code":"2790011"}]},{"name":"四街道市","divisions":[{"name":"旭ケ丘","zip_code":"2840024"},{"name":"池花","zip_code":"2840014"},{"name":"上野","zip_code":"2840041"},{"name":"内黒田","zip_code":"2840013"},{"name":"美しが丘","zip_code":"2840045"},{"name":"小名木","zip_code":"2840042"},{"name":"亀崎","zip_code":"2840011"},{"name":"萱橋","zip_code":"2840002"},{"name":"栗山","zip_code":"2840027"},{"name":"さちが丘","zip_code":"2840025"},{"name":"さつきケ丘","zip_code":"2840007"},{"name":"鹿渡","zip_code":"2840003"},{"name":"下志津新田","zip_code":"2840006"},{"name":"大日","zip_code":"2840001"},{"name":"鷹の台","zip_code":"2840033"},{"name":"中央","zip_code":"2840009"},{"name":"千代田","zip_code":"2840015"},{"name":"つくし座","zip_code":"2840026"},{"name":"中台","zip_code":"2840037"},{"name":"中野","zip_code":"2840036"},{"name":"長岡","zip_code":"2840021"},{"name":"南波佐間","zip_code":"2840034"},{"name":"成山","zip_code":"2840031"},{"name":"みそら","zip_code":"2840023"},{"name":"みのり町","zip_code":"2840004"},{"name":"めいわ","zip_code":"2840043"},{"name":"もねの里","zip_code":"2840016"},{"name":"物井","zip_code":"2840012"},{"name":"山梨","zip_code":"2840022"},{"name":"吉岡","zip_code":"2840032"},{"name":"四街道","zip_code":"2840005"},{"name":"鹿放ケ丘","zip_code":"2840008"},{"name":"和田","zip_code":"2840035"},{"name":"和良比","zip_code":"2840044"}]},{"name":"袖ケ浦市","divisions":[{"name":"阿部","zip_code":"2990216"},{"name":"飯富","zip_code":"2990256"},{"name":"今井","zip_code":"2990264"},{"name":"岩井","zip_code":"2990233"},{"name":"打越","zip_code":"2990217"},{"name":"永地","zip_code":"2990232"},{"name":"大竹","zip_code":"2990221"},{"name":"大鳥居","zip_code":"2990237"},{"name":"大曽根","zip_code":"2990253"},{"name":"勝","zip_code":"2990252"},{"name":"上泉","zip_code":"2990205"},{"name":"上宮田","zip_code":"2990222"},{"name":"川原井","zip_code":"2990201"},{"name":"神納","zip_code":"2990257"},{"name":"北袖","zip_code":"2990266"},{"name":"久保田","zip_code":"2990242"},{"name":"蔵波","zip_code":"2990243"},{"name":"蔵波台","zip_code":"2990245"},{"name":"坂戸市場","zip_code":"2990262"},{"name":"三箇","zip_code":"2990212"},{"name":"椎の森","zip_code":"2990247"},{"name":"下泉","zip_code":"2990231"},{"name":"下新田","zip_code":"2990255"},{"name":"下根岸","zip_code":"2990214"},{"name":"下宮田","zip_code":"2990223"},{"name":"代宿","zip_code":"2990241"},{"name":"高谷","zip_code":"2990203"},{"name":"滝の口","zip_code":"2990226"},{"name":"玉野","zip_code":"2990225"},{"name":"百目木","zip_code":"2990213"},{"name":"堂谷","zip_code":"2990215"},{"name":"中袖","zip_code":"2990267"},{"name":"長浦","zip_code":"2990265"},{"name":"長浦駅前","zip_code":"2990246"},{"name":"永吉","zip_code":"2990204"},{"name":"奈良輪","zip_code":"2990263"},{"name":"野里","zip_code":"2990211"},{"name":"のぞみ野","zip_code":"2990251"},{"name":"野田","zip_code":"2990244"},{"name":"林","zip_code":"2990202"},{"name":"福王台","zip_code":"2990261"},{"name":"三黒","zip_code":"2990235"},{"name":"三ツ作","zip_code":"2990254"},{"name":"南袖","zip_code":"2990268"},{"name":"谷中","zip_code":"2990234"},{"name":"横田","zip_code":"2990236"},{"name":"吉野田","zip_code":"2990224"}]},{"name":"八街市","divisions":[{"name":"朝日","zip_code":"2891101"},{"name":"砂","zip_code":"2891121"},{"name":"泉台","zip_code":"2891105"},{"name":"榎戸","zip_code":"2891106"},{"name":"大木","zip_code":"2891111"},{"name":"大関","zip_code":"2891142"},{"name":"大谷流","zip_code":"2891134"},{"name":"岡田","zip_code":"2891137"},{"name":"沖","zip_code":"2891126"},{"name":"沖渡","zip_code":"2891102"},{"name":"上砂","zip_code":"2891125"},{"name":"雁丸","zip_code":"2891108"},{"name":"木原","zip_code":"2891112"},{"name":"希望ケ丘","zip_code":"2891131"},{"name":"小谷流","zip_code":"2891135"},{"name":"四木","zip_code":"2891122"},{"name":"勢田","zip_code":"2891132"},{"name":"滝台","zip_code":"2891123"},{"name":"中央","zip_code":"2891116"},{"name":"富山","zip_code":"2891141"},{"name":"根古谷","zip_code":"2891136"},{"name":"東吉田","zip_code":"2891114"},{"name":"文違","zip_code":"2891104"},{"name":"みどり台","zip_code":"2891145"},{"name":"用草","zip_code":"2891138"},{"name":"八街い","zip_code":"2891143"},{"name":"八街ろ","zip_code":"2891144"},{"name":"八街は","zip_code":"2891107"},{"name":"八街に","zip_code":"2891103"},{"name":"八街ほ","zip_code":"2891115"},{"name":"八街へ","zip_code":"2891113"},{"name":"山田台","zip_code":"2891124"},{"name":"吉倉","zip_code":"2891133"}]},{"name":"印西市","divisions":[{"name":"相嶋","zip_code":"2701321"},{"name":"安食卜杭","zip_code":"2702302"},{"name":"和泉","zip_code":"2701351"},{"name":"泉","zip_code":"2701353"},{"name":"泉野","zip_code":"2701360"},{"name":"和泉屋","zip_code":"2702323"},{"name":"岩戸","zip_code":"2701616"},{"name":"内野","zip_code":"2701347"},{"name":"浦幡新田","zip_code":"2701364"},{"name":"浦部","zip_code":"2701367"},{"name":"浦部村新田","zip_code":"2701368"},{"name":"大塚","zip_code":"2701352"},{"name":"大廻","zip_code":"2701612"},{"name":"大森","zip_code":"2701327"},{"name":"小倉","zip_code":"2701358"},{"name":"小倉台","zip_code":"2701356"},{"name":"押付","zip_code":"2702318"},{"name":"鹿黒","zip_code":"2701363"},{"name":"鹿黒南","zip_code":"2701369"},{"name":"笠神","zip_code":"2702322"},{"name":"鎌苅","zip_code":"2701613"},{"name":"亀成","zip_code":"2701362"},{"name":"川向","zip_code":"2702319"},{"name":"木下","zip_code":"2701326"},{"name":"木下東","zip_code":"2701323"},{"name":"木下南","zip_code":"2701328"},{"name":"木刈","zip_code":"2701359"},{"name":"行徳","zip_code":"2702316"},{"name":"結縁寺","zip_code":"2701343"},{"name":"高西新田","zip_code":"2701365"},{"name":"荒野","zip_code":"2702326"},{"name":"小林","zip_code":"2701318"},{"name":"小林北","zip_code":"2701313"},{"name":"小林浅間","zip_code":"2701315"},{"name":"小林大門下","zip_code":"2701316"},{"name":"酒直卜杭","zip_code":"2702303"},{"name":"桜野","zip_code":"2702314"},{"name":"佐野屋","zip_code":"2702305"},{"name":"下井","zip_code":"2702313"},{"name":"下曽根","zip_code":"2702317"},{"name":"将監","zip_code":"2702301"},{"name":"白幡","zip_code":"2701366"},{"name":"甚兵衛","zip_code":"2702304"},{"name":"瀬戸","zip_code":"2701614"},{"name":"浅間前","zip_code":"2701322"},{"name":"草深","zip_code":"2701337"},{"name":"宗甫","zip_code":"2701333"},{"name":"高花","zip_code":"2701342"},{"name":"滝","zip_code":"2702328"},{"name":"滝野","zip_code":"2702329"},{"name":"竹袋","zip_code":"2701325"},{"name":"多々羅田","zip_code":"2701346"},{"name":"中央北","zip_code":"2701350"},{"name":"中央南","zip_code":"2701340"},{"name":"造谷","zip_code":"2701611"},{"name":"つくりや台","zip_code":"2701618"},{"name":"角田","zip_code":"2702325"},{"name":"戸神","zip_code":"2701348"},{"name":"戸神台","zip_code":"2701349"},{"name":"中","zip_code":"2702315"},{"name":"中田切","zip_code":"2702306"},{"name":"長門屋","zip_code":"2702312"},{"name":"中根","zip_code":"2702324"},{"name":"西の原","zip_code":"2701334"},{"name":"萩埜","zip_code":"2702311"},{"name":"萩原","zip_code":"2701601"},{"name":"原","zip_code":"2701335"},{"name":"原山","zip_code":"2701341"},{"name":"東の原","zip_code":"2701336"},{"name":"平岡","zip_code":"2701324"},{"name":"平賀","zip_code":"2701605"},{"name":"平賀学園台","zip_code":"2701606"},{"name":"船尾","zip_code":"2701345"},{"name":"別所","zip_code":"2701332"},{"name":"発作","zip_code":"2701361"},{"name":"舞姫","zip_code":"2701608"},{"name":"牧の木戸","zip_code":"2701357"},{"name":"牧の台","zip_code":"2701339"},{"name":"牧の原","zip_code":"2701331"},{"name":"松木","zip_code":"2702307"},{"name":"松崎","zip_code":"2701344"},{"name":"松崎台","zip_code":"2701338"},{"name":"松虫","zip_code":"2701602"},{"name":"美瀬","zip_code":"2701607"},{"name":"みどり台","zip_code":"2702331"},{"name":"武西","zip_code":"2701354"},{"name":"武西学園台","zip_code":"2701355"},{"name":"本埜小林","zip_code":"2702308"},{"name":"物木","zip_code":"2702321"},{"name":"師戸","zip_code":"2701615"},{"name":"山田","zip_code":"2701604"},{"name":"吉田","zip_code":"2701617"},{"name":"吉高","zip_code":"2701603"},{"name":"竜腹寺","zip_code":"2702327"},{"name":"若萩","zip_code":"2701609"}]},{"name":"白井市","divisions":[{"name":"池の上","zip_code":"2701425"},{"name":"今井","zip_code":"2701401"},{"name":"大山口","zip_code":"2701434"},{"name":"折立","zip_code":"2701404"},{"name":"河原子","zip_code":"2701403"},{"name":"木","zip_code":"2701437"},{"name":"清戸","zip_code":"2701415"},{"name":"けやき台","zip_code":"2701433"},{"name":"桜台","zip_code":"2701412"},{"name":"笹塚","zip_code":"2701426"},{"name":"神々廻","zip_code":"2701416"},{"name":"清水口","zip_code":"2701435"},{"name":"白井","zip_code":"2701421"},{"name":"大松","zip_code":"2701439"},{"name":"富塚","zip_code":"2701405"},{"name":"十余一","zip_code":"2701411"},{"name":"名内","zip_code":"2701407"},{"name":"中","zip_code":"2701406"},{"name":"七次台","zip_code":"2701436"},{"name":"西白井","zip_code":"2701408"},{"name":"根","zip_code":"2701431"},{"name":"野口","zip_code":"2701438"},{"name":"平塚","zip_code":"2701402"},{"name":"復","zip_code":"2701422"},{"name":"冨士","zip_code":"2701432"},{"name":"堀込","zip_code":"2701424"},{"name":"南山","zip_code":"2701423"},{"name":"武西","zip_code":"2701413"},{"name":"谷田","zip_code":"2701414"}]},{"name":"富里市","divisions":[{"name":"大和","zip_code":"2860204"},{"name":"久能","zip_code":"2860203"},{"name":"高野","zip_code":"2860216"},{"name":"御料","zip_code":"2860211"},{"name":"新中沢","zip_code":"2860223"},{"name":"高松","zip_code":"2860213"},{"name":"立沢","zip_code":"2860214"},{"name":"立沢新田","zip_code":"2860215"},{"name":"十倉","zip_code":"2860212"},{"name":"中沢","zip_code":"2860222"},{"name":"七栄","zip_code":"2860221"},{"name":"新橋","zip_code":"2860224"},{"name":"根木名","zip_code":"2860205"},{"name":"日吉倉","zip_code":"2860202"},{"name":"日吉台","zip_code":"2860201"},{"name":"美沢","zip_code":"2860225"}]},{"name":"南房総市","divisions":[{"name":"明石","zip_code":"2940821"},{"name":"荒川","zip_code":"2992201"},{"name":"安馬谷","zip_code":"2992522"},{"name":"池之内","zip_code":"2940812"},{"name":"石神","zip_code":"2992515"},{"name":"石堂","zip_code":"2992503"},{"name":"石堂原","zip_code":"2992502"},{"name":"市部","zip_code":"2992226"},{"name":"犬掛","zip_code":"2992205"},{"name":"井野","zip_code":"2992212"},{"name":"岩糸","zip_code":"2992512"},{"name":"海老敷","zip_code":"2940804"},{"name":"大井","zip_code":"2992507"},{"name":"大学口","zip_code":"2940817"},{"name":"小戸","zip_code":"2992511"},{"name":"上滝田","zip_code":"2940806"},{"name":"上堀","zip_code":"2940825"},{"name":"加茂","zip_code":"2992525"},{"name":"川上","zip_code":"2992211"},{"name":"川田","zip_code":"2940814"},{"name":"川谷","zip_code":"2992504"},{"name":"久枝","zip_code":"2992216"},{"name":"沓見","zip_code":"2992526"},{"name":"久保","zip_code":"2992524"},{"name":"検儀谷","zip_code":"2992215"},{"name":"合戸","zip_code":"2992221"},{"name":"小浦","zip_code":"2992224"},{"name":"下滝田","zip_code":"2940805"},{"name":"下堀","zip_code":"2940824"},{"name":"珠師ケ谷","zip_code":"2992501"},{"name":"白子","zip_code":"2992521"},{"name":"白浜町乙浜","zip_code":"2950101"},{"name":"白浜町白浜","zip_code":"2950102"},{"name":"白浜町滝口","zip_code":"2950103"},{"name":"白浜町根本","zip_code":"2950104"},{"name":"千代","zip_code":"2940815"},{"name":"高崎","zip_code":"2992223"},{"name":"竹内","zip_code":"2992225"},{"name":"千倉町宇田","zip_code":"2950006"},{"name":"千倉町大川","zip_code":"2950026"},{"name":"千倉町大貫","zip_code":"2950013"},{"name":"千倉町川合","zip_code":"2950002"},{"name":"千倉町川口","zip_code":"2950023"},{"name":"千倉町川戸","zip_code":"2950014"},{"name":"千倉町北朝夷","zip_code":"2950011"},{"name":"千倉町久保","zip_code":"2950001"},{"name":"千倉町忽戸","zip_code":"2950022"},{"name":"千倉町白子","zip_code":"2950003"},{"name":"千倉町白間津","zip_code":"2950027"},{"name":"千倉町瀬戸","zip_code":"2950004"},{"name":"千倉町千田","zip_code":"2950025"},{"name":"千倉町平磯","zip_code":"2950024"},{"name":"千倉町平舘","zip_code":"2950021"},{"name":"千倉町牧田","zip_code":"2950005"},{"name":"千倉町南朝夷","zip_code":"2950012"},{"name":"富浦町青木","zip_code":"2992416"},{"name":"富浦町居倉","zip_code":"2992411"},{"name":"富浦町大津","zip_code":"2992412"},{"name":"富浦町多田良","zip_code":"2992404"},{"name":"富浦町手取","zip_code":"2992418"},{"name":"富浦町豊岡","zip_code":"2992402"},{"name":"富浦町南無谷","zip_code":"2992401"},{"name":"富浦町丹生","zip_code":"2992417"},{"name":"富浦町原岡","zip_code":"2992403"},{"name":"富浦町深名","zip_code":"2992415"},{"name":"富浦町福澤","zip_code":"2992414"},{"name":"富浦町宮本","zip_code":"2992413"},{"name":"中","zip_code":"2940811"},{"name":"西原","zip_code":"2992514"},{"name":"二部","zip_code":"2992214"},{"name":"平塚","zip_code":"2992202"},{"name":"府中","zip_code":"2940823"},{"name":"古川","zip_code":"2992513"},{"name":"平久里下","zip_code":"2992206"},{"name":"平久里中","zip_code":"2992204"},{"name":"前田","zip_code":"2992516"},{"name":"増間","zip_code":"2940801"},{"name":"丸本郷","zip_code":"2992517"},{"name":"丸山平塚","zip_code":"2992508"},{"name":"御子神","zip_code":"2992506"},{"name":"三坂","zip_code":"2940826"},{"name":"御庄","zip_code":"2940803"},{"name":"峰","zip_code":"2992523"},{"name":"宮下","zip_code":"2992505"},{"name":"宮谷","zip_code":"2992222"},{"name":"本織","zip_code":"2940822"},{"name":"山下","zip_code":"2940816"},{"name":"山田","zip_code":"2992203"},{"name":"山名","zip_code":"2940802"},{"name":"谷向","zip_code":"2940813"},{"name":"吉沢","zip_code":"2992213"},{"name":"和田町石堂","zip_code":"2992728"},{"name":"和田町小川","zip_code":"2992726"},{"name":"和田町海発","zip_code":"2992712"},{"name":"和田町上三原","zip_code":"2992727"},{"name":"和田町黒岩","zip_code":"2992725"},{"name":"和田町五十蔵","zip_code":"2992721"},{"name":"和田町小向","zip_code":"2992724"},{"name":"和田町柴","zip_code":"2992702"},{"name":"和田町下三原","zip_code":"2992715"},{"name":"和田町白渚","zip_code":"2992711"},{"name":"和田町磑森","zip_code":"2992722"},{"name":"和田町中三原","zip_code":"2992716"},{"name":"和田町仁我浦","zip_code":"2992703"},{"name":"和田町沼","zip_code":"2992714"},{"name":"和田町花園","zip_code":"2992701"},{"name":"和田町布野","zip_code":"2992723"},{"name":"和田町松田","zip_code":"2992713"},{"name":"和田町真浦","zip_code":"2992705"},{"name":"和田町和田","zip_code":"2992704"}]},{"name":"匝瑳市","divisions":[{"name":"安久山","zip_code":"2892178"},{"name":"飯倉","zip_code":"2892147"},{"name":"飯倉台","zip_code":"2892148"},{"name":"飯高","zip_code":"2892173"},{"name":"飯塚","zip_code":"2892106"},{"name":"今泉","zip_code":"2893182"},{"name":"入山崎","zip_code":"2892161"},{"name":"内山","zip_code":"2892171"},{"name":"生尾","zip_code":"2892104"},{"name":"大浦","zip_code":"2892151"},{"name":"大寺","zip_code":"2892108"},{"name":"大堀","zip_code":"2892176"},{"name":"荻野","zip_code":"2892112"},{"name":"小高","zip_code":"2892179"},{"name":"貝塚","zip_code":"2892149"},{"name":"片子","zip_code":"2892175"},{"name":"金原","zip_code":"2892177"},{"name":"蕪里","zip_code":"2892133"},{"name":"亀崎","zip_code":"2892167"},{"name":"栢田","zip_code":"2893184"},{"name":"川辺","zip_code":"2893186"},{"name":"川向","zip_code":"2892111"},{"name":"木積","zip_code":"2892164"},{"name":"公崎","zip_code":"2892174"},{"name":"高野","zip_code":"2892135"},{"name":"新","zip_code":"2892166"},{"name":"上谷中","zip_code":"2892114"},{"name":"高","zip_code":"2892132"},{"name":"田久保","zip_code":"2892165"},{"name":"椿","zip_code":"2892102"},{"name":"時曽根","zip_code":"2892136"},{"name":"富岡","zip_code":"2892154"},{"name":"長岡","zip_code":"2892156"},{"name":"中台","zip_code":"2892153"},{"name":"長谷","zip_code":"2892123"},{"name":"新堀","zip_code":"2893183"},{"name":"西小笹","zip_code":"2892125"},{"name":"城下","zip_code":"2892172"},{"name":"野手","zip_code":"2893181"},{"name":"登戸","zip_code":"2892124"},{"name":"春海","zip_code":"2892101"},{"name":"東小笹","zip_code":"2892121"},{"name":"東谷","zip_code":"2892115"},{"name":"久方","zip_code":"2892168"},{"name":"平木","zip_code":"2892113"},{"name":"堀川","zip_code":"2893185"},{"name":"堀之内","zip_code":"2892157"},{"name":"松山","zip_code":"2892152"},{"name":"みどり平","zip_code":"2892131"},{"name":"南神崎","zip_code":"2892163"},{"name":"南山崎","zip_code":"2892162"},{"name":"宮本","zip_code":"2892103"},{"name":"八辺","zip_code":"2892155"},{"name":"山桑","zip_code":"2892105"},{"name":"八日市場イ","zip_code":"2892144"},{"name":"八日市場ニ","zip_code":"2892142"},{"name":"八日市場ハ","zip_code":"2892141"},{"name":"八日市場ホ","zip_code":"2892146"},{"name":"八日市場ロ","zip_code":"2892143"},{"name":"横須賀","zip_code":"2892134"},{"name":"吉崎","zip_code":"2892122"},{"name":"吉田","zip_code":"2892169"},{"name":"米持","zip_code":"2892107"},{"name":"若潮町","zip_code":"2892145"}]},{"name":"香取市","divisions":[{"name":"阿玉川","zip_code":"2890321"},{"name":"阿玉台","zip_code":"2890326"},{"name":"油田","zip_code":"2890346"},{"name":"荒北","zip_code":"2870106"},{"name":"飯島","zip_code":"2870056"},{"name":"和泉","zip_code":"2890324"},{"name":"磯山","zip_code":"2870803"},{"name":"一ノ分目","zip_code":"2890301"},{"name":"伊地山","zip_code":"2870023"},{"name":"市和田","zip_code":"2870804"},{"name":"入会地","zip_code":"2890333"},{"name":"岩ケ崎台","zip_code":"2870004"},{"name":"岩部","zip_code":"2870102"},{"name":"内野","zip_code":"2890349"},{"name":"扇島","zip_code":"2870801"},{"name":"大倉","zip_code":"2870013"},{"name":"大倉丁子","zip_code":"2870012"},{"name":"大崎","zip_code":"2870035"},{"name":"大島","zip_code":"2870811"},{"name":"大戸","zip_code":"2870043"},{"name":"大角","zip_code":"2890425"},{"name":"大戸川","zip_code":"2870054"},{"name":"大戸新田","zip_code":"2870053"},{"name":"大根","zip_code":"2870026"},{"name":"岡飯田","zip_code":"2890323"},{"name":"小川","zip_code":"2890423"},{"name":"小見","zip_code":"2890402"},{"name":"小見川","zip_code":"2890313"},{"name":"織幡","zip_code":"2890348"},{"name":"貝塚","zip_code":"2890325"},{"name":"片野","zip_code":"2870044"},{"name":"加藤洲","zip_code":"2870802"},{"name":"香取","zip_code":"2870017"},{"name":"釜塚","zip_code":"2870032"},{"name":"上小川","zip_code":"2870046"},{"name":"上小堀","zip_code":"2890306"},{"name":"返田","zip_code":"2870027"},{"name":"苅毛","zip_code":"2870104"},{"name":"川頭","zip_code":"2890334"},{"name":"川上","zip_code":"2890403"},{"name":"川尻","zip_code":"2870067"},{"name":"観音","zip_code":"2870036"},{"name":"神生","zip_code":"2890408"},{"name":"北","zip_code":"2870002"},{"name":"北原地新田","zip_code":"2890335"},{"name":"木内","zip_code":"2890337"},{"name":"木内虫幡上小堀入会地大平","zip_code":"2890308"},{"name":"桐谷","zip_code":"2890422"},{"name":"久保","zip_code":"2890327"},{"name":"九美上","zip_code":"2870022"},{"name":"笄島","zip_code":"2870823"},{"name":"公官洲","zip_code":"2870805"},{"name":"高野","zip_code":"2890404"},{"name":"石納","zip_code":"2870826"},{"name":"五郷内","zip_code":"2890328"},{"name":"米野井","zip_code":"2890401"},{"name":"境島","zip_code":"2870813"},{"name":"沢","zip_code":"2870105"},{"name":"佐原イ","zip_code":"2870003"},{"name":"佐原ニ","zip_code":"2870822"},{"name":"佐原ハ","zip_code":"2870816"},{"name":"佐原ホ","zip_code":"2870005"},{"name":"佐原ロ","zip_code":"2870001"},{"name":"三ノ分目","zip_code":"2890302"},{"name":"志高","zip_code":"2890413"},{"name":"篠原イ","zip_code":"2870006"},{"name":"篠原ロ","zip_code":"2870821"},{"name":"下飯田","zip_code":"2890322"},{"name":"下小川","zip_code":"2890338"},{"name":"下小野","zip_code":"2870021"},{"name":"下小堀","zip_code":"2890304"},{"name":"昭和町","zip_code":"2870055"},{"name":"白井","zip_code":"2890344"},{"name":"新々田","zip_code":"2890336"},{"name":"助沢","zip_code":"2870107"},{"name":"関","zip_code":"2870045"},{"name":"高萩","zip_code":"2870101"},{"name":"竹之内","zip_code":"2890405"},{"name":"多田","zip_code":"2870014"},{"name":"田部","zip_code":"2890406"},{"name":"玉造","zip_code":"2870041"},{"name":"附洲新田","zip_code":"2870806"},{"name":"津宮","zip_code":"2870011"},{"name":"寺内","zip_code":"2870062"},{"name":"鴇崎","zip_code":"2870047"},{"name":"鳥羽","zip_code":"2870038"},{"name":"富田","zip_code":"2890303"},{"name":"長岡","zip_code":"2890414"},{"name":"長島","zip_code":"2870824"},{"name":"中洲","zip_code":"2870814"},{"name":"長山","zip_code":"2870034"},{"name":"新市場","zip_code":"2870016"},{"name":"新寺","zip_code":"2870051"},{"name":"西坂","zip_code":"2870063"},{"name":"西田部","zip_code":"2870103"},{"name":"西部田","zip_code":"2870065"},{"name":"西和田","zip_code":"2870048"},{"name":"新里","zip_code":"2890424"},{"name":"新部","zip_code":"2870031"},{"name":"仁良","zip_code":"2890407"},{"name":"野田","zip_code":"2890314"},{"name":"野間谷原","zip_code":"2870825"},{"name":"旗鉾","zip_code":"2890347"},{"name":"八本","zip_code":"2890345"},{"name":"鳩山","zip_code":"2890421"},{"name":"羽根川","zip_code":"2890331"},{"name":"福田","zip_code":"2870024"},{"name":"布野","zip_code":"2890329"},{"name":"府馬","zip_code":"2890411"},{"name":"古内","zip_code":"2890412"},{"name":"堀之内","zip_code":"2870066"},{"name":"本郷","zip_code":"2890312"},{"name":"牧野","zip_code":"2870033"},{"name":"増田","zip_code":"2890307"},{"name":"三島","zip_code":"2870812"},{"name":"みずほ台","zip_code":"2870064"},{"name":"南原地新田","zip_code":"2890332"},{"name":"虫幡","zip_code":"2890341"},{"name":"本矢作","zip_code":"2870025"},{"name":"森戸","zip_code":"2870052"},{"name":"八筋川","zip_code":"2870815"},{"name":"谷中","zip_code":"2870061"},{"name":"山川","zip_code":"2890343"},{"name":"山倉","zip_code":"2890426"},{"name":"山之辺","zip_code":"2870042"},{"name":"八日市場","zip_code":"2890311"},{"name":"丁子","zip_code":"2870018"},{"name":"与倉","zip_code":"2870037"},{"name":"吉原","zip_code":"2870015"},{"name":"竜谷","zip_code":"2890342"},{"name":"分郷","zip_code":"2890305"}]},{"name":"山武市","divisions":[{"name":"麻生新田","zip_code":"2891203"},{"name":"雨坪","zip_code":"2891213"},{"name":"板川","zip_code":"2891201"},{"name":"板附","zip_code":"2891335"},{"name":"板中新田","zip_code":"2891222"},{"name":"市場","zip_code":"2891333"},{"name":"井之内","zip_code":"2891304"},{"name":"植草","zip_code":"2891216"},{"name":"大木","zip_code":"2891211"},{"name":"沖渡","zip_code":"2891225"},{"name":"親田","zip_code":"2891332"},{"name":"上横地","zip_code":"2891313"},{"name":"川崎","zip_code":"2891331"},{"name":"木戸","zip_code":"2891301"},{"name":"木原","zip_code":"2891212"},{"name":"草深","zip_code":"2891315"},{"name":"小泉","zip_code":"2891317"},{"name":"五木田","zip_code":"2891316"},{"name":"小松","zip_code":"2891302"},{"name":"実門","zip_code":"2891221"},{"name":"椎崎","zip_code":"2891205"},{"name":"柴原","zip_code":"2891312"},{"name":"島","zip_code":"2891325"},{"name":"島戸","zip_code":"2891342"},{"name":"下布田","zip_code":"2891217"},{"name":"下横地","zip_code":"2891314"},{"name":"白幡","zip_code":"2891306"},{"name":"真行寺","zip_code":"2891343"},{"name":"津辺","zip_code":"2891345"},{"name":"寺崎","zip_code":"2891318"},{"name":"戸田","zip_code":"2891204"},{"name":"殿台","zip_code":"2891324"},{"name":"富口","zip_code":"2891323"},{"name":"富田","zip_code":"2891321"},{"name":"富田幸谷","zip_code":"2891322"},{"name":"中津田","zip_code":"2891202"},{"name":"成東","zip_code":"2891326"},{"name":"新泉","zip_code":"2891344"},{"name":"野堀","zip_code":"2891341"},{"name":"蓮沼イ","zip_code":"2891801"},{"name":"蓮沼ニ","zip_code":"2891805"},{"name":"蓮沼ハ","zip_code":"2891806"},{"name":"蓮沼平","zip_code":"2891804"},{"name":"蓮沼ホ","zip_code":"2891803"},{"name":"蓮沼ロ","zip_code":"2891802"},{"name":"埴谷","zip_code":"2891223"},{"name":"早船","zip_code":"2891311"},{"name":"姫島","zip_code":"2891327"},{"name":"日向台","zip_code":"2891206"},{"name":"松尾町祝田","zip_code":"2891524"},{"name":"松尾町大堤","zip_code":"2891527"},{"name":"松尾町小川","zip_code":"2891507"},{"name":"松尾町折戸","zip_code":"2891535"},{"name":"松尾町借毛本郷","zip_code":"2891537"},{"name":"松尾町蕪木","zip_code":"2891511"},{"name":"松尾町上大蔵","zip_code":"2891506"},{"name":"松尾町金尾","zip_code":"2891505"},{"name":"松尾町木刀","zip_code":"2891531"},{"name":"松尾町五反田","zip_code":"2891523"},{"name":"松尾町古和","zip_code":"2891504"},{"name":"松尾町猿尾","zip_code":"2891513"},{"name":"松尾町下大蔵","zip_code":"2891517"},{"name":"松尾町下野","zip_code":"2891534"},{"name":"松尾町下之郷","zip_code":"2891536"},{"name":"松尾町高富","zip_code":"2891522"},{"name":"松尾町武野里","zip_code":"2891532"},{"name":"松尾町田越","zip_code":"2891516"},{"name":"松尾町八田","zip_code":"2891512"},{"name":"松尾町引越","zip_code":"2891502"},{"name":"松尾町広根","zip_code":"2891533"},{"name":"松尾町富士見台","zip_code":"2891515"},{"name":"松尾町松尾","zip_code":"2891514"},{"name":"松尾町水深","zip_code":"2891526"},{"name":"松尾町本柏","zip_code":"2891521"},{"name":"松尾町本水深","zip_code":"2891525"},{"name":"松尾町谷津","zip_code":"2891503"},{"name":"松尾町山室","zip_code":"2891501"},{"name":"松ヶ谷","zip_code":"2891303"},{"name":"美杉野","zip_code":"2891224"},{"name":"武勝","zip_code":"2891218"},{"name":"本須賀","zip_code":"2891305"},{"name":"森","zip_code":"2891214"},{"name":"矢部","zip_code":"2891215"},{"name":"湯坂","zip_code":"2891328"},{"name":"横田","zip_code":"2891226"},{"name":"和田","zip_code":"2891334"}]},{"name":"いすみ市","divisions":[{"name":"今関","zip_code":"2980126"},{"name":"岩船","zip_code":"2980011"},{"name":"小池","zip_code":"2980013"},{"name":"大野","zip_code":"2980113"},{"name":"大原","zip_code":"2980004"},{"name":"大原台","zip_code":"2980014"},{"name":"大和田","zip_code":"2980029"},{"name":"荻原","zip_code":"2980131"},{"name":"小沢","zip_code":"2980012"},{"name":"小高","zip_code":"2980102"},{"name":"柿和田","zip_code":"2980115"},{"name":"神置","zip_code":"2980103"},{"name":"上布施","zip_code":"2980018"},{"name":"苅谷","zip_code":"2980123"},{"name":"国府台","zip_code":"2980112"},{"name":"小又井","zip_code":"2980101"},{"name":"作田","zip_code":"2980135"},{"name":"札森","zip_code":"2980114"},{"name":"佐室","zip_code":"2980022"},{"name":"沢部","zip_code":"2980023"},{"name":"島","zip_code":"2980121"},{"name":"下原","zip_code":"2980027"},{"name":"下布施","zip_code":"2980017"},{"name":"釈迦谷","zip_code":"2980015"},{"name":"正立寺","zip_code":"2980116"},{"name":"須賀谷","zip_code":"2980106"},{"name":"高谷","zip_code":"2980021"},{"name":"長志","zip_code":"2980024"},{"name":"行川","zip_code":"2980134"},{"name":"新田","zip_code":"2980005"},{"name":"新田野","zip_code":"2980026"},{"name":"新田若山深堀入会地","zip_code":"2980016"},{"name":"能実","zip_code":"2980105"},{"name":"日在","zip_code":"2980002"},{"name":"引田","zip_code":"2980133"},{"name":"深堀","zip_code":"2980003"},{"name":"深谷","zip_code":"2980125"},{"name":"細尾","zip_code":"2980028"},{"name":"増田","zip_code":"2980117"},{"name":"松丸","zip_code":"2980104"},{"name":"万木","zip_code":"2980111"},{"name":"岬町井沢","zip_code":"2994615"},{"name":"岬町和泉","zip_code":"2994611"},{"name":"岬町市野々","zip_code":"2994506"},{"name":"岬町岩熊","zip_code":"2994505"},{"name":"岬町榎沢","zip_code":"2994508"},{"name":"岬町江場土","zip_code":"2994612"},{"name":"岬町押日","zip_code":"2994622"},{"name":"岬町鴨根","zip_code":"2994624"},{"name":"岬町嘉谷","zip_code":"2994625"},{"name":"岬町桑田","zip_code":"2994504"},{"name":"岬町椎木","zip_code":"2994501"},{"name":"岬町長者","zip_code":"2994616"},{"name":"岬町中滝","zip_code":"2994623"},{"name":"岬町中原","zip_code":"2994502"},{"name":"岬町東小高","zip_code":"2994614"},{"name":"岬町東中滝","zip_code":"2994621"},{"name":"岬町三門","zip_code":"2994613"},{"name":"岬町谷上","zip_code":"2994507"},{"name":"八乙女","zip_code":"2980132"},{"name":"弥正","zip_code":"2980124"},{"name":"山田","zip_code":"2980025"},{"name":"楽町","zip_code":"2980122"},{"name":"若山","zip_code":"2980001"}]},{"name":"大網白里市","divisions":[{"name":"池田","zip_code":"2993245"},{"name":"砂田","zip_code":"2993249"},{"name":"上谷新田","zip_code":"2993268"},{"name":"大網","zip_code":"2993251"},{"name":"大竹","zip_code":"2993243"},{"name":"柿餅","zip_code":"2993264"},{"name":"桂山","zip_code":"2993262"},{"name":"金谷郷","zip_code":"2993242"},{"name":"上貝塚","zip_code":"2993265"},{"name":"萱野","zip_code":"2993248"},{"name":"神房","zip_code":"2993247"},{"name":"木崎","zip_code":"2993217"},{"name":"北飯塚","zip_code":"2993218"},{"name":"北今泉","zip_code":"2993201"},{"name":"北横川","zip_code":"2993266"},{"name":"北吉田","zip_code":"2993216"},{"name":"季美の森南","zip_code":"2993241"},{"name":"経田","zip_code":"2993231"},{"name":"九十根","zip_code":"2993261"},{"name":"小中","zip_code":"2993246"},{"name":"小西","zip_code":"2993253"},{"name":"駒込","zip_code":"2993235"},{"name":"下ヶ傍示","zip_code":"2993214"},{"name":"四天木","zip_code":"2993203"},{"name":"清水","zip_code":"2993212"},{"name":"清名幸谷","zip_code":"2993267"},{"name":"富田","zip_code":"2993221"},{"name":"長国","zip_code":"2993215"},{"name":"永田","zip_code":"2993233"},{"name":"ながた野","zip_code":"2993232"},{"name":"二之袋","zip_code":"2993213"},{"name":"星谷","zip_code":"2993222"},{"name":"細草","zip_code":"2993211"},{"name":"仏島","zip_code":"2993237"},{"name":"みずほ台","zip_code":"2993234"},{"name":"みどりが丘","zip_code":"2993255"},{"name":"南飯塚","zip_code":"2993219"},{"name":"南今泉","zip_code":"2993202"},{"name":"南玉","zip_code":"2993244"},{"name":"南横川","zip_code":"2993223"},{"name":"みやこ野","zip_code":"2993236"},{"name":"餅木","zip_code":"2993252"},{"name":"柳橋","zip_code":"2993263"},{"name":"山口","zip_code":"2993256"},{"name":"養安寺","zip_code":"2993254"}]},{"name":"印旛郡酒々井町","divisions":[{"name":"飯積","zip_code":"2850912"},{"name":"伊篠","zip_code":"2850902"},{"name":"伊篠新田","zip_code":"2850904"},{"name":"今倉新田","zip_code":"2850903"},{"name":"尾上","zip_code":"2850911"},{"name":"柏木","zip_code":"2850906"},{"name":"上岩橋","zip_code":"2850905"},{"name":"上本佐倉","zip_code":"2850925"},{"name":"酒々井","zip_code":"2850927"},{"name":"篠山新田","zip_code":"2850901"},{"name":"下岩橋","zip_code":"2850907"},{"name":"下台","zip_code":"2850924"},{"name":"墨","zip_code":"2850913"},{"name":"中央台","zip_code":"2850922"},{"name":"中川","zip_code":"2850921"},{"name":"東酒々井","zip_code":"2850923"},{"name":"ふじき野","zip_code":"2850928"},{"name":"馬橋","zip_code":"2850914"},{"name":"本佐倉","zip_code":"2850926"}]},{"name":"印旛郡栄町","divisions":[{"name":"安食","zip_code":"2701516"},{"name":"安食台","zip_code":"2701515"},{"name":"安食卜杭新田","zip_code":"2701517"},{"name":"麻生","zip_code":"2701504"},{"name":"請方","zip_code":"2701543"},{"name":"大森","zip_code":"2701526"},{"name":"興津","zip_code":"2701503"},{"name":"押付","zip_code":"2701527"},{"name":"北","zip_code":"2701545"},{"name":"北辺田","zip_code":"2701511"},{"name":"酒直","zip_code":"2701513"},{"name":"酒直台","zip_code":"2701514"},{"name":"四箇","zip_code":"2701525"},{"name":"須賀","zip_code":"2701512"},{"name":"曽根","zip_code":"2701531"},{"name":"中谷","zip_code":"2701544"},{"name":"長門谷","zip_code":"2701524"},{"name":"西","zip_code":"2701534"},{"name":"布鎌酒直","zip_code":"2701522"},{"name":"布太","zip_code":"2701535"},{"name":"生板鍋子新田","zip_code":"2701546"},{"name":"南","zip_code":"2701532"},{"name":"南ケ丘","zip_code":"2701533"},{"name":"三和","zip_code":"2701536"},{"name":"矢口","zip_code":"2701502"},{"name":"矢口神明","zip_code":"2701501"},{"name":"四ッ谷","zip_code":"2701542"},{"name":"龍角寺","zip_code":"2701506"},{"name":"竜角寺台","zip_code":"2701505"},{"name":"龍ケ崎町歩","zip_code":"2701541"},{"name":"脇川","zip_code":"2701523"},{"name":"和田","zip_code":"2701521"}]},{"name":"香取郡神崎町","divisions":[{"name":"今","zip_code":"2890205"},{"name":"植房","zip_code":"2890216"},{"name":"大貫","zip_code":"2890203"},{"name":"毛成","zip_code":"2890214"},{"name":"神崎神宿","zip_code":"2890226"},{"name":"神崎本宿","zip_code":"2890221"},{"name":"高谷","zip_code":"2890201"},{"name":"郡","zip_code":"2890202"},{"name":"古原","zip_code":"2890215"},{"name":"小松","zip_code":"2890223"},{"name":"四季の丘","zip_code":"2890204"},{"name":"十三間戸","zip_code":"2890225"},{"name":"新","zip_code":"2890213"},{"name":"武田","zip_code":"2890212"},{"name":"立野","zip_code":"2890211"},{"name":"並木","zip_code":"2890222"},{"name":"藤の台","zip_code":"2890217"},{"name":"松崎","zip_code":"2890224"}]},{"name":"香取郡多古町","divisions":[{"name":"飯笹","zip_code":"2892231"},{"name":"出沼","zip_code":"2892301"},{"name":"井戸山","zip_code":"2892317"},{"name":"牛尾","zip_code":"2892245"},{"name":"大門","zip_code":"2892303"},{"name":"大高","zip_code":"2892305"},{"name":"川島","zip_code":"2892324"},{"name":"喜多","zip_code":"2892232"},{"name":"北中","zip_code":"2892251"},{"name":"御所台","zip_code":"2892315"},{"name":"五反田","zip_code":"2892234"},{"name":"坂","zip_code":"2892322"},{"name":"谷三倉","zip_code":"2892312"},{"name":"島","zip_code":"2892243"},{"name":"染井","zip_code":"2892242"},{"name":"高津原","zip_code":"2892304"},{"name":"多古","zip_code":"2892241"},{"name":"千田","zip_code":"2892246"},{"name":"次浦","zip_code":"2892313"},{"name":"寺作","zip_code":"2892316"},{"name":"東輝","zip_code":"2892254"},{"name":"十余三","zip_code":"2892306"},{"name":"中村新田","zip_code":"2892256"},{"name":"西古内","zip_code":"2892314"},{"name":"林","zip_code":"2892233"},{"name":"東松崎","zip_code":"2892321"},{"name":"一鍬田","zip_code":"2820031"},{"name":"桧木","zip_code":"2892302"},{"name":"船越","zip_code":"2892244"},{"name":"方田","zip_code":"2892323"},{"name":"間倉","zip_code":"2892235"},{"name":"水戸","zip_code":"2892247"},{"name":"南借当","zip_code":"2892253"},{"name":"南玉造","zip_code":"2892325"},{"name":"南中","zip_code":"2892257"},{"name":"南並木","zip_code":"2892255"},{"name":"南和田","zip_code":"2892252"},{"name":"本三倉","zip_code":"2892311"}]},{"name":"香取郡東庄町","divisions":[{"name":"粟野","zip_code":"2890627"},{"name":"石出","zip_code":"2890612"},{"name":"今郡","zip_code":"2890619"},{"name":"大久保","zip_code":"2890633"},{"name":"大友","zip_code":"2890621"},{"name":"青馬","zip_code":"2890615"},{"name":"小座","zip_code":"2890622"},{"name":"神田","zip_code":"2890635"},{"name":"窪野谷","zip_code":"2890632"},{"name":"小貝野","zip_code":"2890637"},{"name":"小南","zip_code":"2890624"},{"name":"笹川い","zip_code":"2890601"},{"name":"笹川ろ","zip_code":"2890602"},{"name":"高部","zip_code":"2890616"},{"name":"東和田","zip_code":"2890636"},{"name":"夏目","zip_code":"2890625"},{"name":"新宿","zip_code":"2890611"},{"name":"羽計","zip_code":"2890617"},{"name":"東今泉","zip_code":"2890613"},{"name":"平山","zip_code":"2890631"},{"name":"舟戸","zip_code":"2890634"},{"name":"宮野台","zip_code":"2890623"},{"name":"宮本","zip_code":"2890614"},{"name":"八重穂","zip_code":"2890626"},{"name":"谷津","zip_code":"2890618"}]},{"name":"山武郡九十九里町","divisions":[{"name":"粟生","zip_code":"2830105"},{"name":"荒生","zip_code":"2830107"},{"name":"片貝","zip_code":"2830104"},{"name":"小関","zip_code":"2830102"},{"name":"作田","zip_code":"2830101"},{"name":"下貝塚","zip_code":"2830117"},{"name":"宿","zip_code":"2830106"},{"name":"田中荒生","zip_code":"2830103"},{"name":"西野","zip_code":"2830116"},{"name":"藤下","zip_code":"2830112"},{"name":"不動堂","zip_code":"2830113"},{"name":"細屋敷","zip_code":"2830111"},{"name":"真亀","zip_code":"2830114"},{"name":"真亀新田","zip_code":"2830115"}]},{"name":"山武郡芝山町","divisions":[{"name":"朝倉","zip_code":"2891607"},{"name":"飯櫃","zip_code":"2891604"},{"name":"岩山","zip_code":"2820035"},{"name":"大里","zip_code":"2820034"},{"name":"大台","zip_code":"2891605"},{"name":"小原子","zip_code":"2891611"},{"name":"上吹入","zip_code":"2891612"},{"name":"香山新田","zip_code":"2820032"},{"name":"小池","zip_code":"2891624"},{"name":"境","zip_code":"2891615"},{"name":"芝山","zip_code":"2891619"},{"name":"下吹入","zip_code":"2891613"},{"name":"高田","zip_code":"2891623"},{"name":"高谷","zip_code":"2891616"},{"name":"殿部田","zip_code":"2891617"},{"name":"新井田","zip_code":"2891625"},{"name":"新井田新田","zip_code":"2891626"},{"name":"菱田","zip_code":"2820033"},{"name":"宝馬","zip_code":"2891622"},{"name":"牧野","zip_code":"2891621"},{"name":"宮崎","zip_code":"2891614"},{"name":"山田","zip_code":"2891606"},{"name":"山中","zip_code":"2891618"}]},{"name":"山武郡横芝光町","divisions":[{"name":"新井","zip_code":"2891707"},{"name":"市野原","zip_code":"2891706"},{"name":"牛熊","zip_code":"2891742"},{"name":"姥山","zip_code":"2891752"},{"name":"小川台","zip_code":"2891711"},{"name":"於幾","zip_code":"2891748"},{"name":"尾垂","zip_code":"2891725"},{"name":"小堤","zip_code":"2891745"},{"name":"上原","zip_code":"2891723"},{"name":"北清水","zip_code":"2891734"},{"name":"木戸","zip_code":"2891726"},{"name":"木戸台","zip_code":"2891744"},{"name":"栗山","zip_code":"2891733"},{"name":"古川","zip_code":"2891731"},{"name":"小田部","zip_code":"2891713"},{"name":"坂田","zip_code":"2891754"},{"name":"坂田池","zip_code":"2891755"},{"name":"篠本","zip_code":"2891701"},{"name":"篠本根切","zip_code":"2891708"},{"name":"芝崎","zip_code":"2891715"},{"name":"芝崎南","zip_code":"2891716"},{"name":"曽根合","zip_code":"2891747"},{"name":"台","zip_code":"2891712"},{"name":"寺方","zip_code":"2891746"},{"name":"遠山","zip_code":"2891757"},{"name":"富下","zip_code":"2891704"},{"name":"取立","zip_code":"2891753"},{"name":"鳥喰上","zip_code":"2891738"},{"name":"鳥喰下","zip_code":"2891737"},{"name":"鳥喰新田","zip_code":"2891739"},{"name":"長倉","zip_code":"2891756"},{"name":"中台","zip_code":"2891741"},{"name":"長山台","zip_code":"2891751"},{"name":"新島","zip_code":"2891736"},{"name":"母子","zip_code":"2891714"},{"name":"原方","zip_code":"2891724"},{"name":"二又","zip_code":"2891702"},{"name":"傍示戸","zip_code":"2891703"},{"name":"宝米","zip_code":"2891705"},{"name":"宮川","zip_code":"2891727"},{"name":"虫生","zip_code":"2891717"},{"name":"目篠","zip_code":"2891722"},{"name":"屋形","zip_code":"2891735"},{"name":"谷台","zip_code":"2891743"},{"name":"谷中","zip_code":"2891721"},{"name":"横芝","zip_code":"2891732"},{"name":"両国新田","zip_code":"2891749"}]},{"name":"長生郡一宮町","divisions":[{"name":"新地","zip_code":"2994314"},{"name":"新地甲","zip_code":"2994315"},{"name":"新地丙","zip_code":"2994316"},{"name":"一宮","zip_code":"2994301"},{"name":"船頭給","zip_code":"2994313"},{"name":"田町","zip_code":"2994302"},{"name":"綱田","zip_code":"2994304"},{"name":"東浪見","zip_code":"2994303"},{"name":"白山","zip_code":"2994311"},{"name":"東野","zip_code":"2994306"},{"name":"本給","zip_code":"2994305"},{"name":"宮原","zip_code":"2994312"}]},{"name":"長生郡睦沢町","divisions":[{"name":"岩井","zip_code":"2994412"},{"name":"大上","zip_code":"2994423"},{"name":"大谷木","zip_code":"2994405"},{"name":"上市場","zip_code":"2994403"},{"name":"上之郷","zip_code":"2994413"},{"name":"川島","zip_code":"2994402"},{"name":"河須ケ谷","zip_code":"2994411"},{"name":"北山田","zip_code":"2994404"},{"name":"北山田寺崎新田","zip_code":"2994406"},{"name":"小滝","zip_code":"2994415"},{"name":"佐貫","zip_code":"2994425"},{"name":"下之郷","zip_code":"2994414"},{"name":"長楽寺","zip_code":"2994421"},{"name":"寺崎","zip_code":"2994401"},{"name":"妙楽寺","zip_code":"2994424"},{"name":"森","zip_code":"2994422"}]},{"name":"長生郡長生村","divisions":[{"name":"入山津","zip_code":"2994321"},{"name":"岩沼","zip_code":"2994336"},{"name":"岩沼飛地","zip_code":"2994343"},{"name":"驚","zip_code":"2994322"},{"name":"金田","zip_code":"2994332"},{"name":"北水口","zip_code":"2994337"},{"name":"小泉","zip_code":"2994347"},{"name":"曽根","zip_code":"2994344"},{"name":"中之郷","zip_code":"2994346"},{"name":"七井土","zip_code":"2994333"},{"name":"信友","zip_code":"2994331"},{"name":"一松","zip_code":"2994327"},{"name":"一松甲","zip_code":"2994328"},{"name":"一松乙","zip_code":"2994326"},{"name":"一松丙","zip_code":"2994325"},{"name":"一松丁","zip_code":"2994324"},{"name":"一松戊","zip_code":"2994323"},{"name":"一松飛地甲","zip_code":"2994342"},{"name":"本郷","zip_code":"2994345"},{"name":"宮成","zip_code":"2994341"},{"name":"水口","zip_code":"2994335"},{"name":"六ツ野飛地","zip_code":"2994338"},{"name":"薮塚","zip_code":"2994334"}]},{"name":"長生郡白子町","divisions":[{"name":"牛込","zip_code":"2994202"},{"name":"驚","zip_code":"2994214"},{"name":"北高根","zip_code":"2994217"},{"name":"北日当","zip_code":"2994206"},{"name":"五井","zip_code":"2994211"},{"name":"幸治","zip_code":"2994216"},{"name":"関","zip_code":"2994218"},{"name":"剃金","zip_code":"2994203"},{"name":"中里","zip_code":"2994215"},{"name":"八斗","zip_code":"2994213"},{"name":"浜宿","zip_code":"2994201"},{"name":"福島","zip_code":"2994204"},{"name":"古所","zip_code":"2994212"},{"name":"南日当","zip_code":"2994205"}]},{"name":"長生郡長柄町","divisions":[{"name":"上野","zip_code":"2970201"},{"name":"榎本","zip_code":"2970211"},{"name":"大津倉","zip_code":"2970223"},{"name":"大庭","zip_code":"2970222"},{"name":"刑部","zip_code":"2970225"},{"name":"金谷","zip_code":"2970226"},{"name":"国府里","zip_code":"2970203"},{"name":"小榎本","zip_code":"2970212"},{"name":"桜谷","zip_code":"2970218"},{"name":"皿木","zip_code":"2970235"},{"name":"高山","zip_code":"2970221"},{"name":"田代","zip_code":"2970224"},{"name":"立鳥","zip_code":"2970216"},{"name":"千代丸","zip_code":"2970205"},{"name":"鴇谷","zip_code":"2970215"},{"name":"徳増","zip_code":"2970213"},{"name":"中野台","zip_code":"2970232"},{"name":"長富","zip_code":"2970214"},{"name":"長柄山","zip_code":"2970234"},{"name":"針ケ谷","zip_code":"2970217"},{"name":"船木","zip_code":"2970207"},{"name":"味庄","zip_code":"2970202"},{"name":"山之郷","zip_code":"2970231"},{"name":"山根","zip_code":"2970206"},{"name":"力丸","zip_code":"2970204"},{"name":"六地蔵","zip_code":"2970233"}]},{"name":"長生郡長南町","divisions":[{"name":"市野々","zip_code":"2970144"},{"name":"今泉","zip_code":"2970103"},{"name":"岩川","zip_code":"2970101"},{"name":"岩撫","zip_code":"2970154"},{"name":"小沢","zip_code":"2970142"},{"name":"小生田","zip_code":"2970136"},{"name":"笠森","zip_code":"2970125"},{"name":"上小野田","zip_code":"2970137"},{"name":"給田","zip_code":"2970132"},{"name":"蔵持","zip_code":"2970123"},{"name":"坂本","zip_code":"2970122"},{"name":"佐坪","zip_code":"2970145"},{"name":"芝原","zip_code":"2970134"},{"name":"地引","zip_code":"2970135"},{"name":"下小野田","zip_code":"2970138"},{"name":"須田","zip_code":"2970111"},{"name":"関原","zip_code":"2970113"},{"name":"千手堂","zip_code":"2970114"},{"name":"千田","zip_code":"2970115"},{"name":"竹林","zip_code":"2970155"},{"name":"棚毛","zip_code":"2970105"},{"name":"長南","zip_code":"2970121"},{"name":"豊原","zip_code":"2970133"},{"name":"中原","zip_code":"2970131"},{"name":"深沢","zip_code":"2970124"},{"name":"報恩寺","zip_code":"2970141"},{"name":"又富","zip_code":"2970104"},{"name":"水沼","zip_code":"2970152"},{"name":"美原台","zip_code":"2970143"},{"name":"茗荷沢","zip_code":"2970151"},{"name":"本台","zip_code":"2970102"},{"name":"山内","zip_code":"2970153"},{"name":"米満","zip_code":"2970112"}]},{"name":"夷隅郡大多喜町","divisions":[{"name":"粟又","zip_code":"2980277"},{"name":"石神","zip_code":"2980256"},{"name":"板谷","zip_code":"2980261"},{"name":"市川","zip_code":"2980272"},{"name":"伊保田","zip_code":"2980263"},{"name":"上原","zip_code":"2980223"},{"name":"上原西部田柳原入会","zip_code":"2980205"},{"name":"宇筒原","zip_code":"2980235"},{"name":"大多喜","zip_code":"2980216"},{"name":"大田代","zip_code":"2980264"},{"name":"大戸","zip_code":"2980225"},{"name":"押沼","zip_code":"2980234"},{"name":"小土呂","zip_code":"2980201"},{"name":"面白","zip_code":"2980279"},{"name":"会所","zip_code":"2980276"},{"name":"紙敷","zip_code":"2980241"},{"name":"川畑","zip_code":"2980253"},{"name":"久我原","zip_code":"2980251"},{"name":"葛藤","zip_code":"2980267"},{"name":"久保","zip_code":"2980215"},{"name":"黒原","zip_code":"2980255"},{"name":"小内","zip_code":"2980232"},{"name":"小内笛倉入会","zip_code":"2980238"},{"name":"紺屋","zip_code":"2980211"},{"name":"小沢又","zip_code":"2980278"},{"name":"小田代","zip_code":"2980265"},{"name":"小苗","zip_code":"2980242"},{"name":"小谷松","zip_code":"2980228"},{"name":"桜台","zip_code":"2980213"},{"name":"猿稲","zip_code":"2980212"},{"name":"三条","zip_code":"2980273"},{"name":"下大多喜","zip_code":"2980202"},{"name":"庄司","zip_code":"2980246"},{"name":"新丁","zip_code":"2980214"},{"name":"泉水","zip_code":"2980207"},{"name":"田代","zip_code":"2980274"},{"name":"田丁","zip_code":"2980217"},{"name":"筒森","zip_code":"2980266"},{"name":"中野","zip_code":"2980271"},{"name":"西部田","zip_code":"2980227"},{"name":"馬場内","zip_code":"2980231"},{"name":"原内","zip_code":"2980237"},{"name":"平沢","zip_code":"2980254"},{"name":"笛倉","zip_code":"2980233"},{"name":"船子","zip_code":"2980204"},{"name":"部田","zip_code":"2980226"},{"name":"堀切","zip_code":"2980262"},{"name":"堀之内","zip_code":"2980224"},{"name":"松尾","zip_code":"2980244"},{"name":"三又","zip_code":"2980252"},{"name":"百鉾","zip_code":"2980236"},{"name":"森宮","zip_code":"2980203"},{"name":"弥喜用","zip_code":"2980245"},{"name":"八声","zip_code":"2980222"},{"name":"柳原","zip_code":"2980221"},{"name":"湯倉","zip_code":"2980243"},{"name":"弓木","zip_code":"2980275"},{"name":"横山","zip_code":"2980206"}]},{"name":"夷隅郡御宿町","divisions":[{"name":"岩和田","zip_code":"2995105"},{"name":"御宿台","zip_code":"2995112"},{"name":"上布施","zip_code":"2995111"},{"name":"久保","zip_code":"2995102"},{"name":"実谷","zip_code":"2995114"},{"name":"新町","zip_code":"2995103"},{"name":"須賀","zip_code":"2995106"},{"name":"高山田","zip_code":"2995101"},{"name":"七本","zip_code":"2995113"},{"name":"浜","zip_code":"2995107"},{"name":"六軒町","zip_code":"2995104"}]},{"name":"安房郡鋸南町","divisions":[{"name":"市井原","zip_code":"2991905"},{"name":"岩井袋","zip_code":"2992116"},{"name":"江月","zip_code":"2991907"},{"name":"大帷子","zip_code":"2991903"},{"name":"大崩","zip_code":"2992111"},{"name":"奥山","zip_code":"2992112"},{"name":"勝山","zip_code":"2992117"},{"name":"上佐久間","zip_code":"2992113"},{"name":"小保田","zip_code":"2991904"},{"name":"下佐久間","zip_code":"2992115"},{"name":"大六","zip_code":"2991909"},{"name":"中佐久間","zip_code":"2992114"},{"name":"保田","zip_code":"2991902"},{"name":"元名","zip_code":"2991901"},{"name":"横根","zip_code":"2991906"},{"name":"吉浜","zip_code":"2991908"},{"name":"竜島","zip_code":"2992118"}]}]}