{"name":"東京都","cities":[{"name":"千代田区","divisions":[{"name":"飯田橋","zip_code":"1020072"},{"name":"一番町","zip_code":"1020082"},{"name":"岩本町","zip_code":"1010032"},{"name":"内神田","zip_code":"1010047"},{"name":"内幸町","zip_code":"1000011"},{"name":"大手町","zip_code":"1000004"},{"name":"鍛冶町","zip_code":"1010044"},{"name":"霞が関","zip_code":"1000013"},{"name":"神田相生町","zip_code":"1010029"},{"name":"神田淡路町","zip_code":"1010063"},{"name":"神田和泉町","zip_code":"1010024"},{"name":"神田岩本町","zip_code":"1010033"},{"name":"神田小川町","zip_code":"1010052"},{"name":"神田鍛冶町","zip_code":"1010045"},{"name":"神田北乗物町","zip_code":"1010036"},{"name":"神田紺屋町","zip_code":"1010035"},{"name":"神田佐久間河岸","zip_code":"1010026"},{"name":"神田佐久間町","zip_code":"1010025"},{"name":"神田神保町","zip_code":"1010051"},{"name":"神田須田町","zip_code":"1010041"},{"name":"神田駿河台","zip_code":"1010062"},{"name":"神田多町","zip_code":"1010046"},{"name":"神田司町","zip_code":"1010048"},{"name":"神田富山町","zip_code":"1010043"},{"name":"神田錦町","zip_code":"1010054"},{"name":"神田西福田町","zip_code":"1010037"},{"name":"神田練塀町","zip_code":"1010022"},{"name":"神田花岡町","zip_code":"1010028"},{"name":"神田東紺屋町","zip_code":"1010034"},{"name":"神田東松下町","zip_code":"1010042"},{"name":"神田平河町","zip_code":"1010027"},{"name":"神田松永町","zip_code":"1010023"},{"name":"神田美倉町","zip_code":"1010038"},{"name":"神田美土代町","zip_code":"1010053"},{"name":"紀尾井町","zip_code":"1020094"},{"name":"北の丸公園","zip_code":"1020091"},{"name":"九段南","zip_code":"1020074"},{"name":"九段北","zip_code":"1020073"},{"name":"皇居外苑","zip_code":"1000002"},{"name":"麹町","zip_code":"1020083"},{"name":"五番町","zip_code":"1020076"},{"name":"猿楽町","zip_code":"1010064"},{"name":"三番町","zip_code":"1020075"},{"name":"外神田","zip_code":"1010021"},{"name":"千代田","zip_code":"1000001"},{"name":"永田町","zip_code":"1000014"},{"name":"西神田","zip_code":"1010065"},{"name":"二番町","zip_code":"1020084"},{"name":"隼町","zip_code":"1020092"},{"name":"東神田","zip_code":"1010031"},{"name":"一ツ橋","zip_code":"1000003"},{"name":"日比谷公園","zip_code":"1000012"},{"name":"平河町","zip_code":"1020093"},{"name":"富士見","zip_code":"1020071"},{"name":"丸の内","zip_code":"1000005"},{"name":"三崎町","zip_code":"1010061"},{"name":"有楽町","zip_code":"1000006"},{"name":"四番町","zip_code":"1020081"},{"name":"六番町","zip_code":"1020085"}]},{"name":"中央区","divisions":[{"name":"明石町","zip_code":"1040044"},{"name":"入船","zip_code":"1040042"},{"name":"勝どき","zip_code":"1040054"},{"name":"京橋","zip_code":"1040031"},{"name":"銀座","zip_code":"1040061"},{"name":"新川","zip_code":"1040033"},{"name":"新富","zip_code":"1040041"},{"name":"月島","zip_code":"1040052"},{"name":"築地","zip_code":"1040045"},{"name":"佃","zip_code":"1040051"},{"name":"豊海町","zip_code":"1040055"},{"name":"日本橋","zip_code":"1030027"},{"name":"日本橋大伝馬町","zip_code":"1030011"},{"name":"日本橋蛎殻町","zip_code":"1030014"},{"name":"日本橋兜町","zip_code":"1030026"},{"name":"日本橋茅場町","zip_code":"1030025"},{"name":"日本橋小網町","zip_code":"1030016"},{"name":"日本橋小伝馬町","zip_code":"1030001"},{"name":"日本橋小舟町","zip_code":"1030024"},{"name":"日本橋富沢町","zip_code":"1030006"},{"name":"日本橋中洲","zip_code":"1030008"},{"name":"日本橋人形町","zip_code":"1030013"},{"name":"日本橋箱崎町","zip_code":"1030015"},{"name":"日本橋浜町","zip_code":"1030007"},{"name":"日本橋馬喰町","zip_code":"1030002"},{"name":"日本橋久松町","zip_code":"1030005"},{"name":"日本橋堀留町","zip_code":"1030012"},{"name":"日本橋本石町","zip_code":"1030021"},{"name":"日本橋本町","zip_code":"1030023"},{"name":"日本橋室町","zip_code":"1030022"},{"name":"日本橋横山町","zip_code":"1030003"},{"name":"八丁堀","zip_code":"1040032"},{"name":"浜離宮庭園","zip_code":"1040046"},{"name":"晴海","zip_code":"1040053"},{"name":"東日本橋","zip_code":"1030004"},{"name":"湊","zip_code":"1040043"},{"name":"八重洲","zip_code":"1030028"}]},{"name":"港区","divisions":[{"name":"赤坂","zip_code":"1070052"},{"name":"麻布十番","zip_code":"1060045"},{"name":"麻布台","zip_code":"1060041"},{"name":"麻布永坂町","zip_code":"1060043"},{"name":"麻布狸穴町","zip_code":"1060042"},{"name":"愛宕","zip_code":"1050002"},{"name":"海岸","zip_code":"1050022"},{"name":"北青山","zip_code":"1070061"},{"name":"港南","zip_code":"1080075"},{"name":"芝","zip_code":"1050014"},{"name":"芝浦","zip_code":"1050023"},{"name":"芝公園","zip_code":"1050011"},{"name":"芝大門","zip_code":"1050012"},{"name":"白金","zip_code":"1080072"},{"name":"白金台","zip_code":"1080071"},{"name":"新橋","zip_code":"1050004"},{"name":"台場","zip_code":"1350091"},{"name":"高輪","zip_code":"1080074"},{"name":"虎ノ門","zip_code":"1050001"},{"name":"西麻布","zip_code":"1060031"},{"name":"西新橋","zip_code":"1050003"},{"name":"浜松町","zip_code":"1050013"},{"name":"東麻布","zip_code":"1060044"},{"name":"東新橋","zip_code":"1050021"},{"name":"三田","zip_code":"1080073"},{"name":"南青山","zip_code":"1070062"},{"name":"南麻布","zip_code":"1060047"},{"name":"元赤坂","zip_code":"1070051"},{"name":"元麻布","zip_code":"1060046"},{"name":"六本木","zip_code":"1060032"}]},{"name":"新宿区","divisions":[{"name":"愛住町","zip_code":"1600005"},{"name":"赤城下町","zip_code":"1620803"},{"name":"赤城元町","zip_code":"1620817"},{"name":"揚場町","zip_code":"1620824"},{"name":"荒木町","zip_code":"1600007"},{"name":"市谷加賀町","zip_code":"1620062"},{"name":"市谷甲良町","zip_code":"1620856"},{"name":"市谷砂土原町","zip_code":"1620842"},{"name":"市谷左内町","zip_code":"1620846"},{"name":"市谷鷹匠町","zip_code":"1620848"},{"name":"市谷田町","zip_code":"1620843"},{"name":"市谷台町","zip_code":"1620066"},{"name":"市谷長延寺町","zip_code":"1620847"},{"name":"市谷仲之町","zip_code":"1620064"},{"name":"市谷八幡町","zip_code":"1620844"},{"name":"市谷船河原町","zip_code":"1620826"},{"name":"市谷本村町","zip_code":"1620845"},{"name":"市谷薬王寺町","zip_code":"1620063"},{"name":"市谷柳町","zip_code":"1620061"},{"name":"市谷山伏町","zip_code":"1620857"},{"name":"岩戸町","zip_code":"1620832"},{"name":"榎町","zip_code":"1620806"},{"name":"大久保","zip_code":"1690072"},{"name":"改代町","zip_code":"1620802"},{"name":"神楽河岸","zip_code":"1620823"},{"name":"神楽坂","zip_code":"1620825"},{"name":"霞ケ丘町","zip_code":"1600013"},{"name":"片町","zip_code":"1600001"},{"name":"歌舞伎町","zip_code":"1600021"},{"name":"上落合","zip_code":"1610034"},{"name":"河田町","zip_code":"1620054"},{"name":"喜久井町","zip_code":"1620044"},{"name":"北新宿","zip_code":"1690074"},{"name":"北町","zip_code":"1620834"},{"name":"北山伏町","zip_code":"1620853"},{"name":"細工町","zip_code":"1620838"},{"name":"坂町","zip_code":"1600002"},{"name":"左門町","zip_code":"1600017"},{"name":"三栄町","zip_code":"1600008"},{"name":"信濃町","zip_code":"1600016"},{"name":"下落合","zip_code":"1610033"},{"name":"下宮比町","zip_code":"1620822"},{"name":"白銀町","zip_code":"1620816"},{"name":"新小川町","zip_code":"1620814"},{"name":"新宿","zip_code":"1600022"},{"name":"水道町","zip_code":"1620811"},{"name":"須賀町","zip_code":"1600018"},{"name":"住吉町","zip_code":"1620065"},{"name":"大京町","zip_code":"1600015"},{"name":"高田馬場","zip_code":"1690075"},{"name":"箪笥町","zip_code":"1620833"},{"name":"築地町","zip_code":"1620818"},{"name":"津久戸町","zip_code":"1620821"},{"name":"筑土八幡町","zip_code":"1620815"},{"name":"天神町","zip_code":"1620808"},{"name":"戸塚町","zip_code":"1690071"},{"name":"富久町","zip_code":"1620067"},{"name":"戸山","zip_code":"1690052"},{"name":"内藤町","zip_code":"1600014"},{"name":"中井","zip_code":"1610035"},{"name":"中落合","zip_code":"1610032"},{"name":"中里町","zip_code":"1620804"},{"name":"中町","zip_code":"1620835"},{"name":"納戸町","zip_code":"1620837"},{"name":"西落合","zip_code":"1610031"},{"name":"西五軒町","zip_code":"1620812"},{"name":"西新宿","zip_code":"1600023"},{"name":"二十騎町","zip_code":"1620855"},{"name":"西早稲田","zip_code":"1620051"},{"name":"馬場下町","zip_code":"1620045"},{"name":"払方町","zip_code":"1620841"},{"name":"原町","zip_code":"1620053"},{"name":"東榎町","zip_code":"1620807"},{"name":"東五軒町","zip_code":"1620813"},{"name":"百人町","zip_code":"1690073"},{"name":"袋町","zip_code":"1620828"},{"name":"舟町","zip_code":"1600006"},{"name":"弁天町","zip_code":"1620851"},{"name":"本塩町","zip_code":"1600003"},{"name":"南榎町","zip_code":"1620852"},{"name":"南町","zip_code":"1620836"},{"name":"南元町","zip_code":"1600012"},{"name":"南山伏町","zip_code":"1620854"},{"name":"山吹町","zip_code":"1620801"},{"name":"矢来町","zip_code":"1620805"},{"name":"横寺町","zip_code":"1620831"},{"name":"余丁町","zip_code":"1620055"},{"name":"四谷","zip_code":"1600004"},{"name":"若葉","zip_code":"1600011"},{"name":"若松町","zip_code":"1620056"},{"name":"若宮町","zip_code":"1620827"},{"name":"早稲田鶴巻町","zip_code":"1620041"},{"name":"早稲田南町","zip_code":"1620043"},{"name":"早稲田町","zip_code":"1620042"}]},{"name":"文京区","divisions":[{"name":"大塚","zip_code":"1120012"},{"name":"音羽","zip_code":"1120013"},{"name":"春日","zip_code":"1120003"},{"name":"小石川","zip_code":"1120002"},{"name":"後楽","zip_code":"1120004"},{"name":"小日向","zip_code":"1120006"},{"name":"水道","zip_code":"1120005"},{"name":"関口","zip_code":"1120014"},{"name":"千石","zip_code":"1120011"},{"name":"千駄木","zip_code":"1130022"},{"name":"西片","zip_code":"1130024"},{"name":"根津","zip_code":"1130031"},{"name":"白山","zip_code":"1130001"},{"name":"本駒込","zip_code":"1130021"},{"name":"本郷","zip_code":"1130033"},{"name":"向丘","zip_code":"1130023"},{"name":"目白台","zip_code":"1120015"},{"name":"弥生","zip_code":"1130032"},{"name":"湯島","zip_code":"1130034"}]},{"name":"台東区","divisions":[{"name":"秋葉原","zip_code":"1100006"},{"name":"浅草","zip_code":"1110032"},{"name":"浅草橋","zip_code":"1110053"},{"name":"池之端","zip_code":"1100008"},{"name":"今戸","zip_code":"1110024"},{"name":"入谷","zip_code":"1100013"},{"name":"上野","zip_code":"1100005"},{"name":"上野公園","zip_code":"1100007"},{"name":"上野桜木","zip_code":"1100002"},{"name":"雷門","zip_code":"1110034"},{"name":"北上野","zip_code":"1100014"},{"name":"清川","zip_code":"1110022"},{"name":"蔵前","zip_code":"1110051"},{"name":"小島","zip_code":"1110056"},{"name":"寿","zip_code":"1110042"},{"name":"駒形","zip_code":"1110043"},{"name":"下谷","zip_code":"1100004"},{"name":"千束","zip_code":"1110031"},{"name":"台東","zip_code":"1100016"},{"name":"鳥越","zip_code":"1110054"},{"name":"西浅草","zip_code":"1110035"},{"name":"日本堤","zip_code":"1110021"},{"name":"根岸","zip_code":"1100003"},{"name":"橋場","zip_code":"1110023"},{"name":"花川戸","zip_code":"1110033"},{"name":"東浅草","zip_code":"1110025"},{"name":"東上野","zip_code":"1100015"},{"name":"松が谷","zip_code":"1110036"},{"name":"三筋","zip_code":"1110055"},{"name":"三ノ輪","zip_code":"1100011"},{"name":"元浅草","zip_code":"1110041"},{"name":"谷中","zip_code":"1100001"},{"name":"柳橋","zip_code":"1110052"},{"name":"竜泉","zip_code":"1100012"}]},{"name":"墨田区","divisions":[{"name":"吾妻橋","zip_code":"1300001"},{"name":"石原","zip_code":"1300011"},{"name":"押上","zip_code":"1310045"},{"name":"亀沢","zip_code":"1300014"},{"name":"菊川","zip_code":"1300024"},{"name":"京島","zip_code":"1310046"},{"name":"錦糸","zip_code":"1300013"},{"name":"江東橋","zip_code":"1300022"},{"name":"墨田","zip_code":"1310031"},{"name":"太平","zip_code":"1300012"},{"name":"立花","zip_code":"1310043"},{"name":"立川","zip_code":"1300023"},{"name":"千歳","zip_code":"1300025"},{"name":"堤通","zip_code":"1310034"},{"name":"業平","zip_code":"1300002"},{"name":"東駒形","zip_code":"1300005"},{"name":"東墨田","zip_code":"1310042"},{"name":"東向島","zip_code":"1310032"},{"name":"文花","zip_code":"1310044"},{"name":"本所","zip_code":"1300004"},{"name":"緑","zip_code":"1300021"},{"name":"向島","zip_code":"1310033"},{"name":"八広","zip_code":"1310041"},{"name":"横網","zip_code":"1300015"},{"name":"横川","zip_code":"1300003"},{"name":"両国","zip_code":"1300026"}]},{"name":"江東区","divisions":[{"name":"青海","zip_code":"1350064"},{"name":"有明","zip_code":"1350063"},{"name":"石島","zip_code":"1350014"},{"name":"海辺","zip_code":"1350012"},{"name":"永代","zip_code":"1350034"},{"name":"枝川","zip_code":"1350051"},{"name":"越中島","zip_code":"1350044"},{"name":"扇橋","zip_code":"1350011"},{"name":"大島","zip_code":"1360072"},{"name":"亀戸","zip_code":"1360071"},{"name":"北砂","zip_code":"1360073"},{"name":"木場","zip_code":"1350042"},{"name":"清澄","zip_code":"1350024"},{"name":"佐賀","zip_code":"1350031"},{"name":"猿江","zip_code":"1350003"},{"name":"塩浜","zip_code":"1350043"},{"name":"潮見","zip_code":"1350052"},{"name":"東雲","zip_code":"1350062"},{"name":"白河","zip_code":"1350021"},{"name":"新大橋","zip_code":"1350007"},{"name":"新木場","zip_code":"1360082"},{"name":"新砂","zip_code":"1360075"},{"name":"住吉","zip_code":"1350002"},{"name":"千石","zip_code":"1350015"},{"name":"千田","zip_code":"1350013"},{"name":"高橋","zip_code":"1350005"},{"name":"辰巳","zip_code":"1350053"},{"name":"中央防波堤","zip_code":"1350065"},{"name":"東陽","zip_code":"1350016"},{"name":"常盤","zip_code":"1350006"},{"name":"富岡","zip_code":"1350047"},{"name":"豊洲","zip_code":"1350061"},{"name":"東砂","zip_code":"1360074"},{"name":"平野","zip_code":"1350023"},{"name":"深川","zip_code":"1350033"},{"name":"福住","zip_code":"1350032"},{"name":"冬木","zip_code":"1350041"},{"name":"古石場","zip_code":"1350045"},{"name":"牡丹","zip_code":"1350046"},{"name":"南砂","zip_code":"1360076"},{"name":"三好","zip_code":"1350022"},{"name":"毛利","zip_code":"1350001"},{"name":"森下","zip_code":"1350004"},{"name":"門前仲町","zip_code":"1350048"},{"name":"夢の島","zip_code":"1360081"},{"name":"若洲","zip_code":"1360083"}]},{"name":"品川区","divisions":[{"name":"荏原","zip_code":"1420063"},{"name":"大井","zip_code":"1400014"},{"name":"大崎","zip_code":"1410032"},{"name":"勝島","zip_code":"1400012"},{"name":"上大崎","zip_code":"1410021"},{"name":"北品川","zip_code":"1400001"},{"name":"小山","zip_code":"1420062"},{"name":"小山台","zip_code":"1420061"},{"name":"戸越","zip_code":"1420041"},{"name":"中延","zip_code":"1420053"},{"name":"西大井","zip_code":"1400015"},{"name":"西五反田","zip_code":"1410031"},{"name":"西品川","zip_code":"1410033"},{"name":"西中延","zip_code":"1420054"},{"name":"旗の台","zip_code":"1420064"},{"name":"東大井","zip_code":"1400011"},{"name":"東五反田","zip_code":"1410022"},{"name":"東品川","zip_code":"1400002"},{"name":"東中延","zip_code":"1420052"},{"name":"東八潮","zip_code":"1350092"},{"name":"平塚","zip_code":"1420051"},{"name":"広町","zip_code":"1400005"},{"name":"二葉","zip_code":"1420043"},{"name":"南大井","zip_code":"1400013"},{"name":"南品川","zip_code":"1400004"},{"name":"八潮","zip_code":"1400003"},{"name":"豊町","zip_code":"1420042"}]},{"name":"目黒区","divisions":[{"name":"青葉台","zip_code":"1530042"},{"name":"大岡山","zip_code":"1520033"},{"name":"大橋","zip_code":"1530044"},{"name":"柿の木坂","zip_code":"1520022"},{"name":"上目黒","zip_code":"1530051"},{"name":"五本木","zip_code":"1530053"},{"name":"駒場","zip_code":"1530041"},{"name":"下目黒","zip_code":"1530064"},{"name":"自由が丘","zip_code":"1520035"},{"name":"洗足","zip_code":"1520012"},{"name":"平町","zip_code":"1520032"},{"name":"鷹番","zip_code":"1520004"},{"name":"中央町","zip_code":"1520001"},{"name":"中町","zip_code":"1530065"},{"name":"中根","zip_code":"1520031"},{"name":"中目黒","zip_code":"1530061"},{"name":"原町","zip_code":"1520011"},{"name":"東が丘","zip_code":"1520021"},{"name":"東山","zip_code":"1530043"},{"name":"碑文谷","zip_code":"1520003"},{"name":"三田","zip_code":"1530062"},{"name":"緑が丘","zip_code":"1520034"},{"name":"南","zip_code":"1520013"},{"name":"目黒","zip_code":"1530063"},{"name":"目黒本町","zip_code":"1520002"},{"name":"八雲","zip_code":"1520023"},{"name":"祐天寺","zip_code":"1530052"}]},{"name":"大田区","divisions":[{"name":"池上","zip_code":"1460082"},{"name":"石川町","zip_code":"1450061"},{"name":"鵜の木","zip_code":"1460091"},{"name":"大森中","zip_code":"1430014"},{"name":"大森本町","zip_code":"1430011"},{"name":"大森東","zip_code":"1430012"},{"name":"大森西","zip_code":"1430015"},{"name":"大森南","zip_code":"1430013"},{"name":"大森北","zip_code":"1430016"},{"name":"蒲田","zip_code":"1440052"},{"name":"蒲田本町","zip_code":"1440053"},{"name":"上池台","zip_code":"1450064"},{"name":"北糀谷","zip_code":"1440032"},{"name":"北千束","zip_code":"1450062"},{"name":"北馬込","zip_code":"1430021"},{"name":"北嶺町","zip_code":"1450073"},{"name":"久が原","zip_code":"1460085"},{"name":"京浜島","zip_code":"1430003"},{"name":"山王","zip_code":"1430023"},{"name":"下丸子","zip_code":"1460092"},{"name":"城南島","zip_code":"1430002"},{"name":"昭和島","zip_code":"1430004"},{"name":"新蒲田","zip_code":"1440054"},{"name":"多摩川","zip_code":"1460095"},{"name":"千鳥","zip_code":"1460083"},{"name":"中央","zip_code":"1430024"},{"name":"田園調布","zip_code":"1450071"},{"name":"田園調布本町","zip_code":"1450072"},{"name":"田園調布南","zip_code":"1450076"},{"name":"東海","zip_code":"1430001"},{"name":"仲池上","zip_code":"1460081"},{"name":"中馬込","zip_code":"1430027"},{"name":"仲六郷","zip_code":"1440055"},{"name":"西蒲田","zip_code":"1440051"},{"name":"西糀谷","zip_code":"1440034"},{"name":"西馬込","zip_code":"1430026"},{"name":"西嶺町","zip_code":"1450075"},{"name":"西六郷","zip_code":"1440056"},{"name":"萩中","zip_code":"1440047"},{"name":"羽田","zip_code":"1440043"},{"name":"羽田旭町","zip_code":"1440042"},{"name":"羽田空港","zip_code":"1440041"},{"name":"東蒲田","zip_code":"1440031"},{"name":"東糀谷","zip_code":"1440033"},{"name":"東馬込","zip_code":"1430022"},{"name":"東嶺町","zip_code":"1450074"},{"name":"東矢口","zip_code":"1460094"},{"name":"東雪谷","zip_code":"1450065"},{"name":"東六郷","zip_code":"1440046"},{"name":"ふるさとの浜辺公園","zip_code":"1430007"},{"name":"平和島","zip_code":"1430006"},{"name":"平和の森公園","zip_code":"1430005"},{"name":"本羽田","zip_code":"1440044"},{"name":"南蒲田","zip_code":"1440035"},{"name":"南久が原","zip_code":"1460084"},{"name":"南千束","zip_code":"1450063"},{"name":"南馬込","zip_code":"1430025"},{"name":"南雪谷","zip_code":"1450066"},{"name":"南六郷","zip_code":"1440045"},{"name":"矢口","zip_code":"1460093"},{"name":"雪谷大塚町","zip_code":"1450067"}]},{"name":"世田谷区","divisions":[{"name":"赤堤","zip_code":"1560044"},{"name":"池尻","zip_code":"1540001"},{"name":"宇奈根","zip_code":"1570068"},{"name":"梅丘","zip_code":"1540022"},{"name":"大蔵","zip_code":"1570074"},{"name":"大原","zip_code":"1560041"},{"name":"岡本","zip_code":"1570076"},{"name":"奥沢","zip_code":"1580083"},{"name":"尾山台","zip_code":"1580086"},{"name":"粕谷","zip_code":"1570063"},{"name":"鎌田","zip_code":"1570077"},{"name":"上馬","zip_code":"1540011"},{"name":"上北沢","zip_code":"1560057"},{"name":"上祖師谷","zip_code":"1570065"},{"name":"上野毛","zip_code":"1580093"},{"name":"上用賀","zip_code":"1580098"},{"name":"北烏山","zip_code":"1570061"},{"name":"北沢","zip_code":"1550031"},{"name":"喜多見","zip_code":"1570067"},{"name":"砧","zip_code":"1570073"},{"name":"砧公園","zip_code":"1570075"},{"name":"給田","zip_code":"1570064"},{"name":"経堂","zip_code":"1560052"},{"name":"豪徳寺","zip_code":"1540021"},{"name":"駒沢","zip_code":"1540012"},{"name":"駒沢公園","zip_code":"1540013"},{"name":"桜","zip_code":"1560053"},{"name":"桜丘","zip_code":"1560054"},{"name":"桜新町","zip_code":"1540015"},{"name":"桜上水","zip_code":"1560045"},{"name":"三軒茶屋","zip_code":"1540024"},{"name":"下馬","zip_code":"1540002"},{"name":"新町","zip_code":"1540014"},{"name":"成城","zip_code":"1570066"},{"name":"瀬田","zip_code":"1580095"},{"name":"世田谷","zip_code":"1540017"},{"name":"祖師谷","zip_code":"1570072"},{"name":"太子堂","zip_code":"1540004"},{"name":"代沢","zip_code":"1550032"},{"name":"代田","zip_code":"1550033"},{"name":"玉川","zip_code":"1580094"},{"name":"玉川台","zip_code":"1580096"},{"name":"玉川田園調布","zip_code":"1580085"},{"name":"玉堤","zip_code":"1580087"},{"name":"千歳台","zip_code":"1570071"},{"name":"弦巻","zip_code":"1540016"},{"name":"等々力","zip_code":"1580082"},{"name":"中町","zip_code":"1580091"},{"name":"野毛","zip_code":"1580092"},{"name":"野沢","zip_code":"1540003"},{"name":"八幡山","zip_code":"1560056"},{"name":"羽根木","zip_code":"1560042"},{"name":"東玉川","zip_code":"1580084"},{"name":"深沢","zip_code":"1580081"},{"name":"船橋","zip_code":"1560055"},{"name":"松原","zip_code":"1560043"},{"name":"三宿","zip_code":"1540005"},{"name":"南烏山","zip_code":"1570062"},{"name":"宮坂","zip_code":"1560051"},{"name":"用賀","zip_code":"1580097"},{"name":"若林","zip_code":"1540023"}]},{"name":"渋谷区","divisions":[{"name":"上原","zip_code":"1510064"},{"name":"鶯谷町","zip_code":"1500032"},{"name":"宇田川町","zip_code":"1500042"},{"name":"恵比寿","zip_code":"1500013"},{"name":"恵比寿西","zip_code":"1500021"},{"name":"恵比寿南","zip_code":"1500022"},{"name":"大山町","zip_code":"1510065"},{"name":"神山町","zip_code":"1500047"},{"name":"桜丘町","zip_code":"1500031"},{"name":"笹塚","zip_code":"1510073"},{"name":"猿楽町","zip_code":"1500033"},{"name":"渋谷","zip_code":"1500002"},{"name":"松濤","zip_code":"1500046"},{"name":"神宮前","zip_code":"1500001"},{"name":"神泉町","zip_code":"1500045"},{"name":"神南","zip_code":"1500041"},{"name":"千駄ヶ谷","zip_code":"1510051"},{"name":"代官山町","zip_code":"1500034"},{"name":"道玄坂","zip_code":"1500043"},{"name":"富ヶ谷","zip_code":"1510063"},{"name":"南平台町","zip_code":"1500036"},{"name":"西原","zip_code":"1510066"},{"name":"幡ヶ谷","zip_code":"1510072"},{"name":"鉢山町","zip_code":"1500035"},{"name":"初台","zip_code":"1510061"},{"name":"東","zip_code":"1500011"},{"name":"広尾","zip_code":"1500012"},{"name":"本町","zip_code":"1510071"},{"name":"円山町","zip_code":"1500044"},{"name":"元代々木町","zip_code":"1510062"},{"name":"代々木","zip_code":"1510053"},{"name":"代々木神園町","zip_code":"1510052"}]},{"name":"中野区","divisions":[{"name":"新井","zip_code":"1650026"},{"name":"江古田","zip_code":"1650022"},{"name":"江原町","zip_code":"1650023"},{"name":"上鷺宮","zip_code":"1650031"},{"name":"上高田","zip_code":"1640002"},{"name":"鷺宮","zip_code":"1650032"},{"name":"白鷺","zip_code":"1650035"},{"name":"中央","zip_code":"1640011"},{"name":"中野","zip_code":"1640001"},{"name":"沼袋","zip_code":"1650025"},{"name":"野方","zip_code":"1650027"},{"name":"東中野","zip_code":"1640003"},{"name":"本町","zip_code":"1640012"},{"name":"松が丘","zip_code":"1650024"},{"name":"丸山","zip_code":"1650021"},{"name":"南台","zip_code":"1640014"},{"name":"大和町","zip_code":"1650034"},{"name":"弥生町","zip_code":"1640013"},{"name":"若宮","zip_code":"1650033"}]},{"name":"杉並区","divisions":[{"name":"阿佐谷南","zip_code":"1660004"},{"name":"阿佐谷北","zip_code":"1660001"},{"name":"天沼","zip_code":"1670032"},{"name":"井草","zip_code":"1670021"},{"name":"和泉","zip_code":"1680063"},{"name":"今川","zip_code":"1670035"},{"name":"梅里","zip_code":"1660011"},{"name":"永福","zip_code":"1680064"},{"name":"大宮","zip_code":"1680061"},{"name":"荻窪","zip_code":"1670051"},{"name":"上井草","zip_code":"1670023"},{"name":"上荻","zip_code":"1670043"},{"name":"上高井戸","zip_code":"1680074"},{"name":"久我山","zip_code":"1680082"},{"name":"高円寺南","zip_code":"1660003"},{"name":"高円寺北","zip_code":"1660002"},{"name":"清水","zip_code":"1670033"},{"name":"下井草","zip_code":"1670022"},{"name":"下高井戸","zip_code":"1680073"},{"name":"松庵","zip_code":"1670054"},{"name":"善福寺","zip_code":"1670041"},{"name":"高井戸東","zip_code":"1680072"},{"name":"高井戸西","zip_code":"1680071"},{"name":"成田東","zip_code":"1660015"},{"name":"成田西","zip_code":"1660016"},{"name":"西荻南","zip_code":"1670053"},{"name":"西荻北","zip_code":"1670042"},{"name":"浜田山","zip_code":"1680065"},{"name":"方南","zip_code":"1680062"},{"name":"堀ノ内","zip_code":"1660013"},{"name":"本天沼","zip_code":"1670031"},{"name":"松ノ木","zip_code":"1660014"},{"name":"南荻窪","zip_code":"1670052"},{"name":"宮前","zip_code":"1680081"},{"name":"桃井","zip_code":"1670034"},{"name":"和田","zip_code":"1660012"}]},{"name":"豊島区","divisions":[{"name":"池袋","zip_code":"1700014"},{"name":"池袋本町","zip_code":"1700011"},{"name":"要町","zip_code":"1710043"},{"name":"上池袋","zip_code":"1700012"},{"name":"北大塚","zip_code":"1700004"},{"name":"駒込","zip_code":"1700003"},{"name":"巣鴨","zip_code":"1700002"},{"name":"千川","zip_code":"1710041"},{"name":"雑司が谷","zip_code":"1710032"},{"name":"高田","zip_code":"1710033"},{"name":"高松","zip_code":"1710042"},{"name":"千早","zip_code":"1710044"},{"name":"長崎","zip_code":"1710051"},{"name":"西池袋","zip_code":"1710021"},{"name":"西巣鴨","zip_code":"1700001"},{"name":"東池袋","zip_code":"1700013"},{"name":"南池袋","zip_code":"1710022"},{"name":"南大塚","zip_code":"1700005"},{"name":"南長崎","zip_code":"1710052"},{"name":"目白","zip_code":"1710031"}]},{"name":"北区","divisions":[{"name":"赤羽","zip_code":"1150045"},{"name":"赤羽台","zip_code":"1150053"},{"name":"赤羽西","zip_code":"1150055"},{"name":"赤羽南","zip_code":"1150044"},{"name":"赤羽北","zip_code":"1150052"},{"name":"岩淵町","zip_code":"1150041"},{"name":"浮間","zip_code":"1150051"},{"name":"王子","zip_code":"1140002"},{"name":"王子本町","zip_code":"1140022"},{"name":"上十条","zip_code":"1140034"},{"name":"上中里","zip_code":"1140016"},{"name":"神谷","zip_code":"1150043"},{"name":"岸町","zip_code":"1140021"},{"name":"桐ケ丘","zip_code":"1150054"},{"name":"栄町","zip_code":"1140005"},{"name":"志茂","zip_code":"1150042"},{"name":"十条台","zip_code":"1140033"},{"name":"十条仲原","zip_code":"1140031"},{"name":"昭和町","zip_code":"1140011"},{"name":"滝野川","zip_code":"1140023"},{"name":"田端","zip_code":"1140014"},{"name":"田端新町","zip_code":"1140012"},{"name":"豊島","zip_code":"1140003"},{"name":"中里","zip_code":"1140015"},{"name":"中十条","zip_code":"1140032"},{"name":"西が丘","zip_code":"1150056"},{"name":"西ケ原","zip_code":"1140024"},{"name":"東十条","zip_code":"1140001"},{"name":"東田端","zip_code":"1140013"},{"name":"堀船","zip_code":"1140004"}]},{"name":"荒川区","divisions":[{"name":"荒川","zip_code":"1160002"},{"name":"西尾久","zip_code":"1160011"},{"name":"西日暮里","zip_code":"1160013"},{"name":"東尾久","zip_code":"1160012"},{"name":"東日暮里","zip_code":"1160014"},{"name":"町屋","zip_code":"1160001"},{"name":"南千住","zip_code":"1160003"}]},{"name":"板橋区","divisions":[{"name":"相生町","zip_code":"1740044"},{"name":"赤塚","zip_code":"1750092"},{"name":"赤塚新町","zip_code":"1750093"},{"name":"小豆沢","zip_code":"1740051"},{"name":"泉町","zip_code":"1740055"},{"name":"板橋","zip_code":"1730004"},{"name":"稲荷台","zip_code":"1730002"},{"name":"大原町","zip_code":"1740061"},{"name":"大谷口","zip_code":"1730035"},{"name":"大谷口上町","zip_code":"1730032"},{"name":"大谷口北町","zip_code":"1730031"},{"name":"大山金井町","zip_code":"1730024"},{"name":"大山東町","zip_code":"1730014"},{"name":"大山西町","zip_code":"1730033"},{"name":"大山町","zip_code":"1730023"},{"name":"加賀","zip_code":"1730003"},{"name":"上板橋","zip_code":"1740076"},{"name":"熊野町","zip_code":"1730025"},{"name":"小茂根","zip_code":"1730037"},{"name":"幸町","zip_code":"1730034"},{"name":"栄町","zip_code":"1730015"},{"name":"坂下","zip_code":"1740043"},{"name":"桜川","zip_code":"1740075"},{"name":"清水町","zip_code":"1740053"},{"name":"志村","zip_code":"1740056"},{"name":"新河岸","zip_code":"1750081"},{"name":"大門","zip_code":"1750085"},{"name":"高島平","zip_code":"1750082"},{"name":"東新町","zip_code":"1740074"},{"name":"常盤台","zip_code":"1740071"},{"name":"徳丸","zip_code":"1750083"},{"name":"中板橋","zip_code":"1730016"},{"name":"仲宿","zip_code":"1730005"},{"name":"中台","zip_code":"1740064"},{"name":"仲町","zip_code":"1730022"},{"name":"中丸町","zip_code":"1730026"},{"name":"成増","zip_code":"1750094"},{"name":"西台","zip_code":"1740045"},{"name":"蓮沼町","zip_code":"1740052"},{"name":"蓮根","zip_code":"1740046"},{"name":"氷川町","zip_code":"1730013"},{"name":"東坂下","zip_code":"1740042"},{"name":"東山町","zip_code":"1740073"},{"name":"富士見町","zip_code":"1740062"},{"name":"双葉町","zip_code":"1730011"},{"name":"舟渡","zip_code":"1740041"},{"name":"本町","zip_code":"1730001"},{"name":"前野町","zip_code":"1740063"},{"name":"三園","zip_code":"1750091"},{"name":"南町","zip_code":"1730027"},{"name":"南常盤台","zip_code":"1740072"},{"name":"宮本町","zip_code":"1740054"},{"name":"向原","zip_code":"1730036"},{"name":"大和町","zip_code":"1730012"},{"name":"弥生町","zip_code":"1730021"},{"name":"四葉","zip_code":"1750084"},{"name":"若木","zip_code":"1740065"}]},{"name":"練馬区","divisions":[{"name":"旭丘","zip_code":"1760005"},{"name":"旭町","zip_code":"1790071"},{"name":"大泉学園町","zip_code":"1780061"},{"name":"大泉町","zip_code":"1780062"},{"name":"春日町","zip_code":"1790074"},{"name":"上石神井","zip_code":"1770044"},{"name":"上石神井南町","zip_code":"1770043"},{"name":"北町","zip_code":"1790081"},{"name":"向山","zip_code":"1760022"},{"name":"小竹町","zip_code":"1760004"},{"name":"栄町","zip_code":"1760006"},{"name":"桜台","zip_code":"1760002"},{"name":"下石神井","zip_code":"1770042"},{"name":"石神井台","zip_code":"1770045"},{"name":"石神井町","zip_code":"1770041"},{"name":"関町東","zip_code":"1770052"},{"name":"関町南","zip_code":"1770053"},{"name":"関町北","zip_code":"1770051"},{"name":"高野台","zip_code":"1770033"},{"name":"高松","zip_code":"1790075"},{"name":"田柄","zip_code":"1790073"},{"name":"立野町","zip_code":"1770054"},{"name":"土支田","zip_code":"1790076"},{"name":"豊玉上","zip_code":"1760011"},{"name":"豊玉中","zip_code":"1760013"},{"name":"豊玉南","zip_code":"1760014"},{"name":"豊玉北","zip_code":"1760012"},{"name":"中村","zip_code":"1760024"},{"name":"中村南","zip_code":"1760025"},{"name":"中村北","zip_code":"1760023"},{"name":"西大泉","zip_code":"1780065"},{"name":"西大泉町","zip_code":"1780066"},{"name":"錦","zip_code":"1790082"},{"name":"貫井","zip_code":"1760021"},{"name":"練馬","zip_code":"1760001"},{"name":"羽沢","zip_code":"1760003"},{"name":"早宮","zip_code":"1790085"},{"name":"光が丘","zip_code":"1790072"},{"name":"氷川台","zip_code":"1790084"},{"name":"東大泉","zip_code":"1780063"},{"name":"富士見台","zip_code":"1770034"},{"name":"平和台","zip_code":"1790083"},{"name":"南大泉","zip_code":"1780064"},{"name":"南田中","zip_code":"1770035"},{"name":"三原台","zip_code":"1770031"},{"name":"谷原","zip_code":"1770032"}]},{"name":"足立区","divisions":[{"name":"青井","zip_code":"1200012"},{"name":"足立","zip_code":"1200015"},{"name":"綾瀬","zip_code":"1200005"},{"name":"伊興","zip_code":"1210823"},{"name":"伊興本町","zip_code":"1210807"},{"name":"入谷","zip_code":"1210836"},{"name":"入谷町","zip_code":"1210834"},{"name":"梅島","zip_code":"1210816"},{"name":"梅田","zip_code":"1230851"},{"name":"扇","zip_code":"1230873"},{"name":"大谷田","zip_code":"1200001"},{"name":"興野","zip_code":"1230844"},{"name":"小台","zip_code":"1200046"},{"name":"加賀","zip_code":"1230861"},{"name":"加平","zip_code":"1210055"},{"name":"北加平町","zip_code":"1210056"},{"name":"栗原","zip_code":"1230842"},{"name":"弘道","zip_code":"1200013"},{"name":"江北","zip_code":"1230872"},{"name":"古千谷","zip_code":"1210833"},{"name":"古千谷本町","zip_code":"1210832"},{"name":"佐野","zip_code":"1210053"},{"name":"皿沼","zip_code":"1230862"},{"name":"鹿浜","zip_code":"1230864"},{"name":"島根","zip_code":"1210815"},{"name":"新田","zip_code":"1230865"},{"name":"神明","zip_code":"1210051"},{"name":"神明南","zip_code":"1210057"},{"name":"関原","zip_code":"1230852"},{"name":"千住","zip_code":"1200034"},{"name":"千住曙町","zip_code":"1200023"},{"name":"千住旭町","zip_code":"1200026"},{"name":"千住東","zip_code":"1200025"},{"name":"千住大川町","zip_code":"1200031"},{"name":"千住河原町","zip_code":"1200037"},{"name":"千住寿町","zip_code":"1200033"},{"name":"千住桜木","zip_code":"1200045"},{"name":"千住関屋町","zip_code":"1200024"},{"name":"千住龍田町","zip_code":"1200042"},{"name":"千住中居町","zip_code":"1200035"},{"name":"千住仲町","zip_code":"1200036"},{"name":"千住橋戸町","zip_code":"1200038"},{"name":"千住緑町","zip_code":"1200044"},{"name":"千住宮元町","zip_code":"1200043"},{"name":"千住元町","zip_code":"1200041"},{"name":"千住柳町","zip_code":"1200032"},{"name":"竹の塚","zip_code":"1210813"},{"name":"辰沼","zip_code":"1210054"},{"name":"中央本町","zip_code":"1200011"},{"name":"椿","zip_code":"1230871"},{"name":"東和","zip_code":"1200003"},{"name":"舎人","zip_code":"1210831"},{"name":"舎人公園","zip_code":"1210837"},{"name":"舎人町","zip_code":"1210835"},{"name":"中川","zip_code":"1200002"},{"name":"西綾瀬","zip_code":"1200014"},{"name":"西新井","zip_code":"1230841"},{"name":"西新井栄町","zip_code":"1230843"},{"name":"西新井本町","zip_code":"1230845"},{"name":"西伊興","zip_code":"1210824"},{"name":"西伊興町","zip_code":"1210825"},{"name":"西加平","zip_code":"1210074"},{"name":"西竹の塚","zip_code":"1210822"},{"name":"西保木間","zip_code":"1210812"},{"name":"花畑","zip_code":"1210061"},{"name":"東綾瀬","zip_code":"1200004"},{"name":"東伊興","zip_code":"1210801"},{"name":"東保木間","zip_code":"1210063"},{"name":"東六月町","zip_code":"1210071"},{"name":"一ツ家","zip_code":"1210075"},{"name":"日ノ出町","zip_code":"1200021"},{"name":"平野","zip_code":"1210076"},{"name":"保木間","zip_code":"1210064"},{"name":"保塚町","zip_code":"1210072"},{"name":"堀之内","zip_code":"1230874"},{"name":"南花畑","zip_code":"1210062"},{"name":"宮城","zip_code":"1200047"},{"name":"六木","zip_code":"1210052"},{"name":"本木","zip_code":"1230853"},{"name":"本木東町","zip_code":"1230854"},{"name":"本木西町","zip_code":"1230856"},{"name":"本木南町","zip_code":"1230855"},{"name":"本木北町","zip_code":"1230857"},{"name":"谷在家","zip_code":"1230863"},{"name":"谷中","zip_code":"1200006"},{"name":"柳原","zip_code":"1200022"},{"name":"六月","zip_code":"1210814"},{"name":"六町","zip_code":"1210073"}]},{"name":"葛飾区","divisions":[{"name":"青戸","zip_code":"1250062"},{"name":"奥戸","zip_code":"1240022"},{"name":"お花茶屋","zip_code":"1240003"},{"name":"金町","zip_code":"1250042"},{"name":"金町浄水場","zip_code":"1250043"},{"name":"鎌倉","zip_code":"1250053"},{"name":"亀有","zip_code":"1250061"},{"name":"小菅","zip_code":"1240001"},{"name":"柴又","zip_code":"1250052"},{"name":"白鳥","zip_code":"1250063"},{"name":"新小岩","zip_code":"1240024"},{"name":"高砂","zip_code":"1250054"},{"name":"宝町","zip_code":"1240005"},{"name":"立石","zip_code":"1240012"},{"name":"新宿","zip_code":"1250051"},{"name":"西亀有","zip_code":"1240002"},{"name":"西新小岩","zip_code":"1240025"},{"name":"西水元","zip_code":"1250031"},{"name":"東金町","zip_code":"1250041"},{"name":"東新小岩","zip_code":"1240023"},{"name":"東立石","zip_code":"1240013"},{"name":"東堀切","zip_code":"1240004"},{"name":"東水元","zip_code":"1250033"},{"name":"東四つ木","zip_code":"1240014"},{"name":"細田","zip_code":"1240021"},{"name":"堀切","zip_code":"1240006"},{"name":"水元","zip_code":"1250032"},{"name":"水元公園","zip_code":"1250034"},{"name":"南水元","zip_code":"1250035"},{"name":"四つ木","zip_code":"1240011"}]},{"name":"江戸川区","divisions":[{"name":"一之江","zip_code":"1320024"},{"name":"一之江町","zip_code":"1340092"},{"name":"宇喜田町","zip_code":"1340082"},{"name":"江戸川","zip_code":"1320013"},{"name":"大杉","zip_code":"1320022"},{"name":"興宮町","zip_code":"1330042"},{"name":"上一色","zip_code":"1330041"},{"name":"上篠崎","zip_code":"1330054"},{"name":"北葛西","zip_code":"1340081"},{"name":"北小岩","zip_code":"1330051"},{"name":"北篠崎","zip_code":"1330053"},{"name":"小松川","zip_code":"1320034"},{"name":"鹿骨","zip_code":"1330073"},{"name":"鹿骨町","zip_code":"1330072"},{"name":"篠崎町","zip_code":"1330061"},{"name":"下篠崎町","zip_code":"1330064"},{"name":"清新町","zip_code":"1340087"},{"name":"中央","zip_code":"1320021"},{"name":"中葛西","zip_code":"1340083"},{"name":"新堀","zip_code":"1320001"},{"name":"西一之江","zip_code":"1320023"},{"name":"西葛西","zip_code":"1340088"},{"name":"西小岩","zip_code":"1330057"},{"name":"西小松川町","zip_code":"1320032"},{"name":"西篠崎","zip_code":"1330055"},{"name":"西瑞江","zip_code":"1320015"},{"name":"二之江町","zip_code":"1340093"},{"name":"春江町","zip_code":"1320003"},{"name":"東葛西","zip_code":"1340084"},{"name":"東小岩","zip_code":"1330052"},{"name":"東小松川","zip_code":"1320033"},{"name":"東篠崎","zip_code":"1330063"},{"name":"東篠崎町","zip_code":"1330062"},{"name":"東松本","zip_code":"1330071"},{"name":"東瑞江","zip_code":"1320014"},{"name":"平井","zip_code":"1320035"},{"name":"船堀","zip_code":"1340091"},{"name":"本一色","zip_code":"1330044"},{"name":"松江","zip_code":"1320025"},{"name":"松島","zip_code":"1320031"},{"name":"松本","zip_code":"1330043"},{"name":"瑞江","zip_code":"1320011"},{"name":"南葛西","zip_code":"1340085"},{"name":"南小岩","zip_code":"1330056"},{"name":"南篠崎町","zip_code":"1330065"},{"name":"谷河内","zip_code":"1320002"},{"name":"臨海町","zip_code":"1340086"}]},{"name":"八王子市","divisions":[{"name":"暁町","zip_code":"1920043"},{"name":"旭町","zip_code":"1920083"},{"name":"東町","zip_code":"1920082"},{"name":"石川町","zip_code":"1920032"},{"name":"泉町","zip_code":"1930814"},{"name":"犬目町","zip_code":"1930802"},{"name":"上野町","zip_code":"1920902"},{"name":"打越町","zip_code":"1920911"},{"name":"宇津木町","zip_code":"1920024"},{"name":"宇津貫町","zip_code":"1920915"},{"name":"梅坪町","zip_code":"1920013"},{"name":"裏高尾町","zip_code":"1930841"},{"name":"追分町","zip_code":"1920056"},{"name":"大塚","zip_code":"1920352"},{"name":"大船町","zip_code":"1930935"},{"name":"大谷町","zip_code":"1920034"},{"name":"大横町","zip_code":"1920062"},{"name":"大和田町","zip_code":"1920045"},{"name":"小門町","zip_code":"1920054"},{"name":"尾崎町","zip_code":"1920025"},{"name":"小津町","zip_code":"1920155"},{"name":"鹿島","zip_code":"1920353"},{"name":"加住町","zip_code":"1920004"},{"name":"片倉町","zip_code":"1920914"},{"name":"叶谷町","zip_code":"1930815"},{"name":"上壱分方町","zip_code":"1930811"},{"name":"上恩方町","zip_code":"1920156"},{"name":"上川町","zip_code":"1920151"},{"name":"上柚木","zip_code":"1920373"},{"name":"川口町","zip_code":"1930801"},{"name":"川町","zip_code":"1930821"},{"name":"北野台","zip_code":"1920913"},{"name":"北野町","zip_code":"1920906"},{"name":"絹ケ丘","zip_code":"1920912"},{"name":"清川町","zip_code":"1930804"},{"name":"椚田町","zip_code":"1930942"},{"name":"久保山町","zip_code":"1920023"},{"name":"越野","zip_code":"1920361"},{"name":"小比企町","zip_code":"1930934"},{"name":"小宮町","zip_code":"1920031"},{"name":"子安町","zip_code":"1920904"},{"name":"左入町","zip_code":"1920012"},{"name":"散田町","zip_code":"1930832"},{"name":"下恩方町","zip_code":"1920154"},{"name":"下柚木","zip_code":"1920372"},{"name":"城山手","zip_code":"1930825"},{"name":"新町","zip_code":"1920065"},{"name":"諏訪町","zip_code":"1930812"},{"name":"千人町","zip_code":"1930835"},{"name":"台町","zip_code":"1930931"},{"name":"大楽寺町","zip_code":"1930816"},{"name":"平町","zip_code":"1920022"},{"name":"高尾町","zip_code":"1930844"},{"name":"高倉町","zip_code":"1920033"},{"name":"高月町","zip_code":"1920002"},{"name":"滝山町","zip_code":"1920011"},{"name":"館町","zip_code":"1930944"},{"name":"田町","zip_code":"1920064"},{"name":"丹木町","zip_code":"1920003"},{"name":"寺田町","zip_code":"1930943"},{"name":"寺町","zip_code":"1920073"},{"name":"天神町","zip_code":"1920074"},{"name":"廿里町","zip_code":"1930843"},{"name":"戸吹町","zip_code":"1920001"},{"name":"中町","zip_code":"1920085"},{"name":"中野上町","zip_code":"1920041"},{"name":"中野山王","zip_code":"1920042"},{"name":"中野町","zip_code":"1920015"},{"name":"中山","zip_code":"1920374"},{"name":"長沼町","zip_code":"1920907"},{"name":"長房町","zip_code":"1930824"},{"name":"七国","zip_code":"1920919"},{"name":"並木町","zip_code":"1930831"},{"name":"楢原町","zip_code":"1930803"},{"name":"南陽台","zip_code":"1920371"},{"name":"西浅川町","zip_code":"1930842"},{"name":"西片倉","zip_code":"1920917"},{"name":"西寺方町","zip_code":"1920153"},{"name":"弐分方町","zip_code":"1930822"},{"name":"狭間町","zip_code":"1930941"},{"name":"八幡町","zip_code":"1920053"},{"name":"初沢町","zip_code":"1930845"},{"name":"東浅川町","zip_code":"1930834"},{"name":"東中野","zip_code":"1920351"},{"name":"兵衛","zip_code":"1920918"},{"name":"日吉町","zip_code":"1930836"},{"name":"平岡町","zip_code":"1920061"},{"name":"富士見町","zip_code":"1920044"},{"name":"別所","zip_code":"1920363"},{"name":"堀之内","zip_code":"1920355"},{"name":"本郷町","zip_code":"1920052"},{"name":"本町","zip_code":"1920066"},{"name":"松が谷","zip_code":"1920354"},{"name":"松木","zip_code":"1920362"},{"name":"丸山町","zip_code":"1920021"},{"name":"三崎町","zip_code":"1920084"},{"name":"みつい台","zip_code":"1920014"},{"name":"緑町","zip_code":"1930932"},{"name":"南浅川町","zip_code":"1930846"},{"name":"南大沢","zip_code":"1920364"},{"name":"南新町","zip_code":"1920075"},{"name":"南町","zip_code":"1920072"},{"name":"みなみ野","zip_code":"1920916"},{"name":"宮下町","zip_code":"1920005"},{"name":"美山町","zip_code":"1920152"},{"name":"明神町","zip_code":"1920046"},{"name":"めじろ台","zip_code":"1930833"},{"name":"元八王子町","zip_code":"1930826"},{"name":"元本郷町","zip_code":"1920051"},{"name":"元横山町","zip_code":"1920063"},{"name":"八木町","zip_code":"1920055"},{"name":"谷野町","zip_code":"1920016"},{"name":"山田町","zip_code":"1930933"},{"name":"鑓水","zip_code":"1920375"},{"name":"八日町","zip_code":"1920071"},{"name":"横川町","zip_code":"1930823"},{"name":"横山町","zip_code":"1920081"},{"name":"四谷町","zip_code":"1930813"},{"name":"万町","zip_code":"1920903"}]},{"name":"立川市","divisions":[{"name":"曙町","zip_code":"1900012"},{"name":"泉町","zip_code":"1900015"},{"name":"一番町","zip_code":"1900033"},{"name":"柏町","zip_code":"1900004"},{"name":"上砂町","zip_code":"1900032"},{"name":"幸町","zip_code":"1900002"},{"name":"栄町","zip_code":"1900003"},{"name":"柴崎町","zip_code":"1900023"},{"name":"砂川町","zip_code":"1900031"},{"name":"高松町","zip_code":"1900011"},{"name":"錦町","zip_code":"1900022"},{"name":"西砂町","zip_code":"1900034"},{"name":"羽衣町","zip_code":"1900021"},{"name":"富士見町","zip_code":"1900013"},{"name":"緑町","zip_code":"1900014"},{"name":"若葉町","zip_code":"1900001"}]},{"name":"武蔵野市","divisions":[{"name":"吉祥寺本町","zip_code":"1800004"},{"name":"吉祥寺東町","zip_code":"1800002"},{"name":"吉祥寺南町","zip_code":"1800003"},{"name":"吉祥寺北町","zip_code":"1800001"},{"name":"境南町","zip_code":"1800023"},{"name":"御殿山","zip_code":"1800005"},{"name":"境","zip_code":"1800022"},{"name":"桜堤","zip_code":"1800021"},{"name":"関前","zip_code":"1800014"},{"name":"中町","zip_code":"1800006"},{"name":"西久保","zip_code":"1800013"},{"name":"緑町","zip_code":"1800012"},{"name":"八幡町","zip_code":"1800011"}]},{"name":"三鷹市","divisions":[{"name":"井口","zip_code":"1810011"},{"name":"井の頭","zip_code":"1810001"},{"name":"大沢","zip_code":"1810015"},{"name":"上連雀","zip_code":"1810012"},{"name":"北野","zip_code":"1810003"},{"name":"下連雀","zip_code":"1810013"},{"name":"新川","zip_code":"1810004"},{"name":"深大寺","zip_code":"1810016"},{"name":"中原","zip_code":"1810005"},{"name":"野崎","zip_code":"1810014"},{"name":"牟礼","zip_code":"1810002"}]},{"name":"青梅市","divisions":[{"name":"天ケ瀬町","zip_code":"1980087"},{"name":"今井","zip_code":"1980023"},{"name":"今寺","zip_code":"1980021"},{"name":"裏宿町","zip_code":"1980088"},{"name":"大柳町","zip_code":"1980086"},{"name":"小曾木","zip_code":"1980003"},{"name":"勝沼","zip_code":"1980041"},{"name":"河辺町","zip_code":"1980036"},{"name":"上町","zip_code":"1980081"},{"name":"木野下","zip_code":"1980013"},{"name":"黒沢","zip_code":"1980005"},{"name":"駒木町","zip_code":"1980053"},{"name":"沢井","zip_code":"1980172"},{"name":"塩船","zip_code":"1980011"},{"name":"新町","zip_code":"1980024"},{"name":"末広町","zip_code":"1980025"},{"name":"住江町","zip_code":"1980084"},{"name":"大門","zip_code":"1980014"},{"name":"滝ノ上町","zip_code":"1980085"},{"name":"千ケ瀬町","zip_code":"1980043"},{"name":"富岡","zip_code":"1980002"},{"name":"友田町","zip_code":"1980051"},{"name":"仲町","zip_code":"1980082"},{"name":"長淵","zip_code":"1980052"},{"name":"成木","zip_code":"1980001"},{"name":"西分町","zip_code":"1980044"},{"name":"根ケ布","zip_code":"1980004"},{"name":"野上町","zip_code":"1980032"},{"name":"梅郷","zip_code":"1980063"},{"name":"畑中","zip_code":"1980061"},{"name":"東青梅","zip_code":"1980042"},{"name":"日向和田","zip_code":"1980046"},{"name":"吹上","zip_code":"1980015"},{"name":"藤橋","zip_code":"1980022"},{"name":"二俣尾","zip_code":"1980171"},{"name":"本町","zip_code":"1980083"},{"name":"御岳","zip_code":"1980174"},{"name":"御岳山","zip_code":"1980175"},{"name":"御岳本町","zip_code":"1980173"},{"name":"森下町","zip_code":"1980089"},{"name":"師岡町","zip_code":"1980031"},{"name":"谷野","zip_code":"1980012"},{"name":"柚木町","zip_code":"1980064"},{"name":"和田町","zip_code":"1980062"}]},{"name":"府中市","divisions":[{"name":"朝日町","zip_code":"1830003"},{"name":"押立町","zip_code":"1830012"},{"name":"片町","zip_code":"1830021"},{"name":"北山町","zip_code":"1830041"},{"name":"寿町","zip_code":"1830056"},{"name":"小柳町","zip_code":"1830013"},{"name":"是政","zip_code":"1830014"},{"name":"幸町","zip_code":"1830054"},{"name":"栄町","zip_code":"1830051"},{"name":"清水が丘","zip_code":"1830015"},{"name":"白糸台","zip_code":"1830011"},{"name":"新町","zip_code":"1830052"},{"name":"住吉町","zip_code":"1830034"},{"name":"浅間町","zip_code":"1830001"},{"name":"多磨町","zip_code":"1830002"},{"name":"天神町","zip_code":"1830053"},{"name":"東芝町","zip_code":"1830043"},{"name":"西原町","zip_code":"1830046"},{"name":"西府町","zip_code":"1830031"},{"name":"日鋼町","zip_code":"1830044"},{"name":"日新町","zip_code":"1830036"},{"name":"八幡町","zip_code":"1830016"},{"name":"晴見町","zip_code":"1830057"},{"name":"日吉町","zip_code":"1830024"},{"name":"府中町","zip_code":"1830055"},{"name":"分梅町","zip_code":"1830033"},{"name":"本宿町","zip_code":"1830032"},{"name":"本町","zip_code":"1830027"},{"name":"緑町","zip_code":"1830006"},{"name":"南町","zip_code":"1830026"},{"name":"宮西町","zip_code":"1830022"},{"name":"宮町","zip_code":"1830023"},{"name":"美好町","zip_code":"1830045"},{"name":"武蔵台","zip_code":"1830042"},{"name":"紅葉丘","zip_code":"1830004"},{"name":"矢崎町","zip_code":"1830025"},{"name":"四谷","zip_code":"1830035"},{"name":"若松町","zip_code":"1830005"}]},{"name":"昭島市","divisions":[{"name":"朝日町","zip_code":"1960025"},{"name":"東町","zip_code":"1960033"},{"name":"大神町","zip_code":"1960013"},{"name":"郷地町","zip_code":"1960032"},{"name":"上川原町","zip_code":"1960011"},{"name":"昭和町","zip_code":"1960015"},{"name":"田中町","zip_code":"1960014"},{"name":"玉川町","zip_code":"1960034"},{"name":"築地町","zip_code":"1960023"},{"name":"つつじが丘","zip_code":"1960012"},{"name":"中神町","zip_code":"1960022"},{"name":"拝島町","zip_code":"1960002"},{"name":"福島町","zip_code":"1960031"},{"name":"松原町","zip_code":"1960003"},{"name":"緑町","zip_code":"1960004"},{"name":"美堀町","zip_code":"1960001"},{"name":"宮沢町","zip_code":"1960024"},{"name":"武蔵野","zip_code":"1960021"}]},{"name":"調布市","divisions":[{"name":"入間町","zip_code":"1820004"},{"name":"上石原","zip_code":"1820035"},{"name":"菊野台","zip_code":"1820007"},{"name":"国領町","zip_code":"1820022"},{"name":"小島町","zip_code":"1820026"},{"name":"佐須町","zip_code":"1820016"},{"name":"柴崎","zip_code":"1820014"},{"name":"下石原","zip_code":"1820034"},{"name":"深大寺東町","zip_code":"1820012"},{"name":"深大寺南町","zip_code":"1820013"},{"name":"深大寺北町","zip_code":"1820011"},{"name":"深大寺元町","zip_code":"1820017"},{"name":"仙川町","zip_code":"1820002"},{"name":"染地","zip_code":"1820023"},{"name":"多摩川","zip_code":"1820025"},{"name":"調布ケ丘","zip_code":"1820021"},{"name":"飛田給","zip_code":"1820036"},{"name":"西つつじケ丘","zip_code":"1820006"},{"name":"西町","zip_code":"1820032"},{"name":"野水","zip_code":"1820031"},{"name":"東つつじケ丘","zip_code":"1820005"},{"name":"富士見町","zip_code":"1820033"},{"name":"布田","zip_code":"1820024"},{"name":"緑ケ丘","zip_code":"1820001"},{"name":"八雲台","zip_code":"1820015"},{"name":"若葉町","zip_code":"1820003"}]},{"name":"町田市","divisions":[{"name":"相原町","zip_code":"1940211"},{"name":"旭町","zip_code":"1940023"},{"name":"大蔵町","zip_code":"1950062"},{"name":"小川","zip_code":"1940003"},{"name":"小野路町","zip_code":"1950064"},{"name":"小山ケ丘","zip_code":"1940215"},{"name":"小山田桜台","zip_code":"1940204"},{"name":"小山町","zip_code":"1940212"},{"name":"金井","zip_code":"1950072"},{"name":"金井町","zip_code":"1950071"},{"name":"金森","zip_code":"1940012"},{"name":"金森東","zip_code":"1940015"},{"name":"上小山田町","zip_code":"1940201"},{"name":"木曽西","zip_code":"1940037"},{"name":"木曽東","zip_code":"1940036"},{"name":"木曽町","zip_code":"1940033"},{"name":"高ケ坂","zip_code":"1940014"},{"name":"下小山田町","zip_code":"1940202"},{"name":"真光寺","zip_code":"1950057"},{"name":"真光寺町","zip_code":"1950051"},{"name":"図師町","zip_code":"1940203"},{"name":"忠生","zip_code":"1940035"},{"name":"玉川学園","zip_code":"1940041"},{"name":"つくし野","zip_code":"1940001"},{"name":"鶴川","zip_code":"1950061"},{"name":"鶴間","zip_code":"1940004"},{"name":"常盤町","zip_code":"1940213"},{"name":"中町","zip_code":"1940021"},{"name":"成瀬","zip_code":"1940044"},{"name":"成瀬が丘","zip_code":"1940011"},{"name":"成瀬台","zip_code":"1940043"},{"name":"根岸","zip_code":"1940038"},{"name":"根岸町","zip_code":"1940034"},{"name":"能ヶ谷","zip_code":"1950053"},{"name":"野津田町","zip_code":"1950063"},{"name":"原町田","zip_code":"1940013"},{"name":"東玉川学園","zip_code":"1940042"},{"name":"広袴","zip_code":"1950056"},{"name":"広袴町","zip_code":"1950052"},{"name":"本町田","zip_code":"1940032"},{"name":"南大谷","zip_code":"1940031"},{"name":"南つくし野","zip_code":"1940002"},{"name":"南成瀬","zip_code":"1940045"},{"name":"三輪町","zip_code":"1950054"},{"name":"三輪緑山","zip_code":"1950055"},{"name":"森野","zip_code":"1940022"},{"name":"薬師台","zip_code":"1950073"},{"name":"矢部町","zip_code":"1940214"},{"name":"山崎","zip_code":"1950075"},{"name":"山崎町","zip_code":"1950074"}]},{"name":"小金井市","divisions":[{"name":"梶野町","zip_code":"1840002"},{"name":"桜町","zip_code":"1840005"},{"name":"関野町","zip_code":"1840001"},{"name":"中町","zip_code":"1840012"},{"name":"貫井南町","zip_code":"1840014"},{"name":"貫井北町","zip_code":"1840015"},{"name":"東町","zip_code":"1840011"},{"name":"本町","zip_code":"1840004"},{"name":"前原町","zip_code":"1840013"},{"name":"緑町","zip_code":"1840003"}]},{"name":"小平市","divisions":[{"name":"大沼町","zip_code":"1870001"},{"name":"小川東町","zip_code":"1870031"},{"name":"小川西町","zip_code":"1870035"},{"name":"小川町","zip_code":"1870032"},{"name":"学園東町","zip_code":"1870043"},{"name":"学園西町","zip_code":"1870045"},{"name":"喜平町","zip_code":"1870044"},{"name":"栄町","zip_code":"1870034"},{"name":"上水新町","zip_code":"1870023"},{"name":"上水本町","zip_code":"1870022"},{"name":"上水南町","zip_code":"1870021"},{"name":"鈴木町","zip_code":"1870011"},{"name":"たかの台","zip_code":"1870024"},{"name":"津田町","zip_code":"1870025"},{"name":"天神町","zip_code":"1870004"},{"name":"中島町","zip_code":"1870033"},{"name":"仲町","zip_code":"1870042"},{"name":"花小金井","zip_code":"1870002"},{"name":"花小金井南町","zip_code":"1870003"},{"name":"美園町","zip_code":"1870041"},{"name":"御幸町","zip_code":"1870012"},{"name":"回田町","zip_code":"1870013"}]},{"name":"日野市","divisions":[{"name":"旭が丘","zip_code":"1910065"},{"name":"新井","zip_code":"1910022"},{"name":"石田","zip_code":"1910021"},{"name":"大坂上","zip_code":"1910061"},{"name":"落川","zip_code":"1910034"},{"name":"上田","zip_code":"1910014"},{"name":"川辺堀之内","zip_code":"1910015"},{"name":"栄町","zip_code":"1910001"},{"name":"さくら町","zip_code":"1910063"},{"name":"下田","zip_code":"1910023"},{"name":"新町","zip_code":"1910002"},{"name":"神明","zip_code":"1910016"},{"name":"高幡","zip_code":"1910031"},{"name":"多摩平","zip_code":"1910062"},{"name":"豊田","zip_code":"1910051"},{"name":"西平山","zip_code":"1910055"},{"name":"東豊田","zip_code":"1910052"},{"name":"東平山","zip_code":"1910054"},{"name":"日野","zip_code":"1910012"},{"name":"日野台","zip_code":"1910003"},{"name":"日野本町","zip_code":"1910011"},{"name":"平山","zip_code":"1910043"},{"name":"富士町","zip_code":"1910064"},{"name":"程久保","zip_code":"1910042"},{"name":"万願寺","zip_code":"1910024"},{"name":"三沢","zip_code":"1910032"},{"name":"南平","zip_code":"1910041"},{"name":"宮","zip_code":"1910013"},{"name":"百草","zip_code":"1910033"}]},{"name":"東村山市","divisions":[{"name":"青葉町","zip_code":"1890002"},{"name":"秋津町","zip_code":"1890001"},{"name":"恩多町","zip_code":"1890011"},{"name":"久米川町","zip_code":"1890003"},{"name":"栄町","zip_code":"1890013"},{"name":"諏訪町","zip_code":"1890021"},{"name":"多摩湖町","zip_code":"1890026"},{"name":"野口町","zip_code":"1890022"},{"name":"萩山町","zip_code":"1890012"},{"name":"富士見町","zip_code":"1890024"},{"name":"本町","zip_code":"1890014"},{"name":"美住町","zip_code":"1890023"},{"name":"廻田町","zip_code":"1890025"}]},{"name":"国分寺市","divisions":[{"name":"泉町","zip_code":"1850024"},{"name":"北町","zip_code":"1850001"},{"name":"新町","zip_code":"1850004"},{"name":"高木町","zip_code":"1850036"},{"name":"戸倉","zip_code":"1850003"},{"name":"内藤","zip_code":"1850033"},{"name":"並木町","zip_code":"1850005"},{"name":"西恋ケ窪","zip_code":"1850013"},{"name":"西町","zip_code":"1850035"},{"name":"西元町","zip_code":"1850023"},{"name":"光町","zip_code":"1850034"},{"name":"東恋ケ窪","zip_code":"1850014"},{"name":"東戸倉","zip_code":"1850002"},{"name":"東元町","zip_code":"1850022"},{"name":"日吉町","zip_code":"1850032"},{"name":"富士本","zip_code":"1850031"},{"name":"本多","zip_code":"1850011"},{"name":"本町","zip_code":"1850012"},{"name":"南町","zip_code":"1850021"}]},{"name":"国立市","divisions":[{"name":"青柳","zip_code":"1860013"},{"name":"石田","zip_code":"1860014"},{"name":"泉","zip_code":"1860012"},{"name":"北","zip_code":"1860001"},{"name":"中","zip_code":"1860004"},{"name":"西","zip_code":"1860005"},{"name":"東","zip_code":"1860002"},{"name":"富士見台","zip_code":"1860003"},{"name":"矢川","zip_code":"1860015"},{"name":"谷保","zip_code":"1860011"}]},{"name":"福生市","divisions":[{"name":"牛浜","zip_code":"1970024"},{"name":"加美平","zip_code":"1970012"},{"name":"北田園","zip_code":"1970005"},{"name":"熊川","zip_code":"1970003"},{"name":"熊川二宮","zip_code":"1970002"},{"name":"志茂","zip_code":"1970023"},{"name":"東町","zip_code":"1970021"},{"name":"福生","zip_code":"1970011"},{"name":"福生二宮","zip_code":"1970014"},{"name":"本町","zip_code":"1970022"},{"name":"南田園","zip_code":"1970004"},{"name":"武蔵野台","zip_code":"1970013"},{"name":"横田基地内","zip_code":"1970001"}]},{"name":"狛江市","divisions":[{"name":"和泉本町","zip_code":"2010003"},{"name":"猪方","zip_code":"2010015"},{"name":"岩戸南","zip_code":"2010005"},{"name":"岩戸北","zip_code":"2010004"},{"name":"駒井町","zip_code":"2010016"},{"name":"中和泉","zip_code":"2010012"},{"name":"西和泉","zip_code":"2010011"},{"name":"西野川","zip_code":"2010001"},{"name":"東和泉","zip_code":"2010014"},{"name":"東野川","zip_code":"2010002"},{"name":"元和泉","zip_code":"2010013"}]},{"name":"東大和市","divisions":[{"name":"芋窪","zip_code":"2070033"},{"name":"上北台","zip_code":"2070023"},{"name":"清原","zip_code":"2070011"},{"name":"湖畔","zip_code":"2070002"},{"name":"桜が丘","zip_code":"2070022"},{"name":"狭山","zip_code":"2070003"},{"name":"清水","zip_code":"2070004"},{"name":"新堀","zip_code":"2070012"},{"name":"蔵敷","zip_code":"2070032"},{"name":"高木","zip_code":"2070005"},{"name":"立野","zip_code":"2070021"},{"name":"多摩湖","zip_code":"2070001"},{"name":"中央","zip_code":"2070015"},{"name":"仲原","zip_code":"2070016"},{"name":"奈良橋","zip_code":"2070031"},{"name":"南街","zip_code":"2070014"},{"name":"向原","zip_code":"2070013"}]},{"name":"清瀬市","divisions":[{"name":"旭が丘","zip_code":"2040002"},{"name":"梅園","zip_code":"2040024"},{"name":"上清戸","zip_code":"2040013"},{"name":"下宿","zip_code":"2040001"},{"name":"下清戸","zip_code":"2040011"},{"name":"竹丘","zip_code":"2040023"},{"name":"中清戸","zip_code":"2040012"},{"name":"中里","zip_code":"2040003"},{"name":"野塩","zip_code":"2040004"},{"name":"松山","zip_code":"2040022"},{"name":"元町","zip_code":"2040021"}]},{"name":"東久留米市","divisions":[{"name":"上の原","zip_code":"2030001"},{"name":"学園町","zip_code":"2030021"},{"name":"金山町","zip_code":"2030003"},{"name":"小山","zip_code":"2030051"},{"name":"幸町","zip_code":"2030052"},{"name":"下里","zip_code":"2030043"},{"name":"新川町","zip_code":"2030013"},{"name":"神宝町","zip_code":"2030002"},{"name":"浅間町","zip_code":"2030012"},{"name":"大門町","zip_code":"2030011"},{"name":"滝山","zip_code":"2030033"},{"name":"中央町","zip_code":"2030054"},{"name":"野火止","zip_code":"2030041"},{"name":"八幡町","zip_code":"2030042"},{"name":"氷川台","zip_code":"2030004"},{"name":"東本町","zip_code":"2030014"},{"name":"ひばりが丘団地","zip_code":"2030022"},{"name":"本町","zip_code":"2030053"},{"name":"前沢","zip_code":"2030032"},{"name":"南沢","zip_code":"2030023"},{"name":"南町","zip_code":"2030031"},{"name":"柳窪","zip_code":"2030044"},{"name":"弥生","zip_code":"2030034"}]},{"name":"武蔵村山市","divisions":[{"name":"伊奈平","zip_code":"2080023"},{"name":"榎","zip_code":"2080022"},{"name":"大南","zip_code":"2080013"},{"name":"学園","zip_code":"2080011"},{"name":"岸","zip_code":"2080031"},{"name":"残堀","zip_code":"2080034"},{"name":"神明","zip_code":"2080002"},{"name":"中央","zip_code":"2080003"},{"name":"中藤","zip_code":"2080001"},{"name":"中原","zip_code":"2080035"},{"name":"本町","zip_code":"2080004"},{"name":"三ツ木","zip_code":"2080033"},{"name":"三ツ藤","zip_code":"2080021"},{"name":"緑が丘","zip_code":"2080012"}]},{"name":"多摩市","divisions":[{"name":"愛宕","zip_code":"2060041"},{"name":"一ノ宮","zip_code":"2060002"},{"name":"落合","zip_code":"2060033"},{"name":"落川","zip_code":"2060015"},{"name":"貝取","zip_code":"2060012"},{"name":"唐木田","zip_code":"2060035"},{"name":"乞田","zip_code":"2060014"},{"name":"桜ケ丘","zip_code":"2060013"},{"name":"山王下","zip_code":"2060042"},{"name":"諏訪","zip_code":"2060024"},{"name":"関戸","zip_code":"2060011"},{"name":"鶴牧","zip_code":"2060034"},{"name":"豊ケ丘","zip_code":"2060031"},{"name":"中沢","zip_code":"2060036"},{"name":"永山","zip_code":"2060025"},{"name":"東寺方","zip_code":"2060003"},{"name":"聖ケ丘","zip_code":"2060022"},{"name":"馬引沢","zip_code":"2060023"},{"name":"南野","zip_code":"2060032"},{"name":"百草","zip_code":"2060004"},{"name":"連光寺","zip_code":"2060021"},{"name":"和田","zip_code":"2060001"}]},{"name":"稲城市","divisions":[{"name":"大丸","zip_code":"2060801"},{"name":"押立","zip_code":"2060811"},{"name":"向陽台","zip_code":"2060803"},{"name":"坂浜","zip_code":"2060822"},{"name":"長峰","zip_code":"2060821"},{"name":"東長沼","zip_code":"2060802"},{"name":"平尾","zip_code":"2060823"},{"name":"百村","zip_code":"2060804"},{"name":"矢野口","zip_code":"2060812"},{"name":"若葉台","zip_code":"2060824"}]},{"name":"羽村市","divisions":[{"name":"小作台","zip_code":"2050001"},{"name":"川崎","zip_code":"2050021"},{"name":"五ノ神","zip_code":"2050011"},{"name":"栄町","zip_code":"2050002"},{"name":"神明台","zip_code":"2050023"},{"name":"玉川","zip_code":"2050024"},{"name":"羽","zip_code":"2050012"},{"name":"羽加美","zip_code":"2050016"},{"name":"羽中","zip_code":"2050015"},{"name":"羽東","zip_code":"2050014"},{"name":"羽西","zip_code":"2050017"},{"name":"富士見平","zip_code":"2050013"},{"name":"双葉町","zip_code":"2050022"},{"name":"緑ケ丘","zip_code":"2050003"}]},{"name":"あきる野市","divisions":[{"name":"秋川","zip_code":"1970804"},{"name":"秋留","zip_code":"1970828"},{"name":"網代","zip_code":"1900155"},{"name":"油平","zip_code":"1970827"},{"name":"雨間","zip_code":"1970825"},{"name":"五日市","zip_code":"1900164"},{"name":"伊奈","zip_code":"1900142"},{"name":"入野","zip_code":"1900161"},{"name":"上ノ台","zip_code":"1900143"},{"name":"牛沼","zip_code":"1970826"},{"name":"小川","zip_code":"1970821"},{"name":"小川東","zip_code":"1970822"},{"name":"乙津","zip_code":"1900174"},{"name":"上代継","zip_code":"1970832"},{"name":"切欠","zip_code":"1970824"},{"name":"草花","zip_code":"1970802"},{"name":"小中野","zip_code":"1900165"},{"name":"小峰台","zip_code":"1900153"},{"name":"小和田","zip_code":"1900151"},{"name":"三内","zip_code":"1900162"},{"name":"下代継","zip_code":"1970831"},{"name":"菅生","zip_code":"1970801"},{"name":"瀬戸岡","zip_code":"1970803"},{"name":"高尾","zip_code":"1900154"},{"name":"舘谷","zip_code":"1900163"},{"name":"舘谷台","zip_code":"1900166"},{"name":"戸倉","zip_code":"1900173"},{"name":"留原","zip_code":"1900152"},{"name":"二宮","zip_code":"1970814"},{"name":"二宮東","zip_code":"1970815"},{"name":"野辺","zip_code":"1970823"},{"name":"原小宮","zip_code":"1970811"},{"name":"引田","zip_code":"1970834"},{"name":"平沢","zip_code":"1970812"},{"name":"平沢西","zip_code":"1970816"},{"name":"平沢東","zip_code":"1970813"},{"name":"深沢","zip_code":"1900172"},{"name":"渕上","zip_code":"1970833"},{"name":"山田","zip_code":"1900144"},{"name":"養沢","zip_code":"1900171"},{"name":"横沢","zip_code":"1900141"}]},{"name":"西東京市","divisions":[{"name":"泉町","zip_code":"2020011"},{"name":"北原町","zip_code":"1880003"},{"name":"北町","zip_code":"2020003"},{"name":"栄町","zip_code":"2020006"},{"name":"芝久保町","zip_code":"1880014"},{"name":"下保谷","zip_code":"2020004"},{"name":"新町","zip_code":"2020023"},{"name":"住吉町","zip_code":"2020005"},{"name":"田無町","zip_code":"1880011"},{"name":"中町","zip_code":"2020013"},{"name":"西原町","zip_code":"1880004"},{"name":"東町","zip_code":"2020012"},{"name":"東伏見","zip_code":"2020021"},{"name":"ひばりが丘","zip_code":"2020001"},{"name":"ひばりが丘北","zip_code":"2020002"},{"name":"富士町","zip_code":"2020014"},{"name":"保谷町","zip_code":"2020015"},{"name":"緑町","zip_code":"1880002"},{"name":"南町","zip_code":"1880012"},{"name":"向台町","zip_code":"1880013"},{"name":"柳沢","zip_code":"2020022"},{"name":"谷戸町","zip_code":"1880001"}]},{"name":"西多摩郡瑞穂町","divisions":[{"name":"石畑","zip_code":"1901211"},{"name":"駒形富士山","zip_code":"1901202"},{"name":"高根","zip_code":"1901203"},{"name":"殿ケ谷","zip_code":"1901212"},{"name":"長岡","zip_code":"1901232"},{"name":"長岡下師岡","zip_code":"1901233"},{"name":"長岡長谷部","zip_code":"1901231"},{"name":"長岡藤橋","zip_code":"1901234"},{"name":"二本木","zip_code":"1901201"},{"name":"箱根ケ崎","zip_code":"1901221"},{"name":"箱根ケ崎東松原","zip_code":"1901222"},{"name":"箱根ケ崎西松原","zip_code":"1901223"},{"name":"富士山栗原新田","zip_code":"1901204"},{"name":"南平","zip_code":"1901224"},{"name":"武蔵","zip_code":"1901213"},{"name":"むさし野","zip_code":"1901214"}]},{"name":"西多摩郡日の出町","divisions":[{"name":"大久野","zip_code":"1900181"},{"name":"平井","zip_code":"1900182"}]},{"name":"西多摩郡檜原村","divisions":[{"name":"小沢","zip_code":"1900204"},{"name":"数馬","zip_code":"1900221"},{"name":"神戸","zip_code":"1900203"},{"name":"上元郷","zip_code":"1900212"},{"name":"倉掛","zip_code":"1900201"},{"name":"下元郷","zip_code":"1900213"},{"name":"南郷","zip_code":"1900223"},{"name":"樋里","zip_code":"1900205"},{"name":"藤原","zip_code":"1900202"},{"name":"人里","zip_code":"1900222"},{"name":"三都郷","zip_code":"1900211"},{"name":"本宿","zip_code":"1900214"}]},{"name":"西多摩郡奥多摩町","divisions":[{"name":"海沢","zip_code":"1980213"},{"name":"梅沢","zip_code":"1980103"},{"name":"大丹波","zip_code":"1980101"},{"name":"川井","zip_code":"1980102"},{"name":"川野","zip_code":"1980225"},{"name":"河内","zip_code":"1980224"},{"name":"小丹波","zip_code":"1980105"},{"name":"境","zip_code":"1980222"},{"name":"白丸","zip_code":"1980107"},{"name":"棚沢","zip_code":"1980106"},{"name":"丹三郎","zip_code":"1980104"},{"name":"留浦","zip_code":"1980221"},{"name":"日原","zip_code":"1980211"},{"name":"原","zip_code":"1980223"},{"name":"氷川","zip_code":"1980212"}]},{"name":"大島町","divisions":[{"name":"岡田","zip_code":"1000102"},{"name":"差木地","zip_code":"1000211"},{"name":"泉津","zip_code":"1000103"},{"name":"野増","zip_code":"1000104"},{"name":"波浮港","zip_code":"1000212"},{"name":"元町","zip_code":"1000101"}]},{"name":"利島村","divisions":[]},{"name":"新島村","divisions":[{"name":"式根島","zip_code":"1000511"},{"name":"本村","zip_code":"1000402"},{"name":"若郷","zip_code":"1000401"}]},{"name":"神津島村","divisions":[]},{"name":"三宅島三宅村","divisions":[{"name":"阿古","zip_code":"1001212"},{"name":"伊ケ谷","zip_code":"1001103"},{"name":"伊豆","zip_code":"1001102"},{"name":"雄山","zip_code":"1001213"},{"name":"神着","zip_code":"1001101"},{"name":"坪田","zip_code":"1001211"}]},{"name":"御蔵島村","divisions":[]},{"name":"八丈島八丈町","divisions":[{"name":"大賀郷","zip_code":"1001401"},{"name":"樫立","zip_code":"1001621"},{"name":"末吉","zip_code":"1001622"},{"name":"中之郷","zip_code":"1001623"},{"name":"三根","zip_code":"1001511"}]},{"name":"青ヶ島村","divisions":[]},{"name":"小笠原村","divisions":[{"name":"父島","zip_code":"1002101"},{"name":"母島","zip_code":"1002211"}]}]}