{"name":"神奈川県","cities":[{"name":"横浜市鶴見区","divisions":[{"name":"朝日町","zip_code":"2300033"},{"name":"安善町","zip_code":"2300035"},{"name":"市場上町","zip_code":"2300021"},{"name":"市場下町","zip_code":"2300024"},{"name":"市場東中町","zip_code":"2300022"},{"name":"市場西中町","zip_code":"2300023"},{"name":"市場富士見町","zip_code":"2300026"},{"name":"市場大和町","zip_code":"2300025"},{"name":"潮田町","zip_code":"2300041"},{"name":"江ケ崎町","zip_code":"2300002"},{"name":"扇島","zip_code":"2300055"},{"name":"小野町","zip_code":"2300046"},{"name":"梶山","zip_code":"2300072"},{"name":"上末吉","zip_code":"2300011"},{"name":"上の宮","zip_code":"2300075"},{"name":"寛政町","zip_code":"2300034"},{"name":"岸谷","zip_code":"2300078"},{"name":"北寺尾","zip_code":"2300074"},{"name":"駒岡","zip_code":"2300071"},{"name":"栄町通","zip_code":"2300038"},{"name":"汐入町","zip_code":"2300043"},{"name":"獅子ケ谷","zip_code":"2300073"},{"name":"下野谷町","zip_code":"2300047"},{"name":"尻手","zip_code":"2300003"},{"name":"下末吉","zip_code":"2300012"},{"name":"末広町","zip_code":"2300045"},{"name":"菅沢町","zip_code":"2300027"},{"name":"諏訪坂","zip_code":"2300014"},{"name":"大黒町","zip_code":"2300053"},{"name":"大黒ふ頭","zip_code":"2300054"},{"name":"大東町","zip_code":"2300032"},{"name":"佃野町","zip_code":"2300061"},{"name":"鶴見","zip_code":"2300063"},{"name":"鶴見中央","zip_code":"2300051"},{"name":"寺谷","zip_code":"2300015"},{"name":"豊岡町","zip_code":"2300062"},{"name":"仲通","zip_code":"2300042"},{"name":"生麦","zip_code":"2300052"},{"name":"馬場","zip_code":"2300076"},{"name":"浜町","zip_code":"2300036"},{"name":"東寺尾","zip_code":"2300077"},{"name":"東寺尾中台","zip_code":"2300017"},{"name":"東寺尾東台","zip_code":"2300018"},{"name":"東寺尾北台","zip_code":"2300016"},{"name":"平安町","zip_code":"2300031"},{"name":"弁天町","zip_code":"2300044"},{"name":"本町通","zip_code":"2300048"},{"name":"三ツ池公園","zip_code":"2300013"},{"name":"向井町","zip_code":"2300037"},{"name":"元宮","zip_code":"2300004"},{"name":"矢向","zip_code":"2300001"}]},{"name":"横浜市神奈川区","divisions":[{"name":"青木町","zip_code":"2210057"},{"name":"旭ケ丘","zip_code":"2210814"},{"name":"出田町","zip_code":"2210032"},{"name":"泉町","zip_code":"2210842"},{"name":"入江","zip_code":"2210014"},{"name":"浦島丘","zip_code":"2210062"},{"name":"浦島町","zip_code":"2210042"},{"name":"恵比須町","zip_code":"2210024"},{"name":"大口通","zip_code":"2210002"},{"name":"大口仲町","zip_code":"2210003"},{"name":"大野町","zip_code":"2210055"},{"name":"片倉","zip_code":"2210865"},{"name":"神奈川","zip_code":"2210045"},{"name":"神奈川本町","zip_code":"2210046"},{"name":"上反町","zip_code":"2210831"},{"name":"神之木台","zip_code":"2210011"},{"name":"神之木町","zip_code":"2210015"},{"name":"亀住町","zip_code":"2210041"},{"name":"神大寺","zip_code":"2210801"},{"name":"桐畑","zip_code":"2210832"},{"name":"金港町","zip_code":"2210056"},{"name":"栗田谷","zip_code":"2210804"},{"name":"幸ケ谷","zip_code":"2210051"},{"name":"子安台","zip_code":"2210012"},{"name":"子安通","zip_code":"2210021"},{"name":"斎藤分町","zip_code":"2210811"},{"name":"栄町","zip_code":"2210052"},{"name":"沢渡","zip_code":"2210844"},{"name":"三枚町","zip_code":"2210862"},{"name":"白幡上町","zip_code":"2210075"},{"name":"白幡仲町","zip_code":"2210071"},{"name":"白幡東町","zip_code":"2210072"},{"name":"白幡西町","zip_code":"2210074"},{"name":"白幡南町","zip_code":"2210073"},{"name":"白幡向町","zip_code":"2210077"},{"name":"白幡町","zip_code":"2210076"},{"name":"新浦島町","zip_code":"2210031"},{"name":"新子安","zip_code":"2210013"},{"name":"新町","zip_code":"2210043"},{"name":"菅田町","zip_code":"2210864"},{"name":"鈴繁町","zip_code":"2210033"},{"name":"台町","zip_code":"2210834"},{"name":"高島台","zip_code":"2210833"},{"name":"宝町","zip_code":"2210023"},{"name":"立町","zip_code":"2210063"},{"name":"反町","zip_code":"2210825"},{"name":"千若町","zip_code":"2210036"},{"name":"鶴屋町","zip_code":"2210835"},{"name":"富家町","zip_code":"2210821"},{"name":"鳥越","zip_code":"2210064"},{"name":"中丸","zip_code":"2210803"},{"name":"七島町","zip_code":"2210061"},{"name":"西大口","zip_code":"2210004"},{"name":"西神奈川","zip_code":"2210822"},{"name":"西寺尾","zip_code":"2210001"},{"name":"二本榎","zip_code":"2210813"},{"name":"白楽","zip_code":"2210065"},{"name":"羽沢町","zip_code":"2210863"},{"name":"羽沢南","zip_code":"2210866"},{"name":"橋本町","zip_code":"2210053"},{"name":"東神奈川","zip_code":"2210044"},{"name":"平川町","zip_code":"2210812"},{"name":"広台太田町","zip_code":"2210824"},{"name":"二ツ谷町","zip_code":"2210823"},{"name":"星野町","zip_code":"2210035"},{"name":"松ケ丘","zip_code":"2210843"},{"name":"松見町","zip_code":"2210005"},{"name":"松本町","zip_code":"2210841"},{"name":"瑞穂町","zip_code":"2210034"},{"name":"三ツ沢上町","zip_code":"2210856"},{"name":"三ツ沢中町","zip_code":"2210851"},{"name":"三ツ沢下町","zip_code":"2210852"},{"name":"三ツ沢東町","zip_code":"2210853"},{"name":"三ツ沢西町","zip_code":"2210855"},{"name":"三ツ沢南町","zip_code":"2210854"},{"name":"守屋町","zip_code":"2210022"},{"name":"山内町","zip_code":"2210054"},{"name":"六角橋","zip_code":"2210802"}]},{"name":"横浜市西区","divisions":[{"name":"赤門町","zip_code":"2200034"},{"name":"東ケ丘","zip_code":"2200033"},{"name":"伊勢町","zip_code":"2200045"},{"name":"老松町","zip_code":"2200032"},{"name":"岡野","zip_code":"2200073"},{"name":"霞ケ丘","zip_code":"2200035"},{"name":"北軽井沢","zip_code":"2200001"},{"name":"北幸","zip_code":"2200004"},{"name":"楠町","zip_code":"2200003"},{"name":"久保町","zip_code":"2200061"},{"name":"御所山町","zip_code":"2200043"},{"name":"境之谷","zip_code":"2200054"},{"name":"桜木町","zip_code":"2200021"},{"name":"浅間台","zip_code":"2200071"},{"name":"浅間町","zip_code":"2200072"},{"name":"高島","zip_code":"2200011"},{"name":"中央","zip_code":"2200051"},{"name":"戸部町","zip_code":"2200042"},{"name":"戸部本町","zip_code":"2200041"},{"name":"西戸部町","zip_code":"2200046"},{"name":"西平沼町","zip_code":"2200024"},{"name":"西前町","zip_code":"2200052"},{"name":"花咲町","zip_code":"2200022"},{"name":"浜松町","zip_code":"2200055"},{"name":"東久保町","zip_code":"2200062"},{"name":"平沼","zip_code":"2200023"},{"name":"藤棚町","zip_code":"2200053"},{"name":"緑町","zip_code":"2200013"},{"name":"みなとみらい","zip_code":"2200012"},{"name":"南軽井沢","zip_code":"2200002"},{"name":"南幸","zip_code":"2200005"},{"name":"南浅間町","zip_code":"2200074"},{"name":"宮ケ谷","zip_code":"2200006"},{"name":"宮崎町","zip_code":"2200031"},{"name":"元久保町","zip_code":"2200063"},{"name":"紅葉ケ丘","zip_code":"2200044"}]},{"name":"横浜市中区","divisions":[{"name":"相生町","zip_code":"2310012"},{"name":"赤門町","zip_code":"2310051"},{"name":"曙町","zip_code":"2310057"},{"name":"池袋","zip_code":"2310834"},{"name":"石川町","zip_code":"2310868"},{"name":"伊勢佐木町","zip_code":"2310045"},{"name":"上野町","zip_code":"2310842"},{"name":"打越","zip_code":"2310867"},{"name":"内田町","zip_code":"2310061"},{"name":"扇町","zip_code":"2310027"},{"name":"大芝台","zip_code":"2310858"},{"name":"太田町","zip_code":"2310011"},{"name":"大平町","zip_code":"2310859"},{"name":"翁町","zip_code":"2310028"},{"name":"尾上町","zip_code":"2310015"},{"name":"海岸通","zip_code":"2310002"},{"name":"柏葉","zip_code":"2310866"},{"name":"かもめ町","zip_code":"2310813"},{"name":"北方町","zip_code":"2310865"},{"name":"北仲通","zip_code":"2310003"},{"name":"黄金町","zip_code":"2310054"},{"name":"寿町","zip_code":"2310026"},{"name":"小港町","zip_code":"2310802"},{"name":"鷺山","zip_code":"2310848"},{"name":"桜木町","zip_code":"2310062"},{"name":"新港","zip_code":"2310001"},{"name":"新山下","zip_code":"2310801"},{"name":"末広町","zip_code":"2310046"},{"name":"末吉町","zip_code":"2310055"},{"name":"住吉町","zip_code":"2310013"},{"name":"諏訪町","zip_code":"2310863"},{"name":"滝之上","zip_code":"2310837"},{"name":"竹之丸","zip_code":"2310847"},{"name":"立野","zip_code":"2310845"},{"name":"千歳町","zip_code":"2310035"},{"name":"千鳥町","zip_code":"2310815"},{"name":"長者町","zip_code":"2310033"},{"name":"千代崎町","zip_code":"2310864"},{"name":"塚越","zip_code":"2310857"},{"name":"寺久保","zip_code":"2310855"},{"name":"常盤町","zip_code":"2310014"},{"name":"豊浦町","zip_code":"2310814"},{"name":"仲尾台","zip_code":"2310839"},{"name":"錦町","zip_code":"2310812"},{"name":"西竹之丸","zip_code":"2310852"},{"name":"西之谷町","zip_code":"2310844"},{"name":"日本大通","zip_code":"2310021"},{"name":"根岸旭台","zip_code":"2310854"},{"name":"根岸加曽台","zip_code":"2310835"},{"name":"根岸台","zip_code":"2310853"},{"name":"根岸町","zip_code":"2310836"},{"name":"野毛町","zip_code":"2310064"},{"name":"羽衣町","zip_code":"2310047"},{"name":"初音町","zip_code":"2310053"},{"name":"花咲町","zip_code":"2310063"},{"name":"英町","zip_code":"2310052"},{"name":"万代町","zip_code":"2310031"},{"name":"日ノ出町","zip_code":"2310066"},{"name":"福富町仲通","zip_code":"2310043"},{"name":"福富町東通","zip_code":"2310044"},{"name":"福富町西通","zip_code":"2310042"},{"name":"富士見町","zip_code":"2310037"},{"name":"不老町","zip_code":"2310032"},{"name":"弁天通","zip_code":"2310007"},{"name":"蓬莱町","zip_code":"2310048"},{"name":"本郷町","zip_code":"2310843"},{"name":"本町","zip_code":"2310005"},{"name":"本牧荒井","zip_code":"2310826"},{"name":"本牧大里町","zip_code":"2310823"},{"name":"本牧三之谷","zip_code":"2310824"},{"name":"本牧十二天","zip_code":"2310803"},{"name":"本牧原","zip_code":"2310821"},{"name":"本牧ふ頭","zip_code":"2310811"},{"name":"本牧間門","zip_code":"2310825"},{"name":"本牧満坂","zip_code":"2310833"},{"name":"本牧緑ケ丘","zip_code":"2310832"},{"name":"本牧宮原","zip_code":"2310804"},{"name":"本牧元町","zip_code":"2310822"},{"name":"本牧和田","zip_code":"2310827"},{"name":"本牧町","zip_code":"2310806"},{"name":"真砂町","zip_code":"2310016"},{"name":"松影町","zip_code":"2310025"},{"name":"豆口台","zip_code":"2310838"},{"name":"港町","zip_code":"2310017"},{"name":"南仲通","zip_code":"2310006"},{"name":"南本牧","zip_code":"2310816"},{"name":"簑沢","zip_code":"2310856"},{"name":"宮川町","zip_code":"2310065"},{"name":"妙香寺台","zip_code":"2310841"},{"name":"三吉町","zip_code":"2310034"},{"name":"麦田町","zip_code":"2310849"},{"name":"元浜町","zip_code":"2310004"},{"name":"元町","zip_code":"2310861"},{"name":"矢口台","zip_code":"2310831"},{"name":"山下町","zip_code":"2310023"},{"name":"山田町","zip_code":"2310036"},{"name":"山手町","zip_code":"2310862"},{"name":"大和町","zip_code":"2310846"},{"name":"山吹町","zip_code":"2310038"},{"name":"山元町","zip_code":"2310851"},{"name":"弥生町","zip_code":"2310058"},{"name":"横浜公園","zip_code":"2310022"},{"name":"吉田町","zip_code":"2310041"},{"name":"吉浜町","zip_code":"2310024"},{"name":"若葉町","zip_code":"2310056"},{"name":"和田山","zip_code":"2310805"}]},{"name":"横浜市南区","divisions":[{"name":"井土ケ谷上町","zip_code":"2320051"},{"name":"井土ケ谷中町","zip_code":"2320052"},{"name":"井土ケ谷下町","zip_code":"2320053"},{"name":"浦舟町","zip_code":"2320024"},{"name":"永楽町","zip_code":"2320031"},{"name":"榎町","zip_code":"2320044"},{"name":"大岡","zip_code":"2320061"},{"name":"大橋町","zip_code":"2320054"},{"name":"庚台","zip_code":"2320008"},{"name":"唐沢","zip_code":"2320034"},{"name":"共進町","zip_code":"2320015"},{"name":"弘明寺町","zip_code":"2320067"},{"name":"山王町","zip_code":"2320013"},{"name":"山谷","zip_code":"2320036"},{"name":"清水ケ丘","zip_code":"2320007"},{"name":"宿町","zip_code":"2320017"},{"name":"白金町","zip_code":"2320005"},{"name":"白妙町","zip_code":"2320023"},{"name":"新川町","zip_code":"2320027"},{"name":"高砂町","zip_code":"2320025"},{"name":"高根町","zip_code":"2320022"},{"name":"通町","zip_code":"2320056"},{"name":"中里","zip_code":"2320063"},{"name":"中里町","zip_code":"2320062"},{"name":"中島町","zip_code":"2320055"},{"name":"中村町","zip_code":"2320033"},{"name":"永田山王台","zip_code":"2320074"},{"name":"永田台","zip_code":"2320076"},{"name":"永田みなみ台","zip_code":"2320075"},{"name":"永田東","zip_code":"2320072"},{"name":"永田南","zip_code":"2320073"},{"name":"永田北","zip_code":"2320071"},{"name":"西中町","zip_code":"2320003"},{"name":"八幡町","zip_code":"2320037"},{"name":"花之木町","zip_code":"2320018"},{"name":"日枝町","zip_code":"2320011"},{"name":"東蒔田町","zip_code":"2320045"},{"name":"伏見町","zip_code":"2320001"},{"name":"二葉町","zip_code":"2320026"},{"name":"平楽","zip_code":"2320035"},{"name":"別所","zip_code":"2320064"},{"name":"別所中里台","zip_code":"2320065"},{"name":"堀ノ内町","zip_code":"2320042"},{"name":"蒔田町","zip_code":"2320043"},{"name":"前里町","zip_code":"2320004"},{"name":"真金町","zip_code":"2320021"},{"name":"万世町","zip_code":"2320032"},{"name":"南太田","zip_code":"2320006"},{"name":"南吉田町","zip_code":"2320012"},{"name":"三春台","zip_code":"2320002"},{"name":"宮元町","zip_code":"2320016"},{"name":"六ツ川","zip_code":"2320066"},{"name":"睦町","zip_code":"2320041"},{"name":"吉野町","zip_code":"2320014"},{"name":"若宮町","zip_code":"2320057"}]},{"name":"横浜市保土ケ谷区","divisions":[{"name":"新井町","zip_code":"2400053"},{"name":"今井町","zip_code":"2400035"},{"name":"岩井町","zip_code":"2400023"},{"name":"岩崎町","zip_code":"2400015"},{"name":"岩間町","zip_code":"2400004"},{"name":"岡沢町","zip_code":"2400062"},{"name":"霞台","zip_code":"2400014"},{"name":"帷子町","zip_code":"2400013"},{"name":"釜台町","zip_code":"2400066"},{"name":"鎌谷町","zip_code":"2400063"},{"name":"上菅田町","zip_code":"2400051"},{"name":"上星川","zip_code":"2400042"},{"name":"狩場町","zip_code":"2400025"},{"name":"川島町","zip_code":"2400045"},{"name":"川辺町","zip_code":"2400001"},{"name":"神戸町","zip_code":"2400005"},{"name":"権太坂","zip_code":"2400026"},{"name":"境木町","zip_code":"2400034"},{"name":"境木本町","zip_code":"2400033"},{"name":"坂本町","zip_code":"2400043"},{"name":"桜ケ丘","zip_code":"2400011"},{"name":"新桜ケ丘","zip_code":"2400036"},{"name":"瀬戸ケ谷町","zip_code":"2400024"},{"name":"月見台","zip_code":"2400012"},{"name":"天王町","zip_code":"2400003"},{"name":"常盤台","zip_code":"2400067"},{"name":"西久保町","zip_code":"2400022"},{"name":"西谷町","zip_code":"2400052"},{"name":"初音ケ丘","zip_code":"2400016"},{"name":"花見台","zip_code":"2400017"},{"name":"東川島町","zip_code":"2400041"},{"name":"藤塚町","zip_code":"2400031"},{"name":"仏向町","zip_code":"2400044"},{"name":"仏向西","zip_code":"2400046"},{"name":"法泉","zip_code":"2400032"},{"name":"星川","zip_code":"2400006"},{"name":"保土ケ谷町","zip_code":"2400021"},{"name":"峰岡町","zip_code":"2400064"},{"name":"峰沢町","zip_code":"2400061"},{"name":"宮田町","zip_code":"2400002"},{"name":"明神台","zip_code":"2400007"},{"name":"和田","zip_code":"2400065"}]},{"name":"横浜市磯子区","divisions":[{"name":"磯子","zip_code":"2350016"},{"name":"磯子台","zip_code":"2350019"},{"name":"鳳町","zip_code":"2350006"},{"name":"岡村","zip_code":"2350021"},{"name":"上町","zip_code":"2350001"},{"name":"上中里町","zip_code":"2350042"},{"name":"栗木","zip_code":"2350041"},{"name":"坂下町","zip_code":"2350003"},{"name":"汐見台","zip_code":"2350022"},{"name":"下町","zip_code":"2350004"},{"name":"新磯子町","zip_code":"2350017"},{"name":"新杉田町","zip_code":"2350032"},{"name":"新中原町","zip_code":"2350031"},{"name":"新森町","zip_code":"2350018"},{"name":"杉田","zip_code":"2350033"},{"name":"杉田坪呑","zip_code":"2350034"},{"name":"滝頭","zip_code":"2350012"},{"name":"田中","zip_code":"2350035"},{"name":"中浜町","zip_code":"2350014"},{"name":"中原","zip_code":"2350036"},{"name":"西町","zip_code":"2350007"},{"name":"馬場町","zip_code":"2350002"},{"name":"原町","zip_code":"2350008"},{"name":"東町","zip_code":"2350005"},{"name":"久木町","zip_code":"2350015"},{"name":"氷取沢町","zip_code":"2350043"},{"name":"広地町","zip_code":"2350013"},{"name":"丸山","zip_code":"2350011"},{"name":"峰町","zip_code":"2350044"},{"name":"森","zip_code":"2350023"},{"name":"森が丘","zip_code":"2350024"},{"name":"洋光台","zip_code":"2350045"}]},{"name":"横浜市金沢区","divisions":[{"name":"朝比奈町","zip_code":"2360034"},{"name":"海の公園","zip_code":"2360013"},{"name":"大川","zip_code":"2360043"},{"name":"乙舳町","zip_code":"2360024"},{"name":"片吹","zip_code":"2360055"},{"name":"金沢町","zip_code":"2360015"},{"name":"釜利谷町","zip_code":"2360041"},{"name":"釜利谷東","zip_code":"2360042"},{"name":"釜利谷西","zip_code":"2360046"},{"name":"釜利谷南","zip_code":"2360045"},{"name":"幸浦","zip_code":"2360003"},{"name":"柴町","zip_code":"2360012"},{"name":"昭和町","zip_code":"2360001"},{"name":"白帆","zip_code":"2360007"},{"name":"洲崎町","zip_code":"2360028"},{"name":"瀬戸","zip_code":"2360027"},{"name":"大道","zip_code":"2360035"},{"name":"高舟台","zip_code":"2360044"},{"name":"泥亀","zip_code":"2360021"},{"name":"寺前","zip_code":"2360014"},{"name":"富岡東","zip_code":"2360051"},{"name":"富岡西","zip_code":"2360052"},{"name":"鳥浜町","zip_code":"2360002"},{"name":"長浜","zip_code":"2360011"},{"name":"並木","zip_code":"2360005"},{"name":"西柴","zip_code":"2360017"},{"name":"能見台","zip_code":"2360057"},{"name":"能見台通","zip_code":"2360053"},{"name":"能見台東","zip_code":"2360058"},{"name":"能見台森","zip_code":"2360056"},{"name":"野島町","zip_code":"2360025"},{"name":"八景島","zip_code":"2360006"},{"name":"東朝比奈","zip_code":"2360033"},{"name":"平潟町","zip_code":"2360023"},{"name":"福浦","zip_code":"2360004"},{"name":"堀口","zip_code":"2360054"},{"name":"町屋町","zip_code":"2360022"},{"name":"みず木町","zip_code":"2360036"},{"name":"六浦","zip_code":"2360031"},{"name":"六浦町","zip_code":"2360032"},{"name":"六浦東","zip_code":"2360037"},{"name":"六浦南","zip_code":"2360038"},{"name":"谷津町","zip_code":"2360016"},{"name":"柳町","zip_code":"2360026"}]},{"name":"横浜市港北区","divisions":[{"name":"大倉山","zip_code":"2220037"},{"name":"大曽根","zip_code":"2220003"},{"name":"大曽根台","zip_code":"2220004"},{"name":"菊名","zip_code":"2220011"},{"name":"岸根町","zip_code":"2220034"},{"name":"北新横浜","zip_code":"2230059"},{"name":"小机町","zip_code":"2220036"},{"name":"篠原台町","zip_code":"2220024"},{"name":"篠原町","zip_code":"2220026"},{"name":"篠原西町","zip_code":"2220025"},{"name":"篠原東","zip_code":"2220022"},{"name":"篠原北","zip_code":"2220021"},{"name":"下田町","zip_code":"2230064"},{"name":"新横浜","zip_code":"2220033"},{"name":"新吉田町","zip_code":"2230056"},{"name":"新吉田東","zip_code":"2230058"},{"name":"高田町","zip_code":"2230063"},{"name":"高田西","zip_code":"2230066"},{"name":"高田東","zip_code":"2230065"},{"name":"樽町","zip_code":"2220001"},{"name":"綱島上町","zip_code":"2230055"},{"name":"綱島台","zip_code":"2230054"},{"name":"綱島東","zip_code":"2230052"},{"name":"綱島西","zip_code":"2230053"},{"name":"鳥山町","zip_code":"2220035"},{"name":"仲手原","zip_code":"2220023"},{"name":"錦が丘","zip_code":"2220013"},{"name":"新羽町","zip_code":"2230057"},{"name":"日吉","zip_code":"2230061"},{"name":"日吉本町","zip_code":"2230062"},{"name":"富士塚","zip_code":"2220012"},{"name":"大豆戸町","zip_code":"2220032"},{"name":"箕輪町","zip_code":"2230051"},{"name":"師岡町","zip_code":"2220002"}]},{"name":"横浜市戸塚区","divisions":[{"name":"秋葉町","zip_code":"2450052"},{"name":"影取町","zip_code":"2450064"},{"name":"柏尾町","zip_code":"2440812"},{"name":"上柏尾町","zip_code":"2440811"},{"name":"上倉田町","zip_code":"2440816"},{"name":"上品濃","zip_code":"2440806"},{"name":"上矢部町","zip_code":"2450053"},{"name":"川上町","zip_code":"2440805"},{"name":"汲沢","zip_code":"2450061"},{"name":"汲沢町","zip_code":"2450062"},{"name":"小雀町","zip_code":"2440004"},{"name":"品濃町","zip_code":"2440801"},{"name":"下倉田町","zip_code":"2440815"},{"name":"戸塚町","zip_code":"2440003"},{"name":"鳥が丘","zip_code":"2440001"},{"name":"名瀬町","zip_code":"2450051"},{"name":"原宿","zip_code":"2450063"},{"name":"東俣野町","zip_code":"2450065"},{"name":"平戸","zip_code":"2440802"},{"name":"平戸町","zip_code":"2440803"},{"name":"深谷町","zip_code":"2450067"},{"name":"舞岡町","zip_code":"2440813"},{"name":"前田町","zip_code":"2440804"},{"name":"俣野町","zip_code":"2450066"},{"name":"南舞岡","zip_code":"2440814"},{"name":"矢部町","zip_code":"2440002"},{"name":"吉田町","zip_code":"2440817"}]},{"name":"横浜市港南区","divisions":[{"name":"大久保","zip_code":"2330007"},{"name":"上大岡東","zip_code":"2330001"},{"name":"上大岡西","zip_code":"2330002"},{"name":"上永谷","zip_code":"2330012"},{"name":"上永谷町","zip_code":"2330014"},{"name":"港南","zip_code":"2330003"},{"name":"港南台","zip_code":"2340054"},{"name":"港南中央通","zip_code":"2330004"},{"name":"最戸","zip_code":"2330008"},{"name":"笹下","zip_code":"2340052"},{"name":"下永谷","zip_code":"2330016"},{"name":"芹が谷","zip_code":"2330006"},{"name":"野庭町","zip_code":"2340056"},{"name":"東芹が谷","zip_code":"2330005"},{"name":"東永谷","zip_code":"2330011"},{"name":"日限山","zip_code":"2330015"},{"name":"日野","zip_code":"2340051"},{"name":"日野中央","zip_code":"2340053"},{"name":"日野南","zip_code":"2340055"},{"name":"丸山台","zip_code":"2330013"}]},{"name":"横浜市旭区","divisions":[{"name":"市沢町","zip_code":"2410014"},{"name":"今川町","zip_code":"2410033"},{"name":"今宿","zip_code":"2410817"},{"name":"今宿東町","zip_code":"2410032"},{"name":"今宿西町","zip_code":"2410031"},{"name":"今宿南町","zip_code":"2410034"},{"name":"今宿町","zip_code":"2410813"},{"name":"大池町","zip_code":"2410834"},{"name":"小高町","zip_code":"2410015"},{"name":"柏町","zip_code":"2410835"},{"name":"金が谷","zip_code":"2410812"},{"name":"上川井町","zip_code":"2410802"},{"name":"上白根","zip_code":"2410002"},{"name":"上白根町","zip_code":"2410001"},{"name":"川井宿町","zip_code":"2410804"},{"name":"川井本町","zip_code":"2410803"},{"name":"川島町","zip_code":"2410011"},{"name":"桐が作","zip_code":"2410832"},{"name":"左近山","zip_code":"2410831"},{"name":"笹野台","zip_code":"2410816"},{"name":"さちが丘","zip_code":"2410822"},{"name":"三反田町","zip_code":"2410013"},{"name":"四季美台","zip_code":"2410025"},{"name":"下川井町","zip_code":"2410806"},{"name":"白根","zip_code":"2410005"},{"name":"白根町","zip_code":"2410003"},{"name":"善部町","zip_code":"2410823"},{"name":"都岡町","zip_code":"2410805"},{"name":"鶴ケ峰","zip_code":"2410022"},{"name":"鶴ケ峰本町","zip_code":"2410021"},{"name":"中尾","zip_code":"2410815"},{"name":"中希望が丘","zip_code":"2410825"},{"name":"中沢","zip_code":"2410814"},{"name":"中白根","zip_code":"2410004"},{"name":"西川島町","zip_code":"2410012"},{"name":"東希望が丘","zip_code":"2410826"},{"name":"二俣川","zip_code":"2410821"},{"name":"本宿町","zip_code":"2410023"},{"name":"本村町","zip_code":"2410024"},{"name":"万騎が原","zip_code":"2410836"},{"name":"南希望が丘","zip_code":"2410824"},{"name":"南本宿町","zip_code":"2410833"},{"name":"矢指町","zip_code":"2410811"},{"name":"若葉台","zip_code":"2410801"}]},{"name":"横浜市緑区","divisions":[{"name":"青砥町","zip_code":"2260022"},{"name":"いぶき野","zip_code":"2260028"},{"name":"上山","zip_code":"2260012"},{"name":"鴨居","zip_code":"2260003"},{"name":"鴨居町","zip_code":"2260004"},{"name":"北八朔町","zip_code":"2260021"},{"name":"霧が丘","zip_code":"2260016"},{"name":"小山町","zip_code":"2260023"},{"name":"台村町","zip_code":"2260014"},{"name":"竹山","zip_code":"2260005"},{"name":"寺山町","zip_code":"2260013"},{"name":"十日市場町","zip_code":"2260025"},{"name":"中山町","zip_code":"2260011"},{"name":"長津田","zip_code":"2260027"},{"name":"長津田町","zip_code":"2260026"},{"name":"長津田みなみ台","zip_code":"2260018"},{"name":"新治町","zip_code":"2260017"},{"name":"西八朔町","zip_code":"2260024"},{"name":"白山","zip_code":"2260006"},{"name":"東本郷","zip_code":"2260002"},{"name":"東本郷町","zip_code":"2260001"},{"name":"三保町","zip_code":"2260015"},{"name":"森の台","zip_code":"2260029"}]},{"name":"横浜市瀬谷区","divisions":[{"name":"相沢","zip_code":"2460013"},{"name":"阿久和東","zip_code":"2460023"},{"name":"阿久和西","zip_code":"2460025"},{"name":"阿久和南","zip_code":"2460026"},{"name":"東野","zip_code":"2460012"},{"name":"東野台","zip_code":"2460011"},{"name":"卸本町","zip_code":"2460001"},{"name":"上瀬谷町","zip_code":"2460006"},{"name":"北新","zip_code":"2460036"},{"name":"北町","zip_code":"2460002"},{"name":"五貫目町","zip_code":"2460008"},{"name":"下瀬谷","zip_code":"2460035"},{"name":"瀬谷","zip_code":"2460031"},{"name":"瀬谷町","zip_code":"2460003"},{"name":"竹村町","zip_code":"2460005"},{"name":"中央","zip_code":"2460014"},{"name":"中屋敷","zip_code":"2460004"},{"name":"橋戸","zip_code":"2460037"},{"name":"二ツ橋町","zip_code":"2460021"},{"name":"本郷","zip_code":"2460015"},{"name":"三ツ境","zip_code":"2460022"},{"name":"南瀬谷","zip_code":"2460034"},{"name":"南台","zip_code":"2460032"},{"name":"宮沢","zip_code":"2460038"},{"name":"目黒町","zip_code":"2460007"}]},{"name":"横浜市栄区","divisions":[{"name":"飯島町","zip_code":"2440842"},{"name":"犬山町","zip_code":"2470026"},{"name":"尾月","zip_code":"2470027"},{"name":"笠間","zip_code":"2470006"},{"name":"鍛冶ケ谷","zip_code":"2470009"},{"name":"鍛冶ケ谷町","zip_code":"2470003"},{"name":"桂台北","zip_code":"2470031"},{"name":"桂台中","zip_code":"2470034"},{"name":"桂台西","zip_code":"2470035"},{"name":"桂台東","zip_code":"2470032"},{"name":"桂台南","zip_code":"2470033"},{"name":"桂町","zip_code":"2470005"},{"name":"金井町","zip_code":"2440845"},{"name":"上郷町","zip_code":"2470013"},{"name":"上之町","zip_code":"2470025"},{"name":"亀井町","zip_code":"2470028"},{"name":"公田町","zip_code":"2470014"},{"name":"小菅ケ谷","zip_code":"2470007"},{"name":"小菅ケ谷町","zip_code":"2470001"},{"name":"小山台","zip_code":"2470002"},{"name":"庄戸","zip_code":"2470022"},{"name":"田谷町","zip_code":"2440844"},{"name":"中野町","zip_code":"2470015"},{"name":"長尾台町","zip_code":"2440843"},{"name":"長倉町","zip_code":"2470023"},{"name":"長沼町","zip_code":"2440841"},{"name":"野七里","zip_code":"2470024"},{"name":"柏陽","zip_code":"2470004"},{"name":"東上郷町","zip_code":"2470021"},{"name":"本郷台","zip_code":"2470008"},{"name":"元大橋","zip_code":"2470011"},{"name":"若竹町","zip_code":"2470012"}]},{"name":"横浜市泉区","divisions":[{"name":"池の谷","zip_code":"2450001"},{"name":"和泉が丘","zip_code":"2450022"},{"name":"和泉町","zip_code":"2450016"},{"name":"岡津町","zip_code":"2450003"},{"name":"桂坂","zip_code":"2450007"},{"name":"上飯田町","zip_code":"2450018"},{"name":"下飯田町","zip_code":"2450017"},{"name":"下和泉","zip_code":"2450021"},{"name":"白百合","zip_code":"2450005"},{"name":"新橋町","zip_code":"2450009"},{"name":"中田町","zip_code":"2450011"},{"name":"中田東","zip_code":"2450013"},{"name":"中田西","zip_code":"2450015"},{"name":"中田南","zip_code":"2450014"},{"name":"中田北","zip_code":"2450012"},{"name":"西が岡","zip_code":"2450006"},{"name":"弥生台","zip_code":"2450008"},{"name":"領家","zip_code":"2450004"},{"name":"緑園","zip_code":"2450002"}]},{"name":"横浜市青葉区","divisions":[{"name":"青葉台","zip_code":"2270062"},{"name":"あかね台","zip_code":"2270066"},{"name":"あざみ野","zip_code":"2250011"},{"name":"あざみ野南","zip_code":"2250012"},{"name":"市ケ尾町","zip_code":"2250024"},{"name":"美しが丘","zip_code":"2250002"},{"name":"美しが丘西","zip_code":"2250001"},{"name":"梅が丘","zip_code":"2270052"},{"name":"荏子田","zip_code":"2250005"},{"name":"荏田町","zip_code":"2250013"},{"name":"荏田西","zip_code":"2250014"},{"name":"荏田北","zip_code":"2250015"},{"name":"榎が丘","zip_code":"2270063"},{"name":"大場町","zip_code":"2250023"},{"name":"恩田町","zip_code":"2270065"},{"name":"柿の木台","zip_code":"2270048"},{"name":"桂台","zip_code":"2270034"},{"name":"上谷本町","zip_code":"2270041"},{"name":"鴨志田町","zip_code":"2270033"},{"name":"鉄町","zip_code":"2250025"},{"name":"黒須田","zip_code":"2250022"},{"name":"桜台","zip_code":"2270061"},{"name":"さつきが丘","zip_code":"2270053"},{"name":"寺家町","zip_code":"2270031"},{"name":"下谷本町","zip_code":"2270042"},{"name":"しらとり台","zip_code":"2270054"},{"name":"新石川","zip_code":"2250003"},{"name":"すすき野","zip_code":"2250021"},{"name":"すみよし台","zip_code":"2270035"},{"name":"たちばな台","zip_code":"2270046"},{"name":"田奈町","zip_code":"2270064"},{"name":"千草台","zip_code":"2270051"},{"name":"つつじが丘","zip_code":"2270055"},{"name":"奈良","zip_code":"2270038"},{"name":"奈良町","zip_code":"2270036"},{"name":"成合町","zip_code":"2270032"},{"name":"藤が丘","zip_code":"2270043"},{"name":"松風台","zip_code":"2270067"},{"name":"みすずが丘","zip_code":"2250016"},{"name":"みたけ台","zip_code":"2270047"},{"name":"緑山","zip_code":"2270037"},{"name":"もえぎ野","zip_code":"2270044"},{"name":"元石川町","zip_code":"2250004"},{"name":"もみの木台","zip_code":"2250026"},{"name":"若草台","zip_code":"2270045"}]},{"name":"横浜市都筑区","divisions":[{"name":"あゆみが丘","zip_code":"2240016"},{"name":"池辺町","zip_code":"2240053"},{"name":"牛久保","zip_code":"2240012"},{"name":"牛久保町","zip_code":"2240011"},{"name":"牛久保東","zip_code":"2240014"},{"name":"牛久保西","zip_code":"2240015"},{"name":"荏田東町","zip_code":"2240004"},{"name":"荏田南町","zip_code":"2240008"},{"name":"荏田東","zip_code":"2240006"},{"name":"荏田南","zip_code":"2240007"},{"name":"大熊町","zip_code":"2240042"},{"name":"大棚西","zip_code":"2240028"},{"name":"大棚町","zip_code":"2240027"},{"name":"大丸","zip_code":"2240061"},{"name":"折本町","zip_code":"2240043"},{"name":"加賀原","zip_code":"2240055"},{"name":"勝田町","zip_code":"2240034"},{"name":"勝田南","zip_code":"2240036"},{"name":"川向町","zip_code":"2240044"},{"name":"川和台","zip_code":"2240056"},{"name":"川和町","zip_code":"2240057"},{"name":"北山田","zip_code":"2240021"},{"name":"葛が谷","zip_code":"2240062"},{"name":"佐江戸町","zip_code":"2240054"},{"name":"桜並木","zip_code":"2240046"},{"name":"新栄町","zip_code":"2240035"},{"name":"すみれが丘","zip_code":"2240013"},{"name":"高山","zip_code":"2240065"},{"name":"茅ケ崎中央","zip_code":"2240032"},{"name":"茅ケ崎町","zip_code":"2240031"},{"name":"茅ケ崎東","zip_code":"2240033"},{"name":"茅ケ崎南","zip_code":"2240037"},{"name":"中川","zip_code":"2240001"},{"name":"中川中央","zip_code":"2240003"},{"name":"仲町台","zip_code":"2240041"},{"name":"長坂","zip_code":"2240063"},{"name":"二の丸","zip_code":"2240052"},{"name":"早渕","zip_code":"2240025"},{"name":"東方町","zip_code":"2240045"},{"name":"東山田","zip_code":"2240023"},{"name":"東山田町","zip_code":"2240024"},{"name":"平台","zip_code":"2240064"},{"name":"富士見が丘","zip_code":"2240051"},{"name":"南山田","zip_code":"2240029"},{"name":"南山田町","zip_code":"2240026"},{"name":"見花山","zip_code":"2240066"}]},{"name":"川崎市川崎区","divisions":[{"name":"浅田","zip_code":"2100847"},{"name":"浅野町","zip_code":"2100854"},{"name":"旭町","zip_code":"2100808"},{"name":"池上新町","zip_code":"2100832"},{"name":"池上町","zip_code":"2100864"},{"name":"池田","zip_code":"2100022"},{"name":"砂子","zip_code":"2100006"},{"name":"伊勢町","zip_code":"2100805"},{"name":"浮島町","zip_code":"2100862"},{"name":"江川","zip_code":"2100823"},{"name":"駅前本町","zip_code":"2100007"},{"name":"榎町","zip_code":"2100002"},{"name":"追分町","zip_code":"2100835"},{"name":"扇町","zip_code":"2100867"},{"name":"大川町","zip_code":"2100858"},{"name":"扇島","zip_code":"2100868"},{"name":"大島","zip_code":"2100834"},{"name":"大島上町","zip_code":"2100836"},{"name":"小川町","zip_code":"2100023"},{"name":"小田","zip_code":"2100846"},{"name":"小田栄","zip_code":"2100843"},{"name":"貝塚","zip_code":"2100014"},{"name":"川中島","zip_code":"2100803"},{"name":"観音","zip_code":"2100831"},{"name":"京町","zip_code":"2100848"},{"name":"鋼管通","zip_code":"2100852"},{"name":"小島町","zip_code":"2100861"},{"name":"境町","zip_code":"2100838"},{"name":"桜本","zip_code":"2100833"},{"name":"塩浜","zip_code":"2100826"},{"name":"下並木","zip_code":"2100025"},{"name":"昭和","zip_code":"2100813"},{"name":"白石町","zip_code":"2100857"},{"name":"新川通","zip_code":"2100013"},{"name":"鈴木町","zip_code":"2100801"},{"name":"台町","zip_code":"2100814"},{"name":"田島町","zip_code":"2100853"},{"name":"田辺新田","zip_code":"2100856"},{"name":"田町","zip_code":"2100822"},{"name":"大師駅前","zip_code":"2100802"},{"name":"大師河原","zip_code":"2100811"},{"name":"大師公園","zip_code":"2100815"},{"name":"大師本町","zip_code":"2100817"},{"name":"大師町","zip_code":"2100816"},{"name":"千鳥町","zip_code":"2100865"},{"name":"堤根","zip_code":"2100026"},{"name":"出来野","zip_code":"2100825"},{"name":"殿町","zip_code":"2100821"},{"name":"中島","zip_code":"2100806"},{"name":"中瀬","zip_code":"2100818"},{"name":"日進町","zip_code":"2100024"},{"name":"浜町","zip_code":"2100851"},{"name":"東扇島","zip_code":"2100869"},{"name":"東田町","zip_code":"2100005"},{"name":"東門前","zip_code":"2100812"},{"name":"日ノ出","zip_code":"2100824"},{"name":"藤崎","zip_code":"2100804"},{"name":"富士見","zip_code":"2100011"},{"name":"堀之内町","zip_code":"2100003"},{"name":"本町","zip_code":"2100001"},{"name":"水江町","zip_code":"2100866"},{"name":"港町","zip_code":"2100807"},{"name":"南町","zip_code":"2100015"},{"name":"南渡田町","zip_code":"2100855"},{"name":"宮前町","zip_code":"2100012"},{"name":"宮本町","zip_code":"2100004"},{"name":"元木","zip_code":"2100021"},{"name":"夜光","zip_code":"2100863"},{"name":"四谷上町","zip_code":"2100828"},{"name":"四谷下町","zip_code":"2100827"},{"name":"渡田","zip_code":"2100837"},{"name":"渡田山王町","zip_code":"2100845"},{"name":"渡田新町","zip_code":"2100844"},{"name":"渡田東町","zip_code":"2100842"},{"name":"渡田向町","zip_code":"2100841"}]},{"name":"川崎市幸区","divisions":[{"name":"遠藤町","zip_code":"2120006"},{"name":"大宮町","zip_code":"2120014"},{"name":"小倉","zip_code":"2120054"},{"name":"鹿島田","zip_code":"2120058"},{"name":"河原町","zip_code":"2120007"},{"name":"北加瀬","zip_code":"2120057"},{"name":"小向東芝町","zip_code":"2120001"},{"name":"小向仲野町","zip_code":"2120002"},{"name":"小向西町","zip_code":"2120004"},{"name":"小向町","zip_code":"2120003"},{"name":"紺屋町","zip_code":"2120026"},{"name":"幸町","zip_code":"2120011"},{"name":"下平間","zip_code":"2120053"},{"name":"新小倉","zip_code":"2120031"},{"name":"新川崎","zip_code":"2120032"},{"name":"新塚越","zip_code":"2120027"},{"name":"神明町","zip_code":"2120022"},{"name":"塚越","zip_code":"2120024"},{"name":"戸手","zip_code":"2120005"},{"name":"戸手本町","zip_code":"2120023"},{"name":"中幸町","zip_code":"2120012"},{"name":"東小倉","zip_code":"2120033"},{"name":"東古市場","zip_code":"2120051"},{"name":"古市場","zip_code":"2120052"},{"name":"古川町","zip_code":"2120025"},{"name":"堀川町","zip_code":"2120013"},{"name":"南加瀬","zip_code":"2120055"},{"name":"南幸町","zip_code":"2120016"},{"name":"都町","zip_code":"2120021"},{"name":"矢上","zip_code":"2120056"},{"name":"柳町","zip_code":"2120015"}]},{"name":"川崎市中原区","divisions":[{"name":"井田","zip_code":"2110035"},{"name":"井田三舞町","zip_code":"2110037"},{"name":"井田杉山町","zip_code":"2110036"},{"name":"井田中ノ町","zip_code":"2110034"},{"name":"市ノ坪","zip_code":"2110016"},{"name":"今井上町","zip_code":"2110067"},{"name":"今井仲町","zip_code":"2110065"},{"name":"今井西町","zip_code":"2110066"},{"name":"今井南町","zip_code":"2110064"},{"name":"大倉町","zip_code":"2110023"},{"name":"上小田中","zip_code":"2110053"},{"name":"上新城","zip_code":"2110045"},{"name":"上平間","zip_code":"2110013"},{"name":"上丸子","zip_code":"2110003"},{"name":"上丸子山王町","zip_code":"2110002"},{"name":"上丸子天神町","zip_code":"2110007"},{"name":"上丸子八幡町","zip_code":"2110001"},{"name":"苅宿","zip_code":"2110022"},{"name":"北谷町","zip_code":"2110015"},{"name":"木月","zip_code":"2110025"},{"name":"木月伊勢町","zip_code":"2110032"},{"name":"木月祗園町","zip_code":"2110033"},{"name":"木月住吉町","zip_code":"2110021"},{"name":"木月大町","zip_code":"2110031"},{"name":"小杉","zip_code":"2110061"},{"name":"小杉御殿町","zip_code":"2110068"},{"name":"小杉陣屋町","zip_code":"2110062"},{"name":"小杉町","zip_code":"2110063"},{"name":"下小田中","zip_code":"2110041"},{"name":"下新城","zip_code":"2110042"},{"name":"下沼部","zip_code":"2110011"},{"name":"新城","zip_code":"2110044"},{"name":"新城中町","zip_code":"2110043"},{"name":"新丸子町","zip_code":"2110005"},{"name":"新丸子東","zip_code":"2110004"},{"name":"田尻町","zip_code":"2110014"},{"name":"等々力","zip_code":"2110052"},{"name":"中丸子","zip_code":"2110012"},{"name":"西加瀬","zip_code":"2110024"},{"name":"丸子通","zip_code":"2110006"},{"name":"宮内","zip_code":"2110051"}]},{"name":"川崎市高津区","divisions":[{"name":"明津","zip_code":"2130024"},{"name":"宇奈根","zip_code":"2130031"},{"name":"梶ケ谷","zip_code":"2130015"},{"name":"蟹ケ谷","zip_code":"2130025"},{"name":"上作延","zip_code":"2130034"},{"name":"北見方","zip_code":"2130005"},{"name":"久地","zip_code":"2130032"},{"name":"坂戸","zip_code":"2130012"},{"name":"子母口","zip_code":"2130023"},{"name":"下作延","zip_code":"2130033"},{"name":"下野毛","zip_code":"2130006"},{"name":"新作","zip_code":"2130014"},{"name":"末長","zip_code":"2130013"},{"name":"諏訪","zip_code":"2130004"},{"name":"瀬田","zip_code":"2130003"},{"name":"千年","zip_code":"2130022"},{"name":"千年新町","zip_code":"2130021"},{"name":"野川","zip_code":"2130027"},{"name":"久末","zip_code":"2130026"},{"name":"久本","zip_code":"2130011"},{"name":"二子","zip_code":"2130002"},{"name":"溝口","zip_code":"2130001"},{"name":"向ケ丘","zip_code":"2130035"}]},{"name":"川崎市多摩区","divisions":[{"name":"生田","zip_code":"2140038"},{"name":"栗谷","zip_code":"2140039"},{"name":"宿河原","zip_code":"2140021"},{"name":"菅","zip_code":"2140001"},{"name":"菅稲田堤","zip_code":"2140003"},{"name":"菅北浦","zip_code":"2140008"},{"name":"菅城下","zip_code":"2140007"},{"name":"菅仙谷","zip_code":"2140006"},{"name":"菅野戸呂","zip_code":"2140002"},{"name":"菅馬場","zip_code":"2140004"},{"name":"堰","zip_code":"2140022"},{"name":"寺尾台","zip_code":"2140005"},{"name":"中野島","zip_code":"2140012"},{"name":"長尾","zip_code":"2140023"},{"name":"長沢","zip_code":"2140035"},{"name":"西生田","zip_code":"2140037"},{"name":"登戸","zip_code":"2140014"},{"name":"登戸新町","zip_code":"2140013"},{"name":"東生田","zip_code":"2140031"},{"name":"東三田","zip_code":"2140033"},{"name":"布田","zip_code":"2140011"},{"name":"枡形","zip_code":"2140032"},{"name":"三田","zip_code":"2140034"},{"name":"南生田","zip_code":"2140036"}]},{"name":"川崎市宮前区","divisions":[{"name":"有馬","zip_code":"2160003"},{"name":"犬蔵","zip_code":"2160011"},{"name":"梶ケ谷","zip_code":"2160034"},{"name":"けやき平","zip_code":"2160023"},{"name":"五所塚","zip_code":"2160021"},{"name":"小台","zip_code":"2160007"},{"name":"鷺沼","zip_code":"2160004"},{"name":"潮見台","zip_code":"2160013"},{"name":"神木","zip_code":"2160032"},{"name":"神木本町","zip_code":"2160031"},{"name":"白幡台","zip_code":"2160025"},{"name":"菅生","zip_code":"2160015"},{"name":"菅生ケ丘","zip_code":"2160014"},{"name":"平","zip_code":"2160022"},{"name":"土橋","zip_code":"2160005"},{"name":"南平台","zip_code":"2160024"},{"name":"野川","zip_code":"2160001"},{"name":"初山","zip_code":"2160026"},{"name":"東有馬","zip_code":"2160002"},{"name":"馬絹","zip_code":"2160035"},{"name":"水沢","zip_code":"2160012"},{"name":"宮崎","zip_code":"2160033"},{"name":"宮前平","zip_code":"2160006"}]},{"name":"川崎市麻生区","divisions":[{"name":"王禅寺","zip_code":"2150013"},{"name":"王禅寺西","zip_code":"2150017"},{"name":"王禅寺東","zip_code":"2150018"},{"name":"岡上","zip_code":"2150027"},{"name":"片平","zip_code":"2150023"},{"name":"金程","zip_code":"2150006"},{"name":"上麻生","zip_code":"2150021"},{"name":"栗木","zip_code":"2150033"},{"name":"栗木台","zip_code":"2150032"},{"name":"栗平","zip_code":"2150031"},{"name":"黒川","zip_code":"2150035"},{"name":"五力田","zip_code":"2150025"},{"name":"下麻生","zip_code":"2150022"},{"name":"白鳥","zip_code":"2150024"},{"name":"高石","zip_code":"2150003"},{"name":"多摩美","zip_code":"2150002"},{"name":"千代ケ丘","zip_code":"2150005"},{"name":"虹ケ丘","zip_code":"2150015"},{"name":"白山","zip_code":"2150014"},{"name":"早野","zip_code":"2150016"},{"name":"はるひ野","zip_code":"2150036"},{"name":"東百合丘","zip_code":"2150012"},{"name":"古沢","zip_code":"2150026"},{"name":"細山","zip_code":"2150001"},{"name":"万福寺","zip_code":"2150004"},{"name":"南黒川","zip_code":"2150034"},{"name":"向原","zip_code":"2150007"},{"name":"百合丘","zip_code":"2150011"}]},{"name":"相模原市緑区","divisions":[{"name":"相原","zip_code":"2520141"},{"name":"青根","zip_code":"2520162"},{"name":"青野原","zip_code":"2520161"},{"name":"青山","zip_code":"2520156"},{"name":"太井","zip_code":"2520152"},{"name":"大島","zip_code":"2520135"},{"name":"大山町","zip_code":"2520146"},{"name":"小倉","zip_code":"2520115"},{"name":"小原","zip_code":"2520173"},{"name":"小渕","zip_code":"2520184"},{"name":"上九沢","zip_code":"2520136"},{"name":"川尻","zip_code":"2520111"},{"name":"久保沢","zip_code":"2520105"},{"name":"佐野川","zip_code":"2520181"},{"name":"澤井","zip_code":"2520182"},{"name":"下九沢","zip_code":"2520134"},{"name":"城山","zip_code":"2520116"},{"name":"寸沢嵐","zip_code":"2520188"},{"name":"田名","zip_code":"2520124"},{"name":"谷ヶ原","zip_code":"2520113"},{"name":"千木良","zip_code":"2520174"},{"name":"鳥屋","zip_code":"2520155"},{"name":"中沢","zip_code":"2520117"},{"name":"長竹","zip_code":"2520154"},{"name":"中野","zip_code":"2520157"},{"name":"名倉","zip_code":"2520187"},{"name":"西橋本","zip_code":"2520131"},{"name":"二本松","zip_code":"2520137"},{"name":"根小屋","zip_code":"2520153"},{"name":"橋本","zip_code":"2520143"},{"name":"橋本台","zip_code":"2520132"},{"name":"葉山島","zip_code":"2520114"},{"name":"原宿","zip_code":"2520102"},{"name":"原宿南","zip_code":"2520103"},{"name":"東橋本","zip_code":"2520144"},{"name":"日連","zip_code":"2520185"},{"name":"広田","zip_code":"2520106"},{"name":"牧野","zip_code":"2520186"},{"name":"又野","zip_code":"2520158"},{"name":"町屋","zip_code":"2520101"},{"name":"三井","zip_code":"2520151"},{"name":"三ケ木","zip_code":"2520159"},{"name":"向原","zip_code":"2520104"},{"name":"元橋本町","zip_code":"2520142"},{"name":"吉野","zip_code":"2520183"},{"name":"与瀬","zip_code":"2520171"},{"name":"与瀬本町","zip_code":"2520172"},{"name":"若葉台","zip_code":"2520112"},{"name":"若柳","zip_code":"2520175"}]},{"name":"相模原市中央区","divisions":[{"name":"相生","zip_code":"2520235"},{"name":"青葉","zip_code":"2520224"},{"name":"大野台","zip_code":"2520251"},{"name":"小山","zip_code":"2520205"},{"name":"鹿沼台","zip_code":"2520233"},{"name":"上溝","zip_code":"2520243"},{"name":"上矢部","zip_code":"2520201"},{"name":"共和","zip_code":"2520234"},{"name":"向陽町","zip_code":"2520214"},{"name":"小町通","zip_code":"2520217"},{"name":"相模原","zip_code":"2520231"},{"name":"下九沢","zip_code":"2520254"},{"name":"水郷田名","zip_code":"2520246"},{"name":"すすきの町","zip_code":"2520213"},{"name":"清新","zip_code":"2520216"},{"name":"高根","zip_code":"2520221"},{"name":"田名","zip_code":"2520244"},{"name":"田名塩田","zip_code":"2520245"},{"name":"中央","zip_code":"2520239"},{"name":"千代田","zip_code":"2520237"},{"name":"並木","zip_code":"2520228"},{"name":"東淵野辺","zip_code":"2520203"},{"name":"光が丘","zip_code":"2520227"},{"name":"氷川町","zip_code":"2520215"},{"name":"富士見","zip_code":"2520236"},{"name":"淵野辺","zip_code":"2520206"},{"name":"淵野辺本町","zip_code":"2520202"},{"name":"星が丘","zip_code":"2520238"},{"name":"松が丘","zip_code":"2520223"},{"name":"緑が丘","zip_code":"2520225"},{"name":"南橋本","zip_code":"2520253"},{"name":"宮下","zip_code":"2520212"},{"name":"宮下本町","zip_code":"2520211"},{"name":"弥栄","zip_code":"2520229"},{"name":"矢部","zip_code":"2520232"},{"name":"矢部新町","zip_code":"2520207"},{"name":"矢部新田","zip_code":"2520208"},{"name":"陽光台","zip_code":"2520226"},{"name":"横山","zip_code":"2520242"},{"name":"横山台","zip_code":"2520241"},{"name":"由野台","zip_code":"2520222"}]},{"name":"相模原市南区","divisions":[{"name":"旭町","zip_code":"2520304"},{"name":"麻溝台","zip_code":"2520328"},{"name":"新磯野","zip_code":"2520325"},{"name":"磯部","zip_code":"2520327"},{"name":"鵜野森","zip_code":"2520301"},{"name":"大野台","zip_code":"2520331"},{"name":"上鶴間","zip_code":"2520302"},{"name":"上鶴間本町","zip_code":"2520318"},{"name":"北里","zip_code":"2520329"},{"name":"古淵","zip_code":"2520344"},{"name":"栄町","zip_code":"2520306"},{"name":"相模大野","zip_code":"2520303"},{"name":"相模台","zip_code":"2520321"},{"name":"相模台団地","zip_code":"2520322"},{"name":"桜台","zip_code":"2520315"},{"name":"下溝","zip_code":"2520335"},{"name":"新戸","zip_code":"2520326"},{"name":"相南","zip_code":"2520312"},{"name":"相武台","zip_code":"2520324"},{"name":"相武台団地","zip_code":"2520323"},{"name":"当麻","zip_code":"2520336"},{"name":"西大沼","zip_code":"2520332"},{"name":"東大沼","zip_code":"2520333"},{"name":"東林間","zip_code":"2520311"},{"name":"双葉","zip_code":"2520316"},{"name":"文京","zip_code":"2520307"},{"name":"松が枝町","zip_code":"2520313"},{"name":"御園","zip_code":"2520317"},{"name":"南台","zip_code":"2520314"},{"name":"豊町","zip_code":"2520305"},{"name":"若松","zip_code":"2520334"}]},{"name":"横須賀市","divisions":[{"name":"秋谷","zip_code":"2400105"},{"name":"芦名","zip_code":"2400104"},{"name":"阿部倉","zip_code":"2380033"},{"name":"粟田","zip_code":"2390845"},{"name":"安針台","zip_code":"2380048"},{"name":"池上","zip_code":"2380035"},{"name":"池田町","zip_code":"2390806"},{"name":"稲岡町","zip_code":"2380003"},{"name":"不入斗町","zip_code":"2380051"},{"name":"岩戸","zip_code":"2390844"},{"name":"内川","zip_code":"2390836"},{"name":"内川新田","zip_code":"2390837"},{"name":"浦賀","zip_code":"2390822"},{"name":"浦賀丘","zip_code":"2390823"},{"name":"浦上台","zip_code":"2390815"},{"name":"浦郷町","zip_code":"2370062"},{"name":"上町","zip_code":"2380017"},{"name":"太田和","zip_code":"2380311"},{"name":"大滝町","zip_code":"2380008"},{"name":"大津町","zip_code":"2390808"},{"name":"大矢部","zip_code":"2380024"},{"name":"小川町","zip_code":"2380004"},{"name":"荻野","zip_code":"2400102"},{"name":"追浜東町","zip_code":"2370063"},{"name":"追浜南町","zip_code":"2370065"},{"name":"追浜本町","zip_code":"2370068"},{"name":"追浜町","zip_code":"2370064"},{"name":"小原台","zip_code":"2390812"},{"name":"金谷","zip_code":"2380034"},{"name":"鴨居","zip_code":"2390813"},{"name":"衣笠栄町","zip_code":"2380031"},{"name":"衣笠町","zip_code":"2380025"},{"name":"公郷町","zip_code":"2380022"},{"name":"楠ケ浦町","zip_code":"2380002"},{"name":"久比里","zip_code":"2390828"},{"name":"久村","zip_code":"2390834"},{"name":"久里浜","zip_code":"2390831"},{"name":"久里浜台","zip_code":"2390827"},{"name":"グリーンハイツ","zip_code":"2390846"},{"name":"光風台","zip_code":"2390820"},{"name":"子安","zip_code":"2400106"},{"name":"小矢部","zip_code":"2380026"},{"name":"坂本町","zip_code":"2380043"},{"name":"桜が丘","zip_code":"2390803"},{"name":"佐島","zip_code":"2400103"},{"name":"佐島の丘","zip_code":"2400108"},{"name":"佐野町","zip_code":"2380052"},{"name":"佐原","zip_code":"2390835"},{"name":"猿島","zip_code":"2380019"},{"name":"汐入町","zip_code":"2380042"},{"name":"汐見台","zip_code":"2380054"},{"name":"湘南国際村","zip_code":"2400107"},{"name":"湘南鷹取","zip_code":"2370066"},{"name":"新港町","zip_code":"2380005"},{"name":"神明町","zip_code":"2390832"},{"name":"須軽谷","zip_code":"2380314"},{"name":"田浦泉町","zip_code":"2370073"},{"name":"田浦大作町","zip_code":"2370074"},{"name":"田浦港町","zip_code":"2370071"},{"name":"田浦町","zip_code":"2370075"},{"name":"鷹取","zip_code":"2370067"},{"name":"武","zip_code":"2380313"},{"name":"田戸台","zip_code":"2380015"},{"name":"津久井","zip_code":"2390843"},{"name":"鶴が丘","zip_code":"2380056"},{"name":"泊町","zip_code":"2380001"},{"name":"長井","zip_code":"2380316"},{"name":"長浦町","zip_code":"2370072"},{"name":"長坂","zip_code":"2400101"},{"name":"長沢","zip_code":"2390842"},{"name":"長瀬","zip_code":"2390826"},{"name":"夏島町","zip_code":"2370061"},{"name":"西浦賀","zip_code":"2390824"},{"name":"西逸見町","zip_code":"2380046"},{"name":"根岸町","zip_code":"2390807"},{"name":"野比","zip_code":"2390841"},{"name":"ハイランド","zip_code":"2390833"},{"name":"箱崎町","zip_code":"2370078"},{"name":"走水","zip_code":"2390811"},{"name":"浜見台","zip_code":"2370077"},{"name":"林","zip_code":"2380315"},{"name":"東浦賀","zip_code":"2390821"},{"name":"東逸見町","zip_code":"2380045"},{"name":"光の丘","zip_code":"2390847"},{"name":"日の出町","zip_code":"2380006"},{"name":"平作","zip_code":"2380032"},{"name":"深田台","zip_code":"2380016"},{"name":"富士見町","zip_code":"2380021"},{"name":"二葉","zip_code":"2390814"},{"name":"舟倉","zip_code":"2390805"},{"name":"船越町","zip_code":"2370076"},{"name":"平成町","zip_code":"2380013"},{"name":"平和台","zip_code":"2380055"},{"name":"逸見が丘","zip_code":"2380044"},{"name":"望洋台","zip_code":"2380053"},{"name":"本町","zip_code":"2380041"},{"name":"馬堀海岸","zip_code":"2390801"},{"name":"馬堀町","zip_code":"2390802"},{"name":"緑が丘","zip_code":"2380018"},{"name":"港が丘","zip_code":"2370079"},{"name":"南浦賀","zip_code":"2390825"},{"name":"三春町","zip_code":"2380014"},{"name":"御幸浜","zip_code":"2380317"},{"name":"森崎","zip_code":"2380023"},{"name":"安浦町","zip_code":"2380012"},{"name":"山科台","zip_code":"2380312"},{"name":"山中町","zip_code":"2380036"},{"name":"吉井","zip_code":"2390804"},{"name":"吉倉町","zip_code":"2380047"},{"name":"米が浜通","zip_code":"2380011"},{"name":"若松町","zip_code":"2380007"},{"name":"若宮台","zip_code":"2390829"}]},{"name":"平塚市","divisions":[{"name":"明石町","zip_code":"2540042"},{"name":"天沼","zip_code":"2540031"},{"name":"飯島","zip_code":"2591214"},{"name":"出縄","zip_code":"2540915"},{"name":"入野","zip_code":"2591216"},{"name":"入部","zip_code":"2591218"},{"name":"榎木町","zip_code":"2540025"},{"name":"老松町","zip_code":"2540033"},{"name":"追分","zip_code":"2540047"},{"name":"大神","zip_code":"2540012"},{"name":"大島","zip_code":"2540001"},{"name":"大原","zip_code":"2540074"},{"name":"岡崎","zip_code":"2591212"},{"name":"片岡","zip_code":"2591213"},{"name":"上吉沢","zip_code":"2591204"},{"name":"上平塚","zip_code":"2540055"},{"name":"北金目","zip_code":"2591207"},{"name":"北豊田","zip_code":"2540088"},{"name":"城所","zip_code":"2540005"},{"name":"公所","zip_code":"2540906"},{"name":"久領堤","zip_code":"2540801"},{"name":"黒部丘","zip_code":"2540821"},{"name":"河内","zip_code":"2540903"},{"name":"御殿","zip_code":"2540061"},{"name":"小鍋島","zip_code":"2540004"},{"name":"幸町","zip_code":"2540804"},{"name":"桜ケ丘","zip_code":"2540053"},{"name":"真田","zip_code":"2591206"},{"name":"四之宮","zip_code":"2540014"},{"name":"下吉沢","zip_code":"2591203"},{"name":"下島","zip_code":"2540003"},{"name":"新町","zip_code":"2540076"},{"name":"須賀","zip_code":"2540022"},{"name":"菫平","zip_code":"2540822"},{"name":"諏訪町","zip_code":"2540063"},{"name":"浅間町","zip_code":"2540041"},{"name":"千石河岸","zip_code":"2540803"},{"name":"千須谷","zip_code":"2591202"},{"name":"袖ケ浜","zip_code":"2540813"},{"name":"代官町","zip_code":"2540807"},{"name":"高根","zip_code":"2540912"},{"name":"高浜台","zip_code":"2540805"},{"name":"高村","zip_code":"2540914"},{"name":"宝町","zip_code":"2540034"},{"name":"立野町","zip_code":"2540046"},{"name":"田村","zip_code":"2540013"},{"name":"達上ケ丘","zip_code":"2540064"},{"name":"土屋","zip_code":"2591205"},{"name":"堤町","zip_code":"2540027"},{"name":"寺田縄","zip_code":"2591215"},{"name":"唐ケ原","zip_code":"2540826"},{"name":"徳延","zip_code":"2540902"},{"name":"豊田打間木","zip_code":"2540081"},{"name":"豊田小嶺","zip_code":"2540083"},{"name":"豊田平等寺","zip_code":"2540086"},{"name":"豊田本郷","zip_code":"2540087"},{"name":"豊田宮下","zip_code":"2540085"},{"name":"豊原町","zip_code":"2540051"},{"name":"中里","zip_code":"2540054"},{"name":"中堂","zip_code":"2540026"},{"name":"中原","zip_code":"2540075"},{"name":"中原上宿","zip_code":"2540071"},{"name":"中原下宿","zip_code":"2540072"},{"name":"長瀞","zip_code":"2540021"},{"name":"長持","zip_code":"2591217"},{"name":"撫子原","zip_code":"2540825"},{"name":"錦町","zip_code":"2540044"},{"name":"西真土","zip_code":"2540019"},{"name":"西八幡","zip_code":"2540073"},{"name":"虹ケ浜","zip_code":"2540823"},{"name":"根坂間","zip_code":"2540904"},{"name":"花水台","zip_code":"2540824"},{"name":"馬入","zip_code":"2540023"},{"name":"馬入本町","zip_code":"2540024"},{"name":"東真土","zip_code":"2540018"},{"name":"東豊田","zip_code":"2540082"},{"name":"東中原","zip_code":"2540077"},{"name":"東八幡","zip_code":"2540016"},{"name":"日向岡","zip_code":"2540905"},{"name":"平塚","zip_code":"2540052"},{"name":"広川","zip_code":"2591219"},{"name":"富士見町","zip_code":"2540062"},{"name":"ふじみ野","zip_code":"2591211"},{"name":"札場町","zip_code":"2540802"},{"name":"紅谷町","zip_code":"2540043"},{"name":"松風町","zip_code":"2540812"},{"name":"纒","zip_code":"2540901"},{"name":"万田","zip_code":"2540913"},{"name":"見附町","zip_code":"2540045"},{"name":"南金目","zip_code":"2591201"},{"name":"南豊田","zip_code":"2540084"},{"name":"南原","zip_code":"2540065"},{"name":"宮の前","zip_code":"2540035"},{"name":"宮松町","zip_code":"2540036"},{"name":"めぐみが丘","zip_code":"2591220"},{"name":"桃浜町","zip_code":"2540815"},{"name":"八重咲町","zip_code":"2540811"},{"name":"八千代町","zip_code":"2540032"},{"name":"山下","zip_code":"2540911"},{"name":"八幡","zip_code":"2540015"},{"name":"夕陽ケ丘","zip_code":"2540806"},{"name":"横内","zip_code":"2540002"},{"name":"吉際","zip_code":"2540011"},{"name":"龍城ケ丘","zip_code":"2540814"}]},{"name":"鎌倉市","divisions":[{"name":"稲村ガ崎","zip_code":"2480024"},{"name":"今泉","zip_code":"2470052"},{"name":"今泉台","zip_code":"2470053"},{"name":"岩瀬","zip_code":"2470051"},{"name":"植木","zip_code":"2470073"},{"name":"扇ガ谷","zip_code":"2480011"},{"name":"大船","zip_code":"2470056"},{"name":"大町","zip_code":"2480007"},{"name":"岡本","zip_code":"2470072"},{"name":"御成町","zip_code":"2480012"},{"name":"梶原","zip_code":"2470063"},{"name":"鎌倉山","zip_code":"2480031"},{"name":"上町屋","zip_code":"2470065"},{"name":"極楽寺","zip_code":"2480023"},{"name":"腰越","zip_code":"2480033"},{"name":"小袋谷","zip_code":"2470055"},{"name":"小町","zip_code":"2480006"},{"name":"材木座","zip_code":"2480013"},{"name":"坂ノ下","zip_code":"2480021"},{"name":"笹目町","zip_code":"2480015"},{"name":"佐助","zip_code":"2480017"},{"name":"七里ガ浜","zip_code":"2480026"},{"name":"七里ガ浜東","zip_code":"2480025"},{"name":"十二所","zip_code":"2480001"},{"name":"浄明寺","zip_code":"2480003"},{"name":"城廻","zip_code":"2470074"},{"name":"関谷","zip_code":"2470075"},{"name":"台","zip_code":"2470061"},{"name":"高野","zip_code":"2470054"},{"name":"玉縄","zip_code":"2470071"},{"name":"津","zip_code":"2480032"},{"name":"津西","zip_code":"2480034"},{"name":"手広","zip_code":"2480036"},{"name":"寺分","zip_code":"2470064"},{"name":"常盤","zip_code":"2480022"},{"name":"二階堂","zip_code":"2480002"},{"name":"西鎌倉","zip_code":"2480035"},{"name":"西御門","zip_code":"2480004"},{"name":"長谷","zip_code":"2480016"},{"name":"笛田","zip_code":"2480027"},{"name":"山崎","zip_code":"2470066"},{"name":"山ノ内","zip_code":"2470062"},{"name":"由比ガ浜","zip_code":"2480014"},{"name":"雪ノ下","zip_code":"2480005"}]},{"name":"藤沢市","divisions":[{"name":"朝日町","zip_code":"2510054"},{"name":"石川","zip_code":"2520815"},{"name":"稲荷","zip_code":"2510862"},{"name":"今田","zip_code":"2520803"},{"name":"打戻","zip_code":"2520824"},{"name":"江の島","zip_code":"2510036"},{"name":"円行","zip_code":"2520805"},{"name":"遠藤","zip_code":"2520816"},{"name":"大庭","zip_code":"2510861"},{"name":"獺郷","zip_code":"2520825"},{"name":"片瀬","zip_code":"2510032"},{"name":"片瀬海岸","zip_code":"2510035"},{"name":"片瀬目白山","zip_code":"2510034"},{"name":"片瀬山","zip_code":"2510033"},{"name":"亀井野","zip_code":"2520813"},{"name":"柄沢","zip_code":"2510003"},{"name":"川名","zip_code":"2510015"},{"name":"桐原町","zip_code":"2520811"},{"name":"鵠沼","zip_code":"2510022"},{"name":"鵠沼石上","zip_code":"2510025"},{"name":"鵠沼海岸","zip_code":"2510037"},{"name":"鵠沼桜が岡","zip_code":"2510027"},{"name":"鵠沼神明","zip_code":"2510021"},{"name":"鵠沼橘","zip_code":"2510024"},{"name":"鵠沼花沢町","zip_code":"2510023"},{"name":"鵠沼藤が谷","zip_code":"2510031"},{"name":"鵠沼松が岡","zip_code":"2510038"},{"name":"鵠沼東","zip_code":"2510026"},{"name":"葛原","zip_code":"2520822"},{"name":"小塚","zip_code":"2510013"},{"name":"下土棚","zip_code":"2520807"},{"name":"城南","zip_code":"2510057"},{"name":"湘南台","zip_code":"2520804"},{"name":"菖蒲沢","zip_code":"2520823"},{"name":"白旗","zip_code":"2510051"},{"name":"善行","zip_code":"2510871"},{"name":"善行坂","zip_code":"2510876"},{"name":"善行団地","zip_code":"2510877"},{"name":"大鋸","zip_code":"2510002"},{"name":"高倉","zip_code":"2520802"},{"name":"高谷","zip_code":"2510017"},{"name":"立石","zip_code":"2510872"},{"name":"長後","zip_code":"2520801"},{"name":"辻堂","zip_code":"2510047"},{"name":"辻堂神台","zip_code":"2510041"},{"name":"辻堂新町","zip_code":"2510042"},{"name":"辻堂太平台","zip_code":"2510044"},{"name":"辻堂東海岸","zip_code":"2510045"},{"name":"辻堂西海岸","zip_code":"2510046"},{"name":"辻堂元町","zip_code":"2510043"},{"name":"土棚","zip_code":"2520806"},{"name":"天神町","zip_code":"2520814"},{"name":"西富","zip_code":"2510001"},{"name":"西俣野","zip_code":"2520812"},{"name":"羽鳥","zip_code":"2510056"},{"name":"花の木","zip_code":"2510874"},{"name":"藤が岡","zip_code":"2510004"},{"name":"藤沢","zip_code":"2510052"},{"name":"本鵠沼","zip_code":"2510028"},{"name":"本町","zip_code":"2510053"},{"name":"本藤沢","zip_code":"2510875"},{"name":"みその台","zip_code":"2510873"},{"name":"南藤沢","zip_code":"2510055"},{"name":"宮原","zip_code":"2520826"},{"name":"宮前","zip_code":"2510014"},{"name":"弥勒寺","zip_code":"2510016"},{"name":"村岡東","zip_code":"2510012"},{"name":"用田","zip_code":"2520821"},{"name":"渡内","zip_code":"2510011"}]},{"name":"小田原市","divisions":[{"name":"穴部","zip_code":"2500053"},{"name":"穴部新田","zip_code":"2500864"},{"name":"新屋","zip_code":"2500856"},{"name":"飯泉","zip_code":"2500863"},{"name":"飯田岡","zip_code":"2500854"},{"name":"池上","zip_code":"2500041"},{"name":"井細田","zip_code":"2500056"},{"name":"石橋","zip_code":"2500022"},{"name":"板橋","zip_code":"2500034"},{"name":"入生田","zip_code":"2500031"},{"name":"江之浦","zip_code":"2500025"},{"name":"扇町","zip_code":"2500001"},{"name":"荻窪","zip_code":"2500042"},{"name":"小竹","zip_code":"2560802"},{"name":"鬼柳","zip_code":"2500211"},{"name":"小船","zip_code":"2560806"},{"name":"風祭","zip_code":"2500032"},{"name":"上町","zip_code":"2560805"},{"name":"上新田","zip_code":"2500877"},{"name":"上曽我","zip_code":"2500202"},{"name":"鴨宮","zip_code":"2500874"},{"name":"栢山","zip_code":"2500852"},{"name":"川匂","zip_code":"2560814"},{"name":"北ノ窪","zip_code":"2500051"},{"name":"久野","zip_code":"2500055"},{"name":"桑原","zip_code":"2500861"},{"name":"国府津","zip_code":"2560812"},{"name":"小台","zip_code":"2500858"},{"name":"寿町","zip_code":"2500002"},{"name":"米神","zip_code":"2500023"},{"name":"小八幡","zip_code":"2560815"},{"name":"栄町","zip_code":"2500011"},{"name":"酒匂","zip_code":"2560816"},{"name":"清水新田","zip_code":"2500855"},{"name":"下大井","zip_code":"2500208"},{"name":"下新田","zip_code":"2500878"},{"name":"下堀","zip_code":"2500871"},{"name":"十字","zip_code":"2500046"},{"name":"城内","zip_code":"2500014"},{"name":"城山","zip_code":"2500045"},{"name":"曽我大沢","zip_code":"2500201"},{"name":"曽我岸","zip_code":"2500203"},{"name":"曽我光海","zip_code":"2500207"},{"name":"曽我別所","zip_code":"2500205"},{"name":"曽我谷津","zip_code":"2500204"},{"name":"曽我原","zip_code":"2500206"},{"name":"曽比","zip_code":"2500851"},{"name":"高田","zip_code":"2500216"},{"name":"多古","zip_code":"2500054"},{"name":"田島","zip_code":"2560811"},{"name":"千代","zip_code":"2500215"},{"name":"中里","zip_code":"2500872"},{"name":"中新田","zip_code":"2500876"},{"name":"中曽根","zip_code":"2500866"},{"name":"中町","zip_code":"2500005"},{"name":"中村原","zip_code":"2560803"},{"name":"永塚","zip_code":"2500214"},{"name":"成田","zip_code":"2500862"},{"name":"西大友","zip_code":"2500212"},{"name":"西酒匂","zip_code":"2560817"},{"name":"沼代","zip_code":"2560801"},{"name":"根府川","zip_code":"2500024"},{"name":"延清","zip_code":"2500218"},{"name":"羽根尾","zip_code":"2560804"},{"name":"浜町","zip_code":"2500004"},{"name":"早川","zip_code":"2500021"},{"name":"東大友","zip_code":"2500213"},{"name":"東ヶ丘","zip_code":"2560808"},{"name":"東町","zip_code":"2500003"},{"name":"府川","zip_code":"2500052"},{"name":"別堀","zip_code":"2500217"},{"name":"堀之内","zip_code":"2500853"},{"name":"本町","zip_code":"2500012"},{"name":"前川","zip_code":"2560813"},{"name":"水之尾","zip_code":"2500033"},{"name":"緑","zip_code":"2500044"},{"name":"南板橋","zip_code":"2500035"},{"name":"南鴨宮","zip_code":"2500875"},{"name":"南町","zip_code":"2500013"},{"name":"谷津","zip_code":"2500043"},{"name":"柳新田","zip_code":"2500857"},{"name":"矢作","zip_code":"2500873"},{"name":"山西","zip_code":"2560807"},{"name":"蓮正寺","zip_code":"2500865"}]},{"name":"茅ヶ崎市","divisions":[{"name":"赤羽根","zip_code":"2530001"},{"name":"赤松町","zip_code":"2530013"},{"name":"旭が丘","zip_code":"2530026"},{"name":"甘沼","zip_code":"2530004"},{"name":"今宿","zip_code":"2530072"},{"name":"円蔵","zip_code":"2530084"},{"name":"香川","zip_code":"2530082"},{"name":"小桜町","zip_code":"2530016"},{"name":"小和田","zip_code":"2530012"},{"name":"幸町","zip_code":"2530052"},{"name":"汐見台","zip_code":"2530033"},{"name":"下寺尾","zip_code":"2530081"},{"name":"下町屋","zip_code":"2530087"},{"name":"十間坂","zip_code":"2530045"},{"name":"松林","zip_code":"2530017"},{"name":"白浜町","zip_code":"2530036"},{"name":"新栄町","zip_code":"2530044"},{"name":"芹沢","zip_code":"2530008"},{"name":"代官町","zip_code":"2530015"},{"name":"高田","zip_code":"2530002"},{"name":"茅ヶ崎","zip_code":"2530041"},{"name":"堤","zip_code":"2530006"},{"name":"鶴が台","zip_code":"2530003"},{"name":"出口町","zip_code":"2530028"},{"name":"常盤町","zip_code":"2530032"},{"name":"共恵","zip_code":"2530056"},{"name":"中海岸","zip_code":"2530055"},{"name":"中島","zip_code":"2530073"},{"name":"行谷","zip_code":"2530007"},{"name":"南湖","zip_code":"2530061"},{"name":"西久保","zip_code":"2530083"},{"name":"萩園","zip_code":"2530071"},{"name":"浜須賀","zip_code":"2530035"},{"name":"浜竹","zip_code":"2530021"},{"name":"浜之郷","zip_code":"2530086"},{"name":"浜見平","zip_code":"2530062"},{"name":"東海岸南","zip_code":"2530054"},{"name":"東海岸北","zip_code":"2530053"},{"name":"菱沼","zip_code":"2530011"},{"name":"菱沼海岸","zip_code":"2530037"},{"name":"ひばりが丘","zip_code":"2530027"},{"name":"富士見町","zip_code":"2530031"},{"name":"平太夫新田","zip_code":"2530074"},{"name":"平和町","zip_code":"2530024"},{"name":"本宿町","zip_code":"2530014"},{"name":"本村","zip_code":"2530042"},{"name":"松尾","zip_code":"2530065"},{"name":"松風台","zip_code":"2530005"},{"name":"松が丘","zip_code":"2530025"},{"name":"松浪","zip_code":"2530022"},{"name":"みずき","zip_code":"2530088"},{"name":"美住町","zip_code":"2530023"},{"name":"緑が浜","zip_code":"2530034"},{"name":"室田","zip_code":"2530018"},{"name":"元町","zip_code":"2530043"},{"name":"柳島","zip_code":"2530064"},{"name":"柳島海岸","zip_code":"2530063"},{"name":"矢畑","zip_code":"2530085"},{"name":"若松町","zip_code":"2530051"}]},{"name":"逗子市","divisions":[{"name":"池子","zip_code":"2490003"},{"name":"小坪","zip_code":"2490008"},{"name":"桜山","zip_code":"2490005"},{"name":"新宿","zip_code":"2490007"},{"name":"逗子","zip_code":"2490006"},{"name":"沼間","zip_code":"2490004"},{"name":"久木","zip_code":"2490001"},{"name":"山の根","zip_code":"2490002"}]},{"name":"三浦市","divisions":[{"name":"尾上町","zip_code":"2380246"},{"name":"海外町","zip_code":"2380245"},{"name":"岬陽町","zip_code":"2380222"},{"name":"栄町","zip_code":"2380236"},{"name":"白石町","zip_code":"2380244"},{"name":"城山町","zip_code":"2380235"},{"name":"諏訪町","zip_code":"2380234"},{"name":"天神町","zip_code":"2380241"},{"name":"初声町入江","zip_code":"2380113"},{"name":"初声町高円坊","zip_code":"2380115"},{"name":"初声町下宮田","zip_code":"2380111"},{"name":"初声町三戸","zip_code":"2380112"},{"name":"初声町和田","zip_code":"2380114"},{"name":"原町","zip_code":"2380223"},{"name":"晴海町","zip_code":"2380232"},{"name":"東岡町","zip_code":"2380242"},{"name":"三崎","zip_code":"2380243"},{"name":"三崎町小網代","zip_code":"2380225"},{"name":"三崎町城ケ島","zip_code":"2380237"},{"name":"三崎町六合","zip_code":"2380221"},{"name":"三崎町諸磯","zip_code":"2380224"},{"name":"南下浦町金田","zip_code":"2380103"},{"name":"南下浦町上宮田","zip_code":"2380101"},{"name":"南下浦町菊名","zip_code":"2380102"},{"name":"南下浦町毘沙門","zip_code":"2380105"},{"name":"南下浦町松輪","zip_code":"2380104"},{"name":"宮川町","zip_code":"2380231"},{"name":"向ケ崎町","zip_code":"2380233"}]},{"name":"秦野市","divisions":[{"name":"今泉","zip_code":"2570014"},{"name":"今泉台","zip_code":"2570018"},{"name":"今川町","zip_code":"2570051"},{"name":"入船町","zip_code":"2570041"},{"name":"尾尻","zip_code":"2570011"},{"name":"落合","zip_code":"2570025"},{"name":"春日町","zip_code":"2591312"},{"name":"上今川町","zip_code":"2570052"},{"name":"上大槻","zip_code":"2570005"},{"name":"河原町","zip_code":"2570032"},{"name":"北矢名","zip_code":"2570006"},{"name":"寿町","zip_code":"2570042"},{"name":"小蓑毛","zip_code":"2570022"},{"name":"幸町","zip_code":"2570048"},{"name":"栄町","zip_code":"2570043"},{"name":"桜町","zip_code":"2570045"},{"name":"三屋","zip_code":"2591303"},{"name":"渋沢","zip_code":"2591322"},{"name":"渋沢上","zip_code":"2591326"},{"name":"清水町","zip_code":"2570053"},{"name":"下大槻","zip_code":"2570004"},{"name":"下落合","zip_code":"2570026"},{"name":"菖蒲","zip_code":"2591332"},{"name":"新町","zip_code":"2570056"},{"name":"水神町","zip_code":"2570047"},{"name":"末広町","zip_code":"2570037"},{"name":"鈴張町","zip_code":"2570055"},{"name":"曽屋","zip_code":"2570031"},{"name":"大秦町","zip_code":"2570034"},{"name":"立野台","zip_code":"2570017"},{"name":"千村","zip_code":"2591324"},{"name":"鶴巻","zip_code":"2570007"},{"name":"鶴巻南","zip_code":"2570002"},{"name":"鶴巻北","zip_code":"2570001"},{"name":"寺山","zip_code":"2570023"},{"name":"戸川","zip_code":"2591306"},{"name":"栃窪","zip_code":"2570016"},{"name":"名古木","zip_code":"2570024"},{"name":"並木町","zip_code":"2591317"},{"name":"西大竹","zip_code":"2570012"},{"name":"西田原","zip_code":"2570027"},{"name":"沼代新町","zip_code":"2591316"},{"name":"萩が丘","zip_code":"2591325"},{"name":"八沢","zip_code":"2591333"},{"name":"羽根","zip_code":"2591301"},{"name":"東田原","zip_code":"2570028"},{"name":"ひばりケ丘","zip_code":"2570046"},{"name":"平沢","zip_code":"2570015"},{"name":"富士見町","zip_code":"2570057"},{"name":"文京町","zip_code":"2570044"},{"name":"菩提","zip_code":"2591302"},{"name":"堀川","zip_code":"2591305"},{"name":"堀山下","zip_code":"2591304"},{"name":"堀西","zip_code":"2591331"},{"name":"本町","zip_code":"2570035"},{"name":"曲松","zip_code":"2591321"},{"name":"松原町","zip_code":"2591313"},{"name":"三廻部","zip_code":"2591335"},{"name":"緑町","zip_code":"2570054"},{"name":"南が丘","zip_code":"2570013"},{"name":"南矢名","zip_code":"2570003"},{"name":"蓑毛","zip_code":"2570021"},{"name":"室町","zip_code":"2570033"},{"name":"元町","zip_code":"2570036"},{"name":"柳川","zip_code":"2591334"},{"name":"柳町","zip_code":"2591315"},{"name":"弥生町","zip_code":"2591311"},{"name":"横野","zip_code":"2591307"},{"name":"若松町","zip_code":"2591314"}]},{"name":"厚木市","divisions":[{"name":"愛甲","zip_code":"2430035"},{"name":"愛甲西","zip_code":"2430028"},{"name":"愛甲東","zip_code":"2430027"},{"name":"愛名","zip_code":"2430038"},{"name":"旭町","zip_code":"2430014"},{"name":"厚木","zip_code":"2430007"},{"name":"厚木町","zip_code":"2430011"},{"name":"吾妻町","zip_code":"2430006"},{"name":"飯山","zip_code":"2430213"},{"name":"泉町","zip_code":"2430013"},{"name":"及川","zip_code":"2430212"},{"name":"王子","zip_code":"2430817"},{"name":"岡田","zip_code":"2430021"},{"name":"岡津古久","zip_code":"2430126"},{"name":"小野","zip_code":"2430125"},{"name":"恩名","zip_code":"2430032"},{"name":"金田","zip_code":"2430807"},{"name":"上依知","zip_code":"2430801"},{"name":"上荻野","zip_code":"2430201"},{"name":"上落合","zip_code":"2430025"},{"name":"上古沢","zip_code":"2430215"},{"name":"寿町","zip_code":"2430003"},{"name":"幸町","zip_code":"2430012"},{"name":"酒井","zip_code":"2430022"},{"name":"栄町","zip_code":"2430017"},{"name":"猿ケ島","zip_code":"2430802"},{"name":"三田","zip_code":"2430211"},{"name":"三田南","zip_code":"2430217"},{"name":"下依知","zip_code":"2430806"},{"name":"下荻野","zip_code":"2430203"},{"name":"下川入","zip_code":"2430206"},{"name":"下津古久","zip_code":"2430026"},{"name":"下古沢","zip_code":"2430214"},{"name":"関口","zip_code":"2430804"},{"name":"棚沢","zip_code":"2430205"},{"name":"田村町","zip_code":"2430016"},{"name":"妻田","zip_code":"2430811"},{"name":"妻田東","zip_code":"2430813"},{"name":"妻田西","zip_code":"2430815"},{"name":"妻田南","zip_code":"2430814"},{"name":"妻田北","zip_code":"2430812"},{"name":"戸田","zip_code":"2430023"},{"name":"鳶尾","zip_code":"2430204"},{"name":"戸室","zip_code":"2430031"},{"name":"中依知","zip_code":"2430805"},{"name":"中荻野","zip_code":"2430202"},{"name":"中町","zip_code":"2430018"},{"name":"長沼","zip_code":"2430024"},{"name":"七沢","zip_code":"2430121"},{"name":"温水","zip_code":"2430033"},{"name":"温水西","zip_code":"2430039"},{"name":"長谷","zip_code":"2430036"},{"name":"林","zip_code":"2430816"},{"name":"東町","zip_code":"2430001"},{"name":"船子","zip_code":"2430034"},{"name":"松枝","zip_code":"2430005"},{"name":"まつかげ台","zip_code":"2430207"},{"name":"水引","zip_code":"2430004"},{"name":"緑ケ丘","zip_code":"2430041"},{"name":"南町","zip_code":"2430015"},{"name":"みはる野","zip_code":"2430208"},{"name":"宮の里","zip_code":"2430216"},{"name":"毛利台","zip_code":"2430037"},{"name":"元町","zip_code":"2430002"},{"name":"森の里","zip_code":"2430122"},{"name":"森の里青山","zip_code":"2430123"},{"name":"森の里若宮","zip_code":"2430124"},{"name":"山際","zip_code":"2430803"}]},{"name":"大和市","divisions":[{"name":"上草柳","zip_code":"2420029"},{"name":"上和田","zip_code":"2420014"},{"name":"桜森","zip_code":"2420028"},{"name":"渋谷","zip_code":"2420023"},{"name":"下草柳","zip_code":"2420027"},{"name":"下鶴間","zip_code":"2420001"},{"name":"下和田","zip_code":"2420015"},{"name":"草柳","zip_code":"2420026"},{"name":"代官","zip_code":"2420025"},{"name":"中央","zip_code":"2420021"},{"name":"中央林間","zip_code":"2420007"},{"name":"中央林間西","zip_code":"2420008"},{"name":"つきみ野","zip_code":"2420002"},{"name":"鶴間","zip_code":"2420004"},{"name":"西鶴間","zip_code":"2420005"},{"name":"深見","zip_code":"2420011"},{"name":"深見台","zip_code":"2420013"},{"name":"深見東","zip_code":"2420012"},{"name":"深見西","zip_code":"2420018"},{"name":"福田","zip_code":"2420024"},{"name":"南林間","zip_code":"2420006"},{"name":"柳橋","zip_code":"2420022"},{"name":"大和東","zip_code":"2420017"},{"name":"大和南","zip_code":"2420016"},{"name":"林間","zip_code":"2420003"}]},{"name":"伊勢原市","divisions":[{"name":"粟窪","zip_code":"2591113"},{"name":"池端","zip_code":"2591144"},{"name":"石田","zip_code":"2591116"},{"name":"伊勢原","zip_code":"2591131"},{"name":"板戸","zip_code":"2591145"},{"name":"歌川","zip_code":"2591128"},{"name":"大住台","zip_code":"2591105"},{"name":"大山","zip_code":"2591107"},{"name":"岡崎","zip_code":"2591135"},{"name":"笠窪","zip_code":"2591137"},{"name":"上粕屋","zip_code":"2591141"},{"name":"上平間","zip_code":"2591124"},{"name":"上谷","zip_code":"2591127"},{"name":"串橋","zip_code":"2591136"},{"name":"小稲葉","zip_code":"2591122"},{"name":"神戸","zip_code":"2591138"},{"name":"子易","zip_code":"2591102"},{"name":"桜台","zip_code":"2591132"},{"name":"三ノ宮","zip_code":"2591103"},{"name":"下落合","zip_code":"2591121"},{"name":"下糟屋","zip_code":"2591143"},{"name":"下平間","zip_code":"2591125"},{"name":"下谷","zip_code":"2591123"},{"name":"白根","zip_code":"2591147"},{"name":"鈴川","zip_code":"2591146"},{"name":"善波","zip_code":"2591106"},{"name":"高森","zip_code":"2591114"},{"name":"高森台","zip_code":"2591115"},{"name":"田中","zip_code":"2591142"},{"name":"坪ノ内","zip_code":"2591104"},{"name":"西富岡","zip_code":"2591111"},{"name":"沼目","zip_code":"2591126"},{"name":"八幡台","zip_code":"2591134"},{"name":"東大竹","zip_code":"2591133"},{"name":"東富岡","zip_code":"2591112"},{"name":"東成瀬","zip_code":"2591117"},{"name":"日向","zip_code":"2591101"},{"name":"見附島","zip_code":"2591118"}]},{"name":"海老名市","divisions":[{"name":"今里","zip_code":"2430423"},{"name":"大谷","zip_code":"2430411"},{"name":"大谷北","zip_code":"2430419"},{"name":"大谷南","zip_code":"2430418"},{"name":"柏ケ谷","zip_code":"2430402"},{"name":"勝瀬","zip_code":"2430404"},{"name":"門沢橋","zip_code":"2430426"},{"name":"上今泉","zip_code":"2430431"},{"name":"上郷","zip_code":"2430434"},{"name":"上河内","zip_code":"2430415"},{"name":"河原口","zip_code":"2430433"},{"name":"国分寺台","zip_code":"2430413"},{"name":"国分南","zip_code":"2430405"},{"name":"国分北","zip_code":"2430406"},{"name":"さつき町","zip_code":"2430421"},{"name":"下今泉","zip_code":"2430435"},{"name":"社家","zip_code":"2430424"},{"name":"杉久保","zip_code":"2430414"},{"name":"杉久保北","zip_code":"2430410"},{"name":"杉久保南","zip_code":"2430427"},{"name":"中央","zip_code":"2430432"},{"name":"中河内","zip_code":"2430416"},{"name":"中新田","zip_code":"2430422"},{"name":"中野","zip_code":"2430425"},{"name":"浜田町","zip_code":"2430412"},{"name":"東柏ケ谷","zip_code":"2430401"},{"name":"本郷","zip_code":"2430417"},{"name":"望地","zip_code":"2430403"}]},{"name":"座間市","divisions":[{"name":"入谷","zip_code":"2520024"},{"name":"栗原","zip_code":"2520013"},{"name":"栗原中央","zip_code":"2520014"},{"name":"小松原","zip_code":"2520002"},{"name":"相模が丘","zip_code":"2520001"},{"name":"さがみ野","zip_code":"2520005"},{"name":"座間","zip_code":"2520027"},{"name":"新田宿","zip_code":"2520026"},{"name":"相武台","zip_code":"2520011"},{"name":"立野台","zip_code":"2520023"},{"name":"西栗原","zip_code":"2520016"},{"name":"東原","zip_code":"2520004"},{"name":"ひばりが丘","zip_code":"2520003"},{"name":"広野台","zip_code":"2520012"},{"name":"緑ケ丘","zip_code":"2520021"},{"name":"南栗原","zip_code":"2520015"},{"name":"明王","zip_code":"2520022"},{"name":"四ツ谷","zip_code":"2520025"}]},{"name":"南足柄市","divisions":[{"name":"雨坪","zip_code":"2500134"},{"name":"飯沢","zip_code":"2500122"},{"name":"生駒","zip_code":"2500124"},{"name":"岩原","zip_code":"2500113"},{"name":"内山","zip_code":"2500131"},{"name":"狩野","zip_code":"2500126"},{"name":"苅野","zip_code":"2500135"},{"name":"北窪","zip_code":"2500114"},{"name":"小市","zip_code":"2500107"},{"name":"弘西寺","zip_code":"2500132"},{"name":"駒形新宿","zip_code":"2500125"},{"name":"関本","zip_code":"2500105"},{"name":"千津島","zip_code":"2500102"},{"name":"大雄町","zip_code":"2500127"},{"name":"竹松","zip_code":"2500111"},{"name":"塚原","zip_code":"2500117"},{"name":"中沼","zip_code":"2500123"},{"name":"怒田","zip_code":"2500106"},{"name":"沼田","zip_code":"2500115"},{"name":"広町","zip_code":"2500121"},{"name":"福泉","zip_code":"2500133"},{"name":"班目","zip_code":"2500101"},{"name":"壗下","zip_code":"2500103"},{"name":"三竹","zip_code":"2500116"},{"name":"向田","zip_code":"2500104"},{"name":"矢倉沢","zip_code":"2500136"},{"name":"和田河原","zip_code":"2500112"}]},{"name":"綾瀬市","divisions":[{"name":"厚木航空基地","zip_code":"2521101"},{"name":"大上","zip_code":"2521104"},{"name":"落合南","zip_code":"2521115"},{"name":"落合北","zip_code":"2521116"},{"name":"上土棚","zip_code":"2521112"},{"name":"上土棚中","zip_code":"2521113"},{"name":"上土棚南","zip_code":"2521114"},{"name":"上土棚北","zip_code":"2521111"},{"name":"小園","zip_code":"2521121"},{"name":"小園南","zip_code":"2521122"},{"name":"蓼川","zip_code":"2521105"},{"name":"寺尾釜田","zip_code":"2521135"},{"name":"寺尾中","zip_code":"2521132"},{"name":"寺尾西","zip_code":"2521136"},{"name":"寺尾南","zip_code":"2521134"},{"name":"寺尾北","zip_code":"2521131"},{"name":"寺尾台","zip_code":"2521137"},{"name":"寺尾本町","zip_code":"2521133"},{"name":"早川","zip_code":"2521123"},{"name":"早川城山","zip_code":"2521127"},{"name":"深谷","zip_code":"2521103"},{"name":"深谷上","zip_code":"2521108"},{"name":"深谷中","zip_code":"2521107"},{"name":"深谷南","zip_code":"2521106"},{"name":"本蓼川","zip_code":"2521102"},{"name":"吉岡","zip_code":"2521124"},{"name":"吉岡東","zip_code":"2521125"},{"name":"綾西","zip_code":"2521126"}]},{"name":"三浦郡葉山町","divisions":[{"name":"一色","zip_code":"2400111"},{"name":"上山口","zip_code":"2400115"},{"name":"木古庭","zip_code":"2400114"},{"name":"下山口","zip_code":"2400116"},{"name":"長柄","zip_code":"2400113"},{"name":"堀内","zip_code":"2400112"}]},{"name":"高座郡寒川町","divisions":[{"name":"一之宮","zip_code":"2530111"},{"name":"大蔵","zip_code":"2530104"},{"name":"大曲","zip_code":"2530113"},{"name":"岡田","zip_code":"2530105"},{"name":"倉見","zip_code":"2530101"},{"name":"小谷","zip_code":"2530103"},{"name":"小動","zip_code":"2530102"},{"name":"田端","zip_code":"2530114"},{"name":"中瀬","zip_code":"2530112"},{"name":"宮山","zip_code":"2530106"}]},{"name":"中郡大磯町","divisions":[{"name":"生沢","zip_code":"2590102"},{"name":"石神台","zip_code":"2590113"},{"name":"大磯","zip_code":"2550003"},{"name":"月京","zip_code":"2590114"},{"name":"黒岩","zip_code":"2590105"},{"name":"国府新宿","zip_code":"2590112"},{"name":"国府本郷","zip_code":"2590111"},{"name":"高麗","zip_code":"2550001"},{"name":"寺坂","zip_code":"2590101"},{"name":"西久保","zip_code":"2590104"},{"name":"西小磯","zip_code":"2550005"},{"name":"東小磯","zip_code":"2550004"},{"name":"東町","zip_code":"2550002"},{"name":"虫窪","zip_code":"2590103"}]},{"name":"中郡二宮町","divisions":[{"name":"一色","zip_code":"2590134"},{"name":"川匂","zip_code":"2590125"},{"name":"中里","zip_code":"2590131"},{"name":"二宮","zip_code":"2590123"},{"name":"富士見が丘","zip_code":"2590122"},{"name":"松根","zip_code":"2590121"},{"name":"緑が丘","zip_code":"2590132"},{"name":"山西","zip_code":"2590124"},{"name":"百合が丘","zip_code":"2590133"}]},{"name":"足柄上郡中井町","divisions":[{"name":"井ノ口","zip_code":"2590151"},{"name":"岩倉","zip_code":"2590154"},{"name":"遠藤","zip_code":"2590141"},{"name":"鴨沢","zip_code":"2590147"},{"name":"北田","zip_code":"2590143"},{"name":"久所","zip_code":"2590142"},{"name":"古怒田","zip_code":"2590146"},{"name":"境","zip_code":"2590157"},{"name":"境別所","zip_code":"2590156"},{"name":"雑色","zip_code":"2590148"},{"name":"田中","zip_code":"2590145"},{"name":"半分形","zip_code":"2590144"},{"name":"比奈窪","zip_code":"2590153"},{"name":"藤沢","zip_code":"2590152"},{"name":"松本","zip_code":"2590155"}]},{"name":"足柄上郡大井町","divisions":[{"name":"赤田","zip_code":"2580014"},{"name":"金手","zip_code":"2580018"},{"name":"金子","zip_code":"2580019"},{"name":"上大井","zip_code":"2580016"},{"name":"篠窪","zip_code":"2580011"},{"name":"高尾","zip_code":"2580013"},{"name":"西大井","zip_code":"2580017"},{"name":"柳","zip_code":"2580012"},{"name":"山田","zip_code":"2580015"}]},{"name":"足柄上郡松田町","divisions":[{"name":"神山","zip_code":"2580002"},{"name":"松田惣領","zip_code":"2580003"},{"name":"松田庶子","zip_code":"2580004"},{"name":"寄","zip_code":"2580001"}]},{"name":"足柄上郡山北町","divisions":[{"name":"神尾田","zip_code":"2580203"},{"name":"神縄","zip_code":"2580126"},{"name":"川西","zip_code":"2580124"},{"name":"岸","zip_code":"2580112"},{"name":"玄倉","zip_code":"2580202"},{"name":"都夫良野","zip_code":"2580122"},{"name":"中川","zip_code":"2580201"},{"name":"平山","zip_code":"2580114"},{"name":"皆瀬川","zip_code":"2580121"},{"name":"向原","zip_code":"2580111"},{"name":"谷ケ","zip_code":"2580115"},{"name":"山市場","zip_code":"2580125"},{"name":"山北","zip_code":"2580113"},{"name":"湯触","zip_code":"2580123"},{"name":"世附","zip_code":"2580204"}]},{"name":"足柄上郡開成町","divisions":[{"name":"牛島","zip_code":"2580022"},{"name":"円通寺","zip_code":"2580025"},{"name":"岡野","zip_code":"2580027"},{"name":"金井島","zip_code":"2580028"},{"name":"中之名","zip_code":"2580024"},{"name":"延沢","zip_code":"2580026"},{"name":"宮台","zip_code":"2580023"},{"name":"吉田島","zip_code":"2580021"}]},{"name":"足柄下郡箱根町","divisions":[{"name":"芦之湯","zip_code":"2500523"},{"name":"大平台","zip_code":"2500405"},{"name":"木賀","zip_code":"2500402"},{"name":"小涌谷","zip_code":"2500406"},{"name":"強羅","zip_code":"2500408"},{"name":"須雲川","zip_code":"2500313"},{"name":"仙石原","zip_code":"2500631"},{"name":"底倉","zip_code":"2500403"},{"name":"塔之澤","zip_code":"2500315"},{"name":"二ノ平","zip_code":"2500407"},{"name":"箱根","zip_code":"2500521"},{"name":"畑宿","zip_code":"2500314"},{"name":"宮城野","zip_code":"2500401"},{"name":"宮ノ下","zip_code":"2500404"},{"name":"元箱根","zip_code":"2500522"},{"name":"湯本","zip_code":"2500311"},{"name":"湯本茶屋","zip_code":"2500312"}]},{"name":"足柄下郡真鶴町","divisions":[{"name":"岩","zip_code":"2590202"},{"name":"真鶴","zip_code":"2590201"}]},{"name":"足柄下郡湯河原町","divisions":[{"name":"鍛冶屋","zip_code":"2590313"},{"name":"城堀","zip_code":"2590305"},{"name":"中央","zip_code":"2590301"},{"name":"土肥","zip_code":"2590303"},{"name":"福浦","zip_code":"2590311"},{"name":"福浦鍛冶屋","zip_code":"2590317"},{"name":"福浦吉浜","zip_code":"2590316"},{"name":"宮上","zip_code":"2590314"},{"name":"宮下","zip_code":"2590304"},{"name":"門川","zip_code":"2590302"},{"name":"吉浜","zip_code":"2590312"},{"name":"吉浜福浦","zip_code":"2590318"}]},{"name":"愛甲郡愛川町","divisions":[{"name":"春日台","zip_code":"2430302"},{"name":"角田","zip_code":"2430301"},{"name":"田代","zip_code":"2430306"},{"name":"棚沢","zip_code":"2430304"},{"name":"中津","zip_code":"2430303"},{"name":"八菅山","zip_code":"2430305"},{"name":"半原","zip_code":"2430307"},{"name":"三増","zip_code":"2430308"}]},{"name":"愛甲郡清川村","divisions":[{"name":"煤ケ谷","zip_code":"2570061"},{"name":"宮ケ瀬","zip_code":"2430111"}]}]}