{"name":"新潟県","cities":[{"name":"新潟市北区","divisions":[{"name":"朝日町","zip_code":"9503315"},{"name":"彩野","zip_code":"9503377"},{"name":"石動","zip_code":"9503327"},{"name":"内島見","zip_code":"9503306"},{"name":"内沼","zip_code":"9503333"},{"name":"内沼沖","zip_code":"9503381"},{"name":"浦木","zip_code":"9503344"},{"name":"浦ノ入","zip_code":"9503305"},{"name":"大久保","zip_code":"9503363"},{"name":"大瀬柳","zip_code":"9503351"},{"name":"太田","zip_code":"9503313"},{"name":"大月","zip_code":"9503334"},{"name":"大迎","zip_code":"9503364"},{"name":"岡新田","zip_code":"9503336"},{"name":"笠柳","zip_code":"9503312"},{"name":"かぶとやま","zip_code":"9503317"},{"name":"上大月","zip_code":"9503335"},{"name":"上土地亀","zip_code":"9503343"},{"name":"上堀田","zip_code":"9503355"},{"name":"神谷内","zip_code":"9503116"},{"name":"嘉山","zip_code":"9503322"},{"name":"川西","zip_code":"9503341"},{"name":"木崎","zip_code":"9503304"},{"name":"葛塚","zip_code":"9503321"},{"name":"小杉","zip_code":"9503360"},{"name":"笹山","zip_code":"9503301"},{"name":"里飯野","zip_code":"9503337"},{"name":"三軒屋町","zip_code":"9503124"},{"name":"島見町","zip_code":"9503102"},{"name":"下大谷内","zip_code":"9503308"},{"name":"下土地亀","zip_code":"9503346"},{"name":"下早通","zip_code":"9503371"},{"name":"十二","zip_code":"9503354"},{"name":"十二前","zip_code":"9503359"},{"name":"白勢町","zip_code":"9503103"},{"name":"新富町","zip_code":"9503105"},{"name":"新鼻","zip_code":"9503331"},{"name":"新鼻乙","zip_code":"9503339"},{"name":"新鼻甲","zip_code":"9503332"},{"name":"新元島町","zip_code":"9503123"},{"name":"須戸","zip_code":"9503373"},{"name":"すみれ野","zip_code":"9503133"},{"name":"太子堂","zip_code":"9503365"},{"name":"高森","zip_code":"9503367"},{"name":"高森新田","zip_code":"9503362"},{"name":"太夫浜","zip_code":"9503112"},{"name":"太夫浜新町","zip_code":"9503111"},{"name":"太郎代","zip_code":"9503101"},{"name":"つくし野","zip_code":"9503135"},{"name":"東栄町","zip_code":"9503323"},{"name":"樋ノ入","zip_code":"9503307"},{"name":"鳥屋","zip_code":"9503316"},{"name":"長戸","zip_code":"9503345"},{"name":"長戸呂","zip_code":"9503353"},{"name":"長戸呂新田","zip_code":"9503352"},{"name":"長場","zip_code":"9503338"},{"name":"名目所","zip_code":"9503114"},{"name":"新井郷","zip_code":"9503361"},{"name":"新崎","zip_code":"9503134"},{"name":"濁川","zip_code":"9503131"},{"name":"西名目所","zip_code":"9503122"},{"name":"灰塚","zip_code":"9503358"},{"name":"白新町","zip_code":"9503325"},{"name":"浜浦","zip_code":"9503302"},{"name":"早通","zip_code":"9503372"},{"name":"早通北","zip_code":"9503376"},{"name":"早通南","zip_code":"9503375"},{"name":"平林","zip_code":"9503357"},{"name":"仏伝","zip_code":"9503374"},{"name":"北陽","zip_code":"9503309"},{"name":"細山","zip_code":"9500102"},{"name":"前新田","zip_code":"9503324"},{"name":"前新田沖","zip_code":"9503328"},{"name":"松栄町","zip_code":"9503113"},{"name":"松潟","zip_code":"9503132"},{"name":"松浜","zip_code":"9503126"},{"name":"松浜新町","zip_code":"9503115"},{"name":"松浜町","zip_code":"9503121"},{"name":"松浜東町","zip_code":"9503128"},{"name":"松浜本町","zip_code":"9503125"},{"name":"松浜みなと","zip_code":"9503127"},{"name":"美里","zip_code":"9503342"},{"name":"三ツ森川原","zip_code":"9503369"},{"name":"三ツ屋","zip_code":"9503366"},{"name":"村新田","zip_code":"9503314"},{"name":"森下","zip_code":"9503368"},{"name":"柳原","zip_code":"9503326"},{"name":"山飯野","zip_code":"9503356"},{"name":"横井","zip_code":"9503311"},{"name":"横越","zip_code":"9503350"},{"name":"横土居","zip_code":"9503303"}]},{"name":"新潟市東区","divisions":[{"name":"秋葉","zip_code":"9500054"},{"name":"秋葉通","zip_code":"9500052"},{"name":"粟山","zip_code":"9500843"},{"name":"石山","zip_code":"9500852"},{"name":"石山団地","zip_code":"9500834"},{"name":"石動","zip_code":"9500805"},{"name":"江口","zip_code":"9500101"},{"name":"榎","zip_code":"9500884"},{"name":"榎町","zip_code":"9500881"},{"name":"海老ケ瀬","zip_code":"9500806"},{"name":"海老ケ瀬新町","zip_code":"9500808"},{"name":"王瀬新町","zip_code":"9500882"},{"name":"逢谷内","zip_code":"9500814"},{"name":"大形本町","zip_code":"9500813"},{"name":"大山","zip_code":"9500067"},{"name":"岡山","zip_code":"9500821"},{"name":"卸新町","zip_code":"9500863"},{"name":"上王瀬町","zip_code":"9500063"},{"name":"上木戸","zip_code":"9500891"},{"name":"亀田中島","zip_code":"9500161"},{"name":"鴎島町","zip_code":"9500883"},{"name":"北葉町","zip_code":"9500055"},{"name":"北山","zip_code":"9500116"},{"name":"空港西","zip_code":"9500036"},{"name":"下場","zip_code":"9500831"},{"name":"下場新町","zip_code":"9500832"},{"name":"下場本町","zip_code":"9500833"},{"name":"幸栄","zip_code":"9500022"},{"name":"河渡","zip_code":"9500024"},{"name":"河渡庚","zip_code":"9500015"},{"name":"河渡甲","zip_code":"9500032"},{"name":"河渡新町","zip_code":"9500033"},{"name":"河渡本町","zip_code":"9500016"},{"name":"江南","zip_code":"9500855"},{"name":"向陽","zip_code":"9500011"},{"name":"小金台","zip_code":"9500028"},{"name":"小金町","zip_code":"9500026"},{"name":"材木町","zip_code":"9500811"},{"name":"猿ケ馬場","zip_code":"9500835"},{"name":"下山","zip_code":"9500003"},{"name":"紫竹","zip_code":"9500864"},{"name":"紫竹卸新町","zip_code":"9500868"},{"name":"紫竹山","zip_code":"9500914"},{"name":"下木戸","zip_code":"9500885"},{"name":"白銀","zip_code":"9500013"},{"name":"新石山","zip_code":"9500851"},{"name":"新岡山","zip_code":"9500822"},{"name":"新川町","zip_code":"9500004"},{"name":"新松崎","zip_code":"9500017"},{"name":"神明町","zip_code":"9500045"},{"name":"末広町","zip_code":"9500071"},{"name":"太平","zip_code":"9500005"},{"name":"宝町","zip_code":"9500053"},{"name":"竹尾","zip_code":"9500862"},{"name":"竹尾卸新町","zip_code":"9500867"},{"name":"児池","zip_code":"9500825"},{"name":"長者町","zip_code":"9500066"},{"name":"月見町","zip_code":"9500061"},{"name":"津島屋","zip_code":"9500801"},{"name":"寺山","zip_code":"9500892"},{"name":"東新町","zip_code":"9500065"},{"name":"東明","zip_code":"9500853"},{"name":"中木戸","zip_code":"9500886"},{"name":"中興野","zip_code":"9500803"},{"name":"中島","zip_code":"9500824"},{"name":"中野山","zip_code":"9500841"},{"name":"中山","zip_code":"9500861"},{"name":"錦町","zip_code":"9500062"},{"name":"西野","zip_code":"9500106"},{"name":"根室新町","zip_code":"9500002"},{"name":"はなみずき","zip_code":"9500893"},{"name":"浜町","zip_code":"9500046"},{"name":"浜谷町","zip_code":"9500034"},{"name":"東中島","zip_code":"9500823"},{"name":"東中野山","zip_code":"9500836"},{"name":"東臨港町","zip_code":"9500042"},{"name":"一日市","zip_code":"9500802"},{"name":"藤見町","zip_code":"9500025"},{"name":"船江町","zip_code":"9500031"},{"name":"古川町","zip_code":"9500056"},{"name":"古湊町","zip_code":"9500044"},{"name":"平和町","zip_code":"9500035"},{"name":"牡丹山","zip_code":"9500872"},{"name":"本所","zip_code":"9500804"},{"name":"松崎","zip_code":"9500014"},{"name":"松島","zip_code":"9500064"},{"name":"松園","zip_code":"9500023"},{"name":"松浜町","zip_code":"9500001"},{"name":"松和町","zip_code":"9500027"},{"name":"南紫竹","zip_code":"9500854"},{"name":"もえぎ野","zip_code":"9500842"},{"name":"木工新町","zip_code":"9500807"},{"name":"物見山","zip_code":"9500021"},{"name":"桃山町","zip_code":"9500051"},{"name":"柳ケ丘","zip_code":"9500809"},{"name":"山木戸","zip_code":"9500871"},{"name":"山の下町","zip_code":"9500057"},{"name":"有楽","zip_code":"9500012"},{"name":"豊","zip_code":"9500812"},{"name":"臨海町","zip_code":"9500047"},{"name":"臨港","zip_code":"9500043"},{"name":"臨港町","zip_code":"9500041"}]},{"name":"新潟市中央区","divisions":[{"name":"相生町","zip_code":"9518037"},{"name":"赤坂町","zip_code":"9518025"},{"name":"明石","zip_code":"9500084"},{"name":"曙町","zip_code":"9518021"},{"name":"旭町通","zip_code":"9518122"},{"name":"愛宕","zip_code":"9500944"},{"name":"鐙","zip_code":"9500913"},{"name":"鐙西","zip_code":"9500915"},{"name":"網川原","zip_code":"9500964"},{"name":"有明大橋町","zip_code":"9518146"},{"name":"有明台","zip_code":"9518145"},{"name":"医学町通","zip_code":"9518124"},{"name":"礎町通","zip_code":"9518055"},{"name":"礎町通上一ノ町","zip_code":"9518054"},{"name":"一番堀通町","zip_code":"9518132"},{"name":"稲荷町","zip_code":"9518018"},{"name":"入船町","zip_code":"9518011"},{"name":"祝町","zip_code":"9518074"},{"name":"浮洲町","zip_code":"9518072"},{"name":"鵜ノ子","zip_code":"9500157"},{"name":"姥ケ山","zip_code":"9500923"},{"name":"海辺町","zip_code":"9518001"},{"name":"上沼","zip_code":"9501148"},{"name":"営所通","zip_code":"9518114"},{"name":"烏帽子町","zip_code":"9518077"},{"name":"近江","zip_code":"9500971"},{"name":"大島","zip_code":"9500953"},{"name":"翁町","zip_code":"9518076"},{"name":"祖父興野","zip_code":"9501144"},{"name":"親松","zip_code":"9500952"},{"name":"鏡が岡","zip_code":"9500074"},{"name":"嘉木","zip_code":"9501133"},{"name":"春日町","zip_code":"9500903"},{"name":"学校裏町","zip_code":"9518125"},{"name":"学校町通","zip_code":"9518126"},{"name":"上近江","zip_code":"9500973"},{"name":"上大川前通","zip_code":"9518068"},{"name":"上所","zip_code":"9500994"},{"name":"上所上","zip_code":"9500992"},{"name":"上所中","zip_code":"9500993"},{"name":"亀田早通","zip_code":"9500145"},{"name":"川岸町","zip_code":"9518133"},{"name":"川端町","zip_code":"9518053"},{"name":"神道寺","zip_code":"9500983"},{"name":"神道寺南","zip_code":"9500986"},{"name":"蒲原町","zip_code":"9500083"},{"name":"北大畑町","zip_code":"9518105"},{"name":"北多門町","zip_code":"9518048"},{"name":"北浜通","zip_code":"9518111"},{"name":"北毘沙門町","zip_code":"9518031"},{"name":"寄附町","zip_code":"9518081"},{"name":"久蔵興野","zip_code":"9501145"},{"name":"窪田町","zip_code":"9518008"},{"name":"京王","zip_code":"9500921"},{"name":"高志","zip_code":"9500926"},{"name":"寿町","zip_code":"9518073"},{"name":"湖南","zip_code":"9501151"},{"name":"小張木","zip_code":"9500942"},{"name":"幸町","zip_code":"9500907"},{"name":"幸西","zip_code":"9500908"},{"name":"栄町","zip_code":"9518071"},{"name":"魁町","zip_code":"9518034"},{"name":"桜木町","zip_code":"9500949"},{"name":"笹口","zip_code":"9500911"},{"name":"三和町","zip_code":"9500081"},{"name":"汐見台","zip_code":"9518156"},{"name":"紫竹","zip_code":"9500864"},{"name":"紫竹山","zip_code":"9500914"},{"name":"信濃町","zip_code":"9518152"},{"name":"下旭町","zip_code":"9518123"},{"name":"下大川前通","zip_code":"9518052"},{"name":"下所島","zip_code":"9500991"},{"name":"鐘木","zip_code":"9501141"},{"name":"新光町","zip_code":"9500965"},{"name":"新島町通","zip_code":"9518051"},{"name":"新和","zip_code":"9500972"},{"name":"水道町","zip_code":"9518121"},{"name":"菅根町","zip_code":"9518088"},{"name":"住吉町","zip_code":"9518042"},{"name":"清五郎","zip_code":"9500933"},{"name":"関新","zip_code":"9518141"},{"name":"関南町","zip_code":"9518144"},{"name":"関屋","zip_code":"9518134"},{"name":"関屋大川前","zip_code":"9518142"},{"name":"関屋御船蔵町","zip_code":"9518163"},{"name":"関屋金鉢山町","zip_code":"9518165"},{"name":"関屋金衛町","zip_code":"9518167"},{"name":"関屋下川原町","zip_code":"9518127"},{"name":"関屋昭和町","zip_code":"9518164"},{"name":"関屋新町通","zip_code":"9518135"},{"name":"関屋田町","zip_code":"9518136"},{"name":"関屋浜松町","zip_code":"9518166"},{"name":"関屋本村町","zip_code":"9518162"},{"name":"関屋松波町","zip_code":"9518161"},{"name":"関屋恵町","zip_code":"9518143"},{"name":"曽川","zip_code":"9501136"},{"name":"太右エ門新田","zip_code":"9501146"},{"name":"高美町","zip_code":"9501147"},{"name":"田中町","zip_code":"9518103"},{"name":"田町","zip_code":"9518016"},{"name":"俵柳","zip_code":"9501143"},{"name":"忠蔵町","zip_code":"9518007"},{"name":"月町","zip_code":"9518057"},{"name":"附船町","zip_code":"9518006"},{"name":"出来島","zip_code":"9500962"},{"name":"寺裏通","zip_code":"9518115"},{"name":"寺山町","zip_code":"9518085"},{"name":"天神","zip_code":"9500917"},{"name":"天神尾","zip_code":"9500905"},{"name":"天明町","zip_code":"9500077"},{"name":"鳥屋野","zip_code":"9500951"},{"name":"豊照町","zip_code":"9518033"},{"name":"中大畑町","zip_code":"9518108"},{"name":"長潟","zip_code":"9500932"},{"name":"長嶺町","zip_code":"9500085"},{"name":"鍋潟新田","zip_code":"9501131"},{"name":"並木町","zip_code":"9518045"},{"name":"西受地町","zip_code":"9518082"},{"name":"西馬越","zip_code":"9500866"},{"name":"西厩島町","zip_code":"9518043"},{"name":"西大畑町","zip_code":"9518104"},{"name":"西中町","zip_code":"9518118"},{"name":"西船見町","zip_code":"9518101"},{"name":"西堀通","zip_code":"9518061"},{"name":"西堀前通","zip_code":"9518062"},{"name":"西湊町通","zip_code":"9518026"},{"name":"沼垂西","zip_code":"9500076"},{"name":"沼垂東","zip_code":"9500075"},{"name":"白山浦","zip_code":"9518131"},{"name":"白山浦新町通","zip_code":"9518137"},{"name":"艀川岸町","zip_code":"9518017"},{"name":"花園","zip_code":"9500086"},{"name":"花町","zip_code":"9518056"},{"name":"浜浦町","zip_code":"9518151"},{"name":"早川町","zip_code":"9518024"},{"name":"万代","zip_code":"9500088"},{"name":"万代島","zip_code":"9500078"},{"name":"東入船町","zip_code":"9518012"},{"name":"東受地町","zip_code":"9518087"},{"name":"東厩島町","zip_code":"9518044"},{"name":"東大通","zip_code":"9500087"},{"name":"東大畑通","zip_code":"9518106"},{"name":"東幸町","zip_code":"9500906"},{"name":"東出来島","zip_code":"9500961"},{"name":"東中通","zip_code":"9518116"},{"name":"東万代町","zip_code":"9500082"},{"name":"東堀通","zip_code":"9518065"},{"name":"東堀前通","zip_code":"9518066"},{"name":"東湊町通","zip_code":"9518028"},{"name":"日の出","zip_code":"9500073"},{"name":"雲雀町","zip_code":"9518003"},{"name":"二葉町","zip_code":"9518102"},{"name":"船場町","zip_code":"9518035"},{"name":"船見町","zip_code":"9518002"},{"name":"古町通","zip_code":"9518063"},{"name":"文京町","zip_code":"9518153"},{"name":"弁天","zip_code":"9500901"},{"name":"弁天橋通","zip_code":"9500925"},{"name":"堀之内","zip_code":"9500981"},{"name":"堀之内南","zip_code":"9500982"},{"name":"堀割町","zip_code":"9518154"},{"name":"本町通","zip_code":"9518067"},{"name":"本間町","zip_code":"9518041"},{"name":"秣川岸通","zip_code":"9518046"},{"name":"松岡町","zip_code":"9518015"},{"name":"丸潟新田","zip_code":"9501132"},{"name":"見方町","zip_code":"9518032"},{"name":"美咲町","zip_code":"9500954"},{"name":"水島町","zip_code":"9500904"},{"name":"緑町","zip_code":"9518014"},{"name":"湊町通","zip_code":"9518027"},{"name":"南大畑町","zip_code":"9518107"},{"name":"南笹口","zip_code":"9500912"},{"name":"南多門町","zip_code":"9518047"},{"name":"南出来島","zip_code":"9500963"},{"name":"南長潟","zip_code":"9500931"},{"name":"南浜通","zip_code":"9518112"},{"name":"南万代町","zip_code":"9500902"},{"name":"南毘沙門町","zip_code":"9518038"},{"name":"南横堀町","zip_code":"9518117"},{"name":"美の里","zip_code":"9500924"},{"name":"室町","zip_code":"9518005"},{"name":"女池","zip_code":"9500941"},{"name":"女池上山","zip_code":"9500945"},{"name":"女池北","zip_code":"9500947"},{"name":"女池神明","zip_code":"9500943"},{"name":"女池西","zip_code":"9500946"},{"name":"女池東","zip_code":"9500984"},{"name":"女池南","zip_code":"9500948"},{"name":"元祝町","zip_code":"9518075"},{"name":"本馬越","zip_code":"9500865"},{"name":"元下島町","zip_code":"9518084"},{"name":"八千代","zip_code":"9500909"},{"name":"柳島町","zip_code":"9518013"},{"name":"山木戸","zip_code":"9500871"},{"name":"山田町","zip_code":"9518004"},{"name":"山二ツ","zip_code":"9500922"},{"name":"弥生町","zip_code":"9518147"},{"name":"夕栄町","zip_code":"9518023"},{"name":"雪町","zip_code":"9518058"},{"name":"横一番町","zip_code":"9518064"},{"name":"横七番町通","zip_code":"9518083"},{"name":"横六番町","zip_code":"9518022"},{"name":"芳町","zip_code":"9518036"},{"name":"四ツ屋町","zip_code":"9518078"},{"name":"米山","zip_code":"9500916"},{"name":"寄合町","zip_code":"9518086"},{"name":"寄居町","zip_code":"9518113"},{"name":"竜が島","zip_code":"9500072"},{"name":"和合町","zip_code":"9500985"}]},{"name":"新潟市江南区","divisions":[{"name":"茜ケ丘","zip_code":"9500212"},{"name":"阿賀野","zip_code":"9500217"},{"name":"曙町","zip_code":"9500134"},{"name":"旭","zip_code":"9500166"},{"name":"天野","zip_code":"9501134"},{"name":"粟山","zip_code":"9500843"},{"name":"泉町","zip_code":"9500155"},{"name":"稲葉","zip_code":"9500122"},{"name":"いぶき野","zip_code":"9500218"},{"name":"うぐいす","zip_code":"9500214"},{"name":"鵜ノ子","zip_code":"9500157"},{"name":"姥ケ山","zip_code":"9500923"},{"name":"梅見台","zip_code":"9500140"},{"name":"江口","zip_code":"9500101"},{"name":"大淵","zip_code":"9500105"},{"name":"荻曽根","zip_code":"9500154"},{"name":"祖父興野","zip_code":"9501144"},{"name":"嘉木","zip_code":"9501133"},{"name":"嘉瀬","zip_code":"9500323"},{"name":"上和田","zip_code":"9500326"},{"name":"亀田東町","zip_code":"9500124"},{"name":"亀田大月","zip_code":"9500162"},{"name":"亀田工業団地","zip_code":"9500141"},{"name":"亀田向陽","zip_code":"9500121"},{"name":"亀田新明町","zip_code":"9500125"},{"name":"亀田水道町","zip_code":"9500123"},{"name":"亀田中島","zip_code":"9500161"},{"name":"亀田長潟","zip_code":"9500169"},{"name":"亀田早通","zip_code":"9500145"},{"name":"亀田本町","zip_code":"9500164"},{"name":"亀田緑町","zip_code":"9500152"},{"name":"亀田四ツ興野","zip_code":"9500151"},{"name":"北山","zip_code":"9500116"},{"name":"木津","zip_code":"9500206"},{"name":"木津工業団地","zip_code":"9500213"},{"name":"久蔵興野","zip_code":"9501145"},{"name":"蔵岡","zip_code":"9500103"},{"name":"小杉","zip_code":"9500203"},{"name":"駒込","zip_code":"9500201"},{"name":"酒屋町","zip_code":"9500324"},{"name":"笹山","zip_code":"9500104"},{"name":"五月町","zip_code":"9500167"},{"name":"早苗","zip_code":"9500156"},{"name":"三條岡","zip_code":"9500129"},{"name":"三百地","zip_code":"9500107"},{"name":"下早通","zip_code":"9500149"},{"name":"下早通柳田","zip_code":"9500150"},{"name":"鐘木","zip_code":"9501141"},{"name":"城所","zip_code":"9500136"},{"name":"城山","zip_code":"9500137"},{"name":"砂岡","zip_code":"9500132"},{"name":"砂崩","zip_code":"9500133"},{"name":"砂山","zip_code":"9500130"},{"name":"諏訪","zip_code":"9500127"},{"name":"清五郎","zip_code":"9500933"},{"name":"沢海","zip_code":"9500205"},{"name":"曽川","zip_code":"9501136"},{"name":"楚川","zip_code":"9501142"},{"name":"曽野木","zip_code":"9501135"},{"name":"太右エ門新田","zip_code":"9501146"},{"name":"俵柳","zip_code":"9501143"},{"name":"茅野山","zip_code":"9500144"},{"name":"手代山","zip_code":"9500139"},{"name":"所島","zip_code":"9500135"},{"name":"泥潟","zip_code":"9500142"},{"name":"直り山","zip_code":"9500111"},{"name":"長潟","zip_code":"9500147"},{"name":"中野山","zip_code":"9500841"},{"name":"鍋潟新田","zip_code":"9501131"},{"name":"西野","zip_code":"9500106"},{"name":"西町","zip_code":"9500165"},{"name":"西山","zip_code":"9500113"},{"name":"二本木","zip_code":"9500207"},{"name":"花ノ牧","zip_code":"9500325"},{"name":"早通","zip_code":"9500168"},{"name":"東早通","zip_code":"9500148"},{"name":"東船場","zip_code":"9500163"},{"name":"東本町","zip_code":"9500126"},{"name":"日水","zip_code":"9500138"},{"name":"平賀","zip_code":"9500329"},{"name":"平山","zip_code":"9500215"},{"name":"袋津","zip_code":"9500131"},{"name":"藤山","zip_code":"9500202"},{"name":"船戸山","zip_code":"9500153"},{"name":"細山","zip_code":"9500102"},{"name":"舞潟","zip_code":"9500328"},{"name":"松山","zip_code":"9500112"},{"name":"丸潟","zip_code":"9500146"},{"name":"丸潟新田","zip_code":"9501132"},{"name":"丸山","zip_code":"9500115"},{"name":"茗荷谷","zip_code":"9500114"},{"name":"元町","zip_code":"9500143"},{"name":"山二ツ","zip_code":"9500922"},{"name":"横越","zip_code":"9500204"},{"name":"横越上町","zip_code":"9500210"},{"name":"横越川根町","zip_code":"9500211"},{"name":"横越中央","zip_code":"9500208"},{"name":"横越東町","zip_code":"9500209"},{"name":"両川","zip_code":"9500322"},{"name":"和田","zip_code":"9500327"},{"name":"割野","zip_code":"9500321"}]},{"name":"新潟市秋葉区","divisions":[{"name":"あおば通","zip_code":"9560017"},{"name":"秋葉","zip_code":"9560832"},{"name":"朝日","zip_code":"9560835"},{"name":"天ヶ沢","zip_code":"9560114"},{"name":"市新","zip_code":"9560824"},{"name":"市之瀬","zip_code":"9560002"},{"name":"飯柳","zip_code":"9560853"},{"name":"梅ノ木","zip_code":"9560043"},{"name":"浦興野","zip_code":"9560044"},{"name":"大秋","zip_code":"9560054"},{"name":"大鹿","zip_code":"9560004"},{"name":"大関","zip_code":"9560827"},{"name":"岡田","zip_code":"9560826"},{"name":"荻島","zip_code":"9560804"},{"name":"荻野町","zip_code":"9560012"},{"name":"長割","zip_code":"9560003"},{"name":"覚路津","zip_code":"9560001"},{"name":"金沢町","zip_code":"9560851"},{"name":"金津","zip_code":"9560845"},{"name":"金屋","zip_code":"9560823"},{"name":"鎌倉","zip_code":"9560115"},{"name":"柄目木","zip_code":"9560852"},{"name":"川口","zip_code":"9560015"},{"name":"蒲ヶ沢","zip_code":"9560846"},{"name":"川根","zip_code":"9560055"},{"name":"北","zip_code":"9560828"},{"name":"北潟","zip_code":"9560026"},{"name":"北上","zip_code":"9560861"},{"name":"北上新田","zip_code":"9560021"},{"name":"草水町","zip_code":"9560833"},{"name":"栗宮","zip_code":"9560005"},{"name":"車場","zip_code":"9560011"},{"name":"こがね町","zip_code":"9560016"},{"name":"小口","zip_code":"9560834"},{"name":"小須戸","zip_code":"9560101"},{"name":"古田","zip_code":"9560025"},{"name":"古田ノ内大野開","zip_code":"9560817"},{"name":"小戸上組","zip_code":"9560006"},{"name":"小戸下組","zip_code":"9560007"},{"name":"子成場","zip_code":"9560045"},{"name":"小向","zip_code":"9560122"},{"name":"小屋場","zip_code":"9560041"},{"name":"さつき野","zip_code":"9560022"},{"name":"三枚潟","zip_code":"9560051"},{"name":"塩谷","zip_code":"9560844"},{"name":"下興野","zip_code":"9560867"},{"name":"下興野町","zip_code":"9560866"},{"name":"下新","zip_code":"9560825"},{"name":"新栄町","zip_code":"9560033"},{"name":"新金沢町","zip_code":"9560815"},{"name":"新郷屋","zip_code":"9560822"},{"name":"新保","zip_code":"9560112"},{"name":"新町","zip_code":"9560862"},{"name":"水田","zip_code":"9560123"},{"name":"善道町","zip_code":"9560865"},{"name":"田家","zip_code":"9560836"},{"name":"大安寺","zip_code":"9560813"},{"name":"大蔵","zip_code":"9560801"},{"name":"滝谷町","zip_code":"9560854"},{"name":"滝谷本町","zip_code":"9560855"},{"name":"田島","zip_code":"9560013"},{"name":"出戸","zip_code":"9560046"},{"name":"中沢町","zip_code":"9560831"},{"name":"中新田","zip_code":"9560812"},{"name":"中野","zip_code":"9560805"},{"name":"中村","zip_code":"9560036"},{"name":"七日町","zip_code":"9560802"},{"name":"新津","zip_code":"9560031"},{"name":"新津東町","zip_code":"9560816"},{"name":"新津本町","zip_code":"9560864"},{"name":"新津緑町","zip_code":"9560034"},{"name":"新津四ツ興野","zip_code":"9560057"},{"name":"西金沢","zip_code":"9560818"},{"name":"西島","zip_code":"9560842"},{"name":"西古津","zip_code":"9560037"},{"name":"日宝町","zip_code":"9560863"},{"name":"野方","zip_code":"9560053"},{"name":"東金沢","zip_code":"9560814"},{"name":"東島","zip_code":"9560841"},{"name":"福島","zip_code":"9560014"},{"name":"舟戸","zip_code":"9560116"},{"name":"古津","zip_code":"9560847"},{"name":"程島","zip_code":"9560035"},{"name":"松ヶ丘","zip_code":"9560117"},{"name":"満願寺","zip_code":"9560811"},{"name":"みそら野","zip_code":"9560806"},{"name":"三津屋","zip_code":"9560052"},{"name":"南町","zip_code":"9560032"},{"name":"美幸町","zip_code":"9560023"},{"name":"美善","zip_code":"9560027"},{"name":"結","zip_code":"9560803"},{"name":"矢代田","zip_code":"9560113"},{"name":"山谷町","zip_code":"9560024"},{"name":"横川浜","zip_code":"9560121"},{"name":"吉岡町","zip_code":"9560837"},{"name":"竜玄","zip_code":"9560111"},{"name":"六郷","zip_code":"9560821"},{"name":"蕨曽根","zip_code":"9560056"},{"name":"割町","zip_code":"9560843"}]},{"name":"新潟市南区","divisions":[{"name":"赤渋","zip_code":"9501411"},{"name":"朝捲","zip_code":"9501413"},{"name":"味方","zip_code":"9501261"},{"name":"鰺潟","zip_code":"9501227"},{"name":"天野","zip_code":"9501134"},{"name":"飯島","zip_code":"9501447"},{"name":"居宿","zip_code":"9501251"},{"name":"和泉","zip_code":"9501471"},{"name":"犬帰新田","zip_code":"9501403"},{"name":"茨曽根","zip_code":"9501456"},{"name":"鋳物師興野","zip_code":"9501442"},{"name":"兎新田","zip_code":"9501453"},{"name":"牛崎","zip_code":"9501444"},{"name":"臼井","zip_code":"9501412"},{"name":"獺ヶ通","zip_code":"9501401"},{"name":"浦梨","zip_code":"9501472"},{"name":"大倉","zip_code":"9501252"},{"name":"大倉新田","zip_code":"9501253"},{"name":"大通","zip_code":"9501201"},{"name":"大通黄金","zip_code":"9501203"},{"name":"大通西","zip_code":"9501204"},{"name":"大通南","zip_code":"9501202"},{"name":"大別當","zip_code":"9501305"},{"name":"沖新保","zip_code":"9501466"},{"name":"上浦","zip_code":"9501428"},{"name":"上木山","zip_code":"9501474"},{"name":"上塩俵","zip_code":"9501244"},{"name":"上新田","zip_code":"9501454"},{"name":"上道潟","zip_code":"9501465"},{"name":"上八枚","zip_code":"9501431"},{"name":"上曲通","zip_code":"9501302"},{"name":"神屋","zip_code":"9501221"},{"name":"北田中","zip_code":"9501237"},{"name":"木滑","zip_code":"9501311"},{"name":"櫛笥","zip_code":"9501434"},{"name":"蜘手興野","zip_code":"9501441"},{"name":"小坂","zip_code":"9501231"},{"name":"小蔵子","zip_code":"9501414"},{"name":"山王","zip_code":"9501255"},{"name":"山王新田","zip_code":"9501256"},{"name":"七軒","zip_code":"9501212"},{"name":"七軒町","zip_code":"9501225"},{"name":"清水","zip_code":"9501457"},{"name":"下木山","zip_code":"9501473"},{"name":"下塩俵","zip_code":"9501241"},{"name":"下道潟","zip_code":"9501464"},{"name":"下八枚","zip_code":"9501424"},{"name":"下曲通","zip_code":"9501301"},{"name":"下山崎","zip_code":"9501246"},{"name":"十五間","zip_code":"9501232"},{"name":"十二道島","zip_code":"9501432"},{"name":"上下諏訪木","zip_code":"9501214"},{"name":"庄瀬","zip_code":"9501446"},{"name":"次郎右エ門興野","zip_code":"9501433"},{"name":"白根","zip_code":"9501217"},{"name":"白根東町","zip_code":"9501222"},{"name":"白根魚町","zip_code":"9501218"},{"name":"白根水道町","zip_code":"9501224"},{"name":"白根ノ内七軒","zip_code":"9501216"},{"name":"白根日の出町","zip_code":"9501223"},{"name":"白根古川","zip_code":"9501211"},{"name":"白根四ツ興野","zip_code":"9501226"},{"name":"新生町","zip_code":"9501426"},{"name":"新山崎町","zip_code":"9501245"},{"name":"親和町","zip_code":"9501209"},{"name":"杉菜","zip_code":"9501208"},{"name":"助次右エ門組","zip_code":"9501215"},{"name":"蔵主","zip_code":"9501462"},{"name":"大郷","zip_code":"9501404"},{"name":"田尾","zip_code":"9501436"},{"name":"高井興野","zip_code":"9501235"},{"name":"高井東","zip_code":"9501236"},{"name":"田中","zip_code":"9501477"},{"name":"月潟","zip_code":"9501304"},{"name":"釣寄","zip_code":"9501313"},{"name":"釣寄新","zip_code":"9501312"},{"name":"戸石","zip_code":"9501425"},{"name":"戸頭","zip_code":"9501475"},{"name":"中小見","zip_code":"9501423"},{"name":"中塩俵","zip_code":"9501242"},{"name":"中山","zip_code":"9501421"},{"name":"七穂","zip_code":"9501254"},{"name":"鍋潟","zip_code":"9501437"},{"name":"新飯田","zip_code":"9501455"},{"name":"西笠巻","zip_code":"9501416"},{"name":"西笠巻新田","zip_code":"9501417"},{"name":"西萱場","zip_code":"9501303"},{"name":"西酒屋","zip_code":"9501402"},{"name":"西白根","zip_code":"9501262"},{"name":"根岸","zip_code":"9501234"},{"name":"能登","zip_code":"9501213"},{"name":"東笠巻","zip_code":"9501405"},{"name":"東笠巻新田","zip_code":"9501406"},{"name":"東萱場","zip_code":"9501467"},{"name":"東長嶋","zip_code":"9501314"},{"name":"菱潟","zip_code":"9501443"},{"name":"菱潟新田","zip_code":"9501445"},{"name":"引越","zip_code":"9501415"},{"name":"平潟","zip_code":"9501461"},{"name":"平潟新田","zip_code":"9501463"},{"name":"福島","zip_code":"9501344"},{"name":"古川新田","zip_code":"9501452"},{"name":"平成町","zip_code":"9501476"},{"name":"保坂","zip_code":"9501233"},{"name":"堀掛","zip_code":"9501422"},{"name":"真木","zip_code":"9501451"},{"name":"松橋","zip_code":"9501243"},{"name":"万年","zip_code":"9501435"},{"name":"山崎興野","zip_code":"9501247"},{"name":"吉江","zip_code":"9501258"},{"name":"吉田新田","zip_code":"9501257"},{"name":"鷲ノ木新田","zip_code":"9501407"}]},{"name":"新潟市西区","divisions":[{"name":"青山","zip_code":"9502002"},{"name":"青山新町","zip_code":"9502006"},{"name":"青山水道","zip_code":"9502005"},{"name":"赤塚","zip_code":"9502261"},{"name":"有明町","zip_code":"9502073"},{"name":"五十嵐一の町","zip_code":"9502101"},{"name":"五十嵐二の町","zip_code":"9502102"},{"name":"五十嵐三の町","zip_code":"9502171"},{"name":"五十嵐三の町北","zip_code":"9502176"},{"name":"五十嵐三の町中","zip_code":"9502177"},{"name":"五十嵐三の町西","zip_code":"9502174"},{"name":"五十嵐三の町東","zip_code":"9502173"},{"name":"五十嵐三の町南","zip_code":"9502175"},{"name":"五十嵐上崎山","zip_code":"9502155"},{"name":"五十嵐下崎山","zip_code":"9502152"},{"name":"五十嵐中島","zip_code":"9502162"},{"name":"五十嵐西","zip_code":"9502161"},{"name":"五十嵐東","zip_code":"9502045"},{"name":"板井","zip_code":"9501121"},{"name":"内野潟端","zip_code":"9502141"},{"name":"内野潟向","zip_code":"9502154"},{"name":"内野上新町","zip_code":"9502172"},{"name":"内野崎山","zip_code":"9502153"},{"name":"内野関場","zip_code":"9502156"},{"name":"内野戸中才","zip_code":"9502142"},{"name":"内野中浜","zip_code":"9502164"},{"name":"内野西","zip_code":"9502151"},{"name":"内野早角","zip_code":"9502143"},{"name":"内野町","zip_code":"9502112"},{"name":"内野山手","zip_code":"9502113"},{"name":"浦山","zip_code":"9502001"},{"name":"大潟","zip_code":"9501127"},{"name":"大友","zip_code":"9502126"},{"name":"大野","zip_code":"9502037"},{"name":"大野町","zip_code":"9501111"},{"name":"緒立流通","zip_code":"9501124"},{"name":"小見郷屋","zip_code":"9502137"},{"name":"笠木","zip_code":"9502123"},{"name":"金巻","zip_code":"9501112"},{"name":"金巻新田","zip_code":"9502146"},{"name":"上新栄町","zip_code":"9502076"},{"name":"神山","zip_code":"9502255"},{"name":"亀貝","zip_code":"9502033"},{"name":"勘助郷屋","zip_code":"9502136"},{"name":"北場","zip_code":"9501126"},{"name":"木場","zip_code":"9501122"},{"name":"木山","zip_code":"9502253"},{"name":"黒鳥","zip_code":"9501123"},{"name":"小新","zip_code":"9502023"},{"name":"小新大通","zip_code":"9502027"},{"name":"小新西","zip_code":"9502024"},{"name":"小新南","zip_code":"9502028"},{"name":"小瀬","zip_code":"9502132"},{"name":"小針","zip_code":"9502022"},{"name":"小針が丘","zip_code":"9502013"},{"name":"小針上山","zip_code":"9502011"},{"name":"小針台","zip_code":"9502012"},{"name":"小針西","zip_code":"9502014"},{"name":"小針藤山","zip_code":"9502021"},{"name":"小針南","zip_code":"9502025"},{"name":"小針南台","zip_code":"9502026"},{"name":"小平方","zip_code":"9501114"},{"name":"坂井","zip_code":"9502042"},{"name":"坂井砂山","zip_code":"9502044"},{"name":"坂井東","zip_code":"9502041"},{"name":"坂田","zip_code":"9502263"},{"name":"新田","zip_code":"9502034"},{"name":"新通","zip_code":"9502035"},{"name":"新通西","zip_code":"9502036"},{"name":"新通南","zip_code":"9502038"},{"name":"新中浜","zip_code":"9502163"},{"name":"須賀","zip_code":"9502043"},{"name":"関屋","zip_code":"9518134"},{"name":"関屋堀割町","zip_code":"9518155"},{"name":"善久","zip_code":"9501102"},{"name":"曽和","zip_code":"9502144"},{"name":"大学南","zip_code":"9502111"},{"name":"田潟","zip_code":"9502124"},{"name":"高山","zip_code":"9502122"},{"name":"田島","zip_code":"9502145"},{"name":"立仏","zip_code":"9501103"},{"name":"中権寺","zip_code":"9502251"},{"name":"寺尾","zip_code":"9502052"},{"name":"寺尾朝日通","zip_code":"9502051"},{"name":"寺尾上","zip_code":"9502055"},{"name":"寺尾北","zip_code":"9502061"},{"name":"寺尾台","zip_code":"9502063"},{"name":"寺尾中央公園","zip_code":"9502062"},{"name":"寺尾西","zip_code":"9502064"},{"name":"寺尾東","zip_code":"9502054"},{"name":"寺尾前通","zip_code":"9502053"},{"name":"寺地","zip_code":"9501104"},{"name":"道河原","zip_code":"9502147"},{"name":"藤蔵新田","zip_code":"9502262"},{"name":"ときめき西","zip_code":"9501106"},{"name":"ときめき東","zip_code":"9501105"},{"name":"鳥原","zip_code":"9501115"},{"name":"鳥原新田","zip_code":"9501113"},{"name":"中野小屋","zip_code":"9502125"},{"name":"西有明町","zip_code":"9502071"},{"name":"西小針台","zip_code":"9502015"},{"name":"早潟","zip_code":"9502131"},{"name":"東青山","zip_code":"9502003"},{"name":"東山","zip_code":"9502254"},{"name":"藤野木","zip_code":"9502138"},{"name":"平島","zip_code":"9502004"},{"name":"保古野木","zip_code":"9502134"},{"name":"前野外新田","zip_code":"9502133"},{"name":"槇尾","zip_code":"9502121"},{"name":"真砂","zip_code":"9502074"},{"name":"松海が丘","zip_code":"9502075"},{"name":"松美台","zip_code":"9502072"},{"name":"的場流通","zip_code":"9502032"},{"name":"みずき野","zip_code":"9502264"},{"name":"明田","zip_code":"9502135"},{"name":"谷内","zip_code":"9502252"},{"name":"山崎","zip_code":"9502256"},{"name":"山田","zip_code":"9501101"},{"name":"四ツ郷屋","zip_code":"9502201"},{"name":"與兵衛野新田","zip_code":"9590401"},{"name":"流通","zip_code":"9501125"},{"name":"流通センター","zip_code":"9502031"}]},{"name":"新潟市西蒲区","divisions":[{"name":"赤鏥","zip_code":"9530042"},{"name":"味方","zip_code":"9501261"},{"name":"安尻","zip_code":"9530066"},{"name":"油島","zip_code":"9530111"},{"name":"新谷","zip_code":"9530116"},{"name":"石瀬","zip_code":"9530141"},{"name":"井随","zip_code":"9590501"},{"name":"茨島","zip_code":"9590513"},{"name":"今井","zip_code":"9590515"},{"name":"岩室温泉","zip_code":"9530104"},{"name":"植野新田","zip_code":"9530117"},{"name":"打越","zip_code":"9501348"},{"name":"姥島","zip_code":"9501347"},{"name":"卯八郎受","zip_code":"9590507"},{"name":"浦村","zip_code":"9590416"},{"name":"漆山","zip_code":"9530054"},{"name":"越前浜","zip_code":"9530012"},{"name":"遠藤","zip_code":"9590506"},{"name":"大潟","zip_code":"9590415"},{"name":"大関","zip_code":"9590417"},{"name":"大曽根","zip_code":"9590517"},{"name":"大原","zip_code":"9590511"},{"name":"押付","zip_code":"9590425"},{"name":"貝柄","zip_code":"9590403"},{"name":"貝柄新田","zip_code":"9590404"},{"name":"柿島","zip_code":"9530055"},{"name":"角田浜","zip_code":"9530011"},{"name":"角海浜","zip_code":"9530077"},{"name":"潟浦新","zip_code":"9501333"},{"name":"潟頭","zip_code":"9530067"},{"name":"潟上","zip_code":"9530114"},{"name":"金池","zip_code":"9530144"},{"name":"上木島","zip_code":"9530073"},{"name":"上小吉","zip_code":"9501334"},{"name":"河井","zip_code":"9530051"},{"name":"川崎","zip_code":"9590432"},{"name":"桔梗ケ丘","zip_code":"9530045"},{"name":"北野","zip_code":"9530134"},{"name":"国見","zip_code":"9590516"},{"name":"久保田","zip_code":"9530142"},{"name":"熊谷","zip_code":"9590502"},{"name":"桑山","zip_code":"9590412"},{"name":"高野宮","zip_code":"9501324"},{"name":"河間","zip_code":"9501342"},{"name":"五ケ浜","zip_code":"9530078"},{"name":"五之上","zip_code":"9590508"},{"name":"小吉","zip_code":"9501325"},{"name":"栄","zip_code":"9530102"},{"name":"栄町","zip_code":"9530063"},{"name":"桜林","zip_code":"9530064"},{"name":"真田","zip_code":"9590435"},{"name":"猿ケ瀬","zip_code":"9530143"},{"name":"三角野新田","zip_code":"9590402"},{"name":"三方","zip_code":"9590505"},{"name":"下木島","zip_code":"9530071"},{"name":"下山","zip_code":"9590438"},{"name":"下和納","zip_code":"9530065"},{"name":"称名","zip_code":"9590514"},{"name":"白鳥","zip_code":"9530136"},{"name":"新保","zip_code":"9530014"},{"name":"鱸","zip_code":"9590421"},{"name":"善光寺","zip_code":"9590411"},{"name":"善光寺村受","zip_code":"9590406"},{"name":"曽根","zip_code":"9590422"},{"name":"高橋","zip_code":"9530121"},{"name":"高畑","zip_code":"9530112"},{"name":"竹野町","zip_code":"9530023"},{"name":"津雲田","zip_code":"9530123"},{"name":"釣寄","zip_code":"9501313"},{"name":"釣寄新","zip_code":"9501312"},{"name":"天竺堂","zip_code":"9590434"},{"name":"稲島","zip_code":"9530027"},{"name":"道上","zip_code":"9501341"},{"name":"富岡","zip_code":"9530122"},{"name":"中郷屋","zip_code":"9530033"},{"name":"中島","zip_code":"9590437"},{"name":"中之口","zip_code":"9501327"},{"name":"長場","zip_code":"9501332"},{"name":"夏井","zip_code":"9530133"},{"name":"並岡","zip_code":"9530062"},{"name":"仁箇","zip_code":"9530022"},{"name":"西中","zip_code":"9530132"},{"name":"西長島","zip_code":"9530131"},{"name":"西船越","zip_code":"9530113"},{"name":"西汰上","zip_code":"9590436"},{"name":"布目","zip_code":"9530021"},{"name":"葉萱場","zip_code":"9530034"},{"name":"羽黒","zip_code":"9501345"},{"name":"橋本","zip_code":"9530103"},{"name":"旗屋","zip_code":"9590423"},{"name":"旗屋村受","zip_code":"9590407"},{"name":"羽田","zip_code":"9530031"},{"name":"原","zip_code":"9530124"},{"name":"針ケ曽根","zip_code":"9501321"},{"name":"番屋","zip_code":"9590512"},{"name":"東小吉","zip_code":"9501323"},{"name":"東中","zip_code":"9501331"},{"name":"東船越","zip_code":"9501326"},{"name":"東汰上","zip_code":"9530032"},{"name":"樋曽","zip_code":"9530101"},{"name":"兵右衛門新田","zip_code":"9590414"},{"name":"平沢","zip_code":"9530024"},{"name":"平野","zip_code":"9590431"},{"name":"福井","zip_code":"9530076"},{"name":"福島","zip_code":"9501344"},{"name":"伏部","zip_code":"9530026"},{"name":"舟戸","zip_code":"9530074"},{"name":"堀上新田","zip_code":"9590405"},{"name":"堀山新田","zip_code":"9530043"},{"name":"前田","zip_code":"9530036"},{"name":"真木","zip_code":"9501346"},{"name":"巻東町","zip_code":"9530053"},{"name":"巻大原","zip_code":"9530013"},{"name":"巻乙","zip_code":"9530044"},{"name":"牧ケ島","zip_code":"9501349"},{"name":"巻甲","zip_code":"9530041"},{"name":"槇島","zip_code":"9590433"},{"name":"升岡","zip_code":"9590418"},{"name":"升潟","zip_code":"9590413"},{"name":"間瀬","zip_code":"9530105"},{"name":"松郷屋","zip_code":"9530025"},{"name":"松崎","zip_code":"9590424"},{"name":"松野尾","zip_code":"9530015"},{"name":"松山","zip_code":"9530016"},{"name":"馬堀","zip_code":"9530061"},{"name":"美里","zip_code":"9590519"},{"name":"三ツ門","zip_code":"9501343"},{"name":"南","zip_code":"9590518"},{"name":"南谷内","zip_code":"9530135"},{"name":"峰岡","zip_code":"9530075"},{"name":"門田","zip_code":"9501328"},{"name":"矢島","zip_code":"9590426"},{"name":"山口新田","zip_code":"9590503"},{"name":"山島","zip_code":"9530052"},{"name":"横曽根","zip_code":"9530115"},{"name":"横戸","zip_code":"9590504"},{"name":"與兵衛野新田","zip_code":"9590401"},{"name":"鎧潟","zip_code":"9590521"},{"name":"六分","zip_code":"9501322"},{"name":"鷲ノ木","zip_code":"9530072"},{"name":"和納","zip_code":"9530125"},{"name":"割前","zip_code":"9530035"}]},{"name":"長岡市","divisions":[{"name":"青木町","zip_code":"9401112"},{"name":"青島町","zip_code":"9401145"},{"name":"青葉台","zip_code":"9402145"},{"name":"青山新町","zip_code":"9401149"},{"name":"青山町","zip_code":"9401148"},{"name":"赤谷","zip_code":"9400147"},{"name":"赤沼","zip_code":"9540202"},{"name":"明戸","zip_code":"9400105"},{"name":"曙","zip_code":"9400832"},{"name":"朝日","zip_code":"9495412"},{"name":"旭町","zip_code":"9400063"},{"name":"東町","zip_code":"9400224"},{"name":"麻生田町","zip_code":"9400806"},{"name":"愛宕","zip_code":"9400036"},{"name":"雨池町","zip_code":"9402055"},{"name":"天下島","zip_code":"9400232"},{"name":"阿弥陀瀬","zip_code":"9494513"},{"name":"荒巻","zip_code":"9494506"},{"name":"新町","zip_code":"9400023"},{"name":"飯島","zip_code":"9495401"},{"name":"飯塚","zip_code":"9495414"},{"name":"池之島","zip_code":"9540143"},{"name":"石内","zip_code":"9400026"},{"name":"泉","zip_code":"9400025"},{"name":"石動町","zip_code":"9402032"},{"name":"石動南町","zip_code":"9402117"},{"name":"一之貝","zip_code":"9400242"},{"name":"稲島","zip_code":"9540171"},{"name":"稲葉町","zip_code":"9400872"},{"name":"稲保","zip_code":"9400877"},{"name":"今井","zip_code":"9401166"},{"name":"入塩川","zip_code":"9400143"},{"name":"岩田","zip_code":"9495415"},{"name":"岩野","zip_code":"9401171"},{"name":"上田町","zip_code":"9400074"},{"name":"上の原町","zip_code":"9400237"},{"name":"梅田","zip_code":"9494517"},{"name":"梅野俣","zip_code":"9400123"},{"name":"浦","zip_code":"9495406"},{"name":"浦瀬町","zip_code":"9400805"},{"name":"瓜生","zip_code":"9402303"},{"name":"上沼新田","zip_code":"9540207"},{"name":"海老島勇次新田","zip_code":"9540166"},{"name":"王番田町","zip_code":"9402056"},{"name":"大荒戸町","zip_code":"9402059"},{"name":"大川戸","zip_code":"9400148"},{"name":"大川原町","zip_code":"9401137"},{"name":"大口","zip_code":"9540145"},{"name":"大島新町","zip_code":"9402104"},{"name":"大島本町","zip_code":"9402112"},{"name":"大積折渡町","zip_code":"9402156"},{"name":"大積熊上町","zip_code":"9402155"},{"name":"大積千本町","zip_code":"9402153"},{"name":"大積善間町","zip_code":"9402158"},{"name":"大積高鳥町","zip_code":"9402152"},{"name":"大積田代町","zip_code":"9402154"},{"name":"大積灰下町","zip_code":"9402151"},{"name":"大積三島谷町","zip_code":"9402157"},{"name":"大積町","zip_code":"9402146"},{"name":"大手通","zip_code":"9400062"},{"name":"大沼新田","zip_code":"9540201"},{"name":"大野","zip_code":"9402305"},{"name":"大曲戸","zip_code":"9540134"},{"name":"大曲戸新田","zip_code":"9540133"},{"name":"大町","zip_code":"9400844"},{"name":"大宮町","zip_code":"9401167"},{"name":"大山","zip_code":"9402113"},{"name":"荻野","zip_code":"9402012"},{"name":"小国町相野原","zip_code":"9495216"},{"name":"小国町新町","zip_code":"9495215"},{"name":"小国町大貝","zip_code":"9495346"},{"name":"小国町小国沢","zip_code":"9495333"},{"name":"小国町上岩田","zip_code":"9495332"},{"name":"小国町上谷内新田","zip_code":"9495214"},{"name":"小国町桐沢","zip_code":"9495212"},{"name":"小国町小栗山","zip_code":"9495341"},{"name":"小国町苔野島","zip_code":"9495344"},{"name":"小国町諏訪井","zip_code":"9495336"},{"name":"小国町武石","zip_code":"9495221"},{"name":"小国町太郎丸","zip_code":"9495335"},{"name":"小国町千谷沢","zip_code":"9495201"},{"name":"小国町七日町","zip_code":"9495211"},{"name":"小国町楢沢","zip_code":"9495331"},{"name":"小国町二本柳","zip_code":"9495217"},{"name":"小国町八王子","zip_code":"9495223"},{"name":"小国町原","zip_code":"9495343"},{"name":"小国町法坂","zip_code":"9495213"},{"name":"小国町法末","zip_code":"9495334"},{"name":"小国町三桶","zip_code":"9495345"},{"name":"小国町森光","zip_code":"9495342"},{"name":"小国町山野田","zip_code":"9495347"},{"name":"小国町横沢","zip_code":"9495222"},{"name":"押切川原町","zip_code":"9540138"},{"name":"押切新田","zip_code":"9540137"},{"name":"小島谷","zip_code":"9494511"},{"name":"乙吉町","zip_code":"9400812"},{"name":"思川新田","zip_code":"9540136"},{"name":"表町","zip_code":"9400071"},{"name":"親沢町","zip_code":"9402134"},{"name":"御山町","zip_code":"9400828"},{"name":"柿町","zip_code":"9400822"},{"name":"柏町","zip_code":"9400088"},{"name":"春日","zip_code":"9400096"},{"name":"粕島","zip_code":"9540141"},{"name":"片田町","zip_code":"9401143"},{"name":"学校町","zip_code":"9400041"},{"name":"加津保町","zip_code":"9400803"},{"name":"桂町","zip_code":"9400802"},{"name":"金沢","zip_code":"9400135"},{"name":"要町","zip_code":"9401153"},{"name":"金房","zip_code":"9400045"},{"name":"金町","zip_code":"9400221"},{"name":"釜ケ島","zip_code":"9401172"},{"name":"釜沢町","zip_code":"9401114"},{"name":"上岩井","zip_code":"9402314"},{"name":"上樫出","zip_code":"9400116"},{"name":"上桐","zip_code":"9494501"},{"name":"上塩","zip_code":"9400128"},{"name":"上富岡","zip_code":"9402136"},{"name":"上富岡町","zip_code":"9402137"},{"name":"上除町","zip_code":"9402033"},{"name":"上除町西","zip_code":"9402034"},{"name":"上野町","zip_code":"9402004"},{"name":"上前島町","zip_code":"9401144"},{"name":"神谷","zip_code":"9495407"},{"name":"上柳町","zip_code":"9402471"},{"name":"亀貝町","zip_code":"9400884"},{"name":"亀ケ谷新田","zip_code":"9540177"},{"name":"亀崎町","zip_code":"9400801"},{"name":"鴉ケ島","zip_code":"9400201"},{"name":"軽井沢","zip_code":"9400243"},{"name":"川口相川","zip_code":"9497507"},{"name":"川口荒谷","zip_code":"9497508"},{"name":"川口牛ケ島","zip_code":"9498731"},{"name":"川口木沢","zip_code":"9497502"},{"name":"川口田麦山","zip_code":"9497512"},{"name":"川口峠","zip_code":"9497501"},{"name":"川口中山","zip_code":"9497503"},{"name":"川口武道窪","zip_code":"9497506"},{"name":"川口和南津","zip_code":"9497511"},{"name":"川崎","zip_code":"9400864"},{"name":"川崎町","zip_code":"9400861"},{"name":"河根川町","zip_code":"9402058"},{"name":"川袋町","zip_code":"9402463"},{"name":"川辺町","zip_code":"9400001"},{"name":"寒沢","zip_code":"9400153"},{"name":"雁島町","zip_code":"9402474"},{"name":"神田町","zip_code":"9400052"},{"name":"関東町","zip_code":"9400067"},{"name":"気比宮","zip_code":"9402322"},{"name":"北園町","zip_code":"9400014"},{"name":"北荷頃","zip_code":"9400241"},{"name":"喜多町","zip_code":"9402121"},{"name":"北山","zip_code":"9402114"},{"name":"狐興野","zip_code":"9540162"},{"name":"希望が丘","zip_code":"9402124"},{"name":"希望が丘南","zip_code":"9402125"},{"name":"木山沢","zip_code":"9400254"},{"name":"九川","zip_code":"9400121"},{"name":"草生津","zip_code":"9400085"},{"name":"熊袋","zip_code":"9400113"},{"name":"雲出町","zip_code":"9402046"},{"name":"栗山沢","zip_code":"9400155"},{"name":"黒坂","zip_code":"9494502"},{"name":"黒津町","zip_code":"9400007"},{"name":"稽古町","zip_code":"9400054"},{"name":"今朝白","zip_code":"9400033"},{"name":"下条町","zip_code":"9401146"},{"name":"幸南","zip_code":"9540135"},{"name":"興野","zip_code":"9540161"},{"name":"江陽","zip_code":"9402015"},{"name":"小沢町","zip_code":"9402102"},{"name":"越路中沢","zip_code":"9495408"},{"name":"越路中島","zip_code":"9495403"},{"name":"古正寺","zip_code":"9402106"},{"name":"古正寺町","zip_code":"9402103"},{"name":"小曽根町","zip_code":"9400883"},{"name":"五反田町","zip_code":"9402036"},{"name":"小貫","zip_code":"9400211"},{"name":"琴平","zip_code":"9400038"},{"name":"寿","zip_code":"9400015"},{"name":"小沼新田","zip_code":"9540203"},{"name":"五百刈","zip_code":"9540126"},{"name":"呉服町","zip_code":"9400056"},{"name":"小向","zip_code":"9400146"},{"name":"才津西町","zip_code":"9402133"},{"name":"才津東町","zip_code":"9402131"},{"name":"才津南町","zip_code":"9402132"},{"name":"幸町","zip_code":"9400084"},{"name":"蔵王","zip_code":"9400028"},{"name":"堺東町","zip_code":"9402026"},{"name":"堺町","zip_code":"9402024"},{"name":"栄町","zip_code":"9400205"},{"name":"逆谷","zip_code":"9402321"},{"name":"坂之上町","zip_code":"9400065"},{"name":"鷺巣町","zip_code":"9401113"},{"name":"左近","zip_code":"9401161"},{"name":"左近町","zip_code":"9401161"},{"name":"笹崎","zip_code":"9400833"},{"name":"篠花","zip_code":"9495402"},{"name":"沢下条","zip_code":"9495413"},{"name":"沢田","zip_code":"9401101"},{"name":"三瀬ケ谷","zip_code":"9494504"},{"name":"三之宮町","zip_code":"9402472"},{"name":"三俵野町","zip_code":"9401136"},{"name":"三和","zip_code":"9401151"},{"name":"三和町","zip_code":"9401152"},{"name":"塩新町","zip_code":"9400129"},{"name":"塩中","zip_code":"9400122"},{"name":"地蔵","zip_code":"9400031"},{"name":"下沼新田","zip_code":"9540213"},{"name":"七軒町","zip_code":"9400894"},{"name":"信濃","zip_code":"9400098"},{"name":"寺宝町","zip_code":"9402057"},{"name":"島崎","zip_code":"9494525"},{"name":"島田","zip_code":"9540155"},{"name":"下樫出","zip_code":"9400115"},{"name":"下河根川","zip_code":"9402304"},{"name":"下々条","zip_code":"9400012"},{"name":"下々条町","zip_code":"9400011"},{"name":"下塩","zip_code":"9400111"},{"name":"下富岡","zip_code":"9494507"},{"name":"下柳","zip_code":"9402013"},{"name":"下山","zip_code":"9402115"},{"name":"十二潟町","zip_code":"9400002"},{"name":"城岡","zip_code":"9400021"},{"name":"成願寺町","zip_code":"9400814"},{"name":"上条町","zip_code":"9400831"},{"name":"城内町","zip_code":"9400061"},{"name":"城之丘","zip_code":"9494523"},{"name":"定明町","zip_code":"9401141"},{"name":"昭和","zip_code":"9400092"},{"name":"四郎丸","zip_code":"9400046"},{"name":"四郎丸町","zip_code":"9400865"},{"name":"白鳥町","zip_code":"9402041"},{"name":"新栄","zip_code":"9540132"},{"name":"新開町","zip_code":"9402464"},{"name":"新組町","zip_code":"9400897"},{"name":"新栄町","zip_code":"9400204"},{"name":"新産","zip_code":"9402127"},{"name":"新産東町","zip_code":"9402128"},{"name":"信条南","zip_code":"9540218"},{"name":"新陽","zip_code":"9402147"},{"name":"水道町","zip_code":"9400093"},{"name":"末広","zip_code":"9400834"},{"name":"菅畑","zip_code":"9400144"},{"name":"杉之森","zip_code":"9540151"},{"name":"住吉","zip_code":"9400044"},{"name":"李崎町","zip_code":"9402462"},{"name":"栖吉町","zip_code":"9400821"},{"name":"西陵町","zip_code":"9402045"},{"name":"関根","zip_code":"9540154"},{"name":"関原西町","zip_code":"9402037"},{"name":"関原東町","zip_code":"9402038"},{"name":"関原町","zip_code":"9402035"},{"name":"関原南","zip_code":"9402039"},{"name":"摂田屋","zip_code":"9401105"},{"name":"摂田屋町","zip_code":"9401104"},{"name":"芹川町","zip_code":"9402473"},{"name":"千歳","zip_code":"9400082"},{"name":"千手","zip_code":"9400087"},{"name":"千秋","zip_code":"9402108"},{"name":"大黒町","zip_code":"9400895"},{"name":"大保","zip_code":"9540146"},{"name":"台町","zip_code":"9400048"},{"name":"平","zip_code":"9400137"},{"name":"高島町","zip_code":"9401139"},{"name":"高瀬町","zip_code":"9402025"},{"name":"高寺町","zip_code":"9402143"},{"name":"高頭町","zip_code":"9402144"},{"name":"高野町","zip_code":"9402051"},{"name":"高畑町","zip_code":"9400825"},{"name":"高町","zip_code":"9400824"},{"name":"高見","zip_code":"9400003"},{"name":"高見町","zip_code":"9400004"},{"name":"宝","zip_code":"9400016"},{"name":"滝之口","zip_code":"9400127"},{"name":"滝の下町","zip_code":"9400226"},{"name":"滝谷町","zip_code":"9401138"},{"name":"竹之高地町","zip_code":"9401123"},{"name":"竹町","zip_code":"9401116"},{"name":"田之口","zip_code":"9400251"},{"name":"千谷沢","zip_code":"9495124"},{"name":"中永","zip_code":"9402324"},{"name":"中央公園","zip_code":"9400222"},{"name":"中条新田","zip_code":"9540214"},{"name":"千代栄町","zip_code":"9400819"},{"name":"塚野山","zip_code":"9495123"},{"name":"土ケ谷","zip_code":"9400212"},{"name":"堤町","zip_code":"9402014"},{"name":"坪根","zip_code":"9540144"},{"name":"鶴ケ曽根","zip_code":"9540172"},{"name":"鉄工町","zip_code":"9402022"},{"name":"寺島町","zip_code":"9402101"},{"name":"寺泊","zip_code":"9402502"},{"name":"寺泊小豆曽根","zip_code":"9590162"},{"name":"寺泊有信","zip_code":"9590155"},{"name":"寺泊入軽井","zip_code":"9590149"},{"name":"寺泊岩方","zip_code":"9590147"},{"name":"寺泊円上寺","zip_code":"9402511"},{"name":"寺泊大地","zip_code":"9402503"},{"name":"寺泊大和田","zip_code":"9402529"},{"name":"寺泊川崎","zip_code":"9402517"},{"name":"寺泊木島","zip_code":"9590156"},{"name":"寺泊北曽根","zip_code":"9590165"},{"name":"寺泊京ケ入","zip_code":"9402512"},{"name":"寺泊郷本","zip_code":"9402528"},{"name":"寺泊五分一","zip_code":"9590154"},{"name":"寺泊志戸橋","zip_code":"9402527"},{"name":"寺泊下桐","zip_code":"9590152"},{"name":"寺泊下曽根","zip_code":"9402516"},{"name":"寺泊下中条","zip_code":"9590164"},{"name":"寺泊新長","zip_code":"9590163"},{"name":"寺泊高内","zip_code":"9590143"},{"name":"寺泊田頭","zip_code":"9402523"},{"name":"寺泊竹森","zip_code":"9590161"},{"name":"寺泊田尻","zip_code":"9590146"},{"name":"寺泊敦ケ曽根","zip_code":"9590141"},{"name":"寺泊当新田","zip_code":"9402513"},{"name":"寺泊戸崎","zip_code":"9402518"},{"name":"寺泊年友","zip_code":"9402521"},{"name":"寺泊中曽根","zip_code":"9402515"},{"name":"寺泊夏戸","zip_code":"9402522"},{"name":"寺泊野積","zip_code":"9402501"},{"name":"寺泊硲田","zip_code":"9590153"},{"name":"寺泊万善寺","zip_code":"9590142"},{"name":"寺泊引岡","zip_code":"9402508"},{"name":"寺泊平野新村新田","zip_code":"9590145"},{"name":"寺泊蛇塚","zip_code":"9402514"},{"name":"寺泊弁才天","zip_code":"9402504"},{"name":"寺泊町軽井","zip_code":"9590144"},{"name":"寺泊松田","zip_code":"9402524"},{"name":"寺泊明ケ谷","zip_code":"9402525"},{"name":"寺泊本弁","zip_code":"9402505"},{"name":"寺泊求草","zip_code":"9590151"},{"name":"寺泊本山","zip_code":"9402506"},{"name":"寺泊矢田","zip_code":"9590148"},{"name":"寺泊山田","zip_code":"9402526"},{"name":"寺泊吉","zip_code":"9402507"},{"name":"寺泊鰐口","zip_code":"9590157"},{"name":"天神町","zip_code":"9400008"},{"name":"土合","zip_code":"9400043"},{"name":"土合町","zip_code":"9400847"},{"name":"十日町","zip_code":"9401131"},{"name":"栃尾旭町","zip_code":"9400231"},{"name":"栃尾新町","zip_code":"9400216"},{"name":"栃尾泉","zip_code":"9400234"},{"name":"栃尾岩野外新田","zip_code":"9400202"},{"name":"栃尾大野","zip_code":"9400235"},{"name":"栃尾大野町","zip_code":"9400236"},{"name":"栃尾大町","zip_code":"9400217"},{"name":"栃尾表町","zip_code":"9400218"},{"name":"栃尾島田","zip_code":"9400141"},{"name":"栃尾原","zip_code":"9400132"},{"name":"栃尾原町","zip_code":"9400134"},{"name":"栃尾本町","zip_code":"9400223"},{"name":"栃尾宮沢","zip_code":"9400233"},{"name":"栃尾山田","zip_code":"9400214"},{"name":"栃尾山田町","zip_code":"9400213"},{"name":"栃尾町","zip_code":"9400215"},{"name":"栃倉","zip_code":"9400149"},{"name":"栃堀","zip_code":"9400145"},{"name":"殿町","zip_code":"9400064"},{"name":"富島町","zip_code":"9400881"},{"name":"豊田町","zip_code":"9400836"},{"name":"豊詰町","zip_code":"9401142"},{"name":"鳥越","zip_code":"9402316"},{"name":"中","zip_code":"9400253"},{"name":"中潟町","zip_code":"9401135"},{"name":"長倉","zip_code":"9400829"},{"name":"長倉西町","zip_code":"9400849"},{"name":"長倉町","zip_code":"9400826"},{"name":"長倉南町","zip_code":"9400848"},{"name":"中興野","zip_code":"9540131"},{"name":"仲子町","zip_code":"9400225"},{"name":"中西","zip_code":"9540204"},{"name":"中沢","zip_code":"9400853"},{"name":"中沢町","zip_code":"9400854"},{"name":"中島","zip_code":"9400094"},{"name":"中瀬","zip_code":"9400017"},{"name":"永田","zip_code":"9400874"},{"name":"永田町","zip_code":"9400873"},{"name":"長町","zip_code":"9400053"},{"name":"中貫町","zip_code":"9400852"},{"name":"中之島","zip_code":"9540124"},{"name":"中之島高畑","zip_code":"9540152"},{"name":"中之島中条","zip_code":"9540216"},{"name":"中之島西野","zip_code":"9540212"},{"name":"中之島宮内","zip_code":"9540157"},{"name":"中野中","zip_code":"9540174"},{"name":"中野西","zip_code":"9540175"},{"name":"中野東","zip_code":"9540173"},{"name":"長峰町","zip_code":"9402142"},{"name":"長呂","zip_code":"9540156"},{"name":"七日市","zip_code":"9402315"},{"name":"七日町","zip_code":"9402123"},{"name":"並木新田","zip_code":"9540163"},{"name":"成沢町","zip_code":"9402465"},{"name":"南陽","zip_code":"9401164"},{"name":"新保","zip_code":"9400875"},{"name":"新保町","zip_code":"9400876"},{"name":"濁沢町","zip_code":"9401121"},{"name":"西新町","zip_code":"9400024"},{"name":"西片貝町","zip_code":"9400817"},{"name":"西川口","zip_code":"9497513"},{"name":"西神田町","zip_code":"9400051"},{"name":"錦","zip_code":"9400835"},{"name":"西蔵王","zip_code":"9400027"},{"name":"西千手","zip_code":"9400086"},{"name":"西高山新田","zip_code":"9540205"},{"name":"西谷","zip_code":"9495121"},{"name":"西津町","zip_code":"9402126"},{"name":"西中野俣","zip_code":"9400256"},{"name":"西野","zip_code":"9495409"},{"name":"西野新田","zip_code":"9540211"},{"name":"西野俣","zip_code":"9400252"},{"name":"西宮内","zip_code":"9401162"},{"name":"日赤町","zip_code":"9400095"},{"name":"楡原","zip_code":"9400203"},{"name":"猫興野","zip_code":"9540123"},{"name":"根小屋","zip_code":"9494505"},{"name":"野口","zip_code":"9540121"},{"name":"灰島新田","zip_code":"9540142"},{"name":"蓮潟","zip_code":"9402023"},{"name":"鉢伏町","zip_code":"9400842"},{"name":"花井町","zip_code":"9402475"},{"name":"花園","zip_code":"9400845"},{"name":"花園東","zip_code":"9400846"},{"name":"原町","zip_code":"9400013"},{"name":"半蔵金","zip_code":"9400258"},{"name":"東新町","zip_code":"9400022"},{"name":"東が丘","zip_code":"9400136"},{"name":"東片貝町","zip_code":"9400816"},{"name":"東川口","zip_code":"9497504"},{"name":"東神田","zip_code":"9400035"},{"name":"東蔵王","zip_code":"9400029"},{"name":"東栄","zip_code":"9400037"},{"name":"東坂之上町","zip_code":"9400066"},{"name":"東高見","zip_code":"9400006"},{"name":"東谷","zip_code":"9495122"},{"name":"東中野俣","zip_code":"9400255"},{"name":"東保内","zip_code":"9494521"},{"name":"東宮内町","zip_code":"9401102"},{"name":"日越","zip_code":"9402138"},{"name":"人面","zip_code":"9400102"},{"name":"日野浦","zip_code":"9494514"},{"name":"百束町","zip_code":"9400892"},{"name":"平中野俣","zip_code":"9400124"},{"name":"比礼","zip_code":"9400244"},{"name":"深沢町","zip_code":"9402135"},{"name":"吹谷","zip_code":"9400151"},{"name":"福井町","zip_code":"9400893"},{"name":"福島町","zip_code":"9400896"},{"name":"福住","zip_code":"9400034"},{"name":"福戸町","zip_code":"9402052"},{"name":"福原","zip_code":"9540165"},{"name":"福道町","zip_code":"9402053"},{"name":"福山町","zip_code":"9402122"},{"name":"袋町","zip_code":"9400055"},{"name":"藤川","zip_code":"9402302"},{"name":"藤沢","zip_code":"9402011"},{"name":"藤橋","zip_code":"9402141"},{"name":"藤山","zip_code":"9540125"},{"name":"二ツ郷屋","zip_code":"9400103"},{"name":"二日町","zip_code":"9400112"},{"name":"不動沢","zip_code":"9495416"},{"name":"船江町","zip_code":"9400073"},{"name":"文納","zip_code":"9400101"},{"name":"平島","zip_code":"9401163"},{"name":"平島町","zip_code":"9401163"},{"name":"宝地町","zip_code":"9402031"},{"name":"北陽","zip_code":"9400871"},{"name":"干場","zip_code":"9400032"},{"name":"堀金","zip_code":"9400868"},{"name":"本所","zip_code":"9400142"},{"name":"本町","zip_code":"9400076"},{"name":"本津川","zip_code":"9400245"},{"name":"品之木","zip_code":"9540147"},{"name":"前島町","zip_code":"9401147"},{"name":"前田","zip_code":"9400042"},{"name":"曲新町","zip_code":"9401103"},{"name":"槇下町","zip_code":"9402001"},{"name":"巻島","zip_code":"9402005"},{"name":"巻渕","zip_code":"9400133"},{"name":"槇山町","zip_code":"9402002"},{"name":"町田町","zip_code":"9401111"},{"name":"松尾","zip_code":"9400154"},{"name":"松ケ崎新田","zip_code":"9540217"},{"name":"松葉","zip_code":"9400091"},{"name":"末宝","zip_code":"9540164"},{"name":"真野代新田","zip_code":"9540215"},{"name":"真弓","zip_code":"9540122"},{"name":"美沢","zip_code":"9400856"},{"name":"三島上条","zip_code":"9402323"},{"name":"三島新保","zip_code":"9402311"},{"name":"三島中条","zip_code":"9402312"},{"name":"水穴町","zip_code":"9400804"},{"name":"水沢","zip_code":"9400106"},{"name":"水梨町","zip_code":"9401165"},{"name":"美園","zip_code":"9400866"},{"name":"三ツ郷屋","zip_code":"9402111"},{"name":"緑町","zip_code":"9402105"},{"name":"南新保町","zip_code":"9402054"},{"name":"南七日町","zip_code":"9402116"},{"name":"南町","zip_code":"9400081"},{"name":"宮内","zip_code":"9401106"},{"name":"宮内町","zip_code":"9401155"},{"name":"宮栄","zip_code":"9401154"},{"name":"宮沢","zip_code":"9402301"},{"name":"宮下町","zip_code":"9400882"},{"name":"宮路町","zip_code":"9400811"},{"name":"宮関","zip_code":"9402021"},{"name":"宮原","zip_code":"9400083"},{"name":"宮本東方町","zip_code":"9402043"},{"name":"宮本堀之内町","zip_code":"9402044"},{"name":"宮本町","zip_code":"9402042"},{"name":"妙見町","zip_code":"9401134"},{"name":"六日市町","zip_code":"9401133"},{"name":"葎谷","zip_code":"9400125"},{"name":"村田","zip_code":"9494522"},{"name":"村松町","zip_code":"9401115"},{"name":"森上","zip_code":"9400257"},{"name":"谷内","zip_code":"9400227"},{"name":"柳原町","zip_code":"9400072"},{"name":"山口","zip_code":"9400114"},{"name":"山古志竹沢","zip_code":"9470204"},{"name":"山古志種苧原","zip_code":"9470201"},{"name":"山古志南平","zip_code":"9470202"},{"name":"山古志東竹沢","zip_code":"9470203"},{"name":"山古志虫亀","zip_code":"9470205"},{"name":"山田","zip_code":"9400097"},{"name":"山屋","zip_code":"9400104"},{"name":"悠久町","zip_code":"9400827"},{"name":"豊","zip_code":"9400867"},{"name":"弓町","zip_code":"9400047"},{"name":"与板町岩方","zip_code":"9402405"},{"name":"与板町江西","zip_code":"9402406"},{"name":"与板町城山","zip_code":"9402407"},{"name":"与板町蔦都","zip_code":"9402411"},{"name":"与板町中田","zip_code":"9402414"},{"name":"与板町東与板","zip_code":"9402401"},{"name":"与板町広野","zip_code":"9402412"},{"name":"与板町槇原","zip_code":"9402416"},{"name":"与板町馬越","zip_code":"9402404"},{"name":"与板町南中","zip_code":"9402415"},{"name":"与板町本与板","zip_code":"9402403"},{"name":"与板町山沢","zip_code":"9402417"},{"name":"与板町与板","zip_code":"9402402"},{"name":"与板町吉津","zip_code":"9402413"},{"name":"陽光台","zip_code":"9402148"},{"name":"横野","zip_code":"9540176"},{"name":"横枕町","zip_code":"9401117"},{"name":"横山","zip_code":"9540153"},{"name":"吉崎","zip_code":"9402313"},{"name":"吉水","zip_code":"9400131"},{"name":"四ツ屋町","zip_code":"9400891"},{"name":"蓬平町","zip_code":"9401122"},{"name":"来迎寺","zip_code":"9495411"},{"name":"来伝","zip_code":"9400152"},{"name":"両高","zip_code":"9494524"},{"name":"蓮花寺","zip_code":"9402325"},{"name":"六所","zip_code":"9540206"},{"name":"若草町","zip_code":"9400851"},{"name":"若野浦","zip_code":"9494512"},{"name":"脇川新田町","zip_code":"9540181"},{"name":"脇野町","zip_code":"9402306"},{"name":"山葵谷","zip_code":"9400126"},{"name":"和島北野","zip_code":"9494503"},{"name":"和島高畑","zip_code":"9494515"},{"name":"和島中沢","zip_code":"9494516"},{"name":"渡沢町","zip_code":"9401132"},{"name":"渡場町","zip_code":"9402003"},{"name":"渡里町","zip_code":"9400075"}]},{"name":"三条市","divisions":[{"name":"旭町","zip_code":"9550065"},{"name":"麻布","zip_code":"9550034"},{"name":"荒沢","zip_code":"9550141"},{"name":"荒町","zip_code":"9550083"},{"name":"新屋","zip_code":"9550118"},{"name":"飯田","zip_code":"9550107"},{"name":"井栗","zip_code":"9550013"},{"name":"石上","zip_code":"9550084"},{"name":"居島","zip_code":"9550066"},{"name":"泉新田","zip_code":"9591143"},{"name":"一ノ門","zip_code":"9550045"},{"name":"井戸場","zip_code":"9550096"},{"name":"猪子場新田","zip_code":"9591151"},{"name":"今井","zip_code":"9591141"},{"name":"今井野新田","zip_code":"9591142"},{"name":"岩淵","zip_code":"9591154"},{"name":"院内","zip_code":"9550115"},{"name":"上野原","zip_code":"9550025"},{"name":"牛ケ首","zip_code":"9550102"},{"name":"牛ケ島","zip_code":"9550016"},{"name":"牛野尾","zip_code":"9550133"},{"name":"江口","zip_code":"9550104"},{"name":"枝郷","zip_code":"9550818"},{"name":"大沢","zip_code":"9550145"},{"name":"大島","zip_code":"9550094"},{"name":"大平","zip_code":"9550154"},{"name":"大谷","zip_code":"9550124"},{"name":"大野畑","zip_code":"9550833"},{"name":"大宮新田","zip_code":"9550054"},{"name":"大面","zip_code":"9591113"},{"name":"大谷地","zip_code":"9550122"},{"name":"岡野新田","zip_code":"9591147"},{"name":"荻島","zip_code":"9550097"},{"name":"荻堀","zip_code":"9550151"},{"name":"小古瀬","zip_code":"9591126"},{"name":"尾崎","zip_code":"9591148"},{"name":"遅場","zip_code":"9550137"},{"name":"落合","zip_code":"9550103"},{"name":"鬼木","zip_code":"9591135"},{"name":"鬼木新田","zip_code":"9591134"},{"name":"帯織","zip_code":"9591117"},{"name":"貝喰新田","zip_code":"9591144"},{"name":"鹿熊","zip_code":"9550114"},{"name":"篭場","zip_code":"9550036"},{"name":"笠堀","zip_code":"9550123"},{"name":"片口","zip_code":"9550807"},{"name":"嘉坪川","zip_code":"9550056"},{"name":"鹿峠","zip_code":"9550108"},{"name":"金子新田","zip_code":"9550814"},{"name":"上大浦","zip_code":"9550166"},{"name":"上須頃","zip_code":"9550091"},{"name":"上保内","zip_code":"9550022"},{"name":"上谷地","zip_code":"9550111"},{"name":"川通中町","zip_code":"9591136"},{"name":"北五百川","zip_code":"9550121"},{"name":"北潟","zip_code":"9591108"},{"name":"北新保","zip_code":"9550861"},{"name":"北中","zip_code":"9550043"},{"name":"北入蔵","zip_code":"9550053"},{"name":"北野新田","zip_code":"9550012"},{"name":"北四日町","zip_code":"9550853"},{"name":"九之曽根","zip_code":"9591123"},{"name":"蔵内","zip_code":"9591109"},{"name":"栗林","zip_code":"9550085"},{"name":"栗山","zip_code":"9550126"},{"name":"桑切","zip_code":"9550153"},{"name":"高安寺","zip_code":"9591114"},{"name":"興野","zip_code":"9550046"},{"name":"小滝","zip_code":"9591115"},{"name":"小長沢","zip_code":"9550142"},{"name":"駒込","zip_code":"9550156"},{"name":"五明","zip_code":"9550821"},{"name":"栄荻島","zip_code":"9591122"},{"name":"桜木町","zip_code":"9550844"},{"name":"笹岡","zip_code":"9550152"},{"name":"笹巻","zip_code":"9550146"},{"name":"三貫地新田","zip_code":"9550001"},{"name":"三竹","zip_code":"9550041"},{"name":"山王","zip_code":"9591118"},{"name":"塩野渕","zip_code":"9550125"},{"name":"島潟","zip_code":"9550163"},{"name":"島川原","zip_code":"9550105"},{"name":"島田","zip_code":"9550842"},{"name":"下大浦","zip_code":"9550168"},{"name":"下坂井","zip_code":"9550042"},{"name":"下新田","zip_code":"9550824"},{"name":"下須頃","zip_code":"9550093"},{"name":"下保内","zip_code":"9550021"},{"name":"条南町","zip_code":"9550843"},{"name":"白山新田","zip_code":"9550011"},{"name":"新保","zip_code":"9550808"},{"name":"神明町","zip_code":"9550063"},{"name":"直江町","zip_code":"9550832"},{"name":"須頃","zip_code":"9550092"},{"name":"須戸新田","zip_code":"9550004"},{"name":"諏訪","zip_code":"9550801"},{"name":"芹山","zip_code":"9591131"},{"name":"善久寺","zip_code":"9591121"},{"name":"千把野新田","zip_code":"9591124"},{"name":"代官島","zip_code":"9550095"},{"name":"高岡","zip_code":"9550161"},{"name":"高屋敷","zip_code":"9550165"},{"name":"滝谷","zip_code":"9550164"},{"name":"田島","zip_code":"9550044"},{"name":"棚鱗","zip_code":"9550143"},{"name":"田屋","zip_code":"9550117"},{"name":"茅原","zip_code":"9591111"},{"name":"中新","zip_code":"9550035"},{"name":"蝶名林","zip_code":"9550112"},{"name":"塚野目","zip_code":"9550055"},{"name":"月岡","zip_code":"9550803"},{"name":"鶴田","zip_code":"9550051"},{"name":"東光寺","zip_code":"9591104"},{"name":"戸口","zip_code":"9591119"},{"name":"土場","zip_code":"9550831"},{"name":"中浦","zip_code":"9550113"},{"name":"長沢","zip_code":"9550157"},{"name":"中島","zip_code":"9591125"},{"name":"中曽根新田","zip_code":"9591133"},{"name":"長野","zip_code":"9550132"},{"name":"仲之町","zip_code":"9550062"},{"name":"中野原","zip_code":"9550147"},{"name":"長嶺","zip_code":"9550806"},{"name":"楢山","zip_code":"9550144"},{"name":"新堀","zip_code":"9591153"},{"name":"濁沢","zip_code":"9550134"},{"name":"西裏館","zip_code":"9550082"},{"name":"西大崎","zip_code":"9550033"},{"name":"西潟","zip_code":"9550014"},{"name":"西鱈田","zip_code":"9550815"},{"name":"西中","zip_code":"9550822"},{"name":"西本成寺","zip_code":"9550845"},{"name":"西四日町","zip_code":"9550851"},{"name":"新光町","zip_code":"9550057"},{"name":"入蔵新田","zip_code":"9550812"},{"name":"如法寺","zip_code":"9550804"},{"name":"庭月","zip_code":"9550131"},{"name":"八幡町","zip_code":"9550073"},{"name":"花渕","zip_code":"9550148"},{"name":"馬場","zip_code":"9550167"},{"name":"林町","zip_code":"9550061"},{"name":"早水","zip_code":"9550135"},{"name":"原","zip_code":"9550158"},{"name":"半ノ木","zip_code":"9591146"},{"name":"東裏館","zip_code":"9550081"},{"name":"東大崎","zip_code":"9550032"},{"name":"東三条","zip_code":"9550047"},{"name":"東新保","zip_code":"9550863"},{"name":"東鱈田","zip_code":"9550816"},{"name":"東本成寺","zip_code":"9550823"},{"name":"一ツ屋敷新田","zip_code":"9591152"},{"name":"広手","zip_code":"9550155"},{"name":"福岡","zip_code":"9550162"},{"name":"福島新田","zip_code":"9591156"},{"name":"福島新田乙","zip_code":"9591102"},{"name":"福島新田甲","zip_code":"9591101"},{"name":"福島新田丁","zip_code":"9591155"},{"name":"福島新田丙","zip_code":"9591145"},{"name":"福島新田戊","zip_code":"9591103"},{"name":"袋","zip_code":"9550813"},{"name":"本町","zip_code":"9550071"},{"name":"前谷内","zip_code":"9591116"},{"name":"曲谷","zip_code":"9550101"},{"name":"曲渕","zip_code":"9550864"},{"name":"松ノ木町","zip_code":"9550031"},{"name":"みずほ","zip_code":"9550022"},{"name":"三柳","zip_code":"9550015"},{"name":"緑ケ丘","zip_code":"9550845"},{"name":"南五百川","zip_code":"9550128"},{"name":"南新保","zip_code":"9550862"},{"name":"南中","zip_code":"9550106"},{"name":"南入蔵","zip_code":"9550811"},{"name":"南四日町","zip_code":"9550852"},{"name":"名下","zip_code":"9550127"},{"name":"葎谷","zip_code":"9550136"},{"name":"元町","zip_code":"9550072"},{"name":"森町","zip_code":"9550116"},{"name":"安代","zip_code":"9591112"},{"name":"矢田","zip_code":"9591107"},{"name":"柳川新田","zip_code":"9550002"},{"name":"柳沢","zip_code":"9550024"},{"name":"柳場新田","zip_code":"9550003"},{"name":"由利","zip_code":"9550841"},{"name":"横町","zip_code":"9550064"},{"name":"吉田","zip_code":"9550805"},{"name":"吉野屋","zip_code":"9591106"},{"name":"四日町","zip_code":"9550854"},{"name":"若宮新田","zip_code":"9591105"},{"name":"渡前","zip_code":"9591132"}]},{"name":"柏崎市","divisions":[{"name":"青山町","zip_code":"9450016"},{"name":"赤坂町","zip_code":"9450847"},{"name":"上輪","zip_code":"9493664"},{"name":"上輪新田","zip_code":"9493663"},{"name":"朝日が丘","zip_code":"9450814"},{"name":"畔屋","zip_code":"9450112"},{"name":"荒浜","zip_code":"9450017"},{"name":"安政町","zip_code":"9450071"},{"name":"飯塚","zip_code":"9450219"},{"name":"五十土","zip_code":"9450212"},{"name":"石曽根","zip_code":"9451436"},{"name":"市野新田","zip_code":"9451251"},{"name":"茨目","zip_code":"9451341"},{"name":"芋川","zip_code":"9451114"},{"name":"岩上","zip_code":"9450811"},{"name":"駅前","zip_code":"9450055"},{"name":"扇町","zip_code":"9450044"},{"name":"青海川","zip_code":"9493661"},{"name":"大久保","zip_code":"9450851"},{"name":"大河内新田","zip_code":"9451126"},{"name":"大沢","zip_code":"9451438"},{"name":"大清水","zip_code":"9493674"},{"name":"大平","zip_code":"9493672"},{"name":"大広田","zip_code":"9493724"},{"name":"大湊","zip_code":"9450403"},{"name":"小倉町","zip_code":"9450076"},{"name":"女谷","zip_code":"9451252"},{"name":"折居","zip_code":"9451253"},{"name":"貝渕","zip_code":"9451123"},{"name":"鏡町","zip_code":"9450053"},{"name":"笠島","zip_code":"9493662"},{"name":"春日","zip_code":"9450074"},{"name":"学校町","zip_code":"9450065"},{"name":"加納","zip_code":"9451431"},{"name":"上方","zip_code":"9451121"},{"name":"上田尻","zip_code":"9451351"},{"name":"上原","zip_code":"9450021"},{"name":"軽井川","zip_code":"9451355"},{"name":"木沢","zip_code":"9451247"},{"name":"北条","zip_code":"9493732"},{"name":"北園町","zip_code":"9450072"},{"name":"北半田","zip_code":"9450035"},{"name":"希望が丘","zip_code":"9450815"},{"name":"旧広田","zip_code":"9493725"},{"name":"鯨波","zip_code":"9450855"},{"name":"黒滝","zip_code":"9451124"},{"name":"久米","zip_code":"9451243"},{"name":"剣野","zip_code":"9450836"},{"name":"剣野町","zip_code":"9450835"},{"name":"向陽町","zip_code":"9451102"},{"name":"小金町","zip_code":"9450024"},{"name":"小黒須","zip_code":"9450211"},{"name":"小島","zip_code":"9493735"},{"name":"小杉","zip_code":"9450858"},{"name":"小田山新田","zip_code":"9451125"},{"name":"寿町","zip_code":"9450846"},{"name":"幸町","zip_code":"9450821"},{"name":"栄町","zip_code":"9450061"},{"name":"桜木町","zip_code":"9450073"},{"name":"佐藤池新田","zip_code":"9451354"},{"name":"佐水","zip_code":"9451115"},{"name":"三和町","zip_code":"9451342"},{"name":"椎谷","zip_code":"9450401"},{"name":"清水谷","zip_code":"9451246"},{"name":"下大新田","zip_code":"9450103"},{"name":"下方","zip_code":"9451104"},{"name":"下田尻","zip_code":"9451345"},{"name":"上条","zip_code":"9451118"},{"name":"城塚","zip_code":"9451343"},{"name":"城東","zip_code":"9450825"},{"name":"新赤坂","zip_code":"9450845"},{"name":"新田畑","zip_code":"9450031"},{"name":"新道","zip_code":"9451122"},{"name":"新橋","zip_code":"9450056"},{"name":"新花町","zip_code":"9450062"},{"name":"諏訪町","zip_code":"9450063"},{"name":"関町","zip_code":"9450832"},{"name":"善根","zip_code":"9451432"},{"name":"曽地","zip_code":"9450214"},{"name":"曽地新田","zip_code":"9450217"},{"name":"高畔","zip_code":"9493673"},{"name":"高柳町石黒","zip_code":"9451515"},{"name":"高柳町漆島","zip_code":"9451511"},{"name":"高柳町岡田","zip_code":"9451501"},{"name":"高柳町岡野町","zip_code":"9451502"},{"name":"高柳町荻ノ島","zip_code":"9451512"},{"name":"高柳町門出","zip_code":"9451513"},{"name":"高柳町高尾","zip_code":"9451505"},{"name":"高柳町田代","zip_code":"9451514"},{"name":"高柳町栃ケ原","zip_code":"9451504"},{"name":"高柳町山中","zip_code":"9451503"},{"name":"宝町","zip_code":"9450817"},{"name":"田塚","zip_code":"9450032"},{"name":"田中","zip_code":"9450816"},{"name":"田屋","zip_code":"9451248"},{"name":"谷根","zip_code":"9450857"},{"name":"中央町","zip_code":"9450064"},{"name":"剣","zip_code":"9450105"},{"name":"土合","zip_code":"9450106"},{"name":"土合新田","zip_code":"9450104"},{"name":"東条","zip_code":"9493731"},{"name":"東の輪町","zip_code":"9450854"},{"name":"常盤台","zip_code":"9450834"},{"name":"長崎","zip_code":"9450101"},{"name":"長崎新田","zip_code":"9450102"},{"name":"中田","zip_code":"9450113"},{"name":"中浜","zip_code":"9450852"},{"name":"長浜町","zip_code":"9450042"},{"name":"長峰町","zip_code":"9451105"},{"name":"成沢","zip_code":"9450213"},{"name":"南光町","zip_code":"9450823"},{"name":"錦町","zip_code":"9450052"},{"name":"西長鳥","zip_code":"9493723"},{"name":"西本町","zip_code":"9450066"},{"name":"西港町","zip_code":"9450067"},{"name":"西山町池浦","zip_code":"9494123"},{"name":"西山町石地","zip_code":"9494201"},{"name":"西山町五日市","zip_code":"9494149"},{"name":"西山町伊毛","zip_code":"9494128"},{"name":"西山町後谷","zip_code":"9494131"},{"name":"西山町内方","zip_code":"9494148"},{"name":"西山町大崎","zip_code":"9494204"},{"name":"西山町大津","zip_code":"9494203"},{"name":"西山町大坪","zip_code":"9494147"},{"name":"西山町鬼王","zip_code":"9494133"},{"name":"西山町尾野内","zip_code":"9494112"},{"name":"西山町尾町","zip_code":"9494202"},{"name":"西山町鎌田","zip_code":"9494127"},{"name":"西山町上山田","zip_code":"9494113"},{"name":"西山町北野","zip_code":"9494145"},{"name":"西山町黒部","zip_code":"9494142"},{"name":"西山町甲田","zip_code":"9494206"},{"name":"西山町坂田","zip_code":"9494135"},{"name":"西山町下山田","zip_code":"9494126"},{"name":"西山町新保","zip_code":"9494144"},{"name":"西山町田沢","zip_code":"9494121"},{"name":"西山町中央台","zip_code":"9494125"},{"name":"西山町長嶺","zip_code":"9494132"},{"name":"西山町西山","zip_code":"9494141"},{"name":"西山町灰爪","zip_code":"9494114"},{"name":"西山町浜忠","zip_code":"9494205"},{"name":"西山町藤掛","zip_code":"9494122"},{"name":"西山町二田","zip_code":"9494134"},{"name":"西山町別山","zip_code":"9494111"},{"name":"西山町緑が丘","zip_code":"9494136"},{"name":"西山町妙法寺","zip_code":"9494146"},{"name":"西山町礼拝","zip_code":"9494124"},{"name":"西山町和田","zip_code":"9494143"},{"name":"日石町","zip_code":"9450054"},{"name":"南下","zip_code":"9451112"},{"name":"野田","zip_code":"9451241"},{"name":"橋場","zip_code":"9450012"},{"name":"橋場町","zip_code":"9450014"},{"name":"花田","zip_code":"9450218"},{"name":"原町","zip_code":"9450023"},{"name":"番神","zip_code":"9450853"},{"name":"半田","zip_code":"9450812"},{"name":"東長鳥","zip_code":"9493722"},{"name":"東長浜町","zip_code":"9450033"},{"name":"東原町","zip_code":"9450022"},{"name":"東本町","zip_code":"9450051"},{"name":"東港町","zip_code":"9450068"},{"name":"東柳田","zip_code":"9450036"},{"name":"比角","zip_code":"9450047"},{"name":"日吉町","zip_code":"9450043"},{"name":"平井","zip_code":"9451353"},{"name":"枇杷島","zip_code":"9450824"},{"name":"藤井","zip_code":"9450114"},{"name":"藤橋","zip_code":"9451103"},{"name":"藤元町","zip_code":"9450026"},{"name":"古町","zip_code":"9451113"},{"name":"北斗町","zip_code":"9450027"},{"name":"細越","zip_code":"9451242"},{"name":"穂波町","zip_code":"9450822"},{"name":"堀","zip_code":"9451111"},{"name":"本条","zip_code":"9493733"},{"name":"槇原町","zip_code":"9450015"},{"name":"松波","zip_code":"9450011"},{"name":"松美","zip_code":"9450041"},{"name":"三島町","zip_code":"9450837"},{"name":"三島西","zip_code":"9450838"},{"name":"水上","zip_code":"9451244"},{"name":"緑町","zip_code":"9450841"},{"name":"南条","zip_code":"9493734"},{"name":"南半田","zip_code":"9450813"},{"name":"宮川","zip_code":"9450402"},{"name":"宮川新田","zip_code":"9451245"},{"name":"宮平","zip_code":"9451434"},{"name":"宮之窪","zip_code":"9451117"},{"name":"宮場町","zip_code":"9450827"},{"name":"元城町","zip_code":"9450826"},{"name":"森近","zip_code":"9451435"},{"name":"安田","zip_code":"9451352"},{"name":"矢田","zip_code":"9450215"},{"name":"柳田町","zip_code":"9450025"},{"name":"柳橋町","zip_code":"9450831"},{"name":"山口","zip_code":"9451116"},{"name":"山澗","zip_code":"9493726"},{"name":"大和町","zip_code":"9450075"},{"name":"山室","zip_code":"9451437"},{"name":"山本","zip_code":"9450013"},{"name":"豊町","zip_code":"9450045"},{"name":"ゆりが丘","zip_code":"9451106"},{"name":"与板","zip_code":"9451433"},{"name":"横山","zip_code":"9451101"},{"name":"吉井","zip_code":"9450216"},{"name":"吉井黒川","zip_code":"9493721"},{"name":"与三","zip_code":"9450111"},{"name":"四谷","zip_code":"9450046"},{"name":"米山台","zip_code":"9450842"},{"name":"米山台東","zip_code":"9450843"},{"name":"米山台西","zip_code":"9450844"},{"name":"米山町","zip_code":"9493675"},{"name":"両田尻","zip_code":"9451344"},{"name":"若葉町","zip_code":"9450833"},{"name":"蕨野","zip_code":"9493671"}]},{"name":"新発田市","divisions":[{"name":"赤橋","zip_code":"9592314"},{"name":"荒川","zip_code":"9570045"},{"name":"荒町","zip_code":"9592311"},{"name":"新屋敷","zip_code":"9592443"},{"name":"飯島甲","zip_code":"9570084"},{"name":"飯島乙","zip_code":"9570085"},{"name":"飯島新田","zip_code":"9570086"},{"name":"池ノ端","zip_code":"9592321"},{"name":"石喜","zip_code":"9570353"},{"name":"五十公野","zip_code":"9570021"},{"name":"板敷","zip_code":"9570013"},{"name":"板山","zip_code":"9570344"},{"name":"稲荷","zip_code":"9592406"},{"name":"稲荷岡","zip_code":"9570204"},{"name":"丑首","zip_code":"9570035"},{"name":"浦","zip_code":"9570042"},{"name":"浦新田","zip_code":"9570041"},{"name":"江口","zip_code":"9570037"},{"name":"大崎","zip_code":"9570043"},{"name":"太田新田","zip_code":"9570091"},{"name":"大槻","zip_code":"9570465"},{"name":"大手町","zip_code":"9570052"},{"name":"大友","zip_code":"9570347"},{"name":"大中島","zip_code":"9570217"},{"name":"大野","zip_code":"9592461"},{"name":"岡島","zip_code":"9592463"},{"name":"岡田","zip_code":"9570356"},{"name":"岡屋敷","zip_code":"9592333"},{"name":"小川","zip_code":"9570224"},{"name":"小国谷","zip_code":"9592471"},{"name":"奥山新保","zip_code":"9570064"},{"name":"小島","zip_code":"9592402"},{"name":"押廻","zip_code":"9592434"},{"name":"小戸","zip_code":"9570345"},{"name":"乙次","zip_code":"9592323"},{"name":"小友","zip_code":"9570031"},{"name":"小見","zip_code":"9570034"},{"name":"貝塚","zip_code":"9592476"},{"name":"貝屋","zip_code":"9592472"},{"name":"加治万代","zip_code":"9592336"},{"name":"片桐","zip_code":"9570212"},{"name":"金沢","zip_code":"9592479"},{"name":"金津","zip_code":"9592441"},{"name":"金塚","zip_code":"9592464"},{"name":"金谷","zip_code":"9570014"},{"name":"金山","zip_code":"9592473"},{"name":"釜杭","zip_code":"9592431"},{"name":"上赤谷","zip_code":"9570464"},{"name":"上荒沢","zip_code":"9592501"},{"name":"上石川","zip_code":"9592514"},{"name":"上今泉","zip_code":"9592421"},{"name":"上楠川","zip_code":"9570334"},{"name":"上小松","zip_code":"9592455"},{"name":"上三光","zip_code":"9570331"},{"name":"上寺内","zip_code":"9592504"},{"name":"上新保","zip_code":"9570024"},{"name":"上館","zip_code":"9592452"},{"name":"上内竹","zip_code":"9570025"},{"name":"上中江","zip_code":"9592523"},{"name":"上中沢","zip_code":"9570081"},{"name":"上中山","zip_code":"9570046"},{"name":"上羽津","zip_code":"9570343"},{"name":"川口","zip_code":"9592407"},{"name":"川尻","zip_code":"9592435"},{"name":"北中江","zip_code":"9592522"},{"name":"北蓑口","zip_code":"9570074"},{"name":"切梅","zip_code":"9592303"},{"name":"熊出","zip_code":"9592502"},{"name":"蔵光","zip_code":"9592521"},{"name":"黒岩","zip_code":"9592527"},{"name":"桑ノ口","zip_code":"9570003"},{"name":"小出","zip_code":"9592512"},{"name":"高山寺","zip_code":"9592437"},{"name":"小坂","zip_code":"9592315"},{"name":"古田","zip_code":"9570202"},{"name":"湖南","zip_code":"9592401"},{"name":"小舟町","zip_code":"9570007"},{"name":"境","zip_code":"9592474"},{"name":"佐々木","zip_code":"9570082"},{"name":"繁山","zip_code":"9592513"},{"name":"島潟","zip_code":"9570011"},{"name":"下飯塚","zip_code":"9592331"},{"name":"下石川","zip_code":"9592516"},{"name":"下今泉","zip_code":"9592457"},{"name":"下楠川","zip_code":"9570335"},{"name":"下興野","zip_code":"9570083"},{"name":"下小中山","zip_code":"9592477"},{"name":"下小松","zip_code":"9592456"},{"name":"下坂町","zip_code":"9592478"},{"name":"下三光","zip_code":"9570336"},{"name":"下寺内","zip_code":"9592505"},{"name":"下城","zip_code":"9592404"},{"name":"下新保","zip_code":"9570023"},{"name":"下高関","zip_code":"9570354"},{"name":"下内竹","zip_code":"9570026"},{"name":"下中","zip_code":"9592451"},{"name":"下中江","zip_code":"9592524"},{"name":"下中沢","zip_code":"9570203"},{"name":"下中ノ目","zip_code":"9592322"},{"name":"下中山","zip_code":"9592503"},{"name":"下西山","zip_code":"9592417"},{"name":"下羽津","zip_code":"9570341"},{"name":"下山田","zip_code":"9592414"},{"name":"城北町","zip_code":"9570051"},{"name":"新栄町","zip_code":"9570063"},{"name":"新富町","zip_code":"9570017"},{"name":"新保小路","zip_code":"9592444"},{"name":"菅谷","zip_code":"9592511"},{"name":"砂山","zip_code":"9570087"},{"name":"住田","zip_code":"9592415"},{"name":"住吉","zip_code":"9570215"},{"name":"住吉町","zip_code":"9570061"},{"name":"諏訪町","zip_code":"9570055"},{"name":"関井","zip_code":"9570205"},{"name":"関妻","zip_code":"9592422"},{"name":"草荷","zip_code":"9592436"},{"name":"相馬","zip_code":"9592465"},{"name":"曽根","zip_code":"9570071"},{"name":"大栄町","zip_code":"9570056"},{"name":"大伝","zip_code":"9592304"},{"name":"田貝","zip_code":"9570333"},{"name":"高島","zip_code":"9570213"},{"name":"高田","zip_code":"9592425"},{"name":"滝","zip_code":"9592518"},{"name":"滝沢","zip_code":"9592381"},{"name":"滝谷","zip_code":"9570462"},{"name":"竹ケ花","zip_code":"9592301"},{"name":"竹俣万代","zip_code":"9592337"},{"name":"太斎","zip_code":"9592312"},{"name":"館野小路","zip_code":"9592445"},{"name":"中央町","zip_code":"9570053"},{"name":"長者舘","zip_code":"9570221"},{"name":"塚田","zip_code":"9592403"},{"name":"月岡","zip_code":"9592334"},{"name":"月岡温泉","zip_code":"9592338"},{"name":"敦賀","zip_code":"9570355"},{"name":"寺尾","zip_code":"9592475"},{"name":"天王","zip_code":"9592325"},{"name":"戸板沢","zip_code":"9592305"},{"name":"道賀","zip_code":"9570001"},{"name":"東新町","zip_code":"9570015"},{"name":"戸野港","zip_code":"9592462"},{"name":"富島","zip_code":"9570207"},{"name":"富塚町","zip_code":"9570062"},{"name":"虎丸","zip_code":"9570332"},{"name":"鳥穴","zip_code":"9570092"},{"name":"中川","zip_code":"9592515"},{"name":"中倉","zip_code":"9592525"},{"name":"中島","zip_code":"9570214"},{"name":"長島","zip_code":"9570223"},{"name":"中曽根町","zip_code":"9570067"},{"name":"中田町","zip_code":"9570006"},{"name":"中俵","zip_code":"9592468"},{"name":"中妻","zip_code":"9592526"},{"name":"中々山","zip_code":"9570461"},{"name":"中野","zip_code":"9570222"},{"name":"中ノ目新田","zip_code":"9592329"},{"name":"長畑","zip_code":"9570005"},{"name":"中谷内","zip_code":"9570002"},{"name":"西浦","zip_code":"9592416"},{"name":"西園町","zip_code":"9570058"},{"name":"西名柄","zip_code":"9570004"},{"name":"西姫田","zip_code":"9570357"},{"name":"西蓑口","zip_code":"9570075"},{"name":"西宮内","zip_code":"9570076"},{"name":"二本木","zip_code":"9592432"},{"name":"野中","zip_code":"9592405"},{"name":"則清","zip_code":"9570077"},{"name":"則清新田","zip_code":"9570078"},{"name":"乗廻","zip_code":"9592328"},{"name":"箱岩","zip_code":"9592413"},{"name":"早道場","zip_code":"9592454"},{"name":"万代","zip_code":"9592332"},{"name":"東赤谷","zip_code":"9570463"},{"name":"東塚ノ目","zip_code":"9570012"},{"name":"東姫田","zip_code":"9570351"},{"name":"東宮内","zip_code":"9592528"},{"name":"人橋","zip_code":"9570235"},{"name":"平山","zip_code":"9592412"},{"name":"日渡","zip_code":"9570072"},{"name":"福岡","zip_code":"9570206"},{"name":"福島","zip_code":"9592327"},{"name":"藤掛","zip_code":"9592313"},{"name":"藤塚浜","zip_code":"9570231"},{"name":"二ツ堂","zip_code":"9592302"},{"name":"二ツ山","zip_code":"9570234"},{"name":"舟入","zip_code":"9570066"},{"name":"舟入町","zip_code":"9570065"},{"name":"麓","zip_code":"9592517"},{"name":"古川","zip_code":"9592433"},{"name":"古楯","zip_code":"9592409"},{"name":"古寺","zip_code":"9570022"},{"name":"法正橋","zip_code":"9570047"},{"name":"本田","zip_code":"9592335"},{"name":"本町","zip_code":"9570054"},{"name":"本間新田","zip_code":"9570342"},{"name":"松岡","zip_code":"9570044"},{"name":"真中","zip_code":"9570201"},{"name":"真野原","zip_code":"9570233"},{"name":"真野原外","zip_code":"9570232"},{"name":"弓越","zip_code":"9570073"},{"name":"溝足","zip_code":"9592507"},{"name":"瑞波","zip_code":"9570048"},{"name":"三日市","zip_code":"9592453"},{"name":"三ツ椡","zip_code":"9592326"},{"name":"緑町","zip_code":"9570018"},{"name":"南楯","zip_code":"9570352"},{"name":"南成田","zip_code":"9570216"},{"name":"宮古木","zip_code":"9570346"},{"name":"宮吉","zip_code":"9570226"},{"name":"御幸町","zip_code":"9570057"},{"name":"茗荷谷","zip_code":"9592442"},{"name":"六日町","zip_code":"9570027"},{"name":"向中条","zip_code":"9592426"},{"name":"元郷","zip_code":"9570236"},{"name":"山内","zip_code":"9570466"},{"name":"山崎","zip_code":"9570028"},{"name":"八幡","zip_code":"9570033"},{"name":"八幡新田","zip_code":"9570032"},{"name":"豊町","zip_code":"9570016"},{"name":"横岡","zip_code":"9592411"},{"name":"横山","zip_code":"9592506"},{"name":"吉浦","zip_code":"9592324"},{"name":"吉田","zip_code":"9592408"},{"name":"米倉","zip_code":"9570036"},{"name":"米子","zip_code":"9570225"}]},{"name":"小千谷市","divisions":[{"name":"旭町","zip_code":"9470005"},{"name":"池ケ原","zip_code":"9498728"},{"name":"池中新田","zip_code":"9498727"},{"name":"稲荷町","zip_code":"9470025"},{"name":"岩沢","zip_code":"9498724"},{"name":"上ノ山","zip_code":"9470026"},{"name":"浦柄","zip_code":"9470001"},{"name":"片貝町","zip_code":"9470101"},{"name":"片貝山屋町","zip_code":"9470103"},{"name":"上片貝","zip_code":"9470013"},{"name":"川井","zip_code":"9498722"},{"name":"川井新田","zip_code":"9498723"},{"name":"鴻巣町","zip_code":"9470045"},{"name":"小栗山","zip_code":"9470211"},{"name":"小粟田","zip_code":"9470041"},{"name":"栄町","zip_code":"9470011"},{"name":"桜町","zip_code":"9470035"},{"name":"三仏生","zip_code":"9470051"},{"name":"塩谷","zip_code":"9470213"},{"name":"塩殿","zip_code":"9498721"},{"name":"城内","zip_code":"9470028"},{"name":"高梨町","zip_code":"9470102"},{"name":"千谷","zip_code":"9470052"},{"name":"千谷川","zip_code":"9470053"},{"name":"土川","zip_code":"9470031"},{"name":"坪野","zip_code":"9470044"},{"name":"東栄","zip_code":"9470004"},{"name":"時水","zip_code":"9470033"},{"name":"西中","zip_code":"9470014"},{"name":"西吉谷","zip_code":"9470018"},{"name":"ひ生","zip_code":"9470003"},{"name":"東吉谷","zip_code":"9470017"},{"name":"日吉","zip_code":"9470023"},{"name":"平沢","zip_code":"9470042"},{"name":"平沢新田","zip_code":"9470042"},{"name":"船岡","zip_code":"9470024"},{"name":"平成","zip_code":"9470027"},{"name":"豊久新田","zip_code":"9498725"},{"name":"本町","zip_code":"9470021"},{"name":"真人町","zip_code":"9498726"},{"name":"南荷頃","zip_code":"9470212"},{"name":"元町","zip_code":"9470022"},{"name":"谷内","zip_code":"9470015"},{"name":"薮川","zip_code":"9470032"},{"name":"山本","zip_code":"9470012"},{"name":"山谷","zip_code":"9470043"},{"name":"横渡","zip_code":"9470002"},{"name":"四ツ子","zip_code":"9470016"},{"name":"両新田","zip_code":"9470034"},{"name":"若葉","zip_code":"9470054"}]},{"name":"加茂市","divisions":[{"name":"青海町","zip_code":"9591326"},{"name":"赤谷","zip_code":"9591324"},{"name":"秋房","zip_code":"9591356"},{"name":"旭町","zip_code":"9591383"},{"name":"石川","zip_code":"9591312"},{"name":"鵜森","zip_code":"9591306"},{"name":"後須田","zip_code":"9591303"},{"name":"駅前","zip_code":"9591378"},{"name":"岡ノ町","zip_code":"9591377"},{"name":"学校町","zip_code":"9591322"},{"name":"上大谷","zip_code":"9591343"},{"name":"上高柳","zip_code":"9591347"},{"name":"上土倉","zip_code":"9591342"},{"name":"上町","zip_code":"9591352"},{"name":"加茂新田","zip_code":"9591311"},{"name":"北潟","zip_code":"9591301"},{"name":"希望ケ丘","zip_code":"9591321"},{"name":"黒水","zip_code":"9591336"},{"name":"下条","zip_code":"9591361"},{"name":"穀町","zip_code":"9591371"},{"name":"五反田","zip_code":"9591302"},{"name":"寿町","zip_code":"9591384"},{"name":"小橋","zip_code":"9591375"},{"name":"五番町","zip_code":"9591353"},{"name":"幸町","zip_code":"9591313"},{"name":"栄町","zip_code":"9591382"},{"name":"桜沢","zip_code":"9591357"},{"name":"芝野","zip_code":"9591363"},{"name":"下大谷","zip_code":"9591344"},{"name":"下高柳","zip_code":"9591346"},{"name":"下土倉","zip_code":"9591341"},{"name":"上条","zip_code":"9591332"},{"name":"新栄町","zip_code":"9591381"},{"name":"陣ケ峰","zip_code":"9591328"},{"name":"新町","zip_code":"9591354"},{"name":"神明町","zip_code":"9591325"},{"name":"砂押新田","zip_code":"9591305"},{"name":"狭口","zip_code":"9591334"},{"name":"千刈","zip_code":"9591327"},{"name":"大郷町","zip_code":"9591385"},{"name":"高須町","zip_code":"9591387"},{"name":"田中新田","zip_code":"9591307"},{"name":"天神林","zip_code":"9591315"},{"name":"中大谷","zip_code":"9591345"},{"name":"長谷","zip_code":"9591335"},{"name":"仲町","zip_code":"9591351"},{"name":"中村","zip_code":"9591376"},{"name":"西山","zip_code":"9591337"},{"name":"番田","zip_code":"9591314"},{"name":"本町","zip_code":"9591372"},{"name":"前須田","zip_code":"9591304"},{"name":"松坂町","zip_code":"9591373"},{"name":"皆川","zip_code":"9591331"},{"name":"都ケ丘","zip_code":"9591323"},{"name":"宮寄上","zip_code":"9591348"},{"name":"矢立","zip_code":"9591374"},{"name":"柳町","zip_code":"9591386"},{"name":"山島新田","zip_code":"9591316"},{"name":"八幡","zip_code":"9591333"},{"name":"横江","zip_code":"9591362"},{"name":"若宮町","zip_code":"9591355"}]},{"name":"十日町市","divisions":[{"name":"会沢","zip_code":"9421543"},{"name":"明石町","zip_code":"9480046"},{"name":"赤谷","zip_code":"9480213"},{"name":"麻畑","zip_code":"9480045"},{"name":"莇平","zip_code":"9421531"},{"name":"当間","zip_code":"9498544"},{"name":"天池","zip_code":"9498531"},{"name":"新里","zip_code":"9498445"},{"name":"新町新田","zip_code":"9480121"},{"name":"荒屋","zip_code":"9498414"},{"name":"新屋敷","zip_code":"9498502"},{"name":"安養寺","zip_code":"9498562"},{"name":"池沢","zip_code":"9498541"},{"name":"池尻","zip_code":"9421525"},{"name":"池之尻","zip_code":"9498532"},{"name":"池之畑","zip_code":"9421515"},{"name":"泉町","zip_code":"9480062"},{"name":"伊勢平治","zip_code":"9480131"},{"name":"市之越","zip_code":"9498422"},{"name":"稲葉","zip_code":"9480101"},{"name":"稲荷町","zip_code":"9480073"},{"name":"稲荷町三丁目","zip_code":"9480091"},{"name":"稲荷町三丁目北","zip_code":"9480092"},{"name":"稲荷町三丁目南","zip_code":"9480093"},{"name":"稲荷町西","zip_code":"9480073"},{"name":"犬伏","zip_code":"9421504"},{"name":"芋川","zip_code":"9498441"},{"name":"芋川新田","zip_code":"9498421"},{"name":"芋沢","zip_code":"9498405"},{"name":"岩瀬","zip_code":"9480212"},{"name":"上野","zip_code":"9480122"},{"name":"浦田","zip_code":"9421342"},{"name":"漆島","zip_code":"9498533"},{"name":"上山","zip_code":"9498401"},{"name":"駅通り","zip_code":"9480088"},{"name":"江道","zip_code":"9480014"},{"name":"大池","zip_code":"9480018"},{"name":"大石","zip_code":"9498555"},{"name":"大倉","zip_code":"9480211"},{"name":"大黒沢","zip_code":"9498521"},{"name":"大白倉","zip_code":"9480305"},{"name":"太田島","zip_code":"9498524"},{"name":"沖立","zip_code":"9480133"},{"name":"尾崎","zip_code":"9480008"},{"name":"苧島","zip_code":"9421505"},{"name":"海老","zip_code":"9421511"},{"name":"加賀糸屋町","zip_code":"9480086"},{"name":"角間","zip_code":"9498435"},{"name":"春日町","zip_code":"9480057"},{"name":"片桐山","zip_code":"9421502"},{"name":"学校町","zip_code":"9480022"},{"name":"桂","zip_code":"9498402"},{"name":"上新井","zip_code":"9480134"},{"name":"上川町","zip_code":"9480029"},{"name":"上組","zip_code":"9498602"},{"name":"蒲生","zip_code":"9421534"},{"name":"河内町","zip_code":"9480038"},{"name":"川治","zip_code":"9480036"},{"name":"川治下町","zip_code":"9480035"},{"name":"川原町","zip_code":"9480013"},{"name":"木落","zip_code":"9480304"},{"name":"桔梗原","zip_code":"9498419"},{"name":"北鐙坂","zip_code":"9480105"},{"name":"北新田","zip_code":"9480041"},{"name":"儀明","zip_code":"9421536"},{"name":"桐山","zip_code":"9421541"},{"name":"木和田原","zip_code":"9421352"},{"name":"倉下","zip_code":"9498432"},{"name":"倉俣","zip_code":"9498412"},{"name":"鍬柄沢","zip_code":"9498543"},{"name":"下条","zip_code":"9498603"},{"name":"源田","zip_code":"9498542"},{"name":"小荒戸","zip_code":"9421523"},{"name":"小池","zip_code":"9421538"},{"name":"小泉","zip_code":"9480103"},{"name":"小出","zip_code":"9498433"},{"name":"高道山","zip_code":"9498416"},{"name":"小黒沢","zip_code":"9498527"},{"name":"五軒新田","zip_code":"9480001"},{"name":"越ケ沢","zip_code":"9480219"},{"name":"小白倉","zip_code":"9480306"},{"name":"寿町","zip_code":"9480051"},{"name":"小根岸","zip_code":"9480125"},{"name":"小原","zip_code":"9498409"},{"name":"小屋丸","zip_code":"9421514"},{"name":"小脇","zip_code":"9480218"},{"name":"西方","zip_code":"9498436"},{"name":"幸町","zip_code":"9498525"},{"name":"桜木町","zip_code":"9480058"},{"name":"真田乙","zip_code":"9480112"},{"name":"真田甲","zip_code":"9480111"},{"name":"真田丁","zip_code":"9480113"},{"name":"真田丙","zip_code":"9480114"},{"name":"猿倉","zip_code":"9480015"},{"name":"三領","zip_code":"9480124"},{"name":"三和町","zip_code":"9480002"},{"name":"塩ノ又","zip_code":"9480039"},{"name":"下平新田","zip_code":"9480123"},{"name":"七軒町","zip_code":"9480084"},{"name":"島","zip_code":"9480077"},{"name":"清水","zip_code":"9421542"},{"name":"下川原町","zip_code":"9480004"},{"name":"下組","zip_code":"9498604"},{"name":"霜条","zip_code":"9480141"},{"name":"重地","zip_code":"9498442"},{"name":"昭和町","zip_code":"9480061"},{"name":"白羽毛","zip_code":"9498427"},{"name":"新座乙","zip_code":"9498612"},{"name":"新座","zip_code":"9480012"},{"name":"新宮","zip_code":"9498526"},{"name":"神明町","zip_code":"9480025"},{"name":"菅刈","zip_code":"9421521"},{"name":"姿","zip_code":"9498561"},{"name":"菅沼","zip_code":"9480017"},{"name":"住吉町","zip_code":"9480076"},{"name":"諏訪町","zip_code":"9480024"},{"name":"清田山","zip_code":"9498444"},{"name":"関口樋口町","zip_code":"9480087"},{"name":"関根","zip_code":"9480032"},{"name":"仙納","zip_code":"9421532"},{"name":"太平","zip_code":"9421527"},{"name":"高倉","zip_code":"9480217"},{"name":"高島","zip_code":"9480107"},{"name":"高田町","zip_code":"9480063"},{"name":"高田町三丁目","zip_code":"9480065"},{"name":"鷹羽","zip_code":"9498423"},{"name":"高原田","zip_code":"9480136"},{"name":"高山","zip_code":"9480055"},{"name":"田川町","zip_code":"9480021"},{"name":"滝沢","zip_code":"9421501"},{"name":"竹所","zip_code":"9421356"},{"name":"田沢本村","zip_code":"9498403"},{"name":"田代","zip_code":"9498413"},{"name":"伊達","zip_code":"9498522"},{"name":"城之古","zip_code":"9480047"},{"name":"田戸","zip_code":"9480215"},{"name":"田中","zip_code":"9498407"},{"name":"田中町","zip_code":"9480028"},{"name":"田野倉","zip_code":"9421533"},{"name":"珠川","zip_code":"9498556"},{"name":"田麦","zip_code":"9480044"},{"name":"樽沢","zip_code":"9480104"},{"name":"千年","zip_code":"9421524"},{"name":"千歳町","zip_code":"9480067"},{"name":"千代田町","zip_code":"9480078"},{"name":"津池","zip_code":"9480016"},{"name":"塚原町","zip_code":"9480054"},{"name":"土倉","zip_code":"9498431"},{"name":"坪山","zip_code":"9480145"},{"name":"妻有町","zip_code":"9480037"},{"name":"鶴吉","zip_code":"9480146"},{"name":"寺ケ崎","zip_code":"9480303"},{"name":"寺田","zip_code":"9421537"},{"name":"土市","zip_code":"9498523"},{"name":"峠","zip_code":"9421351"},{"name":"東善寺","zip_code":"9480142"},{"name":"十日町赤倉","zip_code":"9480019"},{"name":"十日町栄町","zip_code":"9480068"},{"name":"通り山","zip_code":"9498415"},{"name":"友重","zip_code":"9480132"},{"name":"中子","zip_code":"9421506"},{"name":"中在家","zip_code":"9498552"},{"name":"中里下山","zip_code":"9498443"},{"name":"中条乙","zip_code":"9498616"},{"name":"中条庚","zip_code":"9498613"},{"name":"中条己","zip_code":"9498617"},{"name":"中条甲","zip_code":"9498615"},{"name":"中条丁","zip_code":"9498611"},{"name":"中条丙","zip_code":"9498614"},{"name":"中条戊","zip_code":"9498618"},{"name":"中仙田","zip_code":"9480214"},{"name":"中村","zip_code":"9480042"},{"name":"中屋敷","zip_code":"9480135"},{"name":"南雲","zip_code":"9498554"},{"name":"名平","zip_code":"9421535"},{"name":"奈良立","zip_code":"9421355"},{"name":"西浦町","zip_code":"9480074"},{"name":"錦町","zip_code":"9480053"},{"name":"西田尻","zip_code":"9498437"},{"name":"西寺町","zip_code":"9480085"},{"name":"西本町","zip_code":"9480072"},{"name":"仁田","zip_code":"9480302"},{"name":"如来寺","zip_code":"9498404"},{"name":"野口","zip_code":"9480301"},{"name":"野中","zip_code":"9498545"},{"name":"八幡田町","zip_code":"9480071"},{"name":"八箇","zip_code":"9480033"},{"name":"馬場","zip_code":"9498551"},{"name":"原町","zip_code":"9498446"},{"name":"東下組","zip_code":"9498601"},{"name":"東田沢","zip_code":"9498424"},{"name":"東田尻","zip_code":"9498425"},{"name":"干溝","zip_code":"9498408"},{"name":"福島","zip_code":"9421354"},{"name":"袋町","zip_code":"9480066"},{"name":"二ツ屋","zip_code":"9480034"},{"name":"船坂","zip_code":"9480049"},{"name":"朴木沢","zip_code":"9498417"},{"name":"細尾","zip_code":"9498534"},{"name":"程島","zip_code":"9498426"},{"name":"堀之内","zip_code":"9498504"},{"name":"本町","zip_code":"9480083"},{"name":"本町西","zip_code":"9480083"},{"name":"本町東","zip_code":"9480083"},{"name":"松代","zip_code":"9421526"},{"name":"松代下山","zip_code":"9421513"},{"name":"松代田沢","zip_code":"9421522"},{"name":"松代東山","zip_code":"9421512"},{"name":"松之山","zip_code":"9421406"},{"name":"松之山赤倉","zip_code":"9421423"},{"name":"松之山天水越","zip_code":"9421435"},{"name":"松之山天水島","zip_code":"9421434"},{"name":"松之山新山","zip_code":"9421404"},{"name":"松之山五十子平","zip_code":"9421421"},{"name":"松之山猪之名","zip_code":"9421417"},{"name":"松之山大荒戸","zip_code":"9421403"},{"name":"松之山上鰕池","zip_code":"9421426"},{"name":"松之山観音寺","zip_code":"9421415"},{"name":"松之山黒倉","zip_code":"9421341"},{"name":"松之山小谷","zip_code":"9421402"},{"name":"松之山坂下","zip_code":"9421416"},{"name":"松之山沢口","zip_code":"9421413"},{"name":"松之山下鰕池","zip_code":"9421425"},{"name":"松之山坪野","zip_code":"9421422"},{"name":"松之山藤内名","zip_code":"9421418"},{"name":"松之山中尾","zip_code":"9421428"},{"name":"松之山橋詰","zip_code":"9421419"},{"name":"松之山東川","zip_code":"9421427"},{"name":"松之山東山","zip_code":"9421424"},{"name":"松之山光間","zip_code":"9421405"},{"name":"松之山藤倉","zip_code":"9421429"},{"name":"松之山古戸","zip_code":"9421414"},{"name":"松之山松口","zip_code":"9421411"},{"name":"松之山三桶","zip_code":"9421412"},{"name":"松之山水梨","zip_code":"9421401"},{"name":"松之山湯本","zip_code":"9421432"},{"name":"松之山湯山","zip_code":"9421431"},{"name":"丸山町","zip_code":"9480075"},{"name":"水沢","zip_code":"9498558"},{"name":"水沢市之沢","zip_code":"9498557"},{"name":"水野町","zip_code":"9480026"},{"name":"水口沢","zip_code":"9480144"},{"name":"南鐙坂","zip_code":"9480106"},{"name":"南新田町","zip_code":"9480005"},{"name":"宮沢","zip_code":"9498418"},{"name":"宮下町","zip_code":"9480023"},{"name":"宮中","zip_code":"9498505"},{"name":"美雪町","zip_code":"9480052"},{"name":"葎沢","zip_code":"9498434"},{"name":"室島","zip_code":"9480216"},{"name":"室野","zip_code":"9421353"},{"name":"孟地","zip_code":"9421503"},{"name":"本屋敷","zip_code":"9498503"},{"name":"谷内丑","zip_code":"9480048"},{"name":"山崎","zip_code":"9498406"},{"name":"山野田","zip_code":"9480143"},{"name":"山本町","zip_code":"9480031"},{"name":"山谷","zip_code":"9480102"},{"name":"四日町","zip_code":"9480006"},{"name":"四日町新田","zip_code":"9480007"},{"name":"蓬平","zip_code":"9421544"},{"name":"六箇山谷","zip_code":"9480043"},{"name":"若宮町","zip_code":"9480027"}]},{"name":"見附市","divisions":[{"name":"青木町","zip_code":"9540073"},{"name":"熱田町","zip_code":"9540061"},{"name":"池之内町","zip_code":"9540038"},{"name":"池之島町","zip_code":"9540021"},{"name":"石地町","zip_code":"9540013"},{"name":"市野坪町","zip_code":"9540083"},{"name":"今町","zip_code":"9540111"},{"name":"牛ケ嶺町","zip_code":"9540025"},{"name":"内町","zip_code":"9540008"},{"name":"漆山町","zip_code":"9540063"},{"name":"太田町","zip_code":"9540031"},{"name":"鹿熊町","zip_code":"9540064"},{"name":"片桐町","zip_code":"9540081"},{"name":"学校町","zip_code":"9540052"},{"name":"加坪川町","zip_code":"9540084"},{"name":"上新田町","zip_code":"9540112"},{"name":"河野町","zip_code":"9540024"},{"name":"北野町","zip_code":"9540072"},{"name":"葛巻","zip_code":"9540058"},{"name":"葛巻西町","zip_code":"9540077"},{"name":"葛巻東町","zip_code":"9540078"},{"name":"葛巻町","zip_code":"9540067"},{"name":"葛巻南町","zip_code":"9540079"},{"name":"小栗山町","zip_code":"9540002"},{"name":"坂井町","zip_code":"9540104"},{"name":"指出町","zip_code":"9540001"},{"name":"三林町","zip_code":"9540101"},{"name":"芝野町","zip_code":"9540087"},{"name":"島切窪町","zip_code":"9540012"},{"name":"下新町","zip_code":"9540062"},{"name":"下関町","zip_code":"9540105"},{"name":"下鳥町","zip_code":"9540007"},{"name":"釈迦塚町","zip_code":"9540102"},{"name":"庄川平町","zip_code":"9540017"},{"name":"庄川町","zip_code":"9540016"},{"name":"昭和町","zip_code":"9540059"},{"name":"新幸町","zip_code":"9540076"},{"name":"神保町","zip_code":"9540026"},{"name":"新町","zip_code":"9540057"},{"name":"杉澤町","zip_code":"9540022"},{"name":"反田町","zip_code":"9540085"},{"name":"田井町","zip_code":"9540036"},{"name":"田之尻町","zip_code":"9540103"},{"name":"月見台","zip_code":"9540034"},{"name":"椿澤町","zip_code":"9540037"},{"name":"戸代新田町","zip_code":"9540005"},{"name":"栃栄町","zip_code":"9540041"},{"name":"栃窪町","zip_code":"9540027"},{"name":"鳥屋脇町","zip_code":"9540044"},{"name":"名木野町","zip_code":"9540035"},{"name":"新潟西町","zip_code":"9540089"},{"name":"新潟東町","zip_code":"9540088"},{"name":"新潟町","zip_code":"9540006"},{"name":"仁嘉町","zip_code":"9540068"},{"name":"西今町","zip_code":"9540107"},{"name":"速水町","zip_code":"9540075"},{"name":"東今町","zip_code":"9540106"},{"name":"福島町","zip_code":"9540086"},{"name":"双葉町","zip_code":"9540046"},{"name":"傍所町","zip_code":"9540071"},{"name":"細越","zip_code":"9540054"},{"name":"堀溝町","zip_code":"9540014"},{"name":"本所","zip_code":"9540051"},{"name":"本町","zip_code":"9540053"},{"name":"本明町","zip_code":"9540032"},{"name":"緑町","zip_code":"9540045"},{"name":"南本町","zip_code":"9540056"},{"name":"嶺崎","zip_code":"9540055"},{"name":"耳取町","zip_code":"9540043"},{"name":"宮之原町","zip_code":"9540023"},{"name":"明晶町","zip_code":"9540033"},{"name":"元町","zip_code":"9540004"},{"name":"柳橋町","zip_code":"9540082"},{"name":"山崎興野町","zip_code":"9540011"},{"name":"山崎町","zip_code":"9540042"},{"name":"山吉町","zip_code":"9540074"}]},{"name":"村上市","divisions":[{"name":"赤沢","zip_code":"9580816"},{"name":"あけぼの","zip_code":"9580270"},{"name":"朝日中野","zip_code":"9580226"},{"name":"芦谷","zip_code":"9593651"},{"name":"荒川","zip_code":"9593923"},{"name":"荒川口","zip_code":"9593921"},{"name":"荒川縁新田","zip_code":"9593125"},{"name":"荒沢","zip_code":"9580203"},{"name":"荒島","zip_code":"9593103"},{"name":"安良町","zip_code":"9580846"},{"name":"荒屋","zip_code":"9593116"},{"name":"新屋","zip_code":"9580232"},{"name":"有明","zip_code":"9593414"},{"name":"飯岡","zip_code":"9593422"},{"name":"飯野","zip_code":"9580857"},{"name":"飯野桜ケ丘","zip_code":"9580856"},{"name":"飯野西","zip_code":"9580855"},{"name":"雷","zip_code":"9593916"},{"name":"伊呉野","zip_code":"9593901"},{"name":"石住","zip_code":"9580235"},{"name":"石原","zip_code":"9580832"},{"name":"泉町","zip_code":"9580877"},{"name":"板貝","zip_code":"9593663"},{"name":"板屋越","zip_code":"9580214"},{"name":"板屋沢","zip_code":"9593937"},{"name":"今川","zip_code":"9593662"},{"name":"今宿","zip_code":"9593416"},{"name":"鋳物師","zip_code":"9580813"},{"name":"岩ケ崎","zip_code":"9580008"},{"name":"岩崩","zip_code":"9580241"},{"name":"岩崎","zip_code":"9593903"},{"name":"岩沢","zip_code":"9580251"},{"name":"岩野沢","zip_code":"9593426"},{"name":"岩船駅前","zip_code":"9593449"},{"name":"岩船上大町","zip_code":"9580044"},{"name":"岩船上浜町","zip_code":"9580045"},{"name":"岩船岸見寺町","zip_code":"9580047"},{"name":"岩船上町","zip_code":"9580051"},{"name":"岩船北浜町","zip_code":"9580042"},{"name":"岩船地蔵町","zip_code":"9580048"},{"name":"岩船下大町","zip_code":"9580043"},{"name":"岩船下浜町","zip_code":"9580046"},{"name":"岩船新田町","zip_code":"9580054"},{"name":"岩船縦新町","zip_code":"9580055"},{"name":"岩船中新町","zip_code":"9580056"},{"name":"岩船三日市","zip_code":"9580041"},{"name":"岩船港町","zip_code":"9580058"},{"name":"岩船横新町","zip_code":"9580057"},{"name":"上野","zip_code":"9580262"},{"name":"牛屋","zip_code":"9593436"},{"name":"鵜泊","zip_code":"9593947"},{"name":"鵜渡路","zip_code":"9580264"},{"name":"浦田","zip_code":"9580036"},{"name":"海老江","zip_code":"9593117"},{"name":"大欠","zip_code":"9580867"},{"name":"大栗田","zip_code":"9580815"},{"name":"大毎","zip_code":"9593926"},{"name":"大沢","zip_code":"9593925"},{"name":"大須戸","zip_code":"9580202"},{"name":"大関","zip_code":"9580812"},{"name":"大代","zip_code":"9593915"},{"name":"大平","zip_code":"9580012"},{"name":"大谷沢","zip_code":"9593906"},{"name":"大津","zip_code":"9593122"},{"name":"大塚","zip_code":"9593415"},{"name":"大月","zip_code":"9580007"},{"name":"大場沢","zip_code":"9580253"},{"name":"大町","zip_code":"9580842"},{"name":"小川","zip_code":"9580268"},{"name":"小国町","zip_code":"9580848"},{"name":"遅郷","zip_code":"9593912"},{"name":"小谷","zip_code":"9580806"},{"name":"小俣","zip_code":"9593914"},{"name":"貝附","zip_code":"9593102"},{"name":"加賀町","zip_code":"9580875"},{"name":"垣之内","zip_code":"9593932"},{"name":"柏尾","zip_code":"9580004"},{"name":"鍛冶町","zip_code":"9580863"},{"name":"潟端","zip_code":"9593448"},{"name":"片町","zip_code":"9580872"},{"name":"勝木","zip_code":"9593942"},{"name":"学校町","zip_code":"9580031"},{"name":"金屋","zip_code":"9593124"},{"name":"釜杭","zip_code":"9580245"},{"name":"上相川","zip_code":"9580808"},{"name":"上大蔵","zip_code":"9593948"},{"name":"上大鳥","zip_code":"9593934"},{"name":"上鍜冶屋","zip_code":"9593108"},{"name":"上片町","zip_code":"9580873"},{"name":"上助渕","zip_code":"9593403"},{"name":"上中島","zip_code":"9580236"},{"name":"上の山","zip_code":"9580053"},{"name":"上山田","zip_code":"9580805"},{"name":"河内","zip_code":"9593417"},{"name":"川端","zip_code":"9580263"},{"name":"川部","zip_code":"9593433"},{"name":"寒川","zip_code":"9593653"},{"name":"岩石","zip_code":"9593913"},{"name":"上町","zip_code":"9580843"},{"name":"北赤谷","zip_code":"9593936"},{"name":"北大平","zip_code":"9580212"},{"name":"北黒川","zip_code":"9593924"},{"name":"北新保","zip_code":"9593443"},{"name":"北田中","zip_code":"9593935"},{"name":"北中","zip_code":"9593927"},{"name":"切田","zip_code":"9593106"},{"name":"茎太","zip_code":"9580242"},{"name":"日下","zip_code":"9580807"},{"name":"久保多町","zip_code":"9580871"},{"name":"熊登","zip_code":"9580255"},{"name":"黒田","zip_code":"9580224"},{"name":"桑川","zip_code":"9593665"},{"name":"下渡","zip_code":"9580014"},{"name":"小揚","zip_code":"9580244"},{"name":"碁石","zip_code":"9593941"},{"name":"小出","zip_code":"9593413"},{"name":"小岩内","zip_code":"9593434"},{"name":"越沢","zip_code":"9593652"},{"name":"小口川","zip_code":"9593446"},{"name":"九日市","zip_code":"9593423"},{"name":"小須戸","zip_code":"9580204"},{"name":"小町","zip_code":"9580841"},{"name":"薦川","zip_code":"9580221"},{"name":"細工町","zip_code":"9580845"},{"name":"幸町","zip_code":"9580865"},{"name":"肴町","zip_code":"9580864"},{"name":"坂町","zip_code":"9593132"},{"name":"笹川","zip_code":"9593664"},{"name":"佐々木","zip_code":"9593121"},{"name":"笹平","zip_code":"9580246"},{"name":"指合","zip_code":"9593412"},{"name":"里本庄","zip_code":"9593405"},{"name":"山辺里","zip_code":"9580821"},{"name":"猿沢","zip_code":"9580261"},{"name":"猿田","zip_code":"9580222"},{"name":"山居町","zip_code":"9580853"},{"name":"三之町","zip_code":"9580837"},{"name":"塩野町","zip_code":"9580205"},{"name":"塩町","zip_code":"9580876"},{"name":"塩谷","zip_code":"9593441"},{"name":"志田平","zip_code":"9593402"},{"name":"下相川","zip_code":"9580809"},{"name":"下大蔵","zip_code":"9593943"},{"name":"下大鳥","zip_code":"9593933"},{"name":"下鍜冶屋","zip_code":"9593107"},{"name":"下新保","zip_code":"9580252"},{"name":"下助渕","zip_code":"9593406"},{"name":"下中島","zip_code":"9580265"},{"name":"下山田","zip_code":"9580804"},{"name":"庄内町","zip_code":"9580874"},{"name":"新光寺","zip_code":"9593115"},{"name":"新町","zip_code":"9580834"},{"name":"菅沼","zip_code":"9580817"},{"name":"杉平","zip_code":"9593911"},{"name":"杉原","zip_code":"9580831"},{"name":"関口","zip_code":"9580225"},{"name":"瀬波温泉","zip_code":"9580037"},{"name":"瀬波上町","zip_code":"9580023"},{"name":"瀬波新田町","zip_code":"9580021"},{"name":"瀬波中町","zip_code":"9580024"},{"name":"瀬波浜町","zip_code":"9580026"},{"name":"瀬波横町","zip_code":"9580022"},{"name":"十川","zip_code":"9580254"},{"name":"大工町","zip_code":"9580847"},{"name":"高平","zip_code":"9580811"},{"name":"高根","zip_code":"9580211"},{"name":"高御堂","zip_code":"9593447"},{"name":"滝の前","zip_code":"9580011"},{"name":"立島","zip_code":"9593944"},{"name":"田端町","zip_code":"9580854"},{"name":"千縄","zip_code":"9580243"},{"name":"仲間町","zip_code":"9580823"},{"name":"葛籠山","zip_code":"9593432"},{"name":"坪根","zip_code":"9580822"},{"name":"寺尾","zip_code":"9580267"},{"name":"寺町","zip_code":"9580849"},{"name":"天神岡","zip_code":"9580803"},{"name":"塔下","zip_code":"9593919"},{"name":"遠矢崎","zip_code":"9593938"},{"name":"殿岡","zip_code":"9593407"},{"name":"鳥屋","zip_code":"9593126"},{"name":"長井町","zip_code":"9580844"},{"name":"中川原団地","zip_code":"9580861"},{"name":"中倉","zip_code":"9593123"},{"name":"長坂","zip_code":"9593931"},{"name":"中新保","zip_code":"9580233"},{"name":"中継","zip_code":"9593918"},{"name":"中津原","zip_code":"9593928"},{"name":"中野","zip_code":"9593112"},{"name":"中浜","zip_code":"9593902"},{"name":"中原","zip_code":"9580223"},{"name":"長政","zip_code":"9593111"},{"name":"長松","zip_code":"9593442"},{"name":"梨木","zip_code":"9593105"},{"name":"七湊","zip_code":"9593401"},{"name":"名割","zip_code":"9593113"},{"name":"新飯田","zip_code":"9593445"},{"name":"西興屋","zip_code":"9580801"},{"name":"二之町","zip_code":"9580835"},{"name":"温出","zip_code":"9593904"},{"name":"布部","zip_code":"9580231"},{"name":"寝屋","zip_code":"9593946"},{"name":"野潟","zip_code":"9580006"},{"name":"羽ヶ榎","zip_code":"9593134"},{"name":"羽黒口","zip_code":"9580836"},{"name":"羽黒町","zip_code":"9580851"},{"name":"羽下ケ渕","zip_code":"9580013"},{"name":"花立","zip_code":"9593101"},{"name":"浜新田","zip_code":"9580038"},{"name":"浜新保","zip_code":"9593666"},{"name":"早川","zip_code":"9580002"},{"name":"春木山","zip_code":"9593104"},{"name":"檜原","zip_code":"9580215"},{"name":"平林","zip_code":"9593431"},{"name":"福田","zip_code":"9593437"},{"name":"袋","zip_code":"9580818"},{"name":"藤沢","zip_code":"9593131"},{"name":"蒲萄","zip_code":"9580201"},{"name":"府屋","zip_code":"9593907"},{"name":"古渡路","zip_code":"9580269"},{"name":"朴平","zip_code":"9593922"},{"name":"堀片","zip_code":"9580833"},{"name":"堀野","zip_code":"9580234"},{"name":"堀ノ内","zip_code":"9593905"},{"name":"馬下","zip_code":"9580001"},{"name":"牧目","zip_code":"9593424"},{"name":"間島","zip_code":"9580005"},{"name":"間瀬","zip_code":"9593945"},{"name":"松岡","zip_code":"9580206"},{"name":"松喜和","zip_code":"9593428"},{"name":"松沢","zip_code":"9593427"},{"name":"松波町","zip_code":"9580025"},{"name":"松原町","zip_code":"9580032"},{"name":"松山","zip_code":"9580034"},{"name":"三面","zip_code":"9580035"},{"name":"緑町","zip_code":"9580033"},{"name":"南大平","zip_code":"9593411"},{"name":"南新保","zip_code":"9593114"},{"name":"南田中","zip_code":"9593444"},{"name":"南町","zip_code":"9580852"},{"name":"宮ノ下","zip_code":"9580266"},{"name":"村上","zip_code":"9580866"},{"name":"本町","zip_code":"9580824"},{"name":"桃川","zip_code":"9593421"},{"name":"門前","zip_code":"9580814"},{"name":"宿田","zip_code":"9593435"},{"name":"山口","zip_code":"9593133"},{"name":"山熊田","zip_code":"9593917"},{"name":"山田","zip_code":"9593425"},{"name":"山屋","zip_code":"9593404"},{"name":"八日市","zip_code":"9580052"},{"name":"吉浦","zip_code":"9580003"},{"name":"四日市","zip_code":"9580802"},{"name":"若葉町","zip_code":"9580862"},{"name":"脇川","zip_code":"9593661"},{"name":"早稲田","zip_code":"9580213"}]},{"name":"燕市","divisions":[{"name":"粟生津","zip_code":"9590227"},{"name":"秋葉町","zip_code":"9591261"},{"name":"泉新","zip_code":"9590131"},{"name":"一ノ山","zip_code":"9590114"},{"name":"井土巻","zip_code":"9591232"},{"name":"笈ケ島","zip_code":"9590113"},{"name":"大川津","zip_code":"9590123"},{"name":"大関","zip_code":"9591287"},{"name":"太田","zip_code":"9590108"},{"name":"大武新田","zip_code":"9590122"},{"name":"大船渡","zip_code":"9591212"},{"name":"大曲","zip_code":"9591263"},{"name":"庚塚","zip_code":"9590207"},{"name":"上河原","zip_code":"9590225"},{"name":"上諏訪","zip_code":"9590181"},{"name":"上児木","zip_code":"9591223"},{"name":"勘新","zip_code":"9591217"},{"name":"国上","zip_code":"9590136"},{"name":"熊森","zip_code":"9590112"},{"name":"蔵関","zip_code":"9591271"},{"name":"源八新田","zip_code":"9590137"},{"name":"小池","zip_code":"9591276"},{"name":"小池新町","zip_code":"9591275"},{"name":"小島","zip_code":"9590203"},{"name":"小関","zip_code":"9591286"},{"name":"五千石","zip_code":"9590124"},{"name":"五千石荒川","zip_code":"9590124"},{"name":"小高","zip_code":"9591241"},{"name":"小中川","zip_code":"9591211"},{"name":"小古津新","zip_code":"9591213"},{"name":"小牧","zip_code":"9591226"},{"name":"桜町","zip_code":"9591281"},{"name":"笹曲","zip_code":"9590117"},{"name":"佐善","zip_code":"9590101"},{"name":"佐渡山","zip_code":"9590202"},{"name":"佐渡","zip_code":"9591228"},{"name":"三王渕","zip_code":"9591207"},{"name":"地蔵堂","zip_code":"9590121"},{"name":"地蔵堂本町","zip_code":"9590129"},{"name":"下粟生津","zip_code":"9590222"},{"name":"下諏訪","zip_code":"9590183"},{"name":"下児木","zip_code":"9591223"},{"name":"新栄町","zip_code":"9591246"},{"name":"新興野","zip_code":"9590116"},{"name":"新生町","zip_code":"9591214"},{"name":"新長","zip_code":"9590125"},{"name":"水道町","zip_code":"9591262"},{"name":"杉名","zip_code":"9591273"},{"name":"杉柳","zip_code":"9591272"},{"name":"雀森","zip_code":"9590205"},{"name":"砂子塚","zip_code":"9590103"},{"name":"関崎","zip_code":"9591206"},{"name":"杣木","zip_code":"9591284"},{"name":"大保","zip_code":"9590208"},{"name":"高木","zip_code":"9590228"},{"name":"舘野","zip_code":"9591203"},{"name":"田中新","zip_code":"9590223"},{"name":"長所","zip_code":"9591204"},{"name":"長辰","zip_code":"9590139"},{"name":"次新","zip_code":"9591222"},{"name":"燕","zip_code":"9591288"},{"name":"道金","zip_code":"9591265"},{"name":"殿島","zip_code":"9591233"},{"name":"富永","zip_code":"9590211"},{"name":"富永十兵衛新田","zip_code":"9590212"},{"name":"中川","zip_code":"9591225"},{"name":"中島","zip_code":"9590105"},{"name":"中諏訪","zip_code":"9590182"},{"name":"長渡","zip_code":"9591205"},{"name":"新堀","zip_code":"9590133"},{"name":"二階堂","zip_code":"9591216"},{"name":"西槇","zip_code":"9590201"},{"name":"野中才","zip_code":"9590126"},{"name":"野本","zip_code":"9590224"},{"name":"灰方","zip_code":"9591201"},{"name":"白山町","zip_code":"9591251"},{"name":"八王寺","zip_code":"9591264"},{"name":"花園町","zip_code":"9591221"},{"name":"花見","zip_code":"9591280"},{"name":"東太田","zip_code":"9591289"},{"name":"日之出町","zip_code":"9591242"},{"name":"物流センター","zip_code":"9591277"},{"name":"分水あけぼの","zip_code":"9590132"},{"name":"分水旭町","zip_code":"9590107"},{"name":"分水大武","zip_code":"9590119"},{"name":"分水学校町","zip_code":"9590115"},{"name":"分水向陽","zip_code":"9590109"},{"name":"分水栄町","zip_code":"9590120"},{"name":"分水桜町","zip_code":"9590130"},{"name":"分水新町","zip_code":"9590128"},{"name":"分水東学校町","zip_code":"9590106"},{"name":"分水文京町","zip_code":"9590127"},{"name":"分水向山","zip_code":"9590118"},{"name":"分水弥生町","zip_code":"9590104"},{"name":"牧ケ花","zip_code":"9590102"},{"name":"真木山","zip_code":"9590134"},{"name":"幕島","zip_code":"9590138"},{"name":"又新","zip_code":"9591215"},{"name":"松橋","zip_code":"9591202"},{"name":"溝","zip_code":"9590172"},{"name":"溝古新","zip_code":"9590171"},{"name":"南","zip_code":"9591234"},{"name":"柳山","zip_code":"9591274"},{"name":"横田","zip_code":"9590111"},{"name":"吉田","zip_code":"9590263"},{"name":"吉田曙町","zip_code":"9590217"},{"name":"吉田旭町","zip_code":"9590235"},{"name":"吉田東町","zip_code":"9590265"},{"name":"吉田春日町","zip_code":"9590216"},{"name":"吉田学校町","zip_code":"9590252"},{"name":"吉田神田町","zip_code":"9590241"},{"name":"吉田上町","zip_code":"9590245"},{"name":"吉田鴻巣","zip_code":"9590261"},{"name":"吉田寿町","zip_code":"9590256"},{"name":"吉田幸町","zip_code":"9590257"},{"name":"吉田栄町","zip_code":"9590233"},{"name":"吉田下中野","zip_code":"9590215"},{"name":"吉田下町","zip_code":"9590253"},{"name":"吉田新田町","zip_code":"9590247"},{"name":"吉田新町","zip_code":"9590246"},{"name":"吉田神明町","zip_code":"9590254"},{"name":"吉田水道町","zip_code":"9590234"},{"name":"吉田大保町","zip_code":"9590242"},{"name":"吉田堤町","zip_code":"9590237"},{"name":"吉田中町","zip_code":"9590244"},{"name":"吉田西太田","zip_code":"9590221"},{"name":"吉田浜首","zip_code":"9590248"},{"name":"吉田浜首町","zip_code":"9590248"},{"name":"吉田東栄町","zip_code":"9590232"},{"name":"吉田日之出町","zip_code":"9590231"},{"name":"吉田文京町","zip_code":"9590266"},{"name":"吉田法花堂","zip_code":"9590214"},{"name":"吉田本所","zip_code":"9590251"},{"name":"吉田松岡新田","zip_code":"9590243"},{"name":"吉田松岡町","zip_code":"9590236"},{"name":"吉田宮小路","zip_code":"9590267"},{"name":"吉田本町","zip_code":"9590268"},{"name":"吉田矢作","zip_code":"9590250"},{"name":"吉田弥生町","zip_code":"9590255"},{"name":"吉田吉栄","zip_code":"9590213"},{"name":"吉田若生町","zip_code":"9590262"},{"name":"四ツ屋","zip_code":"9591224"},{"name":"米納津","zip_code":"9590206"},{"name":"渡部","zip_code":"9590135"}]},{"name":"糸魚川市","divisions":[{"name":"上路","zip_code":"9490112"},{"name":"厚田","zip_code":"9410005"},{"name":"新町","zip_code":"9410022"},{"name":"粟倉","zip_code":"9410031"},{"name":"五十原","zip_code":"9491211"},{"name":"和泉","zip_code":"9490534"},{"name":"市野々","zip_code":"9410034"},{"name":"一の宮","zip_code":"9410056"},{"name":"市振","zip_code":"9490111"},{"name":"今村新田","zip_code":"9490302"},{"name":"岩木","zip_code":"9410078"},{"name":"上刈","zip_code":"9410064"},{"name":"上野山","zip_code":"9490551"},{"name":"上横","zip_code":"9490553"},{"name":"鶉石","zip_code":"9491336"},{"name":"歌","zip_code":"9490307"},{"name":"上野","zip_code":"9490532"},{"name":"青海","zip_code":"9490305"},{"name":"大久保","zip_code":"9490545"},{"name":"大沢","zip_code":"9491331"},{"name":"大平","zip_code":"9491221"},{"name":"大所","zip_code":"9490464"},{"name":"大野","zip_code":"9410071"},{"name":"大洞","zip_code":"9491303"},{"name":"大町","zip_code":"9410061"},{"name":"大谷内","zip_code":"9410074"},{"name":"押上","zip_code":"9410051"},{"name":"鬼伏","zip_code":"9491343"},{"name":"小見","zip_code":"9491335"},{"name":"角間","zip_code":"9491225"},{"name":"梶屋敷","zip_code":"9410004"},{"name":"梶山","zip_code":"9490544"},{"name":"桂","zip_code":"9491337"},{"name":"蒲池","zip_code":"9490552"},{"name":"釜沢","zip_code":"9410036"},{"name":"上出","zip_code":"9410012"},{"name":"上沢","zip_code":"9490541"},{"name":"川島","zip_code":"9410042"},{"name":"川詰","zip_code":"9491329"},{"name":"北山","zip_code":"9491226"},{"name":"鬼舞","zip_code":"9491344"},{"name":"京ケ峰","zip_code":"9410054"},{"name":"清崎","zip_code":"9410063"},{"name":"崩","zip_code":"9491325"},{"name":"栗山","zip_code":"9490535"},{"name":"来海沢","zip_code":"9410032"},{"name":"越","zip_code":"9491201"},{"name":"御前山","zip_code":"9410033"},{"name":"小滝","zip_code":"9490462"},{"name":"木浦","zip_code":"9491342"},{"name":"栄","zip_code":"9491353"},{"name":"桜木","zip_code":"9491354"},{"name":"指塩","zip_code":"9491315"},{"name":"猿倉","zip_code":"9491206"},{"name":"下倉","zip_code":"9491313"},{"name":"島道","zip_code":"9491333"},{"name":"清水山","zip_code":"9410015"},{"name":"下出","zip_code":"9410013"},{"name":"上覚","zip_code":"9410023"},{"name":"真光寺","zip_code":"9410041"},{"name":"新鉄","zip_code":"9410065"},{"name":"須川","zip_code":"9491327"},{"name":"杉之当","zip_code":"9490556"},{"name":"須沢","zip_code":"9490301"},{"name":"砂場","zip_code":"9491224"},{"name":"仙納","zip_code":"9491302"},{"name":"大王","zip_code":"9491319"},{"name":"大工屋敷","zip_code":"9490533"},{"name":"大神堂","zip_code":"9490542"},{"name":"大道寺","zip_code":"9491317"},{"name":"大平寺","zip_code":"9491341"},{"name":"平","zip_code":"9491334"},{"name":"高倉","zip_code":"9491311"},{"name":"滝川原","zip_code":"9410011"},{"name":"竹ケ花","zip_code":"9410006"},{"name":"田中","zip_code":"9410043"},{"name":"田伏","zip_code":"9410008"},{"name":"田麦平","zip_code":"9491323"},{"name":"田屋","zip_code":"9410026"},{"name":"谷根","zip_code":"9491215"},{"name":"中央","zip_code":"9410062"},{"name":"土倉","zip_code":"9491222"},{"name":"土塩","zip_code":"9491205"},{"name":"筒石","zip_code":"9491306"},{"name":"坪野","zip_code":"9491208"},{"name":"頭山","zip_code":"9410077"},{"name":"寺地","zip_code":"9490304"},{"name":"寺島","zip_code":"9410066"},{"name":"寺町","zip_code":"9410058"},{"name":"寺山","zip_code":"9491338"},{"name":"藤後","zip_code":"9491332"},{"name":"藤崎","zip_code":"9491305"},{"name":"道平","zip_code":"9410037"},{"name":"田海","zip_code":"9490303"},{"name":"道明","zip_code":"9410019"},{"name":"徳合","zip_code":"9491301"},{"name":"外波","zip_code":"9490308"},{"name":"中川原新田","zip_code":"9491223"},{"name":"中宿","zip_code":"9410003"},{"name":"中野","zip_code":"9491203"},{"name":"中野口","zip_code":"9491314"},{"name":"中浜","zip_code":"9410002"},{"name":"中林","zip_code":"9491204"},{"name":"中谷内","zip_code":"9410075"},{"name":"成沢","zip_code":"9410045"},{"name":"西川原","zip_code":"9410073"},{"name":"西塚","zip_code":"9491213"},{"name":"西中","zip_code":"9410076"},{"name":"西飛山","zip_code":"9491322"},{"name":"西谷内","zip_code":"9410024"},{"name":"西山","zip_code":"9490461"},{"name":"日光寺","zip_code":"9410014"},{"name":"根小屋","zip_code":"9490536"},{"name":"能生","zip_code":"9491352"},{"name":"能生小泊","zip_code":"9491351"},{"name":"橋立","zip_code":"9490306"},{"name":"柱道","zip_code":"9491316"},{"name":"羽生","zip_code":"9410046"},{"name":"東海","zip_code":"9410021"},{"name":"東川原","zip_code":"9410027"},{"name":"東谷内","zip_code":"9491321"},{"name":"東塚","zip_code":"9491212"},{"name":"東寺町","zip_code":"9410053"},{"name":"東中","zip_code":"9490531"},{"name":"平牛","zip_code":"9410047"},{"name":"吹原","zip_code":"9491207"},{"name":"別所","zip_code":"9490555"},{"name":"堀切","zip_code":"9410025"},{"name":"本町","zip_code":"9410068"},{"name":"真木","zip_code":"9410035"},{"name":"槇","zip_code":"9491312"},{"name":"柵口","zip_code":"9491324"},{"name":"間脇","zip_code":"9410001"},{"name":"水保","zip_code":"9410044"},{"name":"溝尾","zip_code":"9491328"},{"name":"見滝","zip_code":"9491214"},{"name":"南押上","zip_code":"9410052"},{"name":"南寺島","zip_code":"9410069"},{"name":"南寺町","zip_code":"9410057"},{"name":"宮平","zip_code":"9491202"},{"name":"物出","zip_code":"9491326"},{"name":"百川","zip_code":"9491304"},{"name":"山口","zip_code":"9490554"},{"name":"山寺","zip_code":"9490543"},{"name":"大和川","zip_code":"9410007"},{"name":"山之坊","zip_code":"9490463"},{"name":"山本","zip_code":"9410072"},{"name":"横町","zip_code":"9410067"},{"name":"余所","zip_code":"9490558"},{"name":"四ツ屋","zip_code":"9410016"},{"name":"蓮台寺","zip_code":"9410055"},{"name":"鷲尾","zip_code":"9491318"}]},{"name":"妙高市","divisions":[{"name":"青田","zip_code":"9440091"},{"name":"赤倉","zip_code":"9492111"},{"name":"朝日町","zip_code":"9440043"},{"name":"新井","zip_code":"9440041"},{"name":"新井新田","zip_code":"9440054"},{"name":"石塚町","zip_code":"9440011"},{"name":"五日市","zip_code":"9440084"},{"name":"稲塚","zip_code":"9440006"},{"name":"猪野山","zip_code":"9440075"},{"name":"今府","zip_code":"9492208"},{"name":"小出雲","zip_code":"9440032"},{"name":"大貝","zip_code":"9440215"},{"name":"大崎町","zip_code":"9440006"},{"name":"大沢新田","zip_code":"9440333"},{"name":"大鹿","zip_code":"9492221"},{"name":"大下","zip_code":"9440216"},{"name":"大谷","zip_code":"9492225"},{"name":"大濁","zip_code":"9440224"},{"name":"大原新田","zip_code":"9440332"},{"name":"岡崎新田","zip_code":"9440094"},{"name":"岡新田","zip_code":"9492212"},{"name":"桶海","zip_code":"9492224"},{"name":"乙吉","zip_code":"9440082"},{"name":"籠町","zip_code":"9440081"},{"name":"学校町","zip_code":"9440037"},{"name":"兼俣","zip_code":"9492104"},{"name":"上大塚新田","zip_code":"9492205"},{"name":"上小沢","zip_code":"9440223"},{"name":"上新保","zip_code":"9440025"},{"name":"上百々","zip_code":"9440001"},{"name":"上中","zip_code":"9440052"},{"name":"上中村新田","zip_code":"9492233"},{"name":"上濁川","zip_code":"9440212"},{"name":"上八幡新田","zip_code":"9440088"},{"name":"上馬場","zip_code":"9440225"},{"name":"上平丸","zip_code":"9440344"},{"name":"上堀之内","zip_code":"9440205"},{"name":"上町","zip_code":"9440046"},{"name":"上四ツ屋","zip_code":"9440083"},{"name":"川上","zip_code":"9440026"},{"name":"北条","zip_code":"9440021"},{"name":"北田屋新田","zip_code":"9492203"},{"name":"経塚町","zip_code":"9440034"},{"name":"窪田新田","zip_code":"9492207"},{"name":"窪松原","zip_code":"9440061"},{"name":"栗原","zip_code":"9440007"},{"name":"毛祝坂","zip_code":"9492105"},{"name":"工団町","zip_code":"9440020"},{"name":"国賀","zip_code":"9440004"},{"name":"小局","zip_code":"9440213"},{"name":"木成","zip_code":"9440226"},{"name":"小濁","zip_code":"9440221"},{"name":"小原新田","zip_code":"9440331"},{"name":"小丸山新田","zip_code":"9440072"},{"name":"坂井新田","zip_code":"9440086"},{"name":"栄町","zip_code":"9440044"},{"name":"坂口新田","zip_code":"9492234"},{"name":"坂下新田","zip_code":"9492202"},{"name":"猿橋","zip_code":"9440341"},{"name":"三本木新田","zip_code":"9440053"},{"name":"志","zip_code":"9440056"},{"name":"東雲町","zip_code":"9440042"},{"name":"渋江町","zip_code":"9440035"},{"name":"下濁川","zip_code":"9440203"},{"name":"下平丸","zip_code":"9440343"},{"name":"下町","zip_code":"9440048"},{"name":"神宮寺","zip_code":"9440096"},{"name":"新栄町","zip_code":"9440005"},{"name":"新工町","zip_code":"9440019"},{"name":"新保新田","zip_code":"9440087"},{"name":"末広町","zip_code":"9440036"},{"name":"菅沼","zip_code":"9440057"},{"name":"杉野沢","zip_code":"9492113"},{"name":"住吉","zip_code":"9492226"},{"name":"諏訪町","zip_code":"9440018"},{"name":"関川","zip_code":"9492112"},{"name":"関川町","zip_code":"9440014"},{"name":"関山","zip_code":"9492141"},{"name":"蔵々","zip_code":"9492103"},{"name":"祖父竹","zip_code":"9492209"},{"name":"高柳","zip_code":"9440013"},{"name":"田切","zip_code":"9492102"},{"name":"田口","zip_code":"9492106"},{"name":"田中村新田","zip_code":"9492211"},{"name":"田町","zip_code":"9440031"},{"name":"樽本","zip_code":"3892261"},{"name":"中央町","zip_code":"9440017"},{"name":"月岡","zip_code":"9440003"},{"name":"坪山","zip_code":"9440222"},{"name":"寺尾","zip_code":"9492201"},{"name":"東陽町","zip_code":"9440009"},{"name":"十日市","zip_code":"9440095"},{"name":"土田","zip_code":"9440076"},{"name":"土路","zip_code":"9492222"},{"name":"中川","zip_code":"9440005"},{"name":"長沢","zip_code":"9440345"},{"name":"長沢原","zip_code":"9440342"},{"name":"中宿","zip_code":"9440027"},{"name":"中島新田","zip_code":"9492214"},{"name":"中原新田","zip_code":"9492204"},{"name":"中町","zip_code":"9440045"},{"name":"長森","zip_code":"9440073"},{"name":"中横山","zip_code":"9440217"},{"name":"梨木","zip_code":"9440077"},{"name":"錦町","zip_code":"9440051"},{"name":"西条","zip_code":"9440023"},{"name":"西菅沼新田","zip_code":"9440058"},{"name":"西田屋新田","zip_code":"9492206"},{"name":"西野谷","zip_code":"9440064"},{"name":"西野谷新田","zip_code":"9440063"},{"name":"楡島","zip_code":"9440334"},{"name":"除戸","zip_code":"9440204"},{"name":"白山町","zip_code":"9440047"},{"name":"橋本新田","zip_code":"9492215"},{"name":"花房","zip_code":"9492218"},{"name":"原通","zip_code":"9492219"},{"name":"東志","zip_code":"9440055"},{"name":"東菅沼","zip_code":"9440214"},{"name":"東関","zip_code":"9440335"},{"name":"東田屋新田","zip_code":"9492213"},{"name":"東福田新田","zip_code":"9492217"},{"name":"東四ツ屋新田","zip_code":"9492216"},{"name":"飛田","zip_code":"9440092"},{"name":"飛田新田","zip_code":"9440093"},{"name":"美守","zip_code":"9440016"},{"name":"姫川原","zip_code":"9440201"},{"name":"広島","zip_code":"9440002"},{"name":"広田町","zip_code":"9440033"},{"name":"藤塚新田","zip_code":"9440071"},{"name":"二俣","zip_code":"9492101"},{"name":"巻淵","zip_code":"9440202"},{"name":"三ツ俣","zip_code":"9440074"},{"name":"宮内","zip_code":"9440097"},{"name":"葎生","zip_code":"9492232"},{"name":"谷内林新田","zip_code":"9440085"},{"name":"柳井田町","zip_code":"9440008"},{"name":"雪森","zip_code":"9440098"},{"name":"吉木","zip_code":"9440022"},{"name":"吉木新田","zip_code":"9440024"},{"name":"米島新田","zip_code":"9492231"},{"name":"両善寺","zip_code":"9440062"},{"name":"和屋","zip_code":"9440211"}]},{"name":"五泉市","divisions":[{"name":"青橋","zip_code":"9591755"},{"name":"赤羽","zip_code":"9591641"},{"name":"曙町","zip_code":"9591831"},{"name":"赤海","zip_code":"9591821"},{"name":"旭町","zip_code":"9591862"},{"name":"愛宕","zip_code":"9591765"},{"name":"阿弥陀瀬","zip_code":"9591717"},{"name":"新屋","zip_code":"9591737"},{"name":"粟島","zip_code":"9591861"},{"name":"五十嵐新田","zip_code":"9591833"},{"name":"石倉","zip_code":"9591857"},{"name":"石曽根","zip_code":"9591701"},{"name":"泉町","zip_code":"9591876"},{"name":"伊勢の川","zip_code":"9591813"},{"name":"一本杉","zip_code":"9591601"},{"name":"今泉","zip_code":"9591835"},{"name":"上野","zip_code":"9591749"},{"name":"駅前","zip_code":"9591823"},{"name":"大川前","zip_code":"9591867"},{"name":"大口","zip_code":"9591731"},{"name":"大蔵","zip_code":"9591636"},{"name":"大沢","zip_code":"9591845"},{"name":"大須郷","zip_code":"9591633"},{"name":"太田","zip_code":"9591825"},{"name":"大谷","zip_code":"9591623"},{"name":"大原","zip_code":"9591734"},{"name":"荻曽根","zip_code":"9591852"},{"name":"荻野島","zip_code":"9591603"},{"name":"小熊","zip_code":"9591855"},{"name":"尾白","zip_code":"9591621"},{"name":"小山田","zip_code":"9591624"},{"name":"学校町","zip_code":"9591866"},{"name":"上大蒲原","zip_code":"9591744"},{"name":"上木越","zip_code":"9591708"},{"name":"上杉川","zip_code":"9591726"},{"name":"上戸倉","zip_code":"9591746"},{"name":"柄沢","zip_code":"9591635"},{"name":"刈羽","zip_code":"9591756"},{"name":"川瀬","zip_code":"9591832"},{"name":"川内","zip_code":"9591711"},{"name":"木越","zip_code":"9591834"},{"name":"木越荒屋","zip_code":"9591709"},{"name":"北五泉駅前","zip_code":"9591814"},{"name":"切畑","zip_code":"9591625"},{"name":"熊沢","zip_code":"9591716"},{"name":"熊野堂","zip_code":"9591763"},{"name":"暮坪","zip_code":"9591721"},{"name":"郷屋川","zip_code":"9591864"},{"name":"小搦","zip_code":"9591612"},{"name":"小栗山","zip_code":"9591622"},{"name":"五泉","zip_code":"9591851"},{"name":"小面谷","zip_code":"9591725"},{"name":"小流","zip_code":"9591613"},{"name":"笹野町","zip_code":"9591753"},{"name":"笹堀","zip_code":"9591611"},{"name":"笹目","zip_code":"9591724"},{"name":"佐取","zip_code":"9591615"},{"name":"猿橋","zip_code":"9591806"},{"name":"猿和田","zip_code":"9591631"},{"name":"三本木","zip_code":"9591811"},{"name":"下阿弥陀瀬","zip_code":"9591718"},{"name":"下大蒲原","zip_code":"9591743"},{"name":"下条","zip_code":"9591803"},{"name":"下新","zip_code":"9591802"},{"name":"下杉川","zip_code":"9591727"},{"name":"下戸倉","zip_code":"9591745"},{"name":"尻上","zip_code":"9591846"},{"name":"城下","zip_code":"9591758"},{"name":"新田町","zip_code":"9591767"},{"name":"菅出","zip_code":"9591637"},{"name":"菅沢","zip_code":"9591847"},{"name":"仙見谷","zip_code":"9591714"},{"name":"高松","zip_code":"9591747"},{"name":"高山","zip_code":"9591602"},{"name":"田屋","zip_code":"9591804"},{"name":"中名沢","zip_code":"9591751"},{"name":"千原","zip_code":"9591752"},{"name":"次屋","zip_code":"9591807"},{"name":"土堀","zip_code":"9591643"},{"name":"寺沢","zip_code":"9591837"},{"name":"寺田","zip_code":"9591742"},{"name":"土深","zip_code":"9591853"},{"name":"土淵","zip_code":"9591712"},{"name":"中川新","zip_code":"9591632"},{"name":"中島","zip_code":"9591732"},{"name":"中野橋","zip_code":"9591754"},{"name":"長橋","zip_code":"9591757"},{"name":"夏針","zip_code":"9591715"},{"name":"錦町","zip_code":"9591873"},{"name":"西四ツ屋","zip_code":"9591844"},{"name":"能代","zip_code":"9591842"},{"name":"羽下","zip_code":"9591801"},{"name":"白山","zip_code":"9591871"},{"name":"橋田","zip_code":"9591848"},{"name":"馬場町","zip_code":"9591875"},{"name":"番坂","zip_code":"9591766"},{"name":"東石曽根","zip_code":"9591762"},{"name":"東本町","zip_code":"9591863"},{"name":"東四ツ屋","zip_code":"9591644"},{"name":"蛭野","zip_code":"9591735"},{"name":"二ツ柳","zip_code":"9591841"},{"name":"不動堂","zip_code":"9591634"},{"name":"船越","zip_code":"9591805"},{"name":"別所","zip_code":"9591738"},{"name":"本町","zip_code":"9591865"},{"name":"馬下","zip_code":"9591614"},{"name":"牧","zip_code":"9591748"},{"name":"町屋","zip_code":"9591843"},{"name":"松野","zip_code":"9591722"},{"name":"丸田","zip_code":"9591854"},{"name":"美郷","zip_code":"9591759"},{"name":"水島町","zip_code":"9591812"},{"name":"水戸野","zip_code":"9591713"},{"name":"緑町","zip_code":"9591822"},{"name":"南田中","zip_code":"9591741"},{"name":"南本町","zip_code":"9591836"},{"name":"宮町","zip_code":"9591872"},{"name":"宮野下","zip_code":"9591764"},{"name":"村松","zip_code":"9591707"},{"name":"村松乙","zip_code":"9591705"},{"name":"村松甲","zip_code":"9591704"},{"name":"村松丙","zip_code":"9591706"},{"name":"村松工業団地","zip_code":"9591739"},{"name":"本田屋","zip_code":"9591761"},{"name":"安出","zip_code":"9591733"},{"name":"矢津","zip_code":"9591703"},{"name":"山崎","zip_code":"9591856"},{"name":"山谷","zip_code":"9591736"},{"name":"横町","zip_code":"9591874"},{"name":"横渡","zip_code":"9591723"},{"name":"吉沢","zip_code":"9591824"},{"name":"四ツ屋新","zip_code":"9591642"},{"name":"論瀬","zip_code":"9591604"}]},{"name":"上越市","divisions":[{"name":"青木","zip_code":"9430871"},{"name":"青野","zip_code":"9420238"},{"name":"朝日","zip_code":"9430886"},{"name":"東町","zip_code":"9420003"},{"name":"天野原新田","zip_code":"9430139"},{"name":"荒町","zip_code":"9430862"},{"name":"荒屋","zip_code":"9430187"},{"name":"有間川","zip_code":"9491702"},{"name":"飯","zip_code":"9430896"},{"name":"飯田","zip_code":"9430422"},{"name":"飯塚","zip_code":"9420039"},{"name":"池","zip_code":"9430128"},{"name":"石川","zip_code":"9420242"},{"name":"石沢","zip_code":"9430872"},{"name":"石橋","zip_code":"9420074"},{"name":"石橋新田","zip_code":"9420023"},{"name":"板倉区青葉","zip_code":"9440150"},{"name":"板倉区稲増","zip_code":"9440101"},{"name":"板倉区大野新田","zip_code":"9440119"},{"name":"板倉区釜塚","zip_code":"9440123"},{"name":"板倉区上中島新田","zip_code":"9440147"},{"name":"板倉区上福田新田","zip_code":"9440102"},{"name":"板倉区久々野","zip_code":"9440124"},{"name":"板倉区熊川","zip_code":"9440139"},{"name":"板倉区熊川新田","zip_code":"9440138"},{"name":"板倉区栗沢","zip_code":"9440118"},{"name":"板倉区玄藤寺新田","zip_code":"9440115"},{"name":"板倉区小石原","zip_code":"9440146"},{"name":"板倉区国川","zip_code":"9440133"},{"name":"板倉区菰立","zip_code":"9440129"},{"name":"板倉区坂井","zip_code":"9440107"},{"name":"板倉区猿供養寺","zip_code":"9440125"},{"name":"板倉区沢田","zip_code":"9440106"},{"name":"板倉区下田屋","zip_code":"9440149"},{"name":"板倉区下米沢","zip_code":"9440144"},{"name":"板倉区関田","zip_code":"9440116"},{"name":"板倉区関根","zip_code":"9440143"},{"name":"板倉区曽根田","zip_code":"9440132"},{"name":"板倉区田井","zip_code":"9440141"},{"name":"板倉区高野","zip_code":"9440142"},{"name":"板倉区達野","zip_code":"9440114"},{"name":"板倉区田屋","zip_code":"9440105"},{"name":"板倉区筒方","zip_code":"9440117"},{"name":"板倉区戸狩","zip_code":"9440109"},{"name":"板倉区長塚","zip_code":"9440104"},{"name":"板倉区中之宮","zip_code":"9440122"},{"name":"板倉区長嶺","zip_code":"9440108"},{"name":"板倉区中四ツ屋","zip_code":"9440112"},{"name":"板倉区機織","zip_code":"9440128"},{"name":"板倉区針","zip_code":"9440131"},{"name":"板倉区東山寺","zip_code":"9440126"},{"name":"板倉区福王寺","zip_code":"9440134"},{"name":"板倉区不動新田","zip_code":"9440127"},{"name":"板倉区別所","zip_code":"9440113"},{"name":"板倉区緑ケ丘","zip_code":"9440151"},{"name":"板倉区南中島","zip_code":"9440145"},{"name":"板倉区南四ツ屋新田","zip_code":"9440103"},{"name":"板倉区宮島","zip_code":"9440111"},{"name":"板倉区山越","zip_code":"9440136"},{"name":"板倉区山部","zip_code":"9440121"},{"name":"板倉区横町","zip_code":"9440148"},{"name":"板倉区吉増","zip_code":"9440137"},{"name":"板倉区米増","zip_code":"9440135"},{"name":"市野江","zip_code":"9430186"},{"name":"稲","zip_code":"9430117"},{"name":"稲田","zip_code":"9430154"},{"name":"稲谷","zip_code":"9430425"},{"name":"稲荷","zip_code":"9430874"},{"name":"茨沢","zip_code":"9430129"},{"name":"今池","zip_code":"9430145"},{"name":"今泉","zip_code":"9430864"},{"name":"岩木","zip_code":"9430814"},{"name":"後谷","zip_code":"9430889"},{"name":"宇津尾","zip_code":"9430818"},{"name":"浦川原区有島","zip_code":"9420306"},{"name":"浦川原区飯室","zip_code":"9420336"},{"name":"浦川原区今熊","zip_code":"9420335"},{"name":"浦川原区岩室","zip_code":"9420332"},{"name":"浦川原区印内","zip_code":"9420338"},{"name":"浦川原区大栃山","zip_code":"9420312"},{"name":"浦川原区釜淵","zip_code":"9420307"},{"name":"浦川原区上猪子田","zip_code":"9420301"},{"name":"浦川原区上岡","zip_code":"9420318"},{"name":"浦川原区上柿野","zip_code":"9420311"},{"name":"浦川原区熊沢","zip_code":"9420321"},{"name":"浦川原区顕聖寺","zip_code":"9420314"},{"name":"浦川原区小蒲生田","zip_code":"9420308"},{"name":"浦川原区小谷島","zip_code":"9420302"},{"name":"浦川原区桜島","zip_code":"9420333"},{"name":"浦川原区下猪子田","zip_code":"9420303"},{"name":"浦川原区下柿野","zip_code":"9420313"},{"name":"浦川原区真光寺","zip_code":"9420323"},{"name":"浦川原区杉坪","zip_code":"9420317"},{"name":"浦川原区谷","zip_code":"9420324"},{"name":"浦川原区坪野","zip_code":"9420325"},{"name":"浦川原区中猪子田","zip_code":"9420304"},{"name":"浦川原区長走","zip_code":"9420331"},{"name":"浦川原区東俣","zip_code":"9420319"},{"name":"浦川原区菱田","zip_code":"9420327"},{"name":"浦川原区日向","zip_code":"9420339"},{"name":"浦川原区法定寺","zip_code":"9420326"},{"name":"浦川原区六日町","zip_code":"9420316"},{"name":"浦川原区虫川","zip_code":"9420305"},{"name":"浦川原区山印内","zip_code":"9420337"},{"name":"浦川原区山本","zip_code":"9420334"},{"name":"浦川原区横川","zip_code":"9420315"},{"name":"浦川原区横住","zip_code":"9420322"},{"name":"夷浜","zip_code":"9420025"},{"name":"小池","zip_code":"9491723"},{"name":"小池新田","zip_code":"9491724"},{"name":"大潟区和泉新田","zip_code":"9493134"},{"name":"大潟区岩野古新田","zip_code":"9493122"},{"name":"大潟区内雁子","zip_code":"9493135"},{"name":"大潟区内雁子新田","zip_code":"9493136"},{"name":"大潟区潟田","zip_code":"9493121"},{"name":"大潟区潟町","zip_code":"9493103"},{"name":"大潟区潟守新田","zip_code":"9420181"},{"name":"大潟区上小船津浜","zip_code":"9493114"},{"name":"大潟区雁子浜","zip_code":"9493101"},{"name":"大潟区九戸浜","zip_code":"9493102"},{"name":"大潟区蜘ケ池","zip_code":"9493117"},{"name":"大潟区犀潟","zip_code":"9493116"},{"name":"大潟区里鵜島新田","zip_code":"9493131"},{"name":"大潟区渋柿浜","zip_code":"9493115"},{"name":"大潟区下小船津浜","zip_code":"9493113"},{"name":"大潟区高橋新田","zip_code":"9493133"},{"name":"大潟区土底浜","zip_code":"9493112"},{"name":"大潟区長崎","zip_code":"9493123"},{"name":"大潟区山鵜島新田","zip_code":"9493125"},{"name":"大潟区吉崎新田","zip_code":"9493124"},{"name":"大潟区四ツ屋浜","zip_code":"9493111"},{"name":"大潟区米倉新田","zip_code":"9493132"},{"name":"大口","zip_code":"9430414"},{"name":"大島区板山","zip_code":"9421107"},{"name":"大島区牛ケ鼻","zip_code":"9421215"},{"name":"大島区大島","zip_code":"9421211"},{"name":"大島区大平","zip_code":"9421103"},{"name":"大島区岡","zip_code":"9421106"},{"name":"大島区上達","zip_code":"9421105"},{"name":"大島区下達","zip_code":"9421104"},{"name":"大島区菖蒲","zip_code":"9421216"},{"name":"大島区棚岡","zip_code":"9421213"},{"name":"大島区田麦","zip_code":"9421102"},{"name":"大島区中野","zip_code":"9421212"},{"name":"大島区仁上","zip_code":"9421214"},{"name":"大島区嶺","zip_code":"9421101"},{"name":"大手町","zip_code":"9430838"},{"name":"大貫","zip_code":"9430893"},{"name":"大場","zip_code":"9420089"},{"name":"大渕","zip_code":"9491733"},{"name":"大町","zip_code":"9430833"},{"name":"岡崎新田","zip_code":"9420233"},{"name":"岡原","zip_code":"9430858"},{"name":"加賀町","zip_code":"9420086"},{"name":"柿崎区旭平","zip_code":"9493363"},{"name":"柿崎区阿弥陀瀬","zip_code":"9493236"},{"name":"柿崎区芋島","zip_code":"9493374"},{"name":"柿崎区岩手","zip_code":"9493376"},{"name":"柿崎区岩野","zip_code":"9493378"},{"name":"柿崎区江島新田","zip_code":"9493253"},{"name":"柿崎区小萱","zip_code":"9493221"},{"name":"柿崎区荻谷","zip_code":"9493235"},{"name":"柿崎区落合","zip_code":"9493246"},{"name":"柿崎区柿崎","zip_code":"9493216"},{"name":"柿崎区金谷","zip_code":"9493225"},{"name":"柿崎区上小野","zip_code":"9493231"},{"name":"柿崎区上金原","zip_code":"9493243"},{"name":"柿崎区上中山","zip_code":"9493366"},{"name":"柿崎区上直海","zip_code":"9493252"},{"name":"柿崎区川井","zip_code":"9493213"},{"name":"柿崎区川田","zip_code":"9493237"},{"name":"柿崎区雁海","zip_code":"9493223"},{"name":"柿崎区行法","zip_code":"9493245"},{"name":"柿崎区黒岩","zip_code":"9493362"},{"name":"柿崎区下条","zip_code":"9493251"},{"name":"柿崎区坂田新田","zip_code":"9493254"},{"name":"柿崎区桜町新田","zip_code":"9493242"},{"name":"柿崎区猿毛","zip_code":"9493367"},{"name":"柿崎区下小野","zip_code":"9493232"},{"name":"柿崎区下金原","zip_code":"9493244"},{"name":"柿崎区下中山","zip_code":"9493226"},{"name":"柿崎区下灰庭新田","zip_code":"9493375"},{"name":"柿崎区下牧","zip_code":"9493371"},{"name":"柿崎区上下浜","zip_code":"9493255"},{"name":"柿崎区城腰","zip_code":"9493361"},{"name":"柿崎区高寺","zip_code":"9493234"},{"name":"柿崎区高畑","zip_code":"9493377"},{"name":"柿崎区竹鼻","zip_code":"9493201"},{"name":"柿崎区角取","zip_code":"9493247"},{"name":"柿崎区栃窪","zip_code":"9493222"},{"name":"柿崎区直海浜","zip_code":"9493215"},{"name":"柿崎区馬正面","zip_code":"9493214"},{"name":"柿崎区東谷内","zip_code":"9493224"},{"name":"柿崎区東横山","zip_code":"9493364"},{"name":"柿崎区平沢","zip_code":"9493379"},{"name":"柿崎区米山寺","zip_code":"9493373"},{"name":"柿崎区法音寺","zip_code":"9493211"},{"name":"柿崎区松留","zip_code":"9493365"},{"name":"柿崎区水野","zip_code":"9493372"},{"name":"柿崎区三ツ屋浜","zip_code":"9493256"},{"name":"柿崎区百木","zip_code":"9493241"},{"name":"柿崎区柳ケ崎","zip_code":"9493233"},{"name":"柿崎区山谷","zip_code":"9493212"},{"name":"鍛冶免分","zip_code":"9491712"},{"name":"春日","zip_code":"9430809"},{"name":"春日新田","zip_code":"9420061"},{"name":"春日野","zip_code":"9430803"},{"name":"春日山町","zip_code":"9430807"},{"name":"上荒浜","zip_code":"9420021"},{"name":"上池部","zip_code":"9430113"},{"name":"上稲田","zip_code":"9430168"},{"name":"上源入","zip_code":"9420052"},{"name":"上五貫野","zip_code":"9420254"},{"name":"上島","zip_code":"9430165"},{"name":"上正善寺","zip_code":"9430811"},{"name":"上昭和町","zip_code":"9430894"},{"name":"上新町","zip_code":"9430143"},{"name":"上曾根","zip_code":"9430424"},{"name":"上千原","zip_code":"9420035"},{"name":"上綱子","zip_code":"9491741"},{"name":"上富川","zip_code":"9430126"},{"name":"上中田","zip_code":"9430884"},{"name":"上名柄","zip_code":"9420252"},{"name":"上野田","zip_code":"9430112"},{"name":"上箱井","zip_code":"9430856"},{"name":"上真砂","zip_code":"9430101"},{"name":"上門前","zip_code":"9430876"},{"name":"上湯谷","zip_code":"9430839"},{"name":"上吉野","zip_code":"9420241"},{"name":"鴨島","zip_code":"9430153"},{"name":"川端","zip_code":"9420038"},{"name":"川原町","zip_code":"9420065"},{"name":"木島","zip_code":"9430855"},{"name":"木田","zip_code":"9430805"},{"name":"北方","zip_code":"9430412"},{"name":"北城町","zip_code":"9430824"},{"name":"木田新田","zip_code":"9430806"},{"name":"北新保","zip_code":"9430109"},{"name":"北田中","zip_code":"9430106"},{"name":"北谷","zip_code":"9491736"},{"name":"北田屋新田","zip_code":"9430161"},{"name":"北本町","zip_code":"9430828"},{"name":"儀明","zip_code":"9430848"},{"name":"京田","zip_code":"9430881"},{"name":"清里区青柳","zip_code":"9430531"},{"name":"清里区赤池","zip_code":"9430527"},{"name":"清里区荒牧","zip_code":"9430502"},{"name":"清里区今曽根","zip_code":"9430513"},{"name":"清里区鶯沢","zip_code":"9430533"},{"name":"清里区岡野町","zip_code":"9430501"},{"name":"清里区岡嶺新田","zip_code":"9430507"},{"name":"清里区上稲塚","zip_code":"9430516"},{"name":"清里区上田島","zip_code":"9430504"},{"name":"清里区上中条","zip_code":"9430534"},{"name":"清里区上深沢","zip_code":"9430503"},{"name":"清里区北野","zip_code":"9430525"},{"name":"清里区塩曽根","zip_code":"9430511"},{"name":"清里区菅原","zip_code":"9430506"},{"name":"清里区鈴倉","zip_code":"9430535"},{"name":"清里区棚田","zip_code":"9430523"},{"name":"清里区寺脇","zip_code":"9430521"},{"name":"清里区梨窪","zip_code":"9430532"},{"name":"清里区梨平","zip_code":"9430526"},{"name":"清里区東戸野","zip_code":"9430522"},{"name":"清里区東福島","zip_code":"9430505"},{"name":"清里区平成","zip_code":"9430508"},{"name":"清里区馬屋","zip_code":"9430512"},{"name":"清里区水草","zip_code":"9430524"},{"name":"清里区南田中","zip_code":"9430514"},{"name":"清里区みらい","zip_code":"9430510"},{"name":"清里区武士","zip_code":"9430515"},{"name":"清里区弥生","zip_code":"9430509"},{"name":"桐原","zip_code":"9430183"},{"name":"頸城区青野","zip_code":"9420165"},{"name":"頸城区天ケ崎","zip_code":"9420225"},{"name":"頸城区飯田","zip_code":"9420125"},{"name":"頸城区五十嵐","zip_code":"9420135"},{"name":"頸城区石神","zip_code":"9420221"},{"name":"頸城区市村","zip_code":"9420141"},{"name":"頸城区浮島","zip_code":"9420152"},{"name":"頸城区美しが丘","zip_code":"9420139"},{"name":"頸城区鵜ノ木","zip_code":"9420121"},{"name":"頸城区榎井","zip_code":"9420154"},{"name":"頸城区大潟","zip_code":"9420201"},{"name":"頸城区大蒲生田","zip_code":"9420214"},{"name":"頸城区大坂井","zip_code":"9420116"},{"name":"頸城区大谷内","zip_code":"9420163"},{"name":"頸城区岡田","zip_code":"9420102"},{"name":"頸城区柿野","zip_code":"9420114"},{"name":"頸城区潟口","zip_code":"9420164"},{"name":"頸城区片津","zip_code":"9420111"},{"name":"頸城区上池田","zip_code":"9420202"},{"name":"頸城区上神原","zip_code":"9420133"},{"name":"頸城区上三分一","zip_code":"9420142"},{"name":"頸城区上増田","zip_code":"9420203"},{"name":"頸城区上柳町","zip_code":"9420106"},{"name":"頸城区上吉","zip_code":"9420145"},{"name":"頸城区川袋","zip_code":"9420122"},{"name":"頸城区北方","zip_code":"9420171"},{"name":"頸城区北福崎","zip_code":"9420132"},{"name":"頸城区北四ツ屋","zip_code":"9420151"},{"name":"頸城区玄僧","zip_code":"9420215"},{"name":"頸城区島田","zip_code":"9420136"},{"name":"頸城区下池田","zip_code":"9420104"},{"name":"頸城区下神原","zip_code":"9420134"},{"name":"頸城区下三分一","zip_code":"9420143"},{"name":"頸城区下千原","zip_code":"9420137"},{"name":"頸城区下中島","zip_code":"9420155"},{"name":"頸城区下中村","zip_code":"9420123"},{"name":"頸城区下増田","zip_code":"9420206"},{"name":"頸城区下柳町","zip_code":"9420108"},{"name":"頸城区下吉","zip_code":"9420146"},{"name":"頸城区下米岡","zip_code":"9420153"},{"name":"頸城区城野腰","zip_code":"9420157"},{"name":"頸城区諏訪","zip_code":"9420128"},{"name":"頸城区立崎","zip_code":"9420129"},{"name":"頸城区田中","zip_code":"9420115"},{"name":"頸城区千原","zip_code":"9420131"},{"name":"頸城区手島","zip_code":"9420207"},{"name":"頸城区手宮","zip_code":"9420161"},{"name":"頸城区寺田","zip_code":"9420109"},{"name":"頸城区戸口野","zip_code":"9420105"},{"name":"頸城区富田","zip_code":"9420103"},{"name":"頸城区中島","zip_code":"9420213"},{"name":"頸城区中城","zip_code":"9420113"},{"name":"頸城区中増田","zip_code":"9420205"},{"name":"頸城区中柳町","zip_code":"9420107"},{"name":"頸城区西福島","zip_code":"9420091"},{"name":"頸城区西湊","zip_code":"9420117"},{"name":"頸城区仁野分","zip_code":"9420224"},{"name":"頸城区望ケ丘","zip_code":"9420138"},{"name":"頸城区畑ケ崎","zip_code":"9420211"},{"name":"頸城区花ケ崎","zip_code":"9420222"},{"name":"頸城区姥谷内","zip_code":"9420112"},{"name":"頸城区東俣","zip_code":"9420124"},{"name":"頸城区日根津","zip_code":"9420216"},{"name":"頸城区百間町","zip_code":"9420127"},{"name":"頸城区舟津","zip_code":"9420173"},{"name":"頸城区松橋","zip_code":"9420156"},{"name":"頸城区松橋新田","zip_code":"9420158"},{"name":"頸城区松本","zip_code":"9420144"},{"name":"頸城区宮原","zip_code":"9420126"},{"name":"頸城区宮本","zip_code":"9420172"},{"name":"頸城区森下","zip_code":"9420162"},{"name":"頸城区森本","zip_code":"9420223"},{"name":"頸城区矢住","zip_code":"9420212"},{"name":"頸城区柳町新田","zip_code":"9420101"},{"name":"頸城区両毛","zip_code":"9420204"},{"name":"熊塚","zip_code":"9430127"},{"name":"黒井","zip_code":"9420013"},{"name":"黒田","zip_code":"9430885"},{"name":"小泉","zip_code":"9420251"},{"name":"高土町","zip_code":"9430823"},{"name":"高和町","zip_code":"9430421"},{"name":"五ケ所新田","zip_code":"9430842"},{"name":"国府","zip_code":"9420082"},{"name":"小猿屋","zip_code":"9420055"},{"name":"小猿屋新田","zip_code":"9420056"},{"name":"小滝","zip_code":"9430877"},{"name":"五智","zip_code":"9420081"},{"name":"五智国分","zip_code":"9420085"},{"name":"五智新町","zip_code":"9420084"},{"name":"御殿山町","zip_code":"9430895"},{"name":"五野井","zip_code":"9420243"},{"name":"駒林","zip_code":"9420246"},{"name":"子安","zip_code":"9430141"},{"name":"子安新田","zip_code":"9430148"},{"name":"幸町","zip_code":"9430826"},{"name":"栄町","zip_code":"9420072"},{"name":"桜町","zip_code":"9430144"},{"name":"佐内","zip_code":"9420031"},{"name":"佐内町","zip_code":"9420031"},{"name":"三田","zip_code":"9420054"},{"name":"三田新田","zip_code":"9420053"},{"name":"三伝","zip_code":"9491714"},{"name":"三和区稲原","zip_code":"9430221"},{"name":"三和区井ノ口","zip_code":"9430316"},{"name":"三和区今保","zip_code":"9430313"},{"name":"三和区浮島","zip_code":"9430317"},{"name":"三和区大","zip_code":"9430314"},{"name":"三和区岡木","zip_code":"9420275"},{"name":"三和区岡田","zip_code":"9430305"},{"name":"三和区沖柳","zip_code":"9420267"},{"name":"三和区上広田","zip_code":"9420273"},{"name":"三和区鴨井","zip_code":"9430231"},{"name":"三和区川浦","zip_code":"9430224"},{"name":"三和区神田","zip_code":"9420265"},{"name":"三和区北代","zip_code":"9430301"},{"name":"三和区窪","zip_code":"9430235"},{"name":"三和区桑曽根","zip_code":"9430304"},{"name":"三和区越柳","zip_code":"9420266"},{"name":"三和区米子","zip_code":"9420276"},{"name":"三和区島倉","zip_code":"9430311"},{"name":"三和区下新保","zip_code":"9430307"},{"name":"三和区下田島","zip_code":"9430312"},{"name":"三和区下中","zip_code":"9430222"},{"name":"三和区下広田","zip_code":"9420274"},{"name":"三和区所山田","zip_code":"9430306"},{"name":"三和区神明町","zip_code":"9430228"},{"name":"三和区末野","zip_code":"9420262"},{"name":"三和区末野新田","zip_code":"9420261"},{"name":"三和区田","zip_code":"9430223"},{"name":"三和区塔ノ輪","zip_code":"9420264"},{"name":"三和区中野","zip_code":"9430236"},{"name":"三和区錦","zip_code":"9420271"},{"name":"三和区野","zip_code":"9430225"},{"name":"三和区払沢","zip_code":"9430302"},{"name":"三和区番町","zip_code":"9430227"},{"name":"三和区日和町","zip_code":"9430226"},{"name":"三和区広井","zip_code":"9420277"},{"name":"三和区法花寺","zip_code":"9430234"},{"name":"三和区本郷","zip_code":"9420268"},{"name":"三和区水科","zip_code":"9430233"},{"name":"三和区水吉","zip_code":"9430232"},{"name":"三和区三村新田","zip_code":"9430315"},{"name":"三和区宮崎新田","zip_code":"9430318"},{"name":"三和区柳林","zip_code":"9420272"},{"name":"三和区山高津","zip_code":"9430303"},{"name":"三和区山腰新田","zip_code":"9420263"},{"name":"塩荷谷","zip_code":"9430849"},{"name":"塩屋新田","zip_code":"9420064"},{"name":"四ケ所","zip_code":"9430155"},{"name":"七ケ所新田","zip_code":"9430865"},{"name":"地頭方","zip_code":"9430875"},{"name":"島田","zip_code":"9430853"},{"name":"島田上新田","zip_code":"9430854"},{"name":"島田下新田","zip_code":"9430852"},{"name":"下荒浜","zip_code":"9420022"},{"name":"下池部","zip_code":"9430119"},{"name":"下稲田","zip_code":"9430167"},{"name":"下稲塚","zip_code":"9430134"},{"name":"下源入","zip_code":"9420051"},{"name":"下五貫野","zip_code":"9420255"},{"name":"下正善寺","zip_code":"9430813"},{"name":"下新田","zip_code":"9430843"},{"name":"下新町","zip_code":"9430142"},{"name":"下曾根","zip_code":"9430426"},{"name":"下綱子","zip_code":"9491721"},{"name":"下百々","zip_code":"9420247"},{"name":"下富川","zip_code":"9430125"},{"name":"下中田","zip_code":"9430899"},{"name":"下名柄","zip_code":"9420253"},{"name":"下野田","zip_code":"9430111"},{"name":"下箱井","zip_code":"9430851"},{"name":"下馬場","zip_code":"9430878"},{"name":"下真砂","zip_code":"9420034"},{"name":"下門前","zip_code":"9420063"},{"name":"下吉野","zip_code":"9420231"},{"name":"下四ツ屋","zip_code":"9430135"},{"name":"十二ノ木","zip_code":"9430416"},{"name":"上雲寺","zip_code":"9430124"},{"name":"昭和町","zip_code":"9430891"},{"name":"新光町","zip_code":"9430804"},{"name":"新南町","zip_code":"9430147"},{"name":"新保古新田","zip_code":"9430122"},{"name":"新町","zip_code":"9430822"},{"name":"杉野袋","zip_code":"9430102"},{"name":"薄袋","zip_code":"9430829"},{"name":"住吉町","zip_code":"9420002"},{"name":"諏訪","zip_code":"9430107"},{"name":"諏訪分","zip_code":"9491726"},{"name":"大学前","zip_code":"9430810"},{"name":"大豆","zip_code":"9420083"},{"name":"大道福田","zip_code":"9430172"},{"name":"大日","zip_code":"9430175"},{"name":"高崎新田","zip_code":"9420012"},{"name":"高住","zip_code":"9491716"},{"name":"高田新田","zip_code":"9430845"},{"name":"高津","zip_code":"9430423"},{"name":"高森","zip_code":"9430182"},{"name":"滝寺","zip_code":"9430897"},{"name":"田沢新田","zip_code":"9420234"},{"name":"辰尾新田","zip_code":"9430132"},{"name":"丹原","zip_code":"9491703"},{"name":"茶屋ケ原","zip_code":"9491706"},{"name":"中央","zip_code":"9420001"},{"name":"長者町","zip_code":"9430137"},{"name":"塚田新田","zip_code":"9430898"},{"name":"土橋","zip_code":"9430821"},{"name":"劔","zip_code":"9430115"},{"name":"鶴町","zip_code":"9430104"},{"name":"寺","zip_code":"9430166"},{"name":"寺町","zip_code":"9430892"},{"name":"田園","zip_code":"9420046"},{"name":"土合","zip_code":"9430866"},{"name":"東雲町","zip_code":"9420071"},{"name":"土口","zip_code":"9491735"},{"name":"戸野目","zip_code":"9430178"},{"name":"戸野目古新田","zip_code":"9430176"},{"name":"富岡","zip_code":"9430173"},{"name":"とよば","zip_code":"9430146"},{"name":"長岡","zip_code":"9420245"},{"name":"長岡新田","zip_code":"9420244"},{"name":"長面","zip_code":"9430185"},{"name":"中桑取","zip_code":"9491715"},{"name":"中郷区板橋","zip_code":"9492301"},{"name":"中郷区市屋","zip_code":"9492317"},{"name":"中郷区稲荷山","zip_code":"9492315"},{"name":"中郷区江口","zip_code":"9492316"},{"name":"中郷区岡川","zip_code":"9492318"},{"name":"中郷区岡沢","zip_code":"9492322"},{"name":"中郷区片貝","zip_code":"9492312"},{"name":"中郷区坂本","zip_code":"9492303"},{"name":"中郷区二本木","zip_code":"9492304"},{"name":"中郷区八斗蒔","zip_code":"9492306"},{"name":"中郷区福崎","zip_code":"9492313"},{"name":"中郷区福田","zip_code":"9492321"},{"name":"中郷区藤沢","zip_code":"9492302"},{"name":"中郷区松崎","zip_code":"9492311"},{"name":"中郷区宮野原","zip_code":"9492314"},{"name":"中郷区四ツ屋","zip_code":"9492305"},{"name":"中正善寺","zip_code":"9430812"},{"name":"中田新田","zip_code":"9430174"},{"name":"中田原","zip_code":"9430882"},{"name":"中通町","zip_code":"9430883"},{"name":"中々村新田","zip_code":"9430164"},{"name":"中ノ俣","zip_code":"9491742"},{"name":"中箱井","zip_code":"9430857"},{"name":"長浜","zip_code":"9491701"},{"name":"仲町","zip_code":"9430831"},{"name":"中真砂","zip_code":"9420037"},{"name":"中門前","zip_code":"9430801"},{"name":"中屋敷","zip_code":"9430819"},{"name":"名立区赤野俣","zip_code":"9491604"},{"name":"名立区池田","zip_code":"9491616"},{"name":"名立区大菅","zip_code":"9491605"},{"name":"名立区小田島","zip_code":"9491622"},{"name":"名立区折居","zip_code":"9491614"},{"name":"名立区折戸","zip_code":"9491621"},{"name":"名立区桂谷","zip_code":"9491618"},{"name":"名立区車路","zip_code":"9491607"},{"name":"名立区杉野瀬","zip_code":"9491611"},{"name":"名立区瀬戸","zip_code":"9491625"},{"name":"名立区躰畑","zip_code":"9491608"},{"name":"名立区谷口","zip_code":"9491606"},{"name":"名立区田野上","zip_code":"9491609"},{"name":"名立区坪山","zip_code":"9491603"},{"name":"名立区峠","zip_code":"9491615"},{"name":"名立区名立大町","zip_code":"9491602"},{"name":"名立区名立小泊","zip_code":"9491601"},{"name":"名立区濁沢","zip_code":"9491613"},{"name":"名立区西蒲生田","zip_code":"9491624"},{"name":"名立区東蒲生田","zip_code":"9491623"},{"name":"名立区東飛山","zip_code":"9491626"},{"name":"名立区平谷","zip_code":"9491619"},{"name":"名立区丸田","zip_code":"9491612"},{"name":"名立区森","zip_code":"9491617"},{"name":"鍋ケ浦","zip_code":"9491704"},{"name":"西市野口","zip_code":"9430152"},{"name":"西ケ窪浜","zip_code":"9420026"},{"name":"西城町","zip_code":"9430834"},{"name":"西田中","zip_code":"9430873"},{"name":"西戸野","zip_code":"9491711"},{"name":"西鳥越","zip_code":"9491725"},{"name":"西本町","zip_code":"9420004"},{"name":"西松野木","zip_code":"9430136"},{"name":"西谷内","zip_code":"9491737"},{"name":"西山寺","zip_code":"9491722"},{"name":"西横山","zip_code":"9491727"},{"name":"西吉尾","zip_code":"9491731"},{"name":"野尻","zip_code":"9430116"},{"name":"灰塚","zip_code":"9430887"},{"name":"花立","zip_code":"9491713"},{"name":"東市野口","zip_code":"9430118"},{"name":"東稲塚新田","zip_code":"9430133"},{"name":"東京田","zip_code":"9430415"},{"name":"東城町","zip_code":"9430836"},{"name":"東中島","zip_code":"9420036"},{"name":"東原","zip_code":"9430105"},{"name":"東本町","zip_code":"9430825"},{"name":"東吉尾","zip_code":"9491732"},{"name":"毘沙門国分寺","zip_code":"9420088"},{"name":"日之出町","zip_code":"9420014"},{"name":"平岡","zip_code":"9430163"},{"name":"福岡新田","zip_code":"9420232"},{"name":"福田","zip_code":"9420032"},{"name":"福橋","zip_code":"9420033"},{"name":"藤新田","zip_code":"9430816"},{"name":"藤塚","zip_code":"9430121"},{"name":"藤野新田","zip_code":"9430171"},{"name":"藤巻","zip_code":"9430817"},{"name":"平成町","zip_code":"9430151"},{"name":"本新保","zip_code":"9430123"},{"name":"本町","zip_code":"9430832"},{"name":"本道","zip_code":"9430184"},{"name":"牧区荒井","zip_code":"9430642"},{"name":"牧区池舟","zip_code":"9430645"},{"name":"牧区泉","zip_code":"9430617"},{"name":"牧区今清水","zip_code":"9430615"},{"name":"牧区岩神","zip_code":"9430635"},{"name":"牧区宇津俣","zip_code":"9430623"},{"name":"牧区大月","zip_code":"9430606"},{"name":"牧区小川","zip_code":"9430648"},{"name":"牧区落田","zip_code":"9430646"},{"name":"牧区樫谷","zip_code":"9430616"},{"name":"牧区片町","zip_code":"9430611"},{"name":"牧区上昆子","zip_code":"9430632"},{"name":"牧区上牧","zip_code":"9430625"},{"name":"牧区神谷","zip_code":"9430605"},{"name":"牧区川井沢","zip_code":"9430607"},{"name":"牧区倉下","zip_code":"9430626"},{"name":"牧区国川","zip_code":"9430636"},{"name":"牧区桜滝","zip_code":"9430637"},{"name":"牧区下昆子","zip_code":"9430633"},{"name":"牧区下湯谷","zip_code":"9430631"},{"name":"牧区切光","zip_code":"9430614"},{"name":"牧区平山","zip_code":"9430603"},{"name":"牧区高尾","zip_code":"9430621"},{"name":"牧区高谷","zip_code":"9430613"},{"name":"牧区田島","zip_code":"9430634"},{"name":"牧区棚広","zip_code":"9430628"},{"name":"牧区棚広新田","zip_code":"9430622"},{"name":"牧区坪山","zip_code":"9430601"},{"name":"牧区七森","zip_code":"9430604"},{"name":"牧区原","zip_code":"9430627"},{"name":"牧区東松ノ木","zip_code":"9430641"},{"name":"牧区平方","zip_code":"9430602"},{"name":"牧区府殿","zip_code":"9430624"},{"name":"牧区宮口","zip_code":"9430644"},{"name":"牧区柳島","zip_code":"9430647"},{"name":"牧区山口","zip_code":"9430643"},{"name":"牧区吉坪","zip_code":"9430612"},{"name":"増沢","zip_code":"9491734"},{"name":"松村新田","zip_code":"9420062"},{"name":"丸山新田","zip_code":"9430844"},{"name":"三ツ橋","zip_code":"9420043"},{"name":"三ツ橋新田","zip_code":"9420044"},{"name":"三ツ屋町","zip_code":"9420042"},{"name":"皆口","zip_code":"9491738"},{"name":"港町","zip_code":"9420011"},{"name":"南方","zip_code":"9430413"},{"name":"南城町","zip_code":"9430837"},{"name":"南新保","zip_code":"9430108"},{"name":"南新町","zip_code":"9430847"},{"name":"南高田町","zip_code":"9430846"},{"name":"南田屋新田","zip_code":"9430162"},{"name":"南本町","zip_code":"9430841"},{"name":"宮野尾","zip_code":"9430808"},{"name":"妙油","zip_code":"9430411"},{"name":"向橋","zip_code":"9430888"},{"name":"虫川","zip_code":"9430181"},{"name":"虫生岩戸","zip_code":"9420087"},{"name":"本城町","zip_code":"9430835"},{"name":"本長者原","zip_code":"9430138"},{"name":"元屋敷","zip_code":"9430427"},{"name":"森田","zip_code":"9430417"},{"name":"門田新田","zip_code":"9430177"},{"name":"安江","zip_code":"9420041"},{"name":"安塚区石橋","zip_code":"9420404"},{"name":"安塚区板尾","zip_code":"9420413"},{"name":"安塚区円平坊","zip_code":"9420539"},{"name":"安塚区大原","zip_code":"9420522"},{"name":"安塚区上方","zip_code":"9420405"},{"name":"安塚区上船倉","zip_code":"9420533"},{"name":"安塚区切越","zip_code":"9420542"},{"name":"安塚区小黒","zip_code":"9420541"},{"name":"安塚区信濃坂","zip_code":"9420536"},{"name":"安塚区下船倉","zip_code":"9420532"},{"name":"安塚区菅沼","zip_code":"9420543"},{"name":"安塚区須川","zip_code":"9420534"},{"name":"安塚区芹田","zip_code":"9420524"},{"name":"安塚区袖山","zip_code":"9420414"},{"name":"安塚区高沢","zip_code":"9420538"},{"name":"安塚区樽田","zip_code":"9420531"},{"name":"安塚区戸沢","zip_code":"9420523"},{"name":"安塚区二本木","zip_code":"9420537"},{"name":"安塚区坊金","zip_code":"9420402"},{"name":"安塚区朴ノ木","zip_code":"9420544"},{"name":"安塚区細野","zip_code":"9420401"},{"name":"安塚区本郷","zip_code":"9420403"},{"name":"安塚区牧野","zip_code":"9420412"},{"name":"安塚区松崎","zip_code":"9420415"},{"name":"安塚区真荻平","zip_code":"9420535"},{"name":"安塚区安塚","zip_code":"9420411"},{"name":"安塚区行野","zip_code":"9420521"},{"name":"安塚区和田","zip_code":"9420525"},{"name":"八千浦","zip_code":"9420027"},{"name":"薮野","zip_code":"9430131"},{"name":"大和","zip_code":"9430861"},{"name":"山屋敷町","zip_code":"9430815"},{"name":"遊光寺浜","zip_code":"9420024"},{"name":"横曾根","zip_code":"9420045"},{"name":"横畑","zip_code":"9491739"},{"name":"吉浦","zip_code":"9491705"},{"name":"吉岡","zip_code":"9430114"},{"name":"吉川区赤沢","zip_code":"9493408"},{"name":"吉川区石谷","zip_code":"9493554"},{"name":"吉川区泉","zip_code":"9493409"},{"name":"吉川区泉谷","zip_code":"9493412"},{"name":"吉川区入河沢","zip_code":"9493421"},{"name":"吉川区岩沢","zip_code":"9493564"},{"name":"吉川区大賀","zip_code":"9493563"},{"name":"吉川区尾神","zip_code":"9493552"},{"name":"吉川区小苗代","zip_code":"9493442"},{"name":"吉川区伯母ケ沢","zip_code":"9493402"},{"name":"吉川区梶","zip_code":"9493437"},{"name":"吉川区片田","zip_code":"9493418"},{"name":"吉川区上名木","zip_code":"9493555"},{"name":"吉川区川崎","zip_code":"9493411"},{"name":"吉川区川谷","zip_code":"9493553"},{"name":"吉川区神田町","zip_code":"9493438"},{"name":"吉川区顕法寺","zip_code":"9493427"},{"name":"吉川区河沢","zip_code":"9493429"},{"name":"吉川区国田","zip_code":"9493422"},{"name":"吉川区後生寺","zip_code":"9493401"},{"name":"吉川区米山","zip_code":"9493565"},{"name":"吉川区下町","zip_code":"9493443"},{"name":"吉川区十町歩","zip_code":"9493428"},{"name":"吉川区下小沢","zip_code":"9493406"},{"name":"吉川区下中条","zip_code":"9493407"},{"name":"吉川区下八幡","zip_code":"9493435"},{"name":"吉川区下深沢","zip_code":"9493417"},{"name":"吉川区代石","zip_code":"9493441"},{"name":"吉川区大乗寺","zip_code":"9493444"},{"name":"吉川区高沢入","zip_code":"9493557"},{"name":"吉川区竹直","zip_code":"9493447"},{"name":"吉川区田尻","zip_code":"9493431"},{"name":"吉川区坪野","zip_code":"9493551"},{"name":"吉川区坪野内","zip_code":"9493436"},{"name":"吉川区天林寺","zip_code":"9493414"},{"name":"吉川区東寺","zip_code":"9493404"},{"name":"吉川区杜氏の郷","zip_code":"9493449"},{"name":"吉川区道之下","zip_code":"9493426"},{"name":"吉川区土尻","zip_code":"9493413"},{"name":"吉川区長坂","zip_code":"9493425"},{"name":"吉川区長沢","zip_code":"9493439"},{"name":"吉川区長峰","zip_code":"9493448"},{"name":"吉川区中谷内","zip_code":"9493416"},{"name":"吉川区名木山","zip_code":"9493556"},{"name":"吉川区西野島","zip_code":"9493434"},{"name":"吉川区原之町","zip_code":"9493445"},{"name":"吉川区東田中","zip_code":"9493423"},{"name":"吉川区東鳥越","zip_code":"9493419"},{"name":"吉川区平等寺","zip_code":"9493403"},{"name":"吉川区福平","zip_code":"9493424"},{"name":"吉川区町田","zip_code":"9493433"},{"name":"吉川区山方","zip_code":"9493446"},{"name":"吉川区山口","zip_code":"9493415"},{"name":"吉川区山中","zip_code":"9493561"},{"name":"吉川区山直海","zip_code":"9493562"},{"name":"吉川区吉井","zip_code":"9493405"},{"name":"吉川区六万部","zip_code":"9493432"},{"name":"四辻町","zip_code":"9430201"},{"name":"米岡","zip_code":"9430103"},{"name":"米町","zip_code":"9430202"},{"name":"脇野田","zip_code":"9430863"}]},{"name":"阿賀野市","divisions":[{"name":"赤水","zip_code":"9591955"},{"name":"荒屋","zip_code":"9592061"},{"name":"安野町","zip_code":"9592003"},{"name":"飯森杉","zip_code":"9592122"},{"name":"飯山新","zip_code":"9591902"},{"name":"泉","zip_code":"9591959"},{"name":"市野山","zip_code":"9592062"},{"name":"稲荷町","zip_code":"9592035"},{"name":"今板","zip_code":"9591927"},{"name":"姥ケ橋","zip_code":"9592123"},{"name":"榎","zip_code":"9591974"},{"name":"榎船渡","zip_code":"9591968"},{"name":"大宮","zip_code":"9591930"},{"name":"大室","zip_code":"9591935"},{"name":"大野地","zip_code":"9592043"},{"name":"岡山町","zip_code":"9592025"},{"name":"沖","zip_code":"9591964"},{"name":"荻島","zip_code":"9591975"},{"name":"沖通","zip_code":"9592001"},{"name":"沖ノ館","zip_code":"9591977"},{"name":"小里","zip_code":"9592121"},{"name":"押切","zip_code":"9591946"},{"name":"折居","zip_code":"9591921"},{"name":"女堂","zip_code":"9591914"},{"name":"貝喰","zip_code":"9591938"},{"name":"かがやき","zip_code":"9592206"},{"name":"籠田","zip_code":"9592202"},{"name":"粕島","zip_code":"9592147"},{"name":"嘉瀬島","zip_code":"9592148"},{"name":"学校町","zip_code":"9592032"},{"name":"勝屋","zip_code":"9591923"},{"name":"金沢","zip_code":"9592044"},{"name":"金屋","zip_code":"9591944"},{"name":"金田町","zip_code":"9592031"},{"name":"金渕乙","zip_code":"9592105"},{"name":"金渕甲","zip_code":"9592103"},{"name":"上飯塚","zip_code":"9591975"},{"name":"上一分","zip_code":"9591915"},{"name":"上江端","zip_code":"9592081"},{"name":"上蔵野","zip_code":"9591908"},{"name":"上黒瀬","zip_code":"9592116"},{"name":"上小中山","zip_code":"9591933"},{"name":"上坂町","zip_code":"9591942"},{"name":"上関口","zip_code":"9591962"},{"name":"上高関","zip_code":"9591909"},{"name":"上高田","zip_code":"9591973"},{"name":"上中","zip_code":"9592047"},{"name":"上中野目","zip_code":"9592048"},{"name":"上西野","zip_code":"9591904"},{"name":"上西山","zip_code":"9591921"},{"name":"上福岡","zip_code":"9592073"},{"name":"上山田","zip_code":"9591932"},{"name":"上山屋","zip_code":"9591945"},{"name":"川岡","zip_code":"9591978"},{"name":"川崎","zip_code":"9591949"},{"name":"川前","zip_code":"9592143"},{"name":"北園町","zip_code":"9592014"},{"name":"北本町","zip_code":"9592015"},{"name":"京ケ島","zip_code":"9592125"},{"name":"京ケ瀬工業団地","zip_code":"9592136"},{"name":"切梅新田","zip_code":"9592082"},{"name":"草水","zip_code":"9592214"},{"name":"久保","zip_code":"9592212"},{"name":"窪川原","zip_code":"9592126"},{"name":"熊居新田","zip_code":"9592083"},{"name":"熊堂","zip_code":"9591907"},{"name":"下条","zip_code":"9592002"},{"name":"下条町","zip_code":"9592026"},{"name":"小浮","zip_code":"9592222"},{"name":"小河原","zip_code":"9592134"},{"name":"小栗山","zip_code":"9591916"},{"name":"小境","zip_code":"9592065"},{"name":"小島","zip_code":"9592146"},{"name":"越御堂","zip_code":"9592054"},{"name":"小松","zip_code":"9592213"},{"name":"駒林","zip_code":"9592101"},{"name":"五郎巻","zip_code":"9592102"},{"name":"境新","zip_code":"9592053"},{"name":"境新田","zip_code":"9592042"},{"name":"下里","zip_code":"9592135"},{"name":"笹岡","zip_code":"9591918"},{"name":"里","zip_code":"9592045"},{"name":"沢口","zip_code":"9591913"},{"name":"沢田","zip_code":"9592211"},{"name":"寺社","zip_code":"9592205"},{"name":"寺社新","zip_code":"9592145"},{"name":"七石","zip_code":"9592051"},{"name":"嶋瀬","zip_code":"9592225"},{"name":"島田","zip_code":"9591965"},{"name":"下一分","zip_code":"9591912"},{"name":"下黒瀬","zip_code":"9592117"},{"name":"下ノ橋","zip_code":"9592124"},{"name":"下福岡","zip_code":"9591951"},{"name":"下山屋","zip_code":"9591952"},{"name":"十二神","zip_code":"9591936"},{"name":"城","zip_code":"9592114"},{"name":"庄ケ宮","zip_code":"9592046"},{"name":"次郎丸","zip_code":"9591943"},{"name":"真光寺ヴィレッジ","zip_code":"9591925"},{"name":"新座","zip_code":"9592086"},{"name":"新保","zip_code":"9592217"},{"name":"水原","zip_code":"9592013"},{"name":"須走","zip_code":"9591956"},{"name":"清野","zip_code":"9592144"},{"name":"関屋","zip_code":"9592133"},{"name":"千唐仁","zip_code":"9592224"},{"name":"曽郷","zip_code":"9592112"},{"name":"大日","zip_code":"9591929"},{"name":"高田","zip_code":"9591971"},{"name":"滝沢","zip_code":"9591905"},{"name":"田中","zip_code":"9592052"},{"name":"田山","zip_code":"9592115"},{"name":"中央町","zip_code":"9592021"},{"name":"千原","zip_code":"9592011"},{"name":"塚田","zip_code":"9591966"},{"name":"月崎","zip_code":"9592131"},{"name":"堤","zip_code":"9591917"},{"name":"出湯","zip_code":"9591926"},{"name":"天神堂","zip_code":"9592012"},{"name":"外城町","zip_code":"9592022"},{"name":"土橋","zip_code":"9592063"},{"name":"長起","zip_code":"9591911"},{"name":"中潟","zip_code":"9592066"},{"name":"中島","zip_code":"9592024"},{"name":"中島町","zip_code":"9592024"},{"name":"中ノ通","zip_code":"9591901"},{"name":"七浦","zip_code":"9591934"},{"name":"七島","zip_code":"9592141"},{"name":"西岡","zip_code":"9592072"},{"name":"布目","zip_code":"9592223"},{"name":"猫山","zip_code":"9592111"},{"name":"野田","zip_code":"9592226"},{"name":"野村","zip_code":"9591958"},{"name":"羽黒","zip_code":"9591941"},{"name":"箸木免","zip_code":"9592142"},{"name":"畑江","zip_code":"9591924"},{"name":"羽多屋","zip_code":"9592201"},{"name":"原","zip_code":"9592041"},{"name":"東町","zip_code":"9592075"},{"name":"日の出町","zip_code":"9592023"},{"name":"深堀","zip_code":"9592107"},{"name":"深町","zip_code":"9592049"},{"name":"福井","zip_code":"9591937"},{"name":"福田","zip_code":"9592064"},{"name":"福永","zip_code":"9592204"},{"name":"藤屋","zip_code":"9591903"},{"name":"船居","zip_code":"9591976"},{"name":"分田","zip_code":"9592074"},{"name":"法柳","zip_code":"9592106"},{"name":"法柳新田","zip_code":"9592104"},{"name":"発久","zip_code":"9591953"},{"name":"堀越","zip_code":"9592055"},{"name":"本明","zip_code":"9591967"},{"name":"蒔田","zip_code":"9591954"},{"name":"前山","zip_code":"9592132"},{"name":"牧島","zip_code":"9592056"},{"name":"丸山","zip_code":"9592203"},{"name":"水ケ曽根","zip_code":"9592071"},{"name":"みそら野町","zip_code":"9592006"},{"name":"緑岡","zip_code":"9592113"},{"name":"緑町","zip_code":"9592034"},{"name":"南安野町","zip_code":"9592004"},{"name":"南沖山","zip_code":"9591963"},{"name":"宮島","zip_code":"9591948"},{"name":"宮下","zip_code":"9591947"},{"name":"六日野","zip_code":"9592130"},{"name":"向中ノ通","zip_code":"9591910"},{"name":"村岡","zip_code":"9591906"},{"name":"村杉","zip_code":"9591928"},{"name":"百津","zip_code":"9592037"},{"name":"百津町","zip_code":"9592033"},{"name":"保田","zip_code":"9592221"},{"name":"野地城","zip_code":"9592057"},{"name":"山口","zip_code":"9592007"},{"name":"山口町","zip_code":"9592005"},{"name":"山倉","zip_code":"9591961"},{"name":"山倉新田","zip_code":"9591972"},{"name":"山崎","zip_code":"9591919"},{"name":"山寺","zip_code":"9591931"},{"name":"山本新","zip_code":"9592085"},{"name":"湯沢","zip_code":"9591922"},{"name":"横山","zip_code":"9591957"},{"name":"六野瀬","zip_code":"9592215"},{"name":"若葉町","zip_code":"9592036"},{"name":"渡場","zip_code":"9592216"}]},{"name":"佐渡市","divisions":[{"name":"相川会津町","zip_code":"9521537"},{"name":"相川四十物町","zip_code":"9521538"},{"name":"相川海士町","zip_code":"9521574"},{"name":"相川石扣町","zip_code":"9521517"},{"name":"相川板町","zip_code":"9521512"},{"name":"相川市町","zip_code":"9521566"},{"name":"相川一町目","zip_code":"9521557"},{"name":"相川一町目裏町","zip_code":"9521552"},{"name":"相川一町目浜町","zip_code":"9521556"},{"name":"相川馬町","zip_code":"9521565"},{"name":"相川江戸沢町","zip_code":"9521547"},{"name":"相川大浦","zip_code":"9521646"},{"name":"相川大床屋町","zip_code":"9521534"},{"name":"相川大間町","zip_code":"9521508"},{"name":"相川下戸炭屋裏町","zip_code":"9521573"},{"name":"相川下戸炭屋浜町","zip_code":"9521584"},{"name":"相川下戸炭屋町","zip_code":"9521581"},{"name":"相川下戸浜町","zip_code":"9521571"},{"name":"相川下戸町","zip_code":"9521575"},{"name":"相川下戸村","zip_code":"9521582"},{"name":"相川鹿伏","zip_code":"9521583"},{"name":"相川上京町","zip_code":"9521522"},{"name":"相川紙屋町","zip_code":"9521507"},{"name":"相川北沢町","zip_code":"9521539"},{"name":"相川米屋町","zip_code":"9521533"},{"name":"相川五郎左衛門町","zip_code":"9521553"},{"name":"相川小六町","zip_code":"9521514"},{"name":"相川材木町","zip_code":"9521518"},{"name":"相川栄町","zip_code":"9521511"},{"name":"相川坂下町","zip_code":"9521505"},{"name":"相川左門町","zip_code":"9521527"},{"name":"相川三町目","zip_code":"9521563"},{"name":"相川三町目新浜町","zip_code":"9521561"},{"name":"相川三町目浜町","zip_code":"9521562"},{"name":"相川塩屋町","zip_code":"9521542"},{"name":"相川柴町","zip_code":"9521503"},{"name":"相川下京町","zip_code":"9521536"},{"name":"相川下寺町","zip_code":"9521551"},{"name":"相川下山之神町","zip_code":"9521504"},{"name":"相川新五郎町","zip_code":"9521523"},{"name":"相川新材木町","zip_code":"9521541"},{"name":"相川新西坂町","zip_code":"9521515"},{"name":"相川新浜町","zip_code":"9521568"},{"name":"相川炭屋町","zip_code":"9521506"},{"name":"相川諏訪町","zip_code":"9521525"},{"name":"相川大工町","zip_code":"9521524"},{"name":"相川中京町","zip_code":"9521535"},{"name":"相川長坂町","zip_code":"9521543"},{"name":"相川中寺町","zip_code":"9521526"},{"name":"相川濁川町","zip_code":"9521513"},{"name":"相川西坂町","zip_code":"9521516"},{"name":"相川二町目","zip_code":"9521558"},{"name":"相川二町目新浜町","zip_code":"9521554"},{"name":"相川二町目浜町","zip_code":"9521555"},{"name":"相川羽田町","zip_code":"9521548"},{"name":"相川羽田村","zip_code":"9521572"},{"name":"相川広間町","zip_code":"9521531"},{"name":"相川水金町","zip_code":"9521502"},{"name":"相川味噌屋町","zip_code":"9521544"},{"name":"相川南沢町","zip_code":"9521546"},{"name":"相川八百屋町","zip_code":"9521545"},{"name":"相川弥十郎町","zip_code":"9521532"},{"name":"相川夕白町","zip_code":"9521521"},{"name":"相川四町目","zip_code":"9521564"},{"name":"相川四町目浜町","zip_code":"9521567"},{"name":"相川六右衛門町","zip_code":"9521528"},{"name":"青野","zip_code":"9521326"},{"name":"吾潟","zip_code":"9523421"},{"name":"赤玉","zip_code":"9520852"},{"name":"赤泊","zip_code":"9520711"},{"name":"秋津","zip_code":"9520021"},{"name":"旭","zip_code":"9520022"},{"name":"阿仏坊","zip_code":"9520303"},{"name":"蚫","zip_code":"9520851"},{"name":"安養寺","zip_code":"9521201"},{"name":"飯持","zip_code":"9520213"},{"name":"五十浦","zip_code":"9522202"},{"name":"石花","zip_code":"9522224"},{"name":"石田","zip_code":"9521322"},{"name":"石名","zip_code":"9522211"},{"name":"泉","zip_code":"9521212"},{"name":"市野沢","zip_code":"9521302"},{"name":"井坪","zip_code":"9520626"},{"name":"稲鯨","zip_code":"9521643"},{"name":"犬神平","zip_code":"9520614"},{"name":"岩首","zip_code":"9520857"},{"name":"岩谷口","zip_code":"9522201"},{"name":"後尾","zip_code":"9522223"},{"name":"歌見","zip_code":"9523113"},{"name":"馬首","zip_code":"9523117"},{"name":"梅津","zip_code":"9520005"},{"name":"浦川","zip_code":"9523114"},{"name":"江積","zip_code":"9520622"},{"name":"大久保","zip_code":"9520214"},{"name":"大倉","zip_code":"9522205"},{"name":"大倉谷","zip_code":"9520432"},{"name":"大須","zip_code":"9520315"},{"name":"大杉","zip_code":"9520716"},{"name":"多田","zip_code":"9520822"},{"name":"小川","zip_code":"9522136"},{"name":"小木","zip_code":"9520605"},{"name":"小木金田新田","zip_code":"9520611"},{"name":"小木木野浦","zip_code":"9520603"},{"name":"小木強清水","zip_code":"9520613"},{"name":"小木堂釜","zip_code":"9520601"},{"name":"小木大浦","zip_code":"9520625"},{"name":"小木町","zip_code":"9520604"},{"name":"小倉","zip_code":"9520205"},{"name":"小野見","zip_code":"9522212"},{"name":"貝塚","zip_code":"9521207"},{"name":"柿野浦","zip_code":"9520855"},{"name":"鍛冶町","zip_code":"9521323"},{"name":"春日","zip_code":"9520006"},{"name":"片野尾","zip_code":"9523542"},{"name":"潟端","zip_code":"9520023"},{"name":"金井新保","zip_code":"9521208"},{"name":"金丸","zip_code":"9520307"},{"name":"上川茂","zip_code":"9520702"},{"name":"上長木","zip_code":"9521305"},{"name":"上新穂","zip_code":"9520108"},{"name":"上矢馳","zip_code":"9521303"},{"name":"上横山","zip_code":"9520024"},{"name":"加茂歌代","zip_code":"9520028"},{"name":"河崎","zip_code":"9523425"},{"name":"河原田諏訪町","zip_code":"9521315"},{"name":"河原田本町","zip_code":"9521314"},{"name":"北五十里","zip_code":"9520002"},{"name":"北鵜島","zip_code":"9523202"},{"name":"北狄","zip_code":"9522133"},{"name":"北片辺","zip_code":"9522225"},{"name":"北川内","zip_code":"9522222"},{"name":"北小浦","zip_code":"9523207"},{"name":"北立島","zip_code":"9522221"},{"name":"北田野浦","zip_code":"9522213"},{"name":"北松ケ崎","zip_code":"9523116"},{"name":"久知河内","zip_code":"9523423"},{"name":"窪田","zip_code":"9521325"},{"name":"栗野江","zip_code":"9520202"},{"name":"黒姫","zip_code":"9523112"},{"name":"国分寺","zip_code":"9520304"},{"name":"小田","zip_code":"9522206"},{"name":"琴浦","zip_code":"9520606"},{"name":"木流","zip_code":"9520624"},{"name":"小比叡","zip_code":"9520602"},{"name":"猿八","zip_code":"9520215"},{"name":"沢崎","zip_code":"9520621"},{"name":"沢根五十里","zip_code":"9521432"},{"name":"沢根篭町","zip_code":"9521433"},{"name":"沢根炭屋町","zip_code":"9521431"},{"name":"沢根","zip_code":"9521435"},{"name":"沢根町","zip_code":"9521434"},{"name":"三宮","zip_code":"9520216"},{"name":"三瀬川","zip_code":"9521204"},{"name":"椎泊","zip_code":"9523432"},{"name":"静平","zip_code":"9520321"},{"name":"下相川","zip_code":"9521501"},{"name":"下川茂","zip_code":"9520701"},{"name":"下久知","zip_code":"9523424"},{"name":"下黒山","zip_code":"9520322"},{"name":"下長木","zip_code":"9521304"},{"name":"下新穂","zip_code":"9520114"},{"name":"下横山","zip_code":"9520025"},{"name":"宿根木","zip_code":"9520612"},{"name":"城腰","zip_code":"9523422"},{"name":"白瀬","zip_code":"9520001"},{"name":"真光寺","zip_code":"9521301"},{"name":"水津","zip_code":"9523541"},{"name":"杉野浦","zip_code":"9520715"},{"name":"住吉","zip_code":"9520015"},{"name":"関","zip_code":"9522203"},{"name":"背合","zip_code":"9520316"},{"name":"大小","zip_code":"9520431"},{"name":"高千","zip_code":"9522214"},{"name":"田切須","zip_code":"9520433"},{"name":"滝脇","zip_code":"9520314"},{"name":"竹田","zip_code":"9520302"},{"name":"高瀬","zip_code":"9521645"},{"name":"橘","zip_code":"9521644"},{"name":"達者","zip_code":"9522135"},{"name":"立間","zip_code":"9520853"},{"name":"立野","zip_code":"9520026"},{"name":"田野浦","zip_code":"9520623"},{"name":"玉崎","zip_code":"9523119"},{"name":"千種","zip_code":"9521209"},{"name":"月布施","zip_code":"9523543"},{"name":"椿","zip_code":"9520003"},{"name":"椿尾","zip_code":"9520435"},{"name":"寺田","zip_code":"9520207"},{"name":"徳和","zip_code":"9520706"},{"name":"戸地","zip_code":"9522132"},{"name":"戸中","zip_code":"9522131"},{"name":"外山","zip_code":"9520703"},{"name":"豊岡","zip_code":"9520854"},{"name":"豊田","zip_code":"9520317"},{"name":"長石","zip_code":"9520305"},{"name":"長江","zip_code":"9520027"},{"name":"中興","zip_code":"9521211"},{"name":"長木","zip_code":"9521306"},{"name":"中原","zip_code":"9521324"},{"name":"名古屋","zip_code":"9520311"},{"name":"新穂","zip_code":"9520116"},{"name":"新穂青木","zip_code":"9520102"},{"name":"新穂井内","zip_code":"9520107"},{"name":"新穂瓜生屋","zip_code":"9520106"},{"name":"新穂大野","zip_code":"9520109"},{"name":"新穂潟上","zip_code":"9520103"},{"name":"新穂北方","zip_code":"9520115"},{"name":"新穂正明寺","zip_code":"9520105"},{"name":"新穂武井","zip_code":"9520111"},{"name":"新穂田野沢","zip_code":"9520104"},{"name":"新穂長畝","zip_code":"9520101"},{"name":"新穂舟下","zip_code":"9520112"},{"name":"新穂皆川","zip_code":"9520113"},{"name":"二宮","zip_code":"9521308"},{"name":"西三川","zip_code":"9520434"},{"name":"入川","zip_code":"9522215"},{"name":"願","zip_code":"9523203"},{"name":"野浦","zip_code":"9523544"},{"name":"長谷","zip_code":"9520204"},{"name":"畑野","zip_code":"9520206"},{"name":"羽二生","zip_code":"9523434"},{"name":"浜河内","zip_code":"9520823"},{"name":"浜田","zip_code":"9520007"},{"name":"羽茂飯岡","zip_code":"9520503"},{"name":"羽茂大石","zip_code":"9520511"},{"name":"羽茂大崎","zip_code":"9520502"},{"name":"羽茂大橋","zip_code":"9520512"},{"name":"羽茂上山田","zip_code":"9520515"},{"name":"羽茂亀脇","zip_code":"9520422"},{"name":"羽茂小泊","zip_code":"9520421"},{"name":"羽茂三瀬","zip_code":"9520505"},{"name":"羽茂滝平","zip_code":"9520501"},{"name":"羽茂本郷","zip_code":"9520504"},{"name":"羽茂村山","zip_code":"9520513"},{"name":"羽吉","zip_code":"9520004"},{"name":"原黒","zip_code":"9520016"},{"name":"東鵜島","zip_code":"9520856"},{"name":"東大通","zip_code":"9521307"},{"name":"東強清水","zip_code":"9523545"},{"name":"東立島","zip_code":"9523546"},{"name":"姫津","zip_code":"9522134"},{"name":"平清水","zip_code":"9521213"},{"name":"平松","zip_code":"9523115"},{"name":"深浦","zip_code":"9520615"},{"name":"畉田","zip_code":"9520211"},{"name":"二見","zip_code":"9521641"},{"name":"坊ケ浦","zip_code":"9520203"},{"name":"真浦","zip_code":"9520712"},{"name":"真木","zip_code":"9523431"},{"name":"真更川","zip_code":"9523201"},{"name":"松ケ崎","zip_code":"9520821"},{"name":"真野","zip_code":"9520313"},{"name":"真野大川","zip_code":"9520301"},{"name":"真野新町","zip_code":"9520318"},{"name":"丸山","zip_code":"9520824"},{"name":"三川","zip_code":"9520705"},{"name":"見立","zip_code":"9523206"},{"name":"水渡田","zip_code":"9521205"},{"name":"南片辺","zip_code":"9522226"},{"name":"南新保","zip_code":"9520714"},{"name":"宮川","zip_code":"9520212"},{"name":"虫崎","zip_code":"9523111"},{"name":"莚場","zip_code":"9520704"},{"name":"目黒町","zip_code":"9520201"},{"name":"藻浦","zip_code":"9523204"},{"name":"両尾","zip_code":"9523433"},{"name":"矢柄","zip_code":"9522204"},{"name":"柳沢","zip_code":"9520713"},{"name":"八幡","zip_code":"9521311"},{"name":"八幡新町","zip_code":"9521312"},{"name":"八幡町","zip_code":"9521313"},{"name":"山田","zip_code":"9521321"},{"name":"大和","zip_code":"9521206"},{"name":"吉井","zip_code":"9521203"},{"name":"吉井本郷","zip_code":"9521202"},{"name":"吉岡","zip_code":"9520312"},{"name":"四日町","zip_code":"9520306"},{"name":"米郷","zip_code":"9521642"},{"name":"両津夷","zip_code":"9520011"},{"name":"両津夷新","zip_code":"9520012"},{"name":"両津福浦","zip_code":"9520013"},{"name":"両津湊","zip_code":"9520014"},{"name":"両津大川","zip_code":"9523435"},{"name":"和木","zip_code":"9523118"},{"name":"鷲崎","zip_code":"9523205"}]},{"name":"魚沼市","divisions":[{"name":"青島","zip_code":"9460043"},{"name":"赤土","zip_code":"9460224"},{"name":"穴沢","zip_code":"9460304"},{"name":"池平","zip_code":"9460064"},{"name":"池平新田","zip_code":"9460064"},{"name":"泉沢","zip_code":"9460114"},{"name":"伊勢島","zip_code":"9460038"},{"name":"板木","zip_code":"9460032"},{"name":"稲荷町","zip_code":"9460002"},{"name":"井口新田","zip_code":"9460076"},{"name":"今泉","zip_code":"9460051"},{"name":"芋鞘","zip_code":"9460302"},{"name":"魚野地","zip_code":"9497423"},{"name":"宇津野","zip_code":"9460084"},{"name":"浦町","zip_code":"9460012"},{"name":"江口","zip_code":"9460052"},{"name":"江口新田","zip_code":"9460052"},{"name":"大石","zip_code":"9497411"},{"name":"大芋川","zip_code":"9460124"},{"name":"大浦","zip_code":"9460033"},{"name":"大浦新田","zip_code":"9460034"},{"name":"大倉","zip_code":"9460226"},{"name":"大倉沢","zip_code":"9460223"},{"name":"大沢","zip_code":"9460073"},{"name":"大白川","zip_code":"9460303"},{"name":"大塚新田","zip_code":"9460004"},{"name":"大栃山","zip_code":"9460305"},{"name":"大原新田","zip_code":"9460215"},{"name":"大湯温泉","zip_code":"9460088"},{"name":"岡新田","zip_code":"9460036"},{"name":"小平尾","zip_code":"9460101"},{"name":"親柄","zip_code":"9460108"},{"name":"折立又新田","zip_code":"9460086"},{"name":"金ケ沢","zip_code":"9460105"},{"name":"上折立","zip_code":"9460087"},{"name":"上長鳥新田","zip_code":"9460211"},{"name":"上原","zip_code":"9460022"},{"name":"雁坂下","zip_code":"9460107"},{"name":"清本","zip_code":"9460107"},{"name":"栗山","zip_code":"9460104"},{"name":"小出島","zip_code":"9460011"},{"name":"越又","zip_code":"9460125"},{"name":"古新田","zip_code":"9460025"},{"name":"小庭名","zip_code":"9460121"},{"name":"小庭名新田","zip_code":"9460121"},{"name":"佐梨","zip_code":"9460021"},{"name":"下倉","zip_code":"9497401"},{"name":"渋川","zip_code":"9460203"},{"name":"下折立","zip_code":"9460085"},{"name":"下島","zip_code":"9497416"},{"name":"下新田","zip_code":"9497417"},{"name":"下田","zip_code":"9460107"},{"name":"新道島","zip_code":"9497405"},{"name":"新保","zip_code":"9460061"},{"name":"新保新田","zip_code":"9460061"},{"name":"須川","zip_code":"9460221"},{"name":"須原","zip_code":"9460216"},{"name":"諏訪町","zip_code":"9460003"},{"name":"外山","zip_code":"9460102"},{"name":"高倉","zip_code":"9460201"},{"name":"田川","zip_code":"9497415"},{"name":"滝之又","zip_code":"9460103"},{"name":"田小屋","zip_code":"9460301"},{"name":"田尻","zip_code":"9460112"},{"name":"田戸","zip_code":"9497402"},{"name":"田中","zip_code":"9460106"},{"name":"中家","zip_code":"9460063"},{"name":"中家新田","zip_code":"9460063"},{"name":"中子沢","zip_code":"9460065"},{"name":"十日町","zip_code":"9460035"},{"name":"徳田","zip_code":"9497418"},{"name":"中島","zip_code":"9460057"},{"name":"中島新田","zip_code":"9460058"},{"name":"長鳥","zip_code":"9460212"},{"name":"中之島","zip_code":"9460006"},{"name":"中原","zip_code":"9460024"},{"name":"長堀新田","zip_code":"9460107"},{"name":"長松","zip_code":"9460053"},{"name":"七日市","zip_code":"9460071"},{"name":"七日市新田","zip_code":"9460072"},{"name":"並柳","zip_code":"9460111"},{"name":"西名","zip_code":"9460204"},{"name":"西名新田","zip_code":"9460206"},{"name":"根小屋","zip_code":"9497403"},{"name":"原","zip_code":"9497422"},{"name":"原虫野","zip_code":"9460031"},{"name":"東中","zip_code":"9460113"},{"name":"東野名","zip_code":"9460202"},{"name":"一日市","zip_code":"9460062"},{"name":"干溝","zip_code":"9460023"},{"name":"平野又","zip_code":"9460306"},{"name":"日渡新田","zip_code":"9460001"},{"name":"福田新田","zip_code":"9460222"},{"name":"福山新田","zip_code":"9460207"},{"name":"細野","zip_code":"9460213"},{"name":"堀之内","zip_code":"9497413"},{"name":"本町","zip_code":"9460041"},{"name":"松川","zip_code":"9460214"},{"name":"水沢","zip_code":"9460123"},{"name":"三ツ又","zip_code":"9460066"},{"name":"蓑和田","zip_code":"9460083"},{"name":"三渕沢","zip_code":"9460225"},{"name":"宮沢新田","zip_code":"9460105"},{"name":"宮椿新田","zip_code":"9460205"},{"name":"明神","zip_code":"9497424"},{"name":"葎沢","zip_code":"9460081"},{"name":"虫野","zip_code":"9460037"},{"name":"茂沢","zip_code":"9460123"},{"name":"柳原","zip_code":"9460042"},{"name":"山口","zip_code":"9460115"},{"name":"山田","zip_code":"9460055"},{"name":"山田下","zip_code":"9460056"},{"name":"湯之谷芋川","zip_code":"9460082"},{"name":"横瀬","zip_code":"9460107"},{"name":"横町","zip_code":"9460005"},{"name":"横根","zip_code":"9460307"},{"name":"与五郎新田","zip_code":"9497412"},{"name":"吉田","zip_code":"9460075"},{"name":"吉平","zip_code":"9460121"},{"name":"吉水","zip_code":"9497421"},{"name":"吉原","zip_code":"9460122"},{"name":"四日町","zip_code":"9460007"},{"name":"米沢","zip_code":"9460054"},{"name":"竜光","zip_code":"9497404"},{"name":"連日","zip_code":"9460121"},{"name":"和田","zip_code":"9460109"},{"name":"和長島","zip_code":"9497414"}]},{"name":"南魚沼市","divisions":[{"name":"青木新田","zip_code":"9496605"},{"name":"畔地","zip_code":"9496746"},{"name":"畔地新田","zip_code":"9496751"},{"name":"穴地","zip_code":"9497245"},{"name":"穴地新田","zip_code":"9497246"},{"name":"海士ケ島新田","zip_code":"9497256"},{"name":"天野沢","zip_code":"9496434"},{"name":"荒金","zip_code":"9497235"},{"name":"荒山","zip_code":"9497234"},{"name":"雷土","zip_code":"9497228"},{"name":"雷土新田","zip_code":"9497227"},{"name":"石打","zip_code":"9496372"},{"name":"泉","zip_code":"9497114"},{"name":"泉新田","zip_code":"9497115"},{"name":"市野江乙","zip_code":"9497318"},{"name":"市野江甲","zip_code":"9497317"},{"name":"市野江丙","zip_code":"9497319"},{"name":"一之沢","zip_code":"9496554"},{"name":"五日町","zip_code":"9497101"},{"name":"今町","zip_code":"9497313"},{"name":"今町新田","zip_code":"9497254"},{"name":"芋赤","zip_code":"9497222"},{"name":"岩崎","zip_code":"9496765"},{"name":"宇津野新田","zip_code":"9496607"},{"name":"姥沢新田","zip_code":"9496551"},{"name":"姥島新田","zip_code":"9496425"},{"name":"浦佐","zip_code":"9497302"},{"name":"上野","zip_code":"9496373"},{"name":"雲洞","zip_code":"9496542"},{"name":"枝吉","zip_code":"9496544"},{"name":"大木六","zip_code":"9496416"},{"name":"大木六新田","zip_code":"9496438"},{"name":"大倉","zip_code":"9497243"},{"name":"大桑原","zip_code":"9497224"},{"name":"大崎","zip_code":"9497251"},{"name":"大里","zip_code":"9496412"},{"name":"大沢","zip_code":"9496361"},{"name":"大杉新田","zip_code":"9497103"},{"name":"大月","zip_code":"9496682"},{"name":"岡","zip_code":"9497122"},{"name":"小川","zip_code":"9496745"},{"name":"奥","zip_code":"9497102"},{"name":"思川","zip_code":"9496403"},{"name":"欠之上","zip_code":"9496602"},{"name":"片田","zip_code":"9496404"},{"name":"蟹沢新田","zip_code":"9496552"},{"name":"樺野沢","zip_code":"9496431"},{"name":"樺野沢新田","zip_code":"9496432"},{"name":"上出浦","zip_code":"9497126"},{"name":"上十日町","zip_code":"9496411"},{"name":"上原","zip_code":"9497137"},{"name":"上原新田","zip_code":"9497138"},{"name":"上一日市","zip_code":"9496364"},{"name":"上薬師堂","zip_code":"9497124"},{"name":"川窪","zip_code":"9496603"},{"name":"北田中","zip_code":"9497143"},{"name":"君帰","zip_code":"9496601"},{"name":"君沢","zip_code":"9496366"},{"name":"京岡","zip_code":"9496756"},{"name":"京岡新田","zip_code":"9496757"},{"name":"桐沢","zip_code":"9497233"},{"name":"黒土","zip_code":"9497242"},{"name":"黒土新田","zip_code":"9497241"},{"name":"五箇","zip_code":"9497301"},{"name":"小木六","zip_code":"9496413"},{"name":"国際町","zip_code":"9497248"},{"name":"小栗山","zip_code":"9496636"},{"name":"九日町","zip_code":"9497312"},{"name":"小杉新田","zip_code":"9496415"},{"name":"小松沢","zip_code":"9496556"},{"name":"五郎丸","zip_code":"9496428"},{"name":"坂戸","zip_code":"9496611"},{"name":"三郎丸","zip_code":"9496541"},{"name":"塩沢","zip_code":"9496408"},{"name":"四十日","zip_code":"9497145"},{"name":"島新田","zip_code":"9496407"},{"name":"清水","zip_code":"9496553"},{"name":"清水瀬","zip_code":"9496741"},{"name":"下出浦","zip_code":"9497127"},{"name":"下原","zip_code":"9497113"},{"name":"下原新田","zip_code":"9497116"},{"name":"下一日市","zip_code":"9496363"},{"name":"下薬師堂","zip_code":"9497125"},{"name":"城山新田","zip_code":"9497314"},{"name":"関","zip_code":"9496371"},{"name":"芹田","zip_code":"9497311"},{"name":"仙石","zip_code":"9496418"},{"name":"泉盛寺","zip_code":"9496433"},{"name":"台上","zip_code":"9496557"},{"name":"滝谷","zip_code":"9496555"},{"name":"竹俣","zip_code":"9496405"},{"name":"竹俣新田","zip_code":"9496406"},{"name":"田崎","zip_code":"9497134"},{"name":"津久野","zip_code":"9496771"},{"name":"津久野上新田","zip_code":"9496766"},{"name":"津久野下新田","zip_code":"9496773"},{"name":"土沢","zip_code":"9496744"},{"name":"寺尾","zip_code":"9497104"},{"name":"堂島新田","zip_code":"9497232"},{"name":"徳田新田","zip_code":"9496422"},{"name":"栃窪","zip_code":"9496401"},{"name":"中","zip_code":"9496436"},{"name":"中川","zip_code":"9496761"},{"name":"中川新田","zip_code":"9496762"},{"name":"中子新田乙","zip_code":"9496427"},{"name":"中子新田甲","zip_code":"9496421"},{"name":"長崎","zip_code":"9496545"},{"name":"中野","zip_code":"9496437"},{"name":"永松","zip_code":"9496754"},{"name":"長森","zip_code":"9497112"},{"name":"長森新田","zip_code":"9497117"},{"name":"名木沢","zip_code":"9497315"},{"name":"新堀","zip_code":"9497136"},{"name":"新堀新田","zip_code":"9497135"},{"name":"西泉田","zip_code":"9496615"},{"name":"野際","zip_code":"9497131"},{"name":"野田","zip_code":"9497144"},{"name":"野中","zip_code":"9496742"},{"name":"八竜新田","zip_code":"9496414"},{"name":"早川","zip_code":"9496543"},{"name":"原","zip_code":"9496755"},{"name":"東泉田","zip_code":"9496612"},{"name":"一村尾","zip_code":"9497316"},{"name":"蛭窪","zip_code":"9496753"},{"name":"深沢","zip_code":"9496774"},{"name":"藤原","zip_code":"9497132"},{"name":"舞台","zip_code":"9496743"},{"name":"二日町","zip_code":"9496772"},{"name":"船ケ沢新田","zip_code":"9497244"},{"name":"麓","zip_code":"9497111"},{"name":"法音寺","zip_code":"9497133"},{"name":"舞子","zip_code":"9496423"},{"name":"前原町","zip_code":"9497229"},{"name":"丸池新田","zip_code":"9496426"},{"name":"万条新田","zip_code":"9496424"},{"name":"美佐島","zip_code":"9496608"},{"name":"水尾","zip_code":"9497252"},{"name":"水尾新田","zip_code":"9497253"},{"name":"南田中","zip_code":"9496362"},{"name":"宮","zip_code":"9496775"},{"name":"宮野下","zip_code":"9496365"},{"name":"宮村下新田","zip_code":"9496764"},{"name":"妙音寺","zip_code":"9497123"},{"name":"茗荷沢","zip_code":"9497231"},{"name":"茗荷沢新田","zip_code":"9497236"},{"name":"六日町","zip_code":"9496680"},{"name":"目来田","zip_code":"9496435"},{"name":"門前","zip_code":"9497223"},{"name":"八色原","zip_code":"9497247"},{"name":"山口","zip_code":"9497121"},{"name":"山崎","zip_code":"9497225"},{"name":"山崎新田","zip_code":"9497226"},{"name":"山谷","zip_code":"9496763"},{"name":"八幡","zip_code":"9496609"},{"name":"湯谷","zip_code":"9497221"},{"name":"余川","zip_code":"9496681"},{"name":"吉里","zip_code":"9496402"},{"name":"吉山新田","zip_code":"9496417"},{"name":"柳古新田","zip_code":"9497255"}]},{"name":"胎内市","divisions":[{"name":"赤川","zip_code":"9592661"},{"name":"あかね町","zip_code":"9592659"},{"name":"熱田坂","zip_code":"9592823"},{"name":"荒井浜","zip_code":"9592609"},{"name":"飯角","zip_code":"9592626"},{"name":"江上","zip_code":"9592657"},{"name":"江尻","zip_code":"9592605"},{"name":"追分","zip_code":"9592622"},{"name":"近江新","zip_code":"9592801"},{"name":"大出","zip_code":"9592604"},{"name":"大川町","zip_code":"9592644"},{"name":"大塚","zip_code":"9592665"},{"name":"大長谷","zip_code":"9592813"},{"name":"小地谷","zip_code":"9592612"},{"name":"表町","zip_code":"9592631"},{"name":"上城塚","zip_code":"9592676"},{"name":"北成田","zip_code":"9592724"},{"name":"北本町","zip_code":"9592647"},{"name":"切田","zip_code":"9592802"},{"name":"乙","zip_code":"9592602"},{"name":"協和町","zip_code":"9592652"},{"name":"草野","zip_code":"9592663"},{"name":"倉敷町","zip_code":"9592653"},{"name":"栗木野新田","zip_code":"9592827"},{"name":"黒川","zip_code":"9592807"},{"name":"黒俣","zip_code":"9592814"},{"name":"鍬江","zip_code":"9592811"},{"name":"鴻ノ巣","zip_code":"9592705"},{"name":"苔実","zip_code":"9592721"},{"name":"小長谷","zip_code":"9592812"},{"name":"小舟戸","zip_code":"9592674"},{"name":"小牧台","zip_code":"9592634"},{"name":"蔵王","zip_code":"9592803"},{"name":"坂井","zip_code":"9592825"},{"name":"笹口浜","zip_code":"9592701"},{"name":"山王","zip_code":"9592706"},{"name":"塩沢","zip_code":"9592804"},{"name":"塩津","zip_code":"9592669"},{"name":"柴橋","zip_code":"9592664"},{"name":"下赤谷","zip_code":"9592806"},{"name":"下荒沢","zip_code":"9592816"},{"name":"下江端","zip_code":"9592809"},{"name":"下城塚","zip_code":"9592677"},{"name":"下高田","zip_code":"9592707"},{"name":"下館","zip_code":"9592805"},{"name":"地本","zip_code":"9592607"},{"name":"十二天","zip_code":"9592619"},{"name":"新栄町","zip_code":"9592632"},{"name":"新舘","zip_code":"9592666"},{"name":"新和町","zip_code":"9592642"},{"name":"菅田","zip_code":"9592603"},{"name":"須巻","zip_code":"9592817"},{"name":"住吉町","zip_code":"9592648"},{"name":"関沢","zip_code":"9592633"},{"name":"高野","zip_code":"9592618"},{"name":"鷹ノ巣","zip_code":"9592662"},{"name":"高野村新田","zip_code":"9592617"},{"name":"高橋","zip_code":"9592715"},{"name":"高畑","zip_code":"9592703"},{"name":"竹島","zip_code":"9592722"},{"name":"築地","zip_code":"9592712"},{"name":"築地新","zip_code":"9592713"},{"name":"土作","zip_code":"9592616"},{"name":"つつじが丘","zip_code":"9592635"},{"name":"鼓岡","zip_code":"9592826"},{"name":"坪穴","zip_code":"9592821"},{"name":"東牧","zip_code":"9592808"},{"name":"富岡","zip_code":"9592608"},{"name":"寅田","zip_code":"9592673"},{"name":"中倉","zip_code":"9592716"},{"name":"中条","zip_code":"9592629"},{"name":"長橋","zip_code":"9592637"},{"name":"中村浜","zip_code":"9592708"},{"name":"夏井","zip_code":"9592822"},{"name":"並槻","zip_code":"9592621"},{"name":"仁谷野","zip_code":"9592623"},{"name":"西川内","zip_code":"9592667"},{"name":"西栄町","zip_code":"9592646"},{"name":"西条","zip_code":"9592658"},{"name":"西条町","zip_code":"9592651"},{"name":"西本町","zip_code":"9592656"},{"name":"野中","zip_code":"9592627"},{"name":"羽黒","zip_code":"9592624"},{"name":"八幡","zip_code":"9592606"},{"name":"八田","zip_code":"9592672"},{"name":"半山","zip_code":"9592625"},{"name":"東川内","zip_code":"9592671"},{"name":"東本町","zip_code":"9592643"},{"name":"平木田","zip_code":"9592614"},{"name":"平木田駅前","zip_code":"9592613"},{"name":"平根台","zip_code":"9592702"},{"name":"二葉町","zip_code":"9592628"},{"name":"船戸","zip_code":"9592675"},{"name":"星の宮町","zip_code":"9592636"},{"name":"堀口","zip_code":"9592714"},{"name":"本郷","zip_code":"9592655"},{"name":"本郷町","zip_code":"9592654"},{"name":"本町","zip_code":"9592645"},{"name":"水沢町","zip_code":"9592638"},{"name":"宮川","zip_code":"9592723"},{"name":"宮瀬","zip_code":"9592704"},{"name":"宮久","zip_code":"9592824"},{"name":"村松浜","zip_code":"9592709"},{"name":"持倉","zip_code":"9592815"},{"name":"桃崎浜","zip_code":"9592601"},{"name":"弥彦岡","zip_code":"9592668"},{"name":"山屋","zip_code":"9592611"},{"name":"横道","zip_code":"9592615"},{"name":"若松町","zip_code":"9592641"}]},{"name":"北蒲原郡聖籠町","divisions":[{"name":"網代浜","zip_code":"9570103"},{"name":"位守町","zip_code":"9570102"},{"name":"上大谷内","zip_code":"9570113"},{"name":"亀塚","zip_code":"9570104"},{"name":"三賀","zip_code":"9570122"},{"name":"次第浜","zip_code":"9570105"},{"name":"諏訪山","zip_code":"9570117"},{"name":"大夫","zip_code":"9570121"},{"name":"大夫興野","zip_code":"9570126"},{"name":"道賀新田","zip_code":"9570112"},{"name":"二本松","zip_code":"9570123"},{"name":"蓮潟","zip_code":"9570106"},{"name":"蓮野","zip_code":"9570124"},{"name":"東港","zip_code":"9570101"},{"name":"藤寄","zip_code":"9570127"},{"name":"別條","zip_code":"9570125"},{"name":"真野","zip_code":"9570111"},{"name":"丸潟","zip_code":"9570114"},{"name":"桃山","zip_code":"9570115"},{"name":"山倉","zip_code":"9570116"}]},{"name":"西蒲原郡弥彦村","divisions":[{"name":"井田","zip_code":"9590311"},{"name":"えび穴","zip_code":"9590301"},{"name":"大戸","zip_code":"9590308"},{"name":"荻野","zip_code":"9590304"},{"name":"上泉","zip_code":"9590321"},{"name":"川崎","zip_code":"9590307"},{"name":"観音寺","zip_code":"9590319"},{"name":"境江","zip_code":"9590317"},{"name":"田中新田","zip_code":"9590302"},{"name":"中山","zip_code":"9590312"},{"name":"走出","zip_code":"9590322"},{"name":"浜首","zip_code":"9590306"},{"name":"平野","zip_code":"9590303"},{"name":"麓","zip_code":"9590318"},{"name":"麓村新田","zip_code":"9590315"},{"name":"峰見","zip_code":"9590309"},{"name":"美山","zip_code":"9590310"},{"name":"村山","zip_code":"9590316"},{"name":"矢作","zip_code":"9590305"},{"name":"弥彦","zip_code":"9590323"},{"name":"山岸","zip_code":"9590314"},{"name":"山崎","zip_code":"9590313"}]},{"name":"南蒲原郡田上町","divisions":[{"name":"石田新田","zip_code":"9591521"},{"name":"川船河","zip_code":"9591513"},{"name":"坂田","zip_code":"9591514"},{"name":"千苅新田","zip_code":"9591522"},{"name":"曽根新田","zip_code":"9591525"},{"name":"田上","zip_code":"9591502"},{"name":"羽生田","zip_code":"9591512"},{"name":"原ケ崎新田","zip_code":"9591503"},{"name":"保明新田","zip_code":"9591523"},{"name":"湯川","zip_code":"9591501"},{"name":"横場新田","zip_code":"9591524"},{"name":"吉田新田","zip_code":"9591511"}]},{"name":"東蒲原郡阿賀町","divisions":[{"name":"赤岩","zip_code":"9594408"},{"name":"あが野北","zip_code":"9594621"},{"name":"あが野南","zip_code":"9594626"},{"name":"新谷","zip_code":"9594603"},{"name":"五十沢","zip_code":"9594606"},{"name":"五十島","zip_code":"9594614"},{"name":"石戸","zip_code":"9594632"},{"name":"石間","zip_code":"9594636"},{"name":"岩谷","zip_code":"9594627"},{"name":"上ノ山","zip_code":"9594405"},{"name":"大牧","zip_code":"9594410"},{"name":"岡沢","zip_code":"9594612"},{"name":"小手茂","zip_code":"9594525"},{"name":"鹿瀬","zip_code":"9594302"},{"name":"上島","zip_code":"9594617"},{"name":"神谷乙","zip_code":"9594534"},{"name":"神谷甲","zip_code":"9594535"},{"name":"神谷丙","zip_code":"9594533"},{"name":"川口","zip_code":"9594618"},{"name":"京ノ瀬","zip_code":"9594409"},{"name":"九島","zip_code":"9594501"},{"name":"熊渡","zip_code":"9594634"},{"name":"雲和田","zip_code":"9594406"},{"name":"倉ノ平","zip_code":"9594413"},{"name":"黒岩","zip_code":"9594623"},{"name":"小出","zip_code":"9594502"},{"name":"小花地","zip_code":"9594608"},{"name":"三宝分乙","zip_code":"9594522"},{"name":"三宝分甲","zip_code":"9594521"},{"name":"三宝分丙","zip_code":"9594523"},{"name":"白崎","zip_code":"9594622"},{"name":"大倉乙","zip_code":"9594512"},{"name":"大倉甲","zip_code":"9594513"},{"name":"田沢","zip_code":"9594416"},{"name":"津川","zip_code":"9594402"},{"name":"綱木","zip_code":"9594601"},{"name":"角島","zip_code":"9594401"},{"name":"釣浜","zip_code":"9594635"},{"name":"天満","zip_code":"9594411"},{"name":"豊川乙","zip_code":"9594503"},{"name":"豊川甲","zip_code":"9594505"},{"name":"豊川丙","zip_code":"9594504"},{"name":"豊実","zip_code":"9594304"},{"name":"取上","zip_code":"9594631"},{"name":"長谷","zip_code":"9594633"},{"name":"中ノ沢","zip_code":"9594611"},{"name":"七名乙","zip_code":"9594514"},{"name":"七名甲","zip_code":"9594515"},{"name":"西","zip_code":"9594407"},{"name":"野村","zip_code":"9594418"},{"name":"花立","zip_code":"9594412"},{"name":"払川","zip_code":"9594441"},{"name":"東山","zip_code":"9594511"},{"name":"日出谷","zip_code":"9594303"},{"name":"日野川乙","zip_code":"9594539"},{"name":"日野川甲","zip_code":"9594531"},{"name":"日野川丙","zip_code":"9594538"},{"name":"平堀","zip_code":"9594403"},{"name":"広沢","zip_code":"9594404"},{"name":"広谷乙","zip_code":"9594537"},{"name":"広谷甲","zip_code":"9594536"},{"name":"広谷丙","zip_code":"9594532"},{"name":"福取","zip_code":"9594414"},{"name":"古岐","zip_code":"9594602"},{"name":"細越","zip_code":"9594605"},{"name":"三方乙","zip_code":"9594524"},{"name":"三方甲","zip_code":"9594526"},{"name":"向鹿瀬","zip_code":"9594301"},{"name":"八木山","zip_code":"9594417"},{"name":"谷沢","zip_code":"9594624"},{"name":"八ツ田","zip_code":"9594415"},{"name":"行地","zip_code":"9594604"},{"name":"吉津","zip_code":"9594625"},{"name":"両郷乙","zip_code":"9594506"},{"name":"両郷甲","zip_code":"9594507"}]},{"name":"三島郡出雲崎町","divisions":[{"name":"相田","zip_code":"9494325"},{"name":"尼瀬","zip_code":"9494308"},{"name":"石井町","zip_code":"9494306"},{"name":"市野坪","zip_code":"9494335"},{"name":"稲川","zip_code":"9494331"},{"name":"井鼻","zip_code":"9494302"},{"name":"上野山","zip_code":"9494346"},{"name":"大釜谷","zip_code":"9494323"},{"name":"大寺","zip_code":"9494312"},{"name":"小木","zip_code":"9494332"},{"name":"乙茂","zip_code":"9494311"},{"name":"柿木","zip_code":"9494315"},{"name":"勝見","zip_code":"9494309"},{"name":"桂沢","zip_code":"9494326"},{"name":"神条","zip_code":"9494318"},{"name":"上中条","zip_code":"9494341"},{"name":"川西","zip_code":"9494353"},{"name":"木折町","zip_code":"9494303"},{"name":"久田","zip_code":"9494301"},{"name":"小釜谷","zip_code":"9494322"},{"name":"小竹","zip_code":"9494344"},{"name":"米田","zip_code":"9494342"},{"name":"沢田","zip_code":"9494351"},{"name":"常楽寺","zip_code":"9494333"},{"name":"住吉町","zip_code":"9494307"},{"name":"大門","zip_code":"9494352"},{"name":"滝谷","zip_code":"9494316"},{"name":"立石","zip_code":"9494343"},{"name":"田中","zip_code":"9494337"},{"name":"豊橋","zip_code":"9494334"},{"name":"中山","zip_code":"9494345"},{"name":"鳴滝町","zip_code":"9494304"},{"name":"羽黒町","zip_code":"9494305"},{"name":"藤巻","zip_code":"9494314"},{"name":"船橋","zip_code":"9494336"},{"name":"別ケ谷","zip_code":"9494327"},{"name":"馬草","zip_code":"9494313"},{"name":"松本","zip_code":"9494321"},{"name":"山谷","zip_code":"9494328"},{"name":"吉川","zip_code":"9494317"},{"name":"吉水","zip_code":"9494324"}]},{"name":"南魚沼郡湯沢町","divisions":[{"name":"神立","zip_code":"9496102"},{"name":"土樽","zip_code":"9496103"},{"name":"三国","zip_code":"9496212"},{"name":"三俣","zip_code":"9496211"},{"name":"湯沢","zip_code":"9496101"}]},{"name":"中魚沼郡津南町","divisions":[{"name":"赤沢","zip_code":"9498203"},{"name":"秋成","zip_code":"9498313"},{"name":"芦ケ崎","zip_code":"9498314"},{"name":"大赤沢","zip_code":"9498317"},{"name":"上郷上田甲","zip_code":"9498122"},{"name":"上郷上田乙","zip_code":"9498121"},{"name":"上郷大井平","zip_code":"9498123"},{"name":"上郷子種新田","zip_code":"9498124"},{"name":"上郷寺石","zip_code":"9498126"},{"name":"上郷宮野原","zip_code":"9498125"},{"name":"穴藤","zip_code":"9498315"},{"name":"結東","zip_code":"9498316"},{"name":"三箇","zip_code":"9498207"},{"name":"下船渡","zip_code":"9498201"},{"name":"外丸","zip_code":"9498206"},{"name":"中深見","zip_code":"9498311"},{"name":"米原","zip_code":"9498312"},{"name":"谷内","zip_code":"9498204"}]},{"name":"刈羽郡刈羽村","divisions":[{"name":"赤田北方","zip_code":"9450325"},{"name":"赤田町方","zip_code":"9450323"},{"name":"油田","zip_code":"9450321"},{"name":"新屋敷","zip_code":"9450314"},{"name":"井岡","zip_code":"9450311"},{"name":"入和田","zip_code":"9450301"},{"name":"大塚","zip_code":"9450313"},{"name":"上高町","zip_code":"9450315"},{"name":"刈羽","zip_code":"9450307"},{"name":"枯木","zip_code":"9450324"},{"name":"黒川","zip_code":"9450322"},{"name":"西元寺","zip_code":"9450305"},{"name":"下高町","zip_code":"9450316"},{"name":"正明寺","zip_code":"9450317"},{"name":"滝谷","zip_code":"9450303"},{"name":"滝谷新田","zip_code":"9450302"},{"name":"寺尾","zip_code":"9450304"},{"name":"十日市","zip_code":"9450306"},{"name":"西谷","zip_code":"9450312"},{"name":"割町新田","zip_code":"9450308"}]},{"name":"岩船郡関川村","divisions":[{"name":"安角","zip_code":"9593235"},{"name":"荒川台","zip_code":"9593222"},{"name":"幾地","zip_code":"9593245"},{"name":"上野","zip_code":"9593213"},{"name":"上野新","zip_code":"9593214"},{"name":"上野原","zip_code":"9593216"},{"name":"上野山","zip_code":"9593257"},{"name":"打上","zip_code":"9593272"},{"name":"内須川","zip_code":"9593275"},{"name":"大内淵","zip_code":"9593223"},{"name":"小見","zip_code":"9593256"},{"name":"小見前新田","zip_code":"9593254"},{"name":"大石","zip_code":"9593236"},{"name":"大島","zip_code":"9593241"},{"name":"鮖谷","zip_code":"9593234"},{"name":"片貝","zip_code":"9593226"},{"name":"桂","zip_code":"9593251"},{"name":"金丸","zip_code":"9593228"},{"name":"金俣","zip_code":"9593237"},{"name":"上川口","zip_code":"9593231"},{"name":"上新保","zip_code":"9593205"},{"name":"上関","zip_code":"9593264"},{"name":"上土沢","zip_code":"9593246"},{"name":"聞出","zip_code":"9593224"},{"name":"久保","zip_code":"9593233"},{"name":"鍬江沢","zip_code":"9593243"},{"name":"小和田","zip_code":"9593211"},{"name":"沢","zip_code":"9593262"},{"name":"下川口","zip_code":"9593221"},{"name":"下関","zip_code":"9593265"},{"name":"下土沢","zip_code":"9593242"},{"name":"蛇喰","zip_code":"9593204"},{"name":"勝蔵","zip_code":"9593273"},{"name":"蔵田島","zip_code":"9593232"},{"name":"高瀬","zip_code":"9593263"},{"name":"高田","zip_code":"9593252"},{"name":"滝原","zip_code":"9593258"},{"name":"辰田新","zip_code":"9593271"},{"name":"田麦千刈","zip_code":"9593208"},{"name":"中束","zip_code":"9593206"},{"name":"沼","zip_code":"9593225"},{"name":"深沢","zip_code":"9593215"},{"name":"平内新","zip_code":"9593253"},{"name":"朴坂","zip_code":"9593201"},{"name":"松ケ丘","zip_code":"9593255"},{"name":"松平","zip_code":"9593259"},{"name":"南赤谷","zip_code":"9593274"},{"name":"南中","zip_code":"9593203"},{"name":"宮前","zip_code":"9593202"},{"name":"八ツ口","zip_code":"9593227"},{"name":"山本","zip_code":"9593244"},{"name":"湯沢","zip_code":"9593261"},{"name":"若山","zip_code":"9593212"},{"name":"蕨野","zip_code":"9593207"}]},{"name":"岩船郡粟島浦村","divisions":[]}]}