{"name":"富山県","cities":[{"name":"富山市","divisions":[{"name":"相生町","zip_code":"9300075"},{"name":"綾田町","zip_code":"9300845"},{"name":"青柳","zip_code":"9398162"},{"name":"青柳新","zip_code":"9398163"},{"name":"赤江町","zip_code":"9300855"},{"name":"赤田","zip_code":"9398064"},{"name":"赤田新町","zip_code":"9398065"},{"name":"秋ケ島","zip_code":"9398252"},{"name":"秋吉","zip_code":"9300953"},{"name":"秋吉新町","zip_code":"9300954"},{"name":"悪王寺","zip_code":"9398182"},{"name":"曙町","zip_code":"9300847"},{"name":"朝菜町","zip_code":"9398066"},{"name":"朝日","zip_code":"9300931"},{"name":"旭町","zip_code":"9398091"},{"name":"芦生","zip_code":"9392161"},{"name":"安住町","zip_code":"9300094"},{"name":"愛宕町","zip_code":"9300091"},{"name":"荒川","zip_code":"9300982"},{"name":"荒川新町","zip_code":"9300984"},{"name":"荒川常盤台","zip_code":"9300983"},{"name":"荒町","zip_code":"9300028"},{"name":"新町","zip_code":"9301321"},{"name":"新屋","zip_code":"9300822"},{"name":"新屋新町","zip_code":"9300823"},{"name":"有明町","zip_code":"9300863"},{"name":"有沢","zip_code":"9300862"},{"name":"有沢新町","zip_code":"9300861"},{"name":"有峰","zip_code":"9301458"},{"name":"粟島町","zip_code":"9318314"},{"name":"安養寺","zip_code":"9398177"},{"name":"安養坊","zip_code":"9300881"},{"name":"飯野","zip_code":"9300821"},{"name":"庵谷","zip_code":"9392185"},{"name":"池多","zip_code":"9300158"},{"name":"石金","zip_code":"9300966"},{"name":"石倉町","zip_code":"9300043"},{"name":"石坂","zip_code":"9300892"},{"name":"石坂新","zip_code":"9300891"},{"name":"石坂東町","zip_code":"9300893"},{"name":"石田","zip_code":"9398193"},{"name":"石渕","zip_code":"9301271"},{"name":"石屋","zip_code":"9398121"},{"name":"泉町","zip_code":"9300042"},{"name":"磯部町","zip_code":"9300077"},{"name":"市場","zip_code":"9392211"},{"name":"一番町","zip_code":"9300061"},{"name":"一本木","zip_code":"9300904"},{"name":"稲代","zip_code":"9392231"},{"name":"稲荷園町","zip_code":"9300849"},{"name":"稲荷町","zip_code":"9300012"},{"name":"稲荷元町","zip_code":"9300010"},{"name":"犬島","zip_code":"9318321"},{"name":"犬島新町","zip_code":"9318328"},{"name":"猪谷","zip_code":"9392187"},{"name":"今泉","zip_code":"9398075"},{"name":"今泉西部町","zip_code":"9398281"},{"name":"今泉北部町","zip_code":"9398282"},{"name":"今市","zip_code":"9302221"},{"name":"今木町","zip_code":"9300021"},{"name":"今生津","zip_code":"9392162"},{"name":"岩稲","zip_code":"9392182"},{"name":"岩木","zip_code":"9392246"},{"name":"岩木新","zip_code":"9392247"},{"name":"岩瀬赤田町","zip_code":"9318374"},{"name":"岩瀬天池町","zip_code":"9318372"},{"name":"岩瀬荒木町","zip_code":"9318346"},{"name":"岩瀬池田町","zip_code":"9318376"},{"name":"岩瀬入船町","zip_code":"9318365"},{"name":"岩瀬梅本町","zip_code":"9318362"},{"name":"岩瀬大町","zip_code":"9318356"},{"name":"岩瀬御蔵町","zip_code":"9318341"},{"name":"岩瀬表町","zip_code":"9318352"},{"name":"岩瀬祇園町","zip_code":"9318354"},{"name":"岩瀬古志町","zip_code":"9318371"},{"name":"岩瀬幸町","zip_code":"9318343"},{"name":"岩瀬堺町","zip_code":"9318351"},{"name":"岩瀬新町","zip_code":"9318344"},{"name":"岩瀬神明町","zip_code":"9318342"},{"name":"岩瀬諏訪町","zip_code":"9318377"},{"name":"岩瀬高畠町","zip_code":"9318375"},{"name":"岩瀬天神町","zip_code":"9318378"},{"name":"岩瀬土場町","zip_code":"9318347"},{"name":"岩瀬仲町","zip_code":"9318363"},{"name":"岩瀬新川町","zip_code":"9318355"},{"name":"岩瀬萩浦町","zip_code":"9318366"},{"name":"岩瀬白山町","zip_code":"9318361"},{"name":"岩瀬福来町","zip_code":"9318357"},{"name":"岩瀬文化町","zip_code":"9318353"},{"name":"岩瀬前田町","zip_code":"9318373"},{"name":"岩瀬松原町","zip_code":"9318367"},{"name":"岩瀬港町","zip_code":"9318364"},{"name":"牛ケ増","zip_code":"9392213"},{"name":"牛島新町","zip_code":"9300856"},{"name":"牛島町","zip_code":"9300858"},{"name":"牛島本町","zip_code":"9300859"},{"name":"薄波","zip_code":"9392171"},{"name":"打出","zip_code":"9302237"},{"name":"打出新","zip_code":"9302238"},{"name":"内幸町","zip_code":"9300093"},{"name":"馬瀬","zip_code":"9301284"},{"name":"梅沢町","zip_code":"9300055"},{"name":"上野","zip_code":"9398195"},{"name":"上野寿町","zip_code":"9398197"},{"name":"上野新","zip_code":"9318327"},{"name":"上野新町","zip_code":"9318326"},{"name":"上野南町","zip_code":"9398196"},{"name":"永楽町","zip_code":"9300853"},{"name":"越前町","zip_code":"9300067"},{"name":"江本","zip_code":"9398155"},{"name":"荏原","zip_code":"9300914"},{"name":"荏原駅前通り","zip_code":"9300915"},{"name":"荏原新町","zip_code":"9300913"},{"name":"蛯町","zip_code":"9300027"},{"name":"追分茶屋","zip_code":"9300116"},{"name":"大井","zip_code":"9398145"},{"name":"大泉","zip_code":"9398058"},{"name":"大泉１区南部","zip_code":"9398052"},{"name":"大泉北町","zip_code":"9398097"},{"name":"大泉東部","zip_code":"9398001"},{"name":"大泉中部","zip_code":"9398051"},{"name":"大泉中町","zip_code":"9398095"},{"name":"大泉東町","zip_code":"9398093"},{"name":"大泉本町","zip_code":"9398094"},{"name":"大泉町","zip_code":"9398087"},{"name":"大江干","zip_code":"9300922"},{"name":"大江干新町","zip_code":"9300927"},{"name":"大久保新町","zip_code":"9392251"},{"name":"大栗","zip_code":"9301327"},{"name":"大島","zip_code":"9398025"},{"name":"大清水","zip_code":"9301275"},{"name":"大双嶺","zip_code":"9301274"},{"name":"太田","zip_code":"9398048"},{"name":"太田薄波","zip_code":"9392171"},{"name":"太田北区","zip_code":"9398042"},{"name":"太田口通り","zip_code":"9300063"},{"name":"太田向陽台","zip_code":"9398043"},{"name":"太田中区","zip_code":"9398041"},{"name":"於保多町","zip_code":"9300015"},{"name":"太田南町","zip_code":"9398044"},{"name":"大塚","zip_code":"9300107"},{"name":"大塚東","zip_code":"9300107"},{"name":"大塚西","zip_code":"9300107"},{"name":"大塚南","zip_code":"9300107"},{"name":"大塚北","zip_code":"9300107"},{"name":"大手町","zip_code":"9300084"},{"name":"大野","zip_code":"9392207"},{"name":"大場","zip_code":"9398103"},{"name":"大町","zip_code":"9398073"},{"name":"大町南台","zip_code":"9398074"},{"name":"大宮町","zip_code":"9398035"},{"name":"大山上野","zip_code":"9301321"},{"name":"大山北新町","zip_code":"9301311"},{"name":"大山布目","zip_code":"9301264"},{"name":"大山松木","zip_code":"9301466"},{"name":"岡田","zip_code":"9301322"},{"name":"奥井町","zip_code":"9300846"},{"name":"奥田寿町","zip_code":"9300852"},{"name":"奥田新町","zip_code":"9300857"},{"name":"奥田双葉町","zip_code":"9300851"},{"name":"奥田本町","zip_code":"9300819"},{"name":"奥田町","zip_code":"9300818"},{"name":"小黒","zip_code":"9392202"},{"name":"小佐波","zip_code":"9301286"},{"name":"押上","zip_code":"9398243"},{"name":"小谷","zip_code":"9301265"},{"name":"音羽町","zip_code":"9300037"},{"name":"小原屋","zip_code":"9301328"},{"name":"小見","zip_code":"9301456"},{"name":"雄山町","zip_code":"9398092"},{"name":"折谷","zip_code":"9301276"},{"name":"海岸通","zip_code":"9318405"},{"name":"海岸通新町","zip_code":"9318407"},{"name":"開発","zip_code":"9398137"},{"name":"加賀沢","zip_code":"9392189"},{"name":"掛尾栄町","zip_code":"9398215"},{"name":"掛尾町","zip_code":"9398212"},{"name":"加古町","zip_code":"9318404"},{"name":"鹿島町","zip_code":"9300086"},{"name":"春日","zip_code":"9392224"},{"name":"春日町","zip_code":"9398077"},{"name":"片掛","zip_code":"9392186"},{"name":"金代","zip_code":"9300926"},{"name":"金屋","zip_code":"9300873"},{"name":"金山新","zip_code":"9302206"},{"name":"金山新桜ケ丘","zip_code":"9302204"},{"name":"金山新中","zip_code":"9302206"},{"name":"金山新東","zip_code":"9302205"},{"name":"金山新西","zip_code":"9302206"},{"name":"蟹寺","zip_code":"9392188"},{"name":"加納","zip_code":"9392245"},{"name":"金山新南","zip_code":"9302206"},{"name":"金山新北","zip_code":"9302206"},{"name":"上赤江","zip_code":"9300837"},{"name":"上赤江町","zip_code":"9300816"},{"name":"上飯野","zip_code":"9300827"},{"name":"上飯野新町","zip_code":"9300825"},{"name":"上今町","zip_code":"9398144"},{"name":"上大浦","zip_code":"9301333"},{"name":"上大久保","zip_code":"9392252"},{"name":"上大久保泉町","zip_code":"9392252"},{"name":"上大久保北新町","zip_code":"9392252"},{"name":"上大久保栄町","zip_code":"9392252"},{"name":"上大久保東新町","zip_code":"9392252"},{"name":"上熊野","zip_code":"9398166"},{"name":"上栗山","zip_code":"9398175"},{"name":"上栄","zip_code":"9398151"},{"name":"上庄町","zip_code":"9300826"},{"name":"上新保","zip_code":"9398061"},{"name":"上千俵","zip_code":"9398138"},{"name":"上千俵町","zip_code":"9398134"},{"name":"上滝","zip_code":"9301312"},{"name":"上布目","zip_code":"9398143"},{"name":"上袋","zip_code":"9398071"},{"name":"上冨居","zip_code":"9300835"},{"name":"上冨居新町","zip_code":"9300836"},{"name":"上二杉","zip_code":"9392256"},{"name":"上堀町","zip_code":"9398056"},{"name":"上堀南町","zip_code":"9398062"},{"name":"上本町","zip_code":"9300057"},{"name":"上八日町","zip_code":"9398225"},{"name":"亀谷","zip_code":"9301459"},{"name":"願海寺","zip_code":"9300175"},{"name":"願海寺新町","zip_code":"9300176"},{"name":"北押川","zip_code":"9300164"},{"name":"北新町","zip_code":"9300023"},{"name":"北代","zip_code":"9300103"},{"name":"北代新","zip_code":"9300104"},{"name":"北代中部","zip_code":"9300103"},{"name":"北代東部","zip_code":"9300103"},{"name":"北代藤ケ丘","zip_code":"9300105"},{"name":"北代北部","zip_code":"9300103"},{"name":"北二ツ屋","zip_code":"9300172"},{"name":"木場町","zip_code":"9300806"},{"name":"経田","zip_code":"9398264"},{"name":"経堂","zip_code":"9300951"},{"name":"経堂新町","zip_code":"9300956"},{"name":"経力","zip_code":"9398152"},{"name":"清住町","zip_code":"9398047"},{"name":"金泉寺","zip_code":"9300906"},{"name":"銀嶺町","zip_code":"9318451"},{"name":"久郷","zip_code":"9300865"},{"name":"草島","zip_code":"9302201"},{"name":"草島新町","zip_code":"9302207"},{"name":"楠木","zip_code":"9318442"},{"name":"窪新町","zip_code":"9300842"},{"name":"窪本町","zip_code":"9300843"},{"name":"公文名","zip_code":"9398002"},{"name":"栗山","zip_code":"9398178"},{"name":"楜ケ原","zip_code":"9301268"},{"name":"呉羽苑","zip_code":"9300121"},{"name":"呉羽川西","zip_code":"9300133"},{"name":"呉羽貴船巻","zip_code":"9300134"},{"name":"呉羽昭和町","zip_code":"9300131"},{"name":"呉羽新富田町","zip_code":"9300122"},{"name":"呉羽つつじが丘","zip_code":"9300125"},{"name":"呉羽富田町","zip_code":"9300123"},{"name":"呉羽中の町","zip_code":"9300135"},{"name":"呉羽野田","zip_code":"9300102"},{"name":"呉羽東町","zip_code":"9300126"},{"name":"呉羽姫本","zip_code":"9300132"},{"name":"呉羽本町","zip_code":"9300137"},{"name":"呉羽町","zip_code":"9300138"},{"name":"呉羽町西","zip_code":"9300138"},{"name":"呉羽町北","zip_code":"9300138"},{"name":"呉羽丸富町","zip_code":"9300127"},{"name":"呉羽水上町","zip_code":"9300124"},{"name":"呉羽三ツ塚","zip_code":"9300136"},{"name":"黒崎","zip_code":"9398214"},{"name":"黒瀬","zip_code":"9398213"},{"name":"黒瀬北町","zip_code":"9398216"},{"name":"桑原","zip_code":"9301336"},{"name":"下伏","zip_code":"9392235"},{"name":"小泉町","zip_code":"9398082"},{"name":"小糸","zip_code":"9392174"},{"name":"興人町","zip_code":"9300809"},{"name":"合田","zip_code":"9392201"},{"name":"高来","zip_code":"9318411"},{"name":"小坂","zip_code":"9301273"},{"name":"古志町","zip_code":"9318417"},{"name":"小島町","zip_code":"9300022"},{"name":"小杉","zip_code":"9398063"},{"name":"五艘","zip_code":"9300882"},{"name":"小中","zip_code":"9398183"},{"name":"小西","zip_code":"9318435"},{"name":"小羽","zip_code":"9392232"},{"name":"駒見","zip_code":"9300895"},{"name":"五番町","zip_code":"9300052"},{"name":"五福","zip_code":"9300887"},{"name":"五福新町","zip_code":"9300883"},{"name":"五福末広町","zip_code":"9300884"},{"name":"五本榎","zip_code":"9300905"},{"name":"才覚寺","zip_code":"9398263"},{"name":"才覚地","zip_code":"9301464"},{"name":"境野新","zip_code":"9300153"},{"name":"栄新町","zip_code":"9300925"},{"name":"栄町","zip_code":"9300032"},{"name":"坂下新","zip_code":"9300156"},{"name":"坂本","zip_code":"9392206"},{"name":"桜木町","zip_code":"9300082"},{"name":"桜谷みどり町","zip_code":"9300898"},{"name":"桜橋通り","zip_code":"9300004"},{"name":"桜町","zip_code":"9300003"},{"name":"笹津","zip_code":"9392223"},{"name":"三郷","zip_code":"9393548"},{"name":"山王町","zip_code":"9300064"},{"name":"三熊","zip_code":"9300155"},{"name":"三番町","zip_code":"9300059"},{"name":"塩","zip_code":"9392242"},{"name":"寺家","zip_code":"9392214"},{"name":"下タ林","zip_code":"9392226"},{"name":"七軒町","zip_code":"9300089"},{"name":"芝園町","zip_code":"9300097"},{"name":"島田","zip_code":"9398223"},{"name":"清水中町","zip_code":"9300035"},{"name":"清水町","zip_code":"9300036"},{"name":"清水元町","zip_code":"9300034"},{"name":"下赤江","zip_code":"9300838"},{"name":"下赤江町","zip_code":"9300813"},{"name":"下飯野","zip_code":"9318443"},{"name":"下大浦","zip_code":"9301335"},{"name":"下大久保","zip_code":"9392251"},{"name":"下大久保新町","zip_code":"9392251"},{"name":"下大久保東ケ丘","zip_code":"9392251"},{"name":"下大久保緑町","zip_code":"9392251"},{"name":"下奥井","zip_code":"9300817"},{"name":"下熊野","zip_code":"9398231"},{"name":"下栗山","zip_code":"9398174"},{"name":"下新西町","zip_code":"9300807"},{"name":"下新北町","zip_code":"9300802"},{"name":"下新日曹町","zip_code":"9300808"},{"name":"下新本町","zip_code":"9300803"},{"name":"下新町","zip_code":"9300804"},{"name":"下双嶺","zip_code":"9301272"},{"name":"下野","zip_code":"9300871"},{"name":"下野新","zip_code":"9300872"},{"name":"下番","zip_code":"9301305"},{"name":"下冨居","zip_code":"9300814"},{"name":"下堀","zip_code":"9398055"},{"name":"城ケ丘","zip_code":"9398112"},{"name":"城川原","zip_code":"9318325"},{"name":"城新町","zip_code":"9398111"},{"name":"庄高田","zip_code":"9300867"},{"name":"城北町","zip_code":"9300854"},{"name":"城村","zip_code":"9398114"},{"name":"城村新町","zip_code":"9398115"},{"name":"城若町","zip_code":"9398113"},{"name":"昭和新町","zip_code":"9398102"},{"name":"白銀町","zip_code":"9300048"},{"name":"新金代","zip_code":"9300924"},{"name":"新川原町","zip_code":"9300024"},{"name":"新桜町","zip_code":"9300005"},{"name":"新庄北町","zip_code":"9300997"},{"name":"新庄銀座","zip_code":"9300991"},{"name":"新庄新町","zip_code":"9300994"},{"name":"新庄中央町","zip_code":"9300995"},{"name":"新庄本町","zip_code":"9300996"},{"name":"新庄町","zip_code":"9300992"},{"name":"新総曲輪","zip_code":"9300006"},{"name":"新園町","zip_code":"9300993"},{"name":"新千原崎","zip_code":"9302203"},{"name":"神通","zip_code":"9392241"},{"name":"神通本町","zip_code":"9300008"},{"name":"神通町","zip_code":"9300009"},{"name":"新富町","zip_code":"9300002"},{"name":"新根塚町","zip_code":"9398205"},{"name":"新冨居","zip_code":"9300839"},{"name":"新保","zip_code":"9398253"},{"name":"新堀町","zip_code":"9398054"},{"name":"新名","zip_code":"9398122"},{"name":"新村","zip_code":"9392201"},{"name":"新横内町","zip_code":"9398034"},{"name":"杉瀬","zip_code":"9398165"},{"name":"杉谷","zip_code":"9300152"},{"name":"直坂","zip_code":"9392215"},{"name":"砂町","zip_code":"9300045"},{"name":"砂見","zip_code":"9301266"},{"name":"住友町","zip_code":"9318454"},{"name":"住吉","zip_code":"9300144"},{"name":"住吉町","zip_code":"9300031"},{"name":"諏訪川原","zip_code":"9300088"},{"name":"須原","zip_code":"9392234"},{"name":"清風町","zip_code":"9318409"},{"name":"関","zip_code":"9398123"},{"name":"瀬戸","zip_code":"9301285"},{"name":"千石町","zip_code":"9300066"},{"name":"善名","zip_code":"9301303"},{"name":"千成町","zip_code":"9300815"},{"name":"千俵町","zip_code":"9398135"},{"name":"総曲輪","zip_code":"9300083"},{"name":"惣在寺","zip_code":"9398241"},{"name":"双代町","zip_code":"9300971"},{"name":"高内","zip_code":"9392254"},{"name":"高木","zip_code":"9300106"},{"name":"高木東","zip_code":"9300106"},{"name":"高木西","zip_code":"9300106"},{"name":"高木南","zip_code":"9300106"},{"name":"高島","zip_code":"9318441"},{"name":"高園町","zip_code":"9318315"},{"name":"高田","zip_code":"9300866"},{"name":"高畠町","zip_code":"9318336"},{"name":"高原本町","zip_code":"9398012"},{"name":"高原町","zip_code":"9398013"},{"name":"高屋敷","zip_code":"9398036"},{"name":"宝町","zip_code":"9300007"},{"name":"田刈屋","zip_code":"9300897"},{"name":"田刈屋新町","zip_code":"9300894"},{"name":"館出町","zip_code":"9300014"},{"name":"辰尾","zip_code":"9398172"},{"name":"辰尾新町","zip_code":"9398173"},{"name":"辰巳町","zip_code":"9300053"},{"name":"田中町","zip_code":"9300985"},{"name":"田尻","zip_code":"9302224"},{"name":"田尻東","zip_code":"9302224"},{"name":"田尻西","zip_code":"9302224"},{"name":"田尻南","zip_code":"9302224"},{"name":"田畑","zip_code":"9318403"},{"name":"田畠","zip_code":"9301331"},{"name":"田畑新町","zip_code":"9318401"},{"name":"田畑北部","zip_code":"9318402"},{"name":"珠泉西町","zip_code":"9398157"},{"name":"珠泉東町","zip_code":"9398156"},{"name":"手屋","zip_code":"9300901"},{"name":"太郎丸","zip_code":"9398076"},{"name":"太郎丸西町","zip_code":"9398271"},{"name":"太郎丸本町","zip_code":"9398272"},{"name":"千歳町","zip_code":"9300018"},{"name":"千原崎","zip_code":"9318334"},{"name":"茶屋新町","zip_code":"9300114"},{"name":"茶屋町","zip_code":"9300115"},{"name":"中央通り","zip_code":"9300044"},{"name":"中間島","zip_code":"9300921"},{"name":"千代田町","zip_code":"9300811"},{"name":"塚原","zip_code":"9398262"},{"name":"月岡新","zip_code":"9398139"},{"name":"月岡東緑町","zip_code":"9398141"},{"name":"月岡西緑町","zip_code":"9398142"},{"name":"月岡町","zip_code":"9398132"},{"name":"月見が丘","zip_code":"9398133"},{"name":"月見町","zip_code":"9398136"},{"name":"葛原","zip_code":"9392238"},{"name":"堤町通り","zip_code":"9300046"},{"name":"つばめ野","zip_code":"9302239"},{"name":"鶴ケ丘町","zip_code":"9300824"},{"name":"津羽見","zip_code":"9301332"},{"name":"寺島","zip_code":"9302225"},{"name":"寺津","zip_code":"9392165"},{"name":"寺町","zip_code":"9300874"},{"name":"寺町けや木台","zip_code":"9300875"},{"name":"天正寺","zip_code":"9300955"},{"name":"土","zip_code":"9392236"},{"name":"土居原町","zip_code":"9300078"},{"name":"問屋町","zip_code":"9300834"},{"name":"道正","zip_code":"9318445"},{"name":"任海","zip_code":"9398233"},{"name":"常盤台","zip_code":"9300983"},{"name":"常盤町","zip_code":"9300047"},{"name":"栃谷","zip_code":"9300163"},{"name":"利波","zip_code":"9302227"},{"name":"富浦町","zip_code":"9302202"},{"name":"富岡町","zip_code":"9300928"},{"name":"友杉","zip_code":"9398224"},{"name":"豊丘町","zip_code":"9318316"},{"name":"豊川町","zip_code":"9300049"},{"name":"豊島町","zip_code":"9318322"},{"name":"豊城新町","zip_code":"9318323"},{"name":"豊城町","zip_code":"9318324"},{"name":"豊田","zip_code":"9318311"},{"name":"豊田本町","zip_code":"9318312"},{"name":"豊田町","zip_code":"9318313"},{"name":"豊若町","zip_code":"9318305"},{"name":"永久町","zip_code":"9318456"},{"name":"中市","zip_code":"9398005"},{"name":"長江","zip_code":"9300974"},{"name":"長江新町","zip_code":"9300972"},{"name":"長江東町","zip_code":"9300973"},{"name":"長江本町","zip_code":"9300962"},{"name":"長柄町","zip_code":"9300076"},{"name":"中老田","zip_code":"9300166"},{"name":"中大浦","zip_code":"9301334"},{"name":"中大久保","zip_code":"9392243"},{"name":"長岡","zip_code":"9300111"},{"name":"長岡新","zip_code":"9300113"},{"name":"中沖","zip_code":"9300101"},{"name":"中川原","zip_code":"9398015"},{"name":"中川原新町","zip_code":"9398014"},{"name":"中川原台","zip_code":"9398016"},{"name":"中島","zip_code":"9300801"},{"name":"長走","zip_code":"9392225"},{"name":"中田","zip_code":"9318453"},{"name":"中滝","zip_code":"9301313"},{"name":"中地山","zip_code":"9301462"},{"name":"長附","zip_code":"9392255"},{"name":"中布目","zip_code":"9398146"},{"name":"中野新","zip_code":"9300903"},{"name":"中野新町","zip_code":"9398085"},{"name":"中番","zip_code":"9301315"},{"name":"中冨居","zip_code":"9300832"},{"name":"中冨居新町","zip_code":"9300830"},{"name":"中屋","zip_code":"9398131"},{"name":"流杉","zip_code":"9398032"},{"name":"那智町","zip_code":"9318408"},{"name":"鍋田","zip_code":"9300831"},{"name":"南央町","zip_code":"9398232"},{"name":"長川原","zip_code":"9392233"},{"name":"西四十物町","zip_code":"9300068"},{"name":"西荒屋","zip_code":"9398251"},{"name":"西大泉","zip_code":"9398096"},{"name":"西大沢","zip_code":"9392221"},{"name":"西押川","zip_code":"9300165"},{"name":"西小俣","zip_code":"9301324"},{"name":"西金屋","zip_code":"9300143"},{"name":"西公文名","zip_code":"9398004"},{"name":"西公文名町","zip_code":"9398003"},{"name":"西笹津","zip_code":"9392181"},{"name":"西山王町","zip_code":"9300073"},{"name":"西塩野","zip_code":"9392244"},{"name":"西新庄","zip_code":"9300981"},{"name":"西町","zip_code":"9300062"},{"name":"西田地方","zip_code":"9398203"},{"name":"西田地方町","zip_code":"9398202"},{"name":"西長江","zip_code":"9300975"},{"name":"西長江本町","zip_code":"9300961"},{"name":"西中野本町","zip_code":"9398083"},{"name":"西中野町","zip_code":"9398084"},{"name":"西野新","zip_code":"9398101"},{"name":"西番","zip_code":"9398104"},{"name":"西宮町","zip_code":"9318335"},{"name":"西二俣","zip_code":"9300177"},{"name":"西宮","zip_code":"9318345"},{"name":"蜷川","zip_code":"9398222"},{"name":"楡原","zip_code":"9392184"},{"name":"布市","zip_code":"9398191"},{"name":"布市新町","zip_code":"9398192"},{"name":"布尻","zip_code":"9392163"},{"name":"布瀬本町","zip_code":"9398207"},{"name":"布瀬町","zip_code":"9398206"},{"name":"布瀬町南","zip_code":"9398208"},{"name":"布目","zip_code":"9302233"},{"name":"布目旭","zip_code":"9302236"},{"name":"布目新町","zip_code":"9302235"},{"name":"布目西","zip_code":"9302233"},{"name":"布目北","zip_code":"9302233"},{"name":"布目東町","zip_code":"9302231"},{"name":"布目緑町","zip_code":"9302234"},{"name":"布目南町","zip_code":"9302232"},{"name":"根塚町","zip_code":"9398204"},{"name":"根上","zip_code":"9392237"},{"name":"野口","zip_code":"9300173"},{"name":"野口南部","zip_code":"9300173"},{"name":"野口北部","zip_code":"9300173"},{"name":"野田","zip_code":"9318413"},{"name":"野中","zip_code":"9318422"},{"name":"野中新","zip_code":"9318428"},{"name":"野々上","zip_code":"9300171"},{"name":"野町","zip_code":"9300174"},{"name":"萩原","zip_code":"9398261"},{"name":"蓮町","zip_code":"9318333"},{"name":"旅籠町","zip_code":"9300069"},{"name":"畑中","zip_code":"9300896"},{"name":"八川","zip_code":"9398124"},{"name":"八人町","zip_code":"9300026"},{"name":"八ケ山","zip_code":"9300112"},{"name":"八町","zip_code":"9302226"},{"name":"八町中","zip_code":"9302226"},{"name":"八町東","zip_code":"9302226"},{"name":"八町西","zip_code":"9302226"},{"name":"八町南","zip_code":"9302226"},{"name":"花崎","zip_code":"9301326"},{"name":"八町北","zip_code":"9302226"},{"name":"花園町","zip_code":"9398201"},{"name":"花木","zip_code":"9300162"},{"name":"羽根","zip_code":"9300864"},{"name":"浜黒崎","zip_code":"9318414"},{"name":"林崎","zip_code":"9398164"},{"name":"原","zip_code":"9301454"},{"name":"針原新町","zip_code":"9318433"},{"name":"針原中","zip_code":"9318432"},{"name":"針日","zip_code":"9318415"},{"name":"針原中町","zip_code":"9318431"},{"name":"晴海台","zip_code":"9318455"},{"name":"日尾","zip_code":"9301283"},{"name":"東石金町","zip_code":"9300964"},{"name":"東猪谷","zip_code":"9392175"},{"name":"東岩瀬町","zip_code":"9318358"},{"name":"東岩瀬村","zip_code":"9318359"},{"name":"東老田","zip_code":"9300161"},{"name":"東大久保","zip_code":"9392209"},{"name":"東小俣","zip_code":"9301323"},{"name":"東ケ丘","zip_code":"9318444"},{"name":"東黒牧","zip_code":"9301262"},{"name":"東田地方町","zip_code":"9300017"},{"name":"東富山寿町","zip_code":"9318452"},{"name":"東中野町","zip_code":"9398086"},{"name":"東流杉","zip_code":"9398031"},{"name":"東福沢","zip_code":"9301281"},{"name":"東町","zip_code":"9300039"},{"name":"日方江","zip_code":"9318416"},{"name":"久方町","zip_code":"9300848"},{"name":"日之出町","zip_code":"9300025"},{"name":"日俣","zip_code":"9300912"},{"name":"百塚","zip_code":"9302214"},{"name":"鵯島","zip_code":"9300885"},{"name":"ひよどり南台","zip_code":"9300886"},{"name":"平榎","zip_code":"9318421"},{"name":"平岡","zip_code":"9300154"},{"name":"開","zip_code":"9300944"},{"name":"開ケ丘","zip_code":"9300157"},{"name":"平吹町","zip_code":"9300071"},{"name":"福居","zip_code":"9398242"},{"name":"冨居栄町","zip_code":"9300833"},{"name":"伏木","zip_code":"9392173"},{"name":"不二越本町","zip_code":"9300965"},{"name":"不二越町","zip_code":"9300963"},{"name":"不二栄町","zip_code":"9398011"},{"name":"藤代町","zip_code":"9300943"},{"name":"藤木","zip_code":"9300936"},{"name":"藤木新","zip_code":"9300933"},{"name":"藤木新町","zip_code":"9300932"},{"name":"藤の木園町","zip_code":"9300942"},{"name":"藤の木台","zip_code":"9300934"},{"name":"藤木中町","zip_code":"9300941"},{"name":"藤見町","zip_code":"9300935"},{"name":"二口町","zip_code":"9398211"},{"name":"二俣","zip_code":"9398185"},{"name":"二俣新町","zip_code":"9398184"},{"name":"二松","zip_code":"9392205"},{"name":"婦中町青島","zip_code":"9392731"},{"name":"婦中町新町","zip_code":"9392607"},{"name":"婦中町新屋","zip_code":"9392734"},{"name":"婦中町板倉","zip_code":"9392721"},{"name":"婦中町板倉新","zip_code":"9392721"},{"name":"婦中町鵜坂","zip_code":"9392711"},{"name":"婦中町牛滑","zip_code":"9392634"},{"name":"婦中町上野","zip_code":"9392627"},{"name":"婦中町大瀬谷","zip_code":"9392635"},{"name":"婦中町小倉","zip_code":"9392616"},{"name":"婦中町皆杓","zip_code":"9392627"},{"name":"婦中町かたかご台","zip_code":"9392611"},{"name":"婦中町上新屋","zip_code":"9392736"},{"name":"婦中町上井沢","zip_code":"9392614"},{"name":"婦中町上轡田","zip_code":"9392713"},{"name":"婦中町上瀬","zip_code":"9392625"},{"name":"婦中町上田島","zip_code":"9392717"},{"name":"婦中町上吉川","zip_code":"9392612"},{"name":"婦中町上吉川ニュータウン","zip_code":"9392612"},{"name":"婦中町河原町","zip_code":"9392605"},{"name":"婦中町希望ケ丘","zip_code":"9392703"},{"name":"婦中町下条","zip_code":"9392758"},{"name":"婦中町小泉","zip_code":"9392752"},{"name":"婦中町小長沢","zip_code":"9392601"},{"name":"婦中町小野島","zip_code":"9392604"},{"name":"婦中町笹倉","zip_code":"9392753"},{"name":"婦中町沢田","zip_code":"9392622"},{"name":"婦中町三瀬","zip_code":"9392625"},{"name":"婦中町地角","zip_code":"9392744"},{"name":"婦中町島田","zip_code":"9392617"},{"name":"婦中町島本郷","zip_code":"9392708"},{"name":"婦中町清水島","zip_code":"9392743"},{"name":"婦中町下井沢","zip_code":"9392756"},{"name":"婦中町下轡田","zip_code":"9392716"},{"name":"婦中町下坂倉","zip_code":"9392715"},{"name":"婦中町下瀬","zip_code":"9392624"},{"name":"婦中町下邑","zip_code":"9392602"},{"name":"婦中町下吉川","zip_code":"9392611"},{"name":"婦中町十五丁","zip_code":"9392737"},{"name":"婦中町砂子田","zip_code":"9392727"},{"name":"婦中町蔵島","zip_code":"9392726"},{"name":"婦中町添島","zip_code":"9392722"},{"name":"婦中町外輪野","zip_code":"9392632"},{"name":"婦中町平等","zip_code":"9392639"},{"name":"婦中町高田","zip_code":"9392611"},{"name":"婦中町高塚","zip_code":"9392631"},{"name":"婦中町高日附","zip_code":"9392613"},{"name":"婦中町高山","zip_code":"9392625"},{"name":"婦中町田島","zip_code":"9392702"},{"name":"婦中町為成新","zip_code":"9392735"},{"name":"婦中町田屋","zip_code":"9392748"},{"name":"婦中町田屋新","zip_code":"9392748"},{"name":"婦中町千里","zip_code":"9392622"},{"name":"婦中町塚原","zip_code":"9392712"},{"name":"婦中町道喜島","zip_code":"9392738"},{"name":"婦中町道島","zip_code":"9392626"},{"name":"婦中町道場","zip_code":"9392757"},{"name":"婦中町富川","zip_code":"9392604"},{"name":"婦中町富崎","zip_code":"9392621"},{"name":"婦中町友坂","zip_code":"9392759"},{"name":"婦中町長沢","zip_code":"9392606"},{"name":"婦中町中島","zip_code":"9392747"},{"name":"婦中町中名","zip_code":"9392741"},{"name":"婦中町成子","zip_code":"9392733"},{"name":"婦中町西ヶ丘","zip_code":"9392719"},{"name":"婦中町西本郷","zip_code":"9392701"},{"name":"婦中町ねむの木","zip_code":"9392724"},{"name":"婦中町萩島","zip_code":"9392723"},{"name":"婦中町羽根","zip_code":"9392603"},{"name":"婦中町羽根新","zip_code":"9392704"},{"name":"婦中町浜子","zip_code":"9392746"},{"name":"婦中町速星","zip_code":"9392706"},{"name":"婦中町東谷","zip_code":"9392633"},{"name":"婦中町東本郷","zip_code":"9392707"},{"name":"婦中町東山","zip_code":"9392636"},{"name":"婦中町響の杜","zip_code":"9392729"},{"name":"婦中町ひまわり台","zip_code":"9392606"},{"name":"婦中町広田","zip_code":"9392745"},{"name":"婦中町袋","zip_code":"9392755"},{"name":"婦中町分田","zip_code":"9392718"},{"name":"婦中町鉾木","zip_code":"9392622"},{"name":"婦中町細谷","zip_code":"9392638"},{"name":"婦中町蛍川","zip_code":"9392728"},{"name":"婦中町堀","zip_code":"9392742"},{"name":"婦中町増田","zip_code":"9392714"},{"name":"婦中町鶚谷","zip_code":"9392637"},{"name":"婦中町宮ケ島","zip_code":"9392705"},{"name":"婦中町宮ケ谷","zip_code":"9392631"},{"name":"婦中町麦島","zip_code":"9392754"},{"name":"婦中町葎原","zip_code":"9392636"},{"name":"婦中町持田","zip_code":"9392725"},{"name":"婦中町安田","zip_code":"9392751"},{"name":"婦中町熊野道","zip_code":"9392615"},{"name":"婦中町夢ケ丘","zip_code":"9392709"},{"name":"婦中町余川","zip_code":"9392649"},{"name":"婦中町横野","zip_code":"9392732"},{"name":"婦中町吉住","zip_code":"9392632"},{"name":"婦中町吉谷","zip_code":"9392638"},{"name":"婦中町蓮花寺","zip_code":"9392623"},{"name":"舟倉","zip_code":"9392212"},{"name":"舟渡","zip_code":"9392176"},{"name":"舟橋今町","zip_code":"9300098"},{"name":"舟橋北町","zip_code":"9300096"},{"name":"舟橋南町","zip_code":"9300095"},{"name":"古鍛冶町","zip_code":"9300058"},{"name":"古川","zip_code":"9302208"},{"name":"古沢","zip_code":"9300151"},{"name":"古寺","zip_code":"9398023"},{"name":"古寺新町","zip_code":"9398024"},{"name":"文京町","zip_code":"9300876"},{"name":"別名","zip_code":"9398254"},{"name":"星井町","zip_code":"9300065"},{"name":"堀","zip_code":"9398057"},{"name":"堀川小泉町","zip_code":"9398081"},{"name":"堀川天山町","zip_code":"9398053"},{"name":"堀川本郷","zip_code":"9398049"},{"name":"堀川町","zip_code":"9398072"},{"name":"堀端町","zip_code":"9300074"},{"name":"本宮","zip_code":"9301455"},{"name":"本郷","zip_code":"9300108"},{"name":"本郷島","zip_code":"9300911"},{"name":"本郷新","zip_code":"9398046"},{"name":"本郷中部","zip_code":"9300108"},{"name":"本郷東部","zip_code":"9300108"},{"name":"本郷西部","zip_code":"9300108"},{"name":"本郷北部","zip_code":"9300108"},{"name":"本郷町","zip_code":"9398045"},{"name":"本町","zip_code":"9300029"},{"name":"本丸","zip_code":"9300081"},{"name":"牧","zip_code":"9301465"},{"name":"牧田","zip_code":"9398161"},{"name":"牧野","zip_code":"9301282"},{"name":"馬瀬口","zip_code":"9301301"},{"name":"町新","zip_code":"9300923"},{"name":"町長","zip_code":"9392164"},{"name":"町袋","zip_code":"9318423"},{"name":"町村","zip_code":"9300952"},{"name":"松浦町","zip_code":"9318406"},{"name":"松ケ丘","zip_code":"9398017"},{"name":"松野","zip_code":"9392203"},{"name":"松木","zip_code":"9302213"},{"name":"松木新","zip_code":"9302212"},{"name":"松若町","zip_code":"9300812"},{"name":"丸の内","zip_code":"9300085"},{"name":"万願寺","zip_code":"9392204"},{"name":"三上","zip_code":"9318434"},{"name":"水落","zip_code":"9318301"},{"name":"水橋朝日町","zip_code":"9390511"},{"name":"水須","zip_code":"9301463"},{"name":"水橋荒町","zip_code":"9393516"},{"name":"水橋池田舘","zip_code":"9393523"},{"name":"水橋池田町","zip_code":"9393531"},{"name":"水橋石政","zip_code":"9390551"},{"name":"水橋石割","zip_code":"9390561"},{"name":"水橋伊勢屋","zip_code":"9393524"},{"name":"水橋伊勢領","zip_code":"9390545"},{"name":"水橋市江","zip_code":"9390531"},{"name":"水橋市江新町","zip_code":"9390532"},{"name":"水橋市田袋","zip_code":"9393555"},{"name":"水橋稲荷町","zip_code":"9390514"},{"name":"水橋今町","zip_code":"9393504"},{"name":"水橋入江","zip_code":"9393544"},{"name":"水橋印田町","zip_code":"9393501"},{"name":"水橋魚躬","zip_code":"9390511"},{"name":"水橋駅前","zip_code":"9393525"},{"name":"水橋大町","zip_code":"9390506"},{"name":"水橋沖","zip_code":"9393541"},{"name":"水橋肘崎","zip_code":"9393552"},{"name":"水橋開発","zip_code":"9393542"},{"name":"水橋開発町","zip_code":"9390535"},{"name":"水橋鏡田","zip_code":"9390541"},{"name":"水橋堅田","zip_code":"9390542"},{"name":"水橋金尾","zip_code":"9393534"},{"name":"水橋金尾新","zip_code":"9393536"},{"name":"水橋金広","zip_code":"9390565"},{"name":"水橋上桜木","zip_code":"9390546"},{"name":"水橋上砂子坂","zip_code":"9390544"},{"name":"水橋上的場","zip_code":"9393553"},{"name":"水橋川原町","zip_code":"9393502"},{"name":"水橋北馬場","zip_code":"9390567"},{"name":"水橋狐塚","zip_code":"9390534"},{"name":"水橋小池","zip_code":"9390547"},{"name":"水橋恋塚","zip_code":"9390552"},{"name":"水橋小出","zip_code":"9390553"},{"name":"水橋高志園町","zip_code":"9390533"},{"name":"水橋五郎丸","zip_code":"9390543"},{"name":"水橋桜木","zip_code":"9390546"},{"name":"水橋佐野竹","zip_code":"9390563"},{"name":"水橋山王町","zip_code":"9393506"},{"name":"水橋下段","zip_code":"9390521"},{"name":"水橋柴草","zip_code":"9393547"},{"name":"水橋清水堂","zip_code":"9390564"},{"name":"水橋下砂子坂","zip_code":"9390544"},{"name":"水橋下砂子坂新","zip_code":"9390544"},{"name":"水橋常願寺","zip_code":"9393543"},{"name":"水橋小路","zip_code":"9393554"},{"name":"水橋上条新町","zip_code":"9390558"},{"name":"水橋昭和町","zip_code":"9393526"},{"name":"水橋新大町","zip_code":"9390527"},{"name":"水橋新舘町","zip_code":"9390525"},{"name":"水橋新堂町","zip_code":"9393514"},{"name":"水橋新保","zip_code":"9393557"},{"name":"水橋新保新町","zip_code":"9393557"},{"name":"水橋新堀","zip_code":"9393535"},{"name":"水橋新町","zip_code":"9390515"},{"name":"水橋専光寺","zip_code":"9390554"},{"name":"水橋大正","zip_code":"9390557"},{"name":"水橋大正南部","zip_code":"9390557"},{"name":"水橋大正北部","zip_code":"9390557"},{"name":"水橋大正町","zip_code":"9393513"},{"name":"水橋高月","zip_code":"9390511"},{"name":"水橋高寺","zip_code":"9390555"},{"name":"水橋高堂","zip_code":"9393533"},{"name":"水橋舘町","zip_code":"9390526"},{"name":"水橋立山町","zip_code":"9393503"},{"name":"水橋田伏","zip_code":"9390562"},{"name":"水橋田町","zip_code":"9390504"},{"name":"水橋地蔵町","zip_code":"9390502"},{"name":"水橋辻ケ堂","zip_code":"9393515"},{"name":"水橋中大町","zip_code":"9390506"},{"name":"水橋中新町","zip_code":"9393556"},{"name":"水橋中出町","zip_code":"9390513"},{"name":"水橋中馬場","zip_code":"9390566"},{"name":"水橋中町","zip_code":"9393511"},{"name":"水橋中村","zip_code":"9393551"},{"name":"水橋中村栄町","zip_code":"9390522"},{"name":"水橋中村新町","zip_code":"9390523"},{"name":"水橋中村町","zip_code":"9390521"},{"name":"水橋西大町","zip_code":"9393512"},{"name":"水橋西出町","zip_code":"9390503"},{"name":"水橋西天神町","zip_code":"9390507"},{"name":"水橋西浜町","zip_code":"9390508"},{"name":"水橋入部町","zip_code":"9393545"},{"name":"水橋畠等","zip_code":"9393521"},{"name":"水橋花の井町","zip_code":"9393522"},{"name":"水橋浜町","zip_code":"9393505"},{"name":"水橋番頭名","zip_code":"9393534"},{"name":"水橋東舘町","zip_code":"9390524"},{"name":"水橋東出町","zip_code":"9390512"},{"name":"水橋東天神町","zip_code":"9390505"},{"name":"水橋東浜町","zip_code":"9390501"},{"name":"水橋平榎","zip_code":"9393557"},{"name":"水橋平塚","zip_code":"9390568"},{"name":"水橋二杉","zip_code":"9393546"},{"name":"水橋二ツ屋","zip_code":"9393532"},{"name":"水橋曲淵","zip_code":"9390556"},{"name":"水橋町","zip_code":"9390509"},{"name":"水橋町袋","zip_code":"9393557"},{"name":"水橋的場","zip_code":"9393553"},{"name":"水橋明治町","zip_code":"9390528"},{"name":"水橋柳寺","zip_code":"9390536"},{"name":"緑町","zip_code":"9300038"},{"name":"湊入船町","zip_code":"9300805"},{"name":"南大場","zip_code":"9301304"},{"name":"南金屋","zip_code":"9398194"},{"name":"南栗山","zip_code":"9398176"},{"name":"南新町","zip_code":"9300054"},{"name":"南田町","zip_code":"9300056"},{"name":"南中田","zip_code":"9398234"},{"name":"南野田","zip_code":"9392208"},{"name":"南花園町","zip_code":"9392257"},{"name":"三室荒屋","zip_code":"9301314"},{"name":"宮尾","zip_code":"9302211"},{"name":"宮条","zip_code":"9318427"},{"name":"宮園町","zip_code":"9318436"},{"name":"宮成","zip_code":"9318425"},{"name":"宮成新","zip_code":"9300902"},{"name":"宮成中部","zip_code":"9318426"},{"name":"宮保","zip_code":"9398171"},{"name":"宮町","zip_code":"9318437"},{"name":"向新庄","zip_code":"9300916"},{"name":"向新庄町","zip_code":"9300916"},{"name":"向川原町","zip_code":"9300041"},{"name":"室町通り","zip_code":"9300051"},{"name":"明輪町","zip_code":"9300001"},{"name":"元町","zip_code":"9300033"},{"name":"桃井町","zip_code":"9300072"},{"name":"森","zip_code":"9318332"},{"name":"森住町","zip_code":"9318331"},{"name":"森田","zip_code":"9398154"},{"name":"森若町","zip_code":"9318337"},{"name":"文珠寺","zip_code":"9301325"},{"name":"八木山","zip_code":"9392253"},{"name":"安田町","zip_code":"9300092"},{"name":"安野屋町","zip_code":"9300087"},{"name":"八尾町青根","zip_code":"9392405"},{"name":"八尾町赤石","zip_code":"9392413"},{"name":"八尾町足谷","zip_code":"9392475"},{"name":"八尾町油","zip_code":"9392401"},{"name":"八尾町天池","zip_code":"9392466"},{"name":"八尾町新屋","zip_code":"9392423"},{"name":"八尾町庵谷","zip_code":"9392425"},{"name":"八尾町井栗谷","zip_code":"9392315"},{"name":"八尾町井田","zip_code":"9392306"},{"name":"八尾町井田新","zip_code":"9392305"},{"name":"八尾町今町","zip_code":"9392353"},{"name":"八尾町入谷","zip_code":"9392445"},{"name":"八尾町岩島","zip_code":"9392405"},{"name":"八尾町岩屋","zip_code":"9392326"},{"name":"八尾町上ケ島","zip_code":"9392404"},{"name":"八尾町上ノ名","zip_code":"9392473"},{"name":"八尾町薄島","zip_code":"9392312"},{"name":"八尾町内名","zip_code":"9392436"},{"name":"八尾町梅苑町","zip_code":"9392337"},{"name":"八尾町上野","zip_code":"9392477"},{"name":"八尾町追分","zip_code":"9392467"},{"name":"八尾町大下","zip_code":"9392441"},{"name":"八尾町大杉","zip_code":"9392303"},{"name":"八尾町大玉生","zip_code":"9392455"},{"name":"八尾町尾久","zip_code":"9392465"},{"name":"八尾町奥田","zip_code":"9392362"},{"name":"八尾町尾畑","zip_code":"9392454"},{"name":"八尾町鏡町","zip_code":"9392341"},{"name":"八尾町角間","zip_code":"9392336"},{"name":"八尾町掛畑","zip_code":"9392332"},{"name":"八尾町樫尾","zip_code":"9392327"},{"name":"八尾町桂原","zip_code":"9392415"},{"name":"八尾町上黒瀬","zip_code":"9392332"},{"name":"八尾町上高善寺","zip_code":"9392374"},{"name":"八尾町上笹原","zip_code":"9392334"},{"name":"八尾町上新町","zip_code":"9392342"},{"name":"八尾町上田池","zip_code":"9392402"},{"name":"八尾町上仁歩","zip_code":"9392444"},{"name":"八尾町上牧","zip_code":"9392435"},{"name":"八尾町川住","zip_code":"9392417"},{"name":"八尾町北谷","zip_code":"9392324"},{"name":"八尾町桐谷","zip_code":"9392333"},{"name":"八尾町切詰","zip_code":"9392426"},{"name":"八尾町窪","zip_code":"9392465"},{"name":"八尾町倉ケ谷","zip_code":"9392453"},{"name":"八尾町栗須","zip_code":"9392431"},{"name":"八尾町黒田","zip_code":"9392304"},{"name":"八尾町小井波","zip_code":"9392333"},{"name":"八尾町高善寺","zip_code":"9392373"},{"name":"八尾町小長谷","zip_code":"9392321"},{"name":"八尾町小長谷新","zip_code":"9392322"},{"name":"八尾町坂ノ下","zip_code":"9392471"},{"name":"八尾町東坂下","zip_code":"9392324"},{"name":"八尾町寺家","zip_code":"9392301"},{"name":"八尾町下新町","zip_code":"9392352"},{"name":"八尾町下ノ名","zip_code":"9392474"},{"name":"八尾町柴橋","zip_code":"9392462"},{"name":"八尾町島地","zip_code":"9392434"},{"name":"八尾町下笹原","zip_code":"9392331"},{"name":"八尾町下島","zip_code":"9392435"},{"name":"八尾町下田池","zip_code":"9392402"},{"name":"八尾町下仁歩","zip_code":"9392442"},{"name":"八尾町下乗嶺","zip_code":"9392407"},{"name":"八尾町下牧","zip_code":"9392417"},{"name":"八尾町清水","zip_code":"9392433"},{"name":"八尾町城生","zip_code":"9392314"},{"name":"八尾町新田","zip_code":"9392363"},{"name":"八尾町新名","zip_code":"9392407"},{"name":"八尾町杉田","zip_code":"9392302"},{"name":"八尾町須郷","zip_code":"9392474"},{"name":"八尾町薄尾","zip_code":"9392432"},{"name":"八尾町諏訪町","zip_code":"9392343"},{"name":"八尾町石戸","zip_code":"9392375"},{"name":"八尾町草連坂","zip_code":"9392446"},{"name":"八尾町外堀","zip_code":"9392325"},{"name":"八尾町高尾","zip_code":"9392471"},{"name":"八尾町高熊","zip_code":"9392461"},{"name":"八尾町高瀬","zip_code":"9392467"},{"name":"八尾町高野","zip_code":"9392437"},{"name":"八尾町高橋","zip_code":"9392462"},{"name":"八尾町高峯","zip_code":"9392406"},{"name":"八尾町滝脇","zip_code":"9392333"},{"name":"八尾町竹ノ内","zip_code":"9392464"},{"name":"八尾町舘本郷","zip_code":"9392372"},{"name":"八尾町田中","zip_code":"9392371"},{"name":"八尾町谷折","zip_code":"9392416"},{"name":"八尾町田頭","zip_code":"9392421"},{"name":"八尾町天満町","zip_code":"9392351"},{"name":"八尾町栃折","zip_code":"9392431"},{"name":"八尾町道畑下中山","zip_code":"9392403"},{"name":"八尾町中","zip_code":"9392463"},{"name":"八尾町中島","zip_code":"9392436"},{"name":"八尾町中神通","zip_code":"9392311"},{"name":"八尾町中仁歩","zip_code":"9392443"},{"name":"八尾町中山","zip_code":"9392432"},{"name":"八尾町西原","zip_code":"9392422"},{"name":"八尾町西川倉","zip_code":"9392417"},{"name":"八尾町西葛坂","zip_code":"9392401"},{"name":"八尾町西神通","zip_code":"9392311"},{"name":"八尾町西新町","zip_code":"9392345"},{"name":"八尾町西町","zip_code":"9392355"},{"name":"八尾町西松瀬","zip_code":"9392415"},{"name":"八尾町布谷","zip_code":"9392416"},{"name":"八尾町野飼","zip_code":"9392314"},{"name":"八尾町野須郷","zip_code":"9392472"},{"name":"八尾町乗嶺","zip_code":"9392406"},{"name":"八尾町花房","zip_code":"9392433"},{"name":"八尾町東川倉","zip_code":"9392411"},{"name":"八尾町東葛坂","zip_code":"9392401"},{"name":"八尾町東新町","zip_code":"9392344"},{"name":"八尾町東布谷","zip_code":"9392412"},{"name":"八尾町東原","zip_code":"9392424"},{"name":"八尾町東町","zip_code":"9392354"},{"name":"八尾町東松瀬","zip_code":"9392414"},{"name":"八尾町平沢","zip_code":"9392451"},{"name":"八尾町平林","zip_code":"9392367"},{"name":"八尾町深谷","zip_code":"9392316"},{"name":"八尾町福島","zip_code":"9392376"},{"name":"八尾町武道原","zip_code":"9392454"},{"name":"八尾町細滝","zip_code":"9392476"},{"name":"八尾町正間","zip_code":"9392456"},{"name":"八尾町松原","zip_code":"9392367"},{"name":"八尾町丸山","zip_code":"9392317"},{"name":"八尾町翠尾","zip_code":"9392371"},{"name":"八尾町水谷","zip_code":"9392364"},{"name":"八尾町水無","zip_code":"9392437"},{"name":"八尾町三田","zip_code":"9392361"},{"name":"八尾町三ツ松","zip_code":"9392452"},{"name":"八尾町水口","zip_code":"9392404"},{"name":"八尾町峯","zip_code":"9392473"},{"name":"八尾町宮ケ島","zip_code":"9392464"},{"name":"八尾町宮腰","zip_code":"9392325"},{"name":"八尾町宮ノ下","zip_code":"9392403"},{"name":"八尾町茗ケ島","zip_code":"9392456"},{"name":"八尾町茗ケ原","zip_code":"9392335"},{"name":"八尾町妙川寺","zip_code":"9392365"},{"name":"八尾町村杉","zip_code":"9392323"},{"name":"八尾町滅鬼","zip_code":"9392313"},{"name":"八尾町保内","zip_code":"9392366"},{"name":"八尾町谷内","zip_code":"9392463"},{"name":"八尾町八十島","zip_code":"9392402"},{"name":"八尾町柚木","zip_code":"9392475"},{"name":"八尾町鼠谷","zip_code":"9392447"},{"name":"八尾町猟師ケ原","zip_code":"9392414"},{"name":"八尾町和山","zip_code":"9392472"},{"name":"柳町","zip_code":"9300016"},{"name":"八幡","zip_code":"9302222"},{"name":"八幡新町","zip_code":"9302223"},{"name":"山岸","zip_code":"9302215"},{"name":"山田赤目谷","zip_code":"9302117"},{"name":"山田居舟","zip_code":"9302114"},{"name":"山田今山田","zip_code":"9302125"},{"name":"山田鎌倉","zip_code":"9302111"},{"name":"山田北山","zip_code":"9302106"},{"name":"山田小島","zip_code":"9302123"},{"name":"山田小谷","zip_code":"9302115"},{"name":"山田清水","zip_code":"9302126"},{"name":"山田白井谷","zip_code":"9302121"},{"name":"山田宿坊","zip_code":"9302102"},{"name":"山田谷","zip_code":"9302113"},{"name":"山田中瀬","zip_code":"9302101"},{"name":"山田中村","zip_code":"9302124"},{"name":"山田鍋谷","zip_code":"9302114"},{"name":"山田沼又","zip_code":"9302128"},{"name":"山田牧","zip_code":"9302127"},{"name":"山田湯","zip_code":"9302105"},{"name":"山田若土","zip_code":"9302112"},{"name":"山室","zip_code":"9398006"},{"name":"山室荒屋","zip_code":"9398022"},{"name":"山室荒屋新町","zip_code":"9398026"},{"name":"山室向陽台","zip_code":"9398007"},{"name":"山室新町","zip_code":"9398008"},{"name":"山本","zip_code":"9300156"},{"name":"弥生町","zip_code":"9300019"},{"name":"八日町","zip_code":"9398221"},{"name":"四方","zip_code":"9302243"},{"name":"四方荒屋","zip_code":"9302243"},{"name":"四方一番町","zip_code":"9302255"},{"name":"四方江代町","zip_code":"9302245"},{"name":"四方恵比須町","zip_code":"9302258"},{"name":"四方北窪","zip_code":"9302242"},{"name":"四方新","zip_code":"9302246"},{"name":"四方新出町","zip_code":"9302247"},{"name":"四方神明町","zip_code":"9302254"},{"name":"四方田町","zip_code":"9302253"},{"name":"四方茶園町","zip_code":"9302244"},{"name":"四方西岩瀬","zip_code":"9302241"},{"name":"四方西野割町","zip_code":"9302252"},{"name":"四方二番町","zip_code":"9302257"},{"name":"四方野割町","zip_code":"9302252"},{"name":"四方東野割町","zip_code":"9302251"},{"name":"四方港町","zip_code":"9302256"},{"name":"四方南町","zip_code":"9302248"},{"name":"横内","zip_code":"9398033"},{"name":"横越","zip_code":"9318412"},{"name":"横樋","zip_code":"9392216"},{"name":"吉岡","zip_code":"9398153"},{"name":"吉倉","zip_code":"9398244"},{"name":"吉作","zip_code":"9300142"},{"name":"吉作新町","zip_code":"9300141"},{"name":"吉野","zip_code":"9392172"},{"name":"四ツ葉町","zip_code":"9300841"},{"name":"米田","zip_code":"9318303"},{"name":"米田すずかけ台","zip_code":"9318306"},{"name":"米田町","zip_code":"9318304"},{"name":"緑陽町","zip_code":"9318302"},{"name":"若竹町","zip_code":"9398181"},{"name":"若葉台","zip_code":"9398021"},{"name":"和田","zip_code":"9301461"},{"name":"割山","zip_code":"9392183"}]},{"name":"高岡市","divisions":[{"name":"青葉町","zip_code":"9330061"},{"name":"赤江町","zip_code":"9330805"},{"name":"赤祖父","zip_code":"9330806"},{"name":"明園町","zip_code":"9330015"},{"name":"明野町","zip_code":"9330905"},{"name":"旭ケ丘","zip_code":"9330072"},{"name":"葦附","zip_code":"9391273"},{"name":"麻生谷","zip_code":"9330353"},{"name":"荒川町","zip_code":"9330877"},{"name":"荒見崎","zip_code":"9330833"},{"name":"荒屋敷","zip_code":"9330319"},{"name":"あわら町","zip_code":"9330911"},{"name":"五十辺","zip_code":"9330306"},{"name":"五十里","zip_code":"9330973"},{"name":"五十里東町","zip_code":"9330972"},{"name":"五十里西町","zip_code":"9330971"},{"name":"井口本江","zip_code":"9330807"},{"name":"池田","zip_code":"9330318"},{"name":"石瀬","zip_code":"9330011"},{"name":"石塚","zip_code":"9330836"},{"name":"石堤","zip_code":"9330355"},{"name":"石丸","zip_code":"9340095"},{"name":"泉が丘","zip_code":"9330827"},{"name":"泉町","zip_code":"9330858"},{"name":"市場通り","zip_code":"9330855"},{"name":"一番町","zip_code":"9330923"},{"name":"今泉","zip_code":"9391267"},{"name":"今泉新","zip_code":"9391266"},{"name":"今市","zip_code":"9330335"},{"name":"岩坪","zip_code":"9330974"},{"name":"内島","zip_code":"9330328"},{"name":"永楽町","zip_code":"9330843"},{"name":"駅南","zip_code":"9330871"},{"name":"江尻","zip_code":"9330062"},{"name":"江尻白山町","zip_code":"9330065"},{"name":"江道","zip_code":"9330305"},{"name":"扇町","zip_code":"9330846"},{"name":"太田","zip_code":"9330133"},{"name":"太田伊勢領","zip_code":"9330131"},{"name":"太田谷内","zip_code":"9330137"},{"name":"太田山岸","zip_code":"9330138"},{"name":"大坪町","zip_code":"9330918"},{"name":"大手町","zip_code":"9330039"},{"name":"大野","zip_code":"9330016"},{"name":"大町","zip_code":"9330916"},{"name":"大鋸屋町","zip_code":"9330867"},{"name":"荻布","zip_code":"9330073"},{"name":"荻布新町","zip_code":"9330074"},{"name":"荻布四つ葉町","zip_code":"9330078"},{"name":"小竹","zip_code":"9330332"},{"name":"御旅屋町","zip_code":"9330029"},{"name":"オフィスパーク","zip_code":"9391119"},{"name":"御馬出町","zip_code":"9330926"},{"name":"開発本町","zip_code":"9330909"},{"name":"春日丘","zip_code":"9330066"},{"name":"片原中島町","zip_code":"9330027"},{"name":"片原横町","zip_code":"9330025"},{"name":"片原町","zip_code":"9330026"},{"name":"金屋","zip_code":"9340096"},{"name":"金屋本町","zip_code":"9330945"},{"name":"金屋町","zip_code":"9330841"},{"name":"鐘紡町","zip_code":"9330856"},{"name":"上麻生","zip_code":"9391274"},{"name":"上開発","zip_code":"9330336"},{"name":"上北島","zip_code":"9330837"},{"name":"上黒田","zip_code":"9330853"},{"name":"上黒田新","zip_code":"9330853"},{"name":"上関","zip_code":"9330851"},{"name":"上関町","zip_code":"9330851"},{"name":"上八ケ新","zip_code":"9330963"},{"name":"上伏間江","zip_code":"9330814"},{"name":"上牧野","zip_code":"9340098"},{"name":"上四屋","zip_code":"9330948"},{"name":"上渡","zip_code":"9330341"},{"name":"鴨島町","zip_code":"9330932"},{"name":"川原本町","zip_code":"9330943"},{"name":"川原町","zip_code":"9330942"},{"name":"神田新町","zip_code":"9330875"},{"name":"神主町","zip_code":"9330876"},{"name":"北蔵新","zip_code":"9330823"},{"name":"北島","zip_code":"9330838"},{"name":"北定塚","zip_code":"9330052"},{"name":"木津","zip_code":"9330857"},{"name":"木舟町","zip_code":"9330929"},{"name":"木町","zip_code":"9330908"},{"name":"京田","zip_code":"9330874"},{"name":"京町","zip_code":"9330917"},{"name":"桐木町","zip_code":"9330036"},{"name":"国吉","zip_code":"9330968"},{"name":"熊野町","zip_code":"9330903"},{"name":"蔵野町","zip_code":"9330834"},{"name":"グリーンパーク","zip_code":"9391120"},{"name":"黒田新町","zip_code":"9330854"},{"name":"源平町","zip_code":"9330921"},{"name":"小泉新","zip_code":"9391261"},{"name":"高伏町","zip_code":"9330067"},{"name":"高陵町","zip_code":"9330018"},{"name":"古城","zip_code":"9330044"},{"name":"五福町","zip_code":"9330906"},{"name":"御坊山","zip_code":"9391263"},{"name":"駒方","zip_code":"9330338"},{"name":"小馬出町","zip_code":"9330914"},{"name":"西田","zip_code":"9330137"},{"name":"材木町","zip_code":"9330008"},{"name":"境","zip_code":"9330304"},{"name":"坂下町","zip_code":"9330038"},{"name":"佐加野","zip_code":"9330961"},{"name":"佐加野東","zip_code":"9330962"},{"name":"笹川","zip_code":"9330344"},{"name":"笹八口","zip_code":"9330307"},{"name":"佐野","zip_code":"9330826"},{"name":"佐野緑町","zip_code":"9330825"},{"name":"山下","zip_code":"9391262"},{"name":"三ケ","zip_code":"9330334"},{"name":"三番町","zip_code":"9330922"},{"name":"三女子","zip_code":"9330013"},{"name":"地子木町","zip_code":"9330907"},{"name":"下窪","zip_code":"9330952"},{"name":"柴野","zip_code":"9330357"},{"name":"柴野内島","zip_code":"9330327"},{"name":"渋谷","zip_code":"9330136"},{"name":"島崎","zip_code":"9330976"},{"name":"島新","zip_code":"9391263"},{"name":"清水町","zip_code":"9330866"},{"name":"下麻生","zip_code":"9391272"},{"name":"下麻生伸町","zip_code":"9391271"},{"name":"下黒田","zip_code":"9330852"},{"name":"下島町","zip_code":"9330821"},{"name":"下関","zip_code":"9330860"},{"name":"下関町","zip_code":"9330021"},{"name":"下伏間江","zip_code":"9330813"},{"name":"下牧野","zip_code":"9340091"},{"name":"下山田","zip_code":"9391264"},{"name":"十二町島","zip_code":"9330822"},{"name":"守護町","zip_code":"9330983"},{"name":"守護町新","zip_code":"9330983"},{"name":"城光寺","zip_code":"9330126"},{"name":"定塚","zip_code":"9330037"},{"name":"定塚町","zip_code":"9330032"},{"name":"城東","zip_code":"9330041"},{"name":"城北町","zip_code":"9330053"},{"name":"昭和町","zip_code":"9330946"},{"name":"白銀町","zip_code":"9330925"},{"name":"白金町","zip_code":"9330022"},{"name":"新栄町","zip_code":"9330316"},{"name":"新成町","zip_code":"9330904"},{"name":"新寺町","zip_code":"9330862"},{"name":"新能町","zip_code":"9330075"},{"name":"新横町","zip_code":"9330035"},{"name":"末広町","zip_code":"9330023"},{"name":"頭川","zip_code":"9330978"},{"name":"須田","zip_code":"9330985"},{"name":"関大町","zip_code":"9330869"},{"name":"関本町","zip_code":"9330863"},{"name":"関町","zip_code":"9330864"},{"name":"千木屋町","zip_code":"9330915"},{"name":"千石町","zip_code":"9330847"},{"name":"大工中町","zip_code":"9330868"},{"name":"大源寺","zip_code":"9330311"},{"name":"醍醐","zip_code":"9391131"},{"name":"大福院","zip_code":"9330028"},{"name":"大仏町","zip_code":"9330034"},{"name":"高園町","zip_code":"9330808"},{"name":"高辻","zip_code":"9330965"},{"name":"高美町","zip_code":"9330124"},{"name":"宝来町","zip_code":"9330343"},{"name":"宝町","zip_code":"9330064"},{"name":"滝","zip_code":"9391255"},{"name":"滝新","zip_code":"9391254"},{"name":"立野","zip_code":"9330325"},{"name":"立野美鳥町","zip_code":"9330326"},{"name":"手洗野","zip_code":"9330967"},{"name":"千鳥丘町","zip_code":"9330337"},{"name":"中央町","zip_code":"9330030"},{"name":"長慶寺","zip_code":"9330951"},{"name":"月野谷","zip_code":"9330966"},{"name":"辻","zip_code":"9330835"},{"name":"常国","zip_code":"9391251"},{"name":"常国みどり台","zip_code":"9391252"},{"name":"角","zip_code":"9330007"},{"name":"角三島","zip_code":"9330006"},{"name":"鶴寄町","zip_code":"9330063"},{"name":"出来田","zip_code":"9330803"},{"name":"出来田新町","zip_code":"9330809"},{"name":"寺町","zip_code":"9330861"},{"name":"戸出葵町","zip_code":"9391121"},{"name":"戸出青園町","zip_code":"9391121"},{"name":"戸出曙町","zip_code":"9391102"},{"name":"戸出池田町","zip_code":"9391103"},{"name":"戸出伊勢領","zip_code":"9391105"},{"name":"戸出市野瀬","zip_code":"9391101"},{"name":"戸出狼","zip_code":"9391102"},{"name":"戸出大清水","zip_code":"9391117"},{"name":"戸出岡御所","zip_code":"9391125"},{"name":"戸出春日","zip_code":"9391112"},{"name":"戸出光明寺","zip_code":"9391121"},{"name":"戸出石代","zip_code":"9391113"},{"name":"戸出栄町","zip_code":"9391118"},{"name":"戸出竹","zip_code":"9391132"},{"name":"戸出竹北","zip_code":"9391135"},{"name":"戸出徳市","zip_code":"9391111"},{"name":"戸出西部金屋","zip_code":"9391114"},{"name":"戸出延島","zip_code":"9391136"},{"name":"戸出古戸出","zip_code":"9391122"},{"name":"戸出放寺","zip_code":"9391133"},{"name":"戸出放寺新","zip_code":"9391134"},{"name":"戸出行兼","zip_code":"9391123"},{"name":"戸出吉住","zip_code":"9391116"},{"name":"戸出吉住新","zip_code":"9391115"},{"name":"戸出六十歩","zip_code":"9391124"},{"name":"戸出町","zip_code":"9391104"},{"name":"十日市","zip_code":"9330352"},{"name":"答野島","zip_code":"9330964"},{"name":"答野出","zip_code":"9330975"},{"name":"通町","zip_code":"9330937"},{"name":"利屋町","zip_code":"9330927"},{"name":"富岡町","zip_code":"9330001"},{"name":"問屋町","zip_code":"9330804"},{"name":"内免","zip_code":"9330941"},{"name":"長江","zip_code":"9330959"},{"name":"中川","zip_code":"9330056"},{"name":"中川上町","zip_code":"9330043"},{"name":"中川栄町","zip_code":"9330042"},{"name":"中川園町","zip_code":"9330055"},{"name":"中川本町","zip_code":"9330046"},{"name":"中川町","zip_code":"9330031"},{"name":"中島町","zip_code":"9330944"},{"name":"中曽根","zip_code":"9340092"},{"name":"中田","zip_code":"9391275"},{"name":"中保","zip_code":"9330331"},{"name":"西海老坂","zip_code":"9330986"},{"name":"西園町","zip_code":"9330315"},{"name":"西高町","zip_code":"9330323"},{"name":"西藤平蔵","zip_code":"9330824"},{"name":"西広上","zip_code":"9330815"},{"name":"西広谷","zip_code":"9330302"},{"name":"西町","zip_code":"9330848"},{"name":"二番町","zip_code":"9330931"},{"name":"能町","zip_code":"9330003"},{"name":"能町駅南","zip_code":"9330077"},{"name":"能町東","zip_code":"9330004"},{"name":"能町南","zip_code":"9330005"},{"name":"勝木原","zip_code":"9330301"},{"name":"野村","zip_code":"9330014"},{"name":"波岡","zip_code":"9330958"},{"name":"博労本町","zip_code":"9330935"},{"name":"博労町","zip_code":"9330934"},{"name":"蓮美町","zip_code":"9330865"},{"name":"旅篭町","zip_code":"9330936"},{"name":"蜂ケ島","zip_code":"9330317"},{"name":"八ケ","zip_code":"9330982"},{"name":"八丁道","zip_code":"9330879"},{"name":"羽広","zip_code":"9330844"},{"name":"早川","zip_code":"9330957"},{"name":"林新","zip_code":"9330818"},{"name":"東石堤","zip_code":"9330342"},{"name":"東海老坂","zip_code":"9330987"},{"name":"東上関","zip_code":"9330878"},{"name":"東下関","zip_code":"9330033"},{"name":"東藤平蔵","zip_code":"9330817"},{"name":"東中川町","zip_code":"9330047"},{"name":"東野","zip_code":"9330051"},{"name":"東保新","zip_code":"9391265"},{"name":"樋詰","zip_code":"9330322"},{"name":"姫野","zip_code":"9340093"},{"name":"広小路","zip_code":"9330057"},{"name":"深沢","zip_code":"9330811"},{"name":"福栄町","zip_code":"9330314"},{"name":"福岡町赤丸","zip_code":"9390101"},{"name":"福岡町荒屋敷","zip_code":"9390131"},{"name":"福岡町一歩二歩","zip_code":"9390122"},{"name":"福岡町上野","zip_code":"9390145"},{"name":"福岡町江尻","zip_code":"9390128"},{"name":"福岡町大滝","zip_code":"9390132"},{"name":"福岡町大野","zip_code":"9390118"},{"name":"福岡町開ほつ","zip_code":"9390133"},{"name":"福岡町上蓑","zip_code":"9390127"},{"name":"福岡町上向田","zip_code":"9390144"},{"name":"福岡町加茂","zip_code":"9390104"},{"name":"福岡町木舟","zip_code":"9390134"},{"name":"福岡町五位","zip_code":"9390152"},{"name":"福岡町小伊勢領","zip_code":"9390124"},{"name":"福岡町小野","zip_code":"9390156"},{"name":"福岡町西明寺","zip_code":"9390155"},{"name":"福岡町下老子","zip_code":"9390121"},{"name":"福岡町下蓑","zip_code":"9390116"},{"name":"福岡町下蓑新","zip_code":"9390115"},{"name":"福岡町下向田","zip_code":"9390143"},{"name":"福岡町沢川","zip_code":"9390151"},{"name":"福岡町土屋","zip_code":"9390142"},{"name":"福岡町栃丘","zip_code":"9390154"},{"name":"福岡町鳥倉","zip_code":"9390141"},{"name":"福岡町西","zip_code":"9390103"},{"name":"福岡町西川原島","zip_code":"9390123"},{"name":"福岡町花尾","zip_code":"9390153"},{"name":"福岡町馬場","zip_code":"9390105"},{"name":"福岡町福岡","zip_code":"9390111"},{"name":"福岡町福岡新","zip_code":"9390117"},{"name":"福岡町本領","zip_code":"9390135"},{"name":"福岡町舞谷","zip_code":"9390106"},{"name":"福岡町三日市","zip_code":"9390102"},{"name":"福岡町蓑島","zip_code":"9390126"},{"name":"福岡町矢部","zip_code":"9390125"},{"name":"福田","zip_code":"9330829"},{"name":"福田六家","zip_code":"9330313"},{"name":"伏木","zip_code":"9330113"},{"name":"伏木磯町","zip_code":"9330102"},{"name":"伏木一宮","zip_code":"9330116"},{"name":"伏木国分","zip_code":"9330101"},{"name":"伏木古府","zip_code":"9330114"},{"name":"伏木古府元町","zip_code":"9330115"},{"name":"伏木中央町","zip_code":"9330103"},{"name":"伏木錦町","zip_code":"9330105"},{"name":"伏木東一宮","zip_code":"9330111"},{"name":"伏木古国府","zip_code":"9330112"},{"name":"伏木本町","zip_code":"9330106"},{"name":"伏木湊町","zip_code":"9330104"},{"name":"伏木矢田","zip_code":"9330123"},{"name":"伏木矢田上町","zip_code":"9330122"},{"name":"伏木矢田新町","zip_code":"9330121"},{"name":"二上","zip_code":"9330981"},{"name":"二上新","zip_code":"9330981"},{"name":"二上町","zip_code":"9330981"},{"name":"二塚","zip_code":"9330816"},{"name":"古定塚","zip_code":"9330054"},{"name":"風呂屋町","zip_code":"9330938"},{"name":"平成町","zip_code":"9330345"},{"name":"放生津","zip_code":"9340093"},{"name":"細池","zip_code":"9330977"},{"name":"堀岡又新","zip_code":"9340094"},{"name":"堀上町","zip_code":"9330924"},{"name":"本郷","zip_code":"9330947"},{"name":"本保","zip_code":"9330333"},{"name":"本町","zip_code":"9330913"},{"name":"本丸町","zip_code":"9330045"},{"name":"前田町","zip_code":"9330017"},{"name":"牧野金屋","zip_code":"9340097"},{"name":"松原町","zip_code":"9330845"},{"name":"丸の内","zip_code":"9330912"},{"name":"瑞穂町","zip_code":"9330955"},{"name":"南幸町","zip_code":"9330933"},{"name":"南田町","zip_code":"9330873"},{"name":"美原町","zip_code":"9330012"},{"name":"宮田町","zip_code":"9330956"},{"name":"宮脇町","zip_code":"9330024"},{"name":"美幸町","zip_code":"9330954"},{"name":"六日市","zip_code":"9330354"},{"name":"向野本町","zip_code":"9330901"},{"name":"向野町","zip_code":"9330902"},{"name":"明和町","zip_code":"9330812"},{"name":"守山","zip_code":"9330984"},{"name":"守山町","zip_code":"9330928"},{"name":"谷内","zip_code":"9330356"},{"name":"八口","zip_code":"9330308"},{"name":"山川","zip_code":"9330303"},{"name":"横田","zip_code":"9330953"},{"name":"横田本町","zip_code":"9330849"},{"name":"横田町","zip_code":"9330842"},{"name":"芳野","zip_code":"9330872"},{"name":"吉久","zip_code":"9330002"},{"name":"四日市","zip_code":"9330351"},{"name":"四屋","zip_code":"9330949"},{"name":"米島","zip_code":"9330076"},{"name":"蓮花寺","zip_code":"9330802"},{"name":"蓮花寺新町","zip_code":"9330801"},{"name":"六家","zip_code":"9330321"},{"name":"若杉","zip_code":"9391253"},{"name":"若富町","zip_code":"9330831"},{"name":"若葉町","zip_code":"9340099"},{"name":"若保町","zip_code":"9330331"},{"name":"鷲北新","zip_code":"9330071"},{"name":"和田","zip_code":"9330832"},{"name":"和田上町","zip_code":"9330828"},{"name":"和田西町","zip_code":"9330839"}]},{"name":"魚津市","divisions":[{"name":"相木","zip_code":"9370045"},{"name":"相木新","zip_code":"9370047"},{"name":"青島","zip_code":"9370063"},{"name":"青柳","zip_code":"9370014"},{"name":"山女","zip_code":"9370036"},{"name":"浅生","zip_code":"9370847"},{"name":"有山","zip_code":"9370846"},{"name":"池谷","zip_code":"9370828"},{"name":"石垣","zip_code":"9370814"},{"name":"石垣新","zip_code":"9370813"},{"name":"出","zip_code":"9370821"},{"name":"印田","zip_code":"9370812"},{"name":"上野","zip_code":"9370843"},{"name":"駅前新町","zip_code":"9370051"},{"name":"江口","zip_code":"9370017"},{"name":"大熊","zip_code":"9370835"},{"name":"大沢","zip_code":"9370026"},{"name":"大菅沼","zip_code":"9370039"},{"name":"岡経田","zip_code":"9370004"},{"name":"小川寺","zip_code":"9370022"},{"name":"貝田新","zip_code":"9370032"},{"name":"鹿熊","zip_code":"9370834"},{"name":"金浦町","zip_code":"9370054"},{"name":"金山谷","zip_code":"9370832"},{"name":"上口","zip_code":"9370865"},{"name":"上村木","zip_code":"9370046"},{"name":"鴨川町","zip_code":"9370861"},{"name":"川原","zip_code":"9370855"},{"name":"川縁","zip_code":"9370856"},{"name":"観音堂","zip_code":"9370831"},{"name":"北鬼江","zip_code":"9370066"},{"name":"北中","zip_code":"9370065"},{"name":"北山","zip_code":"9370826"},{"name":"吉島","zip_code":"9370041"},{"name":"木下新","zip_code":"9370011"},{"name":"経田中町","zip_code":"9370007"},{"name":"経田西町","zip_code":"9370006"},{"name":"黒沢","zip_code":"9370025"},{"name":"黒谷","zip_code":"9370035"},{"name":"慶野","zip_code":"9370852"},{"name":"小菅沼","zip_code":"9370833"},{"name":"寿町","zip_code":"9370009"},{"name":"佐伯","zip_code":"9370841"},{"name":"三ケ","zip_code":"9370857"},{"name":"三田","zip_code":"9370811"},{"name":"持光寺","zip_code":"9370003"},{"name":"島尻","zip_code":"9370033"},{"name":"下椿","zip_code":"9370844"},{"name":"下村木町","zip_code":"9370802"},{"name":"釈迦堂","zip_code":"9370067"},{"name":"新角川","zip_code":"9370864"},{"name":"新金屋","zip_code":"9370801"},{"name":"新経田","zip_code":"9370010"},{"name":"新宿","zip_code":"9370863"},{"name":"真成寺町","zip_code":"9370867"},{"name":"末広町","zip_code":"9370059"},{"name":"住吉","zip_code":"9370851"},{"name":"諏訪町","zip_code":"9370056"},{"name":"大海寺新","zip_code":"9370815"},{"name":"大海寺野","zip_code":"9370816"},{"name":"大光寺","zip_code":"9370807"},{"name":"高畠","zip_code":"9370064"},{"name":"立石","zip_code":"9370016"},{"name":"中央通り","zip_code":"9370055"},{"name":"坪野","zip_code":"9370827"},{"name":"天神野新","zip_code":"9370013"},{"name":"天王","zip_code":"9370005"},{"name":"道坂","zip_code":"9370031"},{"name":"東城","zip_code":"9370034"},{"name":"東蔵","zip_code":"9370037"},{"name":"友道","zip_code":"9370806"},{"name":"虎谷","zip_code":"9370837"},{"name":"長引野","zip_code":"9370023"},{"name":"並木町","zip_code":"9370804"},{"name":"西尾崎","zip_code":"9370018"},{"name":"鉢","zip_code":"9370836"},{"name":"浜経田","zip_code":"9370001"},{"name":"稗畠","zip_code":"9370825"},{"name":"日尾","zip_code":"9370028"},{"name":"東尾崎","zip_code":"9370012"},{"name":"東町","zip_code":"9370008"},{"name":"東山","zip_code":"9370015"},{"name":"火の宮町","zip_code":"9370058"},{"name":"平沢","zip_code":"9370038"},{"name":"袋","zip_code":"9370043"},{"name":"布施爪","zip_code":"9370024"},{"name":"双葉町","zip_code":"9370868"},{"name":"仏田","zip_code":"9370061"},{"name":"仏又","zip_code":"9370062"},{"name":"文化町","zip_code":"9370862"},{"name":"平伝寺","zip_code":"9370002"},{"name":"蛇田","zip_code":"9370021"},{"name":"本江","zip_code":"9370805"},{"name":"本江新町","zip_code":"9370803"},{"name":"本町","zip_code":"9370866"},{"name":"舛方","zip_code":"9370845"},{"name":"舛田","zip_code":"9370822"},{"name":"御影","zip_code":"9370027"},{"name":"緑町","zip_code":"9370052"},{"name":"港町","zip_code":"9370057"},{"name":"宮津","zip_code":"9370853"},{"name":"村木町","zip_code":"9370053"},{"name":"室田","zip_code":"9370824"},{"name":"本新","zip_code":"9370068"},{"name":"本新町","zip_code":"9370068"},{"name":"弥源寺","zip_code":"9370854"},{"name":"湯上","zip_code":"9370823"},{"name":"横枕","zip_code":"9370044"},{"name":"吉野","zip_code":"9370842"},{"name":"六郎丸","zip_code":"9370042"}]},{"name":"氷見市","divisions":[{"name":"阿尾","zip_code":"9350002"},{"name":"赤毛","zip_code":"9350274"},{"name":"朝日丘","zip_code":"9350023"},{"name":"朝日本町","zip_code":"9350022"},{"name":"味川","zip_code":"9350343"},{"name":"粟原","zip_code":"9350054"},{"name":"五十谷","zip_code":"9350426"},{"name":"飯久保","zip_code":"9350112"},{"name":"泉","zip_code":"9350065"},{"name":"伊勢大町","zip_code":"9350015"},{"name":"磯辺","zip_code":"9350338"},{"name":"一の島","zip_code":"9350278"},{"name":"稲積","zip_code":"9350006"},{"name":"岩瀬","zip_code":"9350272"},{"name":"宇波","zip_code":"9350422"},{"name":"上田","zip_code":"9350056"},{"name":"老谷","zip_code":"9350271"},{"name":"大浦","zip_code":"9350103"},{"name":"大浦新町","zip_code":"9350101"},{"name":"大窪","zip_code":"9350416"},{"name":"大境","zip_code":"9350412"},{"name":"大野","zip_code":"9350026"},{"name":"大野新","zip_code":"9350027"},{"name":"小窪","zip_code":"9350257"},{"name":"小久米","zip_code":"9350263"},{"name":"小滝","zip_code":"9350337"},{"name":"小竹","zip_code":"9350034"},{"name":"海津","zip_code":"9350045"},{"name":"柿谷","zip_code":"9350067"},{"name":"角間","zip_code":"9350331"},{"name":"懸札","zip_code":"9350346"},{"name":"加納","zip_code":"9350063"},{"name":"上泉","zip_code":"9350037"},{"name":"上久津呂","zip_code":"9350047"},{"name":"上田子","zip_code":"9350035"},{"name":"上余川","zip_code":"9350344"},{"name":"川崎","zip_code":"9350043"},{"name":"川尻","zip_code":"9350044"},{"name":"蒲田","zip_code":"9350105"},{"name":"北大町","zip_code":"9350004"},{"name":"北八代","zip_code":"9350001"},{"name":"葛葉","zip_code":"9350268"},{"name":"国見","zip_code":"9350336"},{"name":"窪","zip_code":"9350024"},{"name":"熊無","zip_code":"9350251"},{"name":"久目","zip_code":"9350265"},{"name":"鞍川","zip_code":"9350025"},{"name":"鞍骨","zip_code":"9350115"},{"name":"胡桃","zip_code":"9350335"},{"name":"桑院","zip_code":"9350273"},{"name":"湖光","zip_code":"9350042"},{"name":"神代","zip_code":"9350106"},{"name":"小境","zip_code":"9350413"},{"name":"小杉","zip_code":"9350424"},{"name":"幸町","zip_code":"9350021"},{"name":"栄町","zip_code":"9350005"},{"name":"坂津","zip_code":"9350052"},{"name":"指崎","zip_code":"9350007"},{"name":"地蔵町","zip_code":"9350014"},{"name":"七分一","zip_code":"9350066"},{"name":"島尾","zip_code":"9350032"},{"name":"下久津呂","zip_code":"9350046"},{"name":"下田子","zip_code":"9350036"},{"name":"十二町","zip_code":"9350051"},{"name":"白川","zip_code":"9350414"},{"name":"新保","zip_code":"9350254"},{"name":"姿","zip_code":"9350411"},{"name":"諏訪野","zip_code":"9350062"},{"name":"惣領","zip_code":"9350113"},{"name":"園","zip_code":"9350041"},{"name":"平","zip_code":"9350406"},{"name":"田江","zip_code":"9350256"},{"name":"棚懸","zip_code":"9350277"},{"name":"谷屋","zip_code":"9350253"},{"name":"中央町","zip_code":"9350011"},{"name":"土倉","zip_code":"9350275"},{"name":"坪池","zip_code":"9350276"},{"name":"寺尾","zip_code":"9350345"},{"name":"床鍋","zip_code":"9350269"},{"name":"戸津宮","zip_code":"9350415"},{"name":"泊","zip_code":"9350423"},{"name":"中尾","zip_code":"9350064"},{"name":"長坂","zip_code":"9350417"},{"name":"中島","zip_code":"9350102"},{"name":"中田","zip_code":"9350403"},{"name":"中波","zip_code":"9350402"},{"name":"中村","zip_code":"9350252"},{"name":"中谷内","zip_code":"9350055"},{"name":"西朴木","zip_code":"9350057"},{"name":"早借","zip_code":"9350255"},{"name":"針木","zip_code":"9350334"},{"name":"日詰","zip_code":"9350264"},{"name":"一刎","zip_code":"9350341"},{"name":"日名田","zip_code":"9350262"},{"name":"比美町","zip_code":"9350012"},{"name":"平沢","zip_code":"9350404"},{"name":"深原","zip_code":"9350117"},{"name":"布施","zip_code":"9350111"},{"name":"仏生寺","zip_code":"9350114"},{"name":"触坂","zip_code":"9350266"},{"name":"鉾根","zip_code":"9350115"},{"name":"堀田","zip_code":"9350104"},{"name":"本町","zip_code":"9350016"},{"name":"間島","zip_code":"9350003"},{"name":"丸の内","zip_code":"9350017"},{"name":"見内","zip_code":"9350267"},{"name":"三尾","zip_code":"9350261"},{"name":"三田窪","zip_code":"9350116"},{"name":"南大町","zip_code":"9350013"},{"name":"宮田","zip_code":"9350033"},{"name":"万尾","zip_code":"9350053"},{"name":"森寺","zip_code":"9350332"},{"name":"矢田部","zip_code":"9350116"},{"name":"柳田","zip_code":"9350031"},{"name":"矢方","zip_code":"9350107"},{"name":"薮田","zip_code":"9350425"},{"name":"余川","zip_code":"9350061"},{"name":"吉岡","zip_code":"9350405"},{"name":"吉懸","zip_code":"9350342"},{"name":"吉滝","zip_code":"9350333"},{"name":"論田","zip_code":"9350258"},{"name":"脇","zip_code":"9350401"},{"name":"脇方","zip_code":"9350421"}]},{"name":"滑川市","divisions":[{"name":"赤浜","zip_code":"9360843"},{"name":"赤浜栄町","zip_code":"9360842"},{"name":"吾妻町","zip_code":"9360033"},{"name":"荒俣","zip_code":"9360006"},{"name":"荒俣新町","zip_code":"9360007"},{"name":"荒町","zip_code":"9360042"},{"name":"有金","zip_code":"9360855"},{"name":"泉ケ丘","zip_code":"9360055"},{"name":"稲泉","zip_code":"9360877"},{"name":"稲泉新","zip_code":"9360876"},{"name":"今町","zip_code":"9360031"},{"name":"魚躬","zip_code":"9360077"},{"name":"馬町","zip_code":"9360044"},{"name":"江尻","zip_code":"9360075"},{"name":"夷子町","zip_code":"9360039"},{"name":"追分","zip_code":"9360808"},{"name":"大浦","zip_code":"9360811"},{"name":"大榎","zip_code":"9360874"},{"name":"大掛","zip_code":"9360802"},{"name":"大窪","zip_code":"9360805"},{"name":"大崎野","zip_code":"9360833"},{"name":"大島","zip_code":"9360801"},{"name":"大島新","zip_code":"9360871"},{"name":"大林","zip_code":"9360818"},{"name":"大町","zip_code":"9360047"},{"name":"沖田新","zip_code":"9360851"},{"name":"改養寺","zip_code":"9360836"},{"name":"笠木","zip_code":"9360004"},{"name":"加島町","zip_code":"9360068"},{"name":"金屋","zip_code":"9360864"},{"name":"上梅沢","zip_code":"9360853"},{"name":"上大浦","zip_code":"9360811"},{"name":"上小泉","zip_code":"9360053"},{"name":"上島","zip_code":"9360852"},{"name":"河浦町","zip_code":"9360046"},{"name":"河端町","zip_code":"9360064"},{"name":"北野","zip_code":"9360806"},{"name":"北町","zip_code":"9360038"},{"name":"栗山","zip_code":"9360803"},{"name":"公園通り","zip_code":"9360026"},{"name":"小林","zip_code":"9360854"},{"name":"菰原","zip_code":"9360066"},{"name":"菰原台","zip_code":"9360067"},{"name":"小森","zip_code":"9360822"},{"name":"幸町","zip_code":"9360073"},{"name":"晒屋","zip_code":"9360059"},{"name":"三ケ","zip_code":"9360001"},{"name":"山王町","zip_code":"9360069"},{"name":"寺家町","zip_code":"9360051"},{"name":"四間町","zip_code":"9360035"},{"name":"七間町","zip_code":"9360045"},{"name":"柴","zip_code":"9360841"},{"name":"清水町","zip_code":"9360052"},{"name":"下梅沢","zip_code":"9360857"},{"name":"下大浦","zip_code":"9360811"},{"name":"下小泉町","zip_code":"9360058"},{"name":"下島","zip_code":"9360065"},{"name":"下野","zip_code":"9360817"},{"name":"常光寺","zip_code":"9360848"},{"name":"神家町","zip_code":"9360060"},{"name":"新富町","zip_code":"9360074"},{"name":"神明町","zip_code":"9360032"},{"name":"杉本","zip_code":"9360804"},{"name":"瀬羽町","zip_code":"9360063"},{"name":"大日","zip_code":"9360813"},{"name":"大門","zip_code":"9360856"},{"name":"高塚","zip_code":"9360011"},{"name":"高塚曙町","zip_code":"9360012"},{"name":"高塚寿町","zip_code":"9360015"},{"name":"高塚新市営住宅","zip_code":"9360013"},{"name":"高塚新町","zip_code":"9360014"},{"name":"高月町","zip_code":"9360078"},{"name":"高月南台","zip_code":"9360076"},{"name":"高柳","zip_code":"9360849"},{"name":"辰野","zip_code":"9360024"},{"name":"辰野新町","zip_code":"9360022"},{"name":"田中新町","zip_code":"9360056"},{"name":"田中町","zip_code":"9360057"},{"name":"田林","zip_code":"9360826"},{"name":"千鳥","zip_code":"9360814"},{"name":"坪川","zip_code":"9360018"},{"name":"坪川新","zip_code":"9360019"},{"name":"寺町","zip_code":"9360844"},{"name":"天望町","zip_code":"9360847"},{"name":"道寺","zip_code":"9360838"},{"name":"東福寺","zip_code":"9360827"},{"name":"東福寺野","zip_code":"9360823"},{"name":"東福寺開","zip_code":"9360834"},{"name":"常盤町","zip_code":"9360027"},{"name":"栃山","zip_code":"9360863"},{"name":"中川原","zip_code":"9360021"},{"name":"中新","zip_code":"9360861"},{"name":"中塚","zip_code":"9360875"},{"name":"中野","zip_code":"9360816"},{"name":"中野島","zip_code":"9360882"},{"name":"中町","zip_code":"9360036"},{"name":"中村","zip_code":"9360002"},{"name":"七口","zip_code":"9360865"},{"name":"野尻","zip_code":"9360831"},{"name":"野町","zip_code":"9360883"},{"name":"橋場町","zip_code":"9360062"},{"name":"浜町","zip_code":"9360061"},{"name":"浜四ツ屋","zip_code":"9360005"},{"name":"東金屋","zip_code":"9360837"},{"name":"開","zip_code":"9360835"},{"name":"瓢町","zip_code":"9360043"},{"name":"藤栄","zip_code":"9360881"},{"name":"二塚","zip_code":"9360872"},{"name":"二ツ破","zip_code":"9360017"},{"name":"武平太町","zip_code":"9360037"},{"name":"法花寺","zip_code":"9360885"},{"name":"堀内","zip_code":"9360812"},{"name":"堀江","zip_code":"9360846"},{"name":"本江","zip_code":"9360824"},{"name":"曲渕","zip_code":"9360016"},{"name":"松原町","zip_code":"9360041"},{"name":"緑町","zip_code":"9360072"},{"name":"蓑輪","zip_code":"9360821"},{"name":"三穂町","zip_code":"9360048"},{"name":"宮窪","zip_code":"9360868"},{"name":"宮窪新","zip_code":"9360866"},{"name":"宮窪台","zip_code":"9360867"},{"name":"室山","zip_code":"9360815"},{"name":"森尻新","zip_code":"9360845"},{"name":"森野新","zip_code":"9360832"},{"name":"安田","zip_code":"9360825"},{"name":"柳原","zip_code":"9360023"},{"name":"柳原新町","zip_code":"9360025"},{"name":"横町","zip_code":"9360070"},{"name":"横道","zip_code":"9360873"},{"name":"吉浦","zip_code":"9360003"},{"name":"四ツ屋","zip_code":"9360807"},{"name":"四屋新","zip_code":"9360862"},{"name":"米島","zip_code":"9360884"},{"name":"領家町","zip_code":"9360071"}]},{"name":"黒部市","divisions":[{"name":"阿古屋野","zip_code":"9380048"},{"name":"天池","zip_code":"9380032"},{"name":"阿弥陀堂","zip_code":"9380824"},{"name":"荒俣","zip_code":"9380001"},{"name":"荒町","zip_code":"9380044"},{"name":"飯沢","zip_code":"9380004"},{"name":"生地","zip_code":"9380066"},{"name":"生地芦区","zip_code":"9380082"},{"name":"生地芦崎","zip_code":"9380084"},{"name":"生地経新","zip_code":"9380081"},{"name":"生地神区","zip_code":"9380061"},{"name":"生地中区","zip_code":"9380072"},{"name":"生地山新","zip_code":"9380071"},{"name":"生地吉田","zip_code":"9380085"},{"name":"生地吉田新","zip_code":"9380086"},{"name":"生地四ツ屋新","zip_code":"9380063"},{"name":"池尻","zip_code":"9380816"},{"name":"石田","zip_code":"9380059"},{"name":"石田新","zip_code":"9380057"},{"name":"石田野","zip_code":"9380835"},{"name":"犬山","zip_code":"9380043"},{"name":"植木","zip_code":"9380014"},{"name":"内生谷","zip_code":"9380811"},{"name":"宇奈月温泉","zip_code":"9380282"},{"name":"宇奈月町愛本新","zip_code":"9380177"},{"name":"宇奈月町愛本橋爪東官林地内","zip_code":"9380175"},{"name":"宇奈月町明日","zip_code":"9380171"},{"name":"宇奈月町内山","zip_code":"9380281"},{"name":"宇奈月町浦山","zip_code":"9380862"},{"name":"宇奈月町音澤","zip_code":"9380274"},{"name":"宇奈月町下立","zip_code":"9380861"},{"name":"宇奈月町熊野","zip_code":"9380863"},{"name":"宇奈月町栗虫","zip_code":"9380178"},{"name":"宇奈月町栃屋","zip_code":"9380864"},{"name":"宇奈月町土山","zip_code":"9380172"},{"name":"宇奈月町中谷","zip_code":"9380173"},{"name":"宇奈月町中ノ口","zip_code":"9380176"},{"name":"宇奈月町舟見","zip_code":"9380179"},{"name":"大開","zip_code":"9380006"},{"name":"岡","zip_code":"9380054"},{"name":"荻生","zip_code":"9380801"},{"name":"尾山","zip_code":"9380825"},{"name":"鏡野","zip_code":"9380836"},{"name":"笠破","zip_code":"9380812"},{"name":"金屋","zip_code":"9380022"},{"name":"嘉例沢","zip_code":"9380814"},{"name":"北新","zip_code":"9380036"},{"name":"北野","zip_code":"9380015"},{"name":"吉城寺","zip_code":"9380805"},{"name":"経立野","zip_code":"9380052"},{"name":"沓掛","zip_code":"9380013"},{"name":"窪野","zip_code":"9380047"},{"name":"栗寺","zip_code":"9380803"},{"name":"黒部峡谷口","zip_code":"9380283"},{"name":"黒部新","zip_code":"9380011"},{"name":"神谷","zip_code":"9380046"},{"name":"釈迦堂","zip_code":"9380823"},{"name":"正光寺新","zip_code":"9380058"},{"name":"新天","zip_code":"9380038"},{"name":"新牧野","zip_code":"9380037"},{"name":"新町","zip_code":"9380056"},{"name":"田家新","zip_code":"9380045"},{"name":"田家野","zip_code":"9380837"},{"name":"田家角内","zip_code":"9380026"},{"name":"高橋","zip_code":"9380024"},{"name":"立野","zip_code":"9380051"},{"name":"田籾","zip_code":"9380813"},{"name":"出島","zip_code":"9380012"},{"name":"天神新","zip_code":"9380042"},{"name":"堂田","zip_code":"9380039"},{"name":"栃沢","zip_code":"9380028"},{"name":"中新","zip_code":"9380027"},{"name":"中陣","zip_code":"9380827"},{"name":"中野","zip_code":"9380034"},{"name":"中野道","zip_code":"9380033"},{"name":"中山","zip_code":"9380834"},{"name":"浜石田","zip_code":"9380055"},{"name":"飛騨","zip_code":"9380002"},{"name":"福平","zip_code":"9380815"},{"name":"古御堂","zip_code":"9380021"},{"name":"別所","zip_code":"9380822"},{"name":"朴谷","zip_code":"9380826"},{"name":"堀切","zip_code":"9380041"},{"name":"堀切新","zip_code":"9380025"},{"name":"堀高","zip_code":"9380023"},{"name":"前沢","zip_code":"9380806"},{"name":"牧野","zip_code":"9380035"},{"name":"枕野","zip_code":"9380832"},{"name":"三日市","zip_code":"9380031"},{"name":"宮沢","zip_code":"9380831"},{"name":"宮野","zip_code":"9380804"},{"name":"本野","zip_code":"9380833"},{"name":"柳沢","zip_code":"9380821"},{"name":"山田","zip_code":"9380049"},{"name":"山田新","zip_code":"9380807"},{"name":"山立野","zip_code":"9380053"},{"name":"吉田","zip_code":"9380005"},{"name":"六天","zip_code":"9380003"},{"name":"若栗","zip_code":"9380802"}]},{"name":"砺波市","divisions":[{"name":"秋元","zip_code":"9391304"},{"name":"浅谷","zip_code":"9391422"},{"name":"荒高屋","zip_code":"9391324"},{"name":"新又","zip_code":"9391372"},{"name":"井栗谷","zip_code":"9391425"},{"name":"池原","zip_code":"9391415"},{"name":"石丸","zip_code":"9391301"},{"name":"市谷","zip_code":"9391413"},{"name":"一番町","zip_code":"9391373"},{"name":"永福町","zip_code":"9391332"},{"name":"大門","zip_code":"9391316"},{"name":"大窪","zip_code":"9391303"},{"name":"太田","zip_code":"9391315"},{"name":"大辻","zip_code":"9391328"},{"name":"小島","zip_code":"9391342"},{"name":"表町","zip_code":"9391366"},{"name":"鹿島","zip_code":"9391326"},{"name":"神島","zip_code":"9391337"},{"name":"上中野","zip_code":"9391323"},{"name":"上和田","zip_code":"9391411"},{"name":"狐島","zip_code":"9391346"},{"name":"木下","zip_code":"9391358"},{"name":"川内","zip_code":"9391426"},{"name":"小杉","zip_code":"9391357"},{"name":"五谷","zip_code":"9391428"},{"name":"寿町","zip_code":"9391377"},{"name":"五郎丸","zip_code":"9391327"},{"name":"権正寺","zip_code":"9391407"},{"name":"幸町","zip_code":"9391386"},{"name":"栄町","zip_code":"9391371"},{"name":"三郎丸","zip_code":"9391308"},{"name":"山王町","zip_code":"9391374"},{"name":"下中","zip_code":"9391347"},{"name":"下中条","zip_code":"9391311"},{"name":"十年明","zip_code":"9391353"},{"name":"庄川町青島","zip_code":"9320314"},{"name":"庄川町筏","zip_code":"9320317"},{"name":"庄川町落シ","zip_code":"9320303"},{"name":"庄川町隠尾","zip_code":"9320303"},{"name":"庄川町金屋","zip_code":"9320305"},{"name":"庄川町五ケ","zip_code":"9320313"},{"name":"庄川町小牧","zip_code":"9320304"},{"name":"庄川町示野","zip_code":"9320315"},{"name":"庄川町庄","zip_code":"9320302"},{"name":"庄川町高儀新","zip_code":"9320312"},{"name":"庄川町天正","zip_code":"9320316"},{"name":"庄川町古上野","zip_code":"9320311"},{"name":"庄川町前山","zip_code":"9320304"},{"name":"庄川町三谷","zip_code":"9320301"},{"name":"庄川町名ケ原","zip_code":"9320303"},{"name":"庄川町湯谷","zip_code":"9320303"},{"name":"庄川町湯山","zip_code":"9320303"},{"name":"庄川町横住","zip_code":"9320303"},{"name":"正権寺","zip_code":"9391412"},{"name":"新栄町","zip_code":"9391354"},{"name":"新富町","zip_code":"9391343"},{"name":"新明","zip_code":"9391321"},{"name":"杉木","zip_code":"9391355"},{"name":"芹谷","zip_code":"9391416"},{"name":"千代","zip_code":"9391351"},{"name":"千保","zip_code":"9391305"},{"name":"祖泉","zip_code":"9391318"},{"name":"高波","zip_code":"9391341"},{"name":"鷹栖","zip_code":"9391335"},{"name":"鷹栖出","zip_code":"9391338"},{"name":"高道","zip_code":"9391383"},{"name":"太郎丸","zip_code":"9391363"},{"name":"茶ノ木","zip_code":"9391437"},{"name":"中央町","zip_code":"9391375"},{"name":"坪野","zip_code":"9391414"},{"name":"坪内","zip_code":"9391384"},{"name":"出町中央","zip_code":"9391379"},{"name":"寺尾","zip_code":"9391429"},{"name":"徳万","zip_code":"9391432"},{"name":"徳万新","zip_code":"9391433"},{"name":"栃上","zip_code":"9391424"},{"name":"となみ町","zip_code":"9391387"},{"name":"中神","zip_code":"9391344"},{"name":"中野","zip_code":"9391322"},{"name":"中村","zip_code":"9391381"},{"name":"鍋島","zip_code":"9391362"},{"name":"西中","zip_code":"9391336"},{"name":"苗加","zip_code":"9391333"},{"name":"野村島","zip_code":"9391334"},{"name":"八十歩","zip_code":"9391408"},{"name":"花島","zip_code":"9391325"},{"name":"花園町","zip_code":"9391382"},{"name":"林","zip_code":"9391345"},{"name":"春日町","zip_code":"9391378"},{"name":"東石丸","zip_code":"9391302"},{"name":"東開発","zip_code":"9391312"},{"name":"東幸町","zip_code":"9391385"},{"name":"東中","zip_code":"9391348"},{"name":"東別所","zip_code":"9391423"},{"name":"東別所新","zip_code":"9391421"},{"name":"東保","zip_code":"9391401"},{"name":"久泉","zip_code":"9391314"},{"name":"広上町","zip_code":"9391367"},{"name":"深江","zip_code":"9391331"},{"name":"福岡","zip_code":"9391405"},{"name":"福山","zip_code":"9391436"},{"name":"伏木谷","zip_code":"9391427"},{"name":"平成町","zip_code":"9391361"},{"name":"平和町","zip_code":"9391376"},{"name":"堀内","zip_code":"9391307"},{"name":"本町","zip_code":"9391368"},{"name":"増山","zip_code":"9391402"},{"name":"三合","zip_code":"9391434"},{"name":"三合新","zip_code":"9391435"},{"name":"三島町","zip_code":"9391365"},{"name":"宮沢町","zip_code":"9391388"},{"name":"宮新","zip_code":"9391403"},{"name":"宮丸","zip_code":"9391352"},{"name":"宮村","zip_code":"9391306"},{"name":"宮森","zip_code":"9391406"},{"name":"宮森新","zip_code":"9391404"},{"name":"本小林","zip_code":"9391401"},{"name":"矢木","zip_code":"9391317"},{"name":"安川","zip_code":"9391438"},{"name":"柳瀬","zip_code":"9391313"},{"name":"豊町","zip_code":"9391364"},{"name":"頼成","zip_code":"9391431"},{"name":"頼成新","zip_code":"9391417"},{"name":"若草町","zip_code":"9391356"}]},{"name":"小矢部市","divisions":[{"name":"赤倉","zip_code":"9320814"},{"name":"浅地","zip_code":"9320122"},{"name":"綾子","zip_code":"9320833"},{"name":"荒間","zip_code":"9320071"},{"name":"安養寺","zip_code":"9320129"},{"name":"安養寺新","zip_code":"9320852"},{"name":"安楽寺","zip_code":"9320062"},{"name":"石王丸","zip_code":"9320037"},{"name":"石坂","zip_code":"9320835"},{"name":"石名田","zip_code":"9320808"},{"name":"泉町","zip_code":"9320052"},{"name":"石動町","zip_code":"9320053"},{"name":"今石動町","zip_code":"9320051"},{"name":"岩尾滝","zip_code":"9320073"},{"name":"岩崎","zip_code":"9320014"},{"name":"岩武","zip_code":"9320113"},{"name":"宇治新","zip_code":"9320036"},{"name":"後谷","zip_code":"9320831"},{"name":"臼谷","zip_code":"9320853"},{"name":"内御堂","zip_code":"9320106"},{"name":"内山","zip_code":"9320863"},{"name":"上野本","zip_code":"9320054"},{"name":"岡","zip_code":"9320031"},{"name":"小神","zip_code":"9320817"},{"name":"小矢部","zip_code":"9320056"},{"name":"小矢部町","zip_code":"9320058"},{"name":"金屋本江","zip_code":"9320812"},{"name":"鴨島","zip_code":"9320125"},{"name":"嘉例谷","zip_code":"9320075"},{"name":"川開新","zip_code":"9320855"},{"name":"観音町","zip_code":"9320046"},{"name":"北一","zip_code":"9320844"},{"name":"北屋敷","zip_code":"9320003"},{"name":"経田","zip_code":"9320103"},{"name":"清沢","zip_code":"9320112"},{"name":"清原","zip_code":"9320013"},{"name":"久利須","zip_code":"9320001"},{"name":"興法寺","zip_code":"9320127"},{"name":"五社","zip_code":"9320801"},{"name":"胡麻島","zip_code":"9320105"},{"name":"小森谷","zip_code":"9320133"},{"name":"五郎丸","zip_code":"9320862"},{"name":"坂又","zip_code":"9320034"},{"name":"桜町","zip_code":"9320022"},{"name":"地崎","zip_code":"9320032"},{"name":"七社","zip_code":"9320802"},{"name":"渋江","zip_code":"9320137"},{"name":"島","zip_code":"9320825"},{"name":"清水","zip_code":"9320114"},{"name":"下川崎","zip_code":"9320126"},{"name":"下後亟","zip_code":"9320101"},{"name":"下島","zip_code":"9320824"},{"name":"下中","zip_code":"9320804"},{"name":"下屋敷","zip_code":"9320005"},{"name":"城山町","zip_code":"9320047"},{"name":"新富町","zip_code":"9320044"},{"name":"新西","zip_code":"9320111"},{"name":"末沢新","zip_code":"9320854"},{"name":"末友","zip_code":"9320851"},{"name":"菅ケ原","zip_code":"9320008"},{"name":"杉谷内","zip_code":"9320132"},{"name":"芹川","zip_code":"9320033"},{"name":"千石","zip_code":"9320074"},{"name":"高木","zip_code":"9320123"},{"name":"高木出","zip_code":"9320815"},{"name":"高坂","zip_code":"9320006"},{"name":"田川","zip_code":"9320021"},{"name":"棚田","zip_code":"9320843"},{"name":"谷坪野","zip_code":"9320064"},{"name":"中央町","zip_code":"9320045"},{"name":"長","zip_code":"9320842"},{"name":"津沢","zip_code":"9320115"},{"name":"峠","zip_code":"9320072"},{"name":"道坪野","zip_code":"9320061"},{"name":"道明","zip_code":"9320803"},{"name":"道林寺","zip_code":"9320841"},{"name":"戸久","zip_code":"9320128"},{"name":"茄子島","zip_code":"9320826"},{"name":"名畑","zip_code":"9320131"},{"name":"西川原","zip_code":"9320104"},{"name":"西町","zip_code":"9320055"},{"name":"西中","zip_code":"9320805"},{"name":"西中野","zip_code":"9320035"},{"name":"西島","zip_code":"9320116"},{"name":"西福町","zip_code":"9320042"},{"name":"二ノ滝","zip_code":"9320004"},{"name":"糠子島","zip_code":"9320016"},{"name":"野寺","zip_code":"9320813"},{"name":"野端","zip_code":"9320832"},{"name":"蓮沼","zip_code":"9320834"},{"name":"畠中町","zip_code":"9320043"},{"name":"八伏","zip_code":"9320864"},{"name":"八講田","zip_code":"9320861"},{"name":"埴生","zip_code":"9320836"},{"name":"原牧","zip_code":"9320011"},{"name":"東福町","zip_code":"9320041"},{"name":"平桜","zip_code":"9320134"},{"name":"平田","zip_code":"9320136"},{"name":"福上","zip_code":"9320823"},{"name":"福久","zip_code":"9320816"},{"name":"藤森","zip_code":"9320135"},{"name":"フロンティアパーク","zip_code":"9320856"},{"name":"別所滝","zip_code":"9320018"},{"name":"法楽寺","zip_code":"9320027"},{"name":"本町","zip_code":"9320057"},{"name":"松尾","zip_code":"9320845"},{"name":"松永","zip_code":"9320846"},{"name":"水落","zip_code":"9320806"},{"name":"水島","zip_code":"9320102"},{"name":"水牧","zip_code":"9320811"},{"name":"嶺","zip_code":"9320012"},{"name":"峰坪野","zip_code":"9320063"},{"name":"蓑輪","zip_code":"9320124"},{"name":"宮須","zip_code":"9320026"},{"name":"宮中","zip_code":"9320025"},{"name":"名ケ滝","zip_code":"9320007"},{"name":"メルヘンランド","zip_code":"9320838"},{"name":"森屋","zip_code":"9320002"},{"name":"矢水町","zip_code":"9320121"},{"name":"八和町","zip_code":"9320048"},{"name":"柳原","zip_code":"9320807"},{"name":"矢波","zip_code":"9320015"},{"name":"屋波牧","zip_code":"9320024"},{"name":"横谷","zip_code":"9320023"},{"name":"吉和台","zip_code":"9320837"},{"name":"了輪","zip_code":"9320017"},{"name":"論田","zip_code":"9320065"},{"name":"和沢","zip_code":"9320822"},{"name":"鷲島","zip_code":"9320821"}]},{"name":"南砺市","divisions":[{"name":"相倉","zip_code":"9391915"},{"name":"赤坂","zip_code":"9391751"},{"name":"安室","zip_code":"9320206"},{"name":"遊部","zip_code":"9391701"},{"name":"遊部川原","zip_code":"9391622"},{"name":"新屋","zip_code":"9391976"},{"name":"天池","zip_code":"9391744"},{"name":"雨潜","zip_code":"9391524"},{"name":"荒木","zip_code":"9391732"},{"name":"荒見崎","zip_code":"9391716"},{"name":"在房","zip_code":"9391711"},{"name":"池田","zip_code":"9391873"},{"name":"池尻","zip_code":"9391871"},{"name":"石田","zip_code":"9391535"},{"name":"和泉","zip_code":"9391621"},{"name":"泉沢","zip_code":"9391821"},{"name":"院瀬見","zip_code":"9320247"},{"name":"糸谷新","zip_code":"9391673"},{"name":"井波","zip_code":"9320211"},{"name":"井波栄町","zip_code":"9320213"},{"name":"井波軸屋","zip_code":"9320205"},{"name":"井波末広町","zip_code":"9320216"},{"name":"井波東町","zip_code":"9320228"},{"name":"井口","zip_code":"9391877"},{"name":"猪谷","zip_code":"9391962"},{"name":"今里","zip_code":"9320256"},{"name":"今町","zip_code":"9320214"},{"name":"入谷","zip_code":"9391904"},{"name":"岩木","zip_code":"9391612"},{"name":"岩武新","zip_code":"9391503"},{"name":"岩屋","zip_code":"9320203"},{"name":"岩安","zip_code":"9391611"},{"name":"院林","zip_code":"9391531"},{"name":"上田","zip_code":"9391824"},{"name":"上野","zip_code":"9391512"},{"name":"打尾","zip_code":"9391823"},{"name":"梅ケ島","zip_code":"9391542"},{"name":"梅野","zip_code":"9391724"},{"name":"梅原","zip_code":"9391716"},{"name":"漆谷","zip_code":"9391979"},{"name":"上見","zip_code":"9391833"},{"name":"江田","zip_code":"9391526"},{"name":"大鋸屋","zip_code":"9391824"},{"name":"大崩島","zip_code":"9391902"},{"name":"大窪","zip_code":"9391855"},{"name":"大島","zip_code":"9391912"},{"name":"大塚","zip_code":"9391743"},{"name":"大西","zip_code":"9391752"},{"name":"大野","zip_code":"9391875"},{"name":"大宮野","zip_code":"9391814"},{"name":"大宮野新","zip_code":"9391837"},{"name":"沖","zip_code":"9320248"},{"name":"小瀬","zip_code":"9391971"},{"name":"小原","zip_code":"9391967"},{"name":"小又","zip_code":"9391605"},{"name":"開発","zip_code":"9391667"},{"name":"皆葎","zip_code":"9391961"},{"name":"篭渡","zip_code":"9391911"},{"name":"鍛治","zip_code":"9391725"},{"name":"桂","zip_code":"9391969"},{"name":"金戸","zip_code":"9391843"},{"name":"上川崎","zip_code":"9391553"},{"name":"上平細島","zip_code":"9391968"},{"name":"上中田","zip_code":"9391975"},{"name":"上梨","zip_code":"9391914"},{"name":"神成","zip_code":"9391713"},{"name":"上原","zip_code":"9391834"},{"name":"上広安","zip_code":"9391878"},{"name":"上松尾","zip_code":"9391928"},{"name":"上三日市","zip_code":"9391575"},{"name":"川上中","zip_code":"9391876"},{"name":"川西","zip_code":"9391613"},{"name":"川除新","zip_code":"9391504"},{"name":"川原崎","zip_code":"9320241"},{"name":"雁巻島","zip_code":"9391836"},{"name":"木崎野","zip_code":"9320221"},{"name":"北市","zip_code":"9320257"},{"name":"北川","zip_code":"9320226"},{"name":"北新町","zip_code":"9320227"},{"name":"北野","zip_code":"9391807"},{"name":"京願町","zip_code":"9320232"},{"name":"京塚","zip_code":"9391835"},{"name":"経塚野","zip_code":"9391846"},{"name":"桐木","zip_code":"9391548"},{"name":"国広","zip_code":"9391846"},{"name":"久保","zip_code":"9391872"},{"name":"蔵原","zip_code":"9391614"},{"name":"来栖","zip_code":"9391925"},{"name":"小院瀬見","zip_code":"9391684"},{"name":"香城寺","zip_code":"9391674"},{"name":"楮","zip_code":"9391964"},{"name":"小来栖","zip_code":"9391926"},{"name":"小坂","zip_code":"9391671"},{"name":"小林","zip_code":"9391735"},{"name":"小二又","zip_code":"9391682"},{"name":"小山","zip_code":"9391665"},{"name":"五領","zip_code":"9320254"},{"name":"五領島","zip_code":"9320255"},{"name":"是安","zip_code":"9391852"},{"name":"才川七","zip_code":"9391681"},{"name":"西明","zip_code":"9391804"},{"name":"坂ノ下","zip_code":"9320222"},{"name":"坂本","zip_code":"9391655"},{"name":"三清西","zip_code":"9391525"},{"name":"三清東","zip_code":"9320258"},{"name":"志観寺","zip_code":"9320243"},{"name":"寺家","zip_code":"9391532"},{"name":"寺家新屋敷","zip_code":"9391577"},{"name":"下島","zip_code":"9391978"},{"name":"下野","zip_code":"9391733"},{"name":"一日市","zip_code":"9391703"},{"name":"柴田屋","zip_code":"9391552"},{"name":"清水明","zip_code":"9320202"},{"name":"示野","zip_code":"9391845"},{"name":"下新町","zip_code":"9320238"},{"name":"下出","zip_code":"9391908"},{"name":"下梨","zip_code":"9391923"},{"name":"下吉江","zip_code":"9391543"},{"name":"蛇喰","zip_code":"9391874"},{"name":"上津","zip_code":"9391551"},{"name":"城端","zip_code":"9391861"},{"name":"神宮寺","zip_code":"9391735"},{"name":"新邸","zip_code":"9391544"},{"name":"菅沼","zip_code":"9391973"},{"name":"寿川","zip_code":"9391903"},{"name":"杉尾","zip_code":"9391921"},{"name":"砂子谷","zip_code":"9391603"},{"name":"清玄寺","zip_code":"9320245"},{"name":"瀬戸","zip_code":"9391826"},{"name":"専勝寺","zip_code":"9320207"},{"name":"千福","zip_code":"9391831"},{"name":"千福新","zip_code":"9391831"},{"name":"祖谷","zip_code":"9391675"},{"name":"祖山","zip_code":"9391901"},{"name":"高儀","zip_code":"9391506"},{"name":"高窪","zip_code":"9391602"},{"name":"高瀬","zip_code":"9320252"},{"name":"高草嶺","zip_code":"9391906"},{"name":"高畠","zip_code":"9391714"},{"name":"高堀","zip_code":"9391511"},{"name":"高宮","zip_code":"9391741"},{"name":"高屋","zip_code":"9320201"},{"name":"竹内","zip_code":"9391664"},{"name":"竹林","zip_code":"9391734"},{"name":"田尻","zip_code":"9391538"},{"name":"舘","zip_code":"9391676"},{"name":"立野原西","zip_code":"9391755"},{"name":"立野原東","zip_code":"9391835"},{"name":"立野脇","zip_code":"9391766"},{"name":"田中","zip_code":"9391704"},{"name":"谷","zip_code":"9320242"},{"name":"田下","zip_code":"9391974"},{"name":"田向","zip_code":"9391913"},{"name":"田屋","zip_code":"9391537"},{"name":"長源寺","zip_code":"9391505"},{"name":"綱掛","zip_code":"9391765"},{"name":"坪野","zip_code":"9320218"},{"name":"出村","zip_code":"9391746"},{"name":"天神","zip_code":"9391661"},{"name":"戸板","zip_code":"9320253"},{"name":"東城寺","zip_code":"9320246"},{"name":"塔尾","zip_code":"9391832"},{"name":"刀利","zip_code":"9391766"},{"name":"利賀村","zip_code":"9392507"},{"name":"利賀村阿別当","zip_code":"9392517"},{"name":"利賀村岩渕","zip_code":"9392508"},{"name":"利賀村上畠","zip_code":"9392514"},{"name":"利賀村大牧","zip_code":"9320371"},{"name":"利賀村大豆谷","zip_code":"9392506"},{"name":"利賀村押場","zip_code":"9392504"},{"name":"利賀村上百瀬","zip_code":"9392513"},{"name":"利賀村北島","zip_code":"9392509"},{"name":"利賀村北原","zip_code":"9320371"},{"name":"利賀村北豆谷","zip_code":"9392505"},{"name":"利賀村栗当","zip_code":"9392501"},{"name":"利賀村坂上","zip_code":"9392516"},{"name":"利賀村下原","zip_code":"9320371"},{"name":"利賀村草嶺","zip_code":"9392503"},{"name":"利賀村大勘場","zip_code":"9392518"},{"name":"利賀村高沼","zip_code":"9392502"},{"name":"利賀村栃原","zip_code":"9320371"},{"name":"利賀村長崎","zip_code":"9320371"},{"name":"利賀村中村","zip_code":"9392512"},{"name":"利賀村細島","zip_code":"9392515"},{"name":"利賀村水無","zip_code":"9392519"},{"name":"利賀村百瀬川","zip_code":"9392511"},{"name":"利屋","zip_code":"9320206"},{"name":"徳成","zip_code":"9391722"},{"name":"殿","zip_code":"9391758"},{"name":"利波河","zip_code":"9391723"},{"name":"渡原","zip_code":"9391922"},{"name":"土山","zip_code":"9391604"},{"name":"中尾","zip_code":"9391828"},{"name":"中ノ江","zip_code":"9391625"},{"name":"中畑","zip_code":"9391924"},{"name":"梨谷","zip_code":"9391927"},{"name":"夏焼","zip_code":"9391907"},{"name":"七曲","zip_code":"9391762"},{"name":"七村滝寺","zip_code":"9391555"},{"name":"成出","zip_code":"9391963"},{"name":"縄蔵","zip_code":"9391745"},{"name":"西赤尾町","zip_code":"9391977"},{"name":"西原","zip_code":"9391837"},{"name":"年代","zip_code":"9391514"},{"name":"野口","zip_code":"9391844"},{"name":"苗島","zip_code":"9391521"},{"name":"野尻","zip_code":"9391502"},{"name":"野尻野","zip_code":"9391513"},{"name":"野新","zip_code":"9391522"},{"name":"野田","zip_code":"9391842"},{"name":"野能原","zip_code":"9320251"},{"name":"野原","zip_code":"9391523"},{"name":"信末","zip_code":"9391851"},{"name":"能美","zip_code":"9391606"},{"name":"畑方","zip_code":"9320225"},{"name":"八幡","zip_code":"9391624"},{"name":"土生","zip_code":"9391757"},{"name":"土生新","zip_code":"9391756"},{"name":"晩田","zip_code":"9391541"},{"name":"東赤尾","zip_code":"9391966"},{"name":"東石田","zip_code":"9391536"},{"name":"東殿","zip_code":"9391721"},{"name":"東中江","zip_code":"9391905"},{"name":"東西原","zip_code":"9391803"},{"name":"久戸","zip_code":"9391712"},{"name":"飛騨屋","zip_code":"9320204"},{"name":"人母","zip_code":"9391601"},{"name":"樋瀬戸","zip_code":"9391763"},{"name":"百町","zip_code":"9391517"},{"name":"広谷","zip_code":"9391672"},{"name":"広安","zip_code":"9391534"},{"name":"福野","zip_code":"9391561"},{"name":"福野軸屋","zip_code":"9391515"},{"name":"福光","zip_code":"9391610"},{"name":"福光新町","zip_code":"9391652"},{"name":"藤橋","zip_code":"9320224"},{"name":"二日町","zip_code":"9391507"},{"name":"太美","zip_code":"9391761"},{"name":"法林寺","zip_code":"9391626"},{"name":"細木","zip_code":"9391841"},{"name":"細野","zip_code":"9391805"},{"name":"布袋","zip_code":"9391545"},{"name":"堀道","zip_code":"9320233"},{"name":"本江","zip_code":"9391501"},{"name":"本町","zip_code":"9320217"},{"name":"前田","zip_code":"9391549"},{"name":"真木","zip_code":"9391965"},{"name":"正谷","zip_code":"9391813"},{"name":"松島","zip_code":"9320223"},{"name":"松木","zip_code":"9391623"},{"name":"松原","zip_code":"9391518"},{"name":"松原新","zip_code":"9391571"},{"name":"見座","zip_code":"9391916"},{"name":"三日町","zip_code":"9320236"},{"name":"三ツ屋","zip_code":"9391547"},{"name":"南原","zip_code":"9391835"},{"name":"蓑谷","zip_code":"9391812"},{"name":"宮後","zip_code":"9391879"},{"name":"六日町","zip_code":"9320235"},{"name":"葎島","zip_code":"9391972"},{"name":"宗守","zip_code":"9391715"},{"name":"森","zip_code":"9391546"},{"name":"森清","zip_code":"9391527"},{"name":"盛新","zip_code":"9391827"},{"name":"やかた","zip_code":"9391576"},{"name":"焼野","zip_code":"9391516"},{"name":"安居","zip_code":"9391554"},{"name":"安清","zip_code":"9391528"},{"name":"八塚","zip_code":"9391533"},{"name":"山下","zip_code":"9320215"},{"name":"山田","zip_code":"9391747"},{"name":"山斐","zip_code":"9320212"},{"name":"山見","zip_code":"9320231"},{"name":"山見町並","zip_code":"9320237"},{"name":"山本","zip_code":"9391666"},{"name":"湯谷","zip_code":"9391615"},{"name":"八日町","zip_code":"9320234"},{"name":"吉江中","zip_code":"9391702"},{"name":"吉江野","zip_code":"9391742"},{"name":"吉見","zip_code":"9391764"},{"name":"嫁兼","zip_code":"9391754"},{"name":"理休","zip_code":"9391811"},{"name":"林道","zip_code":"9391822"},{"name":"連代寺","zip_code":"9320244"}]},{"name":"射水市","divisions":[{"name":"青井谷","zip_code":"9390321"},{"name":"あおば台","zip_code":"9390247"},{"name":"赤井","zip_code":"9390287"},{"name":"足洗新町","zip_code":"9330241"},{"name":"荒町","zip_code":"9390412"},{"name":"有磯","zip_code":"9330251"},{"name":"池多","zip_code":"9390318"},{"name":"一条","zip_code":"9390332"},{"name":"市井","zip_code":"9390404"},{"name":"稲積","zip_code":"9390301"},{"name":"今井","zip_code":"9340046"},{"name":"今開発","zip_code":"9390286"},{"name":"射水町","zip_code":"9330227"},{"name":"犬内","zip_code":"9390231"},{"name":"梅木","zip_code":"9390415"},{"name":"上野","zip_code":"9390322"},{"name":"海老江","zip_code":"9330233"},{"name":"海老江七軒","zip_code":"9330234"},{"name":"海老江練合","zip_code":"9330235"},{"name":"海老江浜開","zip_code":"9330231"},{"name":"大江","zip_code":"9390302"},{"name":"大島北野","zip_code":"9390271"},{"name":"沖","zip_code":"9340045"},{"name":"沖塚原","zip_code":"9340055"},{"name":"海王町","zip_code":"9340023"},{"name":"開口","zip_code":"9390406"},{"name":"海竜町","zip_code":"9330222"},{"name":"鏡宮","zip_code":"9340049"},{"name":"鏡宮弥生","zip_code":"9340040"},{"name":"神楽町","zip_code":"9340054"},{"name":"片口","zip_code":"9340032"},{"name":"片口久々江","zip_code":"9340037"},{"name":"片口高場","zip_code":"9340036"},{"name":"加茂西部","zip_code":"9330205"},{"name":"加茂中部","zip_code":"9330204"},{"name":"加茂東部","zip_code":"9330203"},{"name":"かもめ台","zip_code":"9330240"},{"name":"川口","zip_code":"9340058"},{"name":"川口宮袋","zip_code":"9330058"},{"name":"北高木","zip_code":"9390281"},{"name":"北野","zip_code":"9390276"},{"name":"久々湊","zip_code":"9340039"},{"name":"草岡町","zip_code":"9330225"},{"name":"串田","zip_code":"9390413"},{"name":"串田新","zip_code":"9390416"},{"name":"倉垣小杉","zip_code":"9330206"},{"name":"黒河","zip_code":"9390311"},{"name":"黒河新","zip_code":"9390311"},{"name":"下条","zip_code":"9390252"},{"name":"下条新","zip_code":"9390331"},{"name":"小泉","zip_code":"9390417"},{"name":"越の潟町","zip_code":"9340024"},{"name":"小島","zip_code":"9390274"},{"name":"小杉北野","zip_code":"9390316"},{"name":"小杉白石","zip_code":"9390304"},{"name":"小林","zip_code":"9390288"},{"name":"桜町","zip_code":"9340015"},{"name":"三ケ","zip_code":"9390341"},{"name":"椎土","zip_code":"9390315"},{"name":"七美","zip_code":"9330252"},{"name":"七美中野","zip_code":"9330253"},{"name":"島","zip_code":"9390254"},{"name":"下村三箇","zip_code":"9330202"},{"name":"下若","zip_code":"9390243"},{"name":"宿屋","zip_code":"9390321"},{"name":"庄川本町","zip_code":"9340003"},{"name":"生源寺","zip_code":"9390403"},{"name":"生源寺新","zip_code":"9390414"},{"name":"上条","zip_code":"9390255"},{"name":"庄西町","zip_code":"9340001"},{"name":"浄土寺","zip_code":"9390321"},{"name":"白石","zip_code":"9330207"},{"name":"新開発","zip_code":"9390284"},{"name":"新片町","zip_code":"9340033"},{"name":"新堀","zip_code":"9340035"},{"name":"摺出寺","zip_code":"9330209"},{"name":"善光寺","zip_code":"9340005"},{"name":"太閤町","zip_code":"9390361"},{"name":"太閤山","zip_code":"9390362"},{"name":"大門","zip_code":"9390232"},{"name":"大門新","zip_code":"9390233"},{"name":"大門本江","zip_code":"9390246"},{"name":"高木","zip_code":"9340047"},{"name":"高場新町","zip_code":"9340034"},{"name":"竹鼻","zip_code":"9390407"},{"name":"立町","zip_code":"9340013"},{"name":"棚田","zip_code":"9390245"},{"name":"中央町","zip_code":"9340012"},{"name":"塚越","zip_code":"9390313"},{"name":"作道","zip_code":"9340041"},{"name":"津幡江","zip_code":"9340038"},{"name":"円池","zip_code":"9390411"},{"name":"手崎","zip_code":"9390306"},{"name":"寺塚原","zip_code":"9340056"},{"name":"土合","zip_code":"9390251"},{"name":"東明七軒","zip_code":"9330236"},{"name":"東明中町","zip_code":"9330238"},{"name":"東明西町","zip_code":"9330239"},{"name":"東明東町","zip_code":"9330237"},{"name":"土代","zip_code":"9390314"},{"name":"鳥取","zip_code":"9390283"},{"name":"殿村","zip_code":"9340044"},{"name":"中老田新","zip_code":"9390312"},{"name":"中新湊","zip_code":"9340027"},{"name":"中太閤山","zip_code":"9390363"},{"name":"中野","zip_code":"9390273"},{"name":"中村","zip_code":"9390241"},{"name":"奈呉の江","zip_code":"9340031"},{"name":"西新湊","zip_code":"9340004"},{"name":"西高木","zip_code":"9390303"},{"name":"西広上","zip_code":"9390257"},{"name":"二の丸町","zip_code":"9340026"},{"name":"入会地","zip_code":"9390321"},{"name":"布目","zip_code":"9340048"},{"name":"布目沢","zip_code":"9390418"},{"name":"野手","zip_code":"9390321"},{"name":"野村","zip_code":"9340043"},{"name":"橋下条","zip_code":"9390332"},{"name":"八幡町","zip_code":"9340025"},{"name":"八講","zip_code":"9330208"},{"name":"浜開新町","zip_code":"9330232"},{"name":"坂東","zip_code":"9340057"},{"name":"東太閤山","zip_code":"9390319"},{"name":"日宮","zip_code":"9390332"},{"name":"戸破","zip_code":"9390351"},{"name":"平野","zip_code":"9390323"},{"name":"広上","zip_code":"9390256"},{"name":"枇杷首","zip_code":"9390235"},{"name":"藤巻","zip_code":"9390405"},{"name":"二口","zip_code":"9390234"},{"name":"放生津町","zip_code":"9340022"},{"name":"朴木","zip_code":"9340053"},{"name":"堀内","zip_code":"9390253"},{"name":"堀江千石","zip_code":"9330226"},{"name":"堀岡","zip_code":"9330223"},{"name":"堀岡古明神","zip_code":"9330224"},{"name":"堀岡明神新","zip_code":"9330228"},{"name":"堀岡新明神","zip_code":"9340021"},{"name":"本開発","zip_code":"9390285"},{"name":"本江","zip_code":"9330244"},{"name":"本江北","zip_code":"9330244"},{"name":"本江三箇","zip_code":"9330244"},{"name":"本江利波","zip_code":"9330245"},{"name":"本江中","zip_code":"9330244"},{"name":"本江中新","zip_code":"9330247"},{"name":"本江西","zip_code":"9330244"},{"name":"本江後新","zip_code":"9330244"},{"name":"本江針山","zip_code":"9330248"},{"name":"本江針山新","zip_code":"9330249"},{"name":"本江針山開","zip_code":"9330242"},{"name":"本江東","zip_code":"9330244"},{"name":"本江南","zip_code":"9330244"},{"name":"本田","zip_code":"9390244"},{"name":"本町","zip_code":"9340011"},{"name":"松木","zip_code":"9340052"},{"name":"三日曽根","zip_code":"9340016"},{"name":"水戸田","zip_code":"9390401"},{"name":"緑町","zip_code":"9340014"},{"name":"港町","zip_code":"9340002"},{"name":"南太閤山","zip_code":"9390364"},{"name":"南高木","zip_code":"9390282"},{"name":"宮袋","zip_code":"9340051"},{"name":"安吉","zip_code":"9390242"},{"name":"八塚","zip_code":"9390275"},{"name":"山本新","zip_code":"9390317"},{"name":"山屋","zip_code":"9330201"},{"name":"流通センター水戸田","zip_code":"9390402"},{"name":"流通センター","zip_code":"9390321"},{"name":"若杉","zip_code":"9390272"},{"name":"若林","zip_code":"9390408"},{"name":"鷲塚","zip_code":"9390305"}]},{"name":"中新川郡舟橋村","divisions":[{"name":"稲荷","zip_code":"9300287"},{"name":"海老江","zip_code":"9300283"},{"name":"国重","zip_code":"9300288"},{"name":"竹内","zip_code":"9300289"},{"name":"竹鼻","zip_code":"9300284"},{"name":"東芦原","zip_code":"9300286"},{"name":"仏生寺","zip_code":"9300282"},{"name":"舟橋","zip_code":"9300281"},{"name":"古海老江","zip_code":"9300285"}]},{"name":"中新川郡上市町","divisions":[{"name":"相ノ木新町","zip_code":"9300374"},{"name":"青出新","zip_code":"9300384"},{"name":"旭町","zip_code":"9300331"},{"name":"浅生","zip_code":"9300464"},{"name":"新清水","zip_code":"9300377"},{"name":"新屋","zip_code":"9300471"},{"name":"荒田","zip_code":"9300305"},{"name":"飯坂","zip_code":"9300385"},{"name":"飯坂新","zip_code":"9300387"},{"name":"伊折","zip_code":"9300437"},{"name":"石浦町","zip_code":"9300332"},{"name":"石仏","zip_code":"9300302"},{"name":"一の越","zip_code":"9300413"},{"name":"稲村","zip_code":"9300432"},{"name":"永代","zip_code":"9300414"},{"name":"江上","zip_code":"9300318"},{"name":"江又","zip_code":"9300317"},{"name":"大岩","zip_code":"9300463"},{"name":"大沢","zip_code":"9300465"},{"name":"大坪","zip_code":"9300354"},{"name":"大松","zip_code":"9300462"},{"name":"大松新","zip_code":"9300461"},{"name":"大永田","zip_code":"9300303"},{"name":"女川","zip_code":"9300472"},{"name":"折戸","zip_code":"9300435"},{"name":"柿沢","zip_code":"9300473"},{"name":"柿沢新","zip_code":"9300406"},{"name":"鍵町","zip_code":"9300346"},{"name":"片地","zip_code":"9300421"},{"name":"上荒又","zip_code":"9300375"},{"name":"上経田","zip_code":"9300372"},{"name":"上正","zip_code":"9300356"},{"name":"上中町","zip_code":"9300333"},{"name":"上法音寺","zip_code":"9300352"},{"name":"川原田","zip_code":"9300368"},{"name":"北島","zip_code":"9300351"},{"name":"熊野町","zip_code":"9300347"},{"name":"黒川","zip_code":"9300416"},{"name":"下田","zip_code":"9300434"},{"name":"五位尾","zip_code":"9300417"},{"name":"郷柿沢","zip_code":"9300405"},{"name":"極楽寺","zip_code":"9300451"},{"name":"骨原","zip_code":"9300443"},{"name":"護摩堂","zip_code":"9360891"},{"name":"斉ノ神新","zip_code":"9300424"},{"name":"幸町","zip_code":"9300335"},{"name":"栄町","zip_code":"9300322"},{"name":"眼目","zip_code":"9300422"},{"name":"眼目新","zip_code":"9300458"},{"name":"塩谷","zip_code":"9300467"},{"name":"下青出","zip_code":"9300382"},{"name":"下荒又","zip_code":"9300376"},{"name":"下経田","zip_code":"9300373"},{"name":"釈泉寺","zip_code":"9300431"},{"name":"正印","zip_code":"9300357"},{"name":"正印新","zip_code":"9300358"},{"name":"上条沖","zip_code":"9300383"},{"name":"神田","zip_code":"9300365"},{"name":"新町","zip_code":"9300324"},{"name":"新村","zip_code":"9300366"},{"name":"神明町","zip_code":"9300342"},{"name":"砂林開","zip_code":"9300411"},{"name":"須山","zip_code":"9300452"},{"name":"千石","zip_code":"9300442"},{"name":"竹鼻","zip_code":"9300301"},{"name":"田島野","zip_code":"9300425"},{"name":"舘","zip_code":"9300474"},{"name":"堤谷","zip_code":"9300453"},{"name":"天神町","zip_code":"9300321"},{"name":"中青出","zip_code":"9300386"},{"name":"中江上","zip_code":"9300313"},{"name":"中開発","zip_code":"9300371"},{"name":"中小泉","zip_code":"9300316"},{"name":"中村","zip_code":"9300433"},{"name":"錦町","zip_code":"9300341"},{"name":"西種","zip_code":"9300444"},{"name":"西町","zip_code":"9300323"},{"name":"西中町","zip_code":"9300334"},{"name":"野開発","zip_code":"9300403"},{"name":"野島","zip_code":"9300423"},{"name":"野福","zip_code":"9300367"},{"name":"馬場島","zip_code":"9300438"},{"name":"稗田","zip_code":"9300362"},{"name":"東江上","zip_code":"9300312"},{"name":"東種","zip_code":"9300441"},{"name":"東町","zip_code":"9300343"},{"name":"久金","zip_code":"9300381"},{"name":"久金新","zip_code":"9300388"},{"name":"桧谷","zip_code":"9300466"},{"name":"広市新","zip_code":"9300402"},{"name":"広野","zip_code":"9300412"},{"name":"広野新","zip_code":"9300401"},{"name":"法音寺","zip_code":"9300353"},{"name":"放士ケ瀬","zip_code":"9300378"},{"name":"放士ケ瀬新","zip_code":"9300379"},{"name":"松原野","zip_code":"9300415"},{"name":"松和町","zip_code":"9300336"},{"name":"丸山","zip_code":"9300456"},{"name":"水上","zip_code":"9300445"},{"name":"三杉町","zip_code":"9300404"},{"name":"三日市","zip_code":"9300325"},{"name":"南町","zip_code":"9300345"},{"name":"森尻","zip_code":"9300304"},{"name":"森元町","zip_code":"9300344"},{"name":"弥市","zip_code":"9300311"},{"name":"柳町","zip_code":"9300326"},{"name":"湯上野","zip_code":"9300361"},{"name":"湯崎野","zip_code":"9300455"},{"name":"湯神子","zip_code":"9300454"},{"name":"湯神子野","zip_code":"9300457"},{"name":"横越","zip_code":"9300364"},{"name":"横法音寺","zip_code":"9300355"},{"name":"蓬沢","zip_code":"9300436"},{"name":"若杉","zip_code":"9300314"},{"name":"若杉新","zip_code":"9300315"},{"name":"和合","zip_code":"9300363"}]},{"name":"中新川郡立山町","divisions":[{"name":"芦峅寺","zip_code":"9301406"},{"name":"芦見","zip_code":"9303242"},{"name":"浅生","zip_code":"9300271"},{"name":"池田","zip_code":"9303239"},{"name":"石坂","zip_code":"9303215"},{"name":"伊豆林","zip_code":"9301361"},{"name":"泉","zip_code":"9300201"},{"name":"伊勢屋","zip_code":"9303234"},{"name":"一本木","zip_code":"9300256"},{"name":"鋳物師沢","zip_code":"9300246"},{"name":"岩峅寺","zip_code":"9301368"},{"name":"岩峅野","zip_code":"9301369"},{"name":"浦田","zip_code":"9300208"},{"name":"浦田新","zip_code":"9300207"},{"name":"上末","zip_code":"9303245"},{"name":"江崎","zip_code":"9303267"},{"name":"榎","zip_code":"9300235"},{"name":"大石原","zip_code":"9300261"},{"name":"大窪","zip_code":"9300216"},{"name":"大窪開","zip_code":"9300253"},{"name":"大島","zip_code":"9300251"},{"name":"大清水","zip_code":"9300263"},{"name":"女川新","zip_code":"9303202"},{"name":"小又","zip_code":"9303236"},{"name":"柿の木沢","zip_code":"9300237"},{"name":"桂台","zip_code":"9301402"},{"name":"上金剛寺","zip_code":"9300233"},{"name":"上瀬戸","zip_code":"9303244"},{"name":"上中","zip_code":"9303251"},{"name":"上福来","zip_code":"9303203"},{"name":"上鉾木","zip_code":"9300223"},{"name":"上宮","zip_code":"9303254"},{"name":"川原木","zip_code":"9300257"},{"name":"草野","zip_code":"9300227"},{"name":"蔵本新","zip_code":"9300262"},{"name":"小林","zip_code":"9303255"},{"name":"五百石","zip_code":"9300214"},{"name":"五郎丸","zip_code":"9300274"},{"name":"金剛寺","zip_code":"9300232"},{"name":"金剛新","zip_code":"9303262"},{"name":"坂井沢","zip_code":"9300231"},{"name":"座主坊","zip_code":"9303238"},{"name":"沢新","zip_code":"9303264"},{"name":"沢中山","zip_code":"9300245"},{"name":"沢端","zip_code":"9300212"},{"name":"下段","zip_code":"9300234"},{"name":"四谷尾","zip_code":"9303221"},{"name":"柴山","zip_code":"9303212"},{"name":"下沢","zip_code":"9303241"},{"name":"下白岩","zip_code":"9303214"},{"name":"下新","zip_code":"9303208"},{"name":"下瀬戸","zip_code":"9303243"},{"name":"称名","zip_code":"9301401"},{"name":"白岩","zip_code":"9303224"},{"name":"新瀬戸","zip_code":"9303248"},{"name":"新堀","zip_code":"9300236"},{"name":"末上野","zip_code":"9303252"},{"name":"末三賀","zip_code":"9300247"},{"name":"末谷口","zip_code":"9300244"},{"name":"瀬戸新","zip_code":"9303247"},{"name":"千寿ケ原","zip_code":"9301405"},{"name":"高原","zip_code":"9303201"},{"name":"高原八ツ屋","zip_code":"9300268"},{"name":"竹鼻新","zip_code":"9300206"},{"name":"竹林","zip_code":"9303206"},{"name":"田添","zip_code":"9300219"},{"name":"立山頂上","zip_code":"9301418"},{"name":"谷","zip_code":"9303233"},{"name":"谷口","zip_code":"9303222"},{"name":"手屋","zip_code":"9300228"},{"name":"千垣","zip_code":"9301408"},{"name":"塚越","zip_code":"9300272"},{"name":"辻","zip_code":"9300211"},{"name":"剣御前","zip_code":"9301416"},{"name":"剣沢","zip_code":"9301417"},{"name":"寺田","zip_code":"9300204"},{"name":"寺田ことぶき町","zip_code":"9300209"},{"name":"寺田新","zip_code":"9300205"},{"name":"寺坪","zip_code":"9300242"},{"name":"天狗平","zip_code":"9301413"},{"name":"天林","zip_code":"9301364"},{"name":"道源寺","zip_code":"9300241"},{"name":"道新","zip_code":"9300226"},{"name":"栃津","zip_code":"9301363"},{"name":"泊新","zip_code":"9300265"},{"name":"長倉","zip_code":"9303235"},{"name":"中林","zip_code":"9303246"},{"name":"長屋","zip_code":"9303253"},{"name":"中山","zip_code":"9300245"},{"name":"半屋","zip_code":"9300269"},{"name":"西芦原","zip_code":"9300224"},{"name":"西大森","zip_code":"9300267"},{"name":"日中","zip_code":"9303211"},{"name":"日中上野","zip_code":"9303213"},{"name":"貫田","zip_code":"9300222"},{"name":"野口","zip_code":"9300217"},{"name":"野口新","zip_code":"9300213"},{"name":"野沢","zip_code":"9303217"},{"name":"野町","zip_code":"9303261"},{"name":"野村","zip_code":"9300248"},{"name":"東大森","zip_code":"9300264"},{"name":"東中野新","zip_code":"9301365"},{"name":"東野","zip_code":"9303204"},{"name":"美女平","zip_code":"9301411"},{"name":"日俣","zip_code":"9300252"},{"name":"福田","zip_code":"9303216"},{"name":"福来","zip_code":"9303205"},{"name":"藤橋","zip_code":"9301404"},{"name":"二ツ塚","zip_code":"9300218"},{"name":"淵上","zip_code":"9303263"},{"name":"ブナ坂","zip_code":"9301403"},{"name":"古川","zip_code":"9300254"},{"name":"鉾ノ木","zip_code":"9300276"},{"name":"本郷島","zip_code":"9300225"},{"name":"前沢","zip_code":"9300221"},{"name":"前沢新","zip_code":"9303266"},{"name":"前沢新町","zip_code":"9300229"},{"name":"前谷","zip_code":"9301407"},{"name":"松倉","zip_code":"9303237"},{"name":"下田","zip_code":"9301361"},{"name":"弥陀ケ原","zip_code":"9301412"},{"name":"三ツ塚","zip_code":"9300266"},{"name":"三ツ塚新","zip_code":"9300266"},{"name":"宮路","zip_code":"9301367"},{"name":"宮成","zip_code":"9300215"},{"name":"向新庄","zip_code":"9300255"},{"name":"虫谷","zip_code":"9303223"},{"name":"室堂","zip_code":"9301414"},{"name":"目桑","zip_code":"9303232"},{"name":"横江","zip_code":"9303277"},{"name":"横江野開","zip_code":"9301366"},{"name":"横沢","zip_code":"9300273"},{"name":"吉峰野開","zip_code":"9301362"},{"name":"米沢","zip_code":"9303265"},{"name":"米道","zip_code":"9301362"},{"name":"雷鳥沢","zip_code":"9301415"},{"name":"利田","zip_code":"9300275"},{"name":"六郎谷","zip_code":"9303231"},{"name":"若林","zip_code":"9300203"},{"name":"若宮","zip_code":"9300202"}]},{"name":"下新川郡入善町","divisions":[{"name":"青木","zip_code":"9390643"},{"name":"青木新","zip_code":"9390646"},{"name":"青島","zip_code":"9390624"},{"name":"芦崎","zip_code":"9390667"},{"name":"荒又","zip_code":"9390621"},{"name":"新屋","zip_code":"9390637"},{"name":"五十里","zip_code":"9390679"},{"name":"板屋","zip_code":"9390654"},{"name":"一宿","zip_code":"9390636"},{"name":"今江","zip_code":"9380101"},{"name":"浦山新","zip_code":"9390633"},{"name":"上野","zip_code":"9390642"},{"name":"春日","zip_code":"9390617"},{"name":"上飯野","zip_code":"9390653"},{"name":"上飯野新","zip_code":"9390651"},{"name":"神林","zip_code":"9390625"},{"name":"木根","zip_code":"9390677"},{"name":"君島","zip_code":"9390614"},{"name":"椚山","zip_code":"9390627"},{"name":"椚山新","zip_code":"9390628"},{"name":"小杉","zip_code":"9390623"},{"name":"小摺戸","zip_code":"9390634"},{"name":"五郎八","zip_code":"9390655"},{"name":"笹原","zip_code":"9390656"},{"name":"下飯野","zip_code":"9390663"},{"name":"下飯野新","zip_code":"9390662"},{"name":"下上野","zip_code":"9390641"},{"name":"袖沢","zip_code":"9390652"},{"name":"高瀬","zip_code":"9390661"},{"name":"高畠","zip_code":"9390666"},{"name":"田中","zip_code":"9390672"},{"name":"田の又","zip_code":"9390613"},{"name":"道市","zip_code":"9390675"},{"name":"道古","zip_code":"9390647"},{"name":"東狐","zip_code":"9390657"},{"name":"中沢","zip_code":"9380105"},{"name":"下山","zip_code":"9390631"},{"name":"西中","zip_code":"9380104"},{"name":"入膳","zip_code":"9390626"},{"name":"野中","zip_code":"9380106"},{"name":"墓ノ木","zip_code":"9390632"},{"name":"東五十里","zip_code":"9390671"},{"name":"日吉","zip_code":"9390622"},{"name":"福島","zip_code":"9390645"},{"name":"福島新","zip_code":"9390644"},{"name":"藤原","zip_code":"9390612"},{"name":"舟見","zip_code":"9380103"},{"name":"古黒部","zip_code":"9390611"},{"name":"古林","zip_code":"9380102"},{"name":"蛇沢","zip_code":"9390664"},{"name":"本村","zip_code":"9390665"},{"name":"神子沢","zip_code":"9390678"},{"name":"目川","zip_code":"9390676"},{"name":"八幡","zip_code":"9390615"},{"name":"横山","zip_code":"9390616"},{"name":"吉原","zip_code":"9390674"},{"name":"吉原東","zip_code":"9390673"},{"name":"若栗新","zip_code":"9390635"}]},{"name":"下新川郡朝日町","divisions":[{"name":"赤川","zip_code":"9390735"},{"name":"荒川","zip_code":"9390746"},{"name":"石谷","zip_code":"9390717"},{"name":"大家庄","zip_code":"9390722"},{"name":"金山","zip_code":"9390727"},{"name":"草野","zip_code":"9390734"},{"name":"窪田","zip_code":"9390728"},{"name":"境","zip_code":"9390704"},{"name":"桜町","zip_code":"9390714"},{"name":"笹川","zip_code":"9390711"},{"name":"山王","zip_code":"9380167"},{"name":"三枚橋","zip_code":"9390721"},{"name":"下野","zip_code":"9380169"},{"name":"大屋","zip_code":"9390747"},{"name":"大屋新","zip_code":"9390748"},{"name":"大平","zip_code":"9390705"},{"name":"高橋","zip_code":"9390725"},{"name":"棚山","zip_code":"9380164"},{"name":"月山","zip_code":"9390733"},{"name":"月山新","zip_code":"9390737"},{"name":"道下","zip_code":"9390743"},{"name":"殿町","zip_code":"9380161"},{"name":"泊","zip_code":"9390741"},{"name":"泊新","zip_code":"9390749"},{"name":"中草野","zip_code":"9390732"},{"name":"長野","zip_code":"9390713"},{"name":"南保","zip_code":"9390715"},{"name":"南保町","zip_code":"9390716"},{"name":"下山新","zip_code":"9390726"},{"name":"西町","zip_code":"9390745"},{"name":"沼保","zip_code":"9390742"},{"name":"野新","zip_code":"9390751"},{"name":"浜草野","zip_code":"9390736"},{"name":"東草野","zip_code":"9390731"},{"name":"平柳","zip_code":"9390744"},{"name":"蛭谷","zip_code":"9390712"},{"name":"藤塚","zip_code":"9380168"},{"name":"不動堂","zip_code":"9390723"},{"name":"舟川新","zip_code":"9390729"},{"name":"細野","zip_code":"9380166"},{"name":"宮崎","zip_code":"9390703"},{"name":"元屋敷","zip_code":"9390702"},{"name":"山崎","zip_code":"9380162"},{"name":"山崎新","zip_code":"9380165"},{"name":"湯ノ瀬","zip_code":"9380163"},{"name":"横尾","zip_code":"9390701"},{"name":"横水","zip_code":"9390724"}]}]}