{"name":"石川県","cities":[{"name":"金沢市","divisions":[{"name":"青草町","zip_code":"9200907"},{"name":"相合谷町","zip_code":"9201322"},{"name":"暁町","zip_code":"9200926"},{"name":"赤土町","zip_code":"9200353"},{"name":"浅丘町","zip_code":"9200111"},{"name":"朝加屋町","zip_code":"9201132"},{"name":"浅川町","zip_code":"9201145"},{"name":"浅野本町","zip_code":"9200841"},{"name":"朝日牧町","zip_code":"9200126"},{"name":"旭町","zip_code":"9200941"},{"name":"小豆沢町","zip_code":"9201107"},{"name":"油車","zip_code":"9200996"},{"name":"天池町","zip_code":"9201331"},{"name":"荒屋","zip_code":"9203124"},{"name":"荒屋町","zip_code":"9203125"},{"name":"荒山町","zip_code":"9201101"},{"name":"有松","zip_code":"9218161"},{"name":"粟崎町","zip_code":"9200226"},{"name":"粟崎浜町","zip_code":"9200227"},{"name":"池田町一番丁","zip_code":"9200983"},{"name":"池田町二番丁","zip_code":"9200984"},{"name":"池田町三番丁","zip_code":"9200985"},{"name":"池田町四番丁","zip_code":"9200986"},{"name":"池田町立丁","zip_code":"9200987"},{"name":"石黒町","zip_code":"9201115"},{"name":"石引","zip_code":"9200935"},{"name":"泉","zip_code":"9218041"},{"name":"泉が丘","zip_code":"9218035"},{"name":"泉野出町","zip_code":"9218116"},{"name":"泉野町","zip_code":"9218034"},{"name":"泉本町","zip_code":"9218042"},{"name":"出雲町","zip_code":"9200056"},{"name":"磯部町","zip_code":"9200012"},{"name":"板ケ谷町","zip_code":"9201116"},{"name":"市瀬町","zip_code":"9200145"},{"name":"糸田","zip_code":"9218014"},{"name":"糸田新町","zip_code":"9218026"},{"name":"いなほ","zip_code":"9200378"},{"name":"茨木町","zip_code":"9200994"},{"name":"今泉町","zip_code":"9200125"},{"name":"今昭町","zip_code":"9200008"},{"name":"今町","zip_code":"9200106"},{"name":"入江","zip_code":"9218011"},{"name":"岩出町","zip_code":"9200171"},{"name":"上野本町","zip_code":"9200943"},{"name":"上山町","zip_code":"9201113"},{"name":"魚帰町","zip_code":"9201111"},{"name":"鶯町","zip_code":"9200837"},{"name":"卯辰町","zip_code":"9200832"},{"name":"打尾町","zip_code":"9201149"},{"name":"打木町","zip_code":"9200377"},{"name":"畝田中","zip_code":"9200343"},{"name":"畝田町","zip_code":"9200342"},{"name":"畝田東","zip_code":"9200344"},{"name":"畝田西","zip_code":"9200342"},{"name":"梅田町","zip_code":"9203111"},{"name":"鱗町","zip_code":"9200971"},{"name":"上平町","zip_code":"9200122"},{"name":"永安町","zip_code":"9201301"},{"name":"駅西新町","zip_code":"9200027"},{"name":"駅西本町","zip_code":"9200025"},{"name":"枝町","zip_code":"9200973"},{"name":"榎尾町","zip_code":"9200112"},{"name":"円光寺","zip_code":"9218173"},{"name":"円光寺本町","zip_code":"9218176"},{"name":"小池町","zip_code":"9200162"},{"name":"扇町","zip_code":"9200927"},{"name":"大浦町","zip_code":"9200205"},{"name":"大桑","zip_code":"9218045"},{"name":"大桑新町","zip_code":"9200945"},{"name":"大桑町","zip_code":"9218046"},{"name":"大手町","zip_code":"9200912"},{"name":"大友","zip_code":"9208205"},{"name":"大友町","zip_code":"9208222"},{"name":"大額","zip_code":"9218147"},{"name":"大額町","zip_code":"9218143"},{"name":"大野町","zip_code":"9200231"},{"name":"大野町新町","zip_code":"9200225"},{"name":"大場町","zip_code":"9203121"},{"name":"大樋町","zip_code":"9200818"},{"name":"大平沢町","zip_code":"9201335"},{"name":"沖町","zip_code":"9200013"},{"name":"奥新保町","zip_code":"9201101"},{"name":"大河端町","zip_code":"9200213"},{"name":"押野","zip_code":"9218056"},{"name":"鴛原町","zip_code":"9201324"},{"name":"乙丸町","zip_code":"9200807"},{"name":"小原町","zip_code":"9201343"},{"name":"大菱池町","zip_code":"9201111"},{"name":"尾山町","zip_code":"9200918"},{"name":"折谷町","zip_code":"9201112"},{"name":"尾張町","zip_code":"9200902"},{"name":"加賀朝日町","zip_code":"9200114"},{"name":"蚊爪町","zip_code":"9200208"},{"name":"柿木畠","zip_code":"9200999"},{"name":"角間新町","zip_code":"9201163"},{"name":"角間町","zip_code":"9201164"},{"name":"笠市町","zip_code":"9200851"},{"name":"笠舞","zip_code":"9200965"},{"name":"笠舞本町","zip_code":"9200947"},{"name":"樫見町","zip_code":"9201332"},{"name":"主計町","zip_code":"9200908"},{"name":"春日町","zip_code":"9200817"},{"name":"堅田町","zip_code":"9200164"},{"name":"かたつ","zip_code":"9200219"},{"name":"片町","zip_code":"9200981"},{"name":"桂町","zip_code":"9200334"},{"name":"金市町","zip_code":"9203134"},{"name":"金石本町","zip_code":"9200336"},{"name":"金石東","zip_code":"9200335"},{"name":"金石西","zip_code":"9200337"},{"name":"金石北","zip_code":"9200338"},{"name":"金川町","zip_code":"9201148"},{"name":"上荒屋","zip_code":"9218065"},{"name":"上近江町","zip_code":"9200905"},{"name":"上柿木畠","zip_code":"9200992"},{"name":"上辰巳町","zip_code":"9201304"},{"name":"上堤町","zip_code":"9200869"},{"name":"上中町","zip_code":"9201146"},{"name":"神野","zip_code":"9200368"},{"name":"神野町","zip_code":"9200365"},{"name":"上安原","zip_code":"9200370"},{"name":"上安原町","zip_code":"9200374"},{"name":"上安原南","zip_code":"9200374"},{"name":"神谷内町","zip_code":"9200801"},{"name":"上若松町","zip_code":"9201166"},{"name":"上涌波町","zip_code":"9200175"},{"name":"川岸町","zip_code":"9200974"},{"name":"河原市町","zip_code":"9200172"},{"name":"神田","zip_code":"9218027"},{"name":"観音堂町","zip_code":"9200352"},{"name":"観音町","zip_code":"9200838"},{"name":"上原町","zip_code":"9201125"},{"name":"観法寺町","zip_code":"9203112"},{"name":"菊川","zip_code":"9200967"},{"name":"木倉町","zip_code":"9200988"},{"name":"木越","zip_code":"9200202"},{"name":"木越町","zip_code":"9200201"},{"name":"岸川町","zip_code":"9200102"},{"name":"北方町","zip_code":"9200143"},{"name":"北千石町","zip_code":"9200128"},{"name":"北塚町","zip_code":"9200367"},{"name":"北寺町","zip_code":"9200206"},{"name":"北袋町","zip_code":"9201135"},{"name":"北町","zip_code":"9200055"},{"name":"北間町","zip_code":"9200212"},{"name":"北森本町","zip_code":"9203117"},{"name":"北安江","zip_code":"9200022"},{"name":"北安江町","zip_code":"9200023"},{"name":"木ノ新保町","zip_code":"9200858"},{"name":"京町","zip_code":"9200848"},{"name":"清川町","zip_code":"9218032"},{"name":"清瀬町","zip_code":"9218122"},{"name":"桐山町","zip_code":"9200163"},{"name":"国見町","zip_code":"9201333"},{"name":"窪","zip_code":"9218151"},{"name":"熊走町","zip_code":"9201326"},{"name":"倉ケ嶽","zip_code":"9218124"},{"name":"鞍月","zip_code":"9208203"},{"name":"鞍月東","zip_code":"9208201"},{"name":"車町","zip_code":"9200157"},{"name":"黒田","zip_code":"9218051"},{"name":"兼六町","zip_code":"9200936"},{"name":"兼六元町","zip_code":"9200931"},{"name":"香林坊","zip_code":"9200961"},{"name":"小金町","zip_code":"9200805"},{"name":"古郷町","zip_code":"9201114"},{"name":"御供田町","zip_code":"9208221"},{"name":"小坂町","zip_code":"9200811"},{"name":"小将町","zip_code":"9200932"},{"name":"御所町","zip_code":"9200813"},{"name":"小立野","zip_code":"9200942"},{"name":"琴坂町","zip_code":"9200129"},{"name":"琴町","zip_code":"9200121"},{"name":"湖南町","zip_code":"9203107"},{"name":"此花町","zip_code":"9200852"},{"name":"小野町","zip_code":"9200168"},{"name":"小橋町","zip_code":"9200844"},{"name":"小菱池町","zip_code":"9201111"},{"name":"小二又町","zip_code":"9200826"},{"name":"古府","zip_code":"9200362"},{"name":"古府町","zip_code":"9200362"},{"name":"駒帰町","zip_code":"9201313"},{"name":"小嶺町","zip_code":"9200144"},{"name":"湖陽","zip_code":"9203103"},{"name":"子来町","zip_code":"9200836"},{"name":"五郎島町","zip_code":"9200224"},{"name":"才田町","zip_code":"9203101"},{"name":"西念","zip_code":"9200024"},{"name":"西念町","zip_code":"9200026"},{"name":"材木町","zip_code":"9200921"},{"name":"幸町","zip_code":"9200968"},{"name":"佐奇森町","zip_code":"9200357"},{"name":"桜田町","zip_code":"9200057"},{"name":"桜町","zip_code":"9200923"},{"name":"里見町","zip_code":"9200998"},{"name":"醒ケ井町","zip_code":"9200034"},{"name":"三社町","zip_code":"9200861"},{"name":"三十苅町","zip_code":"9218131"},{"name":"山王町","zip_code":"9200821"},{"name":"四王寺町","zip_code":"9200166"},{"name":"四十万","zip_code":"9218135"},{"name":"しじま台","zip_code":"9218132"},{"name":"四十万町","zip_code":"9218133"},{"name":"地代町","zip_code":"9200116"},{"name":"寺中町","zip_code":"9200341"},{"name":"十間町","zip_code":"9200906"},{"name":"芝原町","zip_code":"9201129"},{"name":"四坊高坂町","zip_code":"9200104"},{"name":"四坊町","zip_code":"9200104"},{"name":"清水谷町","zip_code":"9200132"},{"name":"清水町","zip_code":"9201104"},{"name":"示野中町","zip_code":"9200058"},{"name":"示野町","zip_code":"9200059"},{"name":"下石引町","zip_code":"9200939"},{"name":"下近江町","zip_code":"9200904"},{"name":"下鴛原町","zip_code":"9201323"},{"name":"下柿木畠","zip_code":"9200991"},{"name":"下新町","zip_code":"9200910"},{"name":"下谷町","zip_code":"9201127"},{"name":"下堤町","zip_code":"9200917"},{"name":"下本多町","zip_code":"9200993"},{"name":"下松原町","zip_code":"9200916"},{"name":"下安原町","zip_code":"9200371"},{"name":"下涌波町","zip_code":"9200176"},{"name":"十一屋町","zip_code":"9218106"},{"name":"十三間町","zip_code":"9200976"},{"name":"十三間町中丁","zip_code":"9200977"},{"name":"昌永町","zip_code":"9200846"},{"name":"城南","zip_code":"9200966"},{"name":"正部町","zip_code":"9200154"},{"name":"城力町","zip_code":"9201325"},{"name":"昭和町","zip_code":"9200856"},{"name":"白菊町","zip_code":"9218024"},{"name":"白見町","zip_code":"9201126"},{"name":"新神田","zip_code":"9218013"},{"name":"神宮寺","zip_code":"9200806"},{"name":"神宮寺町","zip_code":"9200803"},{"name":"新竪町","zip_code":"9200995"},{"name":"新保本","zip_code":"9218062"},{"name":"新保町","zip_code":"9201345"},{"name":"進和町","zip_code":"9218006"},{"name":"末広町","zip_code":"9200833"},{"name":"末町","zip_code":"9201302"},{"name":"菅池町","zip_code":"9201311"},{"name":"杉浦町","zip_code":"9200972"},{"name":"須崎町","zip_code":"9200207"},{"name":"折違町","zip_code":"9200857"},{"name":"鈴見台","zip_code":"9201161"},{"name":"鈴見町","zip_code":"9201162"},{"name":"砂子坂町","zip_code":"9201101"},{"name":"住吉町","zip_code":"9201344"},{"name":"西都","zip_code":"9208202"},{"name":"千木","zip_code":"9200002"},{"name":"千木町","zip_code":"9200001"},{"name":"瀬領町","zip_code":"9201312"},{"name":"専光寺町","zip_code":"9200356"},{"name":"千田町","zip_code":"9200204"},{"name":"千日町","zip_code":"9218023"},{"name":"千杉町","zip_code":"9200115"},{"name":"大工町","zip_code":"9200982"},{"name":"田井町","zip_code":"9200924"},{"name":"太陽が丘","zip_code":"9201154"},{"name":"平等本町","zip_code":"9201141"},{"name":"平町","zip_code":"9201334"},{"name":"大和町","zip_code":"9200046"},{"name":"高池町","zip_code":"9201143"},{"name":"高尾","zip_code":"9218152"},{"name":"高岡町","zip_code":"9200864"},{"name":"高尾台","zip_code":"9218155"},{"name":"高尾町","zip_code":"9218153"},{"name":"高尾南","zip_code":"9218154"},{"name":"高坂町","zip_code":"9200155"},{"name":"高畠","zip_code":"9218001"},{"name":"高柳町","zip_code":"9200005"},{"name":"宝町","zip_code":"9200934"},{"name":"田上","zip_code":"9201152"},{"name":"田上新町","zip_code":"9201153"},{"name":"田上本町","zip_code":"9201155"},{"name":"田上町","zip_code":"9201151"},{"name":"滝下町","zip_code":"9200123"},{"name":"竹又町","zip_code":"9200137"},{"name":"忠縄町","zip_code":"9203102"},{"name":"舘町","zip_code":"9200957"},{"name":"舘山町","zip_code":"9200956"},{"name":"辰巳町","zip_code":"9201303"},{"name":"竪町","zip_code":"9200997"},{"name":"田中町","zip_code":"9200007"},{"name":"田島町","zip_code":"9201103"},{"name":"玉川町","zip_code":"9200863"},{"name":"玉鉾","zip_code":"9218002"},{"name":"玉鉾町","zip_code":"9218003"},{"name":"俵原町","zip_code":"9200113"},{"name":"俵町","zip_code":"9201108"},{"name":"近岡町","zip_code":"9208217"},{"name":"茅原町","zip_code":"9201138"},{"name":"中央通町","zip_code":"9200866"},{"name":"銚子町","zip_code":"9201147"},{"name":"塚崎町","zip_code":"9203113"},{"name":"月浦町","zip_code":"9200178"},{"name":"月影町","zip_code":"9200105"},{"name":"土子原町","zip_code":"9200135"},{"name":"土清水","zip_code":"9200955"},{"name":"つつじが丘","zip_code":"9218103"},{"name":"鞁筒町","zip_code":"9200161"},{"name":"坪野町","zip_code":"9218123"},{"name":"釣部町","zip_code":"9200825"},{"name":"寺地","zip_code":"9218178"},{"name":"寺津町","zip_code":"9201315"},{"name":"寺町","zip_code":"9218033"},{"name":"天神町","zip_code":"9200925"},{"name":"出羽町","zip_code":"9200963"},{"name":"伝燈寺町","zip_code":"9200824"},{"name":"問屋町","zip_code":"9200061"},{"name":"東力","zip_code":"9218015"},{"name":"東力町","zip_code":"9218016"},{"name":"藤六町","zip_code":"9201133"},{"name":"富樫","zip_code":"9218171"},{"name":"常盤町","zip_code":"9200834"},{"name":"利屋町","zip_code":"9200101"},{"name":"飛梅町","zip_code":"9200938"},{"name":"戸水","zip_code":"9208204"},{"name":"戸水町","zip_code":"9200223"},{"name":"戸室新保","zip_code":"9201105"},{"name":"戸室別所","zip_code":"9201106"},{"name":"豊穂町","zip_code":"9200372"},{"name":"直江北","zip_code":"9208218"},{"name":"直江野町","zip_code":"9200141"},{"name":"直江町","zip_code":"9208216"},{"name":"中尾町","zip_code":"9200124"},{"name":"中川除町","zip_code":"9200975"},{"name":"中戸町","zip_code":"9201336"},{"name":"中橋町","zip_code":"9200035"},{"name":"中村町","zip_code":"9218022"},{"name":"中屋","zip_code":"9200381"},{"name":"中屋町","zip_code":"9200375"},{"name":"中山町","zip_code":"9201109"},{"name":"中屋南","zip_code":"9200379"},{"name":"長坂","zip_code":"9218112"},{"name":"長坂台","zip_code":"9218115"},{"name":"長坂町","zip_code":"9218114"},{"name":"長田","zip_code":"9200043"},{"name":"長田本町","zip_code":"9200041"},{"name":"長田町","zip_code":"9200042"},{"name":"長土塀","zip_code":"9200867"},{"name":"長町","zip_code":"9200865"},{"name":"梨木町","zip_code":"9200151"},{"name":"七ツ屋町","zip_code":"9200021"},{"name":"七曲町","zip_code":"9201137"},{"name":"並木町","zip_code":"9200928"},{"name":"鳴瀬元町","zip_code":"9200152"},{"name":"鳴和","zip_code":"9200804"},{"name":"鳴和台","zip_code":"9200815"},{"name":"鳴和町","zip_code":"9200814"},{"name":"西泉","zip_code":"9218043"},{"name":"西市瀬町","zip_code":"9201136"},{"name":"西大桑町","zip_code":"9218102"},{"name":"西金沢","zip_code":"9218054"},{"name":"西金沢新町","zip_code":"9218055"},{"name":"錦町","zip_code":"9200952"},{"name":"西町三番丁","zip_code":"9200913"},{"name":"西町四番丁","zip_code":"9200914"},{"name":"西町藪ノ内通","zip_code":"9200915"},{"name":"二宮町","zip_code":"9200067"},{"name":"額乙丸町","zip_code":"9218146"},{"name":"額新保","zip_code":"9218148"},{"name":"額新町","zip_code":"9218149"},{"name":"額谷","zip_code":"9218145"},{"name":"額谷町","zip_code":"9218144"},{"name":"納年町","zip_code":"9200142"},{"name":"野田町","zip_code":"9218104"},{"name":"野町","zip_code":"9218031"},{"name":"博労町","zip_code":"9200903"},{"name":"橋場町","zip_code":"9200911"},{"name":"八田町","zip_code":"9203106"},{"name":"八田町東","zip_code":"9203104"},{"name":"八田町西","zip_code":"9203105"},{"name":"花里町","zip_code":"9200951"},{"name":"花園八幡町","zip_code":"9200103"},{"name":"羽場町","zip_code":"9201128"},{"name":"光が丘","zip_code":"9218142"},{"name":"東荒屋町","zip_code":"9201131"},{"name":"東市瀬町","zip_code":"9201134"},{"name":"東蚊爪町","zip_code":"9200209"},{"name":"東兼六町","zip_code":"9200933"},{"name":"東長江町","zip_code":"9200822"},{"name":"東原町","zip_code":"9200131"},{"name":"東町","zip_code":"9201121"},{"name":"東御影町","zip_code":"9200835"},{"name":"東山","zip_code":"9200831"},{"name":"疋田","zip_code":"9200003"},{"name":"疋田町","zip_code":"9200004"},{"name":"彦三町","zip_code":"9200901"},{"name":"久安","zip_code":"9218164"},{"name":"菱池小原町","zip_code":"9201111"},{"name":"瓢箪町","zip_code":"9200845"},{"name":"日吉町","zip_code":"9200033"},{"name":"平栗","zip_code":"9218121"},{"name":"広岡","zip_code":"9200031"},{"name":"広岡町","zip_code":"9200032"},{"name":"広坂","zip_code":"9200962"},{"name":"深谷町","zip_code":"9200165"},{"name":"福畠町","zip_code":"9200167"},{"name":"福久","zip_code":"9203126"},{"name":"福久町","zip_code":"9203122"},{"name":"福久東","zip_code":"9203123"},{"name":"福増町","zip_code":"9200376"},{"name":"袋板屋町","zip_code":"9201144"},{"name":"袋畠町","zip_code":"9200361"},{"name":"袋町","zip_code":"9200909"},{"name":"伏見新町","zip_code":"9218172"},{"name":"伏見台","zip_code":"9218177"},{"name":"普正寺町","zip_code":"9200351"},{"name":"藤江南","zip_code":"9200346"},{"name":"藤江北","zip_code":"9200345"},{"name":"二口町","zip_code":"9200051"},{"name":"二ツ寺町","zip_code":"9200354"},{"name":"二ツ屋町","zip_code":"9200065"},{"name":"二又新町","zip_code":"9201316"},{"name":"二俣町","zip_code":"9201102"},{"name":"二日市町","zip_code":"9200107"},{"name":"不動寺町","zip_code":"9200173"},{"name":"不室町","zip_code":"9200147"},{"name":"古屋谷町","zip_code":"9200156"},{"name":"平和町","zip_code":"9218105"},{"name":"別所町","zip_code":"9201341"},{"name":"法光寺町","zip_code":"9203132"},{"name":"芳斉","zip_code":"9200862"},{"name":"法島町","zip_code":"9218101"},{"name":"北陽台","zip_code":"9200177"},{"name":"保古","zip_code":"9218052"},{"name":"保古町","zip_code":"9218053"},{"name":"堀川新町","zip_code":"9200849"},{"name":"堀川町","zip_code":"9200847"},{"name":"堀切町","zip_code":"9200133"},{"name":"本多町","zip_code":"9200964"},{"name":"本町","zip_code":"9200853"},{"name":"馬替","zip_code":"9218141"},{"name":"牧町","zip_code":"9200827"},{"name":"牧山町","zip_code":"9200148"},{"name":"間明町","zip_code":"9218005"},{"name":"曲子原町","zip_code":"9200134"},{"name":"増泉","zip_code":"9218025"},{"name":"松島","zip_code":"9200364"},{"name":"松島町","zip_code":"9200364"},{"name":"松寺町","zip_code":"9200011"},{"name":"松根町","zip_code":"9200136"},{"name":"松村","zip_code":"9200348"},{"name":"松村町","zip_code":"9200347"},{"name":"大豆田本町","zip_code":"9218047"},{"name":"丸の内","zip_code":"9200937"},{"name":"三池栄町","zip_code":"9200809"},{"name":"三池新町","zip_code":"9200808"},{"name":"三池町","zip_code":"9200802"},{"name":"三浦町","zip_code":"9200063"},{"name":"御影町","zip_code":"9218021"},{"name":"みずき","zip_code":"9200201"},{"name":"水溜町","zip_code":"9200978"},{"name":"水淵町","zip_code":"9201321"},{"name":"三口新町","zip_code":"9200944"},{"name":"三口町","zip_code":"9200018"},{"name":"三小牛町","zip_code":"9201346"},{"name":"三ツ屋町","zip_code":"9200214"},{"name":"みどり","zip_code":"9200373"},{"name":"緑が丘","zip_code":"9218117"},{"name":"湊","zip_code":"9200211"},{"name":"南御所町","zip_code":"9200812"},{"name":"南四十万","zip_code":"9218134"},{"name":"南新保町","zip_code":"9200064"},{"name":"南千谷町","zip_code":"9200127"},{"name":"南町","zip_code":"9200919"},{"name":"南塚町","zip_code":"9200366"},{"name":"南広岡町","zip_code":"9200044"},{"name":"南森本町","zip_code":"9203116"},{"name":"宮野町","zip_code":"9200153"},{"name":"宮保町","zip_code":"9200006"},{"name":"弥勒町","zip_code":"9203115"},{"name":"三馬","zip_code":"9218162"},{"name":"向中町","zip_code":"9200045"},{"name":"武蔵町","zip_code":"9200855"},{"name":"無量寺","zip_code":"9200333"},{"name":"無量寺町","zip_code":"9200332"},{"name":"娚杉町","zip_code":"9201314"},{"name":"本江町","zip_code":"9218012"},{"name":"元菊町","zip_code":"9200036"},{"name":"元町","zip_code":"9200842"},{"name":"百坂町","zip_code":"9203131"},{"name":"森戸","zip_code":"9218061"},{"name":"もりの里","zip_code":"9201167"},{"name":"森山","zip_code":"9200843"},{"name":"諸江町","zip_code":"9200014"},{"name":"矢木","zip_code":"9218066"},{"name":"薬師堂町","zip_code":"9200052"},{"name":"薬師町","zip_code":"9200174"},{"name":"安江町","zip_code":"9200854"},{"name":"柳橋町","zip_code":"9203133"},{"name":"山川町","zip_code":"9201337"},{"name":"山科","zip_code":"9218175"},{"name":"山科町","zip_code":"9218174"},{"name":"山の上町","zip_code":"9200816"},{"name":"弥生","zip_code":"9218036"},{"name":"夕日寺町","zip_code":"9200823"},{"name":"柚木町","zip_code":"9200146"},{"name":"弓取町","zip_code":"9200215"},{"name":"湯谷原町","zip_code":"9201106"},{"name":"湯涌荒屋町","zip_code":"9201122"},{"name":"湯涌河内町","zip_code":"9201118"},{"name":"湯涌田子島町","zip_code":"9201124"},{"name":"湯涌曲町","zip_code":"9201119"},{"name":"湯涌町","zip_code":"9201123"},{"name":"八日市","zip_code":"9218064"},{"name":"八日市出町","zip_code":"9218063"},{"name":"横川","zip_code":"9218163"},{"name":"横谷町","zip_code":"9201117"},{"name":"横枕町","zip_code":"9203135"},{"name":"横山町","zip_code":"9200922"},{"name":"吉原町","zip_code":"9203114"},{"name":"米泉町","zip_code":"9218044"},{"name":"米丸町","zip_code":"9218004"},{"name":"蓮花町","zip_code":"9201342"},{"name":"蓮如町","zip_code":"9201142"},{"name":"六枚町","zip_code":"9200868"},{"name":"若草町","zip_code":"9218111"},{"name":"稚日野町","zip_code":"9200355"},{"name":"若松町","zip_code":"9201165"},{"name":"若宮","zip_code":"9200054"},{"name":"若宮町","zip_code":"9200053"},{"name":"涌波","zip_code":"9200953"},{"name":"涌波町","zip_code":"9200954"},{"name":"割出町","zip_code":"9200062"}]},{"name":"七尾市","divisions":[{"name":"相生町","zip_code":"9260044"},{"name":"青葉台町","zip_code":"9260823"},{"name":"青山町","zip_code":"9260831"},{"name":"赤浦町","zip_code":"9260843"},{"name":"旭町","zip_code":"9260833"},{"name":"麻生町","zip_code":"9260372"},{"name":"阿良町","zip_code":"9260807"},{"name":"新屋町","zip_code":"9292105"},{"name":"庵町","zip_code":"9260366"},{"name":"飯川町","zip_code":"9260826"},{"name":"伊久留町","zip_code":"9292114"},{"name":"池崎町","zip_code":"9260831"},{"name":"生駒町","zip_code":"9260804"},{"name":"石崎町","zip_code":"9260171"},{"name":"一本杉町","zip_code":"9260806"},{"name":"今町","zip_code":"9260055"},{"name":"岩屋町","zip_code":"9260816"},{"name":"魚町","zip_code":"9260864"},{"name":"後畠町","zip_code":"9260027"},{"name":"鵜浦町","zip_code":"9260001"},{"name":"上野ケ丘町","zip_code":"9292122"},{"name":"江曽町","zip_code":"9260825"},{"name":"江泊町","zip_code":"9260363"},{"name":"大田新町","zip_code":"9260006"},{"name":"大田町","zip_code":"9260006"},{"name":"大津町","zip_code":"9292126"},{"name":"大手町","zip_code":"9260047"},{"name":"大泊町","zip_code":"9260384"},{"name":"大野木町","zip_code":"9260362"},{"name":"岡町","zip_code":"9260005"},{"name":"奥原町","zip_code":"9260174"},{"name":"小栗町","zip_code":"9260373"},{"name":"垣吉町","zip_code":"9292104"},{"name":"鍛冶町","zip_code":"9260057"},{"name":"上府中町","zip_code":"9260053"},{"name":"亀山町","zip_code":"9260805"},{"name":"川尻町","zip_code":"9292101"},{"name":"川原町","zip_code":"9260054"},{"name":"北藤橋町","zip_code":"9260812"},{"name":"木町","zip_code":"9260808"},{"name":"熊淵町","zip_code":"9260387"},{"name":"黒崎町","zip_code":"9260381"},{"name":"小池川原町","zip_code":"9260026"},{"name":"柑子町","zip_code":"9260375"},{"name":"光陽台","zip_code":"9260177"},{"name":"郡町","zip_code":"9260051"},{"name":"国下町","zip_code":"9260037"},{"name":"国分町","zip_code":"9260821"},{"name":"小島町","zip_code":"9260852"},{"name":"寿町","zip_code":"9260861"},{"name":"小丸山台","zip_code":"9260855"},{"name":"米町","zip_code":"9260803"},{"name":"栄町","zip_code":"9260815"},{"name":"作事町","zip_code":"9260042"},{"name":"桜町","zip_code":"9260867"},{"name":"佐々波町","zip_code":"9260371"},{"name":"佐野町","zip_code":"9260013"},{"name":"佐味町","zip_code":"9260011"},{"name":"沢野町","zip_code":"9260003"},{"name":"山王町","zip_code":"9260052"},{"name":"七原町","zip_code":"9292115"},{"name":"清水平町","zip_code":"9260374"},{"name":"下町","zip_code":"9260824"},{"name":"昭和町","zip_code":"9260801"},{"name":"白浜町","zip_code":"9292124"},{"name":"白馬町","zip_code":"9260828"},{"name":"白銀町","zip_code":"9260863"},{"name":"新保町","zip_code":"9260845"},{"name":"神明町","zip_code":"9260046"},{"name":"杉森町","zip_code":"9292112"},{"name":"泉南台","zip_code":"9260179"},{"name":"袖ケ江町","zip_code":"9260045"},{"name":"外林町","zip_code":"9260376"},{"name":"祖浜町","zip_code":"9260846"},{"name":"高田町","zip_code":"9292111"},{"name":"竹町","zip_code":"9260023"},{"name":"直津町","zip_code":"9260844"},{"name":"橘町","zip_code":"9260043"},{"name":"田鶴浜町","zip_code":"9292121"},{"name":"多根町","zip_code":"9260034"},{"name":"千野町","zip_code":"9260033"},{"name":"つつじが浜","zip_code":"9260851"},{"name":"津向町","zip_code":"9260853"},{"name":"天神川原町","zip_code":"9260022"},{"name":"東浜町","zip_code":"9260383"},{"name":"常盤町","zip_code":"9260862"},{"name":"徳田新町","zip_code":"9260829"},{"name":"徳田町","zip_code":"9260824"},{"name":"所口町","zip_code":"9260814"},{"name":"殿町","zip_code":"9260004"},{"name":"富岡町","zip_code":"9260866"},{"name":"巴町","zip_code":"9260021"},{"name":"中島町上畠","zip_code":"9292204"},{"name":"中島町大平","zip_code":"9292207"},{"name":"中島町奥吉田","zip_code":"9292231"},{"name":"中島町小牧","zip_code":"9292214"},{"name":"中島町笠師","zip_code":"9292233"},{"name":"中島町鹿島台","zip_code":"9292217"},{"name":"中島町河崎","zip_code":"9292243"},{"name":"中島町河内","zip_code":"9292201"},{"name":"中島町上町","zip_code":"9292223"},{"name":"中島町北免田","zip_code":"9292203"},{"name":"中島町崎山","zip_code":"9292242"},{"name":"中島町塩津","zip_code":"9292234"},{"name":"中島町瀬嵐","zip_code":"9292218"},{"name":"中島町外","zip_code":"9292213"},{"name":"中島町外原","zip_code":"9292247"},{"name":"中島町田岸","zip_code":"9292212"},{"name":"中島町土川","zip_code":"9292246"},{"name":"中島町豊田","zip_code":"9292245"},{"name":"中島町豊田町","zip_code":"9292244"},{"name":"中島町鳥越","zip_code":"9292206"},{"name":"中島町長浦","zip_code":"9292216"},{"name":"中島町中島","zip_code":"9292222"},{"name":"中島町西谷内","zip_code":"9292209"},{"name":"中島町浜田","zip_code":"9292241"},{"name":"中島町深浦","zip_code":"9292215"},{"name":"中島町藤瀬","zip_code":"9292227"},{"name":"中島町筆染","zip_code":"9292232"},{"name":"中島町古江","zip_code":"9292208"},{"name":"中島町別所","zip_code":"9292202"},{"name":"中島町町屋","zip_code":"9292205"},{"name":"中島町宮前","zip_code":"9292225"},{"name":"中島町谷内","zip_code":"9292221"},{"name":"中島町山戸田","zip_code":"9292224"},{"name":"中島町横田","zip_code":"9292226"},{"name":"中島町横見","zip_code":"9292211"},{"name":"中挾町","zip_code":"9260036"},{"name":"なぎの浦","zip_code":"9260854"},{"name":"西下町","zip_code":"9292113"},{"name":"西藤橋町","zip_code":"9260817"},{"name":"西三階町","zip_code":"9260835"},{"name":"温井町","zip_code":"9260837"},{"name":"塗師町","zip_code":"9260056"},{"name":"能登島えの目町","zip_code":"9260203"},{"name":"能登島久木町","zip_code":"9260227"},{"name":"能登島向田町","zip_code":"9260211"},{"name":"能登島佐波町","zip_code":"9260212"},{"name":"能登島須曽町","zip_code":"9260213"},{"name":"能登島田尻町","zip_code":"9260226"},{"name":"能登島通町","zip_code":"9260225"},{"name":"能登島長崎町","zip_code":"9260204"},{"name":"能登島閨町","zip_code":"9260222"},{"name":"能登島野崎町","zip_code":"9260205"},{"name":"能登島祖母ケ浦町","zip_code":"9260201"},{"name":"能登島八ケ崎町","zip_code":"9260202"},{"name":"能登島半浦町","zip_code":"9260223"},{"name":"能登島日出ケ島町","zip_code":"9260206"},{"name":"能登島百万石町","zip_code":"9260224"},{"name":"能登島二穴町","zip_code":"9260207"},{"name":"能登島別所町","zip_code":"9260214"},{"name":"能登島曲町","zip_code":"9260216"},{"name":"能登島南町","zip_code":"9260215"},{"name":"能登島無関町","zip_code":"9260221"},{"name":"八田町","zip_code":"9260035"},{"name":"花園町","zip_code":"9260382"},{"name":"盤若野町","zip_code":"9260832"},{"name":"東三階町","zip_code":"9260834"},{"name":"東山町","zip_code":"9292103"},{"name":"桧物町","zip_code":"9260048"},{"name":"深見町","zip_code":"9292125"},{"name":"藤野町","zip_code":"9260028"},{"name":"藤橋町","zip_code":"9260816"},{"name":"府中町","zip_code":"9260041"},{"name":"舟尾町","zip_code":"9292102"},{"name":"古府町","zip_code":"9260031"},{"name":"古城町","zip_code":"9260025"},{"name":"古屋敷町","zip_code":"9260024"},{"name":"報国町","zip_code":"9260012"},{"name":"細口町","zip_code":"9260822"},{"name":"馬出町","zip_code":"9260818"},{"name":"町屋町","zip_code":"9260836"},{"name":"松百新町","zip_code":"9260842"},{"name":"松百町","zip_code":"9260841"},{"name":"松本町","zip_code":"9260865"},{"name":"満仁町","zip_code":"9260838"},{"name":"万行町","zip_code":"9260012"},{"name":"三島町","zip_code":"9260802"},{"name":"御祓町","zip_code":"9260811"},{"name":"緑ケ丘町","zip_code":"9260014"},{"name":"湊町","zip_code":"9260058"},{"name":"南ケ丘町","zip_code":"9260032"},{"name":"南藤橋町","zip_code":"9260813"},{"name":"三引町","zip_code":"9292123"},{"name":"三室町","zip_code":"9260007"},{"name":"本府中町","zip_code":"9260021"},{"name":"矢田新町","zip_code":"9260015"},{"name":"矢田町","zip_code":"9260014"},{"name":"山崎町","zip_code":"9260385"},{"name":"大和町","zip_code":"9260016"},{"name":"八幡町","zip_code":"9260038"},{"name":"湯川町","zip_code":"9260002"},{"name":"吉田町","zip_code":"9292116"},{"name":"若林町","zip_code":"9260827"},{"name":"和倉町","zip_code":"9260175"},{"name":"和倉町ひばり","zip_code":"9260176"}]},{"name":"小松市","divisions":[{"name":"相生町","zip_code":"9230946"},{"name":"青路町","zip_code":"9230967"},{"name":"赤瀬町","zip_code":"9230185"},{"name":"上リ江町","zip_code":"9230187"},{"name":"あけぼの町","zip_code":"9230035"},{"name":"旭町","zip_code":"9230953"},{"name":"芦田町","zip_code":"9230938"},{"name":"安宅新町","zip_code":"9230995"},{"name":"安宅町","zip_code":"9230003"},{"name":"飴屋町","zip_code":"9230922"},{"name":"荒木田町","zip_code":"9230823"},{"name":"嵐町","zip_code":"9230078"},{"name":"荒屋町","zip_code":"9230032"},{"name":"有明町","zip_code":"9230864"},{"name":"粟津温泉","zip_code":"9230326"},{"name":"粟津町","zip_code":"9230326"},{"name":"育成町","zip_code":"9230943"},{"name":"池城町","zip_code":"9230161"},{"name":"泉町","zip_code":"9230901"},{"name":"糸町","zip_code":"9230813"},{"name":"犬丸町","zip_code":"9230015"},{"name":"井口町","zip_code":"9230316"},{"name":"今江町","zip_code":"9230964"},{"name":"岩上町","zip_code":"9230177"},{"name":"岩渕町","zip_code":"9230073"},{"name":"鵜川町","zip_code":"9230063"},{"name":"浮城町","zip_code":"9230908"},{"name":"浮柳町","zip_code":"9230993"},{"name":"打越町","zip_code":"9230831"},{"name":"打木町","zip_code":"9230184"},{"name":"梅田町","zip_code":"9230023"},{"name":"漆町","zip_code":"9230812"},{"name":"江指町","zip_code":"9230155"},{"name":"扇町","zip_code":"9230853"},{"name":"扇原町","zip_code":"9230973"},{"name":"大川町","zip_code":"9230911"},{"name":"大島町","zip_code":"9230001"},{"name":"大杉町","zip_code":"9230186"},{"name":"大野町","zip_code":"9230156"},{"name":"沖町","zip_code":"9230861"},{"name":"尾小屋町","zip_code":"9230172"},{"name":"御館町","zip_code":"9230016"},{"name":"小野町","zip_code":"9230054"},{"name":"おびし町","zip_code":"9230314"},{"name":"御宮町","zip_code":"9230805"},{"name":"梯町","zip_code":"9230028"},{"name":"春日町","zip_code":"9230341"},{"name":"桂町","zip_code":"9230074"},{"name":"観音下町","zip_code":"9230171"},{"name":"金野町","zip_code":"9230154"},{"name":"金平町","zip_code":"9230153"},{"name":"金屋町","zip_code":"9230812"},{"name":"上荒屋町","zip_code":"9230331"},{"name":"上小松町","zip_code":"9230802"},{"name":"上寺町","zip_code":"9230935"},{"name":"上牧町","zip_code":"9230027"},{"name":"上麦口町","zip_code":"9230077"},{"name":"上本折町","zip_code":"9230955"},{"name":"上八里町","zip_code":"9230051"},{"name":"軽海町","zip_code":"9230824"},{"name":"川辺町","zip_code":"9230044"},{"name":"木曽町","zip_code":"9230991"},{"name":"北浅井町","zip_code":"9230851"},{"name":"木場台","zip_code":"9230312"},{"name":"木場町","zip_code":"9230311"},{"name":"希望丘","zip_code":"9230826"},{"name":"京町","zip_code":"9230918"},{"name":"草野町","zip_code":"9230996"},{"name":"串茶屋町","zip_code":"9230966"},{"name":"串町","zip_code":"9230965"},{"name":"工業団地","zip_code":"9230994"},{"name":"河田町","zip_code":"9230053"},{"name":"光陽町","zip_code":"9230822"},{"name":"国府台","zip_code":"9230061"},{"name":"五国寺町","zip_code":"9230152"},{"name":"小島町","zip_code":"9230002"},{"name":"古城町","zip_code":"9230902"},{"name":"小寺町","zip_code":"9230806"},{"name":"古府町","zip_code":"9230055"},{"name":"こまつの杜","zip_code":"9230869"},{"name":"小山田町","zip_code":"9230315"},{"name":"小馬出町","zip_code":"9230904"},{"name":"細工町","zip_code":"9230915"},{"name":"材木町","zip_code":"9230916"},{"name":"幸町","zip_code":"9230867"},{"name":"栄町","zip_code":"9230934"},{"name":"桜木町","zip_code":"9230942"},{"name":"佐々木町","zip_code":"9230821"},{"name":"里川町","zip_code":"9230062"},{"name":"佐美町","zip_code":"9230984"},{"name":"沢町","zip_code":"9230165"},{"name":"三谷町","zip_code":"9230844"},{"name":"塩原町","zip_code":"9230163"},{"name":"鹿町","zip_code":"9230836"},{"name":"地子町","zip_code":"9230905"},{"name":"四丁町","zip_code":"9230971"},{"name":"島田町","zip_code":"9230021"},{"name":"島町","zip_code":"9230303"},{"name":"清水町","zip_code":"9230958"},{"name":"下粟津町","zip_code":"9230304"},{"name":"下牧町","zip_code":"9230026"},{"name":"下八里町","zip_code":"9230052"},{"name":"城南町","zip_code":"9230941"},{"name":"城北町","zip_code":"9230013"},{"name":"正蓮寺町","zip_code":"9230151"},{"name":"白江町","zip_code":"9230811"},{"name":"白嶺町","zip_code":"9230866"},{"name":"白松町","zip_code":"9230814"},{"name":"白山田町","zip_code":"9230321"},{"name":"新鍛冶町","zip_code":"9230914"},{"name":"新大工町","zip_code":"9230906"},{"name":"新保町","zip_code":"9230175"},{"name":"新町","zip_code":"9230912"},{"name":"須天町","zip_code":"9230963"},{"name":"末広町","zip_code":"9230945"},{"name":"瀬領町","zip_code":"9230183"},{"name":"清六町","zip_code":"9230862"},{"name":"千木野町","zip_code":"9230834"},{"name":"千代町","zip_code":"9230041"},{"name":"園町","zip_code":"9230801"},{"name":"大文字町","zip_code":"9230931"},{"name":"大領中町","zip_code":"9230962"},{"name":"大領町","zip_code":"9230854"},{"name":"鷹匠町","zip_code":"9230905"},{"name":"宝町","zip_code":"9230803"},{"name":"高堂町","zip_code":"9230031"},{"name":"滝ケ原町","zip_code":"9230335"},{"name":"拓栄町","zip_code":"9230981"},{"name":"茶屋町","zip_code":"9230024"},{"name":"月津町","zip_code":"9230972"},{"name":"月美丘","zip_code":"9230974"},{"name":"津波倉町","zip_code":"9230313"},{"name":"鶴ケ島町","zip_code":"9230992"},{"name":"寺町","zip_code":"9230932"},{"name":"天神町","zip_code":"9230025"},{"name":"土居原町","zip_code":"9230921"},{"name":"戸津町","zip_code":"9230327"},{"name":"殿町","zip_code":"9230919"},{"name":"問屋町","zip_code":"9230037"},{"name":"中海町","zip_code":"9230071"},{"name":"中ノ峠町","zip_code":"9230078"},{"name":"中町","zip_code":"9230917"},{"name":"長崎町","zip_code":"9230004"},{"name":"長谷町","zip_code":"9230181"},{"name":"長田町","zip_code":"9230034"},{"name":"那谷町","zip_code":"9230336"},{"name":"南陽町","zip_code":"9230328"},{"name":"西荒谷町","zip_code":"9230323"},{"name":"西軽海町","zip_code":"9230825"},{"name":"錦町","zip_code":"9230948"},{"name":"西町","zip_code":"9230927"},{"name":"西原町","zip_code":"9230325"},{"name":"西俣町","zip_code":"9230176"},{"name":"西本折町","zip_code":"9230956"},{"name":"額見町","zip_code":"9230977"},{"name":"布橋町","zip_code":"9230164"},{"name":"野立町","zip_code":"9230965"},{"name":"野田町","zip_code":"9230033"},{"name":"能美町","zip_code":"9230042"},{"name":"白山町","zip_code":"9230951"},{"name":"波佐谷町","zip_code":"9230182"},{"name":"波佐羅町","zip_code":"9230162"},{"name":"花坂町","zip_code":"9230157"},{"name":"花立町","zip_code":"9230174"},{"name":"埴田町","zip_code":"9230066"},{"name":"浜佐美本町","zip_code":"9230997"},{"name":"浜佐美町","zip_code":"9230985"},{"name":"浜田町","zip_code":"9230907"},{"name":"林町","zip_code":"9230344"},{"name":"原町","zip_code":"9230075"},{"name":"馬場町","zip_code":"9230333"},{"name":"光町","zip_code":"9230804"},{"name":"東蛭川町","zip_code":"9230012"},{"name":"東町","zip_code":"9230923"},{"name":"東山町","zip_code":"9230842"},{"name":"日末町","zip_code":"9230983"},{"name":"一針町","zip_code":"9230043"},{"name":"日の出町","zip_code":"9230868"},{"name":"日用町","zip_code":"9230324"},{"name":"日吉町","zip_code":"9230947"},{"name":"平面町","zip_code":"9230036"},{"name":"蛭川町","zip_code":"9230011"},{"name":"福乃宮町","zip_code":"9230865"},{"name":"二ツ梨町","zip_code":"9230345"},{"name":"符津町","zip_code":"9230302"},{"name":"不動島町","zip_code":"9230863"},{"name":"古河町","zip_code":"9230944"},{"name":"坊丸町","zip_code":"9230005"},{"name":"菩提町","zip_code":"9230334"},{"name":"本鍛冶町","zip_code":"9230933"},{"name":"本江町","zip_code":"9230841"},{"name":"本大工町","zip_code":"9230936"},{"name":"本町","zip_code":"9230937"},{"name":"牧口町","zip_code":"9230322"},{"name":"松生町","zip_code":"9230306"},{"name":"松岡町","zip_code":"9230166"},{"name":"松崎町","zip_code":"9230982"},{"name":"松任町","zip_code":"9230913"},{"name":"松梨町","zip_code":"9230014"},{"name":"丸の内公園町","zip_code":"9230903"},{"name":"丸の内町","zip_code":"9230903"},{"name":"丸内町","zip_code":"9230903"},{"name":"丸山町","zip_code":"9230173"},{"name":"三田町","zip_code":"9230862"},{"name":"三日市町","zip_code":"9230924"},{"name":"みどり町","zip_code":"9230072"},{"name":"南浅井町","zip_code":"9230852"},{"name":"蓑輪町","zip_code":"9230305"},{"name":"美原町","zip_code":"9230022"},{"name":"向本折町","zip_code":"9230961"},{"name":"麦口町","zip_code":"9230076"},{"name":"村松町","zip_code":"9230968"},{"name":"本折町","zip_code":"9230957"},{"name":"矢崎町","zip_code":"9230301"},{"name":"八里台","zip_code":"9230056"},{"name":"矢沢町","zip_code":"9230343"},{"name":"矢田新町","zip_code":"9230976"},{"name":"矢田野町","zip_code":"9230342"},{"name":"矢田町","zip_code":"9230975"},{"name":"大和町","zip_code":"9230952"},{"name":"八幡","zip_code":"9230833"},{"name":"八幡町","zip_code":"9230954"},{"name":"遊泉寺町","zip_code":"9230064"},{"name":"湯上町","zip_code":"9230332"},{"name":"八日市町","zip_code":"9230925"},{"name":"八日市町地方","zip_code":"9230868"},{"name":"吉竹町","zip_code":"9230835"},{"name":"義仲町","zip_code":"9230998"},{"name":"龍助町","zip_code":"9230926"},{"name":"立明寺町","zip_code":"9230065"},{"name":"蓮代寺町","zip_code":"9230843"},{"name":"若杉町","zip_code":"9230832"}]},{"name":"輪島市","divisions":[{"name":"赤崎町","zip_code":"9280053"},{"name":"海士町","zip_code":"9280072"},{"name":"石休場町","zip_code":"9280013"},{"name":"市ノ瀬町","zip_code":"9280015"},{"name":"稲舟町","zip_code":"9280004"},{"name":"打越町","zip_code":"9280028"},{"name":"鵜入町","zip_code":"9280065"},{"name":"小池町","zip_code":"9280051"},{"name":"小伊勢町","zip_code":"9280032"},{"name":"大沢町","zip_code":"9280054"},{"name":"大野町","zip_code":"9280005"},{"name":"小田屋町","zip_code":"9280251"},{"name":"釜屋谷町","zip_code":"9280064"},{"name":"上大沢町","zip_code":"9280055"},{"name":"上黒川町","zip_code":"9280045"},{"name":"上山町","zip_code":"9280057"},{"name":"河井町","zip_code":"9280001"},{"name":"北谷町","zip_code":"9280027"},{"name":"熊野町","zip_code":"9280016"},{"name":"気勝平町","zip_code":"9280023"},{"name":"里町","zip_code":"9280246"},{"name":"忍町","zip_code":"9280252"},{"name":"渋田町","zip_code":"9280241"},{"name":"下黒川町","zip_code":"9280044"},{"name":"下山町","zip_code":"9280052"},{"name":"白米町","zip_code":"9280256"},{"name":"新橋通","zip_code":"9280061"},{"name":"杉平町","zip_code":"9280011"},{"name":"惣領町","zip_code":"9280006"},{"name":"空熊町","zip_code":"9280037"},{"name":"尊利地町","zip_code":"9280253"},{"name":"滝又町","zip_code":"9280036"},{"name":"宅田町","zip_code":"9280022"},{"name":"中段町","zip_code":"9280041"},{"name":"塚田町","zip_code":"9280003"},{"name":"稲屋町","zip_code":"9280033"},{"name":"長井町","zip_code":"9280034"},{"name":"名舟町","zip_code":"9280254"},{"name":"繩又町","zip_code":"9280047"},{"name":"西院内町","zip_code":"9280244"},{"name":"西二又町","zip_code":"9280056"},{"name":"西山町","zip_code":"9280243"},{"name":"西脇町","zip_code":"9280026"},{"name":"野田町","zip_code":"9280255"},{"name":"光浦町","zip_code":"9280067"},{"name":"東印内町","zip_code":"9280242"},{"name":"東中尾町","zip_code":"9280025"},{"name":"東山町","zip_code":"9280245"},{"name":"深見町","zip_code":"9280007"},{"name":"鳳至町","zip_code":"9280073"},{"name":"房田町","zip_code":"9280043"},{"name":"二勢町","zip_code":"9280031"},{"name":"二ツ屋町","zip_code":"9280021"},{"name":"二俣町","zip_code":"9280046"},{"name":"久手川町","zip_code":"9280002"},{"name":"平成町","zip_code":"9280068"},{"name":"別所谷町","zip_code":"9280035"},{"name":"堀町","zip_code":"9280062"},{"name":"町野町粟蔵","zip_code":"9280215"},{"name":"町野町井面","zip_code":"9280217"},{"name":"町野町牛尾","zip_code":"9280211"},{"name":"町野町大川","zip_code":"9280231"},{"name":"町野町桶戸","zip_code":"9280216"},{"name":"町野町金蔵","zip_code":"9280236"},{"name":"町野町川西","zip_code":"9280235"},{"name":"町野町北円山","zip_code":"9280223"},{"name":"町野町佐野","zip_code":"9280214"},{"name":"町野町真久","zip_code":"9280221"},{"name":"町野町敷戸","zip_code":"9280203"},{"name":"町野町鈴屋","zip_code":"9280218"},{"name":"町野町曽々木","zip_code":"9280206"},{"name":"町野町寺地","zip_code":"9280202"},{"name":"町野町寺山","zip_code":"9280212"},{"name":"町野町徳成","zip_code":"9280226"},{"name":"町野町徳成谷内","zip_code":"9280225"},{"name":"町野町西時国","zip_code":"9280205"},{"name":"町野町東","zip_code":"9280222"},{"name":"町野町東大野","zip_code":"9280233"},{"name":"町野町広江","zip_code":"9280201"},{"name":"町野町伏戸","zip_code":"9280232"},{"name":"町野町舞谷","zip_code":"9280213"},{"name":"町野町真喜野","zip_code":"9280234"},{"name":"町野町南時国","zip_code":"9280204"},{"name":"町野町麦生野","zip_code":"9280224"},{"name":"マリンタウン","zip_code":"9280008"},{"name":"三井町市ノ坂","zip_code":"9292373"},{"name":"三井町内屋","zip_code":"9292374"},{"name":"三井町漆原","zip_code":"9292377"},{"name":"三井町小泉","zip_code":"9292378"},{"name":"三井町興徳寺","zip_code":"9292363"},{"name":"三井町新保","zip_code":"9292376"},{"name":"三井町洲衛","zip_code":"9292372"},{"name":"三井町渡合","zip_code":"9292365"},{"name":"三井町中","zip_code":"9292362"},{"name":"三井町長沢","zip_code":"9292379"},{"name":"三井町仁行","zip_code":"9292367"},{"name":"三井町細屋","zip_code":"9292375"},{"name":"三井町本江","zip_code":"9292366"},{"name":"三井町三洲穂","zip_code":"9292371"},{"name":"三井町与呂見","zip_code":"9292361"},{"name":"美谷町","zip_code":"9280066"},{"name":"水守町","zip_code":"9280063"},{"name":"南町","zip_code":"9280062"},{"name":"門前町赤神","zip_code":"9272345"},{"name":"門前町浅生田","zip_code":"9272106"},{"name":"門前町荒屋","zip_code":"9272123"},{"name":"門前町安代原","zip_code":"9272107"},{"name":"門前町飯川谷","zip_code":"9272314"},{"name":"門前町五十洲","zip_code":"9272286"},{"name":"門前町池田","zip_code":"9272354"},{"name":"門前町井守上坂","zip_code":"9272274"},{"name":"門前町入山","zip_code":"9272336"},{"name":"門前町内保","zip_code":"9272137"},{"name":"門前町窕","zip_code":"9272322"},{"name":"門前町鵜山","zip_code":"9272281"},{"name":"門前町浦上","zip_code":"9272102"},{"name":"門前町上代","zip_code":"9272334"},{"name":"門前町江崎","zip_code":"9272303"},{"name":"門前町小石","zip_code":"9272141"},{"name":"門前町大釜","zip_code":"9272341"},{"name":"門前町大切","zip_code":"9272305"},{"name":"門前町大滝","zip_code":"9272282"},{"name":"門前町大泊","zip_code":"9272343"},{"name":"門前町鬼屋","zip_code":"9272147"},{"name":"門前町大生","zip_code":"9272163"},{"name":"門前町鹿磯","zip_code":"9272166"},{"name":"門前町貝吹","zip_code":"9272121"},{"name":"門前町風原","zip_code":"9272143"},{"name":"門前町鍛治屋","zip_code":"9272364"},{"name":"門前町勝田","zip_code":"9272162"},{"name":"門前町上河内","zip_code":"9272142"},{"name":"門前町北川","zip_code":"9272352"},{"name":"門前町木原月","zip_code":"9272332"},{"name":"門前町久川","zip_code":"9272321"},{"name":"門前町切狭","zip_code":"9272311"},{"name":"門前町暮坂","zip_code":"9272273"},{"name":"門前町黒岩","zip_code":"9272335"},{"name":"門前町黒島町","zip_code":"9272165"},{"name":"門前町腰細","zip_code":"9272344"},{"name":"門前町小滝","zip_code":"9272145"},{"name":"門前町小山","zip_code":"9272361"},{"name":"門前町是清","zip_code":"9272353"},{"name":"門前町定広","zip_code":"9272133"},{"name":"門前町猿橋","zip_code":"9272144"},{"name":"門前町四位","zip_code":"9272112"},{"name":"門前町椎木","zip_code":"9272362"},{"name":"門前町清水","zip_code":"9272175"},{"name":"門前町神明原","zip_code":"9272323"},{"name":"門前町白禿","zip_code":"9272304"},{"name":"門前町新町分","zip_code":"9272363"},{"name":"門前町薄野","zip_code":"9272275"},{"name":"門前町清沢","zip_code":"9272313"},{"name":"門前町千代","zip_code":"9272351"},{"name":"門前町平","zip_code":"9272131"},{"name":"門前町高根尾","zip_code":"9272172"},{"name":"門前町滝上","zip_code":"9272111"},{"name":"門前町滝町","zip_code":"9272325"},{"name":"門前町舘","zip_code":"9272173"},{"name":"門前町館分","zip_code":"9272333"},{"name":"門前町谷口","zip_code":"9272114"},{"name":"門前町田村","zip_code":"9272105"},{"name":"門前町樽見","zip_code":"9272272"},{"name":"門前町地原","zip_code":"9272134"},{"name":"門前町剱地","zip_code":"9272342"},{"name":"門前町道下","zip_code":"9272164"},{"name":"門前町百成","zip_code":"9272135"},{"name":"門前町百成大角間","zip_code":"9272276"},{"name":"門前町俊兼","zip_code":"9272113"},{"name":"門前町栃木","zip_code":"9272154"},{"name":"門前町長井坂","zip_code":"9272132"},{"name":"門前町中田","zip_code":"9272366"},{"name":"門前町中野屋","zip_code":"9272108"},{"name":"門前町中谷内","zip_code":"9272283"},{"name":"門前町西中尾","zip_code":"9272146"},{"name":"門前町西中谷","zip_code":"9272312"},{"name":"門前町西円山","zip_code":"9272101"},{"name":"門前町能納屋","zip_code":"9272126"},{"name":"門前町走出","zip_code":"9272151"},{"name":"門前町原","zip_code":"9272122"},{"name":"門前町馬場","zip_code":"9272333"},{"name":"門前町東大町","zip_code":"9272124"},{"name":"門前町日野尾","zip_code":"9272155"},{"name":"門前町広岡","zip_code":"9272174"},{"name":"門前町広瀬","zip_code":"9272152"},{"name":"門前町深田","zip_code":"9272153"},{"name":"門前町深見","zip_code":"9272167"},{"name":"門前町藤浜","zip_code":"9272355"},{"name":"門前町二又","zip_code":"9272301"},{"name":"門前町二又川","zip_code":"9272127"},{"name":"門前町別所","zip_code":"9272125"},{"name":"門前町堀腰","zip_code":"9272138"},{"name":"門前町馬渡","zip_code":"9272324"},{"name":"門前町皆月","zip_code":"9272271"},{"name":"門前町南","zip_code":"9272365"},{"name":"門前町嶺","zip_code":"9272113"},{"name":"門前町宮古場","zip_code":"9272103"},{"name":"門前町餅田","zip_code":"9272277"},{"name":"門前町本市","zip_code":"9272171"},{"name":"門前町本内","zip_code":"9272115"},{"name":"門前町門前","zip_code":"9272156"},{"name":"門前町矢徳","zip_code":"9272284"},{"name":"門前町山是清","zip_code":"9272302"},{"name":"門前町山辺","zip_code":"9272104"},{"name":"門前町鑓川","zip_code":"9272136"},{"name":"門前町八幡","zip_code":"9272102"},{"name":"門前町吉浦","zip_code":"9272285"},{"name":"門前町六郎木","zip_code":"9272161"},{"name":"門前町和田","zip_code":"9272176"},{"name":"門前町渡瀬","zip_code":"9272331"},{"name":"山岸町","zip_code":"9280024"},{"name":"大和町","zip_code":"9292364"},{"name":"山ノ上町","zip_code":"9280014"},{"name":"山本町","zip_code":"9280042"},{"name":"横地町","zip_code":"9280012"},{"name":"輪島崎町","zip_code":"9280071"}]},{"name":"珠洲市","divisions":[{"name":"飯田町","zip_code":"9271214"},{"name":"石神町","zip_code":"9271303"},{"name":"岩坂町","zip_code":"9271211"},{"name":"上戸町寺社","zip_code":"9271216"},{"name":"上戸町南方","zip_code":"9271217"},{"name":"上戸町北方","zip_code":"9271215"},{"name":"大谷町","zip_code":"9271321"},{"name":"折戸町","zip_code":"9271446"},{"name":"片岩町","zip_code":"9271323"},{"name":"唐笠町","zip_code":"9271445"},{"name":"唐笠町八ケ山","zip_code":"9271444"},{"name":"川浦町","zip_code":"9271447"},{"name":"熊谷町","zip_code":"9271212"},{"name":"笹波町","zip_code":"9271302"},{"name":"清水町","zip_code":"9271324"},{"name":"正院町飯塚","zip_code":"9271202"},{"name":"正院町岡田","zip_code":"9271201"},{"name":"正院町川尻","zip_code":"9271205"},{"name":"正院町小路","zip_code":"9271207"},{"name":"正院町正院","zip_code":"9271206"},{"name":"正院町平床","zip_code":"9271203"},{"name":"高屋町","zip_code":"9271301"},{"name":"蛸島町","zip_code":"9271204"},{"name":"長橋町","zip_code":"9271322"},{"name":"仁江町","zip_code":"9271325"},{"name":"野々江町","zip_code":"9271213"},{"name":"狼煙新町","zip_code":"9271442"},{"name":"狼煙町","zip_code":"9271441"},{"name":"東山中町","zip_code":"9271443"},{"name":"宝立町鵜飼","zip_code":"9271222"},{"name":"宝立町鵜島","zip_code":"9271223"},{"name":"宝立町大町泥木","zip_code":"9271227"},{"name":"宝立町柏原","zip_code":"9271228"},{"name":"宝立町春日野","zip_code":"9271221"},{"name":"宝立町黒峰","zip_code":"9271228"},{"name":"宝立町金峰寺","zip_code":"9271221"},{"name":"宝立町宗玄","zip_code":"9271225"},{"name":"宝立町馬渡","zip_code":"9271226"},{"name":"宝立町南黒丸","zip_code":"9271224"},{"name":"宝立町二艘丹","zip_code":"9271227"},{"name":"真浦町","zip_code":"9271326"},{"name":"馬緤町","zip_code":"9271304"},{"name":"三崎町粟津","zip_code":"9271452"},{"name":"三崎町宇治","zip_code":"9271454"},{"name":"三崎町大屋","zip_code":"9271457"},{"name":"三崎町高波","zip_code":"9271456"},{"name":"三崎町小泊","zip_code":"9271462"},{"name":"三崎町寺家","zip_code":"9271451"},{"name":"三崎町杉山","zip_code":"9271466"},{"name":"三崎町内方","zip_code":"9271468"},{"name":"三崎町二本松","zip_code":"9271465"},{"name":"三崎町引砂","zip_code":"9271455"},{"name":"三崎町伏見","zip_code":"9271461"},{"name":"三崎町細屋","zip_code":"9271464"},{"name":"三崎町本","zip_code":"9271467"},{"name":"三崎町雲津","zip_code":"9271463"},{"name":"三崎町森腰","zip_code":"9271453"},{"name":"若山町宇都山","zip_code":"9271237"},{"name":"若山町上黒丸","zip_code":"9271314"},{"name":"若山町上正力","zip_code":"9271311"},{"name":"若山町上山","zip_code":"9271317"},{"name":"若山町北山","zip_code":"9271318"},{"name":"若山町経念","zip_code":"9271234"},{"name":"若山町白滝","zip_code":"9271315"},{"name":"若山町鈴内","zip_code":"9271231"},{"name":"若山町出田","zip_code":"9271233"},{"name":"若山町洲巻","zip_code":"9271316"},{"name":"若山町大坊","zip_code":"9271237"},{"name":"若山町中","zip_code":"9271236"},{"name":"若山町中田","zip_code":"9271235"},{"name":"若山町延武","zip_code":"9271238"},{"name":"若山町火宮","zip_code":"9271238"},{"name":"若山町広栗","zip_code":"9271232"},{"name":"若山町二子","zip_code":"9271312"},{"name":"若山町古蔵","zip_code":"9271239"},{"name":"若山町南山","zip_code":"9271315"},{"name":"若山町向","zip_code":"9271235"},{"name":"若山町宗末","zip_code":"9271313"},{"name":"若山町吉ケ池","zip_code":"9271319"}]},{"name":"加賀市","divisions":[{"name":"合河町","zip_code":"9220337"},{"name":"荒木町","zip_code":"9220278"},{"name":"伊切町","zip_code":"9220406"},{"name":"一白町","zip_code":"9220403"},{"name":"動橋町","zip_code":"9220331"},{"name":"潮津町","zip_code":"9220411"},{"name":"宇谷町","zip_code":"9220312"},{"name":"打越町","zip_code":"9220302"},{"name":"上野町","zip_code":"9220222"},{"name":"大菅波町","zip_code":"9220425"},{"name":"奥谷町","zip_code":"9220856"},{"name":"小塩辻町","zip_code":"9220445"},{"name":"小塩町","zip_code":"9220553"},{"name":"尾中町","zip_code":"9220428"},{"name":"尾俣町","zip_code":"9220271"},{"name":"柏野町","zip_code":"9220262"},{"name":"梶井町","zip_code":"9220305"},{"name":"片野町","zip_code":"9220564"},{"name":"片山津温泉","zip_code":"9220412"},{"name":"片山津町","zip_code":"9220414"},{"name":"桂谷町","zip_code":"9220273"},{"name":"上河崎町","zip_code":"9220013"},{"name":"加茂町","zip_code":"9220241"},{"name":"河南町","zip_code":"9220277"},{"name":"河原町","zip_code":"9220314"},{"name":"干拓町","zip_code":"9220307"},{"name":"北山田町","zip_code":"9220434"},{"name":"希望が丘","zip_code":"9220435"},{"name":"熊坂町","zip_code":"9220842"},{"name":"黒崎町","zip_code":"9220565"},{"name":"黒瀬町","zip_code":"9220823"},{"name":"桑原町","zip_code":"9220326"},{"name":"源平町","zip_code":"9220404"},{"name":"小坂町","zip_code":"9220266"},{"name":"湖城町","zip_code":"9220413"},{"name":"小菅波町","zip_code":"9220424"},{"name":"幸町","zip_code":"9220831"},{"name":"栄谷町","zip_code":"9220311"},{"name":"作見町","zip_code":"9220423"},{"name":"塩浜町","zip_code":"9220446"},{"name":"塩屋町","zip_code":"9220673"},{"name":"篠原新町","zip_code":"9220441"},{"name":"篠原町","zip_code":"9220442"},{"name":"柴山町","zip_code":"9220402"},{"name":"清水町","zip_code":"9220315"},{"name":"下河崎町","zip_code":"9220012"},{"name":"庄町","zip_code":"9220332"},{"name":"白鳥町","zip_code":"9220836"},{"name":"新保町","zip_code":"9220401"},{"name":"吸坂町","zip_code":"9220822"},{"name":"須谷町","zip_code":"9220264"},{"name":"曾宇町","zip_code":"9220833"},{"name":"直下町","zip_code":"9220825"},{"name":"大聖寺相生町","zip_code":"9220061"},{"name":"大聖寺曙町","zip_code":"9220022"},{"name":"大聖寺麻畠町","zip_code":"9220028"},{"name":"大聖寺朝日町","zip_code":"9220004"},{"name":"大聖寺荒町","zip_code":"9220034"},{"name":"大聖寺一本橋町","zip_code":"9220036"},{"name":"大聖寺今出町","zip_code":"9220863"},{"name":"大聖寺魚町","zip_code":"9220042"},{"name":"大聖寺上木町","zip_code":"9220001"},{"name":"大聖寺越前町","zip_code":"9220802"},{"name":"大聖寺越前三ツ屋町","zip_code":"9220803"},{"name":"大聖寺大新道","zip_code":"9220806"},{"name":"大聖寺岡町","zip_code":"9220005"},{"name":"大聖寺荻生町","zip_code":"9220003"},{"name":"大聖寺鍛冶町","zip_code":"9220037"},{"name":"大聖寺春日町","zip_code":"9220011"},{"name":"大聖寺片原町","zip_code":"9220056"},{"name":"大聖寺金子町","zip_code":"9220032"},{"name":"大聖寺上福田町","zip_code":"9220004"},{"name":"大聖寺観音町","zip_code":"9220046"},{"name":"大聖寺亀町","zip_code":"9220026"},{"name":"大聖寺北片原町","zip_code":"9220064"},{"name":"大聖寺京町","zip_code":"9220055"},{"name":"大聖寺錦城ケ丘","zip_code":"9220851"},{"name":"大聖寺木呂場町","zip_code":"9220031"},{"name":"大聖寺五軒町","zip_code":"9220043"},{"name":"大聖寺敷地","zip_code":"9220011"},{"name":"大聖寺下屋敷町","zip_code":"9220841"},{"name":"大聖寺下福田町","zip_code":"9220002"},{"name":"大聖寺新川町","zip_code":"9220004"},{"name":"大聖寺新旗陽町","zip_code":"9220065"},{"name":"大聖寺新組町","zip_code":"9220068"},{"name":"大聖寺新栄町","zip_code":"9220021"},{"name":"大聖寺新町","zip_code":"9220063"},{"name":"大聖寺神明町","zip_code":"9220807"},{"name":"大聖寺新屋敷町","zip_code":"9220805"},{"name":"大聖寺地方町","zip_code":"9220861"},{"name":"大聖寺十一町","zip_code":"9220045"},{"name":"大聖寺菅生","zip_code":"9220815"},{"name":"大聖寺菅生町","zip_code":"9220814"},{"name":"大聖寺関町","zip_code":"9220801"},{"name":"大聖寺瀬越町","zip_code":"9220671"},{"name":"大聖寺鷹匠町","zip_code":"9220053"},{"name":"大聖寺田原町","zip_code":"9220812"},{"name":"大聖寺大名竹町","zip_code":"9220023"},{"name":"大聖寺鉄砲町","zip_code":"9220035"},{"name":"大聖寺寺町","zip_code":"9220054"},{"name":"大聖寺天神下町","zip_code":"9220007"},{"name":"大聖寺殿町","zip_code":"9220066"},{"name":"大聖寺中新道","zip_code":"9220804"},{"name":"大聖寺仲町","zip_code":"9220051"},{"name":"大聖寺中町","zip_code":"9220047"},{"name":"大聖寺永町","zip_code":"9220024"},{"name":"大聖寺錦町","zip_code":"9220862"},{"name":"大聖寺西栄町","zip_code":"9220864"},{"name":"大聖寺西町","zip_code":"9220865"},{"name":"大聖寺畑町","zip_code":"9220004"},{"name":"大聖寺畑山町","zip_code":"9220004"},{"name":"大聖寺八間道","zip_code":"9220057"},{"name":"大聖寺馬場町","zip_code":"9220048"},{"name":"大聖寺番場町","zip_code":"9220067"},{"name":"大聖寺東敷地町","zip_code":"9220011"},{"name":"大聖寺東町","zip_code":"9220816"},{"name":"大聖寺東横町","zip_code":"9220044"},{"name":"大聖寺平床","zip_code":"9220011"},{"name":"大聖寺福田町","zip_code":"9220052"},{"name":"大聖寺藤ノ木町","zip_code":"9220006"},{"name":"大聖寺法華坊町","zip_code":"9220033"},{"name":"大聖寺本町","zip_code":"9220041"},{"name":"大聖寺松ケ根町","zip_code":"9220062"},{"name":"大聖寺松島町","zip_code":"9220004"},{"name":"大聖寺三ツ町","zip_code":"9220853"},{"name":"大聖寺三ツ屋町","zip_code":"9220803"},{"name":"大聖寺緑ケ丘","zip_code":"9220852"},{"name":"大聖寺南町","zip_code":"9220811"},{"name":"大聖寺耳聞山仲町","zip_code":"9220025"},{"name":"大聖寺耳聞山町","zip_code":"9220027"},{"name":"大聖寺山田町","zip_code":"9220038"},{"name":"大聖寺弓町","zip_code":"9220813"},{"name":"大同町","zip_code":"9220843"},{"name":"高尾町","zip_code":"9220562"},{"name":"高塚町","zip_code":"9220301"},{"name":"田尻町","zip_code":"9220552"},{"name":"橘町","zip_code":"9220855"},{"name":"勅使町","zip_code":"9220313"},{"name":"津波倉町","zip_code":"9220333"},{"name":"手塚町","zip_code":"9220405"},{"name":"天日町","zip_code":"9220426"},{"name":"ときわ台","zip_code":"9220427"},{"name":"百々町","zip_code":"9220832"},{"name":"塔尾町","zip_code":"9220263"},{"name":"冨塚町","zip_code":"9220421"},{"name":"中島町","zip_code":"9220306"},{"name":"中代町","zip_code":"9220014"},{"name":"永井町","zip_code":"9220857"},{"name":"七日市新町","zip_code":"9220324"},{"name":"七日市町","zip_code":"9220335"},{"name":"南郷町","zip_code":"9220821"},{"name":"西島町","zip_code":"9220334"},{"name":"西山田町","zip_code":"9220433"},{"name":"野田町","zip_code":"9220443"},{"name":"白山台","zip_code":"9220437"},{"name":"白望台町","zip_code":"9220844"},{"name":"箱宮町","zip_code":"9220303"},{"name":"橋立町","zip_code":"9220554"},{"name":"東山田町","zip_code":"9220432"},{"name":"日谷町","zip_code":"9220824"},{"name":"深田町","zip_code":"9220566"},{"name":"二子塚町","zip_code":"9220325"},{"name":"二ツ屋町","zip_code":"9220267"},{"name":"分校町","zip_code":"9220304"},{"name":"別所町","zip_code":"9220274"},{"name":"保賀町","zip_code":"9220015"},{"name":"細坪町","zip_code":"9220835"},{"name":"松が丘","zip_code":"9220436"},{"name":"松山町","zip_code":"9220316"},{"name":"三木町","zip_code":"9220854"},{"name":"美岬町","zip_code":"9220551"},{"name":"水田丸町","zip_code":"9220265"},{"name":"美谷が丘","zip_code":"9220834"},{"name":"宮地町","zip_code":"9220444"},{"name":"宮町","zip_code":"9220561"},{"name":"森町","zip_code":"9220321"},{"name":"山代温泉","zip_code":"9220242"},{"name":"山代温泉桜町","zip_code":"9220250"},{"name":"山田町","zip_code":"9220431"},{"name":"山中温泉旭町","zip_code":"9220104"},{"name":"山中温泉荒谷町","zip_code":"9220134"},{"name":"山中温泉泉町","zip_code":"9220105"},{"name":"山中温泉今立町","zip_code":"9220135"},{"name":"山中温泉上野町","zip_code":"9220117"},{"name":"山中温泉上原町","zip_code":"9220107"},{"name":"山中温泉大土町","zip_code":"9220135"},{"name":"山中温泉河鹿町","zip_code":"9220126"},{"name":"山中温泉風谷町","zip_code":"9220137"},{"name":"山中温泉加美谷台","zip_code":"9220118"},{"name":"山中温泉栢野町","zip_code":"9220138"},{"name":"山中温泉枯淵町","zip_code":"9220136"},{"name":"山中温泉九谷町","zip_code":"9220136"},{"name":"山中温泉こおろぎ町","zip_code":"9220128"},{"name":"山中温泉栄町","zip_code":"9220125"},{"name":"山中温泉坂下町","zip_code":"9220136"},{"name":"山中温泉四十九院町","zip_code":"9220131"},{"name":"山中温泉下谷町","zip_code":"9220127"},{"name":"山中温泉菅谷町","zip_code":"9220139"},{"name":"山中温泉杉水町","zip_code":"9220136"},{"name":"山中温泉菅生谷町","zip_code":"9220134"},{"name":"山中温泉滝町","zip_code":"9220133"},{"name":"山中温泉塚谷町","zip_code":"9220111"},{"name":"山中温泉中田町","zip_code":"9220101"},{"name":"山中温泉中津原町","zip_code":"9220132"},{"name":"山中温泉西桂木町","zip_code":"9220112"},{"name":"山中温泉二天町","zip_code":"9220101"},{"name":"山中温泉白山町","zip_code":"9220116"},{"name":"山中温泉長谷田町","zip_code":"9220102"},{"name":"山中温泉東桂木町","zip_code":"9220113"},{"name":"山中温泉東町","zip_code":"9220114"},{"name":"山中温泉富士見町","zip_code":"9220121"},{"name":"山中温泉片谷町","zip_code":"9220136"},{"name":"山中温泉本町","zip_code":"9220115"},{"name":"山中温泉真砂町","zip_code":"9220136"},{"name":"山中温泉南町","zip_code":"9220129"},{"name":"山中温泉宮の杜","zip_code":"9220109"},{"name":"山中温泉薬師町","zip_code":"9220123"},{"name":"山中温泉湯の出町","zip_code":"9220124"},{"name":"山中温泉湯の本町","zip_code":"9220122"},{"name":"山中温泉我谷町","zip_code":"9220137"},{"name":"豊町","zip_code":"9220563"},{"name":"弓波町","zip_code":"9220422"},{"name":"八日市町","zip_code":"9220336"},{"name":"横北町","zip_code":"9220261"},{"name":"吉崎町","zip_code":"9220672"},{"name":"若葉台","zip_code":"9220323"}]},{"name":"羽咋市","divisions":[{"name":"粟生町","zip_code":"9250045"},{"name":"旭町","zip_code":"9250034"},{"name":"粟原町","zip_code":"9250043"},{"name":"石野町","zip_code":"9250026"},{"name":"一ノ宮町","zip_code":"9250004"},{"name":"飯山町","zip_code":"9250613"},{"name":"宇土野町","zip_code":"9250605"},{"name":"上江町","zip_code":"9250611"},{"name":"大川町","zip_code":"9250015"},{"name":"太田町","zip_code":"9250025"},{"name":"大町","zip_code":"9291572"},{"name":"尾長町","zip_code":"9250625"},{"name":"垣内田町","zip_code":"9250612"},{"name":"鹿島路町","zip_code":"9291576"},{"name":"金丸出町","zip_code":"9291575"},{"name":"釜屋町","zip_code":"9250014"},{"name":"上白瀬町","zip_code":"9250607"},{"name":"上中山町","zip_code":"9250011"},{"name":"川原町","zip_code":"9250033"},{"name":"御坊山町","zip_code":"9250047"},{"name":"酒井町","zip_code":"9291574"},{"name":"寺家町","zip_code":"9250003"},{"name":"志々見町","zip_code":"9250624"},{"name":"四町","zip_code":"9250616"},{"name":"柴垣町","zip_code":"9250001"},{"name":"島出町","zip_code":"9250051"},{"name":"下曽祢町","zip_code":"9291571"},{"name":"白石町","zip_code":"9250604"},{"name":"白瀬町","zip_code":"9250606"},{"name":"新保町","zip_code":"9250044"},{"name":"菅池町","zip_code":"9250601"},{"name":"次場町","zip_code":"9250028"},{"name":"千石町","zip_code":"9250602"},{"name":"千田町","zip_code":"9250626"},{"name":"滝谷町","zip_code":"9250002"},{"name":"滝町","zip_code":"9250005"},{"name":"千路町","zip_code":"9250012"},{"name":"中央町","zip_code":"9250052"},{"name":"千代町","zip_code":"9250615"},{"name":"千里浜町","zip_code":"9250054"},{"name":"土橋町","zip_code":"9250042"},{"name":"円井町","zip_code":"9250617"},{"name":"鶴多町","zip_code":"9250027"},{"name":"中川町","zip_code":"9250614"},{"name":"西釜屋町","zip_code":"9250017"},{"name":"羽咋町","zip_code":"9250016"},{"name":"東潟町","zip_code":"9291577"},{"name":"東釜屋町","zip_code":"9250013"},{"name":"東川原町","zip_code":"9250032"},{"name":"東的場町","zip_code":"9250031"},{"name":"菱分町","zip_code":"9250621"},{"name":"兵庫町","zip_code":"9250046"},{"name":"深江町","zip_code":"9250022"},{"name":"福水町","zip_code":"9250603"},{"name":"堀替新町","zip_code":"9250622"},{"name":"本江町","zip_code":"9250623"},{"name":"本町","zip_code":"9250035"},{"name":"松ケ下町","zip_code":"9250048"},{"name":"的場町","zip_code":"9250036"},{"name":"神子原町","zip_code":"9250608"},{"name":"三ツ屋町","zip_code":"9250024"},{"name":"南中央町","zip_code":"9250053"},{"name":"柳田町","zip_code":"9250018"},{"name":"柳橋町","zip_code":"9250049"},{"name":"吉崎町","zip_code":"9250021"},{"name":"四柳町","zip_code":"9291573"},{"name":"立開町","zip_code":"9250041"},{"name":"若草町","zip_code":"9250023"}]},{"name":"かほく市","divisions":[{"name":"秋浜","zip_code":"9291175"},{"name":"宇気","zip_code":"9291121"},{"name":"内高松","zip_code":"9291214"},{"name":"内日角","zip_code":"9291126"},{"name":"宇野気","zip_code":"9291125"},{"name":"上田名","zip_code":"9291102"},{"name":"大崎","zip_code":"9291127"},{"name":"学園台","zip_code":"9291210"},{"name":"笠島","zip_code":"9291104"},{"name":"上山田","zip_code":"9291115"},{"name":"狩鹿野","zip_code":"9291114"},{"name":"元女","zip_code":"9291206"},{"name":"木津","zip_code":"9291171"},{"name":"気屋","zip_code":"9291111"},{"name":"黒川","zip_code":"9291203"},{"name":"指江","zip_code":"9291113"},{"name":"下山田","zip_code":"9291116"},{"name":"白尾","zip_code":"9291177"},{"name":"瀬戸町","zip_code":"9291208"},{"name":"外日角","zip_code":"9291176"},{"name":"高松","zip_code":"9291215"},{"name":"多田","zip_code":"9291112"},{"name":"谷","zip_code":"9291103"},{"name":"遠塚","zip_code":"9291173"},{"name":"中沼","zip_code":"9291212"},{"name":"長柄町","zip_code":"9291213"},{"name":"夏栗","zip_code":"9291207"},{"name":"七窪","zip_code":"9291122"},{"name":"野寺","zip_code":"9291201"},{"name":"八野","zip_code":"9291202"},{"name":"鉢伏","zip_code":"9291117"},{"name":"浜北","zip_code":"9291174"},{"name":"二ツ屋","zip_code":"9291211"},{"name":"松浜","zip_code":"9291172"},{"name":"箕打","zip_code":"9291204"},{"name":"森","zip_code":"9291123"},{"name":"横山","zip_code":"9291105"},{"name":"余地","zip_code":"9291101"},{"name":"若緑","zip_code":"9291205"}]},{"name":"白山市","divisions":[{"name":"相滝町","zip_code":"9202367"},{"name":"相木町","zip_code":"9240022"},{"name":"青葉台","zip_code":"9240819"},{"name":"明島町","zip_code":"9202132"},{"name":"旭丘","zip_code":"9240004"},{"name":"あさひ荘苑","zip_code":"9240019"},{"name":"旭町","zip_code":"9240888"},{"name":"阿手町","zip_code":"9202356"},{"name":"阿弥陀島町","zip_code":"9240056"},{"name":"荒谷","zip_code":"9202332"},{"name":"荒屋柏野町","zip_code":"9240037"},{"name":"荒屋町","zip_code":"9202151"},{"name":"行町","zip_code":"9202148"},{"name":"安養寺町","zip_code":"9202141"},{"name":"石立町","zip_code":"9240058"},{"name":"石同新町","zip_code":"9240806"},{"name":"石同町","zip_code":"9240807"},{"name":"井関町","zip_code":"9290211"},{"name":"一塚町","zip_code":"9240005"},{"name":"市原","zip_code":"9202327"},{"name":"乾町","zip_code":"9240803"},{"name":"井口町","zip_code":"9202154"},{"name":"今平町","zip_code":"9240827"},{"name":"内方新保町","zip_code":"9240847"},{"name":"漆島町","zip_code":"9240835"},{"name":"大竹町","zip_code":"9202144"},{"name":"小川町","zip_code":"9240067"},{"name":"尾添","zip_code":"9202333"},{"name":"乙丸町","zip_code":"9240826"},{"name":"女原","zip_code":"9202335"},{"name":"小柳町","zip_code":"9202103"},{"name":"笠間新","zip_code":"9240062"},{"name":"笠間町","zip_code":"9240063"},{"name":"鹿島平","zip_code":"9290206"},{"name":"鍛治町","zip_code":"9240876"},{"name":"鹿島町","zip_code":"9290201"},{"name":"柏町","zip_code":"9240043"},{"name":"数瀬町","zip_code":"9202355"},{"name":"釜清水町","zip_code":"9202341"},{"name":"釜谷","zip_code":"9202338"},{"name":"上小川町","zip_code":"9240066"},{"name":"上柏野町","zip_code":"9240035"},{"name":"上島田町","zip_code":"9240846"},{"name":"上野町","zip_code":"9202375"},{"name":"上二口町","zip_code":"9240828"},{"name":"上安田町","zip_code":"9240853"},{"name":"上吉谷町","zip_code":"9202344"},{"name":"河合町","zip_code":"9202373"},{"name":"河内町板尾","zip_code":"9202315"},{"name":"河内町内尾","zip_code":"9202318"},{"name":"河内町奥池","zip_code":"9202312"},{"name":"河内町きりの里","zip_code":"9202304"},{"name":"河内町金間","zip_code":"9202316"},{"name":"河内町口直海","zip_code":"9202301"},{"name":"河内町久保","zip_code":"9202313"},{"name":"河内町江津","zip_code":"9202305"},{"name":"河内町下折","zip_code":"9202317"},{"name":"河内町中直海","zip_code":"9202311"},{"name":"河内町吹上","zip_code":"9202314"},{"name":"河内町福岡","zip_code":"9202303"},{"name":"河内町ふじが丘","zip_code":"9202302"},{"name":"河内町吉岡","zip_code":"9202306"},{"name":"河原山町","zip_code":"9202346"},{"name":"北島町","zip_code":"9240055"},{"name":"北成町","zip_code":"9240030"},{"name":"北安田西","zip_code":"9240039"},{"name":"北安田町","zip_code":"9240024"},{"name":"木滑","zip_code":"9202326"},{"name":"木滑新","zip_code":"9202325"},{"name":"倉部町","zip_code":"9240007"},{"name":"倉光","zip_code":"9240865"},{"name":"倉光西","zip_code":"9240866"},{"name":"黒瀬町","zip_code":"9240064"},{"name":"桑島","zip_code":"9202502"},{"name":"剣崎町","zip_code":"9240842"},{"name":"源兵島町","zip_code":"9240052"},{"name":"木津町","zip_code":"9240821"},{"name":"幸明町","zip_code":"9240817"},{"name":"御影堂町","zip_code":"9240851"},{"name":"小上町","zip_code":"9240034"},{"name":"五十谷町","zip_code":"9202357"},{"name":"五歩市町","zip_code":"9240014"},{"name":"五味島","zip_code":"9202337"},{"name":"坂尻町","zip_code":"9202102"},{"name":"佐良","zip_code":"9202322"},{"name":"三宮町","zip_code":"9202114"},{"name":"七原町","zip_code":"9202143"},{"name":"七郎町","zip_code":"9240065"},{"name":"柴木","zip_code":"9202164"},{"name":"柴木町","zip_code":"9202163"},{"name":"島田町","zip_code":"9240845"},{"name":"下柏野町","zip_code":"9240038"},{"name":"下田原","zip_code":"9202503"},{"name":"下野町","zip_code":"9202374"},{"name":"下吉谷町","zip_code":"9202342"},{"name":"白峰","zip_code":"9202501"},{"name":"白山町","zip_code":"9202115"},{"name":"新田町","zip_code":"9240015"},{"name":"新成","zip_code":"9240020"},{"name":"末広","zip_code":"9240878"},{"name":"末正町","zip_code":"9290213"},{"name":"菅波町","zip_code":"9240825"},{"name":"杉森町","zip_code":"9202364"},{"name":"瀬木野町","zip_code":"9202372"},{"name":"瀬戸","zip_code":"9202331"},{"name":"瀬波","zip_code":"9202323"},{"name":"専福寺町","zip_code":"9240802"},{"name":"相川新町","zip_code":"9240028"},{"name":"相川町","zip_code":"9240027"},{"name":"曽谷町","zip_code":"9202101"},{"name":"竹松町","zip_code":"9240021"},{"name":"田地町","zip_code":"9240824"},{"name":"辰巳町","zip_code":"9240875"},{"name":"田中町","zip_code":"9240801"},{"name":"知気寺町","zip_code":"9202155"},{"name":"茶屋","zip_code":"9240867"},{"name":"中宮","zip_code":"9202324"},{"name":"長屋町","zip_code":"9290214"},{"name":"千代野西","zip_code":"9240072"},{"name":"千代野東","zip_code":"9240073"},{"name":"千代野南","zip_code":"9240074"},{"name":"月橋町","zip_code":"9202104"},{"name":"鶴来朝日町","zip_code":"9202111"},{"name":"鶴来今町","zip_code":"9202125"},{"name":"鶴来大国町","zip_code":"9202133"},{"name":"鶴来上東町","zip_code":"9202127"},{"name":"鶴来桑島町","zip_code":"9202166"},{"name":"鶴来下東町","zip_code":"9202128"},{"name":"鶴来新町","zip_code":"9202126"},{"name":"鶴来清沢町","zip_code":"9202124"},{"name":"鶴来知守町","zip_code":"9202122"},{"name":"鶴来日詰町","zip_code":"9202123"},{"name":"鶴来日吉町","zip_code":"9202112"},{"name":"鶴来古町","zip_code":"9202129"},{"name":"鶴来本町","zip_code":"9202121"},{"name":"鶴来水戸町","zip_code":"9202134"},{"name":"出合島町","zip_code":"9240854"},{"name":"出合町","zip_code":"9202368"},{"name":"手取町","zip_code":"9290212"},{"name":"道法寺町","zip_code":"9202162"},{"name":"徳丸町","zip_code":"9240804"},{"name":"徳光町","zip_code":"9240071"},{"name":"殿町","zip_code":"9240885"},{"name":"富光寺町","zip_code":"9202165"},{"name":"中奥町","zip_code":"9240818"},{"name":"中柏野町","zip_code":"9240036"},{"name":"中島町","zip_code":"9202116"},{"name":"長島町","zip_code":"9240848"},{"name":"中新保町","zip_code":"9240003"},{"name":"長竹町","zip_code":"9240811"},{"name":"鴇ケ谷","zip_code":"9202339"},{"name":"中成","zip_code":"9240029"},{"name":"中ノ郷町","zip_code":"9202147"},{"name":"中町","zip_code":"9240877"},{"name":"成町","zip_code":"9240023"},{"name":"西柏","zip_code":"9240045"},{"name":"西柏町","zip_code":"9240044"},{"name":"西佐良町","zip_code":"9202343"},{"name":"西新町","zip_code":"9240871"},{"name":"西美沢野","zip_code":"9240046"},{"name":"西美沢野町","zip_code":"9240047"},{"name":"西米光町","zip_code":"9290202"},{"name":"布市","zip_code":"9240808"},{"name":"熱野町","zip_code":"9202161"},{"name":"野地町","zip_code":"9202352"},{"name":"博労","zip_code":"9240863"},{"name":"橋爪新町","zip_code":"9240814"},{"name":"橋爪町","zip_code":"9240812"},{"name":"蓮池町","zip_code":"9290205"},{"name":"八田中町","zip_code":"9240002"},{"name":"八田町","zip_code":"9240001"},{"name":"馬場","zip_code":"9240864"},{"name":"番匠町","zip_code":"9240013"},{"name":"番田町","zip_code":"9240856"},{"name":"東一番町","zip_code":"9240883"},{"name":"東柏町","zip_code":"9240042"},{"name":"東三番町","zip_code":"9240887"},{"name":"東新町","zip_code":"9240884"},{"name":"東二番町","zip_code":"9240886"},{"name":"東二口","zip_code":"9202336"},{"name":"東美沢野町","zip_code":"9240041"},{"name":"左礫町","zip_code":"9202353"},{"name":"日御子町","zip_code":"9202153"},{"name":"日向町","zip_code":"9202146"},{"name":"平加町","zip_code":"9290204"},{"name":"平木町","zip_code":"9240026"},{"name":"平松町","zip_code":"9240841"},{"name":"広瀬町","zip_code":"9202371"},{"name":"深瀬","zip_code":"9202334"},{"name":"深瀬新町","zip_code":"9202142"},{"name":"福正寺町","zip_code":"9240813"},{"name":"福新町","zip_code":"9240858"},{"name":"福留町","zip_code":"9240051"},{"name":"福留南","zip_code":"9240059"},{"name":"福永町","zip_code":"9240857"},{"name":"福増町","zip_code":"9240012"},{"name":"仏師ケ野町","zip_code":"9202347"},{"name":"藤波","zip_code":"9240831"},{"name":"藤木町","zip_code":"9240832"},{"name":"蕪城","zip_code":"9240025"},{"name":"部入道町","zip_code":"9202167"},{"name":"古城町","zip_code":"9240872"},{"name":"別宮出町","zip_code":"9202363"},{"name":"別宮町","zip_code":"9202362"},{"name":"法仏町","zip_code":"9240076"},{"name":"坊丸町","zip_code":"9240823"},{"name":"松本町","zip_code":"9240057"},{"name":"三浦町","zip_code":"9240815"},{"name":"美川今町","zip_code":"9290221"},{"name":"美川永代町","zip_code":"9290235"},{"name":"美川北町","zip_code":"9290223"},{"name":"美川神幸町","zip_code":"9290234"},{"name":"美川新町","zip_code":"9290222"},{"name":"美川末広町","zip_code":"9290232"},{"name":"美川中町","zip_code":"9290224"},{"name":"美川浜町","zip_code":"9290233"},{"name":"美川南町","zip_code":"9290215"},{"name":"美川本吉町","zip_code":"9290216"},{"name":"美川和波町","zip_code":"9290231"},{"name":"神子清水町","zip_code":"9202365"},{"name":"三坂町","zip_code":"9202361"},{"name":"美里町","zip_code":"9240820"},{"name":"美沢野町","zip_code":"9240048"},{"name":"水島町","zip_code":"9240855"},{"name":"みずほ","zip_code":"9240822"},{"name":"水澄町","zip_code":"9240053"},{"name":"三ツ瀬町","zip_code":"9202354"},{"name":"三ツ屋野町","zip_code":"9202345"},{"name":"湊町","zip_code":"9290217"},{"name":"宮永市町","zip_code":"9240016"},{"name":"宮永新町","zip_code":"9240018"},{"name":"宮永町","zip_code":"9240017"},{"name":"宮原町","zip_code":"9240069"},{"name":"宮保新町","zip_code":"9240068"},{"name":"宮保町","zip_code":"9240061"},{"name":"宮丸町","zip_code":"9240033"},{"name":"三幸町","zip_code":"9240816"},{"name":"明法島町","zip_code":"9202145"},{"name":"向島町","zip_code":"9240833"},{"name":"村井新町","zip_code":"9240006"},{"name":"村井東","zip_code":"9240031"},{"name":"村井町","zip_code":"9240032"},{"name":"明光","zip_code":"9202152"},{"name":"森島町","zip_code":"9202131"},{"name":"矢頃島町","zip_code":"9240834"},{"name":"安田町","zip_code":"9240862"},{"name":"安吉町","zip_code":"9240843"},{"name":"八束穂","zip_code":"9240838"},{"name":"八ツ矢新町","zip_code":"9240881"},{"name":"八ツ矢町","zip_code":"9240882"},{"name":"柳原町","zip_code":"9202351"},{"name":"山島台","zip_code":"9240836"},{"name":"八幡町","zip_code":"9202113"},{"name":"八日市町","zip_code":"9240873"},{"name":"横江町","zip_code":"9240011"},{"name":"横町","zip_code":"9240861"},{"name":"吉田町","zip_code":"9240837"},{"name":"吉野","zip_code":"9202321"},{"name":"四日市町","zip_code":"9240874"},{"name":"四ツ屋町","zip_code":"9240852"},{"name":"米永町","zip_code":"9240075"},{"name":"米光町","zip_code":"9240054"},{"name":"寄新保町","zip_code":"9240844"},{"name":"若草町","zip_code":"9290203"},{"name":"若原町","zip_code":"9202376"},{"name":"若宮","zip_code":"9240805"},{"name":"渡津町","zip_code":"9202366"}]},{"name":"能美市","divisions":[{"name":"粟生町","zip_code":"9231101"},{"name":"赤井町","zip_code":"9290101"},{"name":"秋常町","zip_code":"9231103"},{"name":"旭台","zip_code":"9231211"},{"name":"莇生町","zip_code":"9231202"},{"name":"荒屋町","zip_code":"9231233"},{"name":"石子町","zip_code":"9231105"},{"name":"泉台町","zip_code":"9231111"},{"name":"岩内町","zip_code":"9231201"},{"name":"岩本町","zip_code":"9231207"},{"name":"牛島町","zip_code":"9231113"},{"name":"大口町","zip_code":"9231212"},{"name":"大長野町","zip_code":"9231115"},{"name":"大浜町","zip_code":"9290122"},{"name":"上開発町","zip_code":"9231231"},{"name":"上清水町","zip_code":"9231237"},{"name":"北市町","zip_code":"9231236"},{"name":"倉重町","zip_code":"9231246"},{"name":"高座町","zip_code":"9231234"},{"name":"五間堂町","zip_code":"9290103"},{"name":"小杉町","zip_code":"9231114"},{"name":"小長野町","zip_code":"9231116"},{"name":"金剛寺町","zip_code":"9231214"},{"name":"佐野町","zip_code":"9231112"},{"name":"三道山町","zip_code":"9231124"},{"name":"下開発町","zip_code":"9231232"},{"name":"下清水町","zip_code":"9231238"},{"name":"下ノ江町","zip_code":"9290115"},{"name":"新保町","zip_code":"9231102"},{"name":"末信町","zip_code":"9231117"},{"name":"大成町","zip_code":"9290113"},{"name":"高坂町","zip_code":"9290116"},{"name":"舘町","zip_code":"9231215"},{"name":"辰口町","zip_code":"9231245"},{"name":"坪野町","zip_code":"9231213"},{"name":"出口町","zip_code":"9231247"},{"name":"寺井町","zip_code":"9231121"},{"name":"寺畠町","zip_code":"9231223"},{"name":"道林町","zip_code":"9290125"},{"name":"徳山町","zip_code":"9231222"},{"name":"徳久町","zip_code":"9231235"},{"name":"灯台笹町","zip_code":"9231206"},{"name":"長滝町","zip_code":"9231204"},{"name":"中ノ江町","zip_code":"9290105"},{"name":"中庄町","zip_code":"9290104"},{"name":"中町","zip_code":"9290123"},{"name":"鍋谷町","zip_code":"9231216"},{"name":"西任田町","zip_code":"9290102"},{"name":"西二口町","zip_code":"9290106"},{"name":"根上町","zip_code":"9290116"},{"name":"能美","zip_code":"9290108"},{"name":"浜開発町","zip_code":"9290114"},{"name":"浜町","zip_code":"9290124"},{"name":"東任田町","zip_code":"9231122"},{"name":"火釜町","zip_code":"9231242"},{"name":"福岡町","zip_code":"9290107"},{"name":"福島町","zip_code":"9290112"},{"name":"仏大寺町","zip_code":"9231217"},{"name":"松が岡","zip_code":"9231225"},{"name":"末寺町","zip_code":"9231107"},{"name":"三ツ口町","zip_code":"9231203"},{"name":"三ツ屋町","zip_code":"9231243"},{"name":"緑が丘","zip_code":"9231226"},{"name":"宮竹町","zip_code":"9231205"},{"name":"山口町","zip_code":"9290126"},{"name":"山田町","zip_code":"9231241"},{"name":"湯谷町","zip_code":"9231104"},{"name":"湯屋町","zip_code":"9231221"},{"name":"吉原釜屋町","zip_code":"9290121"},{"name":"吉原町","zip_code":"9290111"},{"name":"吉光町","zip_code":"9231123"},{"name":"来丸町","zip_code":"9231244"},{"name":"和気町","zip_code":"9231224"},{"name":"和光台","zip_code":"9231227"},{"name":"和佐谷町","zip_code":"9231208"},{"name":"和田町","zip_code":"9231106"}]},{"name":"野々市市","divisions":[{"name":"粟田","zip_code":"9218823"},{"name":"稲荷","zip_code":"9218805"},{"name":"扇が丘","zip_code":"9218812"},{"name":"御経塚","zip_code":"9218801"},{"name":"押越","zip_code":"9218803"},{"name":"押野","zip_code":"9218802"},{"name":"上林","zip_code":"9218835"},{"name":"清金","zip_code":"9218837"},{"name":"位川","zip_code":"9218846"},{"name":"郷町","zip_code":"9218841"},{"name":"三納","zip_code":"9218825"},{"name":"下林","zip_code":"9218831"},{"name":"新庄","zip_code":"9218824"},{"name":"末松","zip_code":"9218836"},{"name":"菅原町","zip_code":"9218814"},{"name":"住吉町","zip_code":"9218813"},{"name":"高橋町","zip_code":"9218811"},{"name":"田尻町","zip_code":"9218843"},{"name":"太平寺","zip_code":"9218845"},{"name":"徳用町","zip_code":"9218842"},{"name":"藤平田","zip_code":"9218832"},{"name":"中林","zip_code":"9218834"},{"name":"長池","zip_code":"9218808"},{"name":"野代","zip_code":"9218804"},{"name":"白山町","zip_code":"9218821"},{"name":"藤平","zip_code":"9218833"},{"name":"二日市町","zip_code":"9218807"},{"name":"堀内","zip_code":"9218844"},{"name":"本町","zip_code":"9218815"},{"name":"三日市町","zip_code":"9218806"},{"name":"柳町","zip_code":"9218848"},{"name":"矢作","zip_code":"9218822"},{"name":"横宮町","zip_code":"9218817"},{"name":"蓮花寺町","zip_code":"9218847"},{"name":"若松町","zip_code":"9218816"}]},{"name":"能美郡川北町","divisions":[{"name":"朝日","zip_code":"9231278"},{"name":"上先出","zip_code":"9231265"},{"name":"上田子島","zip_code":"9231269"},{"name":"草深","zip_code":"9231262"},{"name":"木呂場","zip_code":"9231274"},{"name":"木呂場新","zip_code":"9231275"},{"name":"サンコーポラス","zip_code":"9231254"},{"name":"三反田","zip_code":"9231253"},{"name":"下田子島","zip_code":"9231272"},{"name":"下土室","zip_code":"9231263"},{"name":"下先出","zip_code":"9231266"},{"name":"田子島","zip_code":"9231271"},{"name":"橘","zip_code":"9231276"},{"name":"橘新","zip_code":"9231277"},{"name":"土室","zip_code":"9231261"},{"name":"藤蔵","zip_code":"9231251"},{"name":"中島","zip_code":"9231252"},{"name":"壱ツ屋","zip_code":"9231267"},{"name":"舟場島","zip_code":"9231273"},{"name":"山田先出","zip_code":"9231264"},{"name":"与九郎島","zip_code":"9231268"}]},{"name":"河北郡津幡町","divisions":[{"name":"相窪","zip_code":"9290437"},{"name":"浅田","zip_code":"9290324"},{"name":"朝日畑","zip_code":"9290436"},{"name":"旭山","zip_code":"9290447"},{"name":"浅谷","zip_code":"9290344"},{"name":"莇谷","zip_code":"9290403"},{"name":"池ケ原","zip_code":"9290311"},{"name":"市谷","zip_code":"9290462"},{"name":"井上の荘","zip_code":"9290335"},{"name":"井野河内","zip_code":"9290445"},{"name":"岩崎","zip_code":"9290453"},{"name":"牛首","zip_code":"9290303"},{"name":"瓜生","zip_code":"9290301"},{"name":"上野","zip_code":"9290405"},{"name":"越中坂","zip_code":"9290415"},{"name":"大窪","zip_code":"9290431"},{"name":"太田","zip_code":"9290345"},{"name":"大坪","zip_code":"9290442"},{"name":"大畠","zip_code":"9290404"},{"name":"大熊","zip_code":"9290467"},{"name":"加賀爪","zip_code":"9290325"},{"name":"笠池ケ原","zip_code":"9290402"},{"name":"潟端","zip_code":"9290346"},{"name":"上大田","zip_code":"9290309"},{"name":"上河合","zip_code":"9290304"},{"name":"上藤又","zip_code":"9290422"},{"name":"上矢田","zip_code":"9290314"},{"name":"加茂","zip_code":"9290321"},{"name":"刈安","zip_code":"9290416"},{"name":"川尻","zip_code":"9290334"},{"name":"河内","zip_code":"9290411"},{"name":"北中条","zip_code":"9290342"},{"name":"北横根","zip_code":"9290432"},{"name":"木ノ窪","zip_code":"9290302"},{"name":"興津","zip_code":"9290306"},{"name":"倉見","zip_code":"9290455"},{"name":"倶利伽羅","zip_code":"9290413"},{"name":"仮生","zip_code":"9290444"},{"name":"五反田","zip_code":"9290333"},{"name":"湖東","zip_code":"9290328"},{"name":"籠月","zip_code":"9290406"},{"name":"小熊","zip_code":"9290312"},{"name":"材木","zip_code":"9290435"},{"name":"坂戸","zip_code":"9290417"},{"name":"七黒","zip_code":"9290456"},{"name":"七野","zip_code":"9290425"},{"name":"清水","zip_code":"9290326"},{"name":"下河合","zip_code":"9290305"},{"name":"下中","zip_code":"9290423"},{"name":"下藤又","zip_code":"9290424"},{"name":"下矢田","zip_code":"9290315"},{"name":"庄","zip_code":"9290327"},{"name":"常徳","zip_code":"9290434"},{"name":"杉瀬","zip_code":"9290454"},{"name":"竹橋","zip_code":"9290426"},{"name":"種","zip_code":"9290307"},{"name":"田屋","zip_code":"9290452"},{"name":"九折","zip_code":"9290412"},{"name":"津幡","zip_code":"9290323"},{"name":"富田","zip_code":"9290427"},{"name":"鳥越","zip_code":"9290465"},{"name":"鳥屋尾","zip_code":"9290407"},{"name":"中須加","zip_code":"9290332"},{"name":"中橋","zip_code":"9290331"},{"name":"中山","zip_code":"9290313"},{"name":"能瀬","zip_code":"9290319"},{"name":"八ノ谷","zip_code":"9290461"},{"name":"原","zip_code":"9290421"},{"name":"東荒屋","zip_code":"9290441"},{"name":"彦太郎畠","zip_code":"9290401"},{"name":"平野","zip_code":"9290307"},{"name":"舟尾","zip_code":"9290434"},{"name":"舟橋","zip_code":"9290328"},{"name":"別所","zip_code":"9290443"},{"name":"菩提寺","zip_code":"9290308"},{"name":"御門","zip_code":"9290316"},{"name":"緑が丘","zip_code":"9290322"},{"name":"南中条","zip_code":"9290343"},{"name":"南横根","zip_code":"9290433"},{"name":"宮田","zip_code":"9290451"},{"name":"明神","zip_code":"9290446"},{"name":"谷内","zip_code":"9290317"},{"name":"山森","zip_code":"9290414"},{"name":"山北","zip_code":"9290464"},{"name":"横浜","zip_code":"9290341"},{"name":"吉倉","zip_code":"9290466"},{"name":"領家","zip_code":"9290318"},{"name":"蓮花寺","zip_code":"9290463"}]},{"name":"河北郡内灘町","divisions":[{"name":"アカシア","zip_code":"9200273"},{"name":"旭ケ丘","zip_code":"9200275"},{"name":"大根布","zip_code":"9200266"},{"name":"向陽台","zip_code":"9200272"},{"name":"湖西","zip_code":"9200263"},{"name":"白帆台","zip_code":"9200269"},{"name":"大学","zip_code":"9200265"},{"name":"大清台","zip_code":"9200267"},{"name":"千鳥台","zip_code":"9200277"},{"name":"鶴ケ丘","zip_code":"9200271"},{"name":"西荒屋","zip_code":"9200262"},{"name":"ハマナス","zip_code":"9200268"},{"name":"緑台","zip_code":"9200276"},{"name":"宮坂","zip_code":"9200264"},{"name":"向粟崎","zip_code":"9200274"},{"name":"室","zip_code":"9200261"}]},{"name":"羽咋郡志賀町","divisions":[{"name":"相神","zip_code":"9250454"},{"name":"赤崎","zip_code":"9250574"},{"name":"赤住","zip_code":"9250161"},{"name":"阿川","zip_code":"9250426"},{"name":"安津見","zip_code":"9250121"},{"name":"穴口","zip_code":"9250132"},{"name":"安部屋","zip_code":"9250166"},{"name":"甘田","zip_code":"9250146"},{"name":"荒屋","zip_code":"9250307"},{"name":"出雲","zip_code":"9250215"},{"name":"稲敷","zip_code":"9250563"},{"name":"今田","zip_code":"9250432"},{"name":"入釜","zip_code":"9250424"},{"name":"岩田","zip_code":"9250145"},{"name":"印内","zip_code":"9250201"},{"name":"牛ケ首","zip_code":"9250385"},{"name":"鵜野屋","zip_code":"9250423"},{"name":"上棚","zip_code":"9250134"},{"name":"上野","zip_code":"9250165"},{"name":"江添","zip_code":"9250435"},{"name":"小浦","zip_code":"9250163"},{"name":"大坂","zip_code":"9250133"},{"name":"大笹","zip_code":"9250383"},{"name":"大津","zip_code":"9250164"},{"name":"大西","zip_code":"9250434"},{"name":"小窪","zip_code":"9250575"},{"name":"大島","zip_code":"9250147"},{"name":"貝田","zip_code":"9250436"},{"name":"栢木","zip_code":"9250562"},{"name":"神代","zip_code":"9250155"},{"name":"香能","zip_code":"9250565"},{"name":"川尻","zip_code":"9250168"},{"name":"北吉田","zip_code":"9250152"},{"name":"給分","zip_code":"9250457"},{"name":"切留","zip_code":"9250421"},{"name":"草木","zip_code":"9250306"},{"name":"倉垣","zip_code":"9250122"},{"name":"栗山","zip_code":"9250207"},{"name":"小室","zip_code":"9250373"},{"name":"五里峠","zip_code":"9250384"},{"name":"米町","zip_code":"9250382"},{"name":"西海風無","zip_code":"9250571"},{"name":"西海千ノ浦","zip_code":"9250572"},{"name":"西海久喜","zip_code":"9250573"},{"name":"西海風戸","zip_code":"9250566"},{"name":"酒見","zip_code":"9250564"},{"name":"笹波","zip_code":"9250577"},{"name":"里本江","zip_code":"9250453"},{"name":"三明","zip_code":"9250313"},{"name":"鹿頭","zip_code":"9250576"},{"name":"代田","zip_code":"9250202"},{"name":"地保","zip_code":"9250422"},{"name":"清水今江","zip_code":"9250153"},{"name":"釈迦堂","zip_code":"9250371"},{"name":"新林","zip_code":"9250203"},{"name":"末吉","zip_code":"9250154"},{"name":"草江","zip_code":"9250456"},{"name":"楚和","zip_code":"9250427"},{"name":"尊保","zip_code":"9250431"},{"name":"大福寺","zip_code":"9250561"},{"name":"高浜町","zip_code":"9250141"},{"name":"舘","zip_code":"9250136"},{"name":"舘開","zip_code":"9250213"},{"name":"田中","zip_code":"9250437"},{"name":"谷屋","zip_code":"9250206"},{"name":"田原","zip_code":"9250381"},{"name":"坪野","zip_code":"9250144"},{"name":"富来牛下","zip_code":"9250345"},{"name":"富来生神","zip_code":"9250444"},{"name":"富来七海","zip_code":"9250443"},{"name":"富来地頭町","zip_code":"9250446"},{"name":"富来高田","zip_code":"9250448"},{"name":"富来領家町","zip_code":"9250447"},{"name":"徳田","zip_code":"9250212"},{"name":"灯","zip_code":"9250425"},{"name":"中泉","zip_code":"9250452"},{"name":"長沢","zip_code":"9250148"},{"name":"長田","zip_code":"9250376"},{"name":"中畠","zip_code":"9250314"},{"name":"中浜","zip_code":"9250455"},{"name":"中山","zip_code":"9250304"},{"name":"梨谷小山","zip_code":"9250151"},{"name":"西山","zip_code":"9250124"},{"name":"西山台","zip_code":"9250125"},{"name":"二所宮","zip_code":"9250135"},{"name":"直海","zip_code":"9250372"},{"name":"火打谷","zip_code":"9250214"},{"name":"東小室","zip_code":"9250442"},{"name":"日下田","zip_code":"9250303"},{"name":"日用","zip_code":"9250301"},{"name":"広地","zip_code":"9250441"},{"name":"福井","zip_code":"9250137"},{"name":"福野","zip_code":"9250142"},{"name":"福浦港","zip_code":"9250315"},{"name":"豊後名","zip_code":"9250305"},{"name":"仏木","zip_code":"9250205"},{"name":"堀松","zip_code":"9250157"},{"name":"前浜","zip_code":"9250578"},{"name":"牧山","zip_code":"9250204"},{"name":"町","zip_code":"9250167"},{"name":"町居","zip_code":"9250302"},{"name":"松木","zip_code":"9250374"},{"name":"六実","zip_code":"9250312"},{"name":"百浦","zip_code":"9250162"},{"name":"矢蔵谷","zip_code":"9250156"},{"name":"矢田","zip_code":"9250211"},{"name":"矢駄","zip_code":"9250123"},{"name":"谷神","zip_code":"9250311"},{"name":"八千代","zip_code":"9250438"},{"name":"宿女","zip_code":"9250143"},{"name":"八幡","zip_code":"9250451"},{"name":"八幡座主","zip_code":"9250452"},{"name":"米浜","zip_code":"9250131"},{"name":"若葉台","zip_code":"9250375"},{"name":"和田","zip_code":"9250433"}]},{"name":"羽咋郡宝達志水町","divisions":[{"name":"東間","zip_code":"9291313"},{"name":"石坂","zip_code":"9291406"},{"name":"今浜","zip_code":"9291344"},{"name":"今浜新","zip_code":"9291345"},{"name":"上田","zip_code":"9291312"},{"name":"上田出","zip_code":"9291321"},{"name":"海老坂","zip_code":"9291405"},{"name":"小川","zip_code":"9291343"},{"name":"荻市","zip_code":"9291426"},{"name":"荻島","zip_code":"9291412"},{"name":"荻谷","zip_code":"9291413"},{"name":"御舘","zip_code":"9291323"},{"name":"河原","zip_code":"9291303"},{"name":"北川尻","zip_code":"9291332"},{"name":"米出","zip_code":"9291331"},{"name":"紺屋町","zip_code":"9291314"},{"name":"下石","zip_code":"9291406"},{"name":"散田","zip_code":"9291406"},{"name":"子浦","zip_code":"9291425"},{"name":"敷波","zip_code":"9291414"},{"name":"敷浪","zip_code":"9291415"},{"name":"清水原","zip_code":"9291402"},{"name":"宿","zip_code":"9291341"},{"name":"所司原","zip_code":"9291403"},{"name":"新宮","zip_code":"9291404"},{"name":"菅原","zip_code":"9291423"},{"name":"杉野屋","zip_code":"9291422"},{"name":"沢川","zip_code":"9390171"},{"name":"竹生野","zip_code":"9291305"},{"name":"坪山","zip_code":"9291325"},{"name":"出浜","zip_code":"9291416"},{"name":"当熊","zip_code":"9291404"},{"name":"中野","zip_code":"9291316"},{"name":"走入","zip_code":"9291402"},{"name":"原","zip_code":"9291404"},{"name":"針山","zip_code":"9291405"},{"name":"東野","zip_code":"9291315"},{"name":"聖川","zip_code":"9291405"},{"name":"平床","zip_code":"9291405"},{"name":"二口","zip_code":"9291421"},{"name":"冬野","zip_code":"9291326"},{"name":"宝達","zip_code":"9291301"},{"name":"正友","zip_code":"9291324"},{"name":"見砂","zip_code":"9291402"},{"name":"三日町","zip_code":"9291322"},{"name":"南吉田","zip_code":"9291304"},{"name":"麦生","zip_code":"9291342"},{"name":"向瀬","zip_code":"9291401"},{"name":"免田","zip_code":"9291333"},{"name":"森本","zip_code":"9291327"},{"name":"門前","zip_code":"9291311"},{"name":"柳瀬","zip_code":"9291411"},{"name":"山崎","zip_code":"9291302"},{"name":"吉野屋","zip_code":"9291424"}]},{"name":"鹿島郡中能登町","divisions":[{"name":"浅井","zip_code":"9291816"},{"name":"蟻ケ原","zip_code":"9291813"},{"name":"在江","zip_code":"9291804"},{"name":"井田","zip_code":"9291721"},{"name":"今羽坂","zip_code":"9291713"},{"name":"大槻","zip_code":"9291702"},{"name":"尾崎","zip_code":"9291724"},{"name":"小竹","zip_code":"9291722"},{"name":"金丸","zip_code":"9291521"},{"name":"上後山","zip_code":"9291606"},{"name":"川田","zip_code":"9291701"},{"name":"久江","zip_code":"9291631"},{"name":"久乃木","zip_code":"9291801"},{"name":"黒氏","zip_code":"9291716"},{"name":"小金森","zip_code":"9291636"},{"name":"小田中","zip_code":"9291632"},{"name":"最勝講","zip_code":"9291726"},{"name":"下後山","zip_code":"9291605"},{"name":"新庄","zip_code":"9291712"},{"name":"末坂","zip_code":"9291704"},{"name":"石動山","zip_code":"9291812"},{"name":"瀬戸","zip_code":"9291706"},{"name":"芹川","zip_code":"9291815"},{"name":"曽祢","zip_code":"9291637"},{"name":"高畠","zip_code":"9291635"},{"name":"武部","zip_code":"9291802"},{"name":"坪川","zip_code":"9291805"},{"name":"徳前","zip_code":"9291817"},{"name":"徳丸","zip_code":"9291603"},{"name":"西","zip_code":"9291803"},{"name":"西馬場","zip_code":"9291601"},{"name":"二宮","zip_code":"9291811"},{"name":"二宮あおば台","zip_code":"9291818"},{"name":"能登部上","zip_code":"9291602"},{"name":"能登部下","zip_code":"9291604"},{"name":"羽坂","zip_code":"9291714"},{"name":"花見月","zip_code":"9291705"},{"name":"原山","zip_code":"9291814"},{"name":"春木","zip_code":"9291703"},{"name":"東馬場","zip_code":"9291725"},{"name":"廿九日","zip_code":"9291711"},{"name":"一青","zip_code":"9291715"},{"name":"福田","zip_code":"9291634"},{"name":"藤井","zip_code":"9291633"},{"name":"水白","zip_code":"9291723"},{"name":"良川","zip_code":"9291717"}]},{"name":"鳳珠郡穴水町","divisions":[{"name":"旭ケ丘","zip_code":"9270006"},{"name":"伊久留","zip_code":"9270003"},{"name":"市ノ坂","zip_code":"9270235"},{"name":"岩車","zip_code":"9270007"},{"name":"宇加川","zip_code":"9270205"},{"name":"鵜島","zip_code":"9270031"},{"name":"内浦","zip_code":"9270025"},{"name":"宇留地","zip_code":"9270042"},{"name":"上野","zip_code":"9270054"},{"name":"大角間","zip_code":"9270048"},{"name":"大甲","zip_code":"9270215"},{"name":"大町","zip_code":"9270026"},{"name":"沖波","zip_code":"9270207"},{"name":"乙ケ崎","zip_code":"9270032"},{"name":"小又","zip_code":"9270051"},{"name":"鹿島","zip_code":"9270038"},{"name":"梶","zip_code":"9270014"},{"name":"桂谷","zip_code":"9270049"},{"name":"鹿波","zip_code":"9270223"},{"name":"甲","zip_code":"9270211"},{"name":"上唐川","zip_code":"9270056"},{"name":"上中","zip_code":"9270047"},{"name":"川尻","zip_code":"9270008"},{"name":"川島","zip_code":"9270027"},{"name":"河内","zip_code":"9270045"},{"name":"北七海","zip_code":"9270022"},{"name":"木原","zip_code":"9270011"},{"name":"此木","zip_code":"9270053"},{"name":"樟谷","zip_code":"9270001"},{"name":"黒崎","zip_code":"9270212"},{"name":"越渡","zip_code":"9270046"},{"name":"小甲","zip_code":"9270214"},{"name":"越の原","zip_code":"9270043"},{"name":"鹿上","zip_code":"9270224"},{"name":"志ケ浦","zip_code":"9270035"},{"name":"至誠","zip_code":"9270213"},{"name":"地蔵坊","zip_code":"9270055"},{"name":"七海","zip_code":"9270021"},{"name":"下唐川","zip_code":"9270057"},{"name":"汁谷","zip_code":"9270046"},{"name":"瑞鳳","zip_code":"9270013"},{"name":"菅谷","zip_code":"9270002"},{"name":"曽福","zip_code":"9270039"},{"name":"曽山","zip_code":"9270004"},{"name":"曽良","zip_code":"9270221"},{"name":"大郷","zip_code":"9270222"},{"name":"竹太","zip_code":"9270201"},{"name":"天神谷","zip_code":"9270041"},{"name":"中居","zip_code":"9270015"},{"name":"中居南","zip_code":"9270016"},{"name":"新崎","zip_code":"9270034"},{"name":"根木","zip_code":"9270037"},{"name":"野並","zip_code":"9270225"},{"name":"挾石","zip_code":"9270058"},{"name":"波志借","zip_code":"9270017"},{"name":"花園","zip_code":"9270203"},{"name":"東中谷","zip_code":"9270005"},{"name":"東山","zip_code":"9270232"},{"name":"比良","zip_code":"9270009"},{"name":"平野","zip_code":"9270052"},{"name":"藤巻","zip_code":"9270012"},{"name":"古君","zip_code":"9270202"},{"name":"望洋台","zip_code":"9270036"},{"name":"前波","zip_code":"9270206"},{"name":"緑ケ丘","zip_code":"9270033"},{"name":"明千寺","zip_code":"9270204"},{"name":"麦ケ浦","zip_code":"9270023"},{"name":"女良川","zip_code":"9270233"},{"name":"山中","zip_code":"9270231"},{"name":"由比ケ丘","zip_code":"9270024"},{"name":"鹿路","zip_code":"9270044"}]},{"name":"鳳珠郡能登町","divisions":[{"name":"秋吉","zip_code":"9270612"},{"name":"明野","zip_code":"9270551"},{"name":"五十里","zip_code":"9280332"},{"name":"石井","zip_code":"9280306"},{"name":"泉","zip_code":"9270626"},{"name":"市之瀬","zip_code":"9270554"},{"name":"猪平","zip_code":"9270444"},{"name":"宇加塚","zip_code":"9270452"},{"name":"鵜川","zip_code":"9270302"},{"name":"宇出津","zip_code":"9270433"},{"name":"宇出津新","zip_code":"9270432"},{"name":"宇出津新港","zip_code":"9270435"},{"name":"宇出津山分","zip_code":"9270431"},{"name":"内浦長尾","zip_code":"9270608"},{"name":"小浦","zip_code":"9270564"},{"name":"太田原","zip_code":"9270325"},{"name":"大箱","zip_code":"9280335"},{"name":"小垣","zip_code":"9270303"},{"name":"小木","zip_code":"9270553"},{"name":"越坂","zip_code":"9270552"},{"name":"小間生","zip_code":"9280302"},{"name":"河ケ谷","zip_code":"9270613"},{"name":"柿生","zip_code":"9270304"},{"name":"柏木","zip_code":"9270324"},{"name":"上","zip_code":"9270621"},{"name":"上長尾","zip_code":"9280301"},{"name":"神和住","zip_code":"9280325"},{"name":"鴨川","zip_code":"9280308"},{"name":"上町","zip_code":"9280312"},{"name":"木住","zip_code":"9270313"},{"name":"北河内","zip_code":"9280336"},{"name":"久田","zip_code":"9280305"},{"name":"清真","zip_code":"9270611"},{"name":"桐畑","zip_code":"9280303"},{"name":"国重","zip_code":"9270625"},{"name":"国光","zip_code":"9280307"},{"name":"九里川尻","zip_code":"9270604"},{"name":"黒川","zip_code":"9280333"},{"name":"恋路","zip_code":"9270601"},{"name":"合鹿","zip_code":"9280311"},{"name":"駒渡","zip_code":"9270626"},{"name":"五郎左エ門分","zip_code":"9280323"},{"name":"斉和","zip_code":"9280326"},{"name":"崎山","zip_code":"9270434"},{"name":"鮭尾","zip_code":"9270323"},{"name":"笹川","zip_code":"9280314"},{"name":"七見","zip_code":"9270301"},{"name":"十郎原","zip_code":"9280321"},{"name":"白丸","zip_code":"9270607"},{"name":"新保","zip_code":"9270609"},{"name":"鈴ケ嶺","zip_code":"9280304"},{"name":"曽又","zip_code":"9270454"},{"name":"滝之坊","zip_code":"9270627"},{"name":"田代","zip_code":"9270626"},{"name":"立壁","zip_code":"9270605"},{"name":"鶴町","zip_code":"9270453"},{"name":"寺分","zip_code":"9280322"},{"name":"天坂","zip_code":"9280313"},{"name":"当目","zip_code":"9280334"},{"name":"時長","zip_code":"9270624"},{"name":"豊ケ丘","zip_code":"9270315"},{"name":"中斉","zip_code":"9280324"},{"name":"布浦","zip_code":"9270603"},{"name":"波並","zip_code":"9270442"},{"name":"羽生","zip_code":"9270561"},{"name":"羽根","zip_code":"9270565"},{"name":"姫","zip_code":"9270563"},{"name":"福光","zip_code":"9270627"},{"name":"藤波","zip_code":"9270441"},{"name":"藤ノ瀬","zip_code":"9270451"},{"name":"不動寺","zip_code":"9270622"},{"name":"本木","zip_code":"9270312"},{"name":"松波","zip_code":"9270602"},{"name":"爼倉","zip_code":"9270321"},{"name":"真脇","zip_code":"9270562"},{"name":"満泉寺","zip_code":"9270614"},{"name":"瑞穂","zip_code":"9270311"},{"name":"宮犬","zip_code":"9270615"},{"name":"宮地","zip_code":"9270322"},{"name":"明生","zip_code":"9270602"},{"name":"武連","zip_code":"9270305"},{"name":"柳田","zip_code":"9280331"},{"name":"矢波","zip_code":"9270443"},{"name":"山田","zip_code":"9270314"},{"name":"山中","zip_code":"9270614"},{"name":"行延","zip_code":"9270623"},{"name":"四方山","zip_code":"9270606"}]}]}