{"name":"福井県","cities":[{"name":"福井市","divisions":[{"name":"在田町","zip_code":"9103614"},{"name":"赤坂町","zip_code":"9103556"},{"name":"赤谷町","zip_code":"9102475"},{"name":"明里町","zip_code":"9188052"},{"name":"朝谷町","zip_code":"9102357"},{"name":"朝宮町","zip_code":"9103605"},{"name":"足谷町","zip_code":"9103266"},{"name":"味見河内町","zip_code":"9102463"},{"name":"足羽","zip_code":"9188007"},{"name":"足羽上町","zip_code":"9188006"},{"name":"浅水三ケ町","zip_code":"9188183"},{"name":"浅水町","zip_code":"9188181"},{"name":"浅水二日町","zip_code":"9188182"},{"name":"網戸瀬町","zip_code":"9100104"},{"name":"安波賀町","zip_code":"9102152"},{"name":"安波賀中島町","zip_code":"9102151"},{"name":"安保町","zip_code":"9188153"},{"name":"天池町","zip_code":"9100124"},{"name":"尼ケ谷町","zip_code":"9103525"},{"name":"天菅生町","zip_code":"9100041"},{"name":"鮎川町","zip_code":"9103402"},{"name":"荒木新保町","zip_code":"9102172"},{"name":"荒木町","zip_code":"9102171"},{"name":"荒木別所町","zip_code":"9188232"},{"name":"荒谷町","zip_code":"9103251"},{"name":"飯塚町","zip_code":"9188067"},{"name":"幾久町","zip_code":"9100014"},{"name":"幾代","zip_code":"9100013"},{"name":"居倉町","zip_code":"9103555"},{"name":"池尻町","zip_code":"9103106"},{"name":"生部町","zip_code":"9190314"},{"name":"石新保町","zip_code":"9103133"},{"name":"石橋町","zip_code":"9103137"},{"name":"石畠町","zip_code":"9103123"},{"name":"石盛町","zip_code":"9100122"},{"name":"泉田町","zip_code":"9100817"},{"name":"板垣","zip_code":"9188104"},{"name":"板垣町","zip_code":"9188103"},{"name":"一王寺町","zip_code":"9103262"},{"name":"市波町","zip_code":"9102222"},{"name":"市ノ瀬町","zip_code":"9103125"},{"name":"一本木町","zip_code":"9188101"},{"name":"糸崎町","zip_code":"9103383"},{"name":"稲多新町","zip_code":"9100156"},{"name":"稲多浜町","zip_code":"9100155"},{"name":"稲多元町","zip_code":"9100154"},{"name":"稲津町","zip_code":"9102177"},{"name":"今泉町","zip_code":"9188213"},{"name":"今市町","zip_code":"9188152"},{"name":"岩倉町","zip_code":"9190303"},{"name":"印田町","zip_code":"9188217"},{"name":"上野町","zip_code":"9103118"},{"name":"上野本町","zip_code":"9100134"},{"name":"上野本町新","zip_code":"9100135"},{"name":"上伏町","zip_code":"9100055"},{"name":"宇坂大谷町","zip_code":"9102227"},{"name":"宇坂別所町","zip_code":"9102223"},{"name":"羽水","zip_code":"9188114"},{"name":"獺ケ口町","zip_code":"9102211"},{"name":"謡谷町","zip_code":"9103522"},{"name":"内山梨子町","zip_code":"9103116"},{"name":"馬垣町","zip_code":"9188111"},{"name":"漆原町","zip_code":"9100131"},{"name":"運動公園","zip_code":"9188046"},{"name":"江上町","zip_code":"9103113"},{"name":"江尻ケ丘町","zip_code":"9188175"},{"name":"江端町","zip_code":"9188016"},{"name":"海老助町","zip_code":"9100047"},{"name":"江守中","zip_code":"9188025"},{"name":"江守中町","zip_code":"9188025"},{"name":"江守の里","zip_code":"9188035"},{"name":"円山","zip_code":"9188207"},{"name":"円成寺町","zip_code":"9102175"},{"name":"大窪町","zip_code":"9103371"},{"name":"大久保町","zip_code":"9102213"},{"name":"大島町","zip_code":"9188018"},{"name":"大瀬町","zip_code":"9188063"},{"name":"太田町","zip_code":"9190323"},{"name":"大谷町","zip_code":"9103253"},{"name":"大手","zip_code":"9100005"},{"name":"大年町","zip_code":"9103255"},{"name":"大土呂町","zip_code":"9190327"},{"name":"大町","zip_code":"9188116"},{"name":"大味町","zip_code":"9103551"},{"name":"大宮","zip_code":"9100016"},{"name":"大宮町","zip_code":"9102334"},{"name":"大村町","zip_code":"9190316"},{"name":"大森町","zip_code":"9103634"},{"name":"大矢町","zip_code":"9103515"},{"name":"大和田","zip_code":"9100836"},{"name":"大和田町","zip_code":"9100802"},{"name":"岡西谷町","zip_code":"9188228"},{"name":"奥平町","zip_code":"9103268"},{"name":"恐神町","zip_code":"9188071"},{"name":"小当見町","zip_code":"9102465"},{"name":"大丹生町","zip_code":"9103404"},{"name":"大畑町","zip_code":"9188226"},{"name":"小羽町","zip_code":"9103621"},{"name":"小山谷町","zip_code":"9188053"},{"name":"折立町","zip_code":"9102474"},{"name":"開発","zip_code":"9100842"},{"name":"開発町","zip_code":"9100841"},{"name":"柿谷町","zip_code":"9103265"},{"name":"学園","zip_code":"9100028"},{"name":"花月","zip_code":"9100022"},{"name":"篭谷町","zip_code":"9102205"},{"name":"風尾町","zip_code":"9103516"},{"name":"風巻町","zip_code":"9103622"},{"name":"春日","zip_code":"9188108"},{"name":"春日町","zip_code":"9188107"},{"name":"片粕町","zip_code":"9103603"},{"name":"片山町","zip_code":"9103611"},{"name":"主計中町","zip_code":"9188166"},{"name":"勝見","zip_code":"9100856"},{"name":"鹿俣町","zip_code":"9102156"},{"name":"金屋町","zip_code":"9188061"},{"name":"上莇生田町","zip_code":"9188133"},{"name":"上一光町","zip_code":"9188081"},{"name":"上江尻町","zip_code":"9188174"},{"name":"上北野","zip_code":"9188203"},{"name":"上河北町","zip_code":"9190322"},{"name":"上天下町","zip_code":"9103633"},{"name":"上東郷町","zip_code":"9102174"},{"name":"上中町","zip_code":"9100826"},{"name":"上毘沙門町","zip_code":"9102144"},{"name":"上細江町","zip_code":"9190302"},{"name":"上森田","zip_code":"9100142"},{"name":"上森田町","zip_code":"9100141"},{"name":"上六条町","zip_code":"9188132"},{"name":"加茂内町","zip_code":"9103644"},{"name":"蒲生町","zip_code":"9103553"},{"name":"加茂河原","zip_code":"9188057"},{"name":"加茂河原町","zip_code":"9188054"},{"name":"加茂町","zip_code":"9103644"},{"name":"加茂緑苑町","zip_code":"9188058"},{"name":"河合勝見町","zip_code":"9100105"},{"name":"河合寄安町","zip_code":"9100132"},{"name":"川合鷲塚町","zip_code":"9100102"},{"name":"川尻町","zip_code":"9103136"},{"name":"神当部町","zip_code":"9102462"},{"name":"岸水町","zip_code":"9100042"},{"name":"北今泉町","zip_code":"9188212"},{"name":"北菅生町","zip_code":"9103385"},{"name":"北楢原町","zip_code":"9100045"},{"name":"北野上町","zip_code":"9100815"},{"name":"北野下町","zip_code":"9100814"},{"name":"北堀町","zip_code":"9188072"},{"name":"北山新保町","zip_code":"9190318"},{"name":"北山町","zip_code":"9190317"},{"name":"北四ツ居","zip_code":"9188205"},{"name":"北四ツ居町","zip_code":"9188206"},{"name":"木田","zip_code":"9188105"},{"name":"木田町","zip_code":"9188106"},{"name":"狐橋","zip_code":"9188043"},{"name":"城戸ノ内町","zip_code":"9102153"},{"name":"木下町","zip_code":"9103147"},{"name":"経栄","zip_code":"9100012"},{"name":"経田","zip_code":"9100011"},{"name":"木米町","zip_code":"9103264"},{"name":"久喜津町","zip_code":"9188047"},{"name":"串野町","zip_code":"9103145"},{"name":"国見町","zip_code":"9103401"},{"name":"国山町","zip_code":"9103518"},{"name":"茱崎町","zip_code":"9103552"},{"name":"蔵作町","zip_code":"9102356"},{"name":"グリーンハイツ","zip_code":"9103604"},{"name":"栗森町","zip_code":"9100137"},{"name":"栗森町浜","zip_code":"9100136"},{"name":"黒丸城町","zip_code":"9103107"},{"name":"黒丸町","zip_code":"9100052"},{"name":"下馬","zip_code":"9188112"},{"name":"下馬町","zip_code":"9188113"},{"name":"毛矢","zip_code":"9188003"},{"name":"玄正島町","zip_code":"9100822"},{"name":"堅達町","zip_code":"9188221"},{"name":"乾徳","zip_code":"9100021"},{"name":"小稲津町","zip_code":"9188131"},{"name":"小宇坂島町","zip_code":"9102353"},{"name":"小宇坂町","zip_code":"9102352"},{"name":"合島町","zip_code":"9188233"},{"name":"河水町","zip_code":"9188223"},{"name":"合谷町","zip_code":"9188033"},{"name":"河内町","zip_code":"9103267"},{"name":"河増町","zip_code":"9188218"},{"name":"光陽","zip_code":"9100026"},{"name":"郡町","zip_code":"9100051"},{"name":"甑谷町","zip_code":"9103613"},{"name":"小尉町","zip_code":"9103102"},{"name":"御所垣内町","zip_code":"9103112"},{"name":"五太子町","zip_code":"9188083"},{"name":"小丹生町","zip_code":"9103405"},{"name":"小野町","zip_code":"9103122"},{"name":"御油町","zip_code":"9103617"},{"name":"小和清水町","zip_code":"9102212"},{"name":"小幡町","zip_code":"9103146"},{"name":"境寺町","zip_code":"9102347"},{"name":"栄町","zip_code":"9100151"},{"name":"坂下町","zip_code":"9188222"},{"name":"笹谷町","zip_code":"9103645"},{"name":"定正町","zip_code":"9100121"},{"name":"里別所新町","zip_code":"9100056"},{"name":"里別所町","zip_code":"9100057"},{"name":"左内町","zip_code":"9188002"},{"name":"佐野町","zip_code":"9103121"},{"name":"三郎丸","zip_code":"9100033"},{"name":"三郎丸町","zip_code":"9100036"},{"name":"更毛町","zip_code":"9188078"},{"name":"皿谷町","zip_code":"9102201"},{"name":"三十八社町","zip_code":"9188176"},{"name":"三本木町","zip_code":"9188164"},{"name":"三万谷町","zip_code":"9102224"},{"name":"宿布町","zip_code":"9102143"},{"name":"重立町","zip_code":"9100823"},{"name":"四十谷町","zip_code":"9100043"},{"name":"地蔵堂町","zip_code":"9100048"},{"name":"志津が丘","zip_code":"9103635"},{"name":"品ケ瀬町","zip_code":"9102348"},{"name":"篠尾町","zip_code":"9102148"},{"name":"志比口","zip_code":"9100845"},{"name":"島寺町","zip_code":"9103623"},{"name":"島橋町","zip_code":"9100821"},{"name":"島山梨子町","zip_code":"9103111"},{"name":"清水杉谷町","zip_code":"9103607"},{"name":"清水平町","zip_code":"9103268"},{"name":"清水町","zip_code":"9103601"},{"name":"清水畑町","zip_code":"9103646"},{"name":"清水山町","zip_code":"9103612"},{"name":"下莇生田町","zip_code":"9188134"},{"name":"下荒井町","zip_code":"9188017"},{"name":"下一光町","zip_code":"9188082"},{"name":"下市町","zip_code":"9188062"},{"name":"下江尻町","zip_code":"9188173"},{"name":"下江守町","zip_code":"9188037"},{"name":"下河北町","zip_code":"9190321"},{"name":"下天下町","zip_code":"9103632"},{"name":"下東郷町","zip_code":"9102173"},{"name":"下中町","zip_code":"9188211"},{"name":"下毘沙門町","zip_code":"9102146"},{"name":"下細江町","zip_code":"9190301"},{"name":"下森田桜町","zip_code":"9100146"},{"name":"下森田新町","zip_code":"9100143"},{"name":"下森田藤巻町","zip_code":"9100145"},{"name":"下森田本町","zip_code":"9100144"},{"name":"下森田町","zip_code":"9100147"},{"name":"下六条町","zip_code":"9188135"},{"name":"宿堂町","zip_code":"9103513"},{"name":"順化","zip_code":"9100023"},{"name":"成願寺町","zip_code":"9102147"},{"name":"浄教寺町","zip_code":"9102155"},{"name":"小路町","zip_code":"9102166"},{"name":"城東","zip_code":"9100853"},{"name":"浄土寺町","zip_code":"9103117"},{"name":"生野町","zip_code":"9188163"},{"name":"菖蒲谷町","zip_code":"9103148"},{"name":"昭和新町","zip_code":"9103101"},{"name":"白方町","zip_code":"9103131"},{"name":"白滝町","zip_code":"9103511"},{"name":"白浜町","zip_code":"9103403"},{"name":"城有町","zip_code":"9103557"},{"name":"次郎丸町","zip_code":"9188227"},{"name":"新下江守町","zip_code":"9188036"},{"name":"新田本町","zip_code":"9100812"},{"name":"新開町","zip_code":"9190328"},{"name":"新保","zip_code":"9100833"},{"name":"新保北","zip_code":"9100838"},{"name":"新保町","zip_code":"9100832"},{"name":"椙谷町","zip_code":"9102346"},{"name":"末広町","zip_code":"9188172"},{"name":"末町","zip_code":"9188077"},{"name":"菅谷","zip_code":"9100034"},{"name":"菅谷町","zip_code":"9100035"},{"name":"杉谷町","zip_code":"9188155"},{"name":"砂子坂町","zip_code":"9103143"},{"name":"砂子田町","zip_code":"9103141"},{"name":"成和","zip_code":"9188239"},{"name":"仙町","zip_code":"9103115"},{"name":"曽万布町","zip_code":"9188234"},{"name":"大願寺","zip_code":"9100001"},{"name":"大東","zip_code":"9188202"},{"name":"高尾町","zip_code":"9102141"},{"name":"高木","zip_code":"9100805"},{"name":"高木中央","zip_code":"9100804"},{"name":"高木町","zip_code":"9100806"},{"name":"高木北","zip_code":"9100807"},{"name":"高木西","zip_code":"9100070"},{"name":"高須町","zip_code":"9103374"},{"name":"高田町","zip_code":"9102226"},{"name":"高塚町","zip_code":"9188044"},{"name":"高屋町","zip_code":"9100107"},{"name":"高柳","zip_code":"9100837"},{"name":"高柳町","zip_code":"9100803"},{"name":"滝波町","zip_code":"9103643"},{"name":"竹生町","zip_code":"9103602"},{"name":"田治島町","zip_code":"9190311"},{"name":"田尻町","zip_code":"9102225"},{"name":"田尻栃谷町","zip_code":"9103606"},{"name":"種池","zip_code":"9188031"},{"name":"種池町","zip_code":"9188031"},{"name":"田中町","zip_code":"9190304"},{"name":"田ノ頭町","zip_code":"9103124"},{"name":"田ノ谷町","zip_code":"9100044"},{"name":"為寄町","zip_code":"9103128"},{"name":"田原","zip_code":"9100018"},{"name":"千合町","zip_code":"9103521"},{"name":"中央","zip_code":"9100006"},{"name":"月見","zip_code":"9188011"},{"name":"つくし野","zip_code":"9100101"},{"name":"つくも","zip_code":"9188001"},{"name":"土橋町","zip_code":"9100053"},{"name":"角折町","zip_code":"9188068"},{"name":"角原町","zip_code":"9188162"},{"name":"坪谷町","zip_code":"9103615"},{"name":"剣大谷町","zip_code":"9103114"},{"name":"テクノポート","zip_code":"9103138"},{"name":"手寄","zip_code":"9100858"},{"name":"寺前町","zip_code":"9100801"},{"name":"照手","zip_code":"9100024"},{"name":"照手町","zip_code":"9100025"},{"name":"殿下町","zip_code":"9188216"},{"name":"天王町","zip_code":"9188136"},{"name":"問屋町","zip_code":"9188231"},{"name":"東郷中島町","zip_code":"9102176"},{"name":"東郷二ケ町","zip_code":"9102165"},{"name":"堂島町","zip_code":"9100818"},{"name":"燈豊町","zip_code":"9103252"},{"name":"灯明寺","zip_code":"9100063"},{"name":"灯明寺町","zip_code":"9100062"},{"name":"栂野町","zip_code":"9102178"},{"name":"徳尾町","zip_code":"9188165"},{"name":"徳光町","zip_code":"9190305"},{"name":"所谷町","zip_code":"9102202"},{"name":"栃泉町","zip_code":"9102163"},{"name":"豊岡","zip_code":"9100027"},{"name":"豊島","zip_code":"9100857"},{"name":"中荒井町","zip_code":"9188151"},{"name":"中河内町","zip_code":"9103263"},{"name":"中新田町","zip_code":"9100813"},{"name":"中平町","zip_code":"9103268"},{"name":"中角町","zip_code":"9100103"},{"name":"中野","zip_code":"9188186"},{"name":"中ノ郷町","zip_code":"9100816"},{"name":"中野町","zip_code":"9188185"},{"name":"中毘沙門町","zip_code":"9102145"},{"name":"中藤新保町","zip_code":"9100811"},{"name":"中町","zip_code":"9103256"},{"name":"中山町","zip_code":"9103127"},{"name":"中手町","zip_code":"9102464"},{"name":"長橋町","zip_code":"9103384"},{"name":"長本町","zip_code":"9100844"},{"name":"南居町","zip_code":"9188034"},{"name":"波寄町","zip_code":"9103142"},{"name":"奈良瀬町","zip_code":"9102221"},{"name":"仁位町","zip_code":"9102336"},{"name":"西天田町","zip_code":"9102355"},{"name":"西荒井町","zip_code":"9103261"},{"name":"西板垣町","zip_code":"9188102"},{"name":"西市布町","zip_code":"9102466"},{"name":"西大味町","zip_code":"9190313"},{"name":"西開発","zip_code":"9100843"},{"name":"西方","zip_code":"9100855"},{"name":"西学園","zip_code":"9188064"},{"name":"西木田","zip_code":"9188004"},{"name":"西河原町","zip_code":"9102471"},{"name":"西下野町","zip_code":"9188041"},{"name":"西新町","zip_code":"9102157"},{"name":"西谷","zip_code":"9188023"},{"name":"西谷町","zip_code":"9188022"},{"name":"西中町","zip_code":"9102203"},{"name":"西中野町","zip_code":"9103105"},{"name":"西畑町","zip_code":"9103373"},{"name":"西二ツ屋町","zip_code":"9103372"},{"name":"西袋町","zip_code":"9190315"},{"name":"西別所町","zip_code":"9103512"},{"name":"西堀町","zip_code":"9100037"},{"name":"日光","zip_code":"9100029"},{"name":"新田塚","zip_code":"9100067"},{"name":"新田塚町","zip_code":"9100064"},{"name":"二の宮","zip_code":"9100015"},{"name":"縫原町","zip_code":"9102335"},{"name":"猫瀬町","zip_code":"9103266"},{"name":"野波町","zip_code":"9102333"},{"name":"計石町","zip_code":"9102331"},{"name":"羽坂町","zip_code":"9188075"},{"name":"畠中町","zip_code":"9103517"},{"name":"花野谷町","zip_code":"9188224"},{"name":"花守町","zip_code":"9188187"},{"name":"花堂中","zip_code":"9188014"},{"name":"花堂東","zip_code":"9188013"},{"name":"花堂南","zip_code":"9188015"},{"name":"浜北山町","zip_code":"9103554"},{"name":"花堂北","zip_code":"9188012"},{"name":"浜島町","zip_code":"9103132"},{"name":"浜住町","zip_code":"9103377"},{"name":"浜別所町","zip_code":"9103134"},{"name":"林町","zip_code":"9100828"},{"name":"林藤島町","zip_code":"9100829"},{"name":"原目町","zip_code":"9100825"},{"name":"春山","zip_code":"9100019"},{"name":"半田町","zip_code":"9190326"},{"name":"東天田町","zip_code":"9102354"},{"name":"東今泉町","zip_code":"9188214"},{"name":"東大味町","zip_code":"9190312"},{"name":"東川上町","zip_code":"9102341"},{"name":"東河原町","zip_code":"9102472"},{"name":"東下野町","zip_code":"9188042"},{"name":"東新町","zip_code":"9102154"},{"name":"東平町","zip_code":"9103266"},{"name":"東俣町","zip_code":"9102342"},{"name":"引目町","zip_code":"9188156"},{"name":"日之出","zip_code":"9100859"},{"name":"平尾町","zip_code":"9103641"},{"name":"深坂町","zip_code":"9103126"},{"name":"深谷町","zip_code":"9100049"},{"name":"深見町","zip_code":"9102164"},{"name":"福新町","zip_code":"9188045"},{"name":"福","zip_code":"9188027"},{"name":"福島町","zip_code":"9102214"},{"name":"福町","zip_code":"9188027"},{"name":"藤島町","zip_code":"9100827"},{"name":"武周町","zip_code":"9103523"},{"name":"布施田町","zip_code":"9103104"},{"name":"二上町","zip_code":"9190325"},{"name":"二ツ屋町","zip_code":"9103526"},{"name":"渕","zip_code":"9188026"},{"name":"渕町","zip_code":"9188026"},{"name":"二日市町","zip_code":"9100109"},{"name":"舟橋","zip_code":"9100808"},{"name":"舟橋黒竜","zip_code":"9100069"},{"name":"舟橋新","zip_code":"9100068"},{"name":"舟橋新町","zip_code":"9100061"},{"name":"舟橋町","zip_code":"9100809"},{"name":"冬野町","zip_code":"9188154"},{"name":"古市","zip_code":"9100152"},{"name":"古市町","zip_code":"9100153"},{"name":"文京","zip_code":"9100017"},{"name":"別所町","zip_code":"9188115"},{"name":"別畑町","zip_code":"9103524"},{"name":"宝永","zip_code":"9100004"},{"name":"鉾ケ崎町","zip_code":"9188161"},{"name":"細坂町","zip_code":"9188074"},{"name":"帆谷町","zip_code":"9190324"},{"name":"堀ノ宮","zip_code":"9100032"},{"name":"堀ノ宮町","zip_code":"9100031"},{"name":"本堂町","zip_code":"9188076"},{"name":"舞屋町","zip_code":"9188024"},{"name":"前波町","zip_code":"9102142"},{"name":"真木町","zip_code":"9188184"},{"name":"真栗町","zip_code":"9103616"},{"name":"町屋","zip_code":"9100002"},{"name":"松蔭町","zip_code":"9103382"},{"name":"松城町","zip_code":"9100852"},{"name":"松本","zip_code":"9100003"},{"name":"間戸町","zip_code":"9102345"},{"name":"間山町","zip_code":"9100824"},{"name":"丸山","zip_code":"9100834"},{"name":"丸山町","zip_code":"9100835"},{"name":"三尾野町","zip_code":"9188188"},{"name":"水切町","zip_code":"9103144"},{"name":"水越","zip_code":"9188065"},{"name":"水谷町","zip_code":"9103514"},{"name":"三ツ屋","zip_code":"9100038"},{"name":"三ツ屋町","zip_code":"9100039"},{"name":"三留町","zip_code":"9103608"},{"name":"南江守町","zip_code":"9188032"},{"name":"南菅生町","zip_code":"9103386"},{"name":"南楢原町","zip_code":"9100046"},{"name":"南西俣町","zip_code":"9102343"},{"name":"南野津又町","zip_code":"9102461"},{"name":"南宮地町","zip_code":"9102344"},{"name":"南山町","zip_code":"9102162"},{"name":"南四ツ居","zip_code":"9188204"},{"name":"南四ツ居町","zip_code":"9188201"},{"name":"蓑町","zip_code":"9103381"},{"name":"みのり","zip_code":"9188005"},{"name":"三宅町","zip_code":"9103103"},{"name":"宮郷町","zip_code":"9103375"},{"name":"宮地町","zip_code":"9188225"},{"name":"美山大谷町","zip_code":"9102204"},{"name":"美山町","zip_code":"9102351"},{"name":"御幸","zip_code":"9100854"},{"name":"六日市町","zip_code":"9100106"},{"name":"和布町","zip_code":"9103376"},{"name":"免鳥町","zip_code":"9103378"},{"name":"本折町","zip_code":"9103642"},{"name":"桃園","zip_code":"9188051"},{"name":"森田新保町","zip_code":"9100133"},{"name":"森行町","zip_code":"9188171"},{"name":"門前","zip_code":"9188021"},{"name":"門前町","zip_code":"9188021"},{"name":"八重巻中町","zip_code":"9100158"},{"name":"八重巻東町","zip_code":"9100157"},{"name":"八重巻町","zip_code":"9100123"},{"name":"薬師町","zip_code":"9102337"},{"name":"安竹町","zip_code":"9100054"},{"name":"安田町","zip_code":"9188073"},{"name":"安原町","zip_code":"9102167"},{"name":"八ツ島","zip_code":"9100066"},{"name":"八ツ島町","zip_code":"9100065"},{"name":"八ツ俣町","zip_code":"9103558"},{"name":"山内町","zip_code":"9103636"},{"name":"山奥町","zip_code":"9188009"},{"name":"山室町","zip_code":"9100108"},{"name":"八幡町","zip_code":"9103254"},{"name":"有楽町","zip_code":"9188008"},{"name":"横越町","zip_code":"9102473"},{"name":"吉山町","zip_code":"9102206"},{"name":"四ツ井","zip_code":"9100846"},{"name":"米松","zip_code":"9100851"},{"name":"両橋屋町","zip_code":"9103135"},{"name":"寮町","zip_code":"9188215"},{"name":"若栄町","zip_code":"9100831"},{"name":"若杉","zip_code":"9188055"},{"name":"若杉町","zip_code":"9188055"},{"name":"若杉浜","zip_code":"9188056"},{"name":"脇三ケ町","zip_code":"9102161"},{"name":"渡町","zip_code":"9188066"},{"name":"和田","zip_code":"9188238"},{"name":"和田中","zip_code":"9188236"},{"name":"和田中町","zip_code":"9188235"},{"name":"和田東","zip_code":"9188237"},{"name":"和田町","zip_code":"9103631"}]},{"name":"敦賀市","divisions":[{"name":"相生町","zip_code":"9140062"},{"name":"赤崎","zip_code":"9140272"},{"name":"曙町","zip_code":"9140075"},{"name":"挙野","zip_code":"9140266"},{"name":"麻生口","zip_code":"9140315"},{"name":"阿曽","zip_code":"9140265"},{"name":"莇生野","zip_code":"9140141"},{"name":"井川","zip_code":"9140014"},{"name":"池河内","zip_code":"9140004"},{"name":"石ケ町","zip_code":"9140042"},{"name":"泉ケ丘町","zip_code":"9140021"},{"name":"市野々","zip_code":"9140124"},{"name":"市野々町","zip_code":"9140124"},{"name":"市橋","zip_code":"9140301"},{"name":"五幡","zip_code":"9140267"},{"name":"鋳物師町","zip_code":"9140805"},{"name":"色浜","zip_code":"9140844"},{"name":"獺河内","zip_code":"9140003"},{"name":"浦底","zip_code":"9140843"},{"name":"永大町","zip_code":"9140825"},{"name":"江良","zip_code":"9140268"},{"name":"追分","zip_code":"9140303"},{"name":"大蔵","zip_code":"9140018"},{"name":"大比田","zip_code":"9140262"},{"name":"岡山町","zip_code":"9140044"},{"name":"奥麻生","zip_code":"9140316"},{"name":"奥野","zip_code":"9140311"},{"name":"小河","zip_code":"9140032"},{"name":"小河口","zip_code":"9140034"},{"name":"越坂","zip_code":"9140006"},{"name":"神楽町","zip_code":"9140063"},{"name":"樫曲","zip_code":"9140005"},{"name":"金山","zip_code":"9140146"},{"name":"鉄輪町","zip_code":"9140055"},{"name":"金ケ崎町","zip_code":"9140072"},{"name":"川崎町","zip_code":"9140066"},{"name":"川北","zip_code":"9140012"},{"name":"河原町","zip_code":"9140015"},{"name":"観音町","zip_code":"9140039"},{"name":"木崎","zip_code":"9140814"},{"name":"衣掛町","zip_code":"9140043"},{"name":"木ノ芽町","zip_code":"9140026"},{"name":"清水町","zip_code":"9140052"},{"name":"櫛川","zip_code":"9140821"},{"name":"櫛川町","zip_code":"9140822"},{"name":"櫛林","zip_code":"9140138"},{"name":"沓","zip_code":"9140831"},{"name":"沓見","zip_code":"9140823"},{"name":"国広町","zip_code":"9140059"},{"name":"公文名","zip_code":"9140131"},{"name":"呉竹町","zip_code":"9140802"},{"name":"呉羽町","zip_code":"9140813"},{"name":"古田刈","zip_code":"9140045"},{"name":"御名","zip_code":"9140132"},{"name":"栄新町","zip_code":"9140077"},{"name":"坂下","zip_code":"9140038"},{"name":"桜ケ丘町","zip_code":"9140144"},{"name":"桜町","zip_code":"9140078"},{"name":"沢","zip_code":"9140143"},{"name":"泉","zip_code":"9140071"},{"name":"常宮","zip_code":"9140832"},{"name":"昭和町","zip_code":"9140812"},{"name":"白木","zip_code":"9191279"},{"name":"白銀町","zip_code":"9140054"},{"name":"新道","zip_code":"9140317"},{"name":"新保","zip_code":"9140001"},{"name":"新松島町","zip_code":"9140803"},{"name":"新和町","zip_code":"9140122"},{"name":"杉津","zip_code":"9140264"},{"name":"杉箸","zip_code":"9140314"},{"name":"砂流","zip_code":"9140136"},{"name":"関","zip_code":"9140147"},{"name":"曽々木","zip_code":"9140312"},{"name":"田結","zip_code":"9140273"},{"name":"高野","zip_code":"9140022"},{"name":"駄口","zip_code":"9140305"},{"name":"田尻","zip_code":"9140007"},{"name":"立石","zip_code":"9140841"},{"name":"谷","zip_code":"9140031"},{"name":"谷口","zip_code":"9140013"},{"name":"中央町","zip_code":"9140811"},{"name":"津内町","zip_code":"9140056"},{"name":"角鹿町","zip_code":"9140074"},{"name":"手","zip_code":"9140845"},{"name":"天筒町","zip_code":"9140073"},{"name":"堂","zip_code":"9140036"},{"name":"東洋町","zip_code":"9140047"},{"name":"刀根","zip_code":"9140313"},{"name":"中","zip_code":"9140028"},{"name":"長沢","zip_code":"9140046"},{"name":"長谷","zip_code":"9140135"},{"name":"名子","zip_code":"9140834"},{"name":"布田町","zip_code":"9140041"},{"name":"縄間","zip_code":"9140833"},{"name":"野神","zip_code":"9140121"},{"name":"野坂","zip_code":"9140145"},{"name":"羽織町","zip_code":"9140039"},{"name":"萩野町","zip_code":"9140142"},{"name":"鳩原","zip_code":"9140033"},{"name":"葉原","zip_code":"9140002"},{"name":"原","zip_code":"9140824"},{"name":"疋田","zip_code":"9140302"},{"name":"樋ノ水町","zip_code":"9140025"},{"name":"ひばりケ丘町","zip_code":"9140137"},{"name":"開町","zip_code":"9140057"},{"name":"深川町","zip_code":"9140023"},{"name":"深坂","zip_code":"9140304"},{"name":"藤ケ丘町","zip_code":"9140017"},{"name":"二村","zip_code":"9140835"},{"name":"平和町","zip_code":"9140815"},{"name":"蓬莱町","zip_code":"9140061"},{"name":"本町","zip_code":"9140051"},{"name":"舞崎町","zip_code":"9140053"},{"name":"松栄町","zip_code":"9140065"},{"name":"松島町","zip_code":"9140801"},{"name":"松葉町","zip_code":"9140807"},{"name":"松原町","zip_code":"9140806"},{"name":"鞠山","zip_code":"9140274"},{"name":"三島町","zip_code":"9140058"},{"name":"道口","zip_code":"9140037"},{"name":"みどりケ丘町","zip_code":"9140133"},{"name":"港町","zip_code":"9140079"},{"name":"深山寺","zip_code":"9140011"},{"name":"明神町","zip_code":"9140842"},{"name":"元比田","zip_code":"9140261"},{"name":"元町","zip_code":"9140076"},{"name":"山","zip_code":"9140134"},{"name":"山泉","zip_code":"9140035"},{"name":"山中","zip_code":"9140306"},{"name":"結城町","zip_code":"9140064"},{"name":"横浜","zip_code":"9140263"},{"name":"余座","zip_code":"9140016"},{"name":"吉河","zip_code":"9140024"},{"name":"若泉町","zip_code":"9140027"},{"name":"若葉町","zip_code":"9140125"},{"name":"和久野","zip_code":"9140123"}]},{"name":"小浜市","divisions":[{"name":"相生","zip_code":"9170037"},{"name":"青井","zip_code":"9170041"},{"name":"阿納","zip_code":"9170105"},{"name":"阿納尻","zip_code":"9170106"},{"name":"荒木","zip_code":"9170044"},{"name":"池河内","zip_code":"9170238"},{"name":"池田","zip_code":"9170241"},{"name":"生守","zip_code":"9170027"},{"name":"生守団地","zip_code":"9170027"},{"name":"板屋町","zip_code":"9170005"},{"name":"市場","zip_code":"9170241"},{"name":"一番町","zip_code":"9170071"},{"name":"犬熊","zip_code":"9170104"},{"name":"上野","zip_code":"9170234"},{"name":"宇久","zip_code":"9170113"},{"name":"雲浜","zip_code":"9170096"},{"name":"駅前町","zip_code":"9170077"},{"name":"江古川","zip_code":"9170017"},{"name":"大谷","zip_code":"9170221"},{"name":"大手町","zip_code":"9170078"},{"name":"大戸","zip_code":"9170223"},{"name":"大湊","zip_code":"9170004"},{"name":"奥田縄","zip_code":"9170034"},{"name":"岡津","zip_code":"9170046"},{"name":"尾崎","zip_code":"9170032"},{"name":"遠敷","zip_code":"9170241"},{"name":"小浜浅間","zip_code":"9170055"},{"name":"小浜飛鳥","zip_code":"9170057"},{"name":"小浜生玉","zip_code":"9170085"},{"name":"小浜今宮","zip_code":"9170062"},{"name":"小浜大原","zip_code":"9170056"},{"name":"小浜大宮","zip_code":"9170053"},{"name":"小浜男山","zip_code":"9170052"},{"name":"小浜鹿島","zip_code":"9170067"},{"name":"小浜香取","zip_code":"9170058"},{"name":"小浜神田","zip_code":"9170066"},{"name":"小浜貴船","zip_code":"9170059"},{"name":"小浜清滝","zip_code":"9170083"},{"name":"小浜酒井","zip_code":"9170063"},{"name":"小浜塩竈","zip_code":"9170086"},{"name":"小浜白鳥","zip_code":"9170051"},{"name":"小浜白鬚","zip_code":"9170069"},{"name":"小浜鈴鹿","zip_code":"9170087"},{"name":"小浜住吉","zip_code":"9170065"},{"name":"小浜多賀","zip_code":"9170088"},{"name":"小浜竜田","zip_code":"9170064"},{"name":"小浜玉前","zip_code":"9170061"},{"name":"小浜津島","zip_code":"9170082"},{"name":"小浜日吉","zip_code":"9170068"},{"name":"小浜広峰","zip_code":"9170084"},{"name":"小屋","zip_code":"9170357"},{"name":"加尾","zip_code":"9170112"},{"name":"学園町","zip_code":"9170003"},{"name":"堅海","zip_code":"9170116"},{"name":"加斗","zip_code":"9170045"},{"name":"金屋","zip_code":"9170242"},{"name":"上加斗","zip_code":"9170045"},{"name":"上田","zip_code":"9170356"},{"name":"上竹原","zip_code":"9170022"},{"name":"上中井","zip_code":"9170036"},{"name":"上根来","zip_code":"9170248"},{"name":"加茂","zip_code":"9170223"},{"name":"川崎","zip_code":"9170081"},{"name":"木崎","zip_code":"9170025"},{"name":"北川","zip_code":"9170014"},{"name":"北長町","zip_code":"9170002"},{"name":"北塩屋","zip_code":"9170002"},{"name":"口田縄","zip_code":"9170035"},{"name":"熊野","zip_code":"9170012"},{"name":"栗田","zip_code":"9170015"},{"name":"黒駒","zip_code":"9170044"},{"name":"検見坂","zip_code":"9170241"},{"name":"鯉川","zip_code":"9170047"},{"name":"甲ケ崎","zip_code":"9170107"},{"name":"国分","zip_code":"9170231"},{"name":"小松原","zip_code":"9170006"},{"name":"小湊","zip_code":"9170004"},{"name":"山王前","zip_code":"9170019"},{"name":"三分一","zip_code":"9170236"},{"name":"志積","zip_code":"9170103"},{"name":"四分一","zip_code":"9170235"},{"name":"島","zip_code":"9170241"},{"name":"下田","zip_code":"9170355"},{"name":"下加斗","zip_code":"9170045"},{"name":"下竹原","zip_code":"9170007"},{"name":"下中井","zip_code":"9170036"},{"name":"下根来","zip_code":"9170246"},{"name":"城内","zip_code":"9170095"},{"name":"神宮寺","zip_code":"9170244"},{"name":"新小松原","zip_code":"9170008"},{"name":"新滝","zip_code":"9170036"},{"name":"新保","zip_code":"9170222"},{"name":"須縄","zip_code":"9170033"},{"name":"関","zip_code":"9170021"},{"name":"太興寺","zip_code":"9170233"},{"name":"高塚","zip_code":"9170014"},{"name":"滝谷","zip_code":"9170036"},{"name":"田茂谷","zip_code":"9170351"},{"name":"田烏","zip_code":"9170101"},{"name":"竹長","zip_code":"9170224"},{"name":"多田","zip_code":"9170026"},{"name":"太良庄","zip_code":"9170013"},{"name":"竹原","zip_code":"9170021"},{"name":"千種","zip_code":"9170072"},{"name":"忠野","zip_code":"9170245"},{"name":"次吉","zip_code":"9170016"},{"name":"東市場","zip_code":"9170232"},{"name":"泊","zip_code":"9170117"},{"name":"中井","zip_code":"9170036"},{"name":"中ノ畑","zip_code":"9170247"},{"name":"中の宮","zip_code":"9170242"},{"name":"中村","zip_code":"9170241"},{"name":"奈胡","zip_code":"9170011"},{"name":"西相生","zip_code":"9170037"},{"name":"西小川","zip_code":"9170111"},{"name":"西勢","zip_code":"9170043"},{"name":"西津","zip_code":"9170091"},{"name":"西長町","zip_code":"9170007"},{"name":"野代","zip_code":"9170028"},{"name":"後瀬町","zip_code":"9170074"},{"name":"法海","zip_code":"9170044"},{"name":"羽賀","zip_code":"9170017"},{"name":"飯盛","zip_code":"9170044"},{"name":"東相生","zip_code":"9170037"},{"name":"東勢","zip_code":"9170042"},{"name":"平野","zip_code":"9170226"},{"name":"深谷","zip_code":"9170352"},{"name":"深野","zip_code":"9170353"},{"name":"福谷","zip_code":"9170001"},{"name":"伏原","zip_code":"9170054"},{"name":"府中","zip_code":"9170023"},{"name":"仏谷","zip_code":"9170115"},{"name":"堀屋敷","zip_code":"9170097"},{"name":"本保","zip_code":"9170225"},{"name":"松ケ崎","zip_code":"9170018"},{"name":"丸山","zip_code":"9170094"},{"name":"水取","zip_code":"9170093"},{"name":"湊","zip_code":"9170004"},{"name":"南川町","zip_code":"9170075"},{"name":"宮の前","zip_code":"9170249"},{"name":"門前","zip_code":"9170237"},{"name":"矢代","zip_code":"9170102"},{"name":"谷田部","zip_code":"9170031"},{"name":"山手","zip_code":"9170092"},{"name":"湯岡","zip_code":"9170076"},{"name":"四谷町","zip_code":"9170073"},{"name":"竜前","zip_code":"9170243"},{"name":"若狭","zip_code":"9170114"},{"name":"和久里","zip_code":"9170024"},{"name":"和多田","zip_code":"9170354"}]},{"name":"大野市","divisions":[{"name":"茜町","zip_code":"9120068"},{"name":"朝日","zip_code":"9120205"},{"name":"朝日前坂","zip_code":"9120201"},{"name":"阿難祖地頭方","zip_code":"9120063"},{"name":"阿難祖領家","zip_code":"9120063"},{"name":"有明町","zip_code":"9120035"},{"name":"石谷","zip_code":"9120134"},{"name":"泉町","zip_code":"9120086"},{"name":"板倉","zip_code":"9120206"},{"name":"糸魚町","zip_code":"9120054"},{"name":"犬山","zip_code":"9120091"},{"name":"井ノ口","zip_code":"9120826"},{"name":"猪島","zip_code":"9120404"},{"name":"飯降","zip_code":"9120072"},{"name":"今井","zip_code":"9120424"},{"name":"右近次郎","zip_code":"9120067"},{"name":"牛ケ原","zip_code":"9120091"},{"name":"上野","zip_code":"9120813"},{"name":"榎","zip_code":"9120435"},{"name":"太田","zip_code":"9120005"},{"name":"大月","zip_code":"9120132"},{"name":"大矢戸","zip_code":"9120001"},{"name":"小黒見","zip_code":"9120144"},{"name":"落合","zip_code":"9120146"},{"name":"貝皿","zip_code":"9120204"},{"name":"開発","zip_code":"9120416"},{"name":"柿ケ嶋","zip_code":"9120147"},{"name":"角野","zip_code":"9120217"},{"name":"角野前坂","zip_code":"9120202"},{"name":"春日","zip_code":"9120053"},{"name":"要町","zip_code":"9120026"},{"name":"上麻生嶋","zip_code":"9120814"},{"name":"上荒井","zip_code":"9120074"},{"name":"上打波","zip_code":"9120151"},{"name":"上大納","zip_code":"9120216"},{"name":"上黒谷","zip_code":"9120076"},{"name":"上舌","zip_code":"9120064"},{"name":"上半原","zip_code":"9120221"},{"name":"上丁","zip_code":"9120094"},{"name":"亀山","zip_code":"9120087"},{"name":"川合","zip_code":"9120218"},{"name":"川嶋","zip_code":"9120814"},{"name":"木落","zip_code":"9120824"},{"name":"北御門","zip_code":"9120402"},{"name":"金山","zip_code":"9120143"},{"name":"国時町","zip_code":"9120043"},{"name":"鍬掛","zip_code":"9120071"},{"name":"御給","zip_code":"9120412"},{"name":"五條方","zip_code":"9120421"},{"name":"木本","zip_code":"9120433"},{"name":"小矢戸","zip_code":"9120002"},{"name":"御領","zip_code":"9120133"},{"name":"幸町","zip_code":"9120047"},{"name":"桜塚町","zip_code":"9120044"},{"name":"佐開","zip_code":"9120422"},{"name":"篠座","zip_code":"9120061"},{"name":"篠座町","zip_code":"9120061"},{"name":"下麻生嶋","zip_code":"9120815"},{"name":"下打波","zip_code":"9120152"},{"name":"下大納","zip_code":"9120215"},{"name":"下黒谷","zip_code":"9120075"},{"name":"下郷","zip_code":"9120432"},{"name":"下据","zip_code":"9120431"},{"name":"下舌","zip_code":"9120065"},{"name":"下半原","zip_code":"9120211"},{"name":"下山","zip_code":"9120207"},{"name":"下唯野","zip_code":"9120822"},{"name":"下丁","zip_code":"9120095"},{"name":"下若生子","zip_code":"9120423"},{"name":"清水","zip_code":"9120086"},{"name":"庄林","zip_code":"9120006"},{"name":"菖蒲池","zip_code":"9120041"},{"name":"城町","zip_code":"9120087"},{"name":"新河原","zip_code":"9120801"},{"name":"新庄","zip_code":"9120085"},{"name":"新塚原","zip_code":"9120825"},{"name":"新田","zip_code":"9120802"},{"name":"新町","zip_code":"9120027"},{"name":"神明","zip_code":"9120046"},{"name":"神明町","zip_code":"9120046"},{"name":"清瀧","zip_code":"9120092"},{"name":"清和町","zip_code":"9120032"},{"name":"高砂町","zip_code":"9120055"},{"name":"田野","zip_code":"9120827"},{"name":"千歳","zip_code":"9120062"},{"name":"塚原","zip_code":"9120825"},{"name":"月美町","zip_code":"9120031"},{"name":"土打","zip_code":"9120811"},{"name":"土布子","zip_code":"9120805"},{"name":"天神町","zip_code":"9120084"},{"name":"稲郷","zip_code":"9120415"},{"name":"堂嶋","zip_code":"9120145"},{"name":"堂本","zip_code":"9120013"},{"name":"富嶋","zip_code":"9120803"},{"name":"富塚","zip_code":"9120812"},{"name":"友江","zip_code":"9120016"},{"name":"友兼","zip_code":"9120411"},{"name":"中荒井","zip_code":"9120023"},{"name":"中荒井町","zip_code":"9120023"},{"name":"中据","zip_code":"9120437"},{"name":"中津川","zip_code":"9120004"},{"name":"中野","zip_code":"9120021"},{"name":"長野","zip_code":"9120214"},{"name":"中野町","zip_code":"9120021"},{"name":"中挾","zip_code":"9120015"},{"name":"中保","zip_code":"9120014"},{"name":"中丁","zip_code":"9120093"},{"name":"七板","zip_code":"9120821"},{"name":"西市","zip_code":"9120007"},{"name":"西大月","zip_code":"9120003"},{"name":"西勝原","zip_code":"9120155"},{"name":"錦町","zip_code":"9120024"},{"name":"西据","zip_code":"9120436"},{"name":"西里","zip_code":"9120431"},{"name":"西山","zip_code":"9120426"},{"name":"野尻","zip_code":"9120213"},{"name":"後野","zip_code":"9120203"},{"name":"野中","zip_code":"9120414"},{"name":"箱ケ瀬","zip_code":"9120212"},{"name":"橋爪","zip_code":"9120141"},{"name":"花房","zip_code":"9120138"},{"name":"萩ケ野","zip_code":"9120137"},{"name":"東市布","zip_code":"9120222"},{"name":"東大月","zip_code":"9120003"},{"name":"東勝原","zip_code":"9120154"},{"name":"東中","zip_code":"9120042"},{"name":"東中町","zip_code":"9120042"},{"name":"東中野","zip_code":"9120017"},{"name":"東山","zip_code":"9120413"},{"name":"日吉町","zip_code":"9120051"},{"name":"平沢","zip_code":"9120425"},{"name":"深井","zip_code":"9120073"},{"name":"伏石","zip_code":"9120149"},{"name":"不動堂","zip_code":"9120139"},{"name":"宝慶寺","zip_code":"9120434"},{"name":"仏原","zip_code":"9120153"},{"name":"本町","zip_code":"9120025"},{"name":"松丸","zip_code":"9120136"},{"name":"美川町","zip_code":"9120036"},{"name":"美里町","zip_code":"9120033"},{"name":"水落","zip_code":"9120088"},{"name":"水落町","zip_code":"9120088"},{"name":"南春日野","zip_code":"9120066"},{"name":"南新在家","zip_code":"9120011"},{"name":"南六呂師","zip_code":"9120131"},{"name":"蓑道","zip_code":"9120142"},{"name":"明倫町","zip_code":"9120083"},{"name":"元町","zip_code":"9120081"},{"name":"森政地頭","zip_code":"9120405"},{"name":"森政領家","zip_code":"9120403"},{"name":"森目","zip_code":"9120804"},{"name":"森本","zip_code":"9120135"},{"name":"森山","zip_code":"9120427"},{"name":"矢","zip_code":"9120008"},{"name":"八町","zip_code":"9120148"},{"name":"大和町","zip_code":"9120082"},{"name":"弥生町","zip_code":"9120052"},{"name":"陽明町","zip_code":"9120022"},{"name":"横枕","zip_code":"9120012"},{"name":"吉","zip_code":"9120401"},{"name":"吉野町","zip_code":"9120034"},{"name":"若杉町","zip_code":"9120045"},{"name":"蕨生","zip_code":"9120823"}]},{"name":"勝山市","divisions":[{"name":"旭毛屋町","zip_code":"9110817"},{"name":"旭町","zip_code":"9110803"},{"name":"荒土町伊波","zip_code":"9110045"},{"name":"荒土町北新在家","zip_code":"9110041"},{"name":"荒土町北宮地","zip_code":"9110047"},{"name":"荒土町境","zip_code":"9110048"},{"name":"荒土町清水島","zip_code":"9110041"},{"name":"荒土町新道","zip_code":"9110048"},{"name":"荒土町新保","zip_code":"9110043"},{"name":"荒土町田名部","zip_code":"9110042"},{"name":"荒土町戸倉","zip_code":"9110048"},{"name":"荒土町中清水","zip_code":"9110046"},{"name":"荒土町西ケ原","zip_code":"9110048"},{"name":"荒土町布市","zip_code":"9110041"},{"name":"荒土町別所","zip_code":"9110048"},{"name":"荒土町細野","zip_code":"9110048"},{"name":"荒土町細野口","zip_code":"9110048"},{"name":"荒土町堀名","zip_code":"9110046"},{"name":"荒土町堀名中清水","zip_code":"9110046"},{"name":"荒土町松ケ崎","zip_code":"9110044"},{"name":"荒土町松田","zip_code":"9110042"},{"name":"荒土町妙金島","zip_code":"9110045"},{"name":"猪野","zip_code":"9110812"},{"name":"猪野口","zip_code":"9110813"},{"name":"猪野毛屋","zip_code":"9110816"},{"name":"遅羽町大袋","zip_code":"9110834"},{"name":"遅羽町北山","zip_code":"9110833"},{"name":"遅羽町下荒井","zip_code":"9110836"},{"name":"遅羽町新道","zip_code":"9110834"},{"name":"遅羽町千代田","zip_code":"9110831"},{"name":"遅羽町中島","zip_code":"9110831"},{"name":"遅羽町比島","zip_code":"9110831"},{"name":"遅羽町ほう崎","zip_code":"9110835"},{"name":"遅羽町蓬生","zip_code":"9110832"},{"name":"片瀬","zip_code":"9110811"},{"name":"片瀬町","zip_code":"9110811"},{"name":"上高島","zip_code":"9110815"},{"name":"北市","zip_code":"9110815"},{"name":"北郷町新町","zip_code":"9110051"},{"name":"北郷町伊知地","zip_code":"9110055"},{"name":"北郷町岩屋","zip_code":"9110055"},{"name":"北郷町上野","zip_code":"9110055"},{"name":"北郷町上森川","zip_code":"9110053"},{"name":"北郷町下森川","zip_code":"9110053"},{"name":"北郷町志比原","zip_code":"9110051"},{"name":"北郷町西妙金島","zip_code":"9110052"},{"name":"北郷町坂東島","zip_code":"9110056"},{"name":"北郷町東野","zip_code":"9110054"},{"name":"北郷町檜曽谷","zip_code":"9110051"},{"name":"北郷町森川","zip_code":"9110053"},{"name":"北谷町小原","zip_code":"9110001"},{"name":"北谷町北六呂師","zip_code":"9110004"},{"name":"北谷町木根橋","zip_code":"9110002"},{"name":"北谷町河合","zip_code":"9110003"},{"name":"北谷町杉山","zip_code":"9110005"},{"name":"北谷町谷","zip_code":"9110006"},{"name":"北谷町中尾","zip_code":"9110004"},{"name":"毛屋","zip_code":"9110816"},{"name":"毛屋町","zip_code":"9110816"},{"name":"郡町","zip_code":"9110035"},{"name":"栄町","zip_code":"9110033"},{"name":"沢町","zip_code":"9110801"},{"name":"鹿谷町北西俣","zip_code":"9110846"},{"name":"鹿谷町西光寺","zip_code":"9110847"},{"name":"鹿谷町志田","zip_code":"9110842"},{"name":"鹿谷町杉俣","zip_code":"9110843"},{"name":"鹿谷町出村","zip_code":"9110848"},{"name":"鹿谷町東遅羽口","zip_code":"9110844"},{"name":"鹿谷町西遅羽口","zip_code":"9110844"},{"name":"鹿谷町保田","zip_code":"9110848"},{"name":"鹿谷町保田出村","zip_code":"9110848"},{"name":"鹿谷町発坂","zip_code":"9110841"},{"name":"鹿谷町本郷","zip_code":"9110843"},{"name":"鹿谷町矢戸口","zip_code":"9110845"},{"name":"下毛屋","zip_code":"9110816"},{"name":"下高島","zip_code":"9110815"},{"name":"昭和町","zip_code":"9110802"},{"name":"高島","zip_code":"9110815"},{"name":"滝波町","zip_code":"9110034"},{"name":"立川町","zip_code":"9110805"},{"name":"長山町","zip_code":"9110031"},{"name":"西高島","zip_code":"9110815"},{"name":"野向町牛ケ谷","zip_code":"9110011"},{"name":"野向町北野津又","zip_code":"9110017"},{"name":"野向町竹林","zip_code":"9110015"},{"name":"野向町聖丸","zip_code":"9110014"},{"name":"野向町深谷","zip_code":"9110013"},{"name":"野向町薬師神谷","zip_code":"9110012"},{"name":"野向町横倉","zip_code":"9110017"},{"name":"野向町竜谷","zip_code":"9110016"},{"name":"平泉寺町赤尾","zip_code":"9110823"},{"name":"平泉寺町池ケ原","zip_code":"9110824"},{"name":"平泉寺町岩ケ野","zip_code":"9110825"},{"name":"平泉寺町上野","zip_code":"9110825"},{"name":"平泉寺町大矢谷","zip_code":"9110824"},{"name":"平泉寺町大渡","zip_code":"9110828"},{"name":"平泉寺町岡横江","zip_code":"9110821"},{"name":"平泉寺町壁倉","zip_code":"9110826"},{"name":"平泉寺町経塚","zip_code":"9110828"},{"name":"平泉寺町小矢谷","zip_code":"9110824"},{"name":"平泉寺町笹尾","zip_code":"9110827"},{"name":"平泉寺町神野","zip_code":"9110822"},{"name":"平泉寺町平泉寺","zip_code":"9110822"},{"name":"本町","zip_code":"9110806"},{"name":"村岡町暮見","zip_code":"9110022"},{"name":"村岡町黒原","zip_code":"9110026"},{"name":"村岡町五本寺","zip_code":"9110025"},{"name":"村岡町浄土寺","zip_code":"9110024"},{"name":"村岡町寺尾","zip_code":"9110023"},{"name":"村岡町栃神谷","zip_code":"9110021"},{"name":"元町","zip_code":"9110804"},{"name":"芳野ケ原","zip_code":"9110022"},{"name":"芳野町","zip_code":"9110032"},{"name":"若猪野","zip_code":"9110814"}]},{"name":"鯖江市","divisions":[{"name":"旭町","zip_code":"9160025"},{"name":"莇生田町","zip_code":"9161224"},{"name":"有定町","zip_code":"9160057"},{"name":"石田上町","zip_code":"9160083"},{"name":"石田中町","zip_code":"9160082"},{"name":"石田下町","zip_code":"9160081"},{"name":"石生谷町","zip_code":"9160076"},{"name":"磯部町","zip_code":"9161114"},{"name":"入町","zip_code":"9160008"},{"name":"漆原町","zip_code":"9160075"},{"name":"大倉町","zip_code":"9160085"},{"name":"大野町","zip_code":"9161102"},{"name":"落井町","zip_code":"9161115"},{"name":"乙坂今北町","zip_code":"9161104"},{"name":"尾花町","zip_code":"9161233"},{"name":"片山町","zip_code":"9161223"},{"name":"金谷町","zip_code":"9161231"},{"name":"上氏家町","zip_code":"9160066"},{"name":"上河内町","zip_code":"9161235"},{"name":"上河端町","zip_code":"9160037"},{"name":"上鯖江","zip_code":"9160055"},{"name":"上鯖江町","zip_code":"9160055"},{"name":"上戸口町","zip_code":"9161111"},{"name":"神中町","zip_code":"9160016"},{"name":"上野田町","zip_code":"9160074"},{"name":"川去町","zip_code":"9160088"},{"name":"川島町","zip_code":"9161116"},{"name":"河和田町","zip_code":"9161222"},{"name":"北中町","zip_code":"9161237"},{"name":"北野町","zip_code":"9160029"},{"name":"熊田町","zip_code":"9160062"},{"name":"下司町","zip_code":"9160064"},{"name":"小泉町","zip_code":"9160084"},{"name":"小黒町","zip_code":"9160028"},{"name":"五郎丸町","zip_code":"9160044"},{"name":"幸町","zip_code":"9160018"},{"name":"桜町","zip_code":"9160027"},{"name":"定次町","zip_code":"9160043"},{"name":"沢町","zip_code":"9161234"},{"name":"三六町","zip_code":"9160021"},{"name":"寺中町","zip_code":"9161232"},{"name":"四方谷町","zip_code":"9161106"},{"name":"持明寺町","zip_code":"9160071"},{"name":"下氏家町","zip_code":"9160067"},{"name":"下河端町","zip_code":"9160038"},{"name":"下新庄町","zip_code":"9160034"},{"name":"下野田町","zip_code":"9160073"},{"name":"新町","zip_code":"9160035"},{"name":"神明町","zip_code":"9160017"},{"name":"新横江","zip_code":"9160042"},{"name":"杉本町","zip_code":"9160005"},{"name":"住吉町","zip_code":"9160056"},{"name":"大正寺町","zip_code":"9161101"},{"name":"糺町","zip_code":"9160004"},{"name":"田所町","zip_code":"9160003"},{"name":"田村町","zip_code":"9160087"},{"name":"長泉寺町","zip_code":"9160024"},{"name":"つつじケ丘町","zip_code":"9160011"},{"name":"当田町","zip_code":"9160065"},{"name":"戸口町","zip_code":"9161113"},{"name":"鳥羽","zip_code":"9160013"},{"name":"鳥羽町","zip_code":"9160014"},{"name":"鳥井町","zip_code":"9160063"},{"name":"南井町","zip_code":"9161107"},{"name":"中戸口町","zip_code":"9161112"},{"name":"中野町","zip_code":"9160033"},{"name":"中野松成","zip_code":"9161133"},{"name":"西大井町","zip_code":"9160078"},{"name":"西番町","zip_code":"9160006"},{"name":"西袋町","zip_code":"9161221"},{"name":"西山町","zip_code":"9160023"},{"name":"二丁掛町","zip_code":"9160068"},{"name":"橋立町","zip_code":"9160031"},{"name":"東鯖江","zip_code":"9160041"},{"name":"東清水町","zip_code":"9161236"},{"name":"東米岡","zip_code":"9160012"},{"name":"日の出町","zip_code":"9160053"},{"name":"平井町","zip_code":"9160061"},{"name":"深江町","zip_code":"9160052"},{"name":"冬島町","zip_code":"9160072"},{"name":"舟枝町","zip_code":"9160032"},{"name":"舟津町","zip_code":"9160054"},{"name":"別司町","zip_code":"9161225"},{"name":"別所町","zip_code":"9161103"},{"name":"本町","zip_code":"9160026"},{"name":"松成町","zip_code":"9161118"},{"name":"丸山町","zip_code":"9160019"},{"name":"三尾野出作町","zip_code":"9160007"},{"name":"水落町","zip_code":"9160022"},{"name":"宮前","zip_code":"9160045"},{"name":"御幸町","zip_code":"9160015"},{"name":"屋形町","zip_code":"9160051"},{"name":"柳町","zip_code":"9160047"},{"name":"横江町","zip_code":"9160046"},{"name":"横越町","zip_code":"9160036"},{"name":"吉江町","zip_code":"9160001"},{"name":"吉谷町","zip_code":"9161105"},{"name":"吉田町","zip_code":"9160086"},{"name":"米岡町","zip_code":"9160002"},{"name":"和田町","zip_code":"9160077"}]},{"name":"あわら市","divisions":[{"name":"青ノ木","zip_code":"9190814"},{"name":"赤尾","zip_code":"9104273"},{"name":"芦鶴","zip_code":"9104102"},{"name":"伊井","zip_code":"9190614"},{"name":"井江葭","zip_code":"9104112"},{"name":"池口","zip_code":"9190615"},{"name":"市姫","zip_code":"9190621"},{"name":"稲越","zip_code":"9190623"},{"name":"牛ノ谷","zip_code":"9190721"},{"name":"牛山","zip_code":"9104111"},{"name":"後山","zip_code":"9190735"},{"name":"畝市野々","zip_code":"9190722"},{"name":"瓜生","zip_code":"9190742"},{"name":"上野","zip_code":"9190724"},{"name":"大溝","zip_code":"9190628"},{"name":"温泉","zip_code":"9104104"},{"name":"柿原","zip_code":"9190812"},{"name":"鎌谷","zip_code":"9190732"},{"name":"上番","zip_code":"9104134"},{"name":"河原井手","zip_code":"9190616"},{"name":"北","zip_code":"9190749"},{"name":"北潟","zip_code":"9104272"},{"name":"北金津","zip_code":"9190634"},{"name":"北野","zip_code":"9190748"},{"name":"北疋田","zip_code":"9190744"},{"name":"北本堂","zip_code":"9104146"},{"name":"清滝","zip_code":"9190733"},{"name":"国影","zip_code":"9104115"},{"name":"椚","zip_code":"9190736"},{"name":"熊坂","zip_code":"9190723"},{"name":"公文","zip_code":"9104147"},{"name":"桑原","zip_code":"9190612"},{"name":"河間","zip_code":"9104142"},{"name":"権世","zip_code":"9190737"},{"name":"権世市野々","zip_code":"9190731"},{"name":"坂口","zip_code":"9190817"},{"name":"笹岡","zip_code":"9190726"},{"name":"沢","zip_code":"9190804"},{"name":"重義","zip_code":"9104122"},{"name":"下金屋","zip_code":"9190727"},{"name":"下番","zip_code":"9104138"},{"name":"自由ケ丘","zip_code":"9190604"},{"name":"十三","zip_code":"9104276"},{"name":"城","zip_code":"9104276"},{"name":"城新田","zip_code":"9104275"},{"name":"次郎丸","zip_code":"9190745"},{"name":"菅野","zip_code":"9190602"},{"name":"角屋","zip_code":"9104145"},{"name":"清王","zip_code":"9190815"},{"name":"清間","zip_code":"9190611"},{"name":"高塚","zip_code":"9190631"},{"name":"滝","zip_code":"9190805"},{"name":"田中々","zip_code":"9104124"},{"name":"玉木","zip_code":"9104141"},{"name":"谷畠","zip_code":"9104132"},{"name":"東善寺","zip_code":"9104131"},{"name":"轟木","zip_code":"9104133"},{"name":"富津","zip_code":"9104272"},{"name":"中川","zip_code":"9190741"},{"name":"中浜","zip_code":"9104144"},{"name":"中番","zip_code":"9104137"},{"name":"波松","zip_code":"9104277"},{"name":"西温泉","zip_code":"9104127"},{"name":"布目","zip_code":"9104126"},{"name":"橋屋","zip_code":"9190802"},{"name":"蓮ケ浦","zip_code":"9190811"},{"name":"花乃杜","zip_code":"9190633"},{"name":"浜坂","zip_code":"9104271"},{"name":"春宮","zip_code":"9190632"},{"name":"番田","zip_code":"9104123"},{"name":"番堂野","zip_code":"9104274"},{"name":"東温泉","zip_code":"9104121"},{"name":"東田中","zip_code":"9190746"},{"name":"東山","zip_code":"9190734"},{"name":"樋山","zip_code":"9190803"},{"name":"二面","zip_code":"9104103"},{"name":"舟津","zip_code":"9104105"},{"name":"古屋石塚","zip_code":"9190613"},{"name":"細呂木","zip_code":"9190801"},{"name":"堀江十楽","zip_code":"9104125"},{"name":"前谷","zip_code":"9190725"},{"name":"御簾尾","zip_code":"9190747"},{"name":"南疋田","zip_code":"9190743"},{"name":"宮谷","zip_code":"9190806"},{"name":"宮前","zip_code":"9104147"},{"name":"矢地","zip_code":"9190603"},{"name":"山西方寺","zip_code":"9190813"},{"name":"山十楽","zip_code":"9190816"},{"name":"山室","zip_code":"9190601"},{"name":"指中","zip_code":"9190807"},{"name":"横垣","zip_code":"9104113"},{"name":"吉崎","zip_code":"9220679"}]},{"name":"越前市","divisions":[{"name":"相木町","zip_code":"9150202"},{"name":"あおば町","zip_code":"9150064"},{"name":"赤坂町","zip_code":"9150256"},{"name":"赤谷町","zip_code":"9150214"},{"name":"味真野町","zip_code":"9150025"},{"name":"吾妻町","zip_code":"9150069"},{"name":"荒谷町","zip_code":"9150045"},{"name":"粟田部町","zip_code":"9150242"},{"name":"粟田部町中央","zip_code":"9150241"},{"name":"粟野町","zip_code":"9151242"},{"name":"安養寺町","zip_code":"9151201"},{"name":"家久町","zip_code":"9150801"},{"name":"池泉町","zip_code":"9150023"},{"name":"池ノ上町","zip_code":"9150873"},{"name":"市野々町","zip_code":"9150216"},{"name":"稲寄町","zip_code":"9150095"},{"name":"今宿町","zip_code":"9150861"},{"name":"入谷町","zip_code":"9150035"},{"name":"岩内町","zip_code":"9150016"},{"name":"岩本町","zip_code":"9150233"},{"name":"瓜生町","zip_code":"9150096"},{"name":"瓜生野町","zip_code":"9150865"},{"name":"不老町","zip_code":"9150235"},{"name":"大塩町","zip_code":"9150863"},{"name":"大滝町","zip_code":"9150234"},{"name":"大谷町","zip_code":"9150218"},{"name":"大手町","zip_code":"9150015"},{"name":"大平町","zip_code":"9150228"},{"name":"大虫町","zip_code":"9150885"},{"name":"大虫本町","zip_code":"9150884"},{"name":"大屋町","zip_code":"9150042"},{"name":"岡本町","zip_code":"9150835"},{"name":"押田","zip_code":"9150083"},{"name":"小野谷町","zip_code":"9150054"},{"name":"春日野町","zip_code":"9150877"},{"name":"片屋町","zip_code":"9150893"},{"name":"桂町","zip_code":"9150812"},{"name":"金屋町","zip_code":"9150011"},{"name":"上太田町","zip_code":"9150882"},{"name":"上大坪町","zip_code":"9150024"},{"name":"上小松町","zip_code":"9150864"},{"name":"上四目町","zip_code":"9150886"},{"name":"上杉本町","zip_code":"9151203"},{"name":"上真柄町","zip_code":"9150011"},{"name":"上真柄宮谷入会地","zip_code":"9150013"},{"name":"萱谷町","zip_code":"9150037"},{"name":"北小山町","zip_code":"9150021"},{"name":"北府","zip_code":"9150802"},{"name":"北府本町","zip_code":"9150802"},{"name":"北坂下町","zip_code":"9150219"},{"name":"北千福町","zip_code":"9150834"},{"name":"北町","zip_code":"9150004"},{"name":"北山町","zip_code":"9150897"},{"name":"京町","zip_code":"9150813"},{"name":"清根町","zip_code":"9150203"},{"name":"葛岡町","zip_code":"9150041"},{"name":"朽飯町","zip_code":"9150261"},{"name":"国兼町","zip_code":"9150862"},{"name":"国高","zip_code":"9150082"},{"name":"国中町","zip_code":"9150254"},{"name":"黒川町","zip_code":"9151202"},{"name":"勾当原町","zip_code":"9151221"},{"name":"向陽町","zip_code":"9150874"},{"name":"国府","zip_code":"9150076"},{"name":"小杉町","zip_code":"9151243"},{"name":"小谷町","zip_code":"9151234"},{"name":"小野町","zip_code":"9151215"},{"name":"五分市町","zip_code":"9150026"},{"name":"小松","zip_code":"9150816"},{"name":"米口町","zip_code":"9151212"},{"name":"幸町","zip_code":"9150075"},{"name":"定友町","zip_code":"9150231"},{"name":"沢町","zip_code":"9150833"},{"name":"芝原","zip_code":"9150805"},{"name":"島町","zip_code":"9150223"},{"name":"清水頭町","zip_code":"9150012"},{"name":"下太田町","zip_code":"9150881"},{"name":"下四目町","zip_code":"9150887"},{"name":"下中津原町","zip_code":"9151222"},{"name":"下平吹町","zip_code":"9150855"},{"name":"下別所町","zip_code":"9151224"},{"name":"庄町","zip_code":"9150093"},{"name":"庄田町","zip_code":"9150043"},{"name":"菖蒲谷町","zip_code":"9151233"},{"name":"勝蓮花町","zip_code":"9151214"},{"name":"四郎丸町","zip_code":"9150857"},{"name":"白崎町","zip_code":"9150876"},{"name":"新在家町","zip_code":"9150232"},{"name":"新町","zip_code":"9150883"},{"name":"新堂町","zip_code":"9150255"},{"name":"新保","zip_code":"9150804"},{"name":"新保町","zip_code":"9150804"},{"name":"神明町","zip_code":"9150066"},{"name":"杉尾町","zip_code":"9150221"},{"name":"杉崎町","zip_code":"9150006"},{"name":"菅町","zip_code":"9151235"},{"name":"住吉町","zip_code":"9150067"},{"name":"千合谷町","zip_code":"9151231"},{"name":"千福町","zip_code":"9150846"},{"name":"曽原町","zip_code":"9151241"},{"name":"高岡町","zip_code":"9150262"},{"name":"高木町","zip_code":"9150091"},{"name":"高瀬","zip_code":"9150832"},{"name":"高森町","zip_code":"9150888"},{"name":"武生柳町","zip_code":"9150824"},{"name":"千原町","zip_code":"9150243"},{"name":"中央","zip_code":"9150814"},{"name":"長五町","zip_code":"9150223"},{"name":"塚町","zip_code":"9150092"},{"name":"塚原町","zip_code":"9150875"},{"name":"月見町","zip_code":"9150843"},{"name":"土山町","zip_code":"9151234"},{"name":"常久町","zip_code":"9150842"},{"name":"寺地町","zip_code":"9150204"},{"name":"天王町","zip_code":"9150068"},{"name":"戸谷町","zip_code":"9150003"},{"name":"轟井町","zip_code":"9150222"},{"name":"殿町","zip_code":"9150219"},{"name":"都辺町","zip_code":"9151204"},{"name":"問屋町","zip_code":"9150053"},{"name":"中居町","zip_code":"9150034"},{"name":"中印町","zip_code":"9150227"},{"name":"長尾町","zip_code":"9150002"},{"name":"中新庄町","zip_code":"9150001"},{"name":"長谷町","zip_code":"9150212"},{"name":"中津原町","zip_code":"9151223"},{"name":"中津山町","zip_code":"9150253"},{"name":"長土呂町","zip_code":"9150097"},{"name":"中野町","zip_code":"9151246"},{"name":"中平吹町","zip_code":"9150856"},{"name":"仲山","zip_code":"9150265"},{"name":"中山町","zip_code":"9151226"},{"name":"波垣町","zip_code":"9150205"},{"name":"畷町","zip_code":"9150851"},{"name":"二階堂町","zip_code":"9151232"},{"name":"西尾町","zip_code":"9150014"},{"name":"西樫尾町","zip_code":"9150244"},{"name":"錦町","zip_code":"9150073"},{"name":"西河内町","zip_code":"9150201"},{"name":"西庄境町","zip_code":"9150252"},{"name":"西谷町","zip_code":"9150046"},{"name":"丹生郷町","zip_code":"9150894"},{"name":"野岡町","zip_code":"9150264"},{"name":"野上町","zip_code":"9150836"},{"name":"萩原町","zip_code":"9151205"},{"name":"余田町","zip_code":"9150891"},{"name":"馬上免町","zip_code":"9150081"},{"name":"畑町","zip_code":"9150055"},{"name":"八石町","zip_code":"9150224"},{"name":"八幡","zip_code":"9150085"},{"name":"春山町","zip_code":"9150206"},{"name":"万代町","zip_code":"9150072"},{"name":"檜尾谷町","zip_code":"9150032"},{"name":"東樫尾町","zip_code":"9150207"},{"name":"東庄境町","zip_code":"9150251"},{"name":"東千福町","zip_code":"9150847"},{"name":"氷坂町","zip_code":"9150892"},{"name":"日野美","zip_code":"9150831"},{"name":"姫川","zip_code":"9150062"},{"name":"平出","zip_code":"9150803"},{"name":"平林町","zip_code":"9150044"},{"name":"広瀬町","zip_code":"9150872"},{"name":"深草","zip_code":"9150815"},{"name":"藤木町","zip_code":"9150209"},{"name":"富士見が丘","zip_code":"9150854"},{"name":"府中","zip_code":"9150071"},{"name":"文室町","zip_code":"9150036"},{"name":"文京","zip_code":"9150841"},{"name":"平和町","zip_code":"9150827"},{"name":"別印町","zip_code":"9150225"},{"name":"蓬莱町","zip_code":"9150074"},{"name":"仏谷町","zip_code":"9151212"},{"name":"帆山町","zip_code":"9150051"},{"name":"堀川町","zip_code":"9150061"},{"name":"堀町","zip_code":"9151211"},{"name":"本多","zip_code":"9150811"},{"name":"本保町","zip_code":"9150806"},{"name":"本町","zip_code":"9150823"},{"name":"真柄町","zip_code":"9150005"},{"name":"牧町","zip_code":"9151244"},{"name":"松森町","zip_code":"9150852"},{"name":"丸岡町","zip_code":"9151213"},{"name":"水間町","zip_code":"9150217"},{"name":"三ツ口町","zip_code":"9150845"},{"name":"三ツ俣町","zip_code":"9150895"},{"name":"三ツ屋町","zip_code":"9150007"},{"name":"南","zip_code":"9150825"},{"name":"南小山町","zip_code":"9150022"},{"name":"南坂下町","zip_code":"9150226"},{"name":"南中町","zip_code":"9150213"},{"name":"蓑脇町","zip_code":"9150033"},{"name":"宮谷町","zip_code":"9150013"},{"name":"御幸町","zip_code":"9150826"},{"name":"妙法寺町","zip_code":"9150844"},{"name":"向が丘町","zip_code":"9150871"},{"name":"向新保町","zip_code":"9150056"},{"name":"村国","zip_code":"9150084"},{"name":"室谷町","zip_code":"9150211"},{"name":"元町","zip_code":"9150822"},{"name":"森久町","zip_code":"9150865"},{"name":"安戸町","zip_code":"9151235"},{"name":"柳元町","zip_code":"9150215"},{"name":"矢放町","zip_code":"9150052"},{"name":"矢船町","zip_code":"9150057"},{"name":"山室町","zip_code":"9150263"},{"name":"行松町","zip_code":"9150853"},{"name":"豊町","zip_code":"9150065"},{"name":"湯谷町","zip_code":"9151225"},{"name":"余川町","zip_code":"9150031"},{"name":"横市町","zip_code":"9150094"},{"name":"横住町","zip_code":"9150203"},{"name":"横根町","zip_code":"9150896"},{"name":"領家町","zip_code":"9150208"},{"name":"若須町","zip_code":"9151245"},{"name":"若竹町","zip_code":"9150063"},{"name":"若松町","zip_code":"9150821"}]},{"name":"坂井市","divisions":[{"name":"坂井町朝日","zip_code":"9190517"},{"name":"坂井町今井","zip_code":"9190531"},{"name":"坂井町大味","zip_code":"9190547"},{"name":"坂井町折戸","zip_code":"9190537"},{"name":"坂井町上新庄","zip_code":"9190522"},{"name":"坂井町上関","zip_code":"9190502"},{"name":"坂井町上兵庫","zip_code":"9190526"},{"name":"坂井町河和田","zip_code":"9190505"},{"name":"坂井町木部新保","zip_code":"9190536"},{"name":"坂井町木部東","zip_code":"9190533"},{"name":"坂井町清永","zip_code":"9190534"},{"name":"坂井町蔵垣内","zip_code":"9190542"},{"name":"坂井町五本","zip_code":"9190507"},{"name":"坂井町御油田","zip_code":"9190504"},{"name":"坂井町定旨","zip_code":"9190506"},{"name":"坂井町島","zip_code":"9190535"},{"name":"坂井町下新庄","zip_code":"9190521"},{"name":"坂井町下関","zip_code":"9190501"},{"name":"坂井町下兵庫","zip_code":"9190527"},{"name":"坂井町新庄","zip_code":"9190523"},{"name":"坂井町高柳","zip_code":"9190532"},{"name":"坂井町蛸","zip_code":"9190546"},{"name":"坂井町田島","zip_code":"9190513"},{"name":"坂井町田島窪","zip_code":"9190514"},{"name":"坂井町徳分田","zip_code":"9190525"},{"name":"坂井町長畑","zip_code":"9190511"},{"name":"坂井町長屋","zip_code":"9190503"},{"name":"坂井町西","zip_code":"9190543"},{"name":"坂井町東","zip_code":"9190541"},{"name":"坂井町東荒井","zip_code":"9190545"},{"name":"坂井町東長田","zip_code":"9190524"},{"name":"坂井町東中野","zip_code":"9190544"},{"name":"坂井町福島","zip_code":"9190516"},{"name":"坂井町宮領","zip_code":"9190512"},{"name":"坂井町若宮","zip_code":"9190515"},{"name":"春江町石塚","zip_code":"9190483"},{"name":"春江町石仏","zip_code":"9190423"},{"name":"春江町いちい野","zip_code":"9190424"},{"name":"春江町いちい野北","zip_code":"9190425"},{"name":"春江町いちい野中央","zip_code":"9190426"},{"name":"春江町井向","zip_code":"9190403"},{"name":"春江町江留上","zip_code":"9190455"},{"name":"春江町江留上旭","zip_code":"9190451"},{"name":"春江町江留上昭和","zip_code":"9190463"},{"name":"春江町江留上新町","zip_code":"9190465"},{"name":"春江町江留上中央","zip_code":"9190453"},{"name":"春江町江留上錦","zip_code":"9190464"},{"name":"春江町江留上日の出","zip_code":"9190454"},{"name":"春江町江留上本町","zip_code":"9190452"},{"name":"春江町江留上緑","zip_code":"9190461"},{"name":"春江町江留上大和","zip_code":"9190462"},{"name":"春江町江留下","zip_code":"9190415"},{"name":"春江町江留下相田","zip_code":"9190417"},{"name":"春江町江留下宇和江","zip_code":"9190416"},{"name":"春江町江留下高道","zip_code":"9190418"},{"name":"春江町江留下屋敷","zip_code":"9190414"},{"name":"春江町江留中","zip_code":"9190412"},{"name":"春江町大針","zip_code":"9190421"},{"name":"春江町大牧","zip_code":"9190402"},{"name":"春江町沖布目","zip_code":"9190422"},{"name":"春江町上小森","zip_code":"9190405"},{"name":"春江町木部西方寺","zip_code":"9190408"},{"name":"春江町金剛寺","zip_code":"9190471"},{"name":"春江町境","zip_code":"9190434"},{"name":"春江町境上町","zip_code":"9190434"},{"name":"春江町境元町","zip_code":"9190434"},{"name":"春江町定重","zip_code":"9190441"},{"name":"春江町定広","zip_code":"9190409"},{"name":"春江町下小森","zip_code":"9190406"},{"name":"春江町正善","zip_code":"9190487"},{"name":"春江町正蓮花","zip_code":"9190443"},{"name":"春江町随応寺","zip_code":"9190413"},{"name":"春江町千歩寺","zip_code":"9190481"},{"name":"春江町高江","zip_code":"9190479"},{"name":"春江町田端","zip_code":"9190477"},{"name":"春江町為国","zip_code":"9190431"},{"name":"春江町為国亀ケ久保","zip_code":"9190432"},{"name":"春江町為国幸","zip_code":"9190435"},{"name":"春江町為国中区","zip_code":"9190436"},{"name":"春江町為国西の宮","zip_code":"9190437"},{"name":"春江町為国平成","zip_code":"9190433"},{"name":"春江町辻","zip_code":"9190407"},{"name":"春江町取次","zip_code":"9190485"},{"name":"春江町中筋","zip_code":"9190449"},{"name":"春江町中筋大手","zip_code":"9190447"},{"name":"春江町中筋春日","zip_code":"9190446"},{"name":"春江町中筋北浦","zip_code":"9190448"},{"name":"春江町中筋高田","zip_code":"9190445"},{"name":"春江町中筋三ツ屋","zip_code":"9190444"},{"name":"春江町中庄","zip_code":"9190482"},{"name":"春江町西太郎丸","zip_code":"9190474"},{"name":"春江町西長田","zip_code":"9190404"},{"name":"春江町針原","zip_code":"9190476"},{"name":"春江町東太郎丸","zip_code":"9190475"},{"name":"春江町姫王","zip_code":"9190488"},{"name":"春江町藤鷲塚","zip_code":"9190411"},{"name":"春江町布施田新","zip_code":"9190486"},{"name":"春江町堀越","zip_code":"9190401"},{"name":"春江町本堂","zip_code":"9190473"},{"name":"春江町松木","zip_code":"9190472"},{"name":"春江町安沢","zip_code":"9190484"},{"name":"春江町寄安","zip_code":"9190442"},{"name":"丸岡町赤坂","zip_code":"9100212"},{"name":"丸岡町朝陽","zip_code":"9100265"},{"name":"丸岡町愛宕","zip_code":"9100301"},{"name":"丸岡町油為頭","zip_code":"9100324"},{"name":"丸岡町荒町","zip_code":"9100227"},{"name":"丸岡町石城戸町","zip_code":"9100243"},{"name":"丸岡町磯部島","zip_code":"9100346"},{"name":"丸岡町磯部新保","zip_code":"9100368"},{"name":"丸岡町磯部福庄","zip_code":"9100365"},{"name":"丸岡町板倉","zip_code":"9100325"},{"name":"丸岡町一本田","zip_code":"9100254"},{"name":"丸岡町一本田中","zip_code":"9100253"},{"name":"丸岡町一本田福所","zip_code":"9100251"},{"name":"丸岡町乾","zip_code":"9100237"},{"name":"丸岡町乾下田","zip_code":"9100264"},{"name":"丸岡町猪爪","zip_code":"9100303"},{"name":"丸岡町今市","zip_code":"9100234"},{"name":"丸岡町今福","zip_code":"9100304"},{"name":"丸岡町今町","zip_code":"9100348"},{"name":"丸岡町上田町","zip_code":"9100263"},{"name":"丸岡町牛ケ島","zip_code":"9100356"},{"name":"丸岡町宇随","zip_code":"9100366"},{"name":"丸岡町宇田","zip_code":"9100275"},{"name":"丸岡町内田","zip_code":"9100313"},{"name":"丸岡町大森","zip_code":"9100322"},{"name":"丸岡町小黒","zip_code":"9100315"},{"name":"丸岡町女形谷","zip_code":"9100211"},{"name":"丸岡町霞ケ丘","zip_code":"9100232"},{"name":"丸岡町霞町","zip_code":"9100231"},{"name":"丸岡町金元","zip_code":"9100333"},{"name":"丸岡町上金屋","zip_code":"9100335"},{"name":"丸岡町上久米田","zip_code":"9100331"},{"name":"丸岡町上竹田","zip_code":"9100202"},{"name":"丸岡町上安田","zip_code":"9100362"},{"name":"丸岡町川上","zip_code":"9100206"},{"name":"丸岡町北横地","zip_code":"9100374"},{"name":"丸岡町儀間","zip_code":"9100357"},{"name":"丸岡町熊堂","zip_code":"9100347"},{"name":"丸岡町玄女","zip_code":"9100276"},{"name":"丸岡町栄","zip_code":"9100262"},{"name":"丸岡町笹和田","zip_code":"9100382"},{"name":"丸岡町里竹田","zip_code":"9100277"},{"name":"丸岡町里丸岡","zip_code":"9100302"},{"name":"丸岡町三本木","zip_code":"9100223"},{"name":"丸岡町篠岡","zip_code":"9100316"},{"name":"丸岡町下久米田","zip_code":"9100332"},{"name":"丸岡町下安田","zip_code":"9100363"},{"name":"丸岡町城北","zip_code":"9100221"},{"name":"丸岡町四郎丸","zip_code":"9100345"},{"name":"丸岡町新九頭竜","zip_code":"9100369"},{"name":"丸岡町新鳴鹿","zip_code":"9100337"},{"name":"丸岡町新間","zip_code":"9100352"},{"name":"丸岡町末政","zip_code":"9100326"},{"name":"丸岡町千田","zip_code":"9100274"},{"name":"丸岡町曽々木","zip_code":"9100312"},{"name":"丸岡町高瀬","zip_code":"9100355"},{"name":"丸岡町高田","zip_code":"9100342"},{"name":"丸岡町高柳","zip_code":"9100373"},{"name":"丸岡町巽町","zip_code":"9100235"},{"name":"丸岡町谷町","zip_code":"9100245"},{"name":"丸岡町為安","zip_code":"9100338"},{"name":"丸岡町田屋","zip_code":"9100213"},{"name":"丸岡町反保","zip_code":"9100349"},{"name":"丸岡町筑後清水","zip_code":"9100353"},{"name":"丸岡町坪江","zip_code":"9100208"},{"name":"丸岡町坪ノ内","zip_code":"9100343"},{"name":"丸岡町東陽","zip_code":"9100233"},{"name":"丸岡町富田町","zip_code":"9100244"},{"name":"丸岡町友末","zip_code":"9100344"},{"name":"丸岡町豊原","zip_code":"9100311"},{"name":"丸岡町豊原高瀬","zip_code":"9100354"},{"name":"丸岡町寅国","zip_code":"9100351"},{"name":"丸岡町長崎","zip_code":"9100383"},{"name":"丸岡町西瓜屋","zip_code":"9100246"},{"name":"丸岡町西里丸岡","zip_code":"9100242"},{"name":"丸岡町長畝","zip_code":"9100273"},{"name":"丸岡町野中山王","zip_code":"9100323"},{"name":"丸岡町乗兼","zip_code":"9100272"},{"name":"丸岡町羽崎","zip_code":"9100367"},{"name":"丸岡町畑中","zip_code":"9100214"},{"name":"丸岡町八幡町","zip_code":"9100305"},{"name":"丸岡町八ケ郷","zip_code":"9100224"},{"name":"丸岡町八丁","zip_code":"9100364"},{"name":"丸岡町針ノ木","zip_code":"9100261"},{"name":"丸岡町東二ツ屋","zip_code":"9100334"},{"name":"丸岡町伏屋","zip_code":"9100222"},{"name":"丸岡町舟寄","zip_code":"9100381"},{"name":"丸岡町堀水","zip_code":"9100271"},{"name":"丸岡町本町","zip_code":"9100236"},{"name":"丸岡町舛田","zip_code":"9100314"},{"name":"丸岡町松川","zip_code":"9100225"},{"name":"丸岡町松川町","zip_code":"9100226"},{"name":"丸岡町南今市","zip_code":"9100350"},{"name":"丸岡町南横地","zip_code":"9100375"},{"name":"丸岡町御幸","zip_code":"9100252"},{"name":"丸岡町安田新","zip_code":"9100361"},{"name":"丸岡町八ツ口","zip_code":"9100371"},{"name":"丸岡町柳町","zip_code":"9100241"},{"name":"丸岡町山口","zip_code":"9100203"},{"name":"丸岡町山久保","zip_code":"9100207"},{"name":"丸岡町山崎三ケ","zip_code":"9100321"},{"name":"丸岡町山竹田","zip_code":"9100204"},{"name":"丸岡町与河","zip_code":"9100215"},{"name":"丸岡町吉政","zip_code":"9100372"},{"name":"丸岡町四ツ屋","zip_code":"9100384"},{"name":"丸岡町四ツ柳","zip_code":"9100341"},{"name":"丸岡町寄永","zip_code":"9100339"},{"name":"丸岡町楽間","zip_code":"9100336"},{"name":"三国町青葉台","zip_code":"9130053"},{"name":"三国町油屋","zip_code":"9130022"},{"name":"三国町安島","zip_code":"9130063"},{"name":"三国町池上","zip_code":"9130001"},{"name":"三国町池見","zip_code":"9130024"},{"name":"三国町石丸","zip_code":"9130023"},{"name":"三国町運動公園","zip_code":"9130052"},{"name":"三国町沖野々","zip_code":"9130035"},{"name":"三国町覚善","zip_code":"9130041"},{"name":"三国町梶","zip_code":"9130061"},{"name":"三国町加戸","zip_code":"9130002"},{"name":"三国町川崎","zip_code":"9130025"},{"name":"三国町北本町","zip_code":"9130046"},{"name":"三国町黒目","zip_code":"9130038"},{"name":"三国町米ケ脇","zip_code":"9130057"},{"name":"三国町崎","zip_code":"9130065"},{"name":"三国町山王","zip_code":"9130044"},{"name":"三国町汐見","zip_code":"9130027"},{"name":"三国町下野","zip_code":"9130033"},{"name":"三国町宿","zip_code":"9130056"},{"name":"三国町陣ケ岡","zip_code":"9130062"},{"name":"三国町新宿","zip_code":"9130058"},{"name":"三国町新保","zip_code":"9130038"},{"name":"三国町神明","zip_code":"9130047"},{"name":"三国町滝谷","zip_code":"9130054"},{"name":"三国町嵩","zip_code":"9130051"},{"name":"三国町竹松","zip_code":"9130017"},{"name":"三国町中央","zip_code":"9130042"},{"name":"三国町つつじが丘","zip_code":"9130055"},{"name":"三国町玉江","zip_code":"9130014"},{"name":"三国町殿島","zip_code":"9130026"},{"name":"三国町西今市","zip_code":"9130012"},{"name":"三国町錦","zip_code":"9130043"},{"name":"三国町西谷","zip_code":"9130003"},{"name":"三国町西野中","zip_code":"9130034"},{"name":"三国町野中","zip_code":"9130015"},{"name":"三国町浜地","zip_code":"9130005"},{"name":"三国町平山","zip_code":"9130004"},{"name":"三国町藤沢","zip_code":"9130013"},{"name":"三国町三国東","zip_code":"9130016"},{"name":"三国町水居","zip_code":"9130011"},{"name":"三国町緑ケ丘","zip_code":"9130048"},{"name":"三国町南本町","zip_code":"9130045"},{"name":"三国町山岸","zip_code":"9130038"},{"name":"三国町横越","zip_code":"9130035"},{"name":"三国町米納津","zip_code":"9130038"},{"name":"三国町楽円","zip_code":"9130021"}]},{"name":"吉田郡永平寺町","divisions":[{"name":"浅見","zip_code":"9101323"},{"name":"荒谷","zip_code":"9101227"},{"name":"飯島","zip_code":"9101217"},{"name":"石上","zip_code":"9101313"},{"name":"市荒川","zip_code":"9101302"},{"name":"市右エ門島","zip_code":"9101316"},{"name":"市野々","zip_code":"9101226"},{"name":"岩野","zip_code":"9101204"},{"name":"大月","zip_code":"9101322"},{"name":"大野島","zip_code":"9101311"},{"name":"上浄法寺","zip_code":"9101203"},{"name":"北島","zip_code":"9101325"},{"name":"京善","zip_code":"9101225"},{"name":"栗住波","zip_code":"9101314"},{"name":"けやき台","zip_code":"9101223"},{"name":"光明寺","zip_code":"9101216"},{"name":"山王","zip_code":"9101321"},{"name":"志比","zip_code":"9101228"},{"name":"清水","zip_code":"9101312"},{"name":"下浄法寺","zip_code":"9101202"},{"name":"諏訪間","zip_code":"9101222"},{"name":"せせらぎ","zip_code":"9101315"},{"name":"高橋","zip_code":"9101213"},{"name":"竹原","zip_code":"9101305"},{"name":"谷口","zip_code":"9101214"},{"name":"寺本","zip_code":"9101224"},{"name":"栃原","zip_code":"9101206"},{"name":"轟","zip_code":"9101218"},{"name":"中島","zip_code":"9101301"},{"name":"鳴鹿山鹿","zip_code":"9101201"},{"name":"野中","zip_code":"9101324"},{"name":"花谷","zip_code":"9101215"},{"name":"東古市","zip_code":"9101212"},{"name":"藤巻","zip_code":"9101303"},{"name":"法寺岡","zip_code":"9101211"},{"name":"牧福島","zip_code":"9101326"},{"name":"松岡葵","zip_code":"9101132"},{"name":"松岡石舟","zip_code":"9101115"},{"name":"松岡小畑","zip_code":"9101126"},{"name":"松岡学園","zip_code":"9101102"},{"name":"松岡春日","zip_code":"9101133"},{"name":"松岡上合月","zip_code":"9101103"},{"name":"松岡上吉野","zip_code":"9101124"},{"name":"松岡観音","zip_code":"9101137"},{"name":"松岡椚","zip_code":"9101131"},{"name":"松岡窪","zip_code":"9101136"},{"name":"松岡兼定島","zip_code":"9101142"},{"name":"松岡越坂","zip_code":"9101112"},{"name":"松岡御公領","zip_code":"9101106"},{"name":"松岡木ノ下","zip_code":"9101139"},{"name":"松岡芝原","zip_code":"9101134"},{"name":"松岡志比堺","zip_code":"9101111"},{"name":"松岡清水","zip_code":"9101116"},{"name":"松岡下合月","zip_code":"9101104"},{"name":"松岡城東","zip_code":"9101114"},{"name":"松岡神明","zip_code":"9101117"},{"name":"松岡末政","zip_code":"9101105"},{"name":"松岡西野中","zip_code":"9101125"},{"name":"松岡樋爪","zip_code":"9101101"},{"name":"松岡平成","zip_code":"9101144"},{"name":"松岡松ケ丘","zip_code":"9101113"},{"name":"松岡松ケ原","zip_code":"9101138"},{"name":"松岡宮重","zip_code":"9101122"},{"name":"松岡室","zip_code":"9101135"},{"name":"松岡薬師","zip_code":"9101118"},{"name":"松岡湯谷","zip_code":"9101123"},{"name":"松岡吉野","zip_code":"9101121"},{"name":"松岡吉野堺","zip_code":"9101127"},{"name":"松岡領家","zip_code":"9101141"},{"name":"松岡渡新田","zip_code":"9101143"},{"name":"山","zip_code":"9101221"},{"name":"吉波","zip_code":"9101205"},{"name":"吉峰","zip_code":"9101304"}]},{"name":"今立郡池田町","divisions":[{"name":"安善寺","zip_code":"9102504"},{"name":"池田","zip_code":"9102515"},{"name":"板垣","zip_code":"9102527"},{"name":"市","zip_code":"9102525"},{"name":"稲荷","zip_code":"9102512"},{"name":"魚見","zip_code":"9102534"},{"name":"大本","zip_code":"9102552"},{"name":"尾緩","zip_code":"9102551"},{"name":"小畑","zip_code":"9102557"},{"name":"柿ケ原","zip_code":"9102508"},{"name":"学園","zip_code":"9102514"},{"name":"籠掛","zip_code":"9102553"},{"name":"金見谷","zip_code":"9102554"},{"name":"上荒谷","zip_code":"9102526"},{"name":"河内","zip_code":"9102523"},{"name":"定方","zip_code":"9102537"},{"name":"志津原","zip_code":"9102523"},{"name":"清水谷","zip_code":"9102507"},{"name":"白粟","zip_code":"9102556"},{"name":"新保","zip_code":"9102532"},{"name":"菅生","zip_code":"9102535"},{"name":"谷口","zip_code":"9102503"},{"name":"千代谷","zip_code":"9102555"},{"name":"月ケ瀬","zip_code":"9102522"},{"name":"常安","zip_code":"9102521"},{"name":"寺島","zip_code":"9102513"},{"name":"寺谷","zip_code":"9102517"},{"name":"土合皿尾","zip_code":"9102524"},{"name":"西角間","zip_code":"9102536"},{"name":"野尻","zip_code":"9102502"},{"name":"東角間","zip_code":"9102531"},{"name":"東俣","zip_code":"9102533"},{"name":"広瀬","zip_code":"9102506"},{"name":"松ケ谷","zip_code":"9102556"},{"name":"水海","zip_code":"9102505"},{"name":"持越","zip_code":"9102501"},{"name":"薮田","zip_code":"9102511"},{"name":"山田","zip_code":"9102516"}]},{"name":"南条郡南越前町","divisions":[{"name":"合波","zip_code":"9190121"},{"name":"赤萩","zip_code":"9151105"},{"name":"阿久和","zip_code":"9190213"},{"name":"荒井","zip_code":"9190123"},{"name":"板取","zip_code":"9190128"},{"name":"今泉","zip_code":"9151112"},{"name":"今庄","zip_code":"9190131"},{"name":"鋳物師","zip_code":"9190202"},{"name":"上野","zip_code":"9190204"},{"name":"宇津尾","zip_code":"9190125"},{"name":"大桐","zip_code":"9190136"},{"name":"大谷","zip_code":"9151103"},{"name":"奥野々","zip_code":"9190215"},{"name":"小倉谷","zip_code":"9190114"},{"name":"金粕","zip_code":"9190206"},{"name":"甲楽城","zip_code":"9151113"},{"name":"上温谷","zip_code":"9190115"},{"name":"上平吹","zip_code":"9190201"},{"name":"上別所","zip_code":"9190216"},{"name":"久喜","zip_code":"9190119"},{"name":"具谷","zip_code":"9151101"},{"name":"河内","zip_code":"9151106"},{"name":"河野","zip_code":"9151111"},{"name":"鯖波","zip_code":"9190212"},{"name":"島","zip_code":"9190221"},{"name":"清水","zip_code":"9190226"},{"name":"新道","zip_code":"9190133"},{"name":"杉谷","zip_code":"9190111"},{"name":"菅谷","zip_code":"9151102"},{"name":"関ケ鼻","zip_code":"9190211"},{"name":"瀬戸","zip_code":"9190113"},{"name":"杣木俣","zip_code":"9190112"},{"name":"杣山","zip_code":"9190217"},{"name":"大門","zip_code":"9190122"},{"name":"大良","zip_code":"9151104"},{"name":"堂宮","zip_code":"9190205"},{"name":"中小屋","zip_code":"9190214"},{"name":"長沢","zip_code":"9190118"},{"name":"西大道","zip_code":"9190224"},{"name":"糠","zip_code":"9151114"},{"name":"橋立","zip_code":"9190126"},{"name":"馬上免","zip_code":"9190117"},{"name":"八田","zip_code":"9151114"},{"name":"燧","zip_code":"9190104"},{"name":"東大道","zip_code":"9190223"},{"name":"東谷","zip_code":"9190225"},{"name":"日野","zip_code":"9190222"},{"name":"広野","zip_code":"9190127"},{"name":"二ツ屋","zip_code":"9190135"},{"name":"古木","zip_code":"9190116"},{"name":"牧谷","zip_code":"9190203"},{"name":"孫谷","zip_code":"9190129"},{"name":"南今庄","zip_code":"9190132"},{"name":"八飯","zip_code":"9190124"},{"name":"八乙女","zip_code":"9190102"},{"name":"社谷","zip_code":"9190103"},{"name":"湯尾","zip_code":"9190101"},{"name":"脇本","zip_code":"9190227"}]},{"name":"丹生郡越前町","divisions":[{"name":"青野","zip_code":"9160152"},{"name":"赤井谷","zip_code":"9160205"},{"name":"朝日","zip_code":"9160146"},{"name":"天谷","zip_code":"9160101"},{"name":"大玉","zip_code":"9160106"},{"name":"市","zip_code":"9160135"},{"name":"入尾","zip_code":"9160201"},{"name":"岩開","zip_code":"9160145"},{"name":"岩倉","zip_code":"9160212"},{"name":"牛越","zip_code":"9160126"},{"name":"宇須尾","zip_code":"9160262"},{"name":"宇田","zip_code":"9160143"},{"name":"内郡","zip_code":"9160147"},{"name":"打越","zip_code":"9160216"},{"name":"梅浦","zip_code":"9160311"},{"name":"漆本","zip_code":"9160143"},{"name":"上戸","zip_code":"9160214"},{"name":"上野","zip_code":"9160267"},{"name":"江波","zip_code":"9160255"},{"name":"円満","zip_code":"9160263"},{"name":"笈松","zip_code":"9160206"},{"name":"大谷","zip_code":"9160251"},{"name":"大谷寺","zip_code":"9160117"},{"name":"大畑","zip_code":"9160121"},{"name":"小川","zip_code":"9160108"},{"name":"小倉","zip_code":"9160111"},{"name":"大樟","zip_code":"9160316"},{"name":"小曽原","zip_code":"9160273"},{"name":"織田","zip_code":"9160215"},{"name":"乙坂","zip_code":"9160131"},{"name":"樫津","zip_code":"9160272"},{"name":"頭谷","zip_code":"9160153"},{"name":"葛野","zip_code":"9160112"},{"name":"蚊谷寺","zip_code":"9160253"},{"name":"金谷","zip_code":"9160151"},{"name":"上糸生","zip_code":"9160107"},{"name":"上川去","zip_code":"9160142"},{"name":"上山中","zip_code":"9160225"},{"name":"気比庄","zip_code":"9160133"},{"name":"熊谷","zip_code":"9160275"},{"name":"茱原","zip_code":"9160155"},{"name":"厨","zip_code":"9160422"},{"name":"小樟","zip_code":"9160315"},{"name":"午房ケ平","zip_code":"9160428"},{"name":"米ノ","zip_code":"9160426"},{"name":"境野","zip_code":"9160154"},{"name":"桜谷","zip_code":"9160213"},{"name":"笹川","zip_code":"9160211"},{"name":"佐々生","zip_code":"9160144"},{"name":"下糸生","zip_code":"9160114"},{"name":"下河原","zip_code":"9160223"},{"name":"下山中","zip_code":"9160226"},{"name":"宿","zip_code":"9160312"},{"name":"城ケ谷","zip_code":"9160314"},{"name":"清水","zip_code":"9160105"},{"name":"白浜","zip_code":"9160424"},{"name":"新庄","zip_code":"9160134"},{"name":"新保","zip_code":"9160313"},{"name":"陶の谷","zip_code":"9160268"},{"name":"蝉口","zip_code":"9160252"},{"name":"左右","zip_code":"9160302"},{"name":"大王丸","zip_code":"9160222"},{"name":"平等","zip_code":"9160224"},{"name":"高佐","zip_code":"9160425"},{"name":"田中","zip_code":"9160132"},{"name":"玉川","zip_code":"9160304"},{"name":"血ケ平","zip_code":"9160303"},{"name":"杖立","zip_code":"9160103"},{"name":"寺","zip_code":"9160266"},{"name":"天王","zip_code":"9160122"},{"name":"天宝","zip_code":"9160123"},{"name":"栃川","zip_code":"9160136"},{"name":"中","zip_code":"9160204"},{"name":"中野","zip_code":"9160116"},{"name":"梨子ケ平","zip_code":"9160301"},{"name":"西ケ丘","zip_code":"9160219"},{"name":"西田中","zip_code":"9160141"},{"name":"野","zip_code":"9160261"},{"name":"野末","zip_code":"9160127"},{"name":"野田","zip_code":"9160113"},{"name":"萩野","zip_code":"9160218"},{"name":"八田","zip_code":"9160264"},{"name":"八田新保","zip_code":"9160265"},{"name":"東内郡","zip_code":"9160156"},{"name":"広野","zip_code":"9160254"},{"name":"舟場","zip_code":"9160271"},{"name":"古屋","zip_code":"9160276"},{"name":"宝泉寺","zip_code":"9160124"},{"name":"細野","zip_code":"9160202"},{"name":"真木","zip_code":"9160102"},{"name":"増谷","zip_code":"9160274"},{"name":"丸山","zip_code":"9160217"},{"name":"三崎","zip_code":"9160221"},{"name":"道口","zip_code":"9160421"},{"name":"宮の西団地","zip_code":"9160137"},{"name":"茂原","zip_code":"9160423"},{"name":"森","zip_code":"9160104"},{"name":"山田","zip_code":"9160203"},{"name":"横山","zip_code":"9160125"},{"name":"四ツ杉","zip_code":"9160227"},{"name":"六呂師","zip_code":"9160427"},{"name":"脇","zip_code":"9160115"}]},{"name":"三方郡美浜町","divisions":[{"name":"麻生","zip_code":"9191133"},{"name":"五十谷","zip_code":"9191135"},{"name":"太田","zip_code":"9191206"},{"name":"大薮","zip_code":"9191146"},{"name":"金山","zip_code":"9191145"},{"name":"河原市","zip_code":"9191138"},{"name":"北田","zip_code":"9191204"},{"name":"木野","zip_code":"9191131"},{"name":"気山","zip_code":"9191147"},{"name":"久々子","zip_code":"9191123"},{"name":"郷市","zip_code":"9191141"},{"name":"興道寺","zip_code":"9191142"},{"name":"坂尻","zip_code":"9191208"},{"name":"佐柿","zip_code":"9191132"},{"name":"笹田","zip_code":"9191125"},{"name":"佐田","zip_code":"9191205"},{"name":"佐野","zip_code":"9191143"},{"name":"新庄","zip_code":"9191144"},{"name":"菅浜","zip_code":"9191203"},{"name":"竹波","zip_code":"9191202"},{"name":"中寺","zip_code":"9191136"},{"name":"丹生","zip_code":"9191201"},{"name":"早瀬","zip_code":"9191124"},{"name":"日向","zip_code":"9191126"},{"name":"松原","zip_code":"9191122"},{"name":"南市","zip_code":"9191137"},{"name":"宮代","zip_code":"9191134"},{"name":"安江","zip_code":"9191135"},{"name":"山上","zip_code":"9191207"},{"name":"寄戸","zip_code":"9191135"},{"name":"和田","zip_code":"9191121"}]},{"name":"大飯郡高浜町","divisions":[{"name":"青","zip_code":"9192384"},{"name":"青戸","zip_code":"9192204"},{"name":"旭ケ丘","zip_code":"9192375"},{"name":"安土","zip_code":"9192202"},{"name":"今寺","zip_code":"9192376"},{"name":"岩神","zip_code":"9192222"},{"name":"上瀬","zip_code":"9192356"},{"name":"小黒飯","zip_code":"9192363"},{"name":"音海","zip_code":"9192361"},{"name":"笠原","zip_code":"9192216"},{"name":"鐘寄","zip_code":"9192212"},{"name":"鎌倉","zip_code":"9192352"},{"name":"上車持","zip_code":"9192206"},{"name":"神野","zip_code":"9192365"},{"name":"神野浦","zip_code":"9192366"},{"name":"事代","zip_code":"9192221"},{"name":"子生","zip_code":"9192216"},{"name":"小和田","zip_code":"9192373"},{"name":"坂田","zip_code":"9192216"},{"name":"三明","zip_code":"9192229"},{"name":"塩土","zip_code":"9192228"},{"name":"紫水ケ丘","zip_code":"9192223"},{"name":"下","zip_code":"9192353"},{"name":"下車持","zip_code":"9192205"},{"name":"水明","zip_code":"9192203"},{"name":"関屋","zip_code":"9192386"},{"name":"薗部","zip_code":"9192224"},{"name":"高野","zip_code":"9192374"},{"name":"高屋","zip_code":"9192372"},{"name":"立石","zip_code":"9192226"},{"name":"田ノ浦","zip_code":"9192362"},{"name":"中津海","zip_code":"9192211"},{"name":"中山","zip_code":"9192371"},{"name":"難波江","zip_code":"9192364"},{"name":"西三松","zip_code":"9192381"},{"name":"畑","zip_code":"9192213"},{"name":"東三松","zip_code":"9192382"},{"name":"日置","zip_code":"9192383"},{"name":"日引","zip_code":"9192355"},{"name":"蒜畠","zip_code":"9192375"},{"name":"馬居寺","zip_code":"9192207"},{"name":"緑ケ丘","zip_code":"9192372"},{"name":"南団地","zip_code":"9192215"},{"name":"宮尾","zip_code":"9192354"},{"name":"宮崎","zip_code":"9192225"},{"name":"山中","zip_code":"9192351"},{"name":"湯谷","zip_code":"9192214"},{"name":"横津海","zip_code":"9192385"},{"name":"六路谷","zip_code":"9192387"},{"name":"若宮","zip_code":"9192227"},{"name":"和田","zip_code":"9192201"}]},{"name":"大飯郡おおい町","divisions":[{"name":"石山","zip_code":"9192125"},{"name":"犬見","zip_code":"9192106"},{"name":"大島","zip_code":"9192101"},{"name":"岡田","zip_code":"9192116"},{"name":"岡安","zip_code":"9192128"},{"name":"尾内","zip_code":"9192103"},{"name":"川上","zip_code":"9192134"},{"name":"久保","zip_code":"9192133"},{"name":"神崎","zip_code":"9192122"},{"name":"小車田","zip_code":"9192124"},{"name":"小堀","zip_code":"9192105"},{"name":"笹谷","zip_code":"9192127"},{"name":"佐畑","zip_code":"9192126"},{"name":"鹿野","zip_code":"9192123"},{"name":"芝崎","zip_code":"9192113"},{"name":"成和","zip_code":"9192104"},{"name":"父子","zip_code":"9192115"},{"name":"長井","zip_code":"9192102"},{"name":"名田庄挙野","zip_code":"9170363"},{"name":"名田庄挙原","zip_code":"9170361"},{"name":"名田庄井上","zip_code":"9170385"},{"name":"名田庄奥坂本","zip_code":"9170387"},{"name":"名田庄小倉","zip_code":"9170371"},{"name":"名田庄小倉畑","zip_code":"9170365"},{"name":"名田庄木谷","zip_code":"9170361"},{"name":"名田庄口坂本","zip_code":"9170386"},{"name":"名田庄下","zip_code":"9170383"},{"name":"名田庄染ケ谷","zip_code":"9170373"},{"name":"名田庄出合","zip_code":"9170361"},{"name":"名田庄堂本","zip_code":"9170372"},{"name":"名田庄中","zip_code":"9170374"},{"name":"名田庄永谷","zip_code":"9170362"},{"name":"名田庄西谷","zip_code":"9170384"},{"name":"名田庄納田終","zip_code":"9170375"},{"name":"名田庄久坂","zip_code":"9170382"},{"name":"名田庄槇谷","zip_code":"9170373"},{"name":"名田庄三重","zip_code":"9170381"},{"name":"名田庄虫鹿野","zip_code":"9170364"},{"name":"名田庄虫谷","zip_code":"9170361"},{"name":"成海","zip_code":"9192107"},{"name":"野尻","zip_code":"9192114"},{"name":"広岡","zip_code":"9192129"},{"name":"福谷","zip_code":"9192131"},{"name":"本郷","zip_code":"9192111"},{"name":"万願寺","zip_code":"9192121"},{"name":"三森","zip_code":"9192135"},{"name":"安川","zip_code":"9192132"},{"name":"山田","zip_code":"9192112"}]},{"name":"三方上中郡若狭町","divisions":[{"name":"相田","zip_code":"9191312"},{"name":"安賀里","zip_code":"9191523"},{"name":"麻生野","zip_code":"9191502"},{"name":"海士坂","zip_code":"9191501"},{"name":"有田","zip_code":"9191507"},{"name":"生倉","zip_code":"9191304"},{"name":"井崎","zip_code":"9191316"},{"name":"市場","zip_code":"9191541"},{"name":"井ノ口","zip_code":"9191542"},{"name":"岩屋","zip_code":"9191325"},{"name":"上野","zip_code":"9191321"},{"name":"海山","zip_code":"9191461"},{"name":"瓜生","zip_code":"9191525"},{"name":"上瀬","zip_code":"9191302"},{"name":"大鳥羽","zip_code":"9191504"},{"name":"小川","zip_code":"9191453"},{"name":"小原","zip_code":"9191514"},{"name":"兼田","zip_code":"9191554"},{"name":"上黒田","zip_code":"9191503"},{"name":"上野木","zip_code":"9191557"},{"name":"上吉田","zip_code":"9191527"},{"name":"仮屋","zip_code":"9191534"},{"name":"北前川","zip_code":"9191305"},{"name":"気山","zip_code":"9191301"},{"name":"熊川","zip_code":"9191532"},{"name":"倉見","zip_code":"9191323"},{"name":"神谷","zip_code":"9191544"},{"name":"河内","zip_code":"9191533"},{"name":"無悪","zip_code":"9191512"},{"name":"佐古","zip_code":"9191335"},{"name":"下タ中","zip_code":"9191521"},{"name":"島の内","zip_code":"9191462"},{"name":"下野木","zip_code":"9191559"},{"name":"下吉田","zip_code":"9191528"},{"name":"塩坂越","zip_code":"9191455"},{"name":"成願寺","zip_code":"9191322"},{"name":"白屋","zip_code":"9191324"},{"name":"新道","zip_code":"9191531"},{"name":"末野","zip_code":"9191522"},{"name":"杉山","zip_code":"9191551"},{"name":"関","zip_code":"9191526"},{"name":"世久見","zip_code":"9191464"},{"name":"田井","zip_code":"9191462"},{"name":"高岸","zip_code":"9191315"},{"name":"田上","zip_code":"9191326"},{"name":"館川","zip_code":"9191332"},{"name":"田名","zip_code":"9191334"},{"name":"玉置","zip_code":"9191556"},{"name":"中央","zip_code":"9191333"},{"name":"堤","zip_code":"9191553"},{"name":"常神","zip_code":"9191451"},{"name":"天徳寺","zip_code":"9191543"},{"name":"鳥浜","zip_code":"9191331"},{"name":"長江","zip_code":"9191505"},{"name":"中野木","zip_code":"9191558"},{"name":"成出","zip_code":"9191463"},{"name":"能登野","zip_code":"9191314"},{"name":"日笠","zip_code":"9191545"},{"name":"東黒田","zip_code":"9191327"},{"name":"藤井","zip_code":"9191311"},{"name":"三方","zip_code":"9191303"},{"name":"神子","zip_code":"9191452"},{"name":"三生野","zip_code":"9191511"},{"name":"三十三団地","zip_code":"9191328"},{"name":"三田","zip_code":"9191513"},{"name":"南","zip_code":"9191515"},{"name":"南前川","zip_code":"9191306"},{"name":"三宅","zip_code":"9191536"},{"name":"向笠","zip_code":"9191336"},{"name":"武生","zip_code":"9191555"},{"name":"持田","zip_code":"9191506"},{"name":"山内","zip_code":"9191516"},{"name":"遊子","zip_code":"9191454"},{"name":"横渡","zip_code":"9191313"},{"name":"若王子","zip_code":"9191535"},{"name":"若狭テクノバレー","zip_code":"9191552"},{"name":"脇袋","zip_code":"9191524"}]}]}