{"name":"山梨県","cities":[{"name":"甲府市","divisions":[{"name":"相生","zip_code":"4000858"},{"name":"青沼","zip_code":"4000867"},{"name":"青葉町","zip_code":"4000828"},{"name":"朝気","zip_code":"4000862"},{"name":"朝日","zip_code":"4000025"},{"name":"愛宕町","zip_code":"4000023"},{"name":"荒川","zip_code":"4000061"},{"name":"飯田","zip_code":"4000035"},{"name":"猪狩町","zip_code":"4001217"},{"name":"池田","zip_code":"4000062"},{"name":"伊勢","zip_code":"4000856"},{"name":"岩窪町","zip_code":"4000013"},{"name":"後屋町","zip_code":"4000045"},{"name":"右左口町","zip_code":"4001504"},{"name":"大里町","zip_code":"4000053"},{"name":"太田町","zip_code":"4000865"},{"name":"大津町","zip_code":"4000055"},{"name":"大手","zip_code":"4000015"},{"name":"落合町","zip_code":"4000834"},{"name":"音羽町","zip_code":"4000028"},{"name":"小曲町","zip_code":"4000841"},{"name":"梯町","zip_code":"4093711"},{"name":"金竹町","zip_code":"4000063"},{"name":"上阿原町","zip_code":"4000814"},{"name":"上石田","zip_code":"4000041"},{"name":"上今井町","zip_code":"4000845"},{"name":"上帯那町","zip_code":"4000081"},{"name":"上小河原町","zip_code":"4000044"},{"name":"上条新居町","zip_code":"4000052"},{"name":"上積翠寺町","zip_code":"4000011"},{"name":"上曽根町","zip_code":"4001501"},{"name":"上町","zip_code":"4000831"},{"name":"上向山町","zip_code":"4001506"},{"name":"川窪町","zip_code":"4001213"},{"name":"川田町","zip_code":"4000811"},{"name":"北口","zip_code":"4000024"},{"name":"北新","zip_code":"4000005"},{"name":"貢川","zip_code":"4000065"},{"name":"貢川本町","zip_code":"4000048"},{"name":"国玉町","zip_code":"4000815"},{"name":"黒平町","zip_code":"4001211"},{"name":"国母","zip_code":"4000043"},{"name":"小瀬町","zip_code":"4000836"},{"name":"寿町","zip_code":"4000033"},{"name":"古府中町","zip_code":"4000014"},{"name":"小松町","zip_code":"4000002"},{"name":"幸町","zip_code":"4000857"},{"name":"酒折","zip_code":"4000805"},{"name":"酒折町","zip_code":"4000804"},{"name":"桜井町","zip_code":"4000803"},{"name":"里吉","zip_code":"4000822"},{"name":"里吉町","zip_code":"4000823"},{"name":"塩部","zip_code":"4000026"},{"name":"下飯田","zip_code":"4000064"},{"name":"下石田","zip_code":"4000046"},{"name":"下今井町","zip_code":"4000842"},{"name":"下帯那町","zip_code":"4000082"},{"name":"下鍛冶屋町","zip_code":"4000835"},{"name":"下河原町","zip_code":"4000068"},{"name":"下小河原町","zip_code":"4000853"},{"name":"下積翠寺町","zip_code":"4000012"},{"name":"下曽根町","zip_code":"4001508"},{"name":"下向山町","zip_code":"4001507"},{"name":"城東","zip_code":"4000861"},{"name":"白井町","zip_code":"4001502"},{"name":"心経寺町","zip_code":"4001503"},{"name":"新田町","zip_code":"4000066"},{"name":"砂田町","zip_code":"4000821"},{"name":"住吉","zip_code":"4000851"},{"name":"住吉本町","zip_code":"4000852"},{"name":"善光寺","zip_code":"4000806"},{"name":"善光寺町","zip_code":"4000801"},{"name":"草鹿沢町","zip_code":"4001219"},{"name":"大和町","zip_code":"4000072"},{"name":"高成町","zip_code":"4001214"},{"name":"高畑","zip_code":"4000042"},{"name":"高町","zip_code":"4001212"},{"name":"高室町","zip_code":"4000057"},{"name":"宝","zip_code":"4000034"},{"name":"武田","zip_code":"4000016"},{"name":"竹日向町","zip_code":"4001215"},{"name":"千塚","zip_code":"4000074"},{"name":"中央","zip_code":"4000032"},{"name":"長松寺町","zip_code":"4000067"},{"name":"塚原町","zip_code":"4000003"},{"name":"天神町","zip_code":"4000006"},{"name":"塔岩町","zip_code":"4001216"},{"name":"東光寺","zip_code":"4000807"},{"name":"東光寺町","zip_code":"4000808"},{"name":"徳行","zip_code":"4000047"},{"name":"富竹","zip_code":"4000049"},{"name":"中小河原","zip_code":"4000855"},{"name":"中小河原町","zip_code":"4000854"},{"name":"中町","zip_code":"4000844"},{"name":"中畑町","zip_code":"4001505"},{"name":"中村町","zip_code":"4000069"},{"name":"七沢町","zip_code":"4000825"},{"name":"西油川町","zip_code":"4000833"},{"name":"西下条町","zip_code":"4000054"},{"name":"西高橋町","zip_code":"4000826"},{"name":"西田町","zip_code":"4000004"},{"name":"羽黒町","zip_code":"4000071"},{"name":"東下条町","zip_code":"4000843"},{"name":"平瀬町","zip_code":"4000083"},{"name":"富士見","zip_code":"4000027"},{"name":"古上条町","zip_code":"4000051"},{"name":"古関町","zip_code":"4093712"},{"name":"堀之内町","zip_code":"4000056"},{"name":"増坪町","zip_code":"4000832"},{"name":"丸の内","zip_code":"4000031"},{"name":"美咲","zip_code":"4000007"},{"name":"御岳町","zip_code":"4001218"},{"name":"緑が丘","zip_code":"4000008"},{"name":"南口町","zip_code":"4000863"},{"name":"宮原町","zip_code":"4000058"},{"name":"宮前町","zip_code":"4000021"},{"name":"向町","zip_code":"4000813"},{"name":"元紺屋町","zip_code":"4000022"},{"name":"屋形","zip_code":"4000017"},{"name":"山宮町","zip_code":"4000075"},{"name":"湯田","zip_code":"4000864"},{"name":"湯村","zip_code":"4000073"},{"name":"横根町","zip_code":"4000802"},{"name":"蓬沢","zip_code":"4000827"},{"name":"蓬沢町","zip_code":"4000824"},{"name":"若松町","zip_code":"4000866"},{"name":"和田町","zip_code":"4000001"},{"name":"和戸町","zip_code":"4000812"}]},{"name":"富士吉田市","divisions":[{"name":"旭","zip_code":"4030012"},{"name":"新倉","zip_code":"4030011"},{"name":"新屋","zip_code":"4030006"},{"name":"大明見","zip_code":"4030003"},{"name":"上暮地","zip_code":"4030001"},{"name":"上吉田","zip_code":"4030005"},{"name":"小明見","zip_code":"4030002"},{"name":"下吉田","zip_code":"4030004"},{"name":"下吉田東","zip_code":"4030008"},{"name":"新西原","zip_code":"4030017"},{"name":"竜ケ丘","zip_code":"4030014"},{"name":"ときわ台","zip_code":"4030015"},{"name":"中曽根","zip_code":"4030007"},{"name":"松山","zip_code":"4030016"},{"name":"緑ケ丘","zip_code":"4030013"}]},{"name":"都留市","divisions":[{"name":"朝日曽雌","zip_code":"4020015"},{"name":"朝日馬場","zip_code":"4020014"},{"name":"厚原","zip_code":"4020042"},{"name":"井倉","zip_code":"4020011"},{"name":"大野","zip_code":"4020023"},{"name":"大幡","zip_code":"4020045"},{"name":"大原","zip_code":"4020002"},{"name":"小形山","zip_code":"4020006"},{"name":"小野","zip_code":"4020024"},{"name":"桂町","zip_code":"4020034"},{"name":"金井","zip_code":"4020041"},{"name":"加畑","zip_code":"4020044"},{"name":"上谷","zip_code":"4020053"},{"name":"川棚","zip_code":"4020055"},{"name":"川茂","zip_code":"4020003"},{"name":"境","zip_code":"4020033"},{"name":"鹿留","zip_code":"4020032"},{"name":"下谷","zip_code":"4020051"},{"name":"田野倉","zip_code":"4020001"},{"name":"田原","zip_code":"4020054"},{"name":"玉川","zip_code":"4020021"},{"name":"中央","zip_code":"4020052"},{"name":"つる","zip_code":"4020056"},{"name":"十日市場","zip_code":"4020031"},{"name":"戸沢","zip_code":"4020022"},{"name":"中津森","zip_code":"4020046"},{"name":"夏狩","zip_code":"4020035"},{"name":"平栗","zip_code":"4020043"},{"name":"古川渡","zip_code":"4020004"},{"name":"法能","zip_code":"4020025"},{"name":"盛里","zip_code":"4020013"},{"name":"四日市場","zip_code":"4020005"},{"name":"与縄","zip_code":"4020012"}]},{"name":"山梨市","divisions":[{"name":"市川","zip_code":"4050044"},{"name":"一町田中","zip_code":"4050025"},{"name":"歌田","zip_code":"4050024"},{"name":"江曽原","zip_code":"4050043"},{"name":"大野","zip_code":"4050016"},{"name":"落合","zip_code":"4050033"},{"name":"上石森","zip_code":"4050014"},{"name":"上岩下","zip_code":"4050034"},{"name":"上神内川","zip_code":"4050018"},{"name":"上栗原","zip_code":"4050022"},{"name":"上之割","zip_code":"4050004"},{"name":"鴨居寺","zip_code":"4050013"},{"name":"北","zip_code":"4050041"},{"name":"切差","zip_code":"4050048"},{"name":"小原東","zip_code":"4050005"},{"name":"小原西","zip_code":"4050006"},{"name":"三ケ所","zip_code":"4050011"},{"name":"下石森","zip_code":"4050015"},{"name":"下井尻","zip_code":"4050003"},{"name":"下神内川","zip_code":"4050017"},{"name":"下栗原","zip_code":"4050023"},{"name":"正徳寺","zip_code":"4050032"},{"name":"大工","zip_code":"4050045"},{"name":"中村","zip_code":"4050021"},{"name":"七日市場","zip_code":"4050007"},{"name":"西","zip_code":"4050001"},{"name":"東","zip_code":"4050002"},{"name":"東後屋敷","zip_code":"4050012"},{"name":"堀内","zip_code":"4050046"},{"name":"牧丘町北原","zip_code":"4040007"},{"name":"牧丘町窪平","zip_code":"4040013"},{"name":"牧丘町倉科","zip_code":"4040003"},{"name":"牧丘町城古寺","zip_code":"4040015"},{"name":"牧丘町杣口","zip_code":"4040002"},{"name":"牧丘町千野々宮","zip_code":"4040016"},{"name":"牧丘町成沢","zip_code":"4040011"},{"name":"牧丘町西保下","zip_code":"4040004"},{"name":"牧丘町西保中","zip_code":"4040005"},{"name":"牧丘町隼","zip_code":"4040014"},{"name":"牧丘町牧平","zip_code":"4040006"},{"name":"牧丘町室伏","zip_code":"4040012"},{"name":"牧丘町柳平","zip_code":"4040001"},{"name":"万力","zip_code":"4050031"},{"name":"水口","zip_code":"4050047"},{"name":"三富上釜口","zip_code":"4040206"},{"name":"三富上柚木","zip_code":"4040202"},{"name":"三富川浦","zip_code":"4040201"},{"name":"三富下荻原","zip_code":"4040203"},{"name":"三富下釜口","zip_code":"4040204"},{"name":"三富徳和","zip_code":"4040205"},{"name":"南","zip_code":"4050042"},{"name":"矢坪","zip_code":"4050036"},{"name":"山根","zip_code":"4050035"}]},{"name":"大月市","divisions":[{"name":"大月","zip_code":"4010013"},{"name":"大月町大月","zip_code":"4010014"},{"name":"大月町花咲","zip_code":"4010015"},{"name":"大月町真木","zip_code":"4010016"},{"name":"駒橋","zip_code":"4010011"},{"name":"笹子町黒野田","zip_code":"4010025"},{"name":"笹子町白野","zip_code":"4010023"},{"name":"笹子町吉久保","zip_code":"4010024"},{"name":"猿橋町朝日小沢","zip_code":"4090615"},{"name":"猿橋町伊良原","zip_code":"4090613"},{"name":"猿橋町小沢","zip_code":"4090616"},{"name":"猿橋町小篠","zip_code":"4090611"},{"name":"猿橋町桂台","zip_code":"4090618"},{"name":"猿橋町猿橋","zip_code":"4090614"},{"name":"猿橋町殿上","zip_code":"4090617"},{"name":"猿橋町藤崎","zip_code":"4090612"},{"name":"富浜町鳥沢","zip_code":"4090502"},{"name":"富浜町宮谷","zip_code":"4090501"},{"name":"七保町浅川","zip_code":"4090621"},{"name":"七保町葛野","zip_code":"4090623"},{"name":"七保町駒宮","zip_code":"4090627"},{"name":"七保町下和田","zip_code":"4090622"},{"name":"七保町瀬戸","zip_code":"4090626"},{"name":"七保町奈良子","zip_code":"4090625"},{"name":"七保町林","zip_code":"4090624"},{"name":"賑岡町浅利","zip_code":"4010005"},{"name":"賑岡町岩殿","zip_code":"4010002"},{"name":"賑岡町奥山","zip_code":"4010006"},{"name":"賑岡町強瀬","zip_code":"4010004"},{"name":"賑岡町畑倉","zip_code":"4010001"},{"name":"賑岡町ゆりケ丘","zip_code":"4010003"},{"name":"初狩町下初狩","zip_code":"4010021"},{"name":"初狩町中初狩","zip_code":"4010022"},{"name":"御太刀","zip_code":"4010012"},{"name":"梁川町新倉","zip_code":"4090504"},{"name":"梁川町塩瀬","zip_code":"4090505"},{"name":"梁川町立野","zip_code":"4090506"},{"name":"梁川町綱の上","zip_code":"4090503"}]},{"name":"韮崎市","divisions":[{"name":"旭町上條中割","zip_code":"4070045"},{"name":"旭町上條南割","zip_code":"4070046"},{"name":"旭町上條北割","zip_code":"4070044"},{"name":"穴山町","zip_code":"4070263"},{"name":"岩下","zip_code":"4070012"},{"name":"上ノ山","zip_code":"4070011"},{"name":"大草町上條東割","zip_code":"4070036"},{"name":"大草町下條西割","zip_code":"4070035"},{"name":"大草町下條中割","zip_code":"4070034"},{"name":"大草町若尾","zip_code":"4070037"},{"name":"上祖母石","zip_code":"4070007"},{"name":"神山町北宮地","zip_code":"4070042"},{"name":"神山町武田","zip_code":"4070041"},{"name":"神山町鍋山","zip_code":"4070043"},{"name":"栄","zip_code":"4070025"},{"name":"下祖母石","zip_code":"4070006"},{"name":"水神","zip_code":"4070022"},{"name":"清哲町青木","zip_code":"4070055"},{"name":"清哲町折居","zip_code":"4070054"},{"name":"清哲町樋口","zip_code":"4070057"},{"name":"清哲町水上","zip_code":"4070058"},{"name":"龍岡町下條東割","zip_code":"4070032"},{"name":"龍岡町下條南割","zip_code":"4070033"},{"name":"龍岡町若尾新田","zip_code":"4070031"},{"name":"中央町","zip_code":"4070023"},{"name":"中島","zip_code":"4070013"},{"name":"中田町小田川","zip_code":"4070261"},{"name":"中田町中條","zip_code":"4070262"},{"name":"一ツ谷","zip_code":"4070005"},{"name":"藤井町駒井","zip_code":"4070001"},{"name":"藤井町坂井","zip_code":"4070002"},{"name":"藤井町南下條","zip_code":"4070004"},{"name":"藤井町北下條","zip_code":"4070003"},{"name":"富士見","zip_code":"4070014"},{"name":"富士見ケ丘","zip_code":"4070021"},{"name":"穂坂町上今井","zip_code":"4070172"},{"name":"穂坂町三之蔵","zip_code":"4070176"},{"name":"穂坂町長久保","zip_code":"4070173"},{"name":"穂坂町三ツ沢","zip_code":"4070174"},{"name":"穂坂町宮久保","zip_code":"4070175"},{"name":"穂坂町柳平","zip_code":"4070171"},{"name":"本町","zip_code":"4070024"},{"name":"円野町上円井","zip_code":"4070051"},{"name":"円野町下円井","zip_code":"4070052"},{"name":"円野町入戸野","zip_code":"4070053"},{"name":"若宮","zip_code":"4070015"}]},{"name":"南アルプス市","divisions":[{"name":"秋山","zip_code":"4000424"},{"name":"浅原","zip_code":"4000333"},{"name":"芦安芦倉","zip_code":"4000241"},{"name":"芦安安通","zip_code":"4000242"},{"name":"あやめが丘","zip_code":"4000319"},{"name":"鮎沢","zip_code":"4000403"},{"name":"有野","zip_code":"4000226"},{"name":"飯野","zip_code":"4000222"},{"name":"飯野新田","zip_code":"4000224"},{"name":"和泉","zip_code":"4000413"},{"name":"上野","zip_code":"4000315"},{"name":"上八田","zip_code":"4000215"},{"name":"榎原","zip_code":"4000204"},{"name":"江原","zip_code":"4000401"},{"name":"大嵐","zip_code":"4000234"},{"name":"小笠原","zip_code":"4000306"},{"name":"落合","zip_code":"4000423"},{"name":"加賀美","zip_code":"4000335"},{"name":"鏡中條","zip_code":"4000332"},{"name":"上市之瀬","zip_code":"4000317"},{"name":"上今井","zip_code":"4000303"},{"name":"上今諏訪","zip_code":"4000211"},{"name":"上高砂","zip_code":"4000201"},{"name":"上宮地","zip_code":"4000312"},{"name":"川上","zip_code":"4000421"},{"name":"曲輪田","zip_code":"4000311"},{"name":"曲輪田新田","zip_code":"4000223"},{"name":"駒場","zip_code":"4000232"},{"name":"在家塚","zip_code":"4000221"},{"name":"沢登","zip_code":"4000302"},{"name":"塩前","zip_code":"4000231"},{"name":"清水","zip_code":"4000417"},{"name":"下市之瀬","zip_code":"4000314"},{"name":"下今井","zip_code":"4000331"},{"name":"下今諏訪","zip_code":"4000212"},{"name":"下高砂","zip_code":"4000202"},{"name":"下宮地","zip_code":"4000405"},{"name":"十五所","zip_code":"4000305"},{"name":"須沢","zip_code":"4000233"},{"name":"大師","zip_code":"4000416"},{"name":"高尾","zip_code":"4000318"},{"name":"田島","zip_code":"4000402"},{"name":"塚原","zip_code":"4000426"},{"name":"築山","zip_code":"4000225"},{"name":"寺部","zip_code":"4000337"},{"name":"藤田","zip_code":"4000334"},{"name":"百々","zip_code":"4000214"},{"name":"十日市場","zip_code":"4000336"},{"name":"徳永","zip_code":"4000203"},{"name":"戸田","zip_code":"4000414"},{"name":"中野","zip_code":"4000316"},{"name":"西南湖","zip_code":"4000411"},{"name":"西野","zip_code":"4000213"},{"name":"荊沢","zip_code":"4000422"},{"name":"東南湖","zip_code":"4000412"},{"name":"平岡","zip_code":"4000313"},{"name":"古市場","zip_code":"4000404"},{"name":"宮沢","zip_code":"4000415"},{"name":"六科","zip_code":"4000206"},{"name":"桃園","zip_code":"4000301"},{"name":"野牛島","zip_code":"4000205"},{"name":"山寺","zip_code":"4000308"},{"name":"湯沢","zip_code":"4000425"},{"name":"吉田","zip_code":"4000304"}]},{"name":"北杜市","divisions":[{"name":"明野町浅尾","zip_code":"4080201"},{"name":"明野町浅尾新田","zip_code":"4080205"},{"name":"明野町上手","zip_code":"4080204"},{"name":"明野町小笠原","zip_code":"4080202"},{"name":"明野町上神取","zip_code":"4080207"},{"name":"明野町三之蔵","zip_code":"4080203"},{"name":"明野町下神取","zip_code":"4080206"},{"name":"大泉町西井出８２４０－１","zip_code":"4070311"},{"name":"大泉町西井出","zip_code":"4091501"},{"name":"大泉町谷戸","zip_code":"4091502"},{"name":"小淵沢町","zip_code":"4080044"},{"name":"小淵沢町上笹尾","zip_code":"4080041"},{"name":"小淵沢町下笹尾","zip_code":"4080043"},{"name":"小淵沢町松向","zip_code":"4080042"},{"name":"須玉町穴平","zip_code":"4080111"},{"name":"須玉町江草","zip_code":"4080103"},{"name":"須玉町大蔵","zip_code":"4080113"},{"name":"須玉町小尾","zip_code":"4080101"},{"name":"須玉町上津金","zip_code":"4070321"},{"name":"須玉町小倉","zip_code":"4080104"},{"name":"須玉町境之澤","zip_code":"4080116"},{"name":"須玉町下津金","zip_code":"4070322"},{"name":"須玉町藤田","zip_code":"4080114"},{"name":"須玉町東向","zip_code":"4080105"},{"name":"須玉町比志","zip_code":"4080102"},{"name":"須玉町大豆生田","zip_code":"4080115"},{"name":"須玉町若神子","zip_code":"4080112"},{"name":"須玉町若神子新町","zip_code":"4080117"},{"name":"高根町浅川","zip_code":"4070302"},{"name":"高根町上黒澤","zip_code":"4080016"},{"name":"高根町清里","zip_code":"4070301"},{"name":"高根町蔵原","zip_code":"4080013"},{"name":"高根町小池","zip_code":"4080014"},{"name":"高根町五町田","zip_code":"4080017"},{"name":"高根町下黒澤","zip_code":"4080015"},{"name":"高根町堤","zip_code":"4080004"},{"name":"高根町長沢","zip_code":"4080001"},{"name":"高根町東井出","zip_code":"4080003"},{"name":"高根町箕輪","zip_code":"4080012"},{"name":"高根町箕輪新町","zip_code":"4080011"},{"name":"高根町村山北割","zip_code":"4080002"},{"name":"高根町村山西割","zip_code":"4080018"},{"name":"高根町村山東割","zip_code":"4080019"},{"name":"長坂町大井ケ森","zip_code":"4080032"},{"name":"長坂町大八田","zip_code":"4080034"},{"name":"長坂町小荒間","zip_code":"4080031"},{"name":"長坂町渋沢","zip_code":"4080023"},{"name":"長坂町白井沢","zip_code":"4080033"},{"name":"長坂町塚川","zip_code":"4080022"},{"name":"長坂町富岡","zip_code":"4080024"},{"name":"長坂町長坂上条","zip_code":"4080021"},{"name":"長坂町長坂下条","zip_code":"4080025"},{"name":"長坂町中島","zip_code":"4080037"},{"name":"長坂町中丸","zip_code":"4080036"},{"name":"長坂町夏秋","zip_code":"4080035"},{"name":"長坂町日野","zip_code":"4080026"},{"name":"白州町大武川","zip_code":"4080319"},{"name":"白州町上教来石","zip_code":"4080318"},{"name":"白州町下教来石","zip_code":"4080317"},{"name":"白州町白須","zip_code":"4080315"},{"name":"白州町台ケ原","zip_code":"4080312"},{"name":"白州町大坊","zip_code":"4080314"},{"name":"白州町鳥原","zip_code":"4080316"},{"name":"白州町花水","zip_code":"4080311"},{"name":"白州町横手","zip_code":"4080313"},{"name":"武川町黒澤","zip_code":"4080305"},{"name":"武川町新奥","zip_code":"4080304"},{"name":"武川町牧原","zip_code":"4080302"},{"name":"武川町三吹","zip_code":"4080301"},{"name":"武川町宮脇","zip_code":"4080303"},{"name":"武川町柳澤","zip_code":"4080307"},{"name":"武川町山高","zip_code":"4080306"}]},{"name":"甲斐市","divisions":[{"name":"安寺","zip_code":"4001126"},{"name":"岩森","zip_code":"4000106"},{"name":"牛句","zip_code":"4000121"},{"name":"打返","zip_code":"4001114"},{"name":"宇津谷","zip_code":"4000108"},{"name":"漆戸","zip_code":"4001115"},{"name":"大久保","zip_code":"4000128"},{"name":"大下条","zip_code":"4000126"},{"name":"大垈","zip_code":"4000103"},{"name":"上芦沢","zip_code":"4001121"},{"name":"上菅口","zip_code":"4001117"},{"name":"上福沢","zip_code":"4001123"},{"name":"亀沢","zip_code":"4001113"},{"name":"吉沢","zip_code":"4001112"},{"name":"神戸","zip_code":"4001127"},{"name":"境","zip_code":"4000122"},{"name":"獅子平","zip_code":"4001116"},{"name":"志田","zip_code":"4000107"},{"name":"篠原","zip_code":"4000115"},{"name":"島上条","zip_code":"4000123"},{"name":"下芦沢","zip_code":"4001122"},{"name":"下今井","zip_code":"4000105"},{"name":"下菅口","zip_code":"4001125"},{"name":"下福沢","zip_code":"4001124"},{"name":"菖蒲沢","zip_code":"4000101"},{"name":"千田","zip_code":"4001111"},{"name":"玉川","zip_code":"4000116"},{"name":"団子新居","zip_code":"4000102"},{"name":"天狗沢","zip_code":"4000127"},{"name":"富竹新田","zip_code":"4000113"},{"name":"中下条","zip_code":"4000124"},{"name":"長塚","zip_code":"4000125"},{"name":"名取","zip_code":"4000112"},{"name":"西八幡","zip_code":"4000117"},{"name":"万才","zip_code":"4000114"},{"name":"竜王","zip_code":"4000118"},{"name":"竜王新町","zip_code":"4000111"},{"name":"龍地","zip_code":"4000104"}]},{"name":"笛吹市","divisions":[{"name":"芦川町新井原","zip_code":"4093702"},{"name":"芦川町鶯宿","zip_code":"4093704"},{"name":"芦川町上芦川","zip_code":"4093701"},{"name":"芦川町中芦川","zip_code":"4093703"},{"name":"石和町市部","zip_code":"4060031"},{"name":"石和町井戸","zip_code":"4060045"},{"name":"石和町今井","zip_code":"4060042"},{"name":"石和町駅前","zip_code":"4060028"},{"name":"石和町上平井","zip_code":"4060025"},{"name":"石和町唐柏","zip_code":"4060034"},{"name":"石和町川中島","zip_code":"4060024"},{"name":"石和町窪中島","zip_code":"4060036"},{"name":"石和町小石和","zip_code":"4060033"},{"name":"石和町河内","zip_code":"4060043"},{"name":"石和町下平井","zip_code":"4060027"},{"name":"石和町砂原","zip_code":"4060044"},{"name":"石和町中川","zip_code":"4060026"},{"name":"石和町八田","zip_code":"4060023"},{"name":"石和町東油川","zip_code":"4060046"},{"name":"石和町東高橋","zip_code":"4060041"},{"name":"石和町広瀬","zip_code":"4060035"},{"name":"石和町松本","zip_code":"4060021"},{"name":"石和町山崎","zip_code":"4060022"},{"name":"石和町四日市場","zip_code":"4060032"},{"name":"一宮町新巻","zip_code":"4050065"},{"name":"一宮町石","zip_code":"4050061"},{"name":"一宮町市之蔵","zip_code":"4050063"},{"name":"一宮町一ノ宮","zip_code":"4050056"},{"name":"一宮町金沢","zip_code":"4050062"},{"name":"一宮町金田","zip_code":"4050079"},{"name":"一宮町上矢作","zip_code":"4050059"},{"name":"一宮町神沢","zip_code":"4050066"},{"name":"一宮町北野呂","zip_code":"4050051"},{"name":"一宮町北都塚","zip_code":"4050071"},{"name":"一宮町狐新居","zip_code":"4050068"},{"name":"一宮町国分","zip_code":"4050074"},{"name":"一宮町小城","zip_code":"4050058"},{"name":"一宮町塩田","zip_code":"4050064"},{"name":"一宮町地蔵堂","zip_code":"4050055"},{"name":"一宮町下矢作","zip_code":"4050057"},{"name":"一宮町末木","zip_code":"4050073"},{"name":"一宮町千米寺","zip_code":"4050054"},{"name":"一宮町竹原田","zip_code":"4050076"},{"name":"一宮町田中","zip_code":"4050078"},{"name":"一宮町土塚","zip_code":"4050067"},{"name":"一宮町坪井","zip_code":"4050077"},{"name":"一宮町中尾","zip_code":"4050053"},{"name":"一宮町橋立","zip_code":"4050075"},{"name":"一宮町東新居","zip_code":"4050069"},{"name":"一宮町東原","zip_code":"4050075"},{"name":"一宮町南野呂","zip_code":"4050052"},{"name":"一宮町本都塚","zip_code":"4050072"},{"name":"春日居町加茂","zip_code":"4060005"},{"name":"春日居町熊野堂","zip_code":"4060012"},{"name":"春日居町桑戸","zip_code":"4060003"},{"name":"春日居町国府","zip_code":"4060014"},{"name":"春日居町小松","zip_code":"4060004"},{"name":"春日居町鎮目","zip_code":"4060015"},{"name":"春日居町下岩下","zip_code":"4060001"},{"name":"春日居町寺本","zip_code":"4060013"},{"name":"春日居町徳条","zip_code":"4060011"},{"name":"春日居町別田","zip_code":"4060002"},{"name":"境川町石橋","zip_code":"4060842"},{"name":"境川町大窪","zip_code":"4060855"},{"name":"境川町大黒坂","zip_code":"4060852"},{"name":"境川町大坪","zip_code":"4060841"},{"name":"境川町小黒坂","zip_code":"4060851"},{"name":"境川町小山","zip_code":"4060844"},{"name":"境川町寺尾","zip_code":"4060854"},{"name":"境川町藤垈","zip_code":"4060853"},{"name":"境川町坊ケ峰","zip_code":"4060845"},{"name":"境川町前間田","zip_code":"4060843"},{"name":"境川町三椚","zip_code":"4060846"},{"name":"御坂町井之上","zip_code":"4060803"},{"name":"御坂町大野寺","zip_code":"4060817"},{"name":"御坂町尾山","zip_code":"4060815"},{"name":"御坂町金川原","zip_code":"4060802"},{"name":"御坂町上黒駒","zip_code":"4060813"},{"name":"御坂町栗合","zip_code":"4060805"},{"name":"御坂町国衙","zip_code":"4060808"},{"name":"御坂町下黒駒","zip_code":"4060812"},{"name":"御坂町下野原","zip_code":"4060811"},{"name":"御坂町蕎麦塚","zip_code":"4060818"},{"name":"御坂町竹居","zip_code":"4060816"},{"name":"御坂町藤野木","zip_code":"4060814"},{"name":"御坂町夏目原","zip_code":"4060804"},{"name":"御坂町成田","zip_code":"4060801"},{"name":"御坂町二之宮","zip_code":"4060807"},{"name":"御坂町八千蔵","zip_code":"4060806"},{"name":"八代町大間田","zip_code":"4060825"},{"name":"八代町岡","zip_code":"4060834"},{"name":"八代町北","zip_code":"4060821"},{"name":"八代町高家","zip_code":"4060831"},{"name":"八代町竹居","zip_code":"4060832"},{"name":"八代町永井","zip_code":"4060823"},{"name":"八代町奈良原","zip_code":"4060833"},{"name":"八代町増利","zip_code":"4060824"},{"name":"八代町南","zip_code":"4060822"},{"name":"八代町米倉","zip_code":"4060835"}]},{"name":"上野原市","divisions":[{"name":"秋山","zip_code":"4010201"},{"name":"芦垣","zip_code":"4090135"},{"name":"新田","zip_code":"4090113"},{"name":"犬目","zip_code":"4090124"},{"name":"上野原","zip_code":"4090112"},{"name":"大椚","zip_code":"4090134"},{"name":"大倉","zip_code":"4090138"},{"name":"大曽根","zip_code":"4090131"},{"name":"大野","zip_code":"4090123"},{"name":"川合","zip_code":"4090122"},{"name":"桑久保","zip_code":"4090136"},{"name":"コモアしおつ","zip_code":"4090126"},{"name":"西原","zip_code":"4090141"},{"name":"四方津","zip_code":"4090121"},{"name":"鶴川","zip_code":"4090132"},{"name":"鶴島","zip_code":"4090114"},{"name":"野田尻","zip_code":"4090125"},{"name":"松留","zip_code":"4090115"},{"name":"八ツ沢","zip_code":"4090133"},{"name":"棡原","zip_code":"4090111"},{"name":"和見","zip_code":"4090137"}]},{"name":"甲州市","divisions":[{"name":"塩山赤尾","zip_code":"4040033"},{"name":"塩山一之瀬高橋","zip_code":"4040021"},{"name":"塩山牛奥","zip_code":"4091213"},{"name":"塩山小屋敷","zip_code":"4040211"},{"name":"塩山上粟生野","zip_code":"4040031"},{"name":"塩山上井尻","zip_code":"4040046"},{"name":"塩山上於曽","zip_code":"4040042"},{"name":"塩山上小田原","zip_code":"4040026"},{"name":"塩山上塩後","zip_code":"4040045"},{"name":"塩山上萩原","zip_code":"4091211"},{"name":"塩山西広門田","zip_code":"4040037"},{"name":"塩山熊野","zip_code":"4040036"},{"name":"塩山下粟生野","zip_code":"4040032"},{"name":"塩山下於曽","zip_code":"4040043"},{"name":"塩山下小田原","zip_code":"4040025"},{"name":"塩山下塩後","zip_code":"4040044"},{"name":"塩山下萩原","zip_code":"4040024"},{"name":"塩山下柚木","zip_code":"4040055"},{"name":"塩山竹森","zip_code":"4040051"},{"name":"塩山千野","zip_code":"4040041"},{"name":"塩山中萩原","zip_code":"4091212"},{"name":"塩山西野原","zip_code":"4040035"},{"name":"塩山平沢","zip_code":"4040052"},{"name":"塩山福生里","zip_code":"4040056"},{"name":"塩山藤木","zip_code":"4040054"},{"name":"塩山三日市場","zip_code":"4040047"},{"name":"勝沼町小佐手","zip_code":"4091303"},{"name":"勝沼町勝沼","zip_code":"4091316"},{"name":"勝沼町上岩崎","zip_code":"4091312"},{"name":"勝沼町休息","zip_code":"4091304"},{"name":"勝沼町下岩崎","zip_code":"4091313"},{"name":"勝沼町等々力","zip_code":"4091315"},{"name":"勝沼町中原","zip_code":"4091301"},{"name":"勝沼町菱山","zip_code":"4091302"},{"name":"勝沼町深沢","zip_code":"4091311"},{"name":"勝沼町藤井","zip_code":"4091314"},{"name":"勝沼町山","zip_code":"4091306"},{"name":"勝沼町綿塚","zip_code":"4091305"},{"name":"大和町田野","zip_code":"4091202"},{"name":"大和町鶴瀬","zip_code":"4091205"},{"name":"大和町木賊","zip_code":"4091201"},{"name":"大和町初鹿野","zip_code":"4091203"},{"name":"大和町日影","zip_code":"4091204"}]},{"name":"中央市","divisions":[{"name":"浅利","zip_code":"4001514"},{"name":"一町畑","zip_code":"4093813"},{"name":"井之口","zip_code":"4093804"},{"name":"今福","zip_code":"4093834"},{"name":"今福新田","zip_code":"4093835"},{"name":"臼井阿原","zip_code":"4093844"},{"name":"大田和","zip_code":"4093831"},{"name":"大鳥居","zip_code":"4001513"},{"name":"乙黒","zip_code":"4093812"},{"name":"上三條","zip_code":"4093823"},{"name":"木原","zip_code":"4001511"},{"name":"極楽寺","zip_code":"4093811"},{"name":"下河東","zip_code":"4093821"},{"name":"下三條","zip_code":"4093822"},{"name":"関原","zip_code":"4001512"},{"name":"高部","zip_code":"4001515"},{"name":"中楯","zip_code":"4093801"},{"name":"成島","zip_code":"4093815"},{"name":"西新居","zip_code":"4093802"},{"name":"西花輪","zip_code":"4093843"},{"name":"東花輪","zip_code":"4093842"},{"name":"藤巻","zip_code":"4093833"},{"name":"布施","zip_code":"4093841"},{"name":"馬籠","zip_code":"4093832"},{"name":"町之田","zip_code":"4093814"},{"name":"山之神","zip_code":"4093845"},{"name":"若宮","zip_code":"4093803"}]},{"name":"西八代郡市川三郷町","divisions":[{"name":"市川大門","zip_code":"4093601"},{"name":"岩下","zip_code":"4093234"},{"name":"岩間","zip_code":"4093244"},{"name":"印沢","zip_code":"4093607"},{"name":"上野","zip_code":"4093612"},{"name":"大塚","zip_code":"4093611"},{"name":"落居","zip_code":"4093231"},{"name":"鴨狩津向","zip_code":"4093243"},{"name":"楠甫","zip_code":"4093245"},{"name":"黒沢","zip_code":"4093603"},{"name":"五八","zip_code":"4093233"},{"name":"三帳","zip_code":"4093622"},{"name":"下芦川","zip_code":"4093621"},{"name":"下大鳥居","zip_code":"4093605"},{"name":"高田","zip_code":"4093606"},{"name":"高萩","zip_code":"4093623"},{"name":"葛籠沢","zip_code":"4093241"},{"name":"寺所","zip_code":"4093232"},{"name":"中山","zip_code":"4093625"},{"name":"垈","zip_code":"4093624"},{"name":"畑熊","zip_code":"4093626"},{"name":"八之尻","zip_code":"4093604"},{"name":"宮原","zip_code":"4093242"},{"name":"山保","zip_code":"4093602"}]},{"name":"南巨摩郡早川町","divisions":[{"name":"赤沢","zip_code":"4092733"},{"name":"雨畑","zip_code":"4092734"},{"name":"新倉","zip_code":"4092703"},{"name":"大島","zip_code":"4092731"},{"name":"大原野","zip_code":"4092704"},{"name":"京ケ島","zip_code":"4092715"},{"name":"草塩","zip_code":"4092714"},{"name":"榑坪","zip_code":"4092723"},{"name":"高住","zip_code":"4092732"},{"name":"小縄","zip_code":"4092725"},{"name":"笹走","zip_code":"4092722"},{"name":"塩之上","zip_code":"4092721"},{"name":"千須和","zip_code":"4092726"},{"name":"黒桂","zip_code":"4092711"},{"name":"奈良田","zip_code":"4092701"},{"name":"西之宮","zip_code":"4092712"},{"name":"初鹿島","zip_code":"4092724"},{"name":"早川","zip_code":"4092705"},{"name":"保","zip_code":"4092713"},{"name":"薬袋","zip_code":"4092727"},{"name":"湯島","zip_code":"4092702"}]},{"name":"南巨摩郡身延町","divisions":[{"name":"相又","zip_code":"4092536"},{"name":"粟倉","zip_code":"4092521"},{"name":"飯富","zip_code":"4093423"},{"name":"市之瀬","zip_code":"4092938"},{"name":"一色","zip_code":"4092937"},{"name":"伊沼","zip_code":"4093424"},{"name":"岩欠","zip_code":"4092933"},{"name":"上之平","zip_code":"4092947"},{"name":"梅平","zip_code":"4092531"},{"name":"江尻窪","zip_code":"4093434"},{"name":"大炊平","zip_code":"4092934"},{"name":"大磯小磯","zip_code":"4093111"},{"name":"大崩","zip_code":"4092406"},{"name":"大塩","zip_code":"4093311"},{"name":"大島","zip_code":"4092415"},{"name":"大城","zip_code":"4092537"},{"name":"大垈","zip_code":"4092404"},{"name":"大野","zip_code":"4092532"},{"name":"大山","zip_code":"4093121"},{"name":"遅沢","zip_code":"4093433"},{"name":"小田船原","zip_code":"4092539"},{"name":"帯金","zip_code":"4092403"},{"name":"折門","zip_code":"4093101"},{"name":"門野","zip_code":"4092538"},{"name":"釜額","zip_code":"4093105"},{"name":"上田原","zip_code":"4093118"},{"name":"上八木沢","zip_code":"4092401"},{"name":"川向","zip_code":"4092943"},{"name":"北川","zip_code":"4092931"},{"name":"清沢","zip_code":"4092935"},{"name":"切石","zip_code":"4093304"},{"name":"切房木","zip_code":"4093115"},{"name":"久成","zip_code":"4093312"},{"name":"久保","zip_code":"4093122"},{"name":"熊沢","zip_code":"4093123"},{"name":"車田","zip_code":"4093116"},{"name":"芝草","zip_code":"4093112"},{"name":"下田原","zip_code":"4093305"},{"name":"下部","zip_code":"4092942"},{"name":"下八木沢","zip_code":"4092402"},{"name":"下山","zip_code":"4092522"},{"name":"杉山","zip_code":"4092932"},{"name":"清子","zip_code":"4092533"},{"name":"瀬戸","zip_code":"4093107"},{"name":"大子","zip_code":"4092946"},{"name":"角打","zip_code":"4092412"},{"name":"椿草里","zip_code":"4092405"},{"name":"手打沢","zip_code":"4093302"},{"name":"寺沢","zip_code":"4093303"},{"name":"樋田","zip_code":"4093124"},{"name":"常葉","zip_code":"4092936"},{"name":"中之倉","zip_code":"4093104"},{"name":"中山","zip_code":"4093432"},{"name":"梨子","zip_code":"4093435"},{"name":"西嶋","zip_code":"4093301"},{"name":"根子","zip_code":"4093103"},{"name":"波木井","zip_code":"4092523"},{"name":"波高島","zip_code":"4092945"},{"name":"八坂","zip_code":"4093102"},{"name":"日向南沢","zip_code":"4093307"},{"name":"樋之上","zip_code":"4092414"},{"name":"平須","zip_code":"4093313"},{"name":"福原","zip_code":"4093436"},{"name":"古関","zip_code":"4093106"},{"name":"古長谷","zip_code":"4093437"},{"name":"丸滝","zip_code":"4092411"},{"name":"三沢","zip_code":"4093117"},{"name":"水船","zip_code":"4093113"},{"name":"道","zip_code":"4093114"},{"name":"光子沢","zip_code":"4092534"},{"name":"嶺","zip_code":"4093125"},{"name":"身延","zip_code":"4092524"},{"name":"宮木","zip_code":"4093422"},{"name":"桃ケ窪","zip_code":"4092944"},{"name":"矢細工","zip_code":"4093431"},{"name":"山家","zip_code":"4093126"},{"name":"湯之奥","zip_code":"4092941"},{"name":"八日市場","zip_code":"4093421"},{"name":"夜子沢","zip_code":"4093306"},{"name":"横根中","zip_code":"4092535"},{"name":"和田","zip_code":"4092413"}]},{"name":"南巨摩郡南部町","divisions":[{"name":"井出","zip_code":"4092304"},{"name":"内船","zip_code":"4092305"},{"name":"大和","zip_code":"4092213"},{"name":"楮根","zip_code":"4092101"},{"name":"上佐野","zip_code":"4092301"},{"name":"塩沢","zip_code":"4092214"},{"name":"下佐野","zip_code":"4092302"},{"name":"十島","zip_code":"4092303"},{"name":"中野","zip_code":"4092211"},{"name":"成島","zip_code":"4092216"},{"name":"南部","zip_code":"4092212"},{"name":"福士","zip_code":"4092102"},{"name":"本郷","zip_code":"4092217"},{"name":"万沢","zip_code":"4092103"},{"name":"柳島","zip_code":"4092215"}]},{"name":"南巨摩郡富士川町","divisions":[{"name":"青柳町","zip_code":"4000501"},{"name":"駅前通","zip_code":"4000602"},{"name":"大椚","zip_code":"4000506"},{"name":"大久保","zip_code":"4000511"},{"name":"鰍沢","zip_code":"4000601"},{"name":"鹿島","zip_code":"4000603"},{"name":"小林","zip_code":"4000504"},{"name":"小室","zip_code":"4000512"},{"name":"最勝寺","zip_code":"4000502"},{"name":"十谷","zip_code":"4000606"},{"name":"高下","zip_code":"4000513"},{"name":"長知沢","zip_code":"4000608"},{"name":"舂米","zip_code":"4000515"},{"name":"天神中條","zip_code":"4000503"},{"name":"鳥屋","zip_code":"4000607"},{"name":"長澤","zip_code":"4000505"},{"name":"箱原","zip_code":"4000604"},{"name":"平林","zip_code":"4000514"},{"name":"柳川","zip_code":"4000605"}]},{"name":"中巨摩郡昭和町","divisions":[{"name":"飯喰","zip_code":"4093852"},{"name":"押越","zip_code":"4093864"},{"name":"河西","zip_code":"4093851"},{"name":"河東中島","zip_code":"4093863"},{"name":"上河東","zip_code":"4093862"},{"name":"紙漉阿原","zip_code":"4093861"},{"name":"西条","zip_code":"4093866"},{"name":"西条新田","zip_code":"4093865"},{"name":"清水新居","zip_code":"4093867"},{"name":"築地新居","zip_code":"4093853"},{"name":"築地新田","zip_code":"4093854"}]},{"name":"南都留郡道志村","divisions":[{"name":"板橋","zip_code":"4020225"},{"name":"大栗","zip_code":"4020207"},{"name":"大指","zip_code":"4020215"},{"name":"大野","zip_code":"4020202"},{"name":"大室指","zip_code":"4020204"},{"name":"川原畑","zip_code":"4020214"},{"name":"釜之前","zip_code":"4020216"},{"name":"上白井平","zip_code":"4020227"},{"name":"上善之木","zip_code":"4020223"},{"name":"上中山","zip_code":"4020221"},{"name":"川村","zip_code":"4020224"},{"name":"久保","zip_code":"4020203"},{"name":"小善地","zip_code":"4020206"},{"name":"下白井平","zip_code":"4020226"},{"name":"下善之木","zip_code":"4020222"},{"name":"下中山","zip_code":"4020219"},{"name":"竹之本","zip_code":"4020209"},{"name":"月夜野","zip_code":"4020201"},{"name":"椿","zip_code":"4020205"},{"name":"中神地","zip_code":"4020218"},{"name":"長又","zip_code":"4020228"},{"name":"西和出村","zip_code":"4020212"},{"name":"馬場","zip_code":"4020208"},{"name":"東神地","zip_code":"4020217"},{"name":"東和出村","zip_code":"4020211"},{"name":"谷相","zip_code":"4020213"}]},{"name":"南都留郡西桂町","divisions":[{"name":"小沼","zip_code":"4030022"},{"name":"倉見","zip_code":"4030023"},{"name":"下暮地","zip_code":"4030021"}]},{"name":"南都留郡忍野村","divisions":[{"name":"内野","zip_code":"4010512"},{"name":"忍草","zip_code":"4010511"}]},{"name":"南都留郡山中湖村","divisions":[{"name":"平野","zip_code":"4010502"},{"name":"山中","zip_code":"4010501"}]},{"name":"南都留郡鳴沢村","divisions":[]},{"name":"南都留郡富士河口湖町","divisions":[{"name":"浅川","zip_code":"4010303"},{"name":"大嵐","zip_code":"4010335"},{"name":"大石","zip_code":"4010305"},{"name":"勝山","zip_code":"4010310"},{"name":"河口","zip_code":"4010304"},{"name":"小立","zip_code":"4010302"},{"name":"西湖","zip_code":"4010332"},{"name":"西湖西","zip_code":"4010333"},{"name":"西湖南","zip_code":"4010334"},{"name":"精進","zip_code":"4010336"},{"name":"長浜","zip_code":"4010331"},{"name":"富士ケ嶺","zip_code":"4010338"},{"name":"船津","zip_code":"4010301"},{"name":"本栖","zip_code":"4010337"}]},{"name":"北都留郡小菅村","divisions":[{"name":"小菅村","zip_code":"4090142"}]},{"name":"北都留郡丹波山村","divisions":[{"name":"奥秋","zip_code":"4090301"},{"name":"押垣外","zip_code":"4090306"},{"name":"御祭","zip_code":"4090314"},{"name":"親川","zip_code":"4090313"},{"name":"上組","zip_code":"4090302"},{"name":"鴨沢","zip_code":"4090318"},{"name":"小袖","zip_code":"4090317"},{"name":"下組","zip_code":"4090304"},{"name":"杉奈久保","zip_code":"4090315"},{"name":"高尾","zip_code":"4090305"},{"name":"高畑","zip_code":"4090312"},{"name":"所畑","zip_code":"4090316"},{"name":"中組","zip_code":"4090303"},{"name":"保之瀬","zip_code":"4090311"}]}]}