{"name":"長野県","cities":[{"name":"長野市","divisions":[{"name":"アークス","zip_code":"3800918"},{"name":"青木島","zip_code":"3812247"},{"name":"青木島町青木島","zip_code":"3812242"},{"name":"青木島町青木島乙","zip_code":"3812241"},{"name":"青木島町大塚","zip_code":"3812205"},{"name":"青木島町綱島","zip_code":"3812206"},{"name":"赤沼","zip_code":"3810001"},{"name":"県町","zip_code":"3800838"},{"name":"上ケ屋","zip_code":"3800888"},{"name":"浅川","zip_code":"3810054"},{"name":"浅川押田","zip_code":"3810056"},{"name":"浅川清水","zip_code":"3810072"},{"name":"浅川西条","zip_code":"3810057"},{"name":"浅川西平","zip_code":"3810066"},{"name":"浅川畑山","zip_code":"3810073"},{"name":"浅川東条","zip_code":"3810064"},{"name":"浅川福岡","zip_code":"3810062"},{"name":"旭町","zip_code":"3800846"},{"name":"安茂里","zip_code":"3800941"},{"name":"安茂里杏花台","zip_code":"3800945"},{"name":"安茂里小市","zip_code":"3800961"},{"name":"安茂里小路","zip_code":"3800956"},{"name":"安茂里米村","zip_code":"3800944"},{"name":"安茂里犀北","zip_code":"3800953"},{"name":"安茂里犀北団地","zip_code":"3800954"},{"name":"安茂里差出","zip_code":"3800943"},{"name":"安茂里大門","zip_code":"3800957"},{"name":"安茂里西河原","zip_code":"3800955"},{"name":"荒屋","zip_code":"3800804"},{"name":"石渡","zip_code":"3810015"},{"name":"泉平","zip_code":"3800883"},{"name":"伊勢町","zip_code":"3800854"},{"name":"伊勢宮","zip_code":"3800958"},{"name":"市場","zip_code":"3812202"},{"name":"稲里","zip_code":"3812243"},{"name":"稲里町下氷鉋","zip_code":"3812211"},{"name":"稲里町田牧","zip_code":"3812214"},{"name":"稲里町中央","zip_code":"3812217"},{"name":"稲里町中氷鉋","zip_code":"3812215"},{"name":"稲田","zip_code":"3810042"},{"name":"稲葉","zip_code":"3800911"},{"name":"稲葉上千田","zip_code":"3800915"},{"name":"稲葉中千田","zip_code":"3800916"},{"name":"稲葉日詰","zip_code":"3800912"},{"name":"稲葉南俣","zip_code":"3800917"},{"name":"稲葉母袋","zip_code":"3800914"},{"name":"居町","zip_code":"3800901"},{"name":"入山","zip_code":"3800887"},{"name":"上松","zip_code":"3800802"},{"name":"上野","zip_code":"3810085"},{"name":"往生地","zip_code":"3800867"},{"name":"大岡乙","zip_code":"3812703"},{"name":"大岡甲","zip_code":"3812704"},{"name":"大岡中牧","zip_code":"3812701"},{"name":"大岡弘崎","zip_code":"3812705"},{"name":"大岡丙","zip_code":"3812702"},{"name":"大橋南","zip_code":"3812207"},{"name":"大町","zip_code":"3810004"},{"name":"岡田町","zip_code":"3800936"},{"name":"小島田町","zip_code":"3812212"},{"name":"神楽橋","zip_code":"3810053"},{"name":"風間","zip_code":"3810023"},{"name":"合戦場","zip_code":"3888008"},{"name":"門沢","zip_code":"3800881"},{"name":"金井田","zip_code":"3812222"},{"name":"金箱","zip_code":"3810007"},{"name":"上駒沢","zip_code":"3810082"},{"name":"上千歳町","zip_code":"3800821"},{"name":"上西之門町","zip_code":"3800858"},{"name":"川合新田","zip_code":"3800913"},{"name":"川中島町若葉町","zip_code":"3812232"},{"name":"川中島町今井","zip_code":"3812226"},{"name":"川中島町今井原","zip_code":"3812227"},{"name":"川中島町今里","zip_code":"3812234"},{"name":"川中島町上氷鉋","zip_code":"3812233"},{"name":"川中島町原","zip_code":"3812224"},{"name":"川中島町御厨","zip_code":"3812221"},{"name":"川中島町四ツ屋","zip_code":"3812231"},{"name":"岩石町","zip_code":"3800855"},{"name":"北石堂町","zip_code":"3800826"},{"name":"北尾張部","zip_code":"3810014"},{"name":"北郷","zip_code":"3810075"},{"name":"北条町","zip_code":"3810035"},{"name":"北長池","zip_code":"3810025"},{"name":"北堀","zip_code":"3810005"},{"name":"狐池","zip_code":"3800866"},{"name":"鬼無里","zip_code":"3814301"},{"name":"鬼無里日下野","zip_code":"3814303"},{"name":"鬼無里日影","zip_code":"3814302"},{"name":"桐原","zip_code":"3810045"},{"name":"栗田","zip_code":"3800921"},{"name":"栗田北中","zip_code":"3800927"},{"name":"小柴見","zip_code":"3800942"},{"name":"小島","zip_code":"3810017"},{"name":"小鍋","zip_code":"3800875"},{"name":"権堂町","zip_code":"3800833"},{"name":"栄町","zip_code":"3800863"},{"name":"坂中","zip_code":"3810061"},{"name":"桜","zip_code":"3800885"},{"name":"桜枝町","zip_code":"3800862"},{"name":"桜新町","zip_code":"3810013"},{"name":"差出南","zip_code":"3800948"},{"name":"里島","zip_code":"3812223"},{"name":"早苗町","zip_code":"3800812"},{"name":"三才","zip_code":"3810081"},{"name":"三本柳西","zip_code":"3812244"},{"name":"三本柳東","zip_code":"3812245"},{"name":"篠ノ井会","zip_code":"3888004"},{"name":"篠ノ井石川","zip_code":"3888015"},{"name":"篠ノ井有旅","zip_code":"3888016"},{"name":"篠ノ井岡田","zip_code":"3812225"},{"name":"篠ノ井御幣川","zip_code":"3888006"},{"name":"篠ノ井杵淵","zip_code":"3888019"},{"name":"篠ノ井小松原","zip_code":"3812235"},{"name":"篠ノ井小森","zip_code":"3888003"},{"name":"篠ノ井塩崎","zip_code":"3888014"},{"name":"篠ノ井東福寺","zip_code":"3888002"},{"name":"篠ノ井西寺尾","zip_code":"3888018"},{"name":"篠ノ井布施五明","zip_code":"3888011"},{"name":"篠ノ井布施高田","zip_code":"3888007"},{"name":"篠ノ井二ツ柳","zip_code":"3888012"},{"name":"篠ノ井山布施","zip_code":"3888017"},{"name":"篠ノ井横田","zip_code":"3888005"},{"name":"下駒沢","zip_code":"3810008"},{"name":"下氷鉋","zip_code":"3812216"},{"name":"伺去","zip_code":"3810063"},{"name":"塩生","zip_code":"3800877"},{"name":"真光寺","zip_code":"3810065"},{"name":"信更町赤田","zip_code":"3812352"},{"name":"信更町上尾","zip_code":"3812344"},{"name":"信更町今泉","zip_code":"3812358"},{"name":"信更町桜井","zip_code":"3812343"},{"name":"信更町三水","zip_code":"3812359"},{"name":"信更町下平","zip_code":"3812341"},{"name":"信更町高野","zip_code":"3812355"},{"name":"信更町田沢","zip_code":"3812354"},{"name":"信更町田野口","zip_code":"3812353"},{"name":"信更町灰原","zip_code":"3812357"},{"name":"信更町氷ノ田","zip_code":"3812351"},{"name":"信更町古藤","zip_code":"3812347"},{"name":"信更町宮平","zip_code":"3812342"},{"name":"信更町安庭","zip_code":"3812346"},{"name":"信更町吉原","zip_code":"3812356"},{"name":"信更町涌池","zip_code":"3812345"},{"name":"信州新町上条","zip_code":"3812404"},{"name":"信州新町越道","zip_code":"3812401"},{"name":"信州新町里穂刈","zip_code":"3812406"},{"name":"信州新町下市場","zip_code":"3812413"},{"name":"信州新町新町","zip_code":"3812405"},{"name":"信州新町左右","zip_code":"3812424"},{"name":"信州新町竹房","zip_code":"3812411"},{"name":"信州新町中牧","zip_code":"3812415"},{"name":"信州新町信級","zip_code":"3812421"},{"name":"信州新町日原西","zip_code":"3812423"},{"name":"信州新町日原東","zip_code":"3812422"},{"name":"信州新町弘崎","zip_code":"3812416"},{"name":"信州新町牧田中","zip_code":"3812414"},{"name":"信州新町牧野島","zip_code":"3812412"},{"name":"信州新町水内","zip_code":"3812403"},{"name":"信州新町山上条","zip_code":"3812402"},{"name":"信州新町山穂刈","zip_code":"3812407"},{"name":"新諏訪","zip_code":"3800873"},{"name":"新諏訪町","zip_code":"3800873"},{"name":"新田町","zip_code":"3800835"},{"name":"新町","zip_code":"3800853"},{"name":"神明","zip_code":"3888020"},{"name":"末広町","zip_code":"3800825"},{"name":"諏訪町","zip_code":"3800844"},{"name":"台ケ窪","zip_code":"3810071"},{"name":"大門町","zip_code":"3800841"},{"name":"高田","zip_code":"3810034"},{"name":"田子","zip_code":"3810087"},{"name":"鑪","zip_code":"3800884"},{"name":"立町","zip_code":"3800864"},{"name":"田中","zip_code":"3810086"},{"name":"田町","zip_code":"3800815"},{"name":"丹波島","zip_code":"3812246"},{"name":"津野","zip_code":"3810002"},{"name":"妻科","zip_code":"3800872"},{"name":"鶴賀","zip_code":"3800901"},{"name":"問御所町","zip_code":"3800834"},{"name":"戸隠","zip_code":"3814101"},{"name":"戸隠祖山","zip_code":"3814103"},{"name":"戸隠栃原","zip_code":"3814104"},{"name":"戸隠豊岡","zip_code":"3814102"},{"name":"徳間","zip_code":"3810041"},{"name":"富田","zip_code":"3800882"},{"name":"富竹","zip_code":"3810006"},{"name":"豊野町浅野","zip_code":"3891104"},{"name":"豊野町石","zip_code":"3891106"},{"name":"豊野町大倉","zip_code":"3891102"},{"name":"豊野町蟹沢","zip_code":"3891103"},{"name":"豊野町川谷","zip_code":"3891101"},{"name":"豊野町豊野","zip_code":"3891105"},{"name":"豊野町南郷","zip_code":"3891107"},{"name":"中越","zip_code":"3810044"},{"name":"中御所","zip_code":"3800935"},{"name":"中御所町","zip_code":"3800934"},{"name":"中条","zip_code":"3813203"},{"name":"中条日下野","zip_code":"3813202"},{"name":"中条住良木","zip_code":"3813205"},{"name":"中条日高","zip_code":"3813201"},{"name":"中条御山里","zip_code":"3813204"},{"name":"中曽根","zip_code":"3810074"},{"name":"長門町","zip_code":"3800843"},{"name":"七瀬","zip_code":"3800906"},{"name":"七瀬中町","zip_code":"3800904"},{"name":"七瀬南部","zip_code":"3800905"},{"name":"七二会乙","zip_code":"3813164"},{"name":"七二会己","zip_code":"3813163"},{"name":"七二会甲","zip_code":"3813165"},{"name":"七二会丁","zip_code":"3813161"},{"name":"七二会丙","zip_code":"3813166"},{"name":"七二会戊","zip_code":"3813162"},{"name":"西尾張部","zip_code":"3810031"},{"name":"西後町","zip_code":"3800845"},{"name":"西三才","zip_code":"3810083"},{"name":"西鶴賀町","zip_code":"3800814"},{"name":"西長野町","zip_code":"3800871"},{"name":"西之門町","zip_code":"3800857"},{"name":"西町","zip_code":"3800842"},{"name":"西和田","zip_code":"3810037"},{"name":"箱清水","zip_code":"3800801"},{"name":"花咲町","zip_code":"3800865"},{"name":"東後町","zip_code":"3800832"},{"name":"東犀南","zip_code":"3888001"},{"name":"東鶴賀町","zip_code":"3800811"},{"name":"東之門町","zip_code":"3800852"},{"name":"東町","zip_code":"3800831"},{"name":"東和田","zip_code":"3810038"},{"name":"平柴","zip_code":"3800947"},{"name":"平柴台","zip_code":"3800946"},{"name":"平林","zip_code":"3810036"},{"name":"広瀬","zip_code":"3800886"},{"name":"広田","zip_code":"3812213"},{"name":"穂保","zip_code":"3810003"},{"name":"真島町川合","zip_code":"3812203"},{"name":"真島町真島","zip_code":"3812204"},{"name":"松岡","zip_code":"3810026"},{"name":"松代温泉","zip_code":"3811226"},{"name":"松代町岩野","zip_code":"3811234"},{"name":"松代町大室","zip_code":"3811211"},{"name":"松代町小島田","zip_code":"3811213"},{"name":"松代町清野","zip_code":"3811233"},{"name":"松代町柴","zip_code":"3811214"},{"name":"松代町城東","zip_code":"3811224"},{"name":"松代町城北","zip_code":"3811235"},{"name":"松代町豊栄","zip_code":"3811222"},{"name":"松代町西条","zip_code":"3811232"},{"name":"松代町西寺尾","zip_code":"3811215"},{"name":"松代町東条","zip_code":"3811221"},{"name":"松代町東寺尾","zip_code":"3811225"},{"name":"松代町牧島","zip_code":"3811212"},{"name":"松代町松代","zip_code":"3811231"},{"name":"大豆島","zip_code":"3810022"},{"name":"檀田","zip_code":"3810052"},{"name":"みこと川","zip_code":"3888013"},{"name":"三ツ出","zip_code":"3810076"},{"name":"緑町","zip_code":"3800813"},{"name":"皆神台","zip_code":"3811223"},{"name":"南県町","zip_code":"3800836"},{"name":"南石堂町","zip_code":"3800824"},{"name":"南高田","zip_code":"3810033"},{"name":"南千歳","zip_code":"3800823"},{"name":"南千歳町","zip_code":"3800822"},{"name":"南長池","zip_code":"3810024"},{"name":"南長野","zip_code":"3800837"},{"name":"南堀","zip_code":"3810016"},{"name":"宮沖","zip_code":"3800952"},{"name":"三輪","zip_code":"3800803"},{"name":"三輪田町","zip_code":"3800816"},{"name":"村山","zip_code":"3810011"},{"name":"茂菅","zip_code":"3800874"},{"name":"元善町","zip_code":"3800851"},{"name":"屋敷田","zip_code":"3810055"},{"name":"屋島","zip_code":"3810021"},{"name":"柳原","zip_code":"3810012"},{"name":"柳町","zip_code":"3800805"},{"name":"山田中","zip_code":"3800876"},{"name":"横沢町","zip_code":"3800861"},{"name":"横町","zip_code":"3800856"},{"name":"横山","zip_code":"3800807"},{"name":"吉","zip_code":"3810088"},{"name":"吉田","zip_code":"3810043"},{"name":"淀ケ橋","zip_code":"3800806"},{"name":"若里","zip_code":"3800928"},{"name":"若槻東条","zip_code":"3810084"},{"name":"若槻団地","zip_code":"3810051"},{"name":"若槻西条","zip_code":"3810089"},{"name":"若穂川田","zip_code":"3810103"},{"name":"若穂保科","zip_code":"3810102"},{"name":"若穂綿内","zip_code":"3810101"},{"name":"若穂牛島","zip_code":"3812201"},{"name":"若松町","zip_code":"3800847"},{"name":"若宮","zip_code":"3810032"}]},{"name":"松本市","divisions":[{"name":"会田","zip_code":"3997402"},{"name":"県","zip_code":"3900812"},{"name":"赤怒田","zip_code":"3997415"},{"name":"旭","zip_code":"3900802"},{"name":"浅間温泉","zip_code":"3900303"},{"name":"梓川梓","zip_code":"3901702"},{"name":"梓川上野","zip_code":"3901703"},{"name":"梓川倭","zip_code":"3901701"},{"name":"安曇","zip_code":"3901504"},{"name":"穴沢","zip_code":"3997403"},{"name":"蟻ケ崎","zip_code":"3900861"},{"name":"蟻ケ崎台","zip_code":"3900867"},{"name":"井川城","zip_code":"3900831"},{"name":"石芝","zip_code":"3900845"},{"name":"板場","zip_code":"3997405"},{"name":"市場","zip_code":"3990004"},{"name":"出川","zip_code":"3900827"},{"name":"出川町","zip_code":"3900826"},{"name":"今井","zip_code":"3901131"},{"name":"入山辺","zip_code":"3900222"},{"name":"埋橋","zip_code":"3900813"},{"name":"内田","zip_code":"3990023"},{"name":"大手","zip_code":"3900874"},{"name":"大村","zip_code":"3900304"},{"name":"岡田伊深","zip_code":"3900314"},{"name":"岡田下岡田","zip_code":"3900313"},{"name":"岡田町","zip_code":"3900315"},{"name":"岡田松岡","zip_code":"3900312"},{"name":"開智","zip_code":"3900876"},{"name":"金山町","zip_code":"3997413"},{"name":"鎌田","zip_code":"3900837"},{"name":"刈谷原町","zip_code":"3997417"},{"name":"神田","zip_code":"3900822"},{"name":"神林","zip_code":"3901243"},{"name":"北深志","zip_code":"3900872"},{"name":"桐","zip_code":"3900871"},{"name":"空港東","zip_code":"3901132"},{"name":"五常","zip_code":"3997401"},{"name":"寿小赤","zip_code":"3990024"},{"name":"寿白瀬渕","zip_code":"3990012"},{"name":"寿台","zip_code":"3990025"},{"name":"寿豊丘","zip_code":"3990021"},{"name":"寿北","zip_code":"3990011"},{"name":"寿中","zip_code":"3990026"},{"name":"寿南","zip_code":"3990027"},{"name":"小屋北","zip_code":"3990039"},{"name":"小屋南","zip_code":"3990038"},{"name":"笹賀","zip_code":"3990033"},{"name":"笹部","zip_code":"3900847"},{"name":"里山辺","zip_code":"3900221"},{"name":"沢村","zip_code":"3900877"},{"name":"稲倉","zip_code":"3900301"},{"name":"島内","zip_code":"3998251"},{"name":"島立","zip_code":"3900852"},{"name":"清水","zip_code":"3900805"},{"name":"城西","zip_code":"3900875"},{"name":"城東","zip_code":"3900807"},{"name":"庄内","zip_code":"3900828"},{"name":"城山","zip_code":"3900866"},{"name":"白板","zip_code":"3900863"},{"name":"新橋","zip_code":"3900865"},{"name":"惣社","zip_code":"3900305"},{"name":"征矢野","zip_code":"3900842"},{"name":"反町","zip_code":"3997418"},{"name":"高宮中","zip_code":"3900834"},{"name":"高宮東","zip_code":"3900835"},{"name":"高宮西","zip_code":"3900844"},{"name":"高宮南","zip_code":"3900843"},{"name":"高宮北","zip_code":"3900836"},{"name":"中央","zip_code":"3900811"},{"name":"筑摩","zip_code":"3900821"},{"name":"殿野入","zip_code":"3997414"},{"name":"取出","zip_code":"3997404"},{"name":"中川","zip_code":"3997411"},{"name":"中条","zip_code":"3900816"},{"name":"中山","zip_code":"3900823"},{"name":"中山台","zip_code":"3900824"},{"name":"奈川","zip_code":"3901611"},{"name":"渚","zip_code":"3900841"},{"name":"七嵐","zip_code":"3997416"},{"name":"並柳","zip_code":"3900825"},{"name":"新村","zip_code":"3901241"},{"name":"野溝西","zip_code":"3990006"},{"name":"野溝東","zip_code":"3990034"},{"name":"野溝木工","zip_code":"3990005"},{"name":"波田","zip_code":"3901401"},{"name":"巾上","zip_code":"3900817"},{"name":"原","zip_code":"3900316"},{"name":"平田東","zip_code":"3990014"},{"name":"平田西","zip_code":"3990015"},{"name":"深志","zip_code":"3900815"},{"name":"双葉","zip_code":"3900833"},{"name":"保福寺町","zip_code":"3997412"},{"name":"洞","zip_code":"3900317"},{"name":"本庄","zip_code":"3900814"},{"name":"松原","zip_code":"3990022"},{"name":"丸の内","zip_code":"3900873"},{"name":"三才山","zip_code":"3900302"},{"name":"美須々","zip_code":"3900801"},{"name":"水汲","zip_code":"3900311"},{"name":"南浅間","zip_code":"3900306"},{"name":"南原","zip_code":"3900846"},{"name":"南松本","zip_code":"3900832"},{"name":"宮田","zip_code":"3990001"},{"name":"宮渕","zip_code":"3900862"},{"name":"宮渕本村","zip_code":"3900864"},{"name":"村井町北","zip_code":"3990035"},{"name":"村井町西","zip_code":"3990037"},{"name":"村井町南","zip_code":"3990036"},{"name":"女鳥羽","zip_code":"3900806"},{"name":"元町","zip_code":"3900803"},{"name":"横田","zip_code":"3900804"},{"name":"芳野","zip_code":"3990002"},{"name":"両島","zip_code":"3900848"},{"name":"和田","zip_code":"3901242"}]},{"name":"上田市","divisions":[{"name":"蒼久保","zip_code":"3860155"},{"name":"秋和","zip_code":"3860041"},{"name":"生田","zip_code":"3860411"},{"name":"岩下","zip_code":"3860153"},{"name":"上田","zip_code":"3860001"},{"name":"上田原","zip_code":"3861102"},{"name":"上野","zip_code":"3860003"},{"name":"浦野","zip_code":"3861546"},{"name":"漆戸","zip_code":"3860006"},{"name":"大手","zip_code":"3860024"},{"name":"大屋","zip_code":"3860152"},{"name":"岡","zip_code":"3861543"},{"name":"鹿教湯温泉","zip_code":"3860323"},{"name":"神畑","zip_code":"3861103"},{"name":"神畑乙","zip_code":"3861108"},{"name":"上塩尻","zip_code":"3860042"},{"name":"上武石","zip_code":"3860508"},{"name":"上丸子","zip_code":"3860404"},{"name":"上室賀","zip_code":"3861541"},{"name":"古安曽","zip_code":"3861213"},{"name":"小泉","zip_code":"3861106"},{"name":"越戸","zip_code":"3861545"},{"name":"五加","zip_code":"3861324"},{"name":"国分","zip_code":"3860016"},{"name":"古里","zip_code":"3860005"},{"name":"腰越","zip_code":"3860403"},{"name":"小島","zip_code":"3861322"},{"name":"御所","zip_code":"3860033"},{"name":"小牧","zip_code":"3860031"},{"name":"材木町","zip_code":"3860014"},{"name":"真田町長","zip_code":"3862201"},{"name":"真田町傍陽","zip_code":"3862203"},{"name":"真田町本原","zip_code":"3862202"},{"name":"塩川","zip_code":"3860401"},{"name":"下塩尻","zip_code":"3860043"},{"name":"下武石","zip_code":"3860503"},{"name":"下之郷","zip_code":"3861211"},{"name":"下之郷乙","zip_code":"3861214"},{"name":"下之条","zip_code":"3861101"},{"name":"下丸子","zip_code":"3860406"},{"name":"下室賀","zip_code":"3861542"},{"name":"十人","zip_code":"3861435"},{"name":"新町","zip_code":"3861434"},{"name":"菅平高原","zip_code":"3862204"},{"name":"住吉","zip_code":"3860002"},{"name":"諏訪形","zip_code":"3860032"},{"name":"武石沖","zip_code":"3860502"},{"name":"武石小沢根","zip_code":"3860504"},{"name":"武石上本入","zip_code":"3860507"},{"name":"武石下本入","zip_code":"3860506"},{"name":"武石鳥屋","zip_code":"3860501"},{"name":"武石余里","zip_code":"3860505"},{"name":"中央","zip_code":"3860012"},{"name":"中央東","zip_code":"3860013"},{"name":"中央西","zip_code":"3860023"},{"name":"中央北","zip_code":"3860011"},{"name":"築地","zip_code":"3861107"},{"name":"手塚","zip_code":"3861433"},{"name":"天神","zip_code":"3860025"},{"name":"常入","zip_code":"3860015"},{"name":"常田","zip_code":"3860018"},{"name":"常磐城","zip_code":"3860027"},{"name":"殿城","zip_code":"3860004"},{"name":"長瀬","zip_code":"3860407"},{"name":"中野","zip_code":"3861325"},{"name":"中之条","zip_code":"3860034"},{"name":"中丸子","zip_code":"3860405"},{"name":"仁古田","zip_code":"3861544"},{"name":"西内","zip_code":"3860322"},{"name":"二の丸","zip_code":"3860026"},{"name":"野倉","zip_code":"3861437"},{"name":"林之郷","zip_code":"3860156"},{"name":"東内","zip_code":"3860413"},{"name":"平井","zip_code":"3860321"},{"name":"福田","zip_code":"3861104"},{"name":"富士山","zip_code":"3861212"},{"name":"藤原田","zip_code":"3860402"},{"name":"踏入","zip_code":"3860017"},{"name":"別所温泉","zip_code":"3861431"},{"name":"保野","zip_code":"3861321"},{"name":"本郷","zip_code":"3861323"},{"name":"舞田","zip_code":"3861326"},{"name":"前山","zip_code":"3861436"},{"name":"御嶽堂","zip_code":"3860412"},{"name":"緑が丘","zip_code":"3860022"},{"name":"本海野","zip_code":"3860408"},{"name":"八木沢","zip_code":"3861327"},{"name":"山田","zip_code":"3861432"},{"name":"芳田","zip_code":"3860151"},{"name":"吉田","zip_code":"3861105"}]},{"name":"岡谷市","divisions":[{"name":"赤羽","zip_code":"3940002"},{"name":"芦ノ沢","zip_code":"3940053"},{"name":"今井","zip_code":"3940001"},{"name":"内山","zip_code":"3940055"},{"name":"塩嶺","zip_code":"3940051"},{"name":"御倉町","zip_code":"3940043"},{"name":"長地","zip_code":"3940011"},{"name":"長地出早","zip_code":"3940089"},{"name":"長地片間町","zip_code":"3940084"},{"name":"長地御所","zip_code":"3940082"},{"name":"長地小萩","zip_code":"3940085"},{"name":"長地権現町","zip_code":"3940081"},{"name":"長地鎮","zip_code":"3940087"},{"name":"長地柴宮","zip_code":"3940083"},{"name":"長地梨久保","zip_code":"3940088"},{"name":"長地源","zip_code":"3940086"},{"name":"加茂町","zip_code":"3940003"},{"name":"川岸上","zip_code":"3940048"},{"name":"川岸中","zip_code":"3940047"},{"name":"川岸東","zip_code":"3940045"},{"name":"川岸西","zip_code":"3940046"},{"name":"銀座","zip_code":"3940022"},{"name":"郷田","zip_code":"3940021"},{"name":"湖畔","zip_code":"3940034"},{"name":"幸町","zip_code":"3940029"},{"name":"神明町","zip_code":"3940004"},{"name":"大栄町","zip_code":"3940025"},{"name":"田中町","zip_code":"3940031"},{"name":"中央町","zip_code":"3940027"},{"name":"塚間町","zip_code":"3940026"},{"name":"天竜町","zip_code":"3940035"},{"name":"成田町","zip_code":"3940042"},{"name":"南宮","zip_code":"3940033"},{"name":"西林","zip_code":"3940052"},{"name":"半ノ木","zip_code":"3940054"},{"name":"東銀座","zip_code":"3940023"},{"name":"樋沢","zip_code":"3940056"},{"name":"堀ノ内","zip_code":"3940024"},{"name":"本町","zip_code":"3940028"},{"name":"湊","zip_code":"3940044"},{"name":"山下町","zip_code":"3940005"},{"name":"山手町","zip_code":"3940041"},{"name":"ヨギトギ沢","zip_code":"3940053"},{"name":"若宮","zip_code":"3940032"}]},{"name":"飯田市","divisions":[{"name":"曙町","zip_code":"3950072"},{"name":"旭町","zip_code":"3950055"},{"name":"吾妻町","zip_code":"3950085"},{"name":"愛宕町","zip_code":"3950036"},{"name":"育良町","zip_code":"3950152"},{"name":"伊豆木","zip_code":"3992434"},{"name":"今宮町","zip_code":"3950071"},{"name":"江戸浜町","zip_code":"3950023"},{"name":"江戸町","zip_code":"3950015"},{"name":"扇町","zip_code":"3950046"},{"name":"追手町","zip_code":"3950034"},{"name":"大久保町","zip_code":"3950053"},{"name":"大瀬木","zip_code":"3950157"},{"name":"大通","zip_code":"3950056"},{"name":"大休","zip_code":"3950068"},{"name":"長姫町","zip_code":"3950028"},{"name":"鼎一色","zip_code":"3950805"},{"name":"鼎上茶屋","zip_code":"3950808"},{"name":"鼎下茶屋","zip_code":"3950802"},{"name":"鼎上山","zip_code":"3950806"},{"name":"鼎下山","zip_code":"3950803"},{"name":"鼎切石","zip_code":"3950807"},{"name":"鼎中平","zip_code":"3950801"},{"name":"鼎名古熊","zip_code":"3950804"},{"name":"鼎東鼎","zip_code":"3950817"},{"name":"鼎西鼎","zip_code":"3950026"},{"name":"上川路","zip_code":"3992564"},{"name":"上郷飯沼","zip_code":"3950002"},{"name":"上郷別府","zip_code":"3950003"},{"name":"上郷黒田","zip_code":"3950004"},{"name":"上殿岡","zip_code":"3950153"},{"name":"上久堅","zip_code":"3992611"},{"name":"上久堅戊","zip_code":"3992612"},{"name":"上村","zip_code":"3991403"},{"name":"川路","zip_code":"3992431"},{"name":"北方","zip_code":"3950151"},{"name":"桐林","zip_code":"3992565"},{"name":"銀座","zip_code":"3950031"},{"name":"久米","zip_code":"3950241"},{"name":"毛賀","zip_code":"3950813"},{"name":"小伝馬町","zip_code":"3950013"},{"name":"桜町","zip_code":"3950014"},{"name":"座光寺","zip_code":"3950001"},{"name":"嶋","zip_code":"3992566"},{"name":"下瀬","zip_code":"3992432"},{"name":"下殿岡","zip_code":"3950154"},{"name":"下久堅稲葉","zip_code":"3992606"},{"name":"下久堅柿野沢","zip_code":"3992604"},{"name":"下久堅小林","zip_code":"3992605"},{"name":"下久堅下虎岩","zip_code":"3992602"},{"name":"下久堅知久平","zip_code":"3992603"},{"name":"下久堅南原","zip_code":"3992607"},{"name":"正永町","zip_code":"3950061"},{"name":"鈴加町","zip_code":"3950084"},{"name":"砂払町","zip_code":"3950062"},{"name":"諏訪町","zip_code":"3950018"},{"name":"大王路","zip_code":"3950012"},{"name":"大門町","zip_code":"3950011"},{"name":"高羽町","zip_code":"3950051"},{"name":"滝の沢","zip_code":"3950048"},{"name":"竹佐","zip_code":"3950242"},{"name":"駄科","zip_code":"3992561"},{"name":"龍江","zip_code":"3992221"},{"name":"立石","zip_code":"3992433"},{"name":"主税町","zip_code":"3950032"},{"name":"知久町","zip_code":"3950045"},{"name":"千栄","zip_code":"3992223"},{"name":"中央通り","zip_code":"3950041"},{"name":"千代","zip_code":"3992222"},{"name":"伝馬町","zip_code":"3950016"},{"name":"東栄町","zip_code":"3950024"},{"name":"東新町","zip_code":"3950017"},{"name":"東和町","zip_code":"3950086"},{"name":"通り町","zip_code":"3950043"},{"name":"時又","zip_code":"3992563"},{"name":"常盤町","zip_code":"3950033"},{"name":"虎岩","zip_code":"3992601"},{"name":"仲ノ町","zip_code":"3950021"},{"name":"中村","zip_code":"3950156"},{"name":"長野原","zip_code":"3992562"},{"name":"錦町","zip_code":"3950083"},{"name":"二本松","zip_code":"3950029"},{"name":"白山町","zip_code":"3950076"},{"name":"白山通り","zip_code":"3950075"},{"name":"箱川","zip_code":"3950243"},{"name":"羽場赤坂","zip_code":"3950066"},{"name":"羽場上河原","zip_code":"3950065"},{"name":"羽場権現","zip_code":"3950067"},{"name":"羽場坂町","zip_code":"3950073"},{"name":"羽場町","zip_code":"3950063"},{"name":"羽場仲畑","zip_code":"3950064"},{"name":"馬場町","zip_code":"3950027"},{"name":"浜井町","zip_code":"3950022"},{"name":"東中央通り","zip_code":"3950025"},{"name":"本町","zip_code":"3950044"},{"name":"松尾上溝","zip_code":"3950811"},{"name":"松尾新井","zip_code":"3950821"},{"name":"松尾清水","zip_code":"3950824"},{"name":"松尾代田","zip_code":"3950812"},{"name":"松尾城","zip_code":"3950825"},{"name":"松尾寺所","zip_code":"3950822"},{"name":"松尾常盤台","zip_code":"3950815"},{"name":"松尾久井","zip_code":"3950816"},{"name":"松尾町","zip_code":"3950042"},{"name":"松尾水城","zip_code":"3950826"},{"name":"松尾明","zip_code":"3950823"},{"name":"松川町","zip_code":"3950074"},{"name":"丸山町","zip_code":"3950077"},{"name":"水の手町","zip_code":"3950035"},{"name":"三日市場","zip_code":"3950155"},{"name":"南信濃木沢","zip_code":"3991401"},{"name":"南信濃南和田","zip_code":"3991221"},{"name":"南信濃八重河内","zip_code":"3991312"},{"name":"南信濃和田","zip_code":"3991311"},{"name":"南常盤町","zip_code":"3950037"},{"name":"箕瀬町","zip_code":"3950054"},{"name":"宮ノ上","zip_code":"3950081"},{"name":"宮の前","zip_code":"3950082"},{"name":"元町","zip_code":"3950052"},{"name":"山本","zip_code":"3950244"},{"name":"山本二ツ山団地","zip_code":"3950245"},{"name":"八幡町","zip_code":"3950814"}]},{"name":"諏訪市","divisions":[{"name":"赤羽根","zip_code":"3920011"},{"name":"大手","zip_code":"3920026"},{"name":"岡村","zip_code":"3920005"},{"name":"沖田町","zip_code":"3920013"},{"name":"大和","zip_code":"3920001"},{"name":"上川","zip_code":"3920021"},{"name":"上諏訪","zip_code":"3920003"},{"name":"霧ケ峰","zip_code":"3920008"},{"name":"湖岸通り","zip_code":"3920027"},{"name":"湖南","zip_code":"3920131"},{"name":"小和田","zip_code":"3920024"},{"name":"小和田南","zip_code":"3920023"},{"name":"四賀","zip_code":"3920012"},{"name":"渋崎","zip_code":"3920010"},{"name":"清水","zip_code":"3920007"},{"name":"城南","zip_code":"3920017"},{"name":"末広","zip_code":"3920025"},{"name":"杉菜池","zip_code":"3920009"},{"name":"諏訪","zip_code":"3920004"},{"name":"高島","zip_code":"3920022"},{"name":"豊田","zip_code":"3920016"},{"name":"中洲","zip_code":"3920015"},{"name":"南町","zip_code":"3920014"},{"name":"元町","zip_code":"3920006"},{"name":"湯の脇","zip_code":"3920002"}]},{"name":"須坂市","divisions":[{"name":"相之島","zip_code":"3820065"},{"name":"旭ケ丘","zip_code":"3820003"},{"name":"井上","zip_code":"3820045"},{"name":"相森町","zip_code":"3820017"},{"name":"大谷町","zip_code":"3820012"},{"name":"小河原町","zip_code":"3820071"},{"name":"大日向町","zip_code":"3820025"},{"name":"上中町","zip_code":"3820083"},{"name":"上八町","zip_code":"3820044"},{"name":"亀倉町","zip_code":"3820033"},{"name":"臥竜","zip_code":"3820028"},{"name":"上町","zip_code":"3820084"},{"name":"北相之島町","zip_code":"3820061"},{"name":"北旭ケ丘町","zip_code":"3820002"},{"name":"北原町","zip_code":"3820092"},{"name":"北横町","zip_code":"3820077"},{"name":"九反田町","zip_code":"3820048"},{"name":"幸高町","zip_code":"3820047"},{"name":"五閑町","zip_code":"3820053"},{"name":"穀町","zip_code":"3820085"},{"name":"小島町","zip_code":"3820062"},{"name":"坂田町","zip_code":"3820026"},{"name":"塩川町","zip_code":"3820052"},{"name":"塩野町","zip_code":"3820024"},{"name":"下八町","zip_code":"3820043"},{"name":"新田町","zip_code":"3820005"},{"name":"新町","zip_code":"3820014"},{"name":"須坂ハイランド町","zip_code":"3820075"},{"name":"墨坂","zip_code":"3820099"},{"name":"墨坂南","zip_code":"3820098"},{"name":"太子町","zip_code":"3820015"},{"name":"高梨町","zip_code":"3820054"},{"name":"高橋町","zip_code":"3820016"},{"name":"高畑町","zip_code":"3820004"},{"name":"立町","zip_code":"3820091"},{"name":"田の神町","zip_code":"3820073"},{"name":"常盤町","zip_code":"3820013"},{"name":"豊丘上町","zip_code":"3820022"},{"name":"豊丘町","zip_code":"3820021"},{"name":"豊島町","zip_code":"3820066"},{"name":"中島町","zip_code":"3820055"},{"name":"中町","zip_code":"3820082"},{"name":"夏端町","zip_code":"3820032"},{"name":"西町","zip_code":"3820063"},{"name":"二睦町","zip_code":"3820046"},{"name":"仁礼町","zip_code":"3862211"},{"name":"沼目町","zip_code":"3820064"},{"name":"野辺町","zip_code":"3820037"},{"name":"馬場町","zip_code":"3820076"},{"name":"春木町","zip_code":"3820074"},{"name":"光ケ丘ニュータウン","zip_code":"3820006"},{"name":"東横町","zip_code":"3820087"},{"name":"福島町","zip_code":"3820056"},{"name":"望岳台","zip_code":"3820042"},{"name":"本上町","zip_code":"3820086"},{"name":"本郷町","zip_code":"3820011"},{"name":"松川町","zip_code":"3820001"},{"name":"南小河原町","zip_code":"3820072"},{"name":"南原町","zip_code":"3820027"},{"name":"南横町","zip_code":"3820097"},{"name":"明徳町","zip_code":"3820036"},{"name":"村石町","zip_code":"3820031"},{"name":"村山町","zip_code":"3820057"},{"name":"八重森町","zip_code":"3820051"},{"name":"屋部町","zip_code":"3820094"},{"name":"横町","zip_code":"3820081"},{"name":"米子町","zip_code":"3820023"},{"name":"米持町","zip_code":"3820041"}]},{"name":"小諸市","divisions":[{"name":"相生町","zip_code":"3840025"},{"name":"赤坂","zip_code":"3840011"},{"name":"天池","zip_code":"3840021"},{"name":"荒堀","zip_code":"3840062"},{"name":"荒町","zip_code":"3840014"},{"name":"池ノ前","zip_code":"3840096"},{"name":"井子","zip_code":"3840047"},{"name":"石峠","zip_code":"3840054"},{"name":"市","zip_code":"3840083"},{"name":"市町","zip_code":"3840033"},{"name":"上ノ平","zip_code":"3840075"},{"name":"後平","zip_code":"3840042"},{"name":"大杭","zip_code":"3840077"},{"name":"大久保","zip_code":"3840071"},{"name":"大手","zip_code":"3840031"},{"name":"押出","zip_code":"3840037"},{"name":"乙","zip_code":"3840802"},{"name":"乙女","zip_code":"3840004"},{"name":"柏木","zip_code":"3840055"},{"name":"加増","zip_code":"3840061"},{"name":"唐松","zip_code":"3840002"},{"name":"己","zip_code":"3840805"},{"name":"久保","zip_code":"3840076"},{"name":"熊ノ堂","zip_code":"3840024"},{"name":"甲","zip_code":"3840801"},{"name":"古城","zip_code":"3840032"},{"name":"小原","zip_code":"3840001"},{"name":"紺屋町","zip_code":"3840015"},{"name":"坂ノ上","zip_code":"3840018"},{"name":"塩野","zip_code":"3840806"},{"name":"滋野甲","zip_code":"3840809"},{"name":"東雲","zip_code":"3840023"},{"name":"芝生田","zip_code":"3840046"},{"name":"新町","zip_code":"3840034"},{"name":"諏訪山","zip_code":"3840082"},{"name":"滝原","zip_code":"3840045"},{"name":"田町","zip_code":"3840028"},{"name":"鶴巻","zip_code":"3840007"},{"name":"丁","zip_code":"3840804"},{"name":"鴇久保","zip_code":"3840072"},{"name":"栃木","zip_code":"3840038"},{"name":"西浦","zip_code":"3840074"},{"name":"西原","zip_code":"3840044"},{"name":"糠地","zip_code":"3840048"},{"name":"乗瀬","zip_code":"3840064"},{"name":"八満","zip_code":"3840051"},{"name":"八幡町","zip_code":"3840016"},{"name":"東区","zip_code":"3840052"},{"name":"東小諸","zip_code":"3840008"},{"name":"東山","zip_code":"3840003"},{"name":"菱平","zip_code":"3840041"},{"name":"一ツ谷","zip_code":"3840094"},{"name":"ひばりケ丘","zip_code":"3840065"},{"name":"平原","zip_code":"3840092"},{"name":"藤塚","zip_code":"3840053"},{"name":"富士見平","zip_code":"3840036"},{"name":"丙","zip_code":"3840803"},{"name":"本町","zip_code":"3840026"},{"name":"松井","zip_code":"3840022"},{"name":"御影","zip_code":"3840091"},{"name":"御影新田","zip_code":"3840808"},{"name":"三和","zip_code":"3840017"},{"name":"緑ケ丘","zip_code":"3840013"},{"name":"南ケ原","zip_code":"3840063"},{"name":"南町","zip_code":"3840012"},{"name":"御牧ケ原","zip_code":"3840081"},{"name":"耳取","zip_code":"3840084"},{"name":"宮沢","zip_code":"3840078"},{"name":"御幸町","zip_code":"3840005"},{"name":"森山","zip_code":"3840085"},{"name":"諸","zip_code":"3840043"},{"name":"谷地原","zip_code":"3840095"},{"name":"山浦","zip_code":"3840807"},{"name":"四ツ谷","zip_code":"3840056"},{"name":"与良町","zip_code":"3840006"},{"name":"両神","zip_code":"3840035"},{"name":"六供","zip_code":"3840027"},{"name":"和田","zip_code":"3840093"}]},{"name":"伊那市","divisions":[{"name":"荒井","zip_code":"3960025"},{"name":"荒井内の萱","zip_code":"3960028"},{"name":"伊那","zip_code":"3960021"},{"name":"伊那部","zip_code":"3960011"},{"name":"上の原","zip_code":"3960008"},{"name":"小沢","zip_code":"3960032"},{"name":"上新田","zip_code":"3960012"},{"name":"上牧","zip_code":"3960006"},{"name":"狐島","zip_code":"3960014"},{"name":"小四郎久保","zip_code":"3960033"},{"name":"境","zip_code":"3960010"},{"name":"坂下","zip_code":"3960024"},{"name":"下新田","zip_code":"3960013"},{"name":"仙美","zip_code":"3960114"},{"name":"高遠町長藤","zip_code":"3960212"},{"name":"高遠町小原","zip_code":"3960215"},{"name":"高遠町勝間","zip_code":"3960214"},{"name":"高遠町上山田","zip_code":"3960217"},{"name":"高遠町芝平","zip_code":"3960302"},{"name":"高遠町下山田","zip_code":"3960216"},{"name":"高遠町西高遠","zip_code":"3960211"},{"name":"高遠町荊口","zip_code":"3960303"},{"name":"高遠町東高遠","zip_code":"3960213"},{"name":"高遠町藤沢","zip_code":"3960301"},{"name":"高遠町山室","zip_code":"3960304"},{"name":"中央","zip_code":"3960015"},{"name":"手良沢岡","zip_code":"3960002"},{"name":"手良中坪","zip_code":"3960004"},{"name":"手良野口","zip_code":"3960003"},{"name":"富県","zip_code":"3960621"},{"name":"中の原","zip_code":"3960031"},{"name":"西春近","zip_code":"3994431"},{"name":"西町","zip_code":"3960026"},{"name":"西箕輪","zip_code":"3994501"},{"name":"野底","zip_code":"3960005"},{"name":"長谷市野瀬","zip_code":"3960405"},{"name":"長谷浦","zip_code":"3960407"},{"name":"長谷黒河内","zip_code":"3960403"},{"name":"長谷杉島","zip_code":"3960406"},{"name":"長谷中尾","zip_code":"3960404"},{"name":"長谷非持","zip_code":"3960401"},{"name":"長谷溝口","zip_code":"3960402"},{"name":"日影","zip_code":"3960009"},{"name":"東春近","zip_code":"3994432"},{"name":"平沢","zip_code":"3960030"},{"name":"福島","zip_code":"3960001"},{"name":"前原","zip_code":"3960112"},{"name":"ますみヶ丘","zip_code":"3960027"},{"name":"美篶","zip_code":"3960111"},{"name":"御園","zip_code":"3960022"},{"name":"美原","zip_code":"3960113"},{"name":"山寺","zip_code":"3960023"},{"name":"横山","zip_code":"3960029"},{"name":"若宮","zip_code":"3960007"}]},{"name":"駒ヶ根市","divisions":[{"name":"赤須町","zip_code":"3994113"},{"name":"赤須東","zip_code":"3994105"},{"name":"赤穂","zip_code":"3994117"},{"name":"飯坂","zip_code":"3994102"},{"name":"上穂栄町","zip_code":"3994115"},{"name":"上穂南","zip_code":"3994114"},{"name":"上穂北","zip_code":"3994116"},{"name":"北町","zip_code":"3994111"},{"name":"経塚","zip_code":"3994104"},{"name":"下市場","zip_code":"3994108"},{"name":"下平","zip_code":"3994232"},{"name":"中央","zip_code":"3994112"},{"name":"中沢","zip_code":"3994231"},{"name":"梨の木","zip_code":"3994103"},{"name":"東伊那","zip_code":"3994321"},{"name":"東町","zip_code":"3994106"},{"name":"南田","zip_code":"3994107"}]},{"name":"中野市","divisions":[{"name":"赤岩","zip_code":"3830004"},{"name":"厚貝","zip_code":"3830066"},{"name":"穴田","zip_code":"3892103"},{"name":"新井","zip_code":"3830064"},{"name":"安源寺","zip_code":"3830052"},{"name":"一本木","zip_code":"3830012"},{"name":"岩井","zip_code":"3830001"},{"name":"岩船","zip_code":"3830041"},{"name":"牛出","zip_code":"3830055"},{"name":"江部","zip_code":"3830045"},{"name":"大俣","zip_code":"3830057"},{"name":"小館","zip_code":"3830023"},{"name":"笠原","zip_code":"3830062"},{"name":"片塩","zip_code":"3830046"},{"name":"金井","zip_code":"3830008"},{"name":"上今井","zip_code":"3892102"},{"name":"草間","zip_code":"3830053"},{"name":"栗林","zip_code":"3830056"},{"name":"越","zip_code":"3830005"},{"name":"小田中","zip_code":"3830037"},{"name":"桜沢","zip_code":"3830044"},{"name":"更科","zip_code":"3830032"},{"name":"篠井","zip_code":"3830035"},{"name":"新野","zip_code":"3830034"},{"name":"新保","zip_code":"3830036"},{"name":"諏訪町","zip_code":"3830014"},{"name":"田上","zip_code":"3892371"},{"name":"竹原","zip_code":"3830007"},{"name":"立ケ花","zip_code":"3830054"},{"name":"田麦","zip_code":"3830065"},{"name":"中央","zip_code":"3830022"},{"name":"豊津","zip_code":"3892101"},{"name":"永江","zip_code":"3892104"},{"name":"中野","zip_code":"3830013"},{"name":"七瀬","zip_code":"3830051"},{"name":"南宮","zip_code":"3830031"},{"name":"西","zip_code":"3830021"},{"name":"西条","zip_code":"3830042"},{"name":"東山","zip_code":"3830024"},{"name":"深沢","zip_code":"3830006"},{"name":"壁田","zip_code":"3830061"},{"name":"間長瀬","zip_code":"3830063"},{"name":"間山","zip_code":"3830033"},{"name":"三ツ和","zip_code":"3830043"},{"name":"三好町","zip_code":"3830025"},{"name":"柳沢","zip_code":"3830003"},{"name":"吉田","zip_code":"3830015"},{"name":"若宮","zip_code":"3830011"}]},{"name":"大町市","divisions":[{"name":"大町","zip_code":"3980002"},{"name":"平","zip_code":"3980001"},{"name":"常盤","zip_code":"3980004"},{"name":"美麻","zip_code":"3999101"},{"name":"八坂","zip_code":"3997301"},{"name":"八坂菖蒲","zip_code":"3997302"},{"name":"社","zip_code":"3980003"}]},{"name":"飯山市","divisions":[{"name":"旭","zip_code":"3892251"},{"name":"飯山","zip_code":"3892253"},{"name":"一山","zip_code":"3892602"},{"name":"大池","zip_code":"3892415"},{"name":"木島","zip_code":"3892234"},{"name":"小佐原","zip_code":"3892252"},{"name":"寿","zip_code":"3892418"},{"name":"坂井","zip_code":"3892235"},{"name":"静間","zip_code":"3892255"},{"name":"下木島","zip_code":"3892232"},{"name":"其綿","zip_code":"3892242"},{"name":"照岡","zip_code":"3892601"},{"name":"照里","zip_code":"3892413"},{"name":"天神堂","zip_code":"3892231"},{"name":"常郷","zip_code":"3892412"},{"name":"常盤","zip_code":"3892414"},{"name":"富倉","zip_code":"3892258"},{"name":"豊田","zip_code":"3892411"},{"name":"中曽根","zip_code":"3892417"},{"name":"野坂田","zip_code":"3892233"},{"name":"蓮","zip_code":"3892256"},{"name":"斑尾高原","zip_code":"3892257"},{"name":"瑞穂","zip_code":"3892322"},{"name":"瑞穂豊","zip_code":"3892321"},{"name":"緑","zip_code":"3892416"},{"name":"南町","zip_code":"3892254"},{"name":"安田","zip_code":"3892244"},{"name":"山岸","zip_code":"3892241"},{"name":"吉","zip_code":"3892243"}]},{"name":"茅野市","divisions":[{"name":"泉野","zip_code":"3910214"},{"name":"金沢","zip_code":"3910012"},{"name":"北山","zip_code":"3910212"},{"name":"湖東","zip_code":"3910211"},{"name":"城山","zip_code":"3910004"},{"name":"玉川","zip_code":"3910011"},{"name":"ちの","zip_code":"3910001"},{"name":"塚原","zip_code":"3910002"},{"name":"豊平","zip_code":"3910213"},{"name":"中大塩","zip_code":"3910215"},{"name":"仲町","zip_code":"3910005"},{"name":"本町","zip_code":"3910003"},{"name":"宮川","zip_code":"3910013"},{"name":"米沢","zip_code":"3910216"}]},{"name":"塩尻市","divisions":[{"name":"大小屋","zip_code":"3990713"},{"name":"柿沢","zip_code":"3990722"},{"name":"片丘","zip_code":"3990071"},{"name":"金井","zip_code":"3990721"},{"name":"上西条","zip_code":"3990724"},{"name":"木曽平沢","zip_code":"3996302"},{"name":"北小野","zip_code":"3990651"},{"name":"旧塩尻","zip_code":"3990723"},{"name":"桟敷","zip_code":"3990716"},{"name":"塩尻町","zip_code":"3990712"},{"name":"下西条","zip_code":"3990726"},{"name":"洗馬","zip_code":"3996462"},{"name":"宗賀","zip_code":"3996461"},{"name":"大門七区","zip_code":"3990744"},{"name":"大門泉町","zip_code":"3990742"},{"name":"大門桔梗町","zip_code":"3990745"},{"name":"大門幸町","zip_code":"3990741"},{"name":"大門田川町","zip_code":"3990743"},{"name":"大門並木町","zip_code":"3990746"},{"name":"大門一番町","zip_code":"3990736"},{"name":"大門二番町","zip_code":"3990735"},{"name":"大門三番町","zip_code":"3990733"},{"name":"大門四番町","zip_code":"3990734"},{"name":"大門五番町","zip_code":"3990732"},{"name":"大門六番町","zip_code":"3990731"},{"name":"大門七番町","zip_code":"3990738"},{"name":"大門八番町","zip_code":"3990737"},{"name":"大門","zip_code":"3990744"},{"name":"中西条","zip_code":"3990725"},{"name":"長畝","zip_code":"3990715"},{"name":"奈良井","zip_code":"3996303"},{"name":"贄川","zip_code":"3996301"},{"name":"広丘堅石","zip_code":"3990705"},{"name":"広丘郷原","zip_code":"3990704"},{"name":"広丘高出","zip_code":"3990703"},{"name":"広丘野村","zip_code":"3990702"},{"name":"広丘原新田","zip_code":"3990706"},{"name":"広丘吉田","zip_code":"3990701"},{"name":"堀ノ内","zip_code":"3990714"},{"name":"みどり湖","zip_code":"3990727"},{"name":"峰原","zip_code":"3990728"}]},{"name":"佐久市","divisions":[{"name":"跡部","zip_code":"3850054"},{"name":"新子田","zip_code":"3850007"},{"name":"今井","zip_code":"3850015"},{"name":"入澤","zip_code":"3840621"},{"name":"岩村田","zip_code":"3850022"},{"name":"岩村田北","zip_code":"3850023"},{"name":"印内","zip_code":"3842201"},{"name":"臼田","zip_code":"3840301"},{"name":"内山","zip_code":"3850031"},{"name":"大沢","zip_code":"3850045"},{"name":"太田部","zip_code":"3850033"},{"name":"小田井","zip_code":"3850009"},{"name":"鍛冶屋","zip_code":"3850041"},{"name":"春日","zip_code":"3842205"},{"name":"勝間","zip_code":"3840302"},{"name":"上小田切","zip_code":"3840306"},{"name":"上平尾","zip_code":"3850002"},{"name":"北川","zip_code":"3840304"},{"name":"協和","zip_code":"3842204"},{"name":"清川","zip_code":"3840411"},{"name":"桑山","zip_code":"3842101"},{"name":"甲","zip_code":"3842104"},{"name":"香坂","zip_code":"3850005"},{"name":"小宮山","zip_code":"3850047"},{"name":"佐久平駅東","zip_code":"3850028"},{"name":"佐久平駅南","zip_code":"3850029"},{"name":"佐久平駅北","zip_code":"3850027"},{"name":"桜井","zip_code":"3850056"},{"name":"猿久保","zip_code":"3850011"},{"name":"塩名田","zip_code":"3842102"},{"name":"志賀","zip_code":"3850006"},{"name":"下小田切","zip_code":"3840303"},{"name":"下越","zip_code":"3840414"},{"name":"下平尾","zip_code":"3850003"},{"name":"瀬戸","zip_code":"3850035"},{"name":"高柳","zip_code":"3850042"},{"name":"田口","zip_code":"3840412"},{"name":"塚原","zip_code":"3850025"},{"name":"常田","zip_code":"3850026"},{"name":"常和","zip_code":"3850032"},{"name":"伴野","zip_code":"3850061"},{"name":"取出町","zip_code":"3850043"},{"name":"中小田切","zip_code":"3840305"},{"name":"中込","zip_code":"3850051"},{"name":"長土呂","zip_code":"3850021"},{"name":"鳴瀬","zip_code":"3850016"},{"name":"根岸","zip_code":"3850062"},{"name":"根々井","zip_code":"3850012"},{"name":"野沢","zip_code":"3850053"},{"name":"原","zip_code":"3850052"},{"name":"東立科","zip_code":"3850063"},{"name":"平賀","zip_code":"3850034"},{"name":"平塚","zip_code":"3850024"},{"name":"平林","zip_code":"3840622"},{"name":"布施","zip_code":"3842203"},{"name":"本新町","zip_code":"3850044"},{"name":"前山","zip_code":"3850046"},{"name":"三河田","zip_code":"3850014"},{"name":"三塚","zip_code":"3850055"},{"name":"三分","zip_code":"3840413"},{"name":"御馬寄","zip_code":"3842103"},{"name":"茂田井","zip_code":"3842206"},{"name":"望月","zip_code":"3842202"},{"name":"矢嶋","zip_code":"3842105"},{"name":"安原","zip_code":"3850004"},{"name":"八幡","zip_code":"3842106"},{"name":"湯原","zip_code":"3840307"},{"name":"横根","zip_code":"3850001"},{"name":"横和","zip_code":"3850013"},{"name":"蓬田","zip_code":"3842107"}]},{"name":"千曲市","divisions":[{"name":"雨宮","zip_code":"3870001"},{"name":"新山","zip_code":"3890823"},{"name":"粟佐","zip_code":"3870006"},{"name":"生萱","zip_code":"3870003"},{"name":"磯部","zip_code":"3890806"},{"name":"稲荷山","zip_code":"3870021"},{"name":"鋳物師屋","zip_code":"3870015"},{"name":"内川","zip_code":"3890802"},{"name":"打沢","zip_code":"3870014"},{"name":"小島","zip_code":"3870013"},{"name":"上徳間","zip_code":"3890805"},{"name":"上山田","zip_code":"3890822"},{"name":"上山田温泉","zip_code":"3890821"},{"name":"杭瀬下","zip_code":"3870011"},{"name":"倉科","zip_code":"3870004"},{"name":"桑原","zip_code":"3870024"},{"name":"小船山","zip_code":"3890801"},{"name":"桜堂","zip_code":"3870012"},{"name":"寂蒔","zip_code":"3870016"},{"name":"新田","zip_code":"3870018"},{"name":"須坂","zip_code":"3890811"},{"name":"千本柳","zip_code":"3890803"},{"name":"力石","zip_code":"3890824"},{"name":"土口","zip_code":"3870002"},{"name":"戸倉","zip_code":"3890804"},{"name":"戸倉温泉","zip_code":"3890807"},{"name":"中","zip_code":"3870017"},{"name":"野高場","zip_code":"3870022"},{"name":"羽尾","zip_code":"3890812"},{"name":"森","zip_code":"3870005"},{"name":"屋代","zip_code":"3870007"},{"name":"八幡","zip_code":"3870023"},{"name":"若宮","zip_code":"3890813"}]},{"name":"東御市","divisions":[{"name":"県","zip_code":"3890517"},{"name":"新屋","zip_code":"3890503"},{"name":"大日向","zip_code":"3890404"},{"name":"海善寺","zip_code":"3890504"},{"name":"加沢","zip_code":"3890514"},{"name":"和","zip_code":"3890505"},{"name":"鞍掛","zip_code":"3890502"},{"name":"塩川","zip_code":"3890519"},{"name":"滋野","zip_code":"3890513"},{"name":"島川原","zip_code":"3890401"},{"name":"下之城","zip_code":"3890405"},{"name":"田中","zip_code":"3890516"},{"name":"常田","zip_code":"3890515"},{"name":"布下","zip_code":"3890402"},{"name":"祢津","zip_code":"3890506"},{"name":"羽毛山","zip_code":"3890407"},{"name":"新張","zip_code":"3890501"},{"name":"御牧原","zip_code":"3890403"},{"name":"本海野","zip_code":"3890518"},{"name":"八重原","zip_code":"3890406"}]},{"name":"安曇野市","divisions":[{"name":"明科中川手","zip_code":"3997102"},{"name":"明科七貴","zip_code":"3997104"},{"name":"明科東川手","zip_code":"3997101"},{"name":"明科光","zip_code":"3997103"},{"name":"明科南陸郷","zip_code":"3997105"},{"name":"豊科","zip_code":"3998205"},{"name":"豊科高家","zip_code":"3998204"},{"name":"豊科田沢","zip_code":"3998203"},{"name":"豊科光","zip_code":"3998202"},{"name":"豊科南穂高","zip_code":"3998201"},{"name":"穂高","zip_code":"3998303"},{"name":"穂高有明","zip_code":"3998301"},{"name":"穂高柏原","zip_code":"3998304"},{"name":"穂高北穂高","zip_code":"3998302"},{"name":"穂高牧","zip_code":"3998305"},{"name":"堀金烏川","zip_code":"3998211"},{"name":"堀金三田","zip_code":"3998212"},{"name":"三郷小倉","zip_code":"3998103"},{"name":"三郷明盛","zip_code":"3998101"},{"name":"三郷温","zip_code":"3998102"}]},{"name":"南佐久郡小海町","divisions":[{"name":"稲子","zip_code":"3841104"},{"name":"小海","zip_code":"3841102"},{"name":"千代里","zip_code":"3841105"},{"name":"豊里","zip_code":"3841103"},{"name":"東馬流","zip_code":"3841101"}]},{"name":"南佐久郡川上村","divisions":[{"name":"秋山","zip_code":"3841403"},{"name":"梓山","zip_code":"3841402"},{"name":"居倉","zip_code":"3841404"},{"name":"大深山","zip_code":"3841405"},{"name":"川端下","zip_code":"3841401"},{"name":"御所平","zip_code":"3841407"},{"name":"原","zip_code":"3841406"},{"name":"樋沢","zip_code":"3841408"}]},{"name":"南佐久郡南牧村","divisions":[{"name":"板橋","zip_code":"3841304"},{"name":"海尻","zip_code":"3841301"},{"name":"海ノ口","zip_code":"3841302"},{"name":"野辺山","zip_code":"3841305"},{"name":"平沢","zip_code":"3841306"},{"name":"広瀬","zip_code":"3841303"}]},{"name":"南佐久郡南相木村","divisions":[]},{"name":"南佐久郡北相木村","divisions":[]},{"name":"南佐久郡佐久穂町","divisions":[{"name":"大日向","zip_code":"3840502"},{"name":"海瀬","zip_code":"3840503"},{"name":"上","zip_code":"3840614"},{"name":"高野町","zip_code":"3840613"},{"name":"千代里","zip_code":"3840703"},{"name":"畑","zip_code":"3840701"},{"name":"平林","zip_code":"3840611"},{"name":"穂積","zip_code":"3840702"},{"name":"八郡","zip_code":"3840704"},{"name":"宿岩","zip_code":"3840612"},{"name":"余地","zip_code":"3840501"}]},{"name":"北佐久郡軽井沢町","divisions":[{"name":"追分","zip_code":"3890115"},{"name":"軽井沢","zip_code":"3890102"},{"name":"軽井沢東","zip_code":"3890104"},{"name":"峠町","zip_code":"3890101"},{"name":"中軽井沢","zip_code":"3890112"},{"name":"長倉","zip_code":"3890111"},{"name":"発地","zip_code":"3890113"},{"name":"茂沢","zip_code":"3890114"}]},{"name":"北佐久郡御代田町","divisions":[{"name":"面替","zip_code":"3890205"},{"name":"草越","zip_code":"3890202"},{"name":"塩野","zip_code":"3890201"},{"name":"広戸","zip_code":"3890203"},{"name":"豊昇","zip_code":"3890204"},{"name":"馬瀬口","zip_code":"3890207"},{"name":"御代田","zip_code":"3890206"},{"name":"茂沢","zip_code":"3890208"}]},{"name":"北佐久郡立科町","divisions":[{"name":"芦田","zip_code":"3842305"},{"name":"芦田八ケ野","zip_code":"3910321"},{"name":"池の平","zip_code":"3910321"},{"name":"牛鹿","zip_code":"3842308"},{"name":"宇山","zip_code":"3842306"},{"name":"桐原","zip_code":"3842301"},{"name":"塩沢","zip_code":"3842303"},{"name":"藤沢","zip_code":"3842302"},{"name":"茂田井","zip_code":"3842304"},{"name":"山部","zip_code":"3842307"}]},{"name":"小県郡青木村","divisions":[{"name":"夫神","zip_code":"3861605"},{"name":"沓掛","zip_code":"3861606"},{"name":"田沢","zip_code":"3861601"},{"name":"当郷","zip_code":"3861603"},{"name":"殿戸","zip_code":"3861604"},{"name":"奈良本","zip_code":"3861607"},{"name":"村松","zip_code":"3861602"}]},{"name":"小県郡長和町","divisions":[{"name":"大門","zip_code":"3860601"},{"name":"長久保","zip_code":"3860602"},{"name":"古町","zip_code":"3860603"},{"name":"和田","zip_code":"3860701"}]},{"name":"諏訪郡下諏訪町","divisions":[{"name":"曙町","zip_code":"3930066"},{"name":"春日町","zip_code":"3930068"},{"name":"上久保","zip_code":"3930052"},{"name":"上馬場","zip_code":"3930053"},{"name":"北四王","zip_code":"3930042"},{"name":"木の下","zip_code":"3930014"},{"name":"久保海道","zip_code":"3930026"},{"name":"五官","zip_code":"3930024"},{"name":"湖畔町","zip_code":"3930044"},{"name":"小湯の上","zip_code":"3930013"},{"name":"栄町","zip_code":"3930084"},{"name":"魁町","zip_code":"3930065"},{"name":"桜町","zip_code":"3930072"},{"name":"清水町","zip_code":"3930086"},{"name":"下屋敷","zip_code":"3930007"},{"name":"新町上","zip_code":"3930011"},{"name":"新町下","zip_code":"3930018"},{"name":"菅野町","zip_code":"3930054"},{"name":"関屋","zip_code":"3930022"},{"name":"大社通","zip_code":"3930051"},{"name":"大門","zip_code":"3930092"},{"name":"高木","zip_code":"3930033"},{"name":"高浜","zip_code":"3930034"},{"name":"武居","zip_code":"3930021"},{"name":"立町","zip_code":"3930015"},{"name":"田中町","zip_code":"3930078"},{"name":"中央通","zip_code":"3930075"},{"name":"塚田町","zip_code":"3930073"},{"name":"富ケ丘","zip_code":"3930023"},{"name":"友之町","zip_code":"3930057"},{"name":"樋橋","zip_code":"3930001"},{"name":"中汐町","zip_code":"3930064"},{"name":"仲町","zip_code":"3930071"},{"name":"西赤砂","zip_code":"3930047"},{"name":"西四王","zip_code":"3930041"},{"name":"西鷹野町","zip_code":"3930087"},{"name":"西浜","zip_code":"3930032"},{"name":"西弥生町","zip_code":"3930082"},{"name":"西豊","zip_code":"3930035"},{"name":"萩倉","zip_code":"3930003"},{"name":"花咲町","zip_code":"3930063"},{"name":"東赤砂","zip_code":"3930046"},{"name":"東四王","zip_code":"3930043"},{"name":"東鷹野町","zip_code":"3930085"},{"name":"東俣","zip_code":"3930002"},{"name":"東町上","zip_code":"3930006"},{"name":"東町中","zip_code":"3930005"},{"name":"東町下","zip_code":"3930004"},{"name":"東山田","zip_code":"3930093"},{"name":"東弥生町","zip_code":"3930083"},{"name":"東豊","zip_code":"3930031"},{"name":"平沢町","zip_code":"3930062"},{"name":"広瀬町","zip_code":"3930056"},{"name":"富士見町","zip_code":"3930055"},{"name":"星が丘","zip_code":"3930091"},{"name":"本郷","zip_code":"3930025"},{"name":"町屋敷","zip_code":"3930008"},{"name":"御田町","zip_code":"3930061"},{"name":"緑町","zip_code":"3930074"},{"name":"南四王","zip_code":"3930045"},{"name":"矢木東","zip_code":"3930067"},{"name":"矢木西","zip_code":"3930076"},{"name":"矢木町","zip_code":"3930077"},{"name":"社東町","zip_code":"3930081"},{"name":"湯田仲町","zip_code":"3930017"},{"name":"湯田町","zip_code":"3930016"},{"name":"横町","zip_code":"3930012"},{"name":"横町木の下","zip_code":"3930019"}]},{"name":"諏訪郡富士見町","divisions":[{"name":"落合","zip_code":"3990102"},{"name":"乙事","zip_code":"3990213"},{"name":"境","zip_code":"3990101"},{"name":"立沢","zip_code":"3990212"},{"name":"富士見","zip_code":"3910021"}]},{"name":"諏訪郡原村","divisions":[{"name":"大久保","zip_code":"3910101"},{"name":"柏木","zip_code":"3910105"},{"name":"上里","zip_code":"3910111"},{"name":"菖蒲沢","zip_code":"3910106"},{"name":"中新田","zip_code":"3910108"},{"name":"農場","zip_code":"3910112"},{"name":"払沢","zip_code":"3910104"},{"name":"原山","zip_code":"3910115"},{"name":"判の木","zip_code":"3910116"},{"name":"ペンション","zip_code":"3910114"},{"name":"南原","zip_code":"3910109"},{"name":"室内","zip_code":"3910107"},{"name":"やつがね","zip_code":"3910113"},{"name":"八ツ手","zip_code":"3910103"},{"name":"柳沢","zip_code":"3910102"}]},{"name":"上伊那郡辰野町","divisions":[{"name":"赤羽","zip_code":"3990424"},{"name":"伊那富","zip_code":"3990428"},{"name":"小野","zip_code":"3990601"},{"name":"上島","zip_code":"3990512"},{"name":"沢底","zip_code":"3990423"},{"name":"辰野","zip_code":"3990421"},{"name":"中央","zip_code":"3990427"},{"name":"樋口","zip_code":"3990425"},{"name":"平出","zip_code":"3990422"},{"name":"宮木","zip_code":"3990426"},{"name":"横川","zip_code":"3990511"}]},{"name":"上伊那郡箕輪町","divisions":[{"name":"中曽根","zip_code":"3994605"},{"name":"中箕輪","zip_code":"3994601"},{"name":"東箕輪","zip_code":"3994602"},{"name":"福与","zip_code":"3994604"},{"name":"三日町","zip_code":"3994603"}]},{"name":"上伊那郡飯島町","divisions":[{"name":"飯島","zip_code":"3993702"},{"name":"田切","zip_code":"3993701"},{"name":"七久保","zip_code":"3993705"},{"name":"日曽利","zip_code":"3993703"},{"name":"本郷","zip_code":"3993704"}]},{"name":"上伊那郡南箕輪村","divisions":[]},{"name":"上伊那郡中川村","divisions":[{"name":"大草","zip_code":"3993801"},{"name":"片桐","zip_code":"3993802"},{"name":"葛島","zip_code":"3993803"},{"name":"四徳","zip_code":"3993804"}]},{"name":"上伊那郡宮田村","divisions":[]},{"name":"下伊那郡松川町","divisions":[{"name":"生田","zip_code":"3993302"},{"name":"大島","zip_code":"3993304"},{"name":"上片桐","zip_code":"3993301"},{"name":"元大島","zip_code":"3993303"}]},{"name":"下伊那郡高森町","divisions":[{"name":"出原","zip_code":"3993107"},{"name":"牛牧","zip_code":"3993105"},{"name":"大島山","zip_code":"3993106"},{"name":"上市田","zip_code":"3993104"},{"name":"下市田","zip_code":"3993103"},{"name":"山吹","zip_code":"3993101"},{"name":"吉田","zip_code":"3993102"}]},{"name":"下伊那郡阿南町","divisions":[{"name":"北條","zip_code":"3991501"},{"name":"富草","zip_code":"3991505"},{"name":"新野","zip_code":"3991612"},{"name":"西條","zip_code":"3991504"},{"name":"東條","zip_code":"3991502"},{"name":"南條","zip_code":"3991503"},{"name":"和合","zip_code":"3991611"}]},{"name":"下伊那郡阿智村","divisions":[{"name":"春日","zip_code":"3950301"},{"name":"伍和","zip_code":"3950302"},{"name":"駒","zip_code":"3950305"},{"name":"駒場","zip_code":"3950303"},{"name":"清内路","zip_code":"3950401"},{"name":"智里","zip_code":"3950304"},{"name":"浪合","zip_code":"3950501"}]},{"name":"下伊那郡平谷村","divisions":[]},{"name":"下伊那郡根羽村","divisions":[]},{"name":"下伊那郡下條村","divisions":[{"name":"陽皐","zip_code":"3992102"},{"name":"睦沢","zip_code":"3992101"}]},{"name":"下伊那郡売木村","divisions":[]},{"name":"下伊那郡天龍村","divisions":[{"name":"神原","zip_code":"3991202"},{"name":"長島","zip_code":"3991203"},{"name":"平岡","zip_code":"3991201"}]},{"name":"下伊那郡泰阜村","divisions":[]},{"name":"下伊那郡喬木村","divisions":[{"name":"阿島","zip_code":"3951101"},{"name":"伊久間","zip_code":"3951108"},{"name":"氏乗","zip_code":"3951104"},{"name":"大島","zip_code":"3951103"},{"name":"大和知","zip_code":"3951105"},{"name":"小川","zip_code":"3951107"},{"name":"加々須","zip_code":"3951102"},{"name":"富田","zip_code":"3951106"}]},{"name":"下伊那郡豊丘村","divisions":[{"name":"河野","zip_code":"3993311"},{"name":"神稲","zip_code":"3993202"}]},{"name":"下伊那郡大鹿村","divisions":[{"name":"大河原","zip_code":"3993502"},{"name":"鹿塩","zip_code":"3993501"}]},{"name":"木曽郡上松町","divisions":[{"name":"上松","zip_code":"3995601"},{"name":"旭町","zip_code":"3995609"},{"name":"駅前通り","zip_code":"3995603"},{"name":"小川","zip_code":"3995607"},{"name":"荻原","zip_code":"3995608"},{"name":"栄町","zip_code":"3995605"},{"name":"正島町","zip_code":"3995604"},{"name":"本町通り","zip_code":"3995602"},{"name":"緑町","zip_code":"3995606"}]},{"name":"木曽郡南木曽町","divisions":[{"name":"吾妻","zip_code":"3995302"},{"name":"田立","zip_code":"3995303"},{"name":"読書","zip_code":"3995301"}]},{"name":"木曽郡木祖村","divisions":[{"name":"小木曽","zip_code":"3996203"},{"name":"菅","zip_code":"3996202"},{"name":"薮原","zip_code":"3996201"}]},{"name":"木曽郡王滝村","divisions":[]},{"name":"木曽郡大桑村","divisions":[{"name":"須原","zip_code":"3995502"},{"name":"殿","zip_code":"3995501"},{"name":"長野","zip_code":"3995503"},{"name":"野尻","zip_code":"3995504"}]},{"name":"木曽郡木曽町","divisions":[{"name":"開田高原末川","zip_code":"3970301"},{"name":"開田高原西野","zip_code":"3970302"},{"name":"新開","zip_code":"3970002"},{"name":"新開福","zip_code":"3970003"},{"name":"日義","zip_code":"3996101"},{"name":"福島","zip_code":"3970001"},{"name":"三岳","zip_code":"3970101"}]},{"name":"東筑摩郡麻績村","divisions":[{"name":"麻","zip_code":"3997701"},{"name":"日","zip_code":"3997702"}]},{"name":"東筑摩郡生坂村","divisions":[{"name":"北陸郷","zip_code":"3997202"},{"name":"東広津","zip_code":"3997311"}]},{"name":"東筑摩郡山形村","divisions":[]},{"name":"東筑摩郡朝日村","divisions":[{"name":"小野沢","zip_code":"3901102"},{"name":"古見","zip_code":"3901104"},{"name":"西洗馬","zip_code":"3901101"},{"name":"針尾","zip_code":"3901103"}]},{"name":"東筑摩郡筑北村","divisions":[{"name":"大沢新田","zip_code":"3997503"},{"name":"坂井","zip_code":"3997711"},{"name":"坂北","zip_code":"3997601"},{"name":"西条","zip_code":"3997501"},{"name":"東条","zip_code":"3997502"},{"name":"乱橋","zip_code":"3997504"}]},{"name":"北安曇郡池田町","divisions":[{"name":"会染","zip_code":"3998602"},{"name":"池田","zip_code":"3998601"},{"name":"中鵜","zip_code":"3998603"},{"name":"広津","zip_code":"3998604"},{"name":"陸郷","zip_code":"3998605"}]},{"name":"北安曇郡松川村","divisions":[]},{"name":"北安曇郡白馬村","divisions":[{"name":"神城","zip_code":"3999211"},{"name":"北城","zip_code":"3999301"}]},{"name":"北安曇郡小谷村","divisions":[{"name":"北小谷","zip_code":"3999601"},{"name":"千国乙","zip_code":"3999422"},{"name":"中小谷丙","zip_code":"3999421"},{"name":"中土","zip_code":"3999511"}]},{"name":"埴科郡坂城町","divisions":[{"name":"網掛","zip_code":"3890604"},{"name":"上平","zip_code":"3890605"},{"name":"上五明","zip_code":"3890606"},{"name":"坂城","zip_code":"3890601"},{"name":"中之条","zip_code":"3890602"},{"name":"南条","zip_code":"3890603"}]},{"name":"上高井郡小布施町","divisions":[{"name":"飯田","zip_code":"3810204"},{"name":"大島","zip_code":"3810203"},{"name":"押羽","zip_code":"3810207"},{"name":"小布施","zip_code":"3810201"},{"name":"雁田","zip_code":"3810211"},{"name":"北岡","zip_code":"3810206"},{"name":"山王島","zip_code":"3810205"},{"name":"都住","zip_code":"3810208"},{"name":"中松","zip_code":"3810209"},{"name":"福原","zip_code":"3810202"},{"name":"吉島","zip_code":"3810212"}]},{"name":"上高井郡高山村","divisions":[{"name":"赤和","zip_code":"3820832"},{"name":"荒井原","zip_code":"3820831"},{"name":"荻久保","zip_code":"3820815"},{"name":"久保","zip_code":"3820833"},{"name":"黒部","zip_code":"3820823"},{"name":"駒場","zip_code":"3820801"},{"name":"新堀","zip_code":"3820836"},{"name":"千本松","zip_code":"3820835"},{"name":"天神原","zip_code":"3820814"},{"name":"中原","zip_code":"3820804"},{"name":"なかひら","zip_code":"3820806"},{"name":"福井原","zip_code":"3820822"},{"name":"二ツ石","zip_code":"3820826"},{"name":"堀之内","zip_code":"3820837"},{"name":"牧","zip_code":"3820821"},{"name":"桝形","zip_code":"3820803"},{"name":"松南","zip_code":"3820827"},{"name":"松原","zip_code":"3820802"},{"name":"三郷","zip_code":"3820805"},{"name":"水中","zip_code":"3820834"},{"name":"緑ケ丘","zip_code":"3820824"},{"name":"宮関","zip_code":"3820811"},{"name":"紫","zip_code":"3820825"},{"name":"山田温泉","zip_code":"3820816"},{"name":"山田牧場","zip_code":"3820817"},{"name":"蕨平","zip_code":"3820813"}]},{"name":"下高井郡山ノ内町","divisions":[{"name":"佐野","zip_code":"3810402"},{"name":"寒沢","zip_code":"3810403"},{"name":"戸狩","zip_code":"3810404"},{"name":"平穏","zip_code":"3810401"},{"name":"夜間瀬","zip_code":"3810405"}]},{"name":"下高井郡木島平村","divisions":[{"name":"往郷","zip_code":"3892302"},{"name":"上木島","zip_code":"3892303"},{"name":"穂高","zip_code":"3892301"}]},{"name":"下高井郡野沢温泉村","divisions":[{"name":"坪山","zip_code":"3892501"},{"name":"豊郷","zip_code":"3892502"},{"name":"七ケ巻","zip_code":"3892612"},{"name":"東大滝","zip_code":"3892611"},{"name":"平林","zip_code":"3892614"},{"name":"前坂","zip_code":"3892503"},{"name":"虫生","zip_code":"3892613"}]},{"name":"上水内郡信濃町","divisions":[{"name":"荒瀬原","zip_code":"3891311"},{"name":"大井","zip_code":"3891316"},{"name":"柏原","zip_code":"3891305"},{"name":"神山国際村","zip_code":"3891304"},{"name":"熊坂","zip_code":"3891301"},{"name":"富濃","zip_code":"3891312"},{"name":"野尻","zip_code":"3891303"},{"name":"平岡","zip_code":"3891315"},{"name":"古間","zip_code":"3891313"},{"name":"古海","zip_code":"3891302"},{"name":"穂波","zip_code":"3891314"}]},{"name":"上水内郡小川村","divisions":[{"name":"稲丘","zip_code":"3813301"},{"name":"小根山","zip_code":"3813303"},{"name":"瀬戸川","zip_code":"3813304"},{"name":"高府","zip_code":"3813302"}]},{"name":"上水内郡飯綱町","divisions":[{"name":"赤塩","zip_code":"3891203"},{"name":"芋川","zip_code":"3891201"},{"name":"川上","zip_code":"3891226"},{"name":"川谷","zip_code":"3891205"},{"name":"倉井","zip_code":"3891204"},{"name":"黒川","zip_code":"3891214"},{"name":"高坂","zip_code":"3891227"},{"name":"小玉","zip_code":"3891215"},{"name":"坂口","zip_code":"3891225"},{"name":"地蔵久保","zip_code":"3891224"},{"name":"袖之山","zip_code":"3891223"},{"name":"豊野","zip_code":"3891212"},{"name":"東柏原","zip_code":"3891202"},{"name":"平出","zip_code":"3891213"},{"name":"普光寺","zip_code":"3891206"},{"name":"古町","zip_code":"3891221"},{"name":"牟礼","zip_code":"3891211"},{"name":"柳里","zip_code":"3891222"}]},{"name":"下水内郡栄村","divisions":[{"name":"堺","zip_code":"9498321"},{"name":"豊栄","zip_code":"3892701"},{"name":"北信","zip_code":"3892702"}]}]}