{"name":"岐阜県","cities":[{"name":"岐阜市","divisions":[{"name":"藍川町","zip_code":"5008103"},{"name":"間之町","zip_code":"5008083"},{"name":"青柳町","zip_code":"5008881"},{"name":"茜部大川","zip_code":"5008282"},{"name":"茜部大野","zip_code":"5008261"},{"name":"茜部新所","zip_code":"5008263"},{"name":"茜部神清寺","zip_code":"5008265"},{"name":"茜部辰新","zip_code":"5008264"},{"name":"茜部寺屋敷","zip_code":"5008267"},{"name":"茜部中島","zip_code":"5008269"},{"name":"茜部野瀬","zip_code":"5008283"},{"name":"茜部菱野","zip_code":"5008268"},{"name":"茜部本郷","zip_code":"5008262"},{"name":"茜町","zip_code":"5008284"},{"name":"県町","zip_code":"5008176"},{"name":"秋沢","zip_code":"5011182"},{"name":"秋津町","zip_code":"5008067"},{"name":"芥見","zip_code":"5013134"},{"name":"芥見大退","zip_code":"5013111"},{"name":"芥見大船","zip_code":"5013114"},{"name":"芥見海戸山","zip_code":"5013136"},{"name":"芥見影山","zip_code":"5013143"},{"name":"芥見清水","zip_code":"5013135"},{"name":"芥見嵯峨","zip_code":"5013146"},{"name":"芥見大般若","zip_code":"5013144"},{"name":"芥見中野畑","zip_code":"5013141"},{"name":"芥見長山","zip_code":"5013132"},{"name":"芥見野畑","zip_code":"5013145"},{"name":"芥見東山","zip_code":"5013112"},{"name":"芥見堀田","zip_code":"5013147"},{"name":"芥見町屋","zip_code":"5013116"},{"name":"芥見南山","zip_code":"5013133"},{"name":"曙町","zip_code":"5008148"},{"name":"朝霧町","zip_code":"5008255"},{"name":"朝日町","zip_code":"5008109"},{"name":"安食","zip_code":"5011109"},{"name":"安食志良古","zip_code":"5011108"},{"name":"安宅町","zip_code":"5008411"},{"name":"吾妻町","zip_code":"5008883"},{"name":"天池","zip_code":"5008221"},{"name":"雨踊町","zip_code":"5008337"},{"name":"尼ケ崎町","zip_code":"5008132"},{"name":"荒川町","zip_code":"5008449"},{"name":"安良田町","zip_code":"5008401"},{"name":"粟野","zip_code":"5020001"},{"name":"粟野東","zip_code":"5020002"},{"name":"粟野西","zip_code":"5020006"},{"name":"粟野台","zip_code":"5020007"},{"name":"庵町","zip_code":"5008139"},{"name":"生田町","zip_code":"5008405"},{"name":"池田町","zip_code":"5008884"},{"name":"池ノ上町","zip_code":"5020906"},{"name":"石谷","zip_code":"5011106"},{"name":"石切町","zip_code":"5008437"},{"name":"石長町","zip_code":"5008153"},{"name":"石原","zip_code":"5012535"},{"name":"泉町","zip_code":"5008073"},{"name":"市ノ坪町","zip_code":"5008155"},{"name":"市橋","zip_code":"5008381"},{"name":"一番町","zip_code":"5008183"},{"name":"一松道","zip_code":"5008403"},{"name":"伊奈波通","zip_code":"5008043"},{"name":"稲荷町","zip_code":"5008336"},{"name":"稲荷山","zip_code":"5008489"},{"name":"茨木町","zip_code":"5008161"},{"name":"伊吹町","zip_code":"5008077"},{"name":"今川","zip_code":"5011114"},{"name":"今川町","zip_code":"5008814"},{"name":"今小町","zip_code":"5008069"},{"name":"今沢町","zip_code":"5008822"},{"name":"今町","zip_code":"5008023"},{"name":"今嶺","zip_code":"5008388"},{"name":"芋島","zip_code":"5008234"},{"name":"入舟町","zip_code":"5008152"},{"name":"岩井","zip_code":"5013101"},{"name":"岩井万場","zip_code":"5013102"},{"name":"岩栄町","zip_code":"5008134"},{"name":"岩倉町","zip_code":"5020844"},{"name":"岩崎","zip_code":"5020005"},{"name":"岩田東","zip_code":"5013154"},{"name":"岩田西","zip_code":"5013156"},{"name":"岩滝東","zip_code":"5013151"},{"name":"岩滝西","zip_code":"5013152"},{"name":"岩田坂","zip_code":"5013155"},{"name":"岩地","zip_code":"5008225"},{"name":"岩利","zip_code":"5011102"},{"name":"魚屋町","zip_code":"5008033"},{"name":"鵜川町","zip_code":"5020837"},{"name":"鶯谷","zip_code":"5008052"},{"name":"鶯谷町","zip_code":"5008053"},{"name":"宇佐","zip_code":"5008368"},{"name":"宇佐東町","zip_code":"5008366"},{"name":"宇佐南","zip_code":"5008367"},{"name":"打越","zip_code":"5020802"},{"name":"靱屋町","zip_code":"5008041"},{"name":"梅ケ枝町","zip_code":"5008818"},{"name":"梅河町","zip_code":"5008815"},{"name":"梅園町","zip_code":"5008371"},{"name":"雲竜町","zip_code":"5008123"},{"name":"栄扇町","zip_code":"5008059"},{"name":"永楽町","zip_code":"5008133"},{"name":"江川町","zip_code":"5008823"},{"name":"江口","zip_code":"5020915"},{"name":"江崎","zip_code":"5010117"},{"name":"江崎北","zip_code":"5010121"},{"name":"江崎南","zip_code":"5010122"},{"name":"江添","zip_code":"5008383"},{"name":"戎町","zip_code":"5008149"},{"name":"老松町","zip_code":"5008165"},{"name":"大池町","zip_code":"5008373"},{"name":"大蔵台","zip_code":"5013108"},{"name":"大倉町","zip_code":"5008447"},{"name":"大菅北","zip_code":"5010118"},{"name":"大菅南","zip_code":"5010119"},{"name":"大富町","zip_code":"5008873"},{"name":"大縄場","zip_code":"5008889"},{"name":"大洞","zip_code":"5013124"},{"name":"大洞柏台","zip_code":"5013123"},{"name":"大洞桐が丘","zip_code":"5013121"},{"name":"大洞桜台","zip_code":"5013127"},{"name":"大洞緑山","zip_code":"5013125"},{"name":"大洞紅葉が丘","zip_code":"5013122"},{"name":"大洞西","zip_code":"5013126"},{"name":"大宮町","zip_code":"5008003"},{"name":"大柳町","zip_code":"5008885"},{"name":"大脇","zip_code":"5016134"},{"name":"沖ノ橋町","zip_code":"5008305"},{"name":"奥","zip_code":"5011185"},{"name":"小熊町","zip_code":"5008061"},{"name":"御杉町","zip_code":"5008079"},{"name":"織田塚町","zip_code":"5008135"},{"name":"織田町","zip_code":"5020835"},{"name":"御浪町","zip_code":"5008181"},{"name":"雄総桜町","zip_code":"5020016"},{"name":"雄総緑町","zip_code":"5020014"},{"name":"雄総柳町","zip_code":"5020015"},{"name":"折立","zip_code":"5011132"},{"name":"鏡島","zip_code":"5010111"},{"name":"鏡島市場","zip_code":"5010113"},{"name":"鏡島精華","zip_code":"5010112"},{"name":"鏡島町","zip_code":"5010111"},{"name":"鏡島西","zip_code":"5010123"},{"name":"鏡島南","zip_code":"5010115"},{"name":"鏡岩","zip_code":"5008001"},{"name":"鍵屋中町","zip_code":"5008313"},{"name":"鍵屋東町","zip_code":"5008306"},{"name":"鍵屋西町","zip_code":"5008314"},{"name":"学園町","zip_code":"5020841"},{"name":"神楽町","zip_code":"5008443"},{"name":"花月町","zip_code":"5008128"},{"name":"水主町","zip_code":"5008259"},{"name":"鹿島町","zip_code":"5008323"},{"name":"粕森町","zip_code":"5008102"},{"name":"梶川町","zip_code":"5008017"},{"name":"春日町","zip_code":"5008303"},{"name":"霞町","zip_code":"5008186"},{"name":"香取町","zip_code":"5008322"},{"name":"門屋","zip_code":"5012521"},{"name":"門屋門","zip_code":"5012528"},{"name":"門屋勢引","zip_code":"5012527"},{"name":"門屋野崎","zip_code":"5012526"},{"name":"門屋溝上","zip_code":"5012522"},{"name":"金岡町","zip_code":"5008849"},{"name":"金園町","zip_code":"5008113"},{"name":"金屋町","zip_code":"5008065"},{"name":"金屋横町","zip_code":"5008063"},{"name":"加野","zip_code":"5013107"},{"name":"加納青藤町","zip_code":"5008457"},{"name":"加納朝日町","zip_code":"5008452"},{"name":"加納愛宕町","zip_code":"5008476"},{"name":"加納安良町","zip_code":"5008422"},{"name":"加納梅田町","zip_code":"5008279"},{"name":"加納大石町","zip_code":"5008427"},{"name":"加納大手町","zip_code":"5008482"},{"name":"加納奥平町","zip_code":"5008272"},{"name":"加納上本町","zip_code":"5008451"},{"name":"加納北広江町","zip_code":"5008419"},{"name":"加納清田町","zip_code":"5008417"},{"name":"加納清野町","zip_code":"5008472"},{"name":"加納沓井町","zip_code":"5008481"},{"name":"加納黒木町","zip_code":"5008461"},{"name":"加納寿町","zip_code":"5008465"},{"name":"加納坂井町","zip_code":"5008475"},{"name":"加納栄町通","zip_code":"5008455"},{"name":"加納桜田町","zip_code":"5008468"},{"name":"加納桜道","zip_code":"5008428"},{"name":"加納清水町","zip_code":"5008429"},{"name":"加納新本町","zip_code":"5008463"},{"name":"加納新町","zip_code":"5008425"},{"name":"加納神明町","zip_code":"5008462"},{"name":"加納新柳町","zip_code":"5008421"},{"name":"加納城南通","zip_code":"5008486"},{"name":"加納鷹匠町","zip_code":"5008274"},{"name":"加納高柳町","zip_code":"5008459"},{"name":"加納立花町","zip_code":"5008277"},{"name":"加納大黒町","zip_code":"5008456"},{"name":"加納鉄砲町","zip_code":"5008453"},{"name":"加納天神町","zip_code":"5008473"},{"name":"加納東陽町","zip_code":"5008413"},{"name":"加納徳川町","zip_code":"5008416"},{"name":"加納中広江町","zip_code":"5008415"},{"name":"加納永井町","zip_code":"5008454"},{"name":"加納長刀堀","zip_code":"5008487"},{"name":"加納南陽町","zip_code":"5008276"},{"name":"加納西広江町","zip_code":"5008418"},{"name":"加納西丸町","zip_code":"5008488"},{"name":"加納西山町","zip_code":"5008278"},{"name":"加納二之丸","zip_code":"5008484"},{"name":"加納八幡町","zip_code":"5008431"},{"name":"加納花ノ木町","zip_code":"5008275"},{"name":"加納東広江町","zip_code":"5008414"},{"name":"加納東丸町","zip_code":"5008483"},{"name":"加納菱野町","zip_code":"5008479"},{"name":"加納伏見町","zip_code":"5008478"},{"name":"加納富士町","zip_code":"5008471"},{"name":"加納舟田町","zip_code":"5008252"},{"name":"加納堀田町","zip_code":"5008271"},{"name":"加納本石町","zip_code":"5008466"},{"name":"加納本町","zip_code":"5008474"},{"name":"加納前田町","zip_code":"5008464"},{"name":"加納丸之内","zip_code":"5008485"},{"name":"加納三笠町","zip_code":"5008467"},{"name":"加納御車町","zip_code":"5008251"},{"name":"加納水野町","zip_code":"5008477"},{"name":"加納南広江町","zip_code":"5008426"},{"name":"加納村松町","zip_code":"5008458"},{"name":"加納柳町","zip_code":"5008424"},{"name":"加納矢場町","zip_code":"5008273"},{"name":"加納竜興町","zip_code":"5008469"},{"name":"蕪城町","zip_code":"5008839"},{"name":"上芥見","zip_code":"5013115"},{"name":"上大久和町","zip_code":"5008026"},{"name":"上太田町","zip_code":"5008068"},{"name":"上加納山","zip_code":"5008121"},{"name":"上川手","zip_code":"5008245"},{"name":"上城田寺中","zip_code":"5020862"},{"name":"上城田寺西","zip_code":"5020863"},{"name":"上城田寺東","zip_code":"5020864"},{"name":"上城田寺南","zip_code":"5020861"},{"name":"上西郷","zip_code":"5011178"},{"name":"上材木町","zip_code":"5008005"},{"name":"上尻毛","zip_code":"5011150"},{"name":"上尻毛八幡","zip_code":"5011149"},{"name":"上尻毛日吉","zip_code":"5011148"},{"name":"上新町","zip_code":"5008024"},{"name":"上竹町","zip_code":"5008057"},{"name":"上竹屋町","zip_code":"5008049"},{"name":"上茶屋町","zip_code":"5008021"},{"name":"上土居","zip_code":"5020803"},{"name":"神室町","zip_code":"5008878"},{"name":"萱場北町","zip_code":"5020938"},{"name":"萱場東町","zip_code":"5020935"},{"name":"萱場南","zip_code":"5020936"},{"name":"萱場町","zip_code":"5020937"},{"name":"華陽","zip_code":"5008404"},{"name":"川原畑","zip_code":"5010111"},{"name":"川端町","zip_code":"5008108"},{"name":"川部","zip_code":"5011151"},{"name":"神田町","zip_code":"5008833"},{"name":"祇園","zip_code":"5013131"},{"name":"菊井町","zip_code":"5008321"},{"name":"菊水町","zip_code":"5020831"},{"name":"菊地町","zip_code":"5008345"},{"name":"如月町","zip_code":"5008327"},{"name":"北一色","zip_code":"5008227"},{"name":"北鶉","zip_code":"5008287"},{"name":"北柿ケ瀬","zip_code":"5011133"},{"name":"北島","zip_code":"5020911"},{"name":"北野阿原","zip_code":"5012503"},{"name":"北野西山","zip_code":"5012519"},{"name":"北野東","zip_code":"5012512"},{"name":"北野西","zip_code":"5012518"},{"name":"北野南","zip_code":"5012516"},{"name":"北野北","zip_code":"5012511"},{"name":"北野町","zip_code":"5008807"},{"name":"北八ツ寺町","zip_code":"5008824"},{"name":"北山","zip_code":"5013113"},{"name":"木田","zip_code":"5011135"},{"name":"城田寺","zip_code":"5020859"},{"name":"木造町","zip_code":"5008086"},{"name":"祈年町","zip_code":"5008156"},{"name":"木ノ下町","zip_code":"5008154"},{"name":"木ノ本町","zip_code":"5008867"},{"name":"京町","zip_code":"5008804"},{"name":"玉姓町","zip_code":"5008846"},{"name":"清住町","zip_code":"5008178"},{"name":"切通","zip_code":"5008237"},{"name":"金華町","zip_code":"5020828"},{"name":"金宝町","zip_code":"5008847"},{"name":"金竜町","zip_code":"5008114"},{"name":"楠町","zip_code":"5020826"},{"name":"久保見町","zip_code":"5008349"},{"name":"熊野町","zip_code":"5008372"},{"name":"雲井町","zip_code":"5008145"},{"name":"蔵前","zip_code":"5008233"},{"name":"栗矢田町","zip_code":"5008174"},{"name":"黒野","zip_code":"5011131"},{"name":"黒野南","zip_code":"5011136"},{"name":"啓運町","zip_code":"5008081"},{"name":"光栄町","zip_code":"5020823"},{"name":"高岩町","zip_code":"5008107"},{"name":"光樹町","zip_code":"5008254"},{"name":"河渡","zip_code":"5010105"},{"name":"幸ノ町","zip_code":"5008409"},{"name":"光明町","zip_code":"5008868"},{"name":"向陽町","zip_code":"5008434"},{"name":"香蘭","zip_code":"5008891"},{"name":"金町","zip_code":"5008842"},{"name":"九重町","zip_code":"5008146"},{"name":"小西郷","zip_code":"5011176"},{"name":"五反田町","zip_code":"5008328"},{"name":"五坪","zip_code":"5008157"},{"name":"五坪町","zip_code":"5008157"},{"name":"琴塚","zip_code":"5008222"},{"name":"寿町","zip_code":"5008325"},{"name":"小野","zip_code":"5011174"},{"name":"此花町","zip_code":"5008333"},{"name":"木挽町","zip_code":"5008011"},{"name":"米屋町","zip_code":"5008046"},{"name":"御望","zip_code":"5011171"},{"name":"コモンヒルズ北山","zip_code":"5013117"},{"name":"小柳町","zip_code":"5008832"},{"name":"権現町","zip_code":"5008379"},{"name":"近島","zip_code":"5020908"},{"name":"西後町","zip_code":"5020021"},{"name":"境川","zip_code":"5008266"},{"name":"坂井町","zip_code":"5008857"},{"name":"栄新町","zip_code":"5020849"},{"name":"栄枝町","zip_code":"5008872"},{"name":"鷺山","zip_code":"5020851"},{"name":"鷺山北町","zip_code":"5020872"},{"name":"鷺山清洲町","zip_code":"5020853"},{"name":"鷺山新町","zip_code":"5020871"},{"name":"鷺山緑ケ丘","zip_code":"5020855"},{"name":"鷺山緑ケ丘新町","zip_code":"5020856"},{"name":"鷺山向井町","zip_code":"5020854"},{"name":"鷺山東","zip_code":"5020850"},{"name":"佐久間町","zip_code":"5008803"},{"name":"桜木町","zip_code":"5008319"},{"name":"桜通","zip_code":"5008318"},{"name":"笹土居町","zip_code":"5008055"},{"name":"早苗町","zip_code":"5008324"},{"name":"佐野","zip_code":"5011101"},{"name":"三番町","zip_code":"5008189"},{"name":"塩町","zip_code":"5008127"},{"name":"敷島町","zip_code":"5008369"},{"name":"静が丘町","zip_code":"5013153"},{"name":"尻毛","zip_code":"5011147"},{"name":"渋谷町","zip_code":"5008423"},{"name":"島栄町","zip_code":"5020904"},{"name":"島新町","zip_code":"5020907"},{"name":"島田","zip_code":"5020917"},{"name":"島田中町","zip_code":"5008316"},{"name":"島田東町","zip_code":"5008315"},{"name":"島田西町","zip_code":"5008317"},{"name":"島原町","zip_code":"5008438"},{"name":"下鵜飼","zip_code":"5011172"},{"name":"下大桑町","zip_code":"5008039"},{"name":"下太田町","zip_code":"5008066"},{"name":"下川手","zip_code":"5008246"},{"name":"下西郷","zip_code":"5011175"},{"name":"下尻毛","zip_code":"5011146"},{"name":"下新町","zip_code":"5008037"},{"name":"下竹町","zip_code":"5008056"},{"name":"下茶屋町","zip_code":"5008022"},{"name":"下土居","zip_code":"5020858"},{"name":"下奈良","zip_code":"5008385"},{"name":"松鴻町","zip_code":"5008412"},{"name":"城東通","zip_code":"5008441"},{"name":"正法寺町","zip_code":"5008442"},{"name":"城望町","zip_code":"5008125"},{"name":"昭和町","zip_code":"5008865"},{"name":"白木町","zip_code":"5008085"},{"name":"白菊町","zip_code":"5020909"},{"name":"銀町","zip_code":"5008874"},{"name":"城前町","zip_code":"5020023"},{"name":"甚衛町","zip_code":"5008036"},{"name":"新興町","zip_code":"5008375"},{"name":"新栄町","zip_code":"5008855"},{"name":"新桜町","zip_code":"5008045"},{"name":"神明町","zip_code":"5008848"},{"name":"瑞雲町","zip_code":"5008143"},{"name":"末広町","zip_code":"5008042"},{"name":"須賀","zip_code":"5008289"},{"name":"菅原町","zip_code":"5008816"},{"name":"杉山町","zip_code":"5008829"},{"name":"菅生","zip_code":"5020914"},{"name":"住田町","zip_code":"5008843"},{"name":"住ノ江町","zip_code":"5008408"},{"name":"住吉町","zip_code":"5008826"},{"name":"駿河山","zip_code":"5008051"},{"name":"諏訪山","zip_code":"5013142"},{"name":"清","zip_code":"5008346"},{"name":"清本町","zip_code":"5008351"},{"name":"千石町","zip_code":"5008819"},{"name":"千手堂中町","zip_code":"5008862"},{"name":"千手堂南町","zip_code":"5008863"},{"name":"千手堂北町","zip_code":"5008861"},{"name":"千畳敷","zip_code":"5008004"},{"name":"早田","zip_code":"5008319"},{"name":"早田大通","zip_code":"5020902"},{"name":"早田栄町","zip_code":"5020847"},{"name":"早田東町","zip_code":"5020843"},{"name":"早田本町","zip_code":"5020848"},{"name":"早田町","zip_code":"5020845"},{"name":"曽我屋","zip_code":"5010101"},{"name":"大学西","zip_code":"5011113"},{"name":"大学北","zip_code":"5011111"},{"name":"大工町","zip_code":"5008038"},{"name":"大黒町","zip_code":"5008151"},{"name":"大正町","zip_code":"5008871"},{"name":"大福町","zip_code":"5020934"},{"name":"大仏町","zip_code":"5008018"},{"name":"太平町","zip_code":"5020821"},{"name":"大宝町","zip_code":"5008851"},{"name":"大門町","zip_code":"5008054"},{"name":"高尾町","zip_code":"5008162"},{"name":"高河原","zip_code":"5016131"},{"name":"高砂町","zip_code":"5008407"},{"name":"高田","zip_code":"5008224"},{"name":"高野町","zip_code":"5008841"},{"name":"鷹見町","zip_code":"5008821"},{"name":"高森町","zip_code":"5008171"},{"name":"多賀町","zip_code":"5008101"},{"name":"田神","zip_code":"5008158"},{"name":"田神町","zip_code":"5008159"},{"name":"田生越町","zip_code":"5008173"},{"name":"竜田町","zip_code":"5008402"},{"name":"田端町","zip_code":"5008115"},{"name":"玉井町","zip_code":"5008008"},{"name":"玉宮町","zip_code":"5008835"},{"name":"玉森町","zip_code":"5008837"},{"name":"太郎丸","zip_code":"5012577"},{"name":"太郎丸樫木","zip_code":"5012536"},{"name":"太郎丸北浦","zip_code":"5012574"},{"name":"太郎丸北郷","zip_code":"5012572"},{"name":"太郎丸新屋敷","zip_code":"5012576"},{"name":"太郎丸諏訪","zip_code":"5012573"},{"name":"太郎丸知之道","zip_code":"5012579"},{"name":"太郎丸中島","zip_code":"5012575"},{"name":"太郎丸野田","zip_code":"5012578"},{"name":"太郎丸向良","zip_code":"5012571"},{"name":"旦島","zip_code":"5020926"},{"name":"旦島中","zip_code":"5020928"},{"name":"旦島中町","zip_code":"5020925"},{"name":"旦島西町","zip_code":"5020927"},{"name":"旦島宮町","zip_code":"5020924"},{"name":"千鳥町","zip_code":"5008339"},{"name":"茶屋新田","zip_code":"5016135"},{"name":"忠節三丁目南町","zip_code":"5008805"},{"name":"忠節町","zip_code":"5008801"},{"name":"長者町","zip_code":"5008311"},{"name":"千代田町","zip_code":"5020832"},{"name":"司町","zip_code":"5008076"},{"name":"月丘町","zip_code":"5008141"},{"name":"月ノ会町","zip_code":"5008131"},{"name":"津島町","zip_code":"5020846"},{"name":"椿洞","zip_code":"5020801"},{"name":"爪","zip_code":"5008363"},{"name":"鶴田町","zip_code":"5008164"},{"name":"鶴舞町","zip_code":"5008163"},{"name":"鶴見町","zip_code":"5008129"},{"name":"堤外","zip_code":"5008006"},{"name":"手力町","zip_code":"5008236"},{"name":"徹明通","zip_code":"5008879"},{"name":"出屋敷","zip_code":"5012501"},{"name":"寺島町","zip_code":"5008866"},{"name":"寺田","zip_code":"5010104"},{"name":"寺町","zip_code":"5008118"},{"name":"天神町","zip_code":"5008806"},{"name":"天王町","zip_code":"5008166"},{"name":"問屋町","zip_code":"5008845"},{"name":"東栄町","zip_code":"5008144"},{"name":"東興町","zip_code":"5008137"},{"name":"道三町","zip_code":"5020816"},{"name":"常盤町","zip_code":"5008058"},{"name":"殿町","zip_code":"5008116"},{"name":"富沢町","zip_code":"5008376"},{"name":"外山","zip_code":"5011186"},{"name":"豊岡町","zip_code":"5008374"},{"name":"中","zip_code":"5011173"},{"name":"中鶉","zip_code":"5008288"},{"name":"中大桑町","zip_code":"5008027"},{"name":"中川原","zip_code":"5020013"},{"name":"中西郷","zip_code":"5011177"},{"name":"中新町","zip_code":"5008032"},{"name":"中洲町","zip_code":"5008448"},{"name":"中竹屋町","zip_code":"5008047"},{"name":"中道北","zip_code":"5008138"},{"name":"中屋東","zip_code":"5012531"},{"name":"中屋西","zip_code":"5012532"},{"name":"長住町","zip_code":"5008175"},{"name":"永田町","zip_code":"5008808"},{"name":"長旗町","zip_code":"5008177"},{"name":"長森岩戸","zip_code":"5008229"},{"name":"長森細畑","zip_code":"5008247"},{"name":"長森本町","zip_code":"5008228"},{"name":"長良","zip_code":"5020081"},{"name":"長良葵町","zip_code":"5020047"},{"name":"長良有明町","zip_code":"5020034"},{"name":"長良井田","zip_code":"5020054"},{"name":"長良一楽","zip_code":"5020063"},{"name":"長良大路","zip_code":"5020031"},{"name":"長良大前町","zip_code":"5020036"},{"name":"長良丘","zip_code":"5020838"},{"name":"長良奥郷","zip_code":"5020077"},{"name":"長良雄総","zip_code":"5020017"},{"name":"長良海用町","zip_code":"5020041"},{"name":"長良金碧町","zip_code":"5020037"},{"name":"長良校前町","zip_code":"5020045"},{"name":"長良校文町","zip_code":"5020044"},{"name":"長良幸和町","zip_code":"5020051"},{"name":"長良子正賀","zip_code":"5020075"},{"name":"長良小松町","zip_code":"5020052"},{"name":"長良桜井町","zip_code":"5020026"},{"name":"長良志段見","zip_code":"5020012"},{"name":"長良白妙町","zip_code":"5020028"},{"name":"長良城西町","zip_code":"5020042"},{"name":"長良真生町","zip_code":"5020056"},{"name":"長良杉乃町","zip_code":"5020046"},{"name":"長良仙田町","zip_code":"5020066"},{"name":"長良高嶺町","zip_code":"5020032"},{"name":"長良田中","zip_code":"5020073"},{"name":"長良田中前","zip_code":"5020064"},{"name":"長良東郷町","zip_code":"5020022"},{"name":"長良友瀬","zip_code":"5020076"},{"name":"長良南陽町","zip_code":"5020035"},{"name":"長良西野前","zip_code":"5020067"},{"name":"長良西山前","zip_code":"5020074"},{"name":"長良春田","zip_code":"5020062"},{"name":"長良東","zip_code":"5020082"},{"name":"長良東町","zip_code":"5020043"},{"name":"長良福泉","zip_code":"5020072"},{"name":"長良福江町","zip_code":"5020055"},{"name":"長良福光","zip_code":"5020817"},{"name":"長良古津","zip_code":"5020011"},{"name":"長良法久寺町","zip_code":"5020038"},{"name":"長良宮口町","zip_code":"5020027"},{"name":"長良宮路町","zip_code":"5020053"},{"name":"長良森町","zip_code":"5020065"},{"name":"長良有楽町","zip_code":"5020033"},{"name":"長良竜東町","zip_code":"5020061"},{"name":"長良若葉町","zip_code":"5020029"},{"name":"浪花町","zip_code":"5008301"},{"name":"次木","zip_code":"5016132"},{"name":"畷町","zip_code":"5008432"},{"name":"西秋沢","zip_code":"5011184"},{"name":"西明見町","zip_code":"5008444"},{"name":"西鶉","zip_code":"5008286"},{"name":"西改田","zip_code":"5011159"},{"name":"西改田上の町","zip_code":"5011168"},{"name":"西改田川向","zip_code":"5011161"},{"name":"西改田米野","zip_code":"5011163"},{"name":"西改田先道","zip_code":"5011158"},{"name":"西改田夏梅","zip_code":"5011167"},{"name":"西改田東改田入会地","zip_code":"5011164"},{"name":"西改田七石","zip_code":"5011169"},{"name":"西改田松の木","zip_code":"5011159"},{"name":"西改田宮西","zip_code":"5011165"},{"name":"西改田村前","zip_code":"5011166"},{"name":"西改田若宮","zip_code":"5011162"},{"name":"西川手","zip_code":"5008258"},{"name":"錦町","zip_code":"5008331"},{"name":"西駒爪町","zip_code":"5008184"},{"name":"西河渡","zip_code":"5010106"},{"name":"西材木町","zip_code":"5008028"},{"name":"西島町","zip_code":"5020912"},{"name":"西園町","zip_code":"5008105"},{"name":"西玉宮町","zip_code":"5008836"},{"name":"西問屋町","zip_code":"5008853"},{"name":"西中島","zip_code":"5020916"},{"name":"西荘","zip_code":"5008362"},{"name":"西野町","zip_code":"5008882"},{"name":"西野町六丁目北町","zip_code":"5008887"},{"name":"西野町七丁目北町","zip_code":"5008886"},{"name":"日光町","zip_code":"5020933"},{"name":"二番町","zip_code":"5008188"},{"name":"布屋町","zip_code":"5008035"},{"name":"野一色","zip_code":"5008226"},{"name":"則武","zip_code":"5020931"},{"name":"則武中","zip_code":"5020932"},{"name":"則武西","zip_code":"5020939"},{"name":"則松","zip_code":"5011183"},{"name":"梅林","zip_code":"5008111"},{"name":"梅林西町","zip_code":"5008119"},{"name":"梅林南町","zip_code":"5008112"},{"name":"白山町","zip_code":"5008172"},{"name":"羽衣町","zip_code":"5008332"},{"name":"端詰町","zip_code":"5008811"},{"name":"橋本町","zip_code":"5008856"},{"name":"八幡町","zip_code":"5008838"},{"name":"蜂屋町","zip_code":"5008031"},{"name":"初音町","zip_code":"5008062"},{"name":"初日町","zip_code":"5020825"},{"name":"花沢町","zip_code":"5008142"},{"name":"花園町","zip_code":"5008854"},{"name":"花ノ木町","zip_code":"5020824"},{"name":"羽根町","zip_code":"5008834"},{"name":"春近古市場南","zip_code":"5012525"},{"name":"春近古市場北","zip_code":"5012524"},{"name":"万代町","zip_code":"5020829"},{"name":"光町","zip_code":"5020901"},{"name":"東明見町","zip_code":"5008436"},{"name":"東板谷","zip_code":"5011141"},{"name":"東鶉","zip_code":"5008281"},{"name":"東改田","zip_code":"5011142"},{"name":"東改田腰前田","zip_code":"5011145"},{"name":"東改田再勝","zip_code":"5011144"},{"name":"東改田鶴田","zip_code":"5011143"},{"name":"東川手","zip_code":"5008257"},{"name":"東金宝町","zip_code":"5008167"},{"name":"東高岩町","zip_code":"5008106"},{"name":"東駒爪町","zip_code":"5008168"},{"name":"東材木町","zip_code":"5008029"},{"name":"東島","zip_code":"5020913"},{"name":"東中島","zip_code":"5008235"},{"name":"日置江","zip_code":"5016133"},{"name":"彦坂","zip_code":"5011105"},{"name":"彦坂川上","zip_code":"5011104"},{"name":"彦坂川北","zip_code":"5011103"},{"name":"久屋町","zip_code":"5008025"},{"name":"七軒町","zip_code":"5008074"},{"name":"一日市場","zip_code":"5010103"},{"name":"一日市場北町","zip_code":"5010102"},{"name":"雛倉","zip_code":"5011181"},{"name":"日野北","zip_code":"5008207"},{"name":"日野西","zip_code":"5008213"},{"name":"日野東","zip_code":"5008211"},{"name":"日野南","zip_code":"5008212"},{"name":"日ノ出町","zip_code":"5008876"},{"name":"日ノ本町","zip_code":"5008852"},{"name":"雲雀ケ丘","zip_code":"5008378"},{"name":"雲雀町","zip_code":"5008877"},{"name":"旭見ケ池町","zip_code":"5008122"},{"name":"平河町","zip_code":"5008809"},{"name":"深坂","zip_code":"5011116"},{"name":"吹上町","zip_code":"5008326"},{"name":"福住町","zip_code":"5008858"},{"name":"福田町","zip_code":"5020822"},{"name":"福富","zip_code":"5012565"},{"name":"福富笠海道","zip_code":"5012561"},{"name":"福富町田","zip_code":"5012567"},{"name":"福富天神前","zip_code":"5012566"},{"name":"福富出口","zip_code":"5012562"},{"name":"福富永田","zip_code":"5012564"},{"name":"福富迎田","zip_code":"5012563"},{"name":"福光東","zip_code":"5020813"},{"name":"福光西","zip_code":"5020814"},{"name":"福光南町","zip_code":"5020815"},{"name":"不動町","zip_code":"5008802"},{"name":"古市場","zip_code":"5011121"},{"name":"古市場老ノ上","zip_code":"5011122"},{"name":"古市場神田","zip_code":"5011127"},{"name":"古市場高田","zip_code":"5011123"},{"name":"古市場高宮","zip_code":"5011126"},{"name":"古市場中原","zip_code":"5011124"},{"name":"古市場東町田","zip_code":"5011125"},{"name":"平安町","zip_code":"5008406"},{"name":"平和通","zip_code":"5020827"},{"name":"弁天町","zip_code":"5008307"},{"name":"宝来町","zip_code":"5008124"},{"name":"細畑","zip_code":"5008238"},{"name":"細畑華南","zip_code":"5008243"},{"name":"細畑塚浦","zip_code":"5008244"},{"name":"細畑野寄","zip_code":"5008242"},{"name":"洞","zip_code":"5011128"},{"name":"堀江町","zip_code":"5008087"},{"name":"堀田町","zip_code":"5020024"},{"name":"本郷町","zip_code":"5008302"},{"name":"本荘","zip_code":"5008389"},{"name":"本荘中ノ町","zip_code":"5008364"},{"name":"本荘西","zip_code":"5008361"},{"name":"本荘町","zip_code":"5008329"},{"name":"本町","zip_code":"5008034"},{"name":"前一色","zip_code":"5008232"},{"name":"前一色西町","zip_code":"5008231"},{"name":"正木","zip_code":"5020857"},{"name":"正木北町","zip_code":"5020881"},{"name":"正木西町","zip_code":"5020865"},{"name":"正木中","zip_code":"5020882"},{"name":"正木南","zip_code":"5020866"},{"name":"真砂町","zip_code":"5008864"},{"name":"交人","zip_code":"5011115"},{"name":"益屋町","zip_code":"5008019"},{"name":"又丸","zip_code":"5011152"},{"name":"又丸町畑","zip_code":"5011153"},{"name":"又丸津島","zip_code":"5011156"},{"name":"又丸宮東","zip_code":"5011155"},{"name":"又丸村中","zip_code":"5011157"},{"name":"又丸柳町","zip_code":"5011154"},{"name":"松風町","zip_code":"5020833"},{"name":"松ケ枝町","zip_code":"5008016"},{"name":"松下町","zip_code":"5008013"},{"name":"松原町","zip_code":"5008347"},{"name":"松屋町","zip_code":"5008084"},{"name":"松山町","zip_code":"5008015"},{"name":"万年町","zip_code":"5008888"},{"name":"万力町","zip_code":"5008044"},{"name":"美江寺町","zip_code":"5008812"},{"name":"三笠町","zip_code":"5008147"},{"name":"美島町","zip_code":"5020903"},{"name":"水海道","zip_code":"5008223"},{"name":"瑞穂町","zip_code":"5008377"},{"name":"美園町","zip_code":"5008104"},{"name":"溝口","zip_code":"5012551"},{"name":"溝口上","zip_code":"5012557"},{"name":"溝口中","zip_code":"5012556"},{"name":"溝口下","zip_code":"5012555"},{"name":"溝口童子","zip_code":"5012554"},{"name":"溝口中野","zip_code":"5012553"},{"name":"溝口東","zip_code":"5012552"},{"name":"溝旗町","zip_code":"5008169"},{"name":"三田洞","zip_code":"5020004"},{"name":"三田洞東","zip_code":"5020003"},{"name":"御手洗","zip_code":"5008002"},{"name":"三橋町","zip_code":"5008308"},{"name":"三ツ又町","zip_code":"5008348"},{"name":"三歳町","zip_code":"5008335"},{"name":"美殿町","zip_code":"5008182"},{"name":"緑町","zip_code":"5008072"},{"name":"湊町","zip_code":"5008009"},{"name":"南鶉","zip_code":"5008285"},{"name":"南柿ケ瀬","zip_code":"5011134"},{"name":"南蝉","zip_code":"5020852"},{"name":"南殿町","zip_code":"5008117"},{"name":"南本荘一条通","zip_code":"5008344"},{"name":"南本荘二条通","zip_code":"5008343"},{"name":"南本荘三条通","zip_code":"5008342"},{"name":"南本荘四条通","zip_code":"5008341"},{"name":"宮浦町","zip_code":"5020923"},{"name":"宮北町","zip_code":"5008435"},{"name":"都通","zip_code":"5008309"},{"name":"明神町","zip_code":"5020922"},{"name":"三輪","zip_code":"5012513"},{"name":"三輪宮前","zip_code":"5012514"},{"name":"三輪宮西","zip_code":"5012515"},{"name":"三輪ぷりんとぴあ","zip_code":"5012517"},{"name":"向加野","zip_code":"5013109"},{"name":"村里町","zip_code":"5008439"},{"name":"村雨町","zip_code":"5008312"},{"name":"村山","zip_code":"5011107"},{"name":"室津町","zip_code":"5008859"},{"name":"室町","zip_code":"5008075"},{"name":"明徳町","zip_code":"5008813"},{"name":"茂地","zip_code":"5012523"},{"name":"元住町","zip_code":"5008179"},{"name":"元浜町","zip_code":"5008007"},{"name":"元町","zip_code":"5008185"},{"name":"元宮町","zip_code":"5008869"},{"name":"守口町","zip_code":"5020921"},{"name":"森東","zip_code":"5012533"},{"name":"森西","zip_code":"5012534"},{"name":"柳生町","zip_code":"5008078"},{"name":"薬師町","zip_code":"5008253"},{"name":"矢倉町","zip_code":"5008446"},{"name":"八坂町","zip_code":"5008256"},{"name":"八島町","zip_code":"5008445"},{"name":"八代","zip_code":"5020812"},{"name":"矢島町","zip_code":"5008082"},{"name":"八ツ梅町","zip_code":"5008817"},{"name":"八ツ寺町","zip_code":"5008825"},{"name":"柳津町梅松","zip_code":"5016105"},{"name":"柳津町上佐波","zip_code":"5016121"},{"name":"柳津町上佐波西","zip_code":"5016121"},{"name":"柳津町上佐波東","zip_code":"5016121"},{"name":"柳津町北塚","zip_code":"5016112"},{"name":"柳津町栄町","zip_code":"5016101"},{"name":"柳津町佐波","zip_code":"5016121"},{"name":"柳津町下佐波","zip_code":"5016121"},{"name":"柳津町下佐波西","zip_code":"5016121"},{"name":"柳津町高桑","zip_code":"5016122"},{"name":"柳津町高桑西","zip_code":"5016122"},{"name":"柳津町高桑東","zip_code":"5016122"},{"name":"柳津町蓮池","zip_code":"5016103"},{"name":"柳津町東塚","zip_code":"5016102"},{"name":"柳津町本郷","zip_code":"5016104"},{"name":"柳津町丸野","zip_code":"5016115"},{"name":"柳津町南塚","zip_code":"5016113"},{"name":"柳津町宮東","zip_code":"5016111"},{"name":"柳津町流通センター","zip_code":"5016123"},{"name":"柳ケ瀬通","zip_code":"5008875"},{"name":"柳川町","zip_code":"5008304"},{"name":"柳戸","zip_code":"5011112"},{"name":"柳町","zip_code":"5008071"},{"name":"柳森町","zip_code":"5008365"},{"name":"柳沢町","zip_code":"5008064"},{"name":"弥八町","zip_code":"5008827"},{"name":"薮田中","zip_code":"5008387"},{"name":"薮田東","zip_code":"5008382"},{"name":"薮田西","zip_code":"5008386"},{"name":"薮田南","zip_code":"5008384"},{"name":"山県岩","zip_code":"5012504"},{"name":"山県岩中","zip_code":"5012507"},{"name":"山県岩明光","zip_code":"5012508"},{"name":"山県岩東","zip_code":"5012505"},{"name":"山県岩西","zip_code":"5012509"},{"name":"山県岩南","zip_code":"5012506"},{"name":"山県北野","zip_code":"5012502"},{"name":"山口町","zip_code":"5008012"},{"name":"山先町","zip_code":"5020025"},{"name":"大和町","zip_code":"5008048"},{"name":"山吹町","zip_code":"5020905"},{"name":"弥生町","zip_code":"5008831"},{"name":"夕陽ケ丘","zip_code":"5008014"},{"name":"雪見町","zip_code":"5008136"},{"name":"養老町","zip_code":"5020834"},{"name":"葭町","zip_code":"5008334"},{"name":"吉津町","zip_code":"5008187"},{"name":"吉野町","zip_code":"5008844"},{"name":"四屋町","zip_code":"5008088"},{"name":"世保","zip_code":"5012541"},{"name":"世保東","zip_code":"5012542"},{"name":"世保西","zip_code":"5012544"},{"name":"世保南","zip_code":"5012543"},{"name":"世保北","zip_code":"5012545"},{"name":"隆城町","zip_code":"5008126"},{"name":"領下","zip_code":"5008241"},{"name":"六条","zip_code":"5008352"},{"name":"六条江東","zip_code":"5008356"},{"name":"六条大溝","zip_code":"5008357"},{"name":"六条片田","zip_code":"5008355"},{"name":"六条福寿町","zip_code":"5008354"},{"name":"六条東","zip_code":"5008353"},{"name":"六条南","zip_code":"5008358"},{"name":"六条北","zip_code":"5008359"},{"name":"若杉町","zip_code":"5008433"},{"name":"若竹町","zip_code":"5020836"},{"name":"若福町","zip_code":"5020811"},{"name":"若松町","zip_code":"5008089"},{"name":"若宮町","zip_code":"5008828"}]},{"name":"大垣市","divisions":[{"name":"青木町","zip_code":"5032202"},{"name":"青野町","zip_code":"5032227"},{"name":"青墓町","zip_code":"5032221"},{"name":"青柳町","zip_code":"5030961"},{"name":"赤坂新田","zip_code":"5032214"},{"name":"赤坂新町","zip_code":"5032206"},{"name":"赤坂大門","zip_code":"5032215"},{"name":"赤坂東町","zip_code":"5032212"},{"name":"赤坂町","zip_code":"5032213"},{"name":"赤花町","zip_code":"5030013"},{"name":"浅草","zip_code":"5030947"},{"name":"浅中","zip_code":"5030946"},{"name":"旭町","zip_code":"5030824"},{"name":"浅西","zip_code":"5030945"},{"name":"東町","zip_code":"5030802"},{"name":"綾野","zip_code":"5030984"},{"name":"綾野町","zip_code":"5030994"},{"name":"荒尾玉池","zip_code":"5030035"},{"name":"荒尾町","zip_code":"5030034"},{"name":"荒川町","zip_code":"5030993"},{"name":"池尻町","zip_code":"5032204"},{"name":"稲葉東","zip_code":"5032224"},{"name":"稲葉西","zip_code":"5032225"},{"name":"稲葉北","zip_code":"5032226"},{"name":"犬ケ渕町","zip_code":"5030834"},{"name":"今岡町","zip_code":"5030874"},{"name":"今宿","zip_code":"5030807"},{"name":"今福町","zip_code":"5030843"},{"name":"今町","zip_code":"5030924"},{"name":"入方","zip_code":"5030962"},{"name":"魚屋町","zip_code":"5030871"},{"name":"内原","zip_code":"5030936"},{"name":"馬の瀬町","zip_code":"5030842"},{"name":"江崎町","zip_code":"5030838"},{"name":"枝郷","zip_code":"5032207"},{"name":"恵比寿町","zip_code":"5030828"},{"name":"恵比寿町南","zip_code":"5030827"},{"name":"恵比寿町北","zip_code":"5030826"},{"name":"大井","zip_code":"5030836"},{"name":"大池町","zip_code":"5030863"},{"name":"大島町","zip_code":"5030001"},{"name":"大外羽","zip_code":"5030956"},{"name":"大村","zip_code":"5030814"},{"name":"歩行町","zip_code":"5030898"},{"name":"貝曽根町","zip_code":"5030007"},{"name":"開発町","zip_code":"5030002"},{"name":"加賀野","zip_code":"5030006"},{"name":"楽田町","zip_code":"5030008"},{"name":"笠木町","zip_code":"5030023"},{"name":"笠縫町","zip_code":"5030027"},{"name":"鹿島町","zip_code":"5030823"},{"name":"河間町","zip_code":"5030021"},{"name":"釜笛","zip_code":"5030937"},{"name":"上石津町一之瀬","zip_code":"5031614"},{"name":"上石津町打上","zip_code":"5031633"},{"name":"上石津町上原","zip_code":"5031622"},{"name":"上石津町奥","zip_code":"5031611"},{"name":"上石津町乙坂","zip_code":"5031601"},{"name":"上石津町上","zip_code":"5031638"},{"name":"上石津町上鍛治屋","zip_code":"5031613"},{"name":"上石津町上多良","zip_code":"5031623"},{"name":"上石津町下多良","zip_code":"5031621"},{"name":"上石津町下山","zip_code":"5031632"},{"name":"上石津町谷畑","zip_code":"5031612"},{"name":"上石津町堂之上","zip_code":"5031637"},{"name":"上石津町時山","zip_code":"5031635"},{"name":"上石津町西山","zip_code":"5031636"},{"name":"上石津町祢宜上","zip_code":"5031626"},{"name":"上石津町細野","zip_code":"5031634"},{"name":"上石津町前ケ瀬","zip_code":"5031631"},{"name":"上石津町牧田","zip_code":"5031602"},{"name":"上石津町三ツ里","zip_code":"5031624"},{"name":"上石津町宮","zip_code":"5031625"},{"name":"上笠","zip_code":"5030964"},{"name":"上屋","zip_code":"5030957"},{"name":"川口","zip_code":"5030941"},{"name":"神田町","zip_code":"5030917"},{"name":"北方町","zip_code":"5030019"},{"name":"北切石町","zip_code":"5030915"},{"name":"木戸町","zip_code":"5030973"},{"name":"岐阜町","zip_code":"5030881"},{"name":"久徳町","zip_code":"5030982"},{"name":"切石町","zip_code":"5030926"},{"name":"桐ケ崎町","zip_code":"5030904"},{"name":"木呂町","zip_code":"5030991"},{"name":"久瀬川町","zip_code":"5030974"},{"name":"熊野町","zip_code":"5030032"},{"name":"栗屋町","zip_code":"5030902"},{"name":"郭町","zip_code":"5030887"},{"name":"郭町東","zip_code":"5030886"},{"name":"小泉町","zip_code":"5030816"},{"name":"興福地町","zip_code":"5032203"},{"name":"古知丸","zip_code":"5030036"},{"name":"御殿町","zip_code":"5030877"},{"name":"寿町","zip_code":"5030832"},{"name":"小野","zip_code":"5030803"},{"name":"米野町","zip_code":"5030847"},{"name":"坂下町","zip_code":"5030009"},{"name":"早苗町","zip_code":"5030821"},{"name":"三本木","zip_code":"5030813"},{"name":"静里町","zip_code":"5030983"},{"name":"寺内町","zip_code":"5030865"},{"name":"島里","zip_code":"5030935"},{"name":"島町","zip_code":"5030996"},{"name":"清水町","zip_code":"5030883"},{"name":"十六町","zip_code":"5030995"},{"name":"宿地町","zip_code":"5030024"},{"name":"上面","zip_code":"5030817"},{"name":"昭和","zip_code":"5030942"},{"name":"新開町","zip_code":"5030004"},{"name":"新地町","zip_code":"5030894"},{"name":"新田町","zip_code":"5030856"},{"name":"新長沢町","zip_code":"5030831"},{"name":"新長松","zip_code":"5030992"},{"name":"新馬場町","zip_code":"5030921"},{"name":"新町","zip_code":"5030872"},{"name":"神明","zip_code":"5032205"},{"name":"菅野","zip_code":"5032208"},{"name":"直江町","zip_code":"5030815"},{"name":"墨俣町上宿","zip_code":"5030103"},{"name":"墨俣町さい川","zip_code":"5030106"},{"name":"墨俣町下宿","zip_code":"5030104"},{"name":"墨俣町墨俣","zip_code":"5030102"},{"name":"墨俣町先入方","zip_code":"5030101"},{"name":"墨俣町二ツ木","zip_code":"5030105"},{"name":"住吉町","zip_code":"5030822"},{"name":"草道島町","zip_code":"5032201"},{"name":"外野","zip_code":"5030933"},{"name":"外野町","zip_code":"5030951"},{"name":"曽根町","zip_code":"5030011"},{"name":"外渕","zip_code":"5030934"},{"name":"代官町","zip_code":"5030895"},{"name":"高砂町","zip_code":"5030889"},{"name":"鷹匠町","zip_code":"5030913"},{"name":"高橋町","zip_code":"5030896"},{"name":"高渕","zip_code":"5030958"},{"name":"高渕町","zip_code":"5030959"},{"name":"高屋町","zip_code":"5030901"},{"name":"多芸島","zip_code":"5030965"},{"name":"田口町","zip_code":"5030853"},{"name":"竹島町","zip_code":"5030878"},{"name":"橘町","zip_code":"5030892"},{"name":"田町","zip_code":"5030875"},{"name":"俵町","zip_code":"5030876"},{"name":"千鳥町","zip_code":"5030891"},{"name":"築捨町","zip_code":"5030854"},{"name":"津村町","zip_code":"5030003"},{"name":"鶴見町","zip_code":"5030805"},{"name":"伝馬町","zip_code":"5030897"},{"name":"問屋町","zip_code":"5030855"},{"name":"外花","zip_code":"5030954"},{"name":"友江","zip_code":"5030955"},{"name":"長井町","zip_code":"5030839"},{"name":"中川町","zip_code":"5030017"},{"name":"長沢町","zip_code":"5030833"},{"name":"中曽根町","zip_code":"5030986"},{"name":"中ノ江","zip_code":"5030804"},{"name":"中野町","zip_code":"5030022"},{"name":"中町","zip_code":"5030884"},{"name":"長松町","zip_code":"5030997"},{"name":"難波野町","zip_code":"5030844"},{"name":"西大外羽","zip_code":"5030963"},{"name":"錦町","zip_code":"5030899"},{"name":"西崎町","zip_code":"5030918"},{"name":"西外側町","zip_code":"5030908"},{"name":"西長町","zip_code":"5030914"},{"name":"西之川町","zip_code":"5030018"},{"name":"禾森","zip_code":"5030851"},{"name":"禾森町","zip_code":"5030852"},{"name":"野口","zip_code":"5030985"},{"name":"羽衣町","zip_code":"5030861"},{"name":"波須","zip_code":"5030811"},{"name":"鳩部屋町","zip_code":"5030912"},{"name":"花園町","zip_code":"5030825"},{"name":"馬場町","zip_code":"5030922"},{"name":"林町","zip_code":"5030015"},{"name":"番組町","zip_code":"5030907"},{"name":"東外側町","zip_code":"5030903"},{"name":"東長町","zip_code":"5030882"},{"name":"東前","zip_code":"5030835"},{"name":"東前町","zip_code":"5030849"},{"name":"桧町","zip_code":"5030981"},{"name":"日の出町","zip_code":"5030916"},{"name":"平町","zip_code":"5030141"},{"name":"昼飯町","zip_code":"5032216"},{"name":"深池町","zip_code":"5030846"},{"name":"福田町","zip_code":"5030033"},{"name":"藤江町","zip_code":"5030893"},{"name":"二葉町","zip_code":"5030862"},{"name":"船町","zip_code":"5030923"},{"name":"古宮町","zip_code":"5030848"},{"name":"宝和町","zip_code":"5030972"},{"name":"本町","zip_code":"5030885"},{"name":"牧新田町","zip_code":"5030845"},{"name":"牧野町","zip_code":"5030031"},{"name":"丸の内","zip_code":"5030888"},{"name":"万石","zip_code":"5030812"},{"name":"三塚町","zip_code":"5030808"},{"name":"三津屋町","zip_code":"5030012"},{"name":"緑園","zip_code":"5030806"},{"name":"見取町","zip_code":"5030025"},{"name":"南市橋町","zip_code":"5032211"},{"name":"南一色町","zip_code":"5030971"},{"name":"南切石町","zip_code":"5030925"},{"name":"南高橋町","zip_code":"5030873"},{"name":"南頬町","zip_code":"5030864"},{"name":"南若森","zip_code":"5030977"},{"name":"南若森町","zip_code":"5030976"},{"name":"宮町","zip_code":"5030905"},{"name":"美和町","zip_code":"5030857"},{"name":"室本町","zip_code":"5030911"},{"name":"室町","zip_code":"5030906"},{"name":"室村町","zip_code":"5030026"},{"name":"本今","zip_code":"5030931"},{"name":"本今町","zip_code":"5030932"},{"name":"八島町","zip_code":"5030016"},{"name":"安井町","zip_code":"5030837"},{"name":"矢道町","zip_code":"5032223"},{"name":"横曽根","zip_code":"5030944"},{"name":"横曽根町","zip_code":"5030943"},{"name":"榎戸町","zip_code":"5032222"},{"name":"世安町","zip_code":"5030858"},{"name":"領家町","zip_code":"5030014"},{"name":"若森町","zip_code":"5030975"},{"name":"和合新町","zip_code":"5030801"},{"name":"和合本町","zip_code":"5030005"},{"name":"割田","zip_code":"5030953"},{"name":"割田町","zip_code":"5030952"}]},{"name":"高山市","divisions":[{"name":"相生町","zip_code":"5060014"},{"name":"赤保木町","zip_code":"5060045"},{"name":"曙町","zip_code":"5060806"},{"name":"旭ケ丘町","zip_code":"5060042"},{"name":"朝日町青屋","zip_code":"5093301"},{"name":"朝日町上ケ見","zip_code":"5093324"},{"name":"朝日町浅井","zip_code":"5093303"},{"name":"朝日町一之宿","zip_code":"5093311"},{"name":"朝日町大廣","zip_code":"5093322"},{"name":"朝日町甲","zip_code":"5093326"},{"name":"朝日町黍生谷","zip_code":"5093316"},{"name":"朝日町胡桃島","zip_code":"5093313"},{"name":"朝日町黒川","zip_code":"5093321"},{"name":"朝日町桑之島","zip_code":"5093312"},{"name":"朝日町小瀬","zip_code":"5093305"},{"name":"朝日町小瀬ケ洞","zip_code":"5093317"},{"name":"朝日町小谷","zip_code":"5093327"},{"name":"朝日町立岩","zip_code":"5093304"},{"name":"朝日町寺澤","zip_code":"5093323"},{"name":"朝日町寺附","zip_code":"5093302"},{"name":"朝日町西洞","zip_code":"5093314"},{"name":"朝日町万石","zip_code":"5093325"},{"name":"朝日町見座","zip_code":"5093306"},{"name":"朝日町宮之前","zip_code":"5093315"},{"name":"朝日町","zip_code":"5060017"},{"name":"愛宕町","zip_code":"5060855"},{"name":"石浦町","zip_code":"5060825"},{"name":"一之宮町","zip_code":"5093505"},{"name":"岩井町","zip_code":"5060815"},{"name":"有楽町","zip_code":"5060013"},{"name":"漆垣内町","zip_code":"5060812"},{"name":"上野町","zip_code":"5060801"},{"name":"越後町","zip_code":"5060033"},{"name":"江名子町","zip_code":"5060818"},{"name":"大新町","zip_code":"5060851"},{"name":"大島町","zip_code":"5060816"},{"name":"大洞町","zip_code":"5060811"},{"name":"岡本町","zip_code":"5060054"},{"name":"奥飛騨温泉郷赤桶","zip_code":"5061429"},{"name":"奥飛騨温泉郷今見","zip_code":"5061425"},{"name":"奥飛騨温泉郷柏当","zip_code":"5061424"},{"name":"奥飛騨温泉郷神坂","zip_code":"5061421"},{"name":"奥飛騨温泉郷笹嶋","zip_code":"5061428"},{"name":"奥飛騨温泉郷田頃家","zip_code":"5061427"},{"name":"奥飛騨温泉郷蓼之俣","zip_code":"5061426"},{"name":"奥飛騨温泉郷栃尾","zip_code":"5061423"},{"name":"奥飛騨温泉郷中尾","zip_code":"5061422"},{"name":"奥飛騨温泉郷一重ケ根","zip_code":"5061432"},{"name":"奥飛騨温泉郷平湯","zip_code":"5061433"},{"name":"奥飛騨温泉郷福地","zip_code":"5061434"},{"name":"奥飛騨温泉郷村上","zip_code":"5061431"},{"name":"春日町","zip_code":"5060835"},{"name":"片野町","zip_code":"5060824"},{"name":"片原町","zip_code":"5060847"},{"name":"上一之町","zip_code":"5060844"},{"name":"上二之町","zip_code":"5060845"},{"name":"上三之町","zip_code":"5060846"},{"name":"上岡本町","zip_code":"5060055"},{"name":"上川原町","zip_code":"5060024"},{"name":"上切町","zip_code":"5060044"},{"name":"上宝町新田","zip_code":"5061312"},{"name":"上宝町荒原","zip_code":"5061315"},{"name":"上宝町岩井戸","zip_code":"5061303"},{"name":"上宝町芋生茂","zip_code":"5061318"},{"name":"上宝町金木戸","zip_code":"5061308"},{"name":"上宝町葛山","zip_code":"5061301"},{"name":"上宝町蔵柱","zip_code":"5061314"},{"name":"上宝町在家","zip_code":"5061313"},{"name":"上宝町下佐谷","zip_code":"5061319"},{"name":"上宝町双六","zip_code":"5061307"},{"name":"上宝町長倉","zip_code":"5061302"},{"name":"上宝町中山","zip_code":"5061305"},{"name":"上宝町鼠餅","zip_code":"5061311"},{"name":"上宝町本郷","zip_code":"5061317"},{"name":"上宝町見座","zip_code":"5061306"},{"name":"上宝町宮原","zip_code":"5061304"},{"name":"上宝町吉野","zip_code":"5061316"},{"name":"川原町","zip_code":"5060023"},{"name":"神田町","zip_code":"5060006"},{"name":"清見町池本","zip_code":"5060203"},{"name":"清見町江黒","zip_code":"5060201"},{"name":"清見町大谷","zip_code":"5060202"},{"name":"清見町大原","zip_code":"5092702"},{"name":"清見町上小鳥","zip_code":"5060206"},{"name":"清見町坂下","zip_code":"5060106"},{"name":"清見町巣野俣","zip_code":"5060107"},{"name":"清見町夏厩","zip_code":"5060205"},{"name":"清見町楢谷","zip_code":"5092701"},{"name":"清見町二本木","zip_code":"5060204"},{"name":"清見町福寄","zip_code":"5060104"},{"name":"清見町藤瀬","zip_code":"5060103"},{"name":"清見町牧ケ洞","zip_code":"5060101"},{"name":"清見町三日町","zip_code":"5060102"},{"name":"清見町三ツ谷","zip_code":"5060105"},{"name":"清見町森茂","zip_code":"5060207"},{"name":"桐生町","zip_code":"5060004"},{"name":"久々野町阿多粕","zip_code":"5093212"},{"name":"久々野町有道","zip_code":"5093218"},{"name":"久々野町大西","zip_code":"5093201"},{"name":"久々野町久々野","zip_code":"5093205"},{"name":"久々野町久須母","zip_code":"5093204"},{"name":"久々野町小坊","zip_code":"5093211"},{"name":"久々野町小屋名","zip_code":"5093202"},{"name":"久々野町辻","zip_code":"5093207"},{"name":"久々野町木賊洞","zip_code":"5093216"},{"name":"久々野町長淀","zip_code":"5093217"},{"name":"久々野町渚","zip_code":"5093213"},{"name":"久々野町引下","zip_code":"5093215"},{"name":"久々野町無数河","zip_code":"5093214"},{"name":"久々野町柳島","zip_code":"5093203"},{"name":"久々野町山梨","zip_code":"5093206"},{"name":"国府町今","zip_code":"5094104"},{"name":"国府町宇津江","zip_code":"5094121"},{"name":"国府町瓜巣","zip_code":"5094126"},{"name":"国府町漆垣内","zip_code":"5094106"},{"name":"国府町金桶","zip_code":"5094123"},{"name":"国府町上広瀬","zip_code":"5094116"},{"name":"国府町木曽垣内","zip_code":"5094113"},{"name":"国府町桐谷","zip_code":"5094101"},{"name":"国府町三川","zip_code":"5094117"},{"name":"国府町鶴巣","zip_code":"5094112"},{"name":"国府町名張","zip_code":"5094122"},{"name":"国府町西門前","zip_code":"5094107"},{"name":"国府町糠塚","zip_code":"5094125"},{"name":"国府町半田","zip_code":"5094114"},{"name":"国府町東門前","zip_code":"5094108"},{"name":"国府町広瀬町","zip_code":"5094119"},{"name":"国府町三日町","zip_code":"5094115"},{"name":"国府町蓑輪","zip_code":"5094105"},{"name":"国府町宮地","zip_code":"5094103"},{"name":"国府町村山","zip_code":"5094124"},{"name":"国府町山本","zip_code":"5094111"},{"name":"国府町八日町","zip_code":"5094102"},{"name":"左京町","zip_code":"5060853"},{"name":"桜町","zip_code":"5060858"},{"name":"三福寺町","zip_code":"5060807"},{"name":"塩屋町","zip_code":"5060813"},{"name":"島川原町","zip_code":"5060836"},{"name":"下一之町","zip_code":"5060843"},{"name":"下二之町","zip_code":"5060842"},{"name":"下三之町","zip_code":"5060841"},{"name":"下岡本町","zip_code":"5060052"},{"name":"下切町","zip_code":"5060041"},{"name":"下之切町","zip_code":"5060046"},{"name":"下林町","zip_code":"5060059"},{"name":"荘川町赤谷","zip_code":"5015421"},{"name":"荘川町新渕","zip_code":"5015413"},{"name":"荘川町一色","zip_code":"5015415"},{"name":"荘川町岩瀬","zip_code":"5015423"},{"name":"荘川町牛丸","zip_code":"5015422"},{"name":"荘川町尾上郷","zip_code":"5015426"},{"name":"荘川町海上","zip_code":"5015425"},{"name":"荘川町黒谷","zip_code":"5015404"},{"name":"荘川町猿丸","zip_code":"5015414"},{"name":"荘川町三谷","zip_code":"5015402"},{"name":"荘川町惣則","zip_code":"5015406"},{"name":"荘川町寺河戸","zip_code":"5015405"},{"name":"荘川町中野","zip_code":"5015424"},{"name":"荘川町中畑","zip_code":"5015412"},{"name":"荘川町野々俣","zip_code":"5015417"},{"name":"荘川町牧戸","zip_code":"5015411"},{"name":"荘川町町屋","zip_code":"5015416"},{"name":"荘川町三尾河","zip_code":"5015403"},{"name":"荘川町六厩","zip_code":"5015401"},{"name":"昭和町","zip_code":"5060053"},{"name":"城山","zip_code":"5060822"},{"name":"新宮町","zip_code":"5060035"},{"name":"神明町","zip_code":"5060821"},{"name":"末広町","zip_code":"5060016"},{"name":"宗猷寺町","zip_code":"5060834"},{"name":"総和町","zip_code":"5060007"},{"name":"大門町","zip_code":"5060856"},{"name":"高根町阿多野郷","zip_code":"5093401"},{"name":"高根町池ケ洞","zip_code":"5093417"},{"name":"高根町猪之鼻","zip_code":"5093415"},{"name":"高根町大古井","zip_code":"5093412"},{"name":"高根町上ケ洞","zip_code":"5093411"},{"name":"高根町黍生","zip_code":"5093418"},{"name":"高根町小日和田","zip_code":"5093404"},{"name":"高根町下之向","zip_code":"5093413"},{"name":"高根町留之原","zip_code":"5093405"},{"name":"高根町中之宿","zip_code":"5093414"},{"name":"高根町中洞","zip_code":"5093416"},{"name":"高根町野麦","zip_code":"5093402"},{"name":"高根町日影","zip_code":"5093419"},{"name":"高根町日和田","zip_code":"5093403"},{"name":"滝町","zip_code":"5060814"},{"name":"匠ケ丘町","zip_code":"5060057"},{"name":"千島町","zip_code":"5060032"},{"name":"鉄砲町","zip_code":"5060857"},{"name":"天性寺町","zip_code":"5060832"},{"name":"天満町","zip_code":"5060025"},{"name":"問屋町","zip_code":"5060002"},{"name":"中切町","zip_code":"5060043"},{"name":"中山町","zip_code":"5060051"},{"name":"長坂町","zip_code":"5060804"},{"name":"名田町","zip_code":"5060021"},{"name":"七日町","zip_code":"5060005"},{"name":"西之一色町","zip_code":"5060031"},{"name":"西洞町","zip_code":"5060833"},{"name":"西町","zip_code":"5060022"},{"name":"丹生川町芦谷","zip_code":"5062113"},{"name":"丹生川町池之俣","zip_code":"5062253"},{"name":"丹生川町板殿","zip_code":"5062112"},{"name":"丹生川町岩井谷","zip_code":"5062254"},{"name":"丹生川町瓜田","zip_code":"5062111"},{"name":"丹生川町大萱","zip_code":"5062131"},{"name":"丹生川町大谷","zip_code":"5062116"},{"name":"丹生川町大沼","zip_code":"5062104"},{"name":"丹生川町折敷地","zip_code":"5062103"},{"name":"丹生川町柏原","zip_code":"5062106"},{"name":"丹生川町北方","zip_code":"5062133"},{"name":"丹生川町桐山","zip_code":"5062134"},{"name":"丹生川町久手","zip_code":"5062252"},{"name":"丹生川町小野","zip_code":"5062115"},{"name":"丹生川町根方","zip_code":"5062117"},{"name":"丹生川町三之瀬","zip_code":"5062105"},{"name":"丹生川町塩屋","zip_code":"5062258"},{"name":"丹生川町下保","zip_code":"5062135"},{"name":"丹生川町白井","zip_code":"5062118"},{"name":"丹生川町曽手","zip_code":"5062257"},{"name":"丹生川町駄吉","zip_code":"5062255"},{"name":"丹生川町新張","zip_code":"5062124"},{"name":"丹生川町旗鉾","zip_code":"5062251"},{"name":"丹生川町日影","zip_code":"5062114"},{"name":"丹生川町日面","zip_code":"5062256"},{"name":"丹生川町坊方","zip_code":"5062121"},{"name":"丹生川町法力","zip_code":"5062132"},{"name":"丹生川町細越","zip_code":"5062125"},{"name":"丹生川町町方","zip_code":"5062123"},{"name":"丹生川町森部","zip_code":"5062101"},{"name":"丹生川町山口","zip_code":"5062122"},{"name":"八軒町","zip_code":"5060012"},{"name":"八幡町","zip_code":"5060852"},{"name":"初田町","zip_code":"5060008"},{"name":"花岡町","zip_code":"5060009"},{"name":"花川町","zip_code":"5060015"},{"name":"花里町","zip_code":"5060026"},{"name":"馬場町","zip_code":"5060838"},{"name":"東山町","zip_code":"5060805"},{"name":"日の出町","zip_code":"5060803"},{"name":"吹屋町","zip_code":"5060831"},{"name":"冬頭町","zip_code":"5060001"},{"name":"本母町","zip_code":"5060003"},{"name":"堀端町","zip_code":"5060837"},{"name":"本町","zip_code":"5060011"},{"name":"前原町","zip_code":"5060048"},{"name":"松倉町","zip_code":"5060034"},{"name":"松之木町","zip_code":"5060802"},{"name":"松本町","zip_code":"5060808"},{"name":"緑ケ丘町","zip_code":"5060056"},{"name":"森下町","zip_code":"5060823"},{"name":"山口町","zip_code":"5060817"},{"name":"山田町","zip_code":"5060058"},{"name":"八日町","zip_code":"5060047"},{"name":"若達町","zip_code":"5060854"}]},{"name":"多治見市","divisions":[{"name":"青木町","zip_code":"5070837"},{"name":"赤坂町","zip_code":"5070057"},{"name":"旭ケ丘","zip_code":"5070071"},{"name":"生田町","zip_code":"5070807"},{"name":"池田町","zip_code":"5070048"},{"name":"市之倉町","zip_code":"5070814"},{"name":"上野町","zip_code":"5070027"},{"name":"大沢町","zip_code":"5070075"},{"name":"大原町","zip_code":"5070074"},{"name":"大針町","zip_code":"5070062"},{"name":"大畑町","zip_code":"5070818"},{"name":"大畑町赤松","zip_code":"5070815"},{"name":"大畑町大洞","zip_code":"5070817"},{"name":"大畑町西仲根","zip_code":"5070816"},{"name":"大薮町","zip_code":"5070068"},{"name":"奥川町","zip_code":"5070822"},{"name":"小田町","zip_code":"5070023"},{"name":"音羽町","zip_code":"5070037"},{"name":"小名田町","zip_code":"5070004"},{"name":"小名田町岩ケ根","zip_code":"5070005"},{"name":"小名田町小滝","zip_code":"5070001"},{"name":"小名田町西ケ洞","zip_code":"5070007"},{"name":"小名田町西山","zip_code":"5070006"},{"name":"小名田町別山","zip_code":"5070002"},{"name":"小名田町東谷","zip_code":"5070003"},{"name":"神楽町","zip_code":"5070846"},{"name":"笠原町","zip_code":"5070901"},{"name":"金岡町","zip_code":"5070016"},{"name":"金山町","zip_code":"5070832"},{"name":"窯町","zip_code":"5070821"},{"name":"上町","zip_code":"5070806"},{"name":"上山町","zip_code":"5070022"},{"name":"北丘町","zip_code":"5070064"},{"name":"北小木町","zip_code":"5070067"},{"name":"喜多町","zip_code":"5070055"},{"name":"希望ケ丘","zip_code":"5070008"},{"name":"京町","zip_code":"5070825"},{"name":"小泉町","zip_code":"5070073"},{"name":"虎渓山町","zip_code":"5070014"},{"name":"虎渓町","zip_code":"5070026"},{"name":"幸町","zip_code":"5070077"},{"name":"坂上町","zip_code":"5070804"},{"name":"栄町","zip_code":"5070035"},{"name":"三の倉町","zip_code":"5070045"},{"name":"下沢町","zip_code":"5070812"},{"name":"十九田町","zip_code":"5070039"},{"name":"昭栄町","zip_code":"5070076"},{"name":"小路町","zip_code":"5070847"},{"name":"昭和町","zip_code":"5070836"},{"name":"新富町","zip_code":"5070805"},{"name":"新町","zip_code":"5070831"},{"name":"末広町","zip_code":"5070838"},{"name":"住吉町","zip_code":"5070015"},{"name":"諏訪町","zip_code":"5070044"},{"name":"精華町","zip_code":"5070031"},{"name":"大正町","zip_code":"5070024"},{"name":"大日町","zip_code":"5070032"},{"name":"太平町","zip_code":"5070041"},{"name":"高田町","zip_code":"5070018"},{"name":"高田町岩曽根","zip_code":"5070011"},{"name":"高田町白粉","zip_code":"5070012"},{"name":"高根町","zip_code":"5070078"},{"name":"宝町","zip_code":"5070054"},{"name":"滝呂町","zip_code":"5070813"},{"name":"田代町","zip_code":"5070036"},{"name":"月見町","zip_code":"5070043"},{"name":"廿原町","zip_code":"5070046"},{"name":"東栄町","zip_code":"5070013"},{"name":"陶元町","zip_code":"5070844"},{"name":"常盤町","zip_code":"5070843"},{"name":"豊岡町","zip_code":"5070034"},{"name":"中町","zip_code":"5070842"},{"name":"長瀬町","zip_code":"5070017"},{"name":"錦町","zip_code":"5070835"},{"name":"西坂町","zip_code":"5070051"},{"name":"西山町","zip_code":"5070066"},{"name":"根本町","zip_code":"5070065"},{"name":"白山町","zip_code":"5070038"},{"name":"光ケ丘","zip_code":"5070052"},{"name":"東町","zip_code":"5070801"},{"name":"東山","zip_code":"5070019"},{"name":"日ノ出町","zip_code":"5070848"},{"name":"姫町","zip_code":"5070061"},{"name":"平井町","zip_code":"5070058"},{"name":"平野町","zip_code":"5070823"},{"name":"広小路","zip_code":"5070833"},{"name":"富士見町","zip_code":"5070047"},{"name":"平和町","zip_code":"5070827"},{"name":"弁天町","zip_code":"5070028"},{"name":"星ケ台","zip_code":"5070811"},{"name":"本町","zip_code":"5070033"},{"name":"前畑町","zip_code":"5070042"},{"name":"松坂町","zip_code":"5070063"},{"name":"三笠町","zip_code":"5070828"},{"name":"美坂町","zip_code":"5070803"},{"name":"緑ケ丘","zip_code":"5070021"},{"name":"宮前町","zip_code":"5070025"},{"name":"美山町","zip_code":"5070056"},{"name":"御幸町","zip_code":"5070834"},{"name":"明治町","zip_code":"5070841"},{"name":"明和町","zip_code":"5070072"},{"name":"元町","zip_code":"5070824"},{"name":"山下町","zip_code":"5070845"},{"name":"山吹町","zip_code":"5070802"},{"name":"若松町","zip_code":"5070053"},{"name":"脇之島町","zip_code":"5070826"}]},{"name":"関市","divisions":[{"name":"相生町","zip_code":"5013851"},{"name":"赤渕","zip_code":"5013978"},{"name":"上利町","zip_code":"5013852"},{"name":"朝倉町","zip_code":"5013853"},{"name":"旭ケ丘","zip_code":"5013829"},{"name":"安桜台","zip_code":"5013808"},{"name":"安桜山","zip_code":"5013807"},{"name":"吾妻町","zip_code":"5013845"},{"name":"池尻","zip_code":"5013264"},{"name":"池田町","zip_code":"5013247"},{"name":"居敷町","zip_code":"5013966"},{"name":"伊勢町","zip_code":"5013841"},{"name":"板取","zip_code":"5012901"},{"name":"市平賀","zip_code":"5013822"},{"name":"一本木町","zip_code":"5013979"},{"name":"稲口","zip_code":"5013932"},{"name":"稲河町","zip_code":"5013913"},{"name":"鋳物師屋","zip_code":"5013914"},{"name":"いろは町","zip_code":"5013855"},{"name":"植野","zip_code":"5013951"},{"name":"梅ケ枝町","zip_code":"5013974"},{"name":"円保通","zip_code":"5013804"},{"name":"大杉","zip_code":"5013922"},{"name":"大坪","zip_code":"5013801"},{"name":"小瀬","zip_code":"5013265"},{"name":"小瀬長池町","zip_code":"5013268"},{"name":"小瀬南","zip_code":"5013266"},{"name":"小野","zip_code":"5013201"},{"name":"尾太町","zip_code":"5013210"},{"name":"小屋名","zip_code":"5013941"},{"name":"貸上町","zip_code":"5013214"},{"name":"鍛冶町","zip_code":"5013871"},{"name":"春日町","zip_code":"5013865"},{"name":"片倉町","zip_code":"5013963"},{"name":"金屋町","zip_code":"5013872"},{"name":"兼永町","zip_code":"5013862"},{"name":"上大野","zip_code":"5013204"},{"name":"上白金","zip_code":"5013947"},{"name":"神野","zip_code":"5013203"},{"name":"上之保","zip_code":"5013601"},{"name":"河合町","zip_code":"5013877"},{"name":"川間町","zip_code":"5013235"},{"name":"観音前","zip_code":"5013835"},{"name":"観音山","zip_code":"5013806"},{"name":"北天神","zip_code":"5013917"},{"name":"北福野町","zip_code":"5013245"},{"name":"吉田町","zip_code":"5013843"},{"name":"貴船町","zip_code":"5013876"},{"name":"希望ケ丘","zip_code":"5013942"},{"name":"桐ヶ丘","zip_code":"5013938"},{"name":"桐谷台","zip_code":"5013934"},{"name":"倉知","zip_code":"5013936"},{"name":"倉知南","zip_code":"5013930"},{"name":"黒屋","zip_code":"5013207"},{"name":"向陽台","zip_code":"5013927"},{"name":"寿町","zip_code":"5013908"},{"name":"小迫間","zip_code":"5013926"},{"name":"小柳町","zip_code":"5013861"},{"name":"西仙房","zip_code":"5013241"},{"name":"栄町","zip_code":"5013253"},{"name":"坂下町","zip_code":"5013888"},{"name":"桜ケ丘","zip_code":"5013903"},{"name":"桜木町","zip_code":"5013856"},{"name":"桜台","zip_code":"5013931"},{"name":"桜本町","zip_code":"5013232"},{"name":"山王通","zip_code":"5013252"},{"name":"山王通西","zip_code":"5013251"},{"name":"四季ノ台","zip_code":"5013935"},{"name":"十軒町","zip_code":"5013878"},{"name":"志津野","zip_code":"5013205"},{"name":"寺内町","zip_code":"5013972"},{"name":"清水町","zip_code":"5013977"},{"name":"下有知","zip_code":"5013217"},{"name":"下白金","zip_code":"5013955"},{"name":"下之保","zip_code":"5013521"},{"name":"十三塚北","zip_code":"5013259"},{"name":"十三塚町","zip_code":"5013250"},{"name":"十三塚南","zip_code":"5013258"},{"name":"十六所","zip_code":"5013965"},{"name":"白川町","zip_code":"5013868"},{"name":"新田","zip_code":"5013257"},{"name":"新迫間","zip_code":"5013923"},{"name":"新堀町","zip_code":"5013909"},{"name":"新町","zip_code":"5013847"},{"name":"神明町","zip_code":"5013905"},{"name":"末広町","zip_code":"5013848"},{"name":"住吉町","zip_code":"5013846"},{"name":"清蔵寺","zip_code":"5013961"},{"name":"関口町","zip_code":"5013826"},{"name":"関ノ上","zip_code":"5013211"},{"name":"千年町","zip_code":"5013866"},{"name":"千疋","zip_code":"5013954"},{"name":"千疋北","zip_code":"5013953"},{"name":"側島","zip_code":"5013957"},{"name":"大平台","zip_code":"5013952"},{"name":"大平町","zip_code":"5013833"},{"name":"大門町","zip_code":"5013834"},{"name":"宝山町","zip_code":"5013964"},{"name":"竪切南","zip_code":"5013223"},{"name":"竪切北","zip_code":"5013228"},{"name":"段下","zip_code":"5013255"},{"name":"力山","zip_code":"5013968"},{"name":"月見町","zip_code":"5013854"},{"name":"辻井戸町","zip_code":"5013236"},{"name":"津保川台","zip_code":"5013946"},{"name":"出来町","zip_code":"5013842"},{"name":"寺田","zip_code":"5013212"},{"name":"天徳町","zip_code":"5013915"},{"name":"桃紅大地","zip_code":"5013939"},{"name":"東新町","zip_code":"5013824"},{"name":"塔ノ洞","zip_code":"5013206"},{"name":"常盤町","zip_code":"5013867"},{"name":"吐月町","zip_code":"5013887"},{"name":"戸田","zip_code":"5013958"},{"name":"富之保","zip_code":"5013501"},{"name":"富本町","zip_code":"5013863"},{"name":"豊岡町","zip_code":"5013916"},{"name":"豊川町","zip_code":"5013975"},{"name":"中之保","zip_code":"5013511"},{"name":"中福野町","zip_code":"5013243"},{"name":"仲町","zip_code":"5013817"},{"name":"長住町","zip_code":"5013839"},{"name":"西旭ケ丘","zip_code":"5013828"},{"name":"西居敷","zip_code":"5013967"},{"name":"西欠ノ下","zip_code":"5013906"},{"name":"西貸上","zip_code":"5013221"},{"name":"西神野","zip_code":"5013202"},{"name":"西木戸町","zip_code":"5013233"},{"name":"西境松町","zip_code":"5013215"},{"name":"西田原","zip_code":"5013928"},{"name":"西日吉町","zip_code":"5013882"},{"name":"西福野町","zip_code":"5013244"},{"name":"西本郷通","zip_code":"5013803"},{"name":"西町","zip_code":"5013819"},{"name":"西門前町","zip_code":"5013837"},{"name":"虹ケ丘南","zip_code":"5013943"},{"name":"虹ケ丘北","zip_code":"5013945"},{"name":"のぞみケ丘","zip_code":"5013219"},{"name":"梅竜寺山","zip_code":"5013976"},{"name":"迫間","zip_code":"5013924"},{"name":"迫間台","zip_code":"5013925"},{"name":"長谷寺町","zip_code":"5013831"},{"name":"花園町","zip_code":"5013832"},{"name":"巾","zip_code":"5013256"},{"name":"馬場出","zip_code":"5013969"},{"name":"春里町","zip_code":"5013901"},{"name":"東貸上","zip_code":"5013213"},{"name":"東桜町","zip_code":"5013231"},{"name":"東志摩","zip_code":"5013218"},{"name":"東仙房","zip_code":"5013224"},{"name":"東田原","zip_code":"5013921"},{"name":"東出町","zip_code":"5013823"},{"name":"東野町","zip_code":"5013813"},{"name":"東日吉町","zip_code":"5013883"},{"name":"東福野町","zip_code":"5013242"},{"name":"東本郷","zip_code":"5013812"},{"name":"東本郷通","zip_code":"5013811"},{"name":"東町","zip_code":"5013815"},{"name":"東門前町","zip_code":"5013838"},{"name":"東山","zip_code":"5013814"},{"name":"肥田瀬","zip_code":"5013911"},{"name":"一ツ山町","zip_code":"5013973"},{"name":"日ノ出町","zip_code":"5013873"},{"name":"平賀町","zip_code":"5013821"},{"name":"広見","zip_code":"5013263"},{"name":"広見北町","zip_code":"5013261"},{"name":"広見東町","zip_code":"5013262"},{"name":"古屋敷町","zip_code":"5013971"},{"name":"平成通","zip_code":"5013919"},{"name":"平和通","zip_code":"5013874"},{"name":"保明","zip_code":"5013956"},{"name":"北仙房","zip_code":"5013227"},{"name":"星ケ丘","zip_code":"5013267"},{"name":"洞戸阿部","zip_code":"5012807"},{"name":"洞戸市場","zip_code":"5012812"},{"name":"洞戸大野","zip_code":"5012816"},{"name":"洞戸尾倉","zip_code":"5012805"},{"name":"洞戸小瀬見","zip_code":"5012809"},{"name":"洞戸片","zip_code":"5012811"},{"name":"洞戸栗原","zip_code":"5012801"},{"name":"洞戸黒谷","zip_code":"5012815"},{"name":"洞戸高賀","zip_code":"5012806"},{"name":"洞戸高見","zip_code":"5012808"},{"name":"洞戸小坂","zip_code":"5012817"},{"name":"洞戸菅谷","zip_code":"5012814"},{"name":"洞戸通元寺","zip_code":"5012802"},{"name":"洞戸飛瀬","zip_code":"5012803"},{"name":"本郷町","zip_code":"5013805"},{"name":"本町","zip_code":"5013886"},{"name":"前町","zip_code":"5013864"},{"name":"前山町","zip_code":"5013937"},{"name":"孫六町","zip_code":"5013884"},{"name":"水ノ輪町","zip_code":"5013216"},{"name":"美園町","zip_code":"5013836"},{"name":"緑ケ丘","zip_code":"5013246"},{"name":"緑町","zip_code":"5013237"},{"name":"南貸上","zip_code":"5013222"},{"name":"南春日町","zip_code":"5013857"},{"name":"南仙房","zip_code":"5013225"},{"name":"南天神","zip_code":"5013918"},{"name":"南出","zip_code":"5013825"},{"name":"南町","zip_code":"5013907"},{"name":"宮河町","zip_code":"5013912"},{"name":"宮地町","zip_code":"5013827"},{"name":"美和町","zip_code":"5013844"},{"name":"向西仙房","zip_code":"5013226"},{"name":"武芸川町跡部","zip_code":"5012605"},{"name":"武芸川町宇多院","zip_code":"5012607"},{"name":"武芸川町小知野","zip_code":"5012602"},{"name":"武芸川町高野","zip_code":"5012604"},{"name":"武芸川町谷口","zip_code":"5012601"},{"name":"武芸川町八幡","zip_code":"5012603"},{"name":"武芸川町平","zip_code":"5012606"},{"name":"向山町","zip_code":"5013933"},{"name":"明生町","zip_code":"5013904"},{"name":"元重町","zip_code":"5013881"},{"name":"森西町","zip_code":"5013875"},{"name":"柳町","zip_code":"5013962"},{"name":"山田","zip_code":"5013944"},{"name":"山ノ手","zip_code":"5013885"},{"name":"弥生町","zip_code":"5013902"},{"name":"雄飛ケ丘","zip_code":"5013254"},{"name":"吉野町","zip_code":"5013816"},{"name":"吉本町","zip_code":"5013818"},{"name":"若草通","zip_code":"5013802"},{"name":"若宮町","zip_code":"5013234"}]},{"name":"中津川市","divisions":[{"name":"阿木","zip_code":"5080002"},{"name":"阿木川上","zip_code":"5080002"},{"name":"飯沼","zip_code":"5097322"},{"name":"上野","zip_code":"5099231"},{"name":"えびす町","zip_code":"5080037"},{"name":"太田町","zip_code":"5080033"},{"name":"小川町","zip_code":"5080023"},{"name":"落合","zip_code":"5080006"},{"name":"加子母","zip_code":"5080421"},{"name":"かやの木町","zip_code":"5080045"},{"name":"川上","zip_code":"5099201"},{"name":"北野町","zip_code":"5080022"},{"name":"駒場","zip_code":"5080011"},{"name":"駒場町","zip_code":"5080014"},{"name":"栄町","zip_code":"5080032"},{"name":"坂下","zip_code":"5099232"},{"name":"下野","zip_code":"5080202"},{"name":"昭和町","zip_code":"5080044"},{"name":"新町","zip_code":"5080038"},{"name":"瀬戸","zip_code":"5080111"},{"name":"千旦林","zip_code":"5099131"},{"name":"高山","zip_code":"5080204"},{"name":"田瀬","zip_code":"5080201"},{"name":"付知町","zip_code":"5080351"},{"name":"津島町","zip_code":"5080012"},{"name":"手賀野","zip_code":"5080015"},{"name":"苗木","zip_code":"5080101"},{"name":"中一色町","zip_code":"5080003"},{"name":"中川町","zip_code":"5080021"},{"name":"中津川","zip_code":"5080001"},{"name":"茄子川","zip_code":"5099132"},{"name":"西宮町","zip_code":"5080042"},{"name":"八幡町","zip_code":"5080043"},{"name":"花戸町","zip_code":"5080004"},{"name":"東町","zip_code":"5080035"},{"name":"東宮町","zip_code":"5080036"},{"name":"日の出町","zip_code":"5080005"},{"name":"蛭川","zip_code":"5098301"},{"name":"福岡","zip_code":"5080203"},{"name":"本町","zip_code":"5080041"},{"name":"馬籠","zip_code":"5080502"},{"name":"神坂","zip_code":"5080007"},{"name":"宮前町","zip_code":"5080031"},{"name":"桃山町","zip_code":"5080024"},{"name":"柳町","zip_code":"5080013"},{"name":"山口","zip_code":"5080501"},{"name":"淀川町","zip_code":"5080034"}]},{"name":"美濃市","divisions":[{"name":"相生町","zip_code":"5013723"},{"name":"藍川","zip_code":"5013762"},{"name":"安毛","zip_code":"5013717"},{"name":"生櫛","zip_code":"5013756"},{"name":"泉町","zip_code":"5013729"},{"name":"魚屋町","zip_code":"5013724"},{"name":"梅山町","zip_code":"5013715"},{"name":"乙狩","zip_code":"5013786"},{"name":"大矢田","zip_code":"5013771"},{"name":"楓台","zip_code":"5013772"},{"name":"笠神","zip_code":"5013764"},{"name":"加治屋町","zip_code":"5013726"},{"name":"片知","zip_code":"5013781"},{"name":"上河和","zip_code":"5013702"},{"name":"上条","zip_code":"5013743"},{"name":"上野","zip_code":"5013787"},{"name":"亀野町","zip_code":"5013733"},{"name":"神洞","zip_code":"5013783"},{"name":"口野々","zip_code":"5013712"},{"name":"小倉","zip_code":"5013785"},{"name":"極楽寺","zip_code":"5013763"},{"name":"米屋町","zip_code":"5013736"},{"name":"さくらケ丘","zip_code":"5013754"},{"name":"志摩","zip_code":"5013755"},{"name":"下河和","zip_code":"5013703"},{"name":"下渡","zip_code":"5013745"},{"name":"松栄町","zip_code":"5013752"},{"name":"新町","zip_code":"5013737"},{"name":"須原","zip_code":"5013706"},{"name":"曽代","zip_code":"5013714"},{"name":"立花","zip_code":"5013705"},{"name":"俵町","zip_code":"5013725"},{"name":"段町","zip_code":"5013744"},{"name":"千畝町","zip_code":"5013734"},{"name":"中央","zip_code":"5013746"},{"name":"常盤町","zip_code":"5013722"},{"name":"殿町","zip_code":"5013742"},{"name":"富野","zip_code":"5013713"},{"name":"永重町","zip_code":"5013727"},{"name":"長瀬","zip_code":"5013782"},{"name":"西市場町","zip_code":"5013735"},{"name":"東市場町","zip_code":"5013731"},{"name":"樋ケ洞","zip_code":"5013711"},{"name":"広岡町","zip_code":"5013732"},{"name":"保木脇","zip_code":"5013704"},{"name":"前野","zip_code":"5013716"},{"name":"松倉台","zip_code":"5013751"},{"name":"松森","zip_code":"5013753"},{"name":"御手洗","zip_code":"5013784"},{"name":"港町","zip_code":"5013741"},{"name":"本住町","zip_code":"5013728"},{"name":"もみじが丘","zip_code":"5013773"},{"name":"横越","zip_code":"5013761"},{"name":"吉川町","zip_code":"5013721"},{"name":"蕨生","zip_code":"5013788"}]},{"name":"瑞浪市","divisions":[{"name":"明世町月吉","zip_code":"5096131"},{"name":"明世町戸狩","zip_code":"5096133"},{"name":"明世町山野内","zip_code":"5096132"},{"name":"一色町","zip_code":"5096124"},{"name":"稲津町小里","zip_code":"5096103"},{"name":"稲津町萩原","zip_code":"5096102"},{"name":"上平町","zip_code":"5096122"},{"name":"上野町","zip_code":"5096125"},{"name":"大湫町","zip_code":"5096471"},{"name":"小田町","zip_code":"5096112"},{"name":"学園台","zip_code":"5096106"},{"name":"釜戸町","zip_code":"5096472"},{"name":"北小田町","zip_code":"5096115"},{"name":"下沖町","zip_code":"5096111"},{"name":"陶町大川","zip_code":"5096363"},{"name":"陶町猿爪","zip_code":"5096361"},{"name":"陶町水上","zip_code":"5096362"},{"name":"須野志町","zip_code":"5096127"},{"name":"高月町","zip_code":"5096126"},{"name":"樽上町","zip_code":"5096123"},{"name":"寺河戸町","zip_code":"5096121"},{"name":"土岐町","zip_code":"5096101"},{"name":"西小田町","zip_code":"5096114"},{"name":"日吉町","zip_code":"5096251"},{"name":"穂並","zip_code":"5096107"},{"name":"益見町","zip_code":"5096108"},{"name":"松ケ瀬町","zip_code":"5096134"},{"name":"南小田町","zip_code":"5096116"},{"name":"宮前町","zip_code":"5096128"},{"name":"明賀台","zip_code":"5096105"},{"name":"薬師町","zip_code":"5096135"},{"name":"山田町","zip_code":"5096104"},{"name":"和合町","zip_code":"5096113"}]},{"name":"羽島市","divisions":[{"name":"足近町","zip_code":"5016207"},{"name":"足近町市場","zip_code":"5016202"},{"name":"足近町北宿","zip_code":"5016201"},{"name":"足近町小荒井","zip_code":"5016204"},{"name":"足近町坂井","zip_code":"5016208"},{"name":"足近町直道","zip_code":"5016209"},{"name":"足近町南宿","zip_code":"5016203"},{"name":"足近町南之川","zip_code":"5016205"},{"name":"江吉良町","zip_code":"5016236"},{"name":"江吉良町江中","zip_code":"5016238"},{"name":"江吉良町江西","zip_code":"5016237"},{"name":"小熊町","zip_code":"5016273"},{"name":"小熊町相田","zip_code":"5016272"},{"name":"小熊町内粟野","zip_code":"5016262"},{"name":"小熊町江頭","zip_code":"5016263"},{"name":"小熊町川口","zip_code":"5016266"},{"name":"小熊町川口前","zip_code":"5016265"},{"name":"小熊町島","zip_code":"5016264"},{"name":"小熊町島新道","zip_code":"5016253"},{"name":"小熊町島前","zip_code":"5016252"},{"name":"小熊町外粟野","zip_code":"5016261"},{"name":"小熊町天王","zip_code":"5016267"},{"name":"小熊町東小熊","zip_code":"5016271"},{"name":"小熊町西小熊","zip_code":"5016274"},{"name":"上中町一色","zip_code":"5016312"},{"name":"上中町午北","zip_code":"5016317"},{"name":"上中町沖","zip_code":"5016318"},{"name":"上中町中","zip_code":"5016319"},{"name":"上中町長間","zip_code":"5016311"},{"name":"桑原町午南","zip_code":"5016323"},{"name":"桑原町大須","zip_code":"5016325"},{"name":"桑原町小薮","zip_code":"5016324"},{"name":"桑原町西小薮","zip_code":"5016327"},{"name":"桑原町東方","zip_code":"5016326"},{"name":"桑原町平太","zip_code":"5016328"},{"name":"桑原町前野","zip_code":"5016322"},{"name":"桑原町八神","zip_code":"5016321"},{"name":"下中町石田","zip_code":"5016315"},{"name":"下中町市之枝","zip_code":"5016316"},{"name":"下中町加賀野井","zip_code":"5016313"},{"name":"下中町城屋敷","zip_code":"5016314"},{"name":"新生町","zip_code":"5016206"},{"name":"竹鼻町","zip_code":"5016241"},{"name":"竹鼻町飯柄","zip_code":"5016233"},{"name":"竹鼻町神楽","zip_code":"5016231"},{"name":"竹鼻町狐穴","zip_code":"5016232"},{"name":"竹鼻町駒塚","zip_code":"5016234"},{"name":"竹鼻町錦町","zip_code":"5016242"},{"name":"竹鼻町西野町","zip_code":"5016243"},{"name":"竹鼻町蜂尻","zip_code":"5016235"},{"name":"竹鼻町丸の内","zip_code":"5016244"},{"name":"福寿町浅平","zip_code":"5016255"},{"name":"福寿町千代田","zip_code":"5016256"},{"name":"福寿町平方","zip_code":"5016257"},{"name":"福寿町本郷","zip_code":"5016254"},{"name":"福寿町間島","zip_code":"5016251"},{"name":"舟橋町","zip_code":"5016302"},{"name":"舟橋町出須賀","zip_code":"5016304"},{"name":"舟橋町本町","zip_code":"5016303"},{"name":"舟橋町宮北","zip_code":"5016301"},{"name":"堀津町須賀中","zip_code":"5016338"},{"name":"堀津町須賀西","zip_code":"5016336"},{"name":"堀津町須賀南","zip_code":"5016335"},{"name":"堀津町須賀北","zip_code":"5016332"},{"name":"堀津町中屋敷","zip_code":"5016337"},{"name":"堀津町東山","zip_code":"5016333"},{"name":"堀津町前谷","zip_code":"5016334"},{"name":"堀津町横手","zip_code":"5016331"},{"name":"堀津町","zip_code":"5016330"},{"name":"正木町新井","zip_code":"5016225"},{"name":"正木町大浦","zip_code":"5016224"},{"name":"正木町大浦新田","zip_code":"5016223"},{"name":"正木町上大浦","zip_code":"5016212"},{"name":"正木町坂丸","zip_code":"5016229"},{"name":"正木町須賀","zip_code":"5016216"},{"name":"正木町須賀赤松","zip_code":"5016215"},{"name":"正木町須賀池端","zip_code":"5016214"},{"name":"正木町須賀小松","zip_code":"5016217"},{"name":"正木町須賀本村","zip_code":"5016218"},{"name":"正木町不破一色","zip_code":"5016228"},{"name":"正木町曲利","zip_code":"5016227"},{"name":"正木町光法寺","zip_code":"5016213"},{"name":"正木町三ツ柳","zip_code":"5016226"},{"name":"正木町南及","zip_code":"5016211"},{"name":"正木町森","zip_code":"5016221"},{"name":"正木町森新田","zip_code":"5016222"}]},{"name":"恵那市","divisions":[{"name":"明智町","zip_code":"5097731"},{"name":"明智町阿妻","zip_code":"5097725"},{"name":"明智町大泉","zip_code":"5097721"},{"name":"明智町大田","zip_code":"5097723"},{"name":"明智町吉良見","zip_code":"5097726"},{"name":"明智町杉野","zip_code":"5097702"},{"name":"明智町野志","zip_code":"5097701"},{"name":"明智町東方","zip_code":"5097711"},{"name":"明智町横通","zip_code":"5097724"},{"name":"飯地町","zip_code":"5098232"},{"name":"岩村町","zip_code":"5097403"},{"name":"岩村町飯羽間","zip_code":"5097401"},{"name":"岩村町富田","zip_code":"5097402"},{"name":"大井町","zip_code":"5097201"},{"name":"長島町久須見","zip_code":"5097206"},{"name":"長島町正家","zip_code":"5097203"},{"name":"長島町永田","zip_code":"5097204"},{"name":"長島町中野","zip_code":"5097205"},{"name":"長島町鍋山","zip_code":"5097211"},{"name":"笠置町河合","zip_code":"5097207"},{"name":"笠置町毛呂窪","zip_code":"5097209"},{"name":"笠置町姫栗","zip_code":"5097208"},{"name":"上矢作町","zip_code":"5097521"},{"name":"上矢作町漆原","zip_code":"5097511"},{"name":"上矢作町小田子","zip_code":"5097513"},{"name":"上矢作町下","zip_code":"5097512"},{"name":"串原","zip_code":"5097831"},{"name":"武並町新竹折","zip_code":"5097126"},{"name":"武並町竹折","zip_code":"5097122"},{"name":"武並町藤","zip_code":"5097121"},{"name":"中野方町","zip_code":"5098231"},{"name":"東野","zip_code":"5097202"},{"name":"三郷町佐々良木","zip_code":"5097124"},{"name":"三郷町野井","zip_code":"5097123"},{"name":"三郷町椋実","zip_code":"5097125"},{"name":"山岡町釜屋","zip_code":"5097604"},{"name":"山岡町上手向","zip_code":"5097603"},{"name":"山岡町久保原","zip_code":"5097601"},{"name":"山岡町下手向","zip_code":"5097607"},{"name":"山岡町田沢","zip_code":"5097608"},{"name":"山岡町田代","zip_code":"5097606"},{"name":"山岡町馬場山田","zip_code":"5097602"},{"name":"山岡町原","zip_code":"5097605"}]},{"name":"美濃加茂市","divisions":[{"name":"伊深町","zip_code":"5050008"},{"name":"太田町","zip_code":"5050041"},{"name":"太田本町","zip_code":"5050042"},{"name":"大手町","zip_code":"5050035"},{"name":"加茂川町","zip_code":"5050044"},{"name":"加茂野町市橋","zip_code":"5050056"},{"name":"加茂野町稲辺","zip_code":"5050055"},{"name":"加茂野町今泉","zip_code":"5050052"},{"name":"加茂野町加茂野","zip_code":"5050054"},{"name":"加茂野町木野","zip_code":"5050053"},{"name":"加茂野町鷹之巣","zip_code":"5050051"},{"name":"川合町","zip_code":"5050022"},{"name":"草笛町","zip_code":"5050045"},{"name":"古井町下古井","zip_code":"5050034"},{"name":"島町","zip_code":"5050025"},{"name":"清水町","zip_code":"5050026"},{"name":"下米田町今","zip_code":"5050015"},{"name":"下米田町小山","zip_code":"5050017"},{"name":"下米田町為岡","zip_code":"5050019"},{"name":"下米田町西脇","zip_code":"5050018"},{"name":"下米田町信友","zip_code":"5050013"},{"name":"下米田町則光","zip_code":"5050014"},{"name":"下米田町東栃井","zip_code":"5050011"},{"name":"下米田町山本","zip_code":"5050012"},{"name":"新池町","zip_code":"5050031"},{"name":"田島町","zip_code":"5050032"},{"name":"中部台","zip_code":"5050038"},{"name":"中富町","zip_code":"5050033"},{"name":"西町","zip_code":"5050046"},{"name":"野笹町","zip_code":"5050023"},{"name":"蜂屋台","zip_code":"5050039"},{"name":"蜂屋町伊瀬","zip_code":"5050006"},{"name":"蜂屋町上蜂屋","zip_code":"5050004"},{"name":"蜂屋町中蜂屋","zip_code":"5050005"},{"name":"蜂屋町下蜂屋","zip_code":"5050007"},{"name":"蜂屋町矢田","zip_code":"5050009"},{"name":"深田町","zip_code":"5050043"},{"name":"本郷町","zip_code":"5050027"},{"name":"前平町","zip_code":"5050037"},{"name":"牧野","zip_code":"5050016"},{"name":"御門町","zip_code":"5050024"},{"name":"三和町川浦","zip_code":"5050002"},{"name":"三和町廿屋","zip_code":"5050001"},{"name":"森山町","zip_code":"5050021"},{"name":"山手町","zip_code":"5050036"},{"name":"山之上町","zip_code":"5050003"}]},{"name":"土岐市","divisions":[{"name":"旭ケ丘町","zip_code":"5095403"},{"name":"泉池ノ上町","zip_code":"5095144"},{"name":"泉岩畑町","zip_code":"5095141"},{"name":"泉梅ノ木町","zip_code":"5095107"},{"name":"泉大島町","zip_code":"5095136"},{"name":"泉大坪町","zip_code":"5095151"},{"name":"泉大沼町","zip_code":"5095145"},{"name":"泉北山町","zip_code":"5095171"},{"name":"泉郷町","zip_code":"5095147"},{"name":"泉島田町","zip_code":"5095134"},{"name":"泉神栄町","zip_code":"5095133"},{"name":"泉寺下町","zip_code":"5095152"},{"name":"泉寺田町","zip_code":"5095131"},{"name":"泉中窯町","zip_code":"5095104"},{"name":"泉仲森町","zip_code":"5095106"},{"name":"泉西窯町","zip_code":"5095105"},{"name":"泉西原町","zip_code":"5095153"},{"name":"泉西山町","zip_code":"5095154"},{"name":"泉東窯町","zip_code":"5095103"},{"name":"泉明治町","zip_code":"5095146"},{"name":"泉森下町","zip_code":"5095135"},{"name":"泉が丘町","zip_code":"5095161"},{"name":"泉町大富","zip_code":"5095132"},{"name":"泉町河合","zip_code":"5095101"},{"name":"泉町久尻","zip_code":"5095142"},{"name":"泉町定林寺","zip_code":"5095102"},{"name":"泉日の出町","zip_code":"5095143"},{"name":"下石阿庄町","zip_code":"5095201"},{"name":"下石陶史台","zip_code":"5095203"},{"name":"下石町","zip_code":"5095202"},{"name":"曽木町","zip_code":"5095402"},{"name":"駄知町","zip_code":"5095401"},{"name":"妻木平成町","zip_code":"5095302"},{"name":"妻木町","zip_code":"5095301"},{"name":"鶴里町柿野","zip_code":"5095312"},{"name":"鶴里町細野","zip_code":"5095311"},{"name":"土岐ヶ丘","zip_code":"5095127"},{"name":"土岐口中町","zip_code":"5095124"},{"name":"土岐口南町","zip_code":"5095123"},{"name":"土岐口北町","zip_code":"5095126"},{"name":"土岐津町高山","zip_code":"5095121"},{"name":"土岐津町土岐口","zip_code":"5095122"},{"name":"肥田浅野朝日町","zip_code":"5095117"},{"name":"肥田浅野梅ノ木町","zip_code":"5095118"},{"name":"肥田浅野笠神町","zip_code":"5095112"},{"name":"肥田浅野双葉町","zip_code":"5095111"},{"name":"肥田浅野元町","zip_code":"5095113"},{"name":"肥田浅野矢落町","zip_code":"5095116"},{"name":"肥田町浅野","zip_code":"5095114"},{"name":"肥田町肥田","zip_code":"5095403"},{"name":"御幸町","zip_code":"5095125"}]},{"name":"各務原市","divisions":[{"name":"鵜沼","zip_code":"5090111"},{"name":"鵜沼朝日町","zip_code":"5090145"},{"name":"鵜沼大伊木町","zip_code":"5090144"},{"name":"鵜沼各務原町","zip_code":"5090141"},{"name":"鵜沼川崎町","zip_code":"5090147"},{"name":"鵜沼小伊木町","zip_code":"5090143"},{"name":"鵜沼大安寺町","zip_code":"5090117"},{"name":"鵜沼羽場町","zip_code":"5090135"},{"name":"鵜沼東町","zip_code":"5090126"},{"name":"鵜沼西町","zip_code":"5090132"},{"name":"鵜沼古市場町","zip_code":"5090133"},{"name":"鵜沼宝積寺町","zip_code":"5090123"},{"name":"鵜沼真名越町","zip_code":"5090134"},{"name":"鵜沼丸子町","zip_code":"5090142"},{"name":"鵜沼三ツ池町","zip_code":"5090146"},{"name":"鵜沼南町","zip_code":"5090125"},{"name":"鵜沼山崎町","zip_code":"5090124"},{"name":"鵜沼台","zip_code":"5090121"},{"name":"大佐野町","zip_code":"5040931"},{"name":"大野町","zip_code":"5040934"},{"name":"尾崎西町","zip_code":"5040004"},{"name":"尾崎南町","zip_code":"5040003"},{"name":"尾崎北町","zip_code":"5040002"},{"name":"各務おがせ町","zip_code":"5090104"},{"name":"各務車洞","zip_code":"5090102"},{"name":"各務東町","zip_code":"5090103"},{"name":"各務西町","zip_code":"5090106"},{"name":"各務船山町","zip_code":"5090107"},{"name":"各務山の前町","zip_code":"5090105"},{"name":"神置町","zip_code":"5040933"},{"name":"上中屋町","zip_code":"5040926"},{"name":"川崎町","zip_code":"5040971"},{"name":"川島笠田町","zip_code":"5016021"},{"name":"川島北山町","zip_code":"5016029"},{"name":"川島小網町","zip_code":"5016023"},{"name":"川島河田町","zip_code":"5016025"},{"name":"川島竹早町","zip_code":"5016024"},{"name":"川島松倉町","zip_code":"5016022"},{"name":"川島松原町","zip_code":"5016026"},{"name":"川島緑町","zip_code":"5016027"},{"name":"川島渡町","zip_code":"5016028"},{"name":"金属団地","zip_code":"5040957"},{"name":"小佐野町","zip_code":"5040942"},{"name":"下切町","zip_code":"5040924"},{"name":"下中屋町","zip_code":"5040932"},{"name":"上戸町","zip_code":"5040927"},{"name":"新鵜沼台","zip_code":"5090122"},{"name":"須衛","zip_code":"5090101"},{"name":"須衛町","zip_code":"5090108"},{"name":"蘇原赤羽根町","zip_code":"5040841"},{"name":"蘇原旭町","zip_code":"5040824"},{"name":"蘇原飛鳥町","zip_code":"5040808"},{"name":"蘇原伊吹町","zip_code":"5040851"},{"name":"蘇原大島町","zip_code":"5040847"},{"name":"蘇原柿沢町","zip_code":"5040825"},{"name":"蘇原菊園町","zip_code":"5040823"},{"name":"蘇原北山町","zip_code":"5040801"},{"name":"蘇原吉新町","zip_code":"5040844"},{"name":"蘇原希望町","zip_code":"5040829"},{"name":"蘇原清住町","zip_code":"5040807"},{"name":"蘇原熊田町","zip_code":"5040853"},{"name":"蘇原興亜町","zip_code":"5040814"},{"name":"蘇原坂井町","zip_code":"5040812"},{"name":"蘇原栄町","zip_code":"5040822"},{"name":"蘇原早苗町","zip_code":"5040826"},{"name":"蘇原申子町","zip_code":"5040845"},{"name":"蘇原沢上町","zip_code":"5040827"},{"name":"蘇原島崎町","zip_code":"5040856"},{"name":"蘇原昭栄町","zip_code":"5040805"},{"name":"蘇原新栄町","zip_code":"5040855"},{"name":"蘇原新生町","zip_code":"5040804"},{"name":"蘇原瑞雲町","zip_code":"5040821"},{"name":"蘇原青雲町","zip_code":"5040843"},{"name":"蘇原中央町","zip_code":"5040813"},{"name":"蘇原月丘町","zip_code":"5040903"},{"name":"蘇原寺島町","zip_code":"5040842"},{"name":"蘇原東栄町","zip_code":"5040815"},{"name":"蘇原東門町","zip_code":"5040803"},{"name":"蘇原外山町","zip_code":"5040806"},{"name":"蘇原野口町","zip_code":"5040854"},{"name":"蘇原花園町","zip_code":"5040832"},{"name":"蘇原東島町","zip_code":"5040816"},{"name":"蘇原古市場町","zip_code":"5040852"},{"name":"蘇原北陽町","zip_code":"5040809"},{"name":"蘇原三柿野町","zip_code":"5040904"},{"name":"蘇原瑞穂町","zip_code":"5040831"},{"name":"蘇原緑町","zip_code":"5040902"},{"name":"蘇原宮代町","zip_code":"5040012"},{"name":"蘇原宮塚町","zip_code":"5040013"},{"name":"蘇原村雨町","zip_code":"5040828"},{"name":"蘇原持田町","zip_code":"5040802"},{"name":"蘇原吉野町","zip_code":"5040846"},{"name":"蘇原六軒町","zip_code":"5040905"},{"name":"蘇原和合町","zip_code":"5040811"},{"name":"つつじが丘","zip_code":"5090131"},{"name":"テクノプラザ","zip_code":"5090109"},{"name":"那加吾妻町","zip_code":"5040962"},{"name":"那加荒田町","zip_code":"5040036"},{"name":"那加芦原町","zip_code":"5040007"},{"name":"那加石山町","zip_code":"5040044"},{"name":"那加岩地町","zip_code":"5040047"},{"name":"那加甥田町","zip_code":"5040837"},{"name":"那加扇平","zip_code":"5040009"},{"name":"那加大谷町","zip_code":"5040033"},{"name":"那加大洞","zip_code":"5040001"},{"name":"那加織田町","zip_code":"5040908"},{"name":"那加御屋敷町","zip_code":"5040016"},{"name":"那加兼橋町","zip_code":"5040031"},{"name":"那加萱場町","zip_code":"5040943"},{"name":"那加柄山町","zip_code":"5040005"},{"name":"那加北栄町","zip_code":"5040963"},{"name":"那加北洞町","zip_code":"5040011"},{"name":"那加桐野町","zip_code":"5040008"},{"name":"那加桐野外二ケ所大字入会地","zip_code":"5040906"},{"name":"那加楠町","zip_code":"5040916"},{"name":"那加五反田町","zip_code":"5040037"},{"name":"那加琴が丘町","zip_code":"5040006"},{"name":"那加幸町","zip_code":"5040024"},{"name":"那加栄町","zip_code":"5040954"},{"name":"那加桜町","zip_code":"5040912"},{"name":"那加昭南町","zip_code":"5040834"},{"name":"那加新加納町","zip_code":"5040958"},{"name":"那加新田町","zip_code":"5040045"},{"name":"那加新那加町","zip_code":"5040961"},{"name":"那加神田町","zip_code":"5040032"},{"name":"那加住吉町","zip_code":"5040907"},{"name":"那加太平町","zip_code":"5040023"},{"name":"那加大東町","zip_code":"5040913"},{"name":"那加大門町","zip_code":"5040038"},{"name":"那加手力町","zip_code":"5040043"},{"name":"那加東亜町","zip_code":"5040022"},{"name":"那加東新町","zip_code":"5040901"},{"name":"那加土山町","zip_code":"5040041"},{"name":"那加長塚町","zip_code":"5040046"},{"name":"那加西市場町","zip_code":"5040018"},{"name":"那加西浦町","zip_code":"5040959"},{"name":"那加西那加町","zip_code":"5040952"},{"name":"那加西野町","zip_code":"5040968"},{"name":"那加日新町","zip_code":"5040945"},{"name":"那加野畑町","zip_code":"5040025"},{"name":"那加信長町","zip_code":"5040909"},{"name":"那加巾下町","zip_code":"5040839"},{"name":"那加浜見町","zip_code":"5040034"},{"name":"那加東那加町","zip_code":"5040953"},{"name":"那加東野町","zip_code":"5040015"},{"name":"那加日之出町","zip_code":"5040965"},{"name":"那加雲雀町","zip_code":"5040836"},{"name":"那加日吉町","zip_code":"5040951"},{"name":"那加不動丘","zip_code":"5040838"},{"name":"那加本町","zip_code":"5040966"},{"name":"那加前野町","zip_code":"5040026"},{"name":"那加前洞新町","zip_code":"5040021"},{"name":"那加緑町","zip_code":"5040944"},{"name":"那加南栄町","zip_code":"5040955"},{"name":"那加宮浦町","zip_code":"5040035"},{"name":"那加元町","zip_code":"5040964"},{"name":"那加門前町","zip_code":"5040911"},{"name":"那加山後町","zip_code":"5040042"},{"name":"那加山崎町","zip_code":"5040014"},{"name":"那加山下町","zip_code":"5040017"},{"name":"那加雄飛ケ丘町","zip_code":"5040835"},{"name":"那加楽天地町","zip_code":"5040967"},{"name":"成清町","zip_code":"5040935"},{"name":"入会町","zip_code":"5040833"},{"name":"東山","zip_code":"5040861"},{"name":"前渡東町","zip_code":"5040922"},{"name":"前渡西町","zip_code":"5040923"},{"name":"前渡北町","zip_code":"5040921"},{"name":"松が丘","zip_code":"5090136"},{"name":"松本町","zip_code":"5040925"},{"name":"三井北町","zip_code":"5040956"},{"name":"三井町","zip_code":"5040941"},{"name":"三井東町","zip_code":"5040914"},{"name":"三井山町","zip_code":"5040915"},{"name":"山脇町","zip_code":"5040928"},{"name":"緑苑中","zip_code":"5090114"},{"name":"緑苑東","zip_code":"5090113"},{"name":"緑苑西","zip_code":"5090116"},{"name":"緑苑南","zip_code":"5090115"},{"name":"緑苑北","zip_code":"5090112"}]},{"name":"可児市","divisions":[{"name":"愛岐ケ丘","zip_code":"5090259"},{"name":"石井","zip_code":"5090215"},{"name":"石森","zip_code":"5090216"},{"name":"今","zip_code":"5090246"},{"name":"今渡","zip_code":"5090207"},{"name":"大森","zip_code":"5090238"},{"name":"大森台","zip_code":"5090239"},{"name":"柿下","zip_code":"5090233"},{"name":"柿田","zip_code":"5090212"},{"name":"帷子新町","zip_code":"5090266"},{"name":"桂ケ丘","zip_code":"5090237"},{"name":"兼山","zip_code":"5050130"},{"name":"川合","zip_code":"5090201"},{"name":"川合北","zip_code":"5090208"},{"name":"久々利","zip_code":"5090224"},{"name":"久々利柿下入会","zip_code":"5090234"},{"name":"光陽台","zip_code":"5090255"},{"name":"坂戸","zip_code":"5090241"},{"name":"桜ケ丘","zip_code":"5090235"},{"name":"皐ケ丘","zip_code":"5090236"},{"name":"塩","zip_code":"5090251"},{"name":"清水ケ丘","zip_code":"5090248"},{"name":"下恵土","zip_code":"5090203"},{"name":"下切","zip_code":"5090245"},{"name":"塩河","zip_code":"5090247"},{"name":"菅刈","zip_code":"5090262"},{"name":"瀬田","zip_code":"5090213"},{"name":"禅台寺","zip_code":"5090204"},{"name":"徳野南","zip_code":"5090205"},{"name":"土田","zip_code":"5090206"},{"name":"中恵土","zip_code":"5090202"},{"name":"長坂","zip_code":"5090257"},{"name":"長洞","zip_code":"5090254"},{"name":"西帷子","zip_code":"5090265"},{"name":"虹ケ丘","zip_code":"5090261"},{"name":"二野","zip_code":"5090232"},{"name":"羽崎","zip_code":"5090222"},{"name":"鳩吹台","zip_code":"5090264"},{"name":"羽生ケ丘","zip_code":"5090223"},{"name":"東帷子","zip_code":"5090256"},{"name":"姫ケ丘","zip_code":"5090249"},{"name":"平貝戸","zip_code":"5090217"},{"name":"広見","zip_code":"5090214"},{"name":"広眺ケ丘","zip_code":"5090221"},{"name":"渕之上","zip_code":"5090211"},{"name":"星見台","zip_code":"5090230"},{"name":"松伏","zip_code":"5090218"},{"name":"美里ケ丘","zip_code":"5090250"},{"name":"みずきケ丘","zip_code":"5090240"},{"name":"緑","zip_code":"5090263"},{"name":"緑ケ丘","zip_code":"5090231"},{"name":"室原","zip_code":"5090253"},{"name":"矢戸","zip_code":"5090252"},{"name":"谷迫間","zip_code":"5090242"},{"name":"若葉台","zip_code":"5090258"}]},{"name":"山県市","divisions":[{"name":"相戸","zip_code":"5012252"},{"name":"青波","zip_code":"5012256"},{"name":"赤尾","zip_code":"5012111"},{"name":"伊佐美","zip_code":"5012102"},{"name":"岩佐","zip_code":"5012259"},{"name":"梅原","zip_code":"5012115"},{"name":"円原","zip_code":"5012302"},{"name":"大桑","zip_code":"5012101"},{"name":"大森","zip_code":"5012123"},{"name":"柿野","zip_code":"5012251"},{"name":"掛","zip_code":"5012132"},{"name":"片原","zip_code":"5012303"},{"name":"神崎","zip_code":"5012301"},{"name":"葛原","zip_code":"5012331"},{"name":"小倉","zip_code":"5012124"},{"name":"佐賀","zip_code":"5012114"},{"name":"笹賀","zip_code":"5012314"},{"name":"佐野","zip_code":"5012312"},{"name":"椎倉","zip_code":"5012103"},{"name":"上願","zip_code":"5012133"},{"name":"大門","zip_code":"5012121"},{"name":"高木","zip_code":"5012113"},{"name":"高富","zip_code":"5012105"},{"name":"田栗","zip_code":"5012315"},{"name":"谷合","zip_code":"5012321"},{"name":"椿","zip_code":"5012311"},{"name":"出戸","zip_code":"5012254"},{"name":"徳永","zip_code":"5012313"},{"name":"富永","zip_code":"5012257"},{"name":"長滝","zip_code":"5012135"},{"name":"中洞","zip_code":"5012258"},{"name":"西深瀬","zip_code":"5012112"},{"name":"東深瀬","zip_code":"5012104"},{"name":"日永","zip_code":"5012253"},{"name":"平井","zip_code":"5012131"},{"name":"藤倉","zip_code":"5012122"},{"name":"船越","zip_code":"5012255"},{"name":"洞田","zip_code":"5012125"},{"name":"松尾","zip_code":"5012134"}]},{"name":"瑞穂市","divisions":[{"name":"居倉","zip_code":"5010302"},{"name":"稲里","zip_code":"5010224"},{"name":"牛牧","zip_code":"5010234"},{"name":"大月","zip_code":"5010306"},{"name":"唐栗","zip_code":"5010307"},{"name":"犀川","zip_code":"5010237"},{"name":"重里","zip_code":"5010311"},{"name":"十七条","zip_code":"5010313"},{"name":"十八条","zip_code":"5010314"},{"name":"十九条","zip_code":"5010235"},{"name":"祖父江","zip_code":"5010225"},{"name":"只越","zip_code":"5010221"},{"name":"田之上","zip_code":"5010304"},{"name":"中宮","zip_code":"5010323"},{"name":"七崎","zip_code":"5010301"},{"name":"生津","zip_code":"5010211"},{"name":"生津外宮東町","zip_code":"5010214"},{"name":"生津外宮前町","zip_code":"5010217"},{"name":"生津滝坪町","zip_code":"5010212"},{"name":"生津天王東町","zip_code":"5010215"},{"name":"生津天王町","zip_code":"5010216"},{"name":"生津内宮町","zip_code":"5010213"},{"name":"野田新田","zip_code":"5010232"},{"name":"野白新田","zip_code":"5010231"},{"name":"馬場","zip_code":"5010201"},{"name":"馬場北町","zip_code":"5010206"},{"name":"馬場小城町","zip_code":"5010205"},{"name":"馬場上光町","zip_code":"5010203"},{"name":"馬場春雨町","zip_code":"5010204"},{"name":"馬場前畑町","zip_code":"5010202"},{"name":"古橋","zip_code":"5010322"},{"name":"別府","zip_code":"5010222"},{"name":"宝江","zip_code":"5010233"},{"name":"穂積","zip_code":"5010223"},{"name":"本田","zip_code":"5010236"},{"name":"美江寺","zip_code":"5010312"},{"name":"宮田","zip_code":"5010305"},{"name":"森","zip_code":"5010303"},{"name":"横屋","zip_code":"5010321"},{"name":"呂久","zip_code":"5010324"}]},{"name":"飛騨市","divisions":[{"name":"神岡町旭ケ丘","zip_code":"5061121"},{"name":"神岡町東雲","zip_code":"5061147"},{"name":"神岡町阿曽保","zip_code":"5061149"},{"name":"神岡町麻生野","zip_code":"5061131"},{"name":"神岡町朝浦","zip_code":"5061162"},{"name":"神岡町跡津川","zip_code":"5061212"},{"name":"神岡町石神","zip_code":"5061132"},{"name":"神岡町伊西","zip_code":"5061106"},{"name":"神岡町岩井谷","zip_code":"5061103"},{"name":"神岡町打保","zip_code":"5061102"},{"name":"神岡町江馬町","zip_code":"5061125"},{"name":"神岡町柏原","zip_code":"5061158"},{"name":"神岡町釜崎","zip_code":"5061145"},{"name":"神岡町小萱","zip_code":"5061143"},{"name":"神岡町坂富町","zip_code":"5061122"},{"name":"神岡町桜ケ丘","zip_code":"5061126"},{"name":"神岡町佐古","zip_code":"5061211"},{"name":"神岡町鹿間","zip_code":"5061114"},{"name":"神岡町下之本","zip_code":"5061107"},{"name":"神岡町城ケ丘","zip_code":"5061123"},{"name":"神岡町杉山","zip_code":"5061204"},{"name":"神岡町数河","zip_code":"5061133"},{"name":"神岡町巣山","zip_code":"5061157"},{"name":"神岡町瀬戸","zip_code":"5061108"},{"name":"神岡町館野町","zip_code":"5061148"},{"name":"神岡町谷","zip_code":"5061201"},{"name":"神岡町寺林","zip_code":"5061152"},{"name":"神岡町土","zip_code":"5061213"},{"name":"神岡町殿","zip_code":"5061121"},{"name":"神岡町中山","zip_code":"5061202"},{"name":"神岡町梨ケ根","zip_code":"5061151"},{"name":"神岡町西","zip_code":"5061155"},{"name":"神岡町西漆山","zip_code":"5061215"},{"name":"神岡町西茂住","zip_code":"5061206"},{"name":"神岡町野首","zip_code":"5061141"},{"name":"神岡町東漆山","zip_code":"5061216"},{"name":"神岡町東町","zip_code":"5061111"},{"name":"神岡町東茂住","zip_code":"5061205"},{"name":"神岡町伏方","zip_code":"5061154"},{"name":"神岡町二ツ屋","zip_code":"5061217"},{"name":"神岡町船津","zip_code":"5061161"},{"name":"神岡町堀之内","zip_code":"5061153"},{"name":"神岡町牧","zip_code":"5061214"},{"name":"神岡町牧ケ平","zip_code":"5061161"},{"name":"神岡町丸山","zip_code":"5061142"},{"name":"神岡町緑ケ丘","zip_code":"5061146"},{"name":"神岡町森茂","zip_code":"5061104"},{"name":"神岡町山田","zip_code":"5061156"},{"name":"神岡町夕陽ケ丘","zip_code":"5061124"},{"name":"神岡町横山","zip_code":"5061203"},{"name":"神岡町吉ケ原","zip_code":"5061113"},{"name":"神岡町吉田","zip_code":"5061144"},{"name":"神岡町六郎","zip_code":"5061111"},{"name":"神岡町和佐府","zip_code":"5061101"},{"name":"神岡町和佐保","zip_code":"5061105"},{"name":"神岡町割石","zip_code":"5061112"},{"name":"河合町天生","zip_code":"5094315"},{"name":"河合町稲越","zip_code":"5094312"},{"name":"河合町有家","zip_code":"5094303"},{"name":"河合町大谷","zip_code":"5094311"},{"name":"河合町元田","zip_code":"5094316"},{"name":"河合町小無雁","zip_code":"5094302"},{"name":"河合町上ケ島","zip_code":"5094317"},{"name":"河合町新名","zip_code":"5094318"},{"name":"河合町月ケ瀬","zip_code":"5094314"},{"name":"河合町角川","zip_code":"5094301"},{"name":"河合町中沢上","zip_code":"5094306"},{"name":"河合町羽根","zip_code":"5094304"},{"name":"河合町舟原","zip_code":"5060271"},{"name":"河合町保","zip_code":"5094313"},{"name":"河合町保木林","zip_code":"5094305"},{"name":"古川町朝開町","zip_code":"5094252"},{"name":"古川町壱之町","zip_code":"5094234"},{"name":"古川町畦畑","zip_code":"5094265"},{"name":"古川町大野町","zip_code":"5094255"},{"name":"古川町片原町","zip_code":"5094222"},{"name":"古川町金森町","zip_code":"5094225"},{"name":"古川町上気多","zip_code":"5094212"},{"name":"古川町上野","zip_code":"5094263"},{"name":"古川町上町","zip_code":"5094254"},{"name":"古川町貴船町","zip_code":"5094243"},{"name":"古川町黒内","zip_code":"5094275"},{"name":"古川町袈裟丸","zip_code":"5094203"},{"name":"古川町幸栄町","zip_code":"5094245"},{"name":"古川町是重","zip_code":"5094244"},{"name":"古川町栄","zip_code":"5094237"},{"name":"古川町笹ケ洞","zip_code":"5094274"},{"name":"古川町三之町","zip_code":"5094236"},{"name":"古川町下気多","zip_code":"5094213"},{"name":"古川町下野","zip_code":"5094261"},{"name":"古川町新栄町","zip_code":"5094231"},{"name":"古川町末真","zip_code":"5094205"},{"name":"古川町末広町","zip_code":"5094233"},{"name":"古川町杉崎","zip_code":"5094215"},{"name":"古川町数河","zip_code":"5094201"},{"name":"古川町太江","zip_code":"5094211"},{"name":"古川町高野","zip_code":"5094256"},{"name":"古川町谷","zip_code":"5094271"},{"name":"古川町寺地","zip_code":"5094273"},{"name":"古川町戸市","zip_code":"5094202"},{"name":"古川町殿町","zip_code":"5094224"},{"name":"古川町中野","zip_code":"5094262"},{"name":"古川町南成町","zip_code":"5094253"},{"name":"古川町弐之町","zip_code":"5094235"},{"name":"古川町沼町","zip_code":"5094214"},{"name":"古川町野口","zip_code":"5094204"},{"name":"古川町信包","zip_code":"5094272"},{"name":"古川町東町","zip_code":"5094223"},{"name":"古川町平岩","zip_code":"5094264"},{"name":"古川町本町","zip_code":"5094232"},{"name":"古川町増島町","zip_code":"5094242"},{"name":"古川町宮城町","zip_code":"5094251"},{"name":"古川町向町","zip_code":"5094241"},{"name":"古川町若宮","zip_code":"5094221"},{"name":"宮川町小豆沢","zip_code":"5094541"},{"name":"宮川町鮎飛","zip_code":"5094531"},{"name":"宮川町打保","zip_code":"5094545"},{"name":"宮川町大無雁","zip_code":"5094414"},{"name":"宮川町落合","zip_code":"5094415"},{"name":"宮川町岸奥","zip_code":"5094412"},{"name":"宮川町桑野","zip_code":"5094543"},{"name":"宮川町小谷","zip_code":"5094413"},{"name":"宮川町三川原","zip_code":"5094403"},{"name":"宮川町塩屋","zip_code":"5094533"},{"name":"宮川町菅沼","zip_code":"5094401"},{"name":"宮川町杉原","zip_code":"5094542"},{"name":"宮川町巣之内","zip_code":"5094404"},{"name":"宮川町巣納谷","zip_code":"5094531"},{"name":"宮川町高牧","zip_code":"5094421"},{"name":"宮川町種蔵","zip_code":"5094402"},{"name":"宮川町戸谷","zip_code":"5094544"},{"name":"宮川町中沢上","zip_code":"5094534"},{"name":"宮川町西忍","zip_code":"5094422"},{"name":"宮川町祢宜ケ沢上","zip_code":"5094535"},{"name":"宮川町野首","zip_code":"5094411"},{"name":"宮川町林","zip_code":"5094423"},{"name":"宮川町洞","zip_code":"5094532"},{"name":"宮川町牧戸","zip_code":"5094406"},{"name":"宮川町丸山","zip_code":"5094405"},{"name":"宮川町森安","zip_code":"5094424"}]},{"name":"本巣市","divisions":[{"name":"浅木","zip_code":"5010475"},{"name":"有里","zip_code":"5010415"},{"name":"石神","zip_code":"5010410"},{"name":"石原","zip_code":"5010405"},{"name":"海老","zip_code":"5010476"},{"name":"数屋","zip_code":"5010414"},{"name":"上高屋","zip_code":"5010411"},{"name":"上保","zip_code":"5010401"},{"name":"上真桑","zip_code":"5010461"},{"name":"軽海","zip_code":"5010465"},{"name":"北野","zip_code":"5010403"},{"name":"金原","zip_code":"5011232"},{"name":"郡府","zip_code":"5010402"},{"name":"神海","zip_code":"5011235"},{"name":"小柿","zip_code":"5010463"},{"name":"国領","zip_code":"5010474"},{"name":"木知原","zip_code":"5011234"},{"name":"佐原","zip_code":"5011236"},{"name":"七五三","zip_code":"5010418"},{"name":"下福島","zip_code":"5010472"},{"name":"下真桑","zip_code":"5010466"},{"name":"十四条","zip_code":"5010464"},{"name":"随原","zip_code":"5010416"},{"name":"曽井中島","zip_code":"5011205"},{"name":"宗慶","zip_code":"5010462"},{"name":"外山","zip_code":"5011233"},{"name":"長屋","zip_code":"5010412"},{"name":"鍋原","zip_code":"5011236"},{"name":"温井","zip_code":"5010473"},{"name":"根尾板所","zip_code":"5011524"},{"name":"根尾市場","zip_code":"5011521"},{"name":"根尾今村","zip_code":"5011525"},{"name":"根尾宇津志","zip_code":"5011527"},{"name":"根尾大井","zip_code":"5011535"},{"name":"根尾大河原","zip_code":"5011507"},{"name":"根尾奥谷","zip_code":"5011514"},{"name":"根尾小鹿","zip_code":"5011518"},{"name":"根尾越卒","zip_code":"5011532"},{"name":"根尾越波","zip_code":"5011501"},{"name":"根尾門脇","zip_code":"5011531"},{"name":"根尾上大須","zip_code":"5011511"},{"name":"根尾川原","zip_code":"5011523"},{"name":"根尾口谷","zip_code":"5011515"},{"name":"根尾黒津","zip_code":"5011502"},{"name":"根尾神所","zip_code":"5011534"},{"name":"根尾下大須","zip_code":"5011512"},{"name":"根尾高尾","zip_code":"5011528"},{"name":"根尾樽見","zip_code":"5011522"},{"name":"根尾天神堂","zip_code":"5011504"},{"name":"根尾中","zip_code":"5011533"},{"name":"根尾長島","zip_code":"5011505"},{"name":"根尾長嶺","zip_code":"5011503"},{"name":"根尾西板屋","zip_code":"5011517"},{"name":"根尾能郷","zip_code":"5011506"},{"name":"根尾東板屋","zip_code":"5011516"},{"name":"根尾平野","zip_code":"5011526"},{"name":"根尾松田","zip_code":"5011513"},{"name":"根尾水鳥","zip_code":"5011529"},{"name":"根尾八谷","zip_code":"5011536"},{"name":"早野","zip_code":"5010419"},{"name":"春近","zip_code":"5010404"},{"name":"日当","zip_code":"5011231"},{"name":"仏生寺","zip_code":"5010407"},{"name":"宝珠ハイツ","zip_code":"5011203"},{"name":"法林寺","zip_code":"5011202"},{"name":"政田","zip_code":"5010471"},{"name":"三橋","zip_code":"5010406"},{"name":"見延","zip_code":"5010413"},{"name":"文殊","zip_code":"5011203"},{"name":"屋井","zip_code":"5010417"},{"name":"山口","zip_code":"5011201"}]},{"name":"郡上市","divisions":[{"name":"白鳥町阿多岐","zip_code":"5015111"},{"name":"白鳥町石徹白","zip_code":"5015231"},{"name":"白鳥町大島","zip_code":"5015124"},{"name":"白鳥町恩地","zip_code":"5015115"},{"name":"白鳥町越佐","zip_code":"5015125"},{"name":"白鳥町白鳥","zip_code":"5015121"},{"name":"白鳥町為真","zip_code":"5015122"},{"name":"白鳥町長滝","zip_code":"5015104"},{"name":"白鳥町中津屋","zip_code":"5015123"},{"name":"白鳥町中西","zip_code":"5015116"},{"name":"白鳥町那留","zip_code":"5015114"},{"name":"白鳥町野添","zip_code":"5015113"},{"name":"白鳥町干田野","zip_code":"5015105"},{"name":"白鳥町二日町","zip_code":"5015103"},{"name":"白鳥町歩岐島","zip_code":"5015102"},{"name":"白鳥町前谷","zip_code":"5015101"},{"name":"白鳥町向小駄良","zip_code":"5015126"},{"name":"白鳥町六ノ里","zip_code":"5015112"},{"name":"高鷲町鮎立","zip_code":"5015304"},{"name":"高鷲町大鷲","zip_code":"5015303"},{"name":"高鷲町切立","zip_code":"5015304"},{"name":"高鷲町西洞","zip_code":"5015305"},{"name":"高鷲町ひるがの","zip_code":"5015301"},{"name":"高鷲町鷲見","zip_code":"5015302"},{"name":"八幡町相生","zip_code":"5014236"},{"name":"八幡町安久田","zip_code":"5014205"},{"name":"八幡町旭","zip_code":"5014204"},{"name":"八幡町有坂","zip_code":"5014235"},{"name":"八幡町有穂","zip_code":"5014201"},{"name":"八幡町市島","zip_code":"5014202"},{"name":"八幡町稲成","zip_code":"5014223"},{"name":"八幡町入間","zip_code":"5014451"},{"name":"八幡町大手町","zip_code":"5014219"},{"name":"八幡町尾崎町","zip_code":"5014217"},{"name":"八幡町小那比","zip_code":"5014455"},{"name":"八幡町小野","zip_code":"5014221"},{"name":"八幡町河鹿","zip_code":"5014231"},{"name":"八幡町鍛冶屋町","zip_code":"5014218"},{"name":"八幡町五町","zip_code":"5014234"},{"name":"八幡町肴町","zip_code":"5014215"},{"name":"八幡町桜町","zip_code":"5014228"},{"name":"八幡町島","zip_code":"5014238"},{"name":"八幡町島谷","zip_code":"5014222"},{"name":"八幡町城南町","zip_code":"5014224"},{"name":"八幡町職人町","zip_code":"5014212"},{"name":"八幡町初納","zip_code":"5014203"},{"name":"八幡町新町","zip_code":"5014226"},{"name":"八幡町洲河","zip_code":"5014453"},{"name":"八幡町瀬取","zip_code":"5014233"},{"name":"八幡町大正町","zip_code":"5014225"},{"name":"八幡町殿町","zip_code":"5014213"},{"name":"八幡町中坪","zip_code":"5014211"},{"name":"八幡町那比","zip_code":"5014237"},{"name":"八幡町西乙原","zip_code":"5014207"},{"name":"八幡町野々倉","zip_code":"5014454"},{"name":"八幡町橋本町","zip_code":"5014227"},{"name":"八幡町初音","zip_code":"5014232"},{"name":"八幡町本町","zip_code":"5014216"},{"name":"八幡町美山","zip_code":"5014452"},{"name":"八幡町向山","zip_code":"5014241"},{"name":"八幡町柳町","zip_code":"5014214"},{"name":"八幡町吉野","zip_code":"5014206"},{"name":"美並町梅原","zip_code":"5014104"},{"name":"美並町大原","zip_code":"5014107"},{"name":"美並町上田","zip_code":"5014101"},{"name":"美並町高砂","zip_code":"5014102"},{"name":"美並町白山","zip_code":"5014106"},{"name":"美並町三戸","zip_code":"5014105"},{"name":"美並町山田","zip_code":"5014103"},{"name":"明宝大谷","zip_code":"5014301"},{"name":"明宝小川","zip_code":"5014305"},{"name":"明宝奥住","zip_code":"5014304"},{"name":"明宝寒水","zip_code":"5014302"},{"name":"明宝気良","zip_code":"5014303"},{"name":"明宝畑佐","zip_code":"5014306"},{"name":"明宝二間手","zip_code":"5014307"},{"name":"大和町内ケ谷","zip_code":"5014618"},{"name":"大和町大間見","zip_code":"5014601"},{"name":"大和町落部","zip_code":"5014619"},{"name":"大和町河辺","zip_code":"5014606"},{"name":"大和町神路","zip_code":"5014605"},{"name":"大和町栗巣","zip_code":"5014603"},{"name":"大和町小間見","zip_code":"5014602"},{"name":"大和町島","zip_code":"5014610"},{"name":"大和町剣","zip_code":"5014612"},{"name":"大和町徳永","zip_code":"5014607"},{"name":"大和町名皿部","zip_code":"5014613"},{"name":"大和町野口","zip_code":"5014614"},{"name":"大和町場皿","zip_code":"5014615"},{"name":"大和町福田","zip_code":"5014616"},{"name":"大和町古道","zip_code":"5014604"},{"name":"大和町洞口","zip_code":"5014617"},{"name":"大和町牧","zip_code":"5014608"},{"name":"大和町万場","zip_code":"5014611"},{"name":"和良町安郷野","zip_code":"5014514"},{"name":"和良町鹿倉","zip_code":"5014501"},{"name":"和良町上沢","zip_code":"5014508"},{"name":"和良町上土京","zip_code":"5014512"},{"name":"和良町沢","zip_code":"5014517"},{"name":"和良町下沢","zip_code":"5014509"},{"name":"和良町下土京","zip_code":"5014513"},{"name":"和良町下洞","zip_code":"5014511"},{"name":"和良町田平","zip_code":"5014504"},{"name":"和良町土京","zip_code":"5014518"},{"name":"和良町野尻","zip_code":"5014503"},{"name":"和良町東野","zip_code":"5014505"},{"name":"和良町方須","zip_code":"5014515"},{"name":"和良町法師丸","zip_code":"5014510"},{"name":"和良町三庫","zip_code":"5014516"},{"name":"和良町宮地","zip_code":"5014507"},{"name":"和良町宮代","zip_code":"5014502"},{"name":"和良町横野","zip_code":"5014506"}]},{"name":"下呂市","divisions":[{"name":"小川","zip_code":"5092203"},{"name":"小坂町赤沼田","zip_code":"5093114"},{"name":"小坂町岩崎","zip_code":"5093101"},{"name":"小坂町大垣内","zip_code":"5093103"},{"name":"小坂町大島","zip_code":"5093106"},{"name":"小坂町大洞","zip_code":"5093112"},{"name":"小坂町小坂町","zip_code":"5093104"},{"name":"小坂町落合","zip_code":"5093111"},{"name":"小坂町門坂","zip_code":"5093102"},{"name":"小坂町坂下","zip_code":"5093105"},{"name":"小坂町長瀬","zip_code":"5093115"},{"name":"小坂町無数原","zip_code":"5093107"},{"name":"小坂町湯屋","zip_code":"5093113"},{"name":"門原","zip_code":"5092138"},{"name":"門和佐","zip_code":"5092424"},{"name":"金山町岩瀬","zip_code":"5091603"},{"name":"金山町卯野原","zip_code":"5091602"},{"name":"金山町大船渡","zip_code":"5091614"},{"name":"金山町乙原","zip_code":"5091607"},{"name":"金山町金山","zip_code":"5091622"},{"name":"金山町下原町","zip_code":"5091616"},{"name":"金山町菅田桐洞","zip_code":"5091623"},{"name":"金山町菅田笹洞","zip_code":"5091624"},{"name":"金山町祖師野","zip_code":"5091606"},{"name":"金山町田島","zip_code":"5091615"},{"name":"金山町戸部","zip_code":"5091605"},{"name":"金山町中切","zip_code":"5091611"},{"name":"金山町中津原","zip_code":"5091613"},{"name":"金山町東沓部","zip_code":"5091604"},{"name":"金山町福来","zip_code":"5091612"},{"name":"金山町弓掛","zip_code":"5091601"},{"name":"金山町渡","zip_code":"5091621"},{"name":"久野川","zip_code":"5092131"},{"name":"幸田","zip_code":"5092206"},{"name":"三原","zip_code":"5092204"},{"name":"少ケ野","zip_code":"5092205"},{"name":"瀬戸","zip_code":"5092136"},{"name":"田口","zip_code":"5092422"},{"name":"夏焼","zip_code":"5092421"},{"name":"野尻","zip_code":"5092313"},{"name":"乗政","zip_code":"5092311"},{"name":"萩原町跡津","zip_code":"5092504"},{"name":"萩原町上村","zip_code":"5092516"},{"name":"萩原町大ヶ洞","zip_code":"5092512"},{"name":"萩原町奥田洞","zip_code":"5092519"},{"name":"萩原町尾崎","zip_code":"5092508"},{"name":"萩原町桜洞","zip_code":"5092513"},{"name":"萩原町四美","zip_code":"5092502"},{"name":"萩原町上呂","zip_code":"5092518"},{"name":"萩原町中呂","zip_code":"5092514"},{"name":"萩原町西上田","zip_code":"5092503"},{"name":"萩原町野上","zip_code":"5092507"},{"name":"萩原町萩原","zip_code":"5092517"},{"name":"萩原町花池","zip_code":"5092515"},{"name":"萩原町羽根","zip_code":"5092506"},{"name":"萩原町古関","zip_code":"5092505"},{"name":"萩原町宮田","zip_code":"5092511"},{"name":"萩原町山之口","zip_code":"5092501"},{"name":"火打","zip_code":"5092132"},{"name":"東上田","zip_code":"5092201"},{"name":"蛇之尾","zip_code":"5092423"},{"name":"保井戸","zip_code":"5092137"},{"name":"馬瀬井谷","zip_code":"5092613"},{"name":"馬瀬川上","zip_code":"5092601"},{"name":"馬瀬黒石","zip_code":"5092602"},{"name":"馬瀬数河","zip_code":"5092603"},{"name":"馬瀬惣島","zip_code":"5092614"},{"name":"馬瀬中切","zip_code":"5092604"},{"name":"馬瀬名丸","zip_code":"5092612"},{"name":"馬瀬西村","zip_code":"5092615"},{"name":"馬瀬堀之内","zip_code":"5092611"},{"name":"三ツ渕","zip_code":"5092135"},{"name":"御厩野","zip_code":"5092312"},{"name":"宮地","zip_code":"5092314"},{"name":"森","zip_code":"5092202"},{"name":"焼石","zip_code":"5092134"},{"name":"湯之島","zip_code":"5092207"},{"name":"和佐","zip_code":"5092133"}]},{"name":"海津市","divisions":[{"name":"海津町秋江","zip_code":"5030611"},{"name":"海津町油島","zip_code":"5030625"},{"name":"海津町石亀","zip_code":"5030629"},{"name":"海津町稲山","zip_code":"5030631"},{"name":"海津町江東","zip_code":"5030635"},{"name":"海津町大和田","zip_code":"5030612"},{"name":"海津町金廻","zip_code":"5030624"},{"name":"海津町鹿野","zip_code":"5030608"},{"name":"海津町神桐","zip_code":"5030603"},{"name":"海津町萱野","zip_code":"5030646"},{"name":"海津町草場","zip_code":"5030618"},{"name":"海津町五町","zip_code":"5030645"},{"name":"海津町駒ケ江","zip_code":"5030613"},{"name":"海津町七右衛門新田","zip_code":"5030627"},{"name":"海津町瀬古","zip_code":"5030602"},{"name":"海津町外浜","zip_code":"5030621"},{"name":"海津町高須","zip_code":"5030654"},{"name":"海津町高須町","zip_code":"5030653"},{"name":"海津町立野","zip_code":"5030617"},{"name":"海津町田中","zip_code":"5030606"},{"name":"海津町内記","zip_code":"5030641"},{"name":"海津町長久保","zip_code":"5030616"},{"name":"海津町長瀬","zip_code":"5030614"},{"name":"海津町成戸","zip_code":"5030604"},{"name":"海津町西小島","zip_code":"5030648"},{"name":"海津町沼新田","zip_code":"5030634"},{"name":"海津町東小島","zip_code":"5030647"},{"name":"海津町平原","zip_code":"5030651"},{"name":"海津町日原","zip_code":"5030615"},{"name":"海津町深浜","zip_code":"5030644"},{"name":"海津町福一色","zip_code":"5030605"},{"name":"海津町福江","zip_code":"5030628"},{"name":"海津町福岡","zip_code":"5030655"},{"name":"海津町札野","zip_code":"5030643"},{"name":"海津町古中島","zip_code":"5030623"},{"name":"海津町帆引新田","zip_code":"5030636"},{"name":"海津町本阿弥新田","zip_code":"5030633"},{"name":"海津町松木","zip_code":"5030601"},{"name":"海津町馬目","zip_code":"5030652"},{"name":"海津町万寿新田","zip_code":"5030626"},{"name":"海津町宮地","zip_code":"5030632"},{"name":"海津町森下","zip_code":"5030622"},{"name":"海津町安田","zip_code":"5030637"},{"name":"海津町安田新田","zip_code":"5030638"},{"name":"南濃町上野河戸","zip_code":"5030414"},{"name":"南濃町太田","zip_code":"5030532"},{"name":"南濃町奥条","zip_code":"5030412"},{"name":"南濃町駒野","zip_code":"5030411"},{"name":"南濃町駒野新田","zip_code":"5030405"},{"name":"南濃町境","zip_code":"5030534"},{"name":"南濃町志津","zip_code":"5030403"},{"name":"南濃町志津新田","zip_code":"5030402"},{"name":"南濃町田鶴","zip_code":"5030533"},{"name":"南濃町津屋","zip_code":"5030401"},{"name":"南濃町徳田","zip_code":"5030407"},{"name":"南濃町戸田","zip_code":"5030406"},{"name":"南濃町庭田","zip_code":"5030408"},{"name":"南濃町羽沢","zip_code":"5030413"},{"name":"南濃町早瀬","zip_code":"5030404"},{"name":"南濃町松山","zip_code":"5030535"},{"name":"南濃町安江","zip_code":"5030531"},{"name":"南濃町山崎","zip_code":"5030415"},{"name":"南濃町吉田","zip_code":"5030536"},{"name":"平田町今尾","zip_code":"5030321"},{"name":"平田町岡","zip_code":"5030307"},{"name":"平田町勝賀","zip_code":"5030302"},{"name":"平田町三郷","zip_code":"5030312"},{"name":"平田町蛇池","zip_code":"5030306"},{"name":"平田町者結","zip_code":"5030305"},{"name":"平田町須賀","zip_code":"5030301"},{"name":"平田町高田","zip_code":"5030313"},{"name":"平田町土倉","zip_code":"5030322"},{"name":"平田町西島","zip_code":"5030314"},{"name":"平田町野寺","zip_code":"5030303"},{"name":"平田町幡長","zip_code":"5030304"},{"name":"平田町仏師川","zip_code":"5030311"},{"name":"平田町脇野","zip_code":"5030323"}]},{"name":"羽島郡岐南町","divisions":[{"name":"石原瀬","zip_code":"5016015"},{"name":"上印食","zip_code":"5016001"},{"name":"下印食","zip_code":"5016018"},{"name":"徳田","zip_code":"5016016"},{"name":"徳田西","zip_code":"5016017"},{"name":"野中","zip_code":"5016004"},{"name":"伏屋","zip_code":"5016006"},{"name":"平島","zip_code":"5016003"},{"name":"平成","zip_code":"5016013"},{"name":"三宅","zip_code":"5016002"},{"name":"みやまち","zip_code":"5016019"},{"name":"薬師寺","zip_code":"5016014"},{"name":"八剣","zip_code":"5016012"},{"name":"八剣北","zip_code":"5016011"},{"name":"若宮地","zip_code":"5016005"}]},{"name":"羽島郡笠松町","divisions":[{"name":"相生町","zip_code":"5016044"},{"name":"朝日町","zip_code":"5016056"},{"name":"泉町","zip_code":"5016061"},{"name":"江川","zip_code":"5016032"},{"name":"円城寺","zip_code":"5016035"},{"name":"大池町","zip_code":"5016087"},{"name":"春日町","zip_code":"5016082"},{"name":"門間","zip_code":"5016065"},{"name":"上新町","zip_code":"5016071"},{"name":"上本町","zip_code":"5016051"},{"name":"上柳川町","zip_code":"5016058"},{"name":"如月町","zip_code":"5016084"},{"name":"北及","zip_code":"5016064"},{"name":"清住町","zip_code":"5016086"},{"name":"県町","zip_code":"5016043"},{"name":"米野","zip_code":"5016031"},{"name":"桜町","zip_code":"5016098"},{"name":"下新町","zip_code":"5016073"},{"name":"下本町","zip_code":"5016052"},{"name":"下柳川町","zip_code":"5016057"},{"name":"松栄町","zip_code":"5016091"},{"name":"新町","zip_code":"5016074"},{"name":"司町","zip_code":"5016045"},{"name":"月美町","zip_code":"5016092"},{"name":"田代","zip_code":"5016062"},{"name":"天王町","zip_code":"5016077"},{"name":"東陽町","zip_code":"5016081"},{"name":"常盤町","zip_code":"5016083"},{"name":"中川町","zip_code":"5016095"},{"name":"中新町","zip_code":"5016072"},{"name":"中野","zip_code":"5016034"},{"name":"長池","zip_code":"5016063"},{"name":"奈良町","zip_code":"5016041"},{"name":"西金池町","zip_code":"5016037"},{"name":"西町","zip_code":"5016055"},{"name":"西宮町","zip_code":"5016075"},{"name":"羽衣町","zip_code":"5016094"},{"name":"八幡町","zip_code":"5016042"},{"name":"東金池町","zip_code":"5016038"},{"name":"東宮町","zip_code":"5016059"},{"name":"瓢町","zip_code":"5016097"},{"name":"二見町","zip_code":"5016047"},{"name":"美笠通","zip_code":"5016088"},{"name":"緑町","zip_code":"5016093"},{"name":"港町","zip_code":"5016053"},{"name":"宮川町","zip_code":"5016046"},{"name":"無動寺","zip_code":"5016033"},{"name":"門前町","zip_code":"5016076"},{"name":"柳原町","zip_code":"5016054"},{"name":"弥生町","zip_code":"5016085"},{"name":"友楽町","zip_code":"5016096"},{"name":"若葉町","zip_code":"5016036"}]},{"name":"養老郡養老町","divisions":[{"name":"有尾","zip_code":"5031277"},{"name":"飯田","zip_code":"5031304"},{"name":"飯積","zip_code":"5031336"},{"name":"石畑","zip_code":"5031251"},{"name":"泉町","zip_code":"5031311"},{"name":"五日市","zip_code":"5031243"},{"name":"一色","zip_code":"5031264"},{"name":"色目","zip_code":"5031333"},{"name":"岩道","zip_code":"5031321"},{"name":"宇田","zip_code":"5031335"},{"name":"上方","zip_code":"5031245"},{"name":"江月","zip_code":"5031306"},{"name":"大跡","zip_code":"5031324"},{"name":"大坪","zip_code":"5031302"},{"name":"大野","zip_code":"5031383"},{"name":"大場","zip_code":"5031272"},{"name":"大巻","zip_code":"5031275"},{"name":"小倉","zip_code":"5031262"},{"name":"押越","zip_code":"5031316"},{"name":"柏尾","zip_code":"5031253"},{"name":"金屋","zip_code":"5031339"},{"name":"釜段","zip_code":"5031276"},{"name":"上之郷","zip_code":"5031385"},{"name":"烏江","zip_code":"5031315"},{"name":"京ケ脇","zip_code":"5031266"},{"name":"口ケ島","zip_code":"5031323"},{"name":"栗笠","zip_code":"5031381"},{"name":"桜井","zip_code":"5031242"},{"name":"沢田","zip_code":"5031241"},{"name":"下笠","zip_code":"5031384"},{"name":"蛇持","zip_code":"5031303"},{"name":"勢至","zip_code":"5031256"},{"name":"祖父江","zip_code":"5031305"},{"name":"田","zip_code":"5031271"},{"name":"高田","zip_code":"5031314"},{"name":"高田馬場町","zip_code":"5031313"},{"name":"高林","zip_code":"5031267"},{"name":"滝見町","zip_code":"5031317"},{"name":"豊","zip_code":"5031334"},{"name":"直江","zip_code":"5031337"},{"name":"中","zip_code":"5031332"},{"name":"西岩道","zip_code":"5031322"},{"name":"西小倉","zip_code":"5031268"},{"name":"根古地","zip_code":"5031273"},{"name":"橋爪","zip_code":"5031331"},{"name":"飯ノ木","zip_code":"5031325"},{"name":"船附","zip_code":"5031382"},{"name":"船見","zip_code":"5031263"},{"name":"三神町","zip_code":"5031312"},{"name":"瑞穂","zip_code":"5031274"},{"name":"明徳","zip_code":"5031252"},{"name":"室原","zip_code":"5031301"},{"name":"安久","zip_code":"5031338"},{"name":"養老","zip_code":"5031255"},{"name":"養老公園","zip_code":"5031254"},{"name":"横屋","zip_code":"5031278"},{"name":"竜泉寺","zip_code":"5031244"},{"name":"若宮","zip_code":"5031265"},{"name":"鷲巣","zip_code":"5031261"}]},{"name":"不破郡垂井町","divisions":[{"name":"綾戸","zip_code":"5032112"},{"name":"新井","zip_code":"5032105"},{"name":"市之尾","zip_code":"5032104"},{"name":"伊吹","zip_code":"5032106"},{"name":"岩手","zip_code":"5032107"},{"name":"梅谷","zip_code":"5032103"},{"name":"大石","zip_code":"5032108"},{"name":"大滝","zip_code":"5032101"},{"name":"表佐","zip_code":"5032122"},{"name":"栗原","zip_code":"5032123"},{"name":"敷原","zip_code":"5032102"},{"name":"清水","zip_code":"5032113"},{"name":"東神田","zip_code":"5032125"},{"name":"平尾","zip_code":"5032111"},{"name":"府中","zip_code":"5032114"},{"name":"南新井","zip_code":"5032109"},{"name":"宮代","zip_code":"5032124"}]},{"name":"不破郡関ケ原町","divisions":[{"name":"稲荷","zip_code":"5031514"},{"name":"今須","zip_code":"5031543"},{"name":"大高","zip_code":"5031531"},{"name":"公門","zip_code":"5031512"},{"name":"小池","zip_code":"5031523"},{"name":"御祭田","zip_code":"5031524"},{"name":"小関","zip_code":"5031523"},{"name":"笹尾","zip_code":"5031524"},{"name":"陣場野","zip_code":"5031522"},{"name":"関ケ原","zip_code":"5031501"},{"name":"玉","zip_code":"5031545"},{"name":"藤下","zip_code":"5031542"},{"name":"中町","zip_code":"5031515"},{"name":"中山","zip_code":"5031513"},{"name":"西町","zip_code":"5031514"},{"name":"野上","zip_code":"5031532"},{"name":"東町","zip_code":"5031511"},{"name":"宝有","zip_code":"5031521"},{"name":"松尾","zip_code":"5031541"},{"name":"緑ケ丘","zip_code":"5031524"},{"name":"山中","zip_code":"5031544"}]},{"name":"安八郡神戸町","divisions":[{"name":"和泉","zip_code":"5032327"},{"name":"落合","zip_code":"5032314"},{"name":"加納","zip_code":"5032325"},{"name":"川西","zip_code":"5032311"},{"name":"北一色","zip_code":"5032306"},{"name":"神戸","zip_code":"5032305"},{"name":"斉田","zip_code":"5032316"},{"name":"更屋敷","zip_code":"5032322"},{"name":"下宮","zip_code":"5032312"},{"name":"丈六道","zip_code":"5032304"},{"name":"新屋敷","zip_code":"5032313"},{"name":"末守","zip_code":"5032321"},{"name":"瀬古","zip_code":"5032318"},{"name":"田","zip_code":"5032302"},{"name":"付寄","zip_code":"5032315"},{"name":"中沢","zip_code":"5032326"},{"name":"西座倉","zip_code":"5032341"},{"name":"西保","zip_code":"5032323"},{"name":"八条","zip_code":"5032324"},{"name":"前田","zip_code":"5032319"},{"name":"南方","zip_code":"5032328"},{"name":"安次","zip_code":"5032303"},{"name":"柳瀬","zip_code":"5032317"},{"name":"横井","zip_code":"5032301"}]},{"name":"安八郡輪之内町","divisions":[{"name":"大藪","zip_code":"5030202"},{"name":"大吉新田","zip_code":"5030216"},{"name":"里","zip_code":"5030234"},{"name":"塩喰","zip_code":"5030236"},{"name":"下大榑","zip_code":"5030205"},{"name":"下大榑新田","zip_code":"5030206"},{"name":"中郷","zip_code":"5030233"},{"name":"中郷新田","zip_code":"5030212"},{"name":"南波","zip_code":"5030231"},{"name":"楡俣","zip_code":"5030201"},{"name":"楡俣新田","zip_code":"5030203"},{"name":"福束","zip_code":"5030235"},{"name":"福束新田","zip_code":"5030211"},{"name":"本戸","zip_code":"5030232"},{"name":"松内","zip_code":"5030215"},{"name":"海松新田","zip_code":"5030214"},{"name":"藻池新田","zip_code":"5030213"},{"name":"四郷","zip_code":"5030204"}]},{"name":"安八郡安八町","divisions":[{"name":"大野","zip_code":"5030128"},{"name":"大森","zip_code":"5030116"},{"name":"北今ケ渕","zip_code":"5030113"},{"name":"氷取","zip_code":"5030121"},{"name":"芝原","zip_code":"5030112"},{"name":"城","zip_code":"5030127"},{"name":"善光","zip_code":"5030122"},{"name":"外善光","zip_code":"5030129"},{"name":"大明神","zip_code":"5030117"},{"name":"中","zip_code":"5030124"},{"name":"中須","zip_code":"5030126"},{"name":"西結","zip_code":"5030111"},{"name":"東結","zip_code":"5030112"},{"name":"宝江","zip_code":"5030118"},{"name":"牧","zip_code":"5030125"},{"name":"南今ケ渕","zip_code":"5030115"},{"name":"南條","zip_code":"5030123"},{"name":"森部","zip_code":"5030114"}]},{"name":"揖斐郡揖斐川町","divisions":[{"name":"市場","zip_code":"5010627"},{"name":"上野","zip_code":"5010634"},{"name":"岡","zip_code":"5010624"},{"name":"小津","zip_code":"5010701"},{"name":"乙原","zip_code":"5010703"},{"name":"小野","zip_code":"5010612"},{"name":"開田","zip_code":"5010815"},{"name":"樫原","zip_code":"5010708"},{"name":"春日川合","zip_code":"5032503"},{"name":"春日香六","zip_code":"5032506"},{"name":"春日小宮神","zip_code":"5032505"},{"name":"春日中山","zip_code":"5032504"},{"name":"春日美束","zip_code":"5032501"},{"name":"春日六合","zip_code":"5032502"},{"name":"桂","zip_code":"5010607"},{"name":"門入","zip_code":"5010817"},{"name":"上岡島","zip_code":"5010631"},{"name":"上ミ野","zip_code":"5010618"},{"name":"上東野","zip_code":"5010632"},{"name":"上南方","zip_code":"5010603"},{"name":"北方","zip_code":"5010601"},{"name":"清水","zip_code":"5010615"},{"name":"黒田","zip_code":"5010625"},{"name":"極楽寺","zip_code":"5010605"},{"name":"小島","zip_code":"5010633"},{"name":"小谷","zip_code":"5010611"},{"name":"坂内川上","zip_code":"5010901"},{"name":"坂内坂本","zip_code":"5010903"},{"name":"坂内広瀬","zip_code":"5010902"},{"name":"志津山","zip_code":"5010613"},{"name":"島","zip_code":"5010617"},{"name":"下岡島","zip_code":"5010621"},{"name":"白樫","zip_code":"5010635"},{"name":"新宮","zip_code":"5010628"},{"name":"瑞岩寺","zip_code":"5010626"},{"name":"大光寺","zip_code":"5010604"},{"name":"谷汲有鳥","zip_code":"5011315"},{"name":"谷汲大洞","zip_code":"5011312"},{"name":"谷汲神原","zip_code":"5011317"},{"name":"谷汲木曽屋","zip_code":"5011316"},{"name":"谷汲岐礼","zip_code":"5011302"},{"name":"谷汲高科","zip_code":"5011301"},{"name":"谷汲徳積","zip_code":"5011311"},{"name":"谷汲長瀬","zip_code":"5011303"},{"name":"谷汲名礼","zip_code":"5011314"},{"name":"谷汲深坂","zip_code":"5011313"},{"name":"塚","zip_code":"5010811"},{"name":"鶴見","zip_code":"5010802"},{"name":"徳山","zip_code":"5010814"},{"name":"外津汲","zip_code":"5010705"},{"name":"戸入","zip_code":"5010816"},{"name":"長良","zip_code":"5010614"},{"name":"西津汲","zip_code":"5010706"},{"name":"西横山","zip_code":"5010805"},{"name":"脛永","zip_code":"5010622"},{"name":"櫨原","zip_code":"5010812"},{"name":"東杉原","zip_code":"5010803"},{"name":"東津汲","zip_code":"5010702"},{"name":"東横山","zip_code":"5010804"},{"name":"日坂","zip_code":"5010707"},{"name":"福島","zip_code":"5010616"},{"name":"房島","zip_code":"5010606"},{"name":"三倉","zip_code":"5010704"},{"name":"三輪","zip_code":"5010619"},{"name":"山手","zip_code":"5010813"},{"name":"若松","zip_code":"5010602"},{"name":"和田","zip_code":"5010623"}]},{"name":"揖斐郡大野町","divisions":[{"name":"相羽","zip_code":"5010522"},{"name":"麻生","zip_code":"5010564"},{"name":"稲富","zip_code":"5010501"},{"name":"稲畑","zip_code":"5010511"},{"name":"牛洞","zip_code":"5010561"},{"name":"大衣斐","zip_code":"5010552"},{"name":"大野","zip_code":"5010513"},{"name":"加納","zip_code":"5010535"},{"name":"上磯","zip_code":"5010531"},{"name":"上秋","zip_code":"5010512"},{"name":"郡家","zip_code":"5010524"},{"name":"公郷","zip_code":"5010555"},{"name":"黒野","zip_code":"5010521"},{"name":"小衣斐","zip_code":"5010551"},{"name":"五之里","zip_code":"5010554"},{"name":"桜大門","zip_code":"5010515"},{"name":"寺内","zip_code":"5010503"},{"name":"下磯","zip_code":"5010532"},{"name":"下方","zip_code":"5010523"},{"name":"下座倉","zip_code":"5010534"},{"name":"瀬古","zip_code":"5010563"},{"name":"中之元","zip_code":"5010565"},{"name":"西方","zip_code":"5010514"},{"name":"野","zip_code":"5010504"},{"name":"古川","zip_code":"5010502"},{"name":"本庄","zip_code":"5010533"},{"name":"松山","zip_code":"5010562"},{"name":"南方","zip_code":"5010553"},{"name":"領家","zip_code":"5010556"},{"name":"六里","zip_code":"5010525"}]},{"name":"揖斐郡池田町","divisions":[{"name":"青柳","zip_code":"5032423"},{"name":"池野","zip_code":"5032424"},{"name":"市橋","zip_code":"5032427"},{"name":"上田","zip_code":"5032415"},{"name":"粕ケ原","zip_code":"5032402"},{"name":"片山","zip_code":"5032428"},{"name":"願成寺","zip_code":"5032405"},{"name":"草深","zip_code":"5032418"},{"name":"沓井","zip_code":"5032401"},{"name":"小牛","zip_code":"5032404"},{"name":"小寺","zip_code":"5032419"},{"name":"下東野","zip_code":"5032414"},{"name":"白鳥","zip_code":"5032413"},{"name":"杉野","zip_code":"5032411"},{"name":"砂畑","zip_code":"5032412"},{"name":"田中","zip_code":"5032403"},{"name":"田畑","zip_code":"5032422"},{"name":"段","zip_code":"5032408"},{"name":"萩原","zip_code":"5032416"},{"name":"般若畑","zip_code":"5032407"},{"name":"藤代","zip_code":"5032429"},{"name":"舟子","zip_code":"5032409"},{"name":"本郷","zip_code":"5032417"},{"name":"宮地","zip_code":"5032406"},{"name":"山洞","zip_code":"5032421"},{"name":"八幡","zip_code":"5032426"},{"name":"六之井","zip_code":"5032425"}]},{"name":"本巣郡北方町","divisions":[{"name":"朝日町","zip_code":"5010424"},{"name":"一本松","zip_code":"5010432"},{"name":"加茂","zip_code":"5010425"},{"name":"北方","zip_code":"5010431"},{"name":"小柳","zip_code":"5010434"},{"name":"栄町","zip_code":"5010425"},{"name":"芝原中町","zip_code":"5010422"},{"name":"芝原東町","zip_code":"5010423"},{"name":"芝原西町","zip_code":"5010421"},{"name":"清水","zip_code":"5010437"},{"name":"曲路","zip_code":"5010441"},{"name":"曲路東","zip_code":"5010442"},{"name":"高屋","zip_code":"5010458"},{"name":"高屋石末","zip_code":"5010452"},{"name":"高屋伊勢田","zip_code":"5010455"},{"name":"高屋白木","zip_code":"5010454"},{"name":"高屋条里","zip_code":"5010456"},{"name":"高屋太子","zip_code":"5010457"},{"name":"高屋勅使","zip_code":"5010451"},{"name":"高屋分木","zip_code":"5010453"},{"name":"天狗堂","zip_code":"5010433"},{"name":"柱本","zip_code":"5010446"},{"name":"柱本池之頭","zip_code":"5010443"},{"name":"柱本白坪","zip_code":"5010444"},{"name":"柱本南","zip_code":"5010445"},{"name":"長谷川西","zip_code":"5010436"},{"name":"春来町","zip_code":"5010435"},{"name":"東加茂","zip_code":"5010425"},{"name":"平成","zip_code":"5010438"},{"name":"若宮","zip_code":"5010425"}]},{"name":"加茂郡坂祝町","divisions":[{"name":"大針","zip_code":"5050072"},{"name":"勝山","zip_code":"5050076"},{"name":"加茂山","zip_code":"5050073"},{"name":"黒岩","zip_code":"5050071"},{"name":"酒倉","zip_code":"5050074"},{"name":"取組","zip_code":"5050075"},{"name":"深萱","zip_code":"5050077"}]},{"name":"加茂郡富加町","divisions":[{"name":"大平賀","zip_code":"5013307"},{"name":"大山","zip_code":"5013306"},{"name":"加治田","zip_code":"5013301"},{"name":"高畑","zip_code":"5013304"},{"name":"滝田","zip_code":"5013305"},{"name":"羽生","zip_code":"5013303"},{"name":"夕田","zip_code":"5013302"}]},{"name":"加茂郡川辺町","divisions":[{"name":"石神","zip_code":"5090303"},{"name":"鹿塩","zip_code":"5090307"},{"name":"上川辺","zip_code":"5090302"},{"name":"下麻生","zip_code":"5090301"},{"name":"下飯田","zip_code":"5090313"},{"name":"下川辺","zip_code":"5090306"},{"name":"下吉田","zip_code":"5090311"},{"name":"中川辺","zip_code":"5090304"},{"name":"中野","zip_code":"5090312"},{"name":"西栃井","zip_code":"5090305"},{"name":"比久見","zip_code":"5090315"},{"name":"福島","zip_code":"5090314"}]},{"name":"加茂郡七宗町","divisions":[{"name":"神渕","zip_code":"5090511"},{"name":"上麻生","zip_code":"5090401"},{"name":"川並","zip_code":"5090402"},{"name":"中麻生","zip_code":"5090403"}]},{"name":"加茂郡八百津町","divisions":[{"name":"伊岐津志","zip_code":"5050303"},{"name":"上飯田","zip_code":"5050306"},{"name":"上牧野","zip_code":"5050304"},{"name":"上吉田","zip_code":"5050423"},{"name":"久田見","zip_code":"5050422"},{"name":"潮見","zip_code":"5050531"},{"name":"錦織","zip_code":"5050302"},{"name":"野上","zip_code":"5050307"},{"name":"福地","zip_code":"5050421"},{"name":"南戸","zip_code":"5050532"},{"name":"八百津","zip_code":"5050301"},{"name":"和知","zip_code":"5050305"}]},{"name":"加茂郡白川町","divisions":[{"name":"赤河","zip_code":"5091112"},{"name":"和泉","zip_code":"5091104"},{"name":"河東","zip_code":"5091107"},{"name":"上佐見","zip_code":"5091221"},{"name":"河岐","zip_code":"5091105"},{"name":"切井","zip_code":"5091111"},{"name":"黒川","zip_code":"5091431"},{"name":"坂ノ東","zip_code":"5091106"},{"name":"下佐見","zip_code":"5091222"},{"name":"白山","zip_code":"5091101"},{"name":"中川","zip_code":"5091102"},{"name":"広野","zip_code":"5091108"},{"name":"三川","zip_code":"5091113"},{"name":"水戸野","zip_code":"5091103"}]},{"name":"加茂郡東白川村","divisions":[{"name":"越原","zip_code":"5091301"},{"name":"神土","zip_code":"5091302"},{"name":"五加","zip_code":"5091303"}]},{"name":"可児郡御嵩町","divisions":[{"name":"井尻","zip_code":"5050115"},{"name":"謡坂","zip_code":"5050104"},{"name":"大久後","zip_code":"5050101"},{"name":"小原","zip_code":"5050106"},{"name":"上恵土","zip_code":"5050126"},{"name":"上之郷","zip_code":"5050107"},{"name":"顔戸","zip_code":"5050122"},{"name":"小和沢","zip_code":"5050108"},{"name":"西洞","zip_code":"5050105"},{"name":"次月","zip_code":"5050111"},{"name":"宿","zip_code":"5050113"},{"name":"津橋","zip_code":"5050103"},{"name":"中","zip_code":"5050121"},{"name":"中切","zip_code":"5050114"},{"name":"比衣","zip_code":"5050124"},{"name":"伏見","zip_code":"5050125"},{"name":"古屋敷","zip_code":"5050123"},{"name":"前沢","zip_code":"5050102"},{"name":"美佐野","zip_code":"5050112"},{"name":"御嵩","zip_code":"5050116"}]},{"name":"大野郡白川村","divisions":[{"name":"芦倉","zip_code":"5015622"},{"name":"飯島","zip_code":"5015625"},{"name":"有家ケ原","zip_code":"5015624"},{"name":"大牧","zip_code":"5015628"},{"name":"荻町","zip_code":"5015627"},{"name":"木谷","zip_code":"5015502"},{"name":"小白川","zip_code":"5015621"},{"name":"島","zip_code":"5015626"},{"name":"椿原","zip_code":"5015623"},{"name":"長瀬","zip_code":"5015503"},{"name":"鳩谷","zip_code":"5015629"},{"name":"平瀬","zip_code":"5015507"},{"name":"福島","zip_code":"5015504"},{"name":"保木脇","zip_code":"5015501"},{"name":"馬狩","zip_code":"5015620"},{"name":"牧","zip_code":"5015505"},{"name":"御母衣","zip_code":"5015506"}]}]}