{"name":"静岡県","cities":[{"name":"静岡市葵区","divisions":[{"name":"相生町","zip_code":"4200838"},{"name":"相淵","zip_code":"4212309"},{"name":"相俣","zip_code":"4211307"},{"name":"葵町","zip_code":"4200017"},{"name":"赤沢","zip_code":"4211305"},{"name":"赤松","zip_code":"4200963"},{"name":"秋山町","zip_code":"4200948"},{"name":"上土","zip_code":"4200810"},{"name":"上土新田","zip_code":"4200811"},{"name":"足久保奥組","zip_code":"4212125"},{"name":"足久保口組","zip_code":"4212124"},{"name":"東町","zip_code":"4200836"},{"name":"安倍口新田","zip_code":"4212114"},{"name":"安倍口団地","zip_code":"4212113"},{"name":"安倍町","zip_code":"4200869"},{"name":"有永","zip_code":"4200965"},{"name":"安西","zip_code":"4200011"},{"name":"安東","zip_code":"4200882"},{"name":"安東柳町","zip_code":"4200863"},{"name":"井川","zip_code":"4280504"},{"name":"池ケ谷","zip_code":"4200936"},{"name":"池ケ谷東","zip_code":"4200935"},{"name":"一番町","zip_code":"4200071"},{"name":"井宮町","zip_code":"4200001"},{"name":"伊呂波町","zip_code":"4200946"},{"name":"岩崎","zip_code":"4280503"},{"name":"牛田","zip_code":"4200952"},{"name":"牛妻","zip_code":"4212106"},{"name":"内牧","zip_code":"4212118"},{"name":"有東木","zip_code":"4212303"},{"name":"産女","zip_code":"4211222"},{"name":"梅ケ島","zip_code":"4212301"},{"name":"梅屋町","zip_code":"4200038"},{"name":"漆山","zip_code":"4200953"},{"name":"遠藤新田","zip_code":"4212112"},{"name":"追手町","zip_code":"4200853"},{"name":"大岩","zip_code":"4200886"},{"name":"大岩本町","zip_code":"4200884"},{"name":"大岩宮下町","zip_code":"4200883"},{"name":"大岩町","zip_code":"4200885"},{"name":"大鋸町","zip_code":"4200026"},{"name":"大沢","zip_code":"4212227"},{"name":"太田町","zip_code":"4200845"},{"name":"大原","zip_code":"4211314"},{"name":"大間","zip_code":"4211401"},{"name":"奥池ケ谷","zip_code":"4212215"},{"name":"奥仙俣","zip_code":"4212201"},{"name":"落合","zip_code":"4212223"},{"name":"音羽町","zip_code":"4200834"},{"name":"鍵穴","zip_code":"4211302"},{"name":"柿島","zip_code":"4212214"},{"name":"籠上","zip_code":"4200873"},{"name":"春日","zip_code":"4200823"},{"name":"春日町","zip_code":"4200824"},{"name":"片羽町","zip_code":"4200003"},{"name":"加藤島","zip_code":"4200925"},{"name":"門屋","zip_code":"4212107"},{"name":"上足洗","zip_code":"4200841"},{"name":"上桶屋町","zip_code":"4200014"},{"name":"上落合","zip_code":"4212211"},{"name":"上沓谷町","zip_code":"4200815"},{"name":"上石町","zip_code":"4200039"},{"name":"上坂本","zip_code":"4280502"},{"name":"上新富町","zip_code":"4200062"},{"name":"上伝馬","zip_code":"4200943"},{"name":"桂山","zip_code":"4212222"},{"name":"唐瀬","zip_code":"4200937"},{"name":"川合","zip_code":"4200923"},{"name":"川合新田","zip_code":"4200924"},{"name":"川越町","zip_code":"4200052"},{"name":"川辺町","zip_code":"4200043"},{"name":"瓦場町","zip_code":"4200825"},{"name":"観山","zip_code":"4200931"},{"name":"北","zip_code":"4200961"},{"name":"北安東","zip_code":"4200881"},{"name":"北沼上","zip_code":"4200901"},{"name":"北番町","zip_code":"4200005"},{"name":"金座町","zip_code":"4200025"},{"name":"崩野","zip_code":"4211408"},{"name":"口坂本","zip_code":"4212203"},{"name":"口仙俣","zip_code":"4212202"},{"name":"沓谷","zip_code":"4200816"},{"name":"車町","zip_code":"4200022"},{"name":"黒金町","zip_code":"4200851"},{"name":"黒俣","zip_code":"4211308"},{"name":"幸庵新田","zip_code":"4212117"},{"name":"郷島","zip_code":"4212105"},{"name":"紺屋町","zip_code":"4200852"},{"name":"小河内","zip_code":"4280501"},{"name":"腰越","zip_code":"4212225"},{"name":"小島","zip_code":"4211301"},{"name":"小瀬戸","zip_code":"4211225"},{"name":"五番町","zip_code":"4200075"},{"name":"呉服町","zip_code":"4200031"},{"name":"小布杉","zip_code":"4211316"},{"name":"駒形通","zip_code":"4200042"},{"name":"材木町","zip_code":"4200002"},{"name":"幸町","zip_code":"4200067"},{"name":"栄町","zip_code":"4200859"},{"name":"坂ノ上","zip_code":"4211405"},{"name":"坂本","zip_code":"4211303"},{"name":"桜木町","zip_code":"4200048"},{"name":"桜町","zip_code":"4200945"},{"name":"三番町","zip_code":"4200073"},{"name":"慈悲尾","zip_code":"4211211"},{"name":"七間町","zip_code":"4200035"},{"name":"七番町","zip_code":"4200077"},{"name":"芝原","zip_code":"4200955"},{"name":"下","zip_code":"4212108"},{"name":"城東町","zip_code":"4200846"},{"name":"城内町","zip_code":"4200854"},{"name":"昭府","zip_code":"4200871"},{"name":"昭府町","zip_code":"4200872"},{"name":"城北","zip_code":"4200805"},{"name":"昭和町","zip_code":"4200033"},{"name":"新伝馬","zip_code":"4200944"},{"name":"新通","zip_code":"4200065"},{"name":"新富町","zip_code":"4200061"},{"name":"新間","zip_code":"4211201"},{"name":"神明町","zip_code":"4200009"},{"name":"水道町","zip_code":"4200008"},{"name":"末広町","zip_code":"4200004"},{"name":"杉尾","zip_code":"4211309"},{"name":"住吉町","zip_code":"4200016"},{"name":"駿河町","zip_code":"4200036"},{"name":"諏訪","zip_code":"4200902"},{"name":"駿府城公園","zip_code":"4200855"},{"name":"駿府町","zip_code":"4200856"},{"name":"清閑町","zip_code":"4200047"},{"name":"瀬名","zip_code":"4200911"},{"name":"瀬名中央","zip_code":"4200916"},{"name":"瀬名川","zip_code":"4200913"},{"name":"浅間町","zip_code":"4200862"},{"name":"銭座町","zip_code":"4200842"},{"name":"千代","zip_code":"4211212"},{"name":"大工町","zip_code":"4200027"},{"name":"鷹匠","zip_code":"4200839"},{"name":"建穂","zip_code":"4211214"},{"name":"内匠","zip_code":"4212224"},{"name":"岳美","zip_code":"4200934"},{"name":"田代","zip_code":"4280505"},{"name":"辰起町","zip_code":"4200874"},{"name":"立石","zip_code":"4200933"},{"name":"田町","zip_code":"4200068"},{"name":"俵沢","zip_code":"4212103"},{"name":"俵峰","zip_code":"4212101"},{"name":"茶町","zip_code":"4200021"},{"name":"千代田","zip_code":"4200803"},{"name":"堤町","zip_code":"4200947"},{"name":"津渡野","zip_code":"4212121"},{"name":"寺島","zip_code":"4211304"},{"name":"天神前","zip_code":"4200951"},{"name":"天王町","zip_code":"4200045"},{"name":"伝馬町","zip_code":"4200858"},{"name":"渡","zip_code":"4212304"},{"name":"通車町","zip_code":"4200063"},{"name":"研屋町","zip_code":"4200029"},{"name":"常磐町","zip_code":"4200034"},{"name":"土太夫町","zip_code":"4200018"},{"name":"栃沢","zip_code":"4211404"},{"name":"巴町","zip_code":"4200843"},{"name":"豊地","zip_code":"4200932"},{"name":"富沢","zip_code":"4211311"},{"name":"長尾","zip_code":"4200903"},{"name":"長熊","zip_code":"4212216"},{"name":"中沢","zip_code":"4212221"},{"name":"中町","zip_code":"4200024"},{"name":"長妻田","zip_code":"4212213"},{"name":"長沼","zip_code":"4200813"},{"name":"中ノ郷","zip_code":"4212111"},{"name":"中平","zip_code":"4212305"},{"name":"楢尾","zip_code":"4211407"},{"name":"奈良間","zip_code":"4211312"},{"name":"西ケ谷","zip_code":"4212116"},{"name":"錦町","zip_code":"4200015"},{"name":"西草深町","zip_code":"4200866"},{"name":"西瀬名町","zip_code":"4200914"},{"name":"西千代田町","zip_code":"4200847"},{"name":"西又","zip_code":"4211226"},{"name":"西門町","zip_code":"4200044"},{"name":"二番町","zip_code":"4200072"},{"name":"入島","zip_code":"4212302"},{"name":"野丈","zip_code":"4200921"},{"name":"野田平","zip_code":"4212104"},{"name":"長谷町","zip_code":"4200864"},{"name":"羽高","zip_code":"4200966"},{"name":"八番町","zip_code":"4200078"},{"name":"羽鳥","zip_code":"4211215"},{"name":"羽鳥大門町","zip_code":"4211216"},{"name":"羽鳥本町","zip_code":"4211217"},{"name":"馬場町","zip_code":"4200867"},{"name":"飯間","zip_code":"4211224"},{"name":"東","zip_code":"4200962"},{"name":"東草深町","zip_code":"4200865"},{"name":"東瀬名町","zip_code":"4200912"},{"name":"東鷹匠町","zip_code":"4200833"},{"name":"東千代田","zip_code":"4200801"},{"name":"人宿町","zip_code":"4200037"},{"name":"日向","zip_code":"4211403"},{"name":"日出町","zip_code":"4200837"},{"name":"平野","zip_code":"4212306"},{"name":"平柳","zip_code":"4200954"},{"name":"平山","zip_code":"4200904"},{"name":"昼居渡","zip_code":"4211306"},{"name":"福田ケ谷","zip_code":"4212109"},{"name":"富厚里","zip_code":"4211315"},{"name":"富士見町","zip_code":"4200023"},{"name":"双葉町","zip_code":"4200041"},{"name":"古庄","zip_code":"4200812"},{"name":"平和","zip_code":"4200876"},{"name":"本通","zip_code":"4200064"},{"name":"本通西町","zip_code":"4200066"},{"name":"前林","zip_code":"4200957"},{"name":"牧ケ谷","zip_code":"4211221"},{"name":"松富","zip_code":"4200941"},{"name":"松富上組","zip_code":"4200942"},{"name":"松野","zip_code":"4212122"},{"name":"丸山町","zip_code":"4200861"},{"name":"美川町","zip_code":"4200875"},{"name":"水落町","zip_code":"4200831"},{"name":"水見色","zip_code":"4211313"},{"name":"緑町","zip_code":"4200844"},{"name":"南","zip_code":"4200956"},{"name":"南安倍","zip_code":"4200054"},{"name":"南瀬名町","zip_code":"4200915"},{"name":"南田町","zip_code":"4200051"},{"name":"南沼上","zip_code":"4200905"},{"name":"宮ケ崎町","zip_code":"4200868"},{"name":"宮前町","zip_code":"4200822"},{"name":"御幸町","zip_code":"4200857"},{"name":"弥勒","zip_code":"4200053"},{"name":"森腰","zip_code":"4212217"},{"name":"諸子沢","zip_code":"4211402"},{"name":"屋形町","zip_code":"4200028"},{"name":"八草","zip_code":"4211409"},{"name":"薬師","zip_code":"4200906"},{"name":"八千代町","zip_code":"4200013"},{"name":"谷津","zip_code":"4211202"},{"name":"柳町","zip_code":"4200007"},{"name":"柳原","zip_code":"4200964"},{"name":"山崎","zip_code":"4211213"},{"name":"油島","zip_code":"4212102"},{"name":"柚木町","zip_code":"4200012"},{"name":"油野","zip_code":"4212212"},{"name":"柚木","zip_code":"4200821"},{"name":"湯ノ島","zip_code":"4211406"},{"name":"油山","zip_code":"4212123"},{"name":"与一","zip_code":"4200949"},{"name":"横内町","zip_code":"4200832"},{"name":"横沢","zip_code":"4212226"},{"name":"横田町","zip_code":"4200835"},{"name":"横山","zip_code":"4212307"},{"name":"与左衛門新田","zip_code":"4212115"},{"name":"吉津","zip_code":"4211223"},{"name":"吉野町","zip_code":"4200046"},{"name":"四番町","zip_code":"4200074"},{"name":"流通センター","zip_code":"4200922"},{"name":"竜南","zip_code":"4200804"},{"name":"両替町","zip_code":"4200032"},{"name":"六番町","zip_code":"4200076"},{"name":"若松町","zip_code":"4200006"},{"name":"蕨野","zip_code":"4212308"}]},{"name":"静岡市駿河区","divisions":[{"name":"青木","zip_code":"4210134"},{"name":"青沢","zip_code":"4228014"},{"name":"安居","zip_code":"4228012"},{"name":"有明町","zip_code":"4228031"},{"name":"池田","zip_code":"4228005"},{"name":"石田","zip_code":"4228042"},{"name":"泉町","zip_code":"4228066"},{"name":"稲川","zip_code":"4228062"},{"name":"宇津ノ谷","zip_code":"4210105"},{"name":"有東","zip_code":"4228032"},{"name":"大坪町","zip_code":"4228075"},{"name":"大谷","zip_code":"4228017"},{"name":"大和田","zip_code":"4210136"},{"name":"小黒","zip_code":"4228072"},{"name":"小坂","zip_code":"4210135"},{"name":"小鹿","zip_code":"4228021"},{"name":"恩田原","zip_code":"4228022"},{"name":"片山","zip_code":"4228023"},{"name":"鎌田","zip_code":"4210133"},{"name":"上川原","zip_code":"4210132"},{"name":"北丸子","zip_code":"4210106"},{"name":"国吉田","zip_code":"4228004"},{"name":"栗原","zip_code":"4228008"},{"name":"光陽町","zip_code":"4210116"},{"name":"寿町","zip_code":"4228055"},{"name":"さつき町","zip_code":"4228078"},{"name":"敷地","zip_code":"4228036"},{"name":"下川原","zip_code":"4210113"},{"name":"下川原南","zip_code":"4210117"},{"name":"下島","zip_code":"4228037"},{"name":"新川","zip_code":"4228064"},{"name":"石部","zip_code":"4210123"},{"name":"高松","zip_code":"4228034"},{"name":"津島町","zip_code":"4228056"},{"name":"手越","zip_code":"4210102"},{"name":"手越原","zip_code":"4210131"},{"name":"寺田","zip_code":"4210137"},{"name":"東新田","zip_code":"4210112"},{"name":"豊田","zip_code":"4228027"},{"name":"豊原町","zip_code":"4228071"},{"name":"登呂","zip_code":"4228033"},{"name":"中島","zip_code":"4228046"},{"name":"中田","zip_code":"4228041"},{"name":"中田本町","zip_code":"4228043"},{"name":"中野新田","zip_code":"4228051"},{"name":"中原","zip_code":"4228058"},{"name":"中平松","zip_code":"4228015"},{"name":"中村町","zip_code":"4228047"},{"name":"中吉田","zip_code":"4228001"},{"name":"西大谷","zip_code":"4228018"},{"name":"西島","zip_code":"4228045"},{"name":"西中原","zip_code":"4228053"},{"name":"西平松","zip_code":"4228016"},{"name":"西脇","zip_code":"4228044"},{"name":"根古屋","zip_code":"4228011"},{"name":"聖一色","zip_code":"4228007"},{"name":"平沢","zip_code":"4228003"},{"name":"広野","zip_code":"4210121"},{"name":"富士見台","zip_code":"4228026"},{"name":"古宿","zip_code":"4228013"},{"name":"曲金","zip_code":"4228006"},{"name":"馬渕","zip_code":"4228063"},{"name":"丸子","zip_code":"4210103"},{"name":"丸子新田","zip_code":"4210111"},{"name":"丸子芹が谷町","zip_code":"4210104"},{"name":"水上","zip_code":"4228025"},{"name":"みずほ","zip_code":"4210115"},{"name":"見瀬","zip_code":"4228057"},{"name":"緑が丘町","zip_code":"4228052"},{"name":"南安倍","zip_code":"4228054"},{"name":"南町","zip_code":"4228067"},{"name":"南八幡町","zip_code":"4228074"},{"name":"宮川","zip_code":"4228024"},{"name":"宮竹","zip_code":"4228035"},{"name":"宮本町","zip_code":"4228065"},{"name":"向敷地","zip_code":"4210101"},{"name":"用宗","zip_code":"4210122"},{"name":"用宗小石町","zip_code":"4210125"},{"name":"用宗城山町","zip_code":"4210124"},{"name":"用宗巴町","zip_code":"4210126"},{"name":"桃園町","zip_code":"4210114"},{"name":"森下町","zip_code":"4228061"},{"name":"谷田","zip_code":"4228002"},{"name":"八幡","zip_code":"4228076"},{"name":"八幡山","zip_code":"4228073"},{"name":"大和","zip_code":"4228077"},{"name":"弥生町","zip_code":"4228009"}]},{"name":"静岡市清水区","divisions":[{"name":"相生町","zip_code":"4240821"},{"name":"愛染町","zip_code":"4240805"},{"name":"青葉町","zip_code":"4240843"},{"name":"秋吉町","zip_code":"4240801"},{"name":"旭町","zip_code":"4240822"},{"name":"淡島町","zip_code":"4240838"},{"name":"飯田町","zip_code":"4240027"},{"name":"伊佐布","zip_code":"4240112"},{"name":"石川","zip_code":"4240005"},{"name":"石川新町","zip_code":"4240007"},{"name":"石川本町","zip_code":"4240006"},{"name":"庵原町","zip_code":"4240114"},{"name":"今泉","zip_code":"4240874"},{"name":"入江","zip_code":"4240831"},{"name":"入江岡町","zip_code":"4240839"},{"name":"入江南町","zip_code":"4240832"},{"name":"入船町","zip_code":"4240942"},{"name":"有東坂","zip_code":"4240873"},{"name":"有度本町","zip_code":"4240879"},{"name":"梅が岡","zip_code":"4240938"},{"name":"梅ケ谷","zip_code":"4240001"},{"name":"梅田町","zip_code":"4240948"},{"name":"上原","zip_code":"4240871"},{"name":"永楽町","zip_code":"4240043"},{"name":"江尻台町","zip_code":"4240044"},{"name":"江尻町","zip_code":"4240818"},{"name":"江尻東","zip_code":"4240815"},{"name":"恵比寿町","zip_code":"4240054"},{"name":"追分","zip_code":"4240841"},{"name":"大内","zip_code":"4240061"},{"name":"大内新田","zip_code":"4240062"},{"name":"大沢町","zip_code":"4240858"},{"name":"大坪","zip_code":"4240847"},{"name":"大手","zip_code":"4240808"},{"name":"大平","zip_code":"4240411"},{"name":"岡町","zip_code":"4240931"},{"name":"興津東町","zip_code":"4240203"},{"name":"興津井上町","zip_code":"4240202"},{"name":"興津清見寺町","zip_code":"4240206"},{"name":"興津中町","zip_code":"4240204"},{"name":"興津本町","zip_code":"4240205"},{"name":"押切","zip_code":"4240008"},{"name":"小芝町","zip_code":"4240812"},{"name":"小島町","zip_code":"4240305"},{"name":"小島本町","zip_code":"4240306"},{"name":"尾羽","zip_code":"4240103"},{"name":"折戸","zip_code":"4240902"},{"name":"柏尾","zip_code":"4240009"},{"name":"春日","zip_code":"4240842"},{"name":"上","zip_code":"4240827"},{"name":"上清水町","zip_code":"4240835"},{"name":"川原町","zip_code":"4240857"},{"name":"神田町","zip_code":"4240852"},{"name":"蒲原","zip_code":"4213203"},{"name":"蒲原神沢","zip_code":"4213215"},{"name":"蒲原小金","zip_code":"4213212"},{"name":"蒲原新栄","zip_code":"4213202"},{"name":"蒲原新田","zip_code":"4213211"},{"name":"蒲原堰沢","zip_code":"4213214"},{"name":"蒲原中","zip_code":"4213213"},{"name":"蒲原東","zip_code":"4213201"},{"name":"北矢部","zip_code":"4240865"},{"name":"北矢部町","zip_code":"4240937"},{"name":"北脇","zip_code":"4240052"},{"name":"北脇新田","zip_code":"4240051"},{"name":"吉川","zip_code":"4240055"},{"name":"木の下町","zip_code":"4240846"},{"name":"清地","zip_code":"4240402"},{"name":"銀座","zip_code":"4240817"},{"name":"草ケ谷","zip_code":"4240104"},{"name":"草薙","zip_code":"4240886"},{"name":"草薙一里山","zip_code":"4240884"},{"name":"草薙北","zip_code":"4240883"},{"name":"草薙杉道","zip_code":"4240885"},{"name":"楠","zip_code":"4240881"},{"name":"楠新田","zip_code":"4240882"},{"name":"河内","zip_code":"4240412"},{"name":"港南町","zip_code":"4240914"},{"name":"小河内","zip_code":"4240302"},{"name":"駒越","zip_code":"4240917"},{"name":"駒越北町","zip_code":"4240906"},{"name":"駒越中","zip_code":"4240904"},{"name":"駒越西","zip_code":"4240905"},{"name":"駒越東町","zip_code":"4240907"},{"name":"駒越南町","zip_code":"4240903"},{"name":"幸町","zip_code":"4240923"},{"name":"桜が丘町","zip_code":"4240836"},{"name":"桜橋町","zip_code":"4240837"},{"name":"三光町","zip_code":"4240933"},{"name":"茂野島","zip_code":"4240405"},{"name":"宍原","zip_code":"4240301"},{"name":"渋川","zip_code":"4240053"},{"name":"島崎町","zip_code":"4240823"},{"name":"清水町","zip_code":"4240947"},{"name":"清水村松地先新田","zip_code":"4240925"},{"name":"下清水町","zip_code":"4240939"},{"name":"下野北","zip_code":"4240021"},{"name":"下野町","zip_code":"4240011"},{"name":"下野中","zip_code":"4240029"},{"name":"下野西","zip_code":"4240012"},{"name":"下野東","zip_code":"4240028"},{"name":"下野緑町","zip_code":"4240013"},{"name":"承元寺町","zip_code":"4240201"},{"name":"庄福町","zip_code":"4240855"},{"name":"上力町","zip_code":"4240856"},{"name":"新富町","zip_code":"4240833"},{"name":"新緑町","zip_code":"4240927"},{"name":"新港町","zip_code":"4240824"},{"name":"杉山","zip_code":"4240106"},{"name":"清開","zip_code":"4240924"},{"name":"増","zip_code":"4240915"},{"name":"袖師町","zip_code":"4240037"},{"name":"高橋","zip_code":"4240041"},{"name":"高橋町","zip_code":"4240048"},{"name":"高橋南町","zip_code":"4240042"},{"name":"高山","zip_code":"4240404"},{"name":"宝町","zip_code":"4240813"},{"name":"但沼町","zip_code":"4240303"},{"name":"立花","zip_code":"4240304"},{"name":"田町","zip_code":"4240804"},{"name":"千歳町","zip_code":"4240828"},{"name":"築地町","zip_code":"4240944"},{"name":"月見町","zip_code":"4240853"},{"name":"辻","zip_code":"4240806"},{"name":"鶴舞町","zip_code":"4240047"},{"name":"天神","zip_code":"4240809"},{"name":"天王町","zip_code":"4240015"},{"name":"天王西","zip_code":"4240016"},{"name":"天王東","zip_code":"4240017"},{"name":"天王南","zip_code":"4240014"},{"name":"土","zip_code":"4240414"},{"name":"堂林","zip_code":"4240851"},{"name":"葛沢","zip_code":"4240406"},{"name":"殿沢","zip_code":"4240912"},{"name":"巴町","zip_code":"4240829"},{"name":"鳥坂","zip_code":"4240067"},{"name":"中河内","zip_code":"4240401"},{"name":"長崎","zip_code":"4240065"},{"name":"長崎新田","zip_code":"4240064"},{"name":"長崎南町","zip_code":"4240068"},{"name":"中之郷","zip_code":"4240888"},{"name":"中矢部町","zip_code":"4240854"},{"name":"七ツ新屋","zip_code":"4240066"},{"name":"西大曲町","zip_code":"4240046"},{"name":"西久保","zip_code":"4240038"},{"name":"西里","zip_code":"4240413"},{"name":"西高町","zip_code":"4240844"},{"name":"二の丸町","zip_code":"4240811"},{"name":"布沢","zip_code":"4240415"},{"name":"沼田町","zip_code":"4240935"},{"name":"能島","zip_code":"4240063"},{"name":"蜂ケ谷","zip_code":"4240003"},{"name":"蜂ケ谷南町","zip_code":"4240004"},{"name":"浜田町","zip_code":"4240834"},{"name":"原","zip_code":"4240113"},{"name":"半左衛門新田","zip_code":"4240056"},{"name":"東大曲町","zip_code":"4240045"},{"name":"日立町","zip_code":"4240929"},{"name":"日の出町","zip_code":"4240922"},{"name":"平川地","zip_code":"4240872"},{"name":"広瀬","zip_code":"4240102"},{"name":"富士見町","zip_code":"4240941"},{"name":"船越","zip_code":"4240866"},{"name":"船越町","zip_code":"4240861"},{"name":"船越東町","zip_code":"4240862"},{"name":"船越南町","zip_code":"4240863"},{"name":"船原","zip_code":"4240845"},{"name":"蛇塚","zip_code":"4240916"},{"name":"堀込","zip_code":"4240057"},{"name":"本郷町","zip_code":"4240814"},{"name":"本町","zip_code":"4240949"},{"name":"真砂町","zip_code":"4240816"},{"name":"松井町","zip_code":"4240921"},{"name":"松原町","zip_code":"4240825"},{"name":"馬走","zip_code":"4240875"},{"name":"馬走北","zip_code":"4240876"},{"name":"馬走坂の上","zip_code":"4240877"},{"name":"万世町","zip_code":"4240826"},{"name":"御門台","zip_code":"4240878"},{"name":"緑が丘町","zip_code":"4240928"},{"name":"港町","zip_code":"4240943"},{"name":"南岡町","zip_code":"4240932"},{"name":"南矢部","zip_code":"4240864"},{"name":"美濃輪町","zip_code":"4240945"},{"name":"三保","zip_code":"4240901"},{"name":"宮加三","zip_code":"4240911"},{"name":"宮下町","zip_code":"4240803"},{"name":"宮代町","zip_code":"4240807"},{"name":"向田町","zip_code":"4240936"},{"name":"迎山町","zip_code":"4240913"},{"name":"村松","zip_code":"4240926"},{"name":"村松原","zip_code":"4240934"},{"name":"元城町","zip_code":"4240819"},{"name":"茂畑","zip_code":"4240101"},{"name":"八木間町","zip_code":"4240212"},{"name":"矢倉町","zip_code":"4240802"},{"name":"八坂北","zip_code":"4240023"},{"name":"八坂町","zip_code":"4240022"},{"name":"八坂西町","zip_code":"4240025"},{"name":"八坂東","zip_code":"4240024"},{"name":"八坂南町","zip_code":"4240026"},{"name":"谷田","zip_code":"4240887"},{"name":"八千代町","zip_code":"4240946"},{"name":"谷津町","zip_code":"4240211"},{"name":"山切","zip_code":"4240105"},{"name":"弥生町","zip_code":"4240018"},{"name":"山原","zip_code":"4240002"},{"name":"由比","zip_code":"4213103"},{"name":"由比阿僧","zip_code":"4213107"},{"name":"由比今宿","zip_code":"4213111"},{"name":"由比入山","zip_code":"4213101"},{"name":"由比北田","zip_code":"4213104"},{"name":"由比寺尾","zip_code":"4213112"},{"name":"由比西倉澤","zip_code":"4213115"},{"name":"由比西山寺","zip_code":"4213106"},{"name":"由比東倉澤","zip_code":"4213114"},{"name":"由比東山寺","zip_code":"4213102"},{"name":"由比町屋原","zip_code":"4213105"},{"name":"横砂","zip_code":"4240031"},{"name":"横砂中町","zip_code":"4240034"},{"name":"横砂西町","zip_code":"4240036"},{"name":"横砂東町","zip_code":"4240032"},{"name":"横砂本町","zip_code":"4240033"},{"name":"横砂南町","zip_code":"4240035"},{"name":"吉原","zip_code":"4240111"},{"name":"和田島","zip_code":"4240403"}]},{"name":"浜松市中区","divisions":[{"name":"相生町","zip_code":"4300805"},{"name":"葵西","zip_code":"4338111"},{"name":"葵東","zip_code":"4338114"},{"name":"浅田町","zip_code":"4328043"},{"name":"旭町","zip_code":"4300927"},{"name":"小豆餅","zip_code":"4338113"},{"name":"池町","zip_code":"4300945"},{"name":"泉","zip_code":"4338124"},{"name":"泉町","zip_code":"4338126"},{"name":"板屋町","zip_code":"4300928"},{"name":"瓜内町","zip_code":"4300854"},{"name":"海老塚","zip_code":"4328033"},{"name":"海老塚町","zip_code":"4328032"},{"name":"尾張町","zip_code":"4300949"},{"name":"鍛冶町","zip_code":"4300933"},{"name":"春日町","zip_code":"4328046"},{"name":"上浅田","zip_code":"4328042"},{"name":"上島","zip_code":"4338122"},{"name":"神田町","zip_code":"4328047"},{"name":"鴨江","zip_code":"4328023"},{"name":"鴨江町","zip_code":"4328024"},{"name":"北田町","zip_code":"4300943"},{"name":"北寺島町","zip_code":"4300923"},{"name":"木戸町","zip_code":"4300806"},{"name":"元目町","zip_code":"4300948"},{"name":"紺屋町","zip_code":"4300938"},{"name":"幸","zip_code":"4338123"},{"name":"栄町","zip_code":"4328025"},{"name":"肴町","zip_code":"4300932"},{"name":"佐藤","zip_code":"4300807"},{"name":"佐鳴台","zip_code":"4328021"},{"name":"塩町","zip_code":"4328034"},{"name":"鹿谷町","zip_code":"4328014"},{"name":"蜆塚","zip_code":"4328018"},{"name":"十軒町","zip_code":"4350055"},{"name":"下池川町","zip_code":"4300905"},{"name":"城北","zip_code":"4328011"},{"name":"新津町","zip_code":"4300911"},{"name":"神明町","zip_code":"4300931"},{"name":"菅原町","zip_code":"4328041"},{"name":"助信町","zip_code":"4300903"},{"name":"砂山町","zip_code":"4300926"},{"name":"住吉","zip_code":"4300906"},{"name":"早出町","zip_code":"4350054"},{"name":"大工町","zip_code":"4300936"},{"name":"高丘北","zip_code":"4338119"},{"name":"高丘西","zip_code":"4338118"},{"name":"高丘東","zip_code":"4338117"},{"name":"高林","zip_code":"4300907"},{"name":"高町","zip_code":"4328015"},{"name":"田町","zip_code":"4300944"},{"name":"千歳町","zip_code":"4300934"},{"name":"中央","zip_code":"4300929"},{"name":"寺島町","zip_code":"4300925"},{"name":"天神町","zip_code":"4300808"},{"name":"伝馬町","zip_code":"4300935"},{"name":"利町","zip_code":"4300937"},{"name":"常盤町","zip_code":"4300917"},{"name":"富塚町","zip_code":"4328002"},{"name":"富吉町","zip_code":"4300804"},{"name":"中沢町","zip_code":"4300904"},{"name":"中島","zip_code":"4300856"},{"name":"中島町","zip_code":"4300857"},{"name":"中山町","zip_code":"4328016"},{"name":"茄子町","zip_code":"4300912"},{"name":"名塚町","zip_code":"4300811"},{"name":"平田町","zip_code":"4328031"},{"name":"成子町","zip_code":"4328035"},{"name":"西浅田","zip_code":"4328045"},{"name":"西伊場町","zip_code":"4328038"},{"name":"西丘町","zip_code":"4338116"},{"name":"布橋","zip_code":"4328012"},{"name":"野口町","zip_code":"4300919"},{"name":"法枝町","zip_code":"4328053"},{"name":"萩丘","zip_code":"4338121"},{"name":"旅籠町","zip_code":"4328027"},{"name":"八幡町","zip_code":"4300918"},{"name":"花川町","zip_code":"4338109"},{"name":"早馬町","zip_code":"4300916"},{"name":"東伊場","zip_code":"4328036"},{"name":"東田町","zip_code":"4300915"},{"name":"曳馬","zip_code":"4300901"},{"name":"曳馬町","zip_code":"4300902"},{"name":"広沢","zip_code":"4328013"},{"name":"船越町","zip_code":"4300913"},{"name":"文丘町","zip_code":"4328004"},{"name":"細島町","zip_code":"4350045"},{"name":"松城町","zip_code":"4300947"},{"name":"三組町","zip_code":"4328017"},{"name":"南浅田","zip_code":"4328044"},{"name":"南伊場町","zip_code":"4328037"},{"name":"向宿","zip_code":"4300851"},{"name":"元魚町","zip_code":"4328026"},{"name":"元城町","zip_code":"4300946"},{"name":"元浜町","zip_code":"4300942"},{"name":"森田町","zip_code":"4328048"},{"name":"山下町","zip_code":"4300941"},{"name":"山手町","zip_code":"4328022"},{"name":"龍禅寺町","zip_code":"4300924"},{"name":"領家","zip_code":"4300852"},{"name":"連尺町","zip_code":"4300939"},{"name":"和合北","zip_code":"4338127"},{"name":"和合町","zip_code":"4338125"},{"name":"和地山","zip_code":"4328003"}]},{"name":"浜松市東区","divisions":[{"name":"有玉北町","zip_code":"4313121"},{"name":"有玉台","zip_code":"4313126"},{"name":"有玉西町","zip_code":"4313123"},{"name":"有玉南町","zip_code":"4313122"},{"name":"安新町","zip_code":"4350005"},{"name":"安間町","zip_code":"4350012"},{"name":"市野町","zip_code":"4350051"},{"name":"植松町","zip_code":"4300803"},{"name":"大蒲町","zip_code":"4350014"},{"name":"大島町","zip_code":"4313112"},{"name":"大瀬町","zip_code":"4313113"},{"name":"笠井上町","zip_code":"4313106"},{"name":"笠井新田町","zip_code":"4313105"},{"name":"笠井町","zip_code":"4313107"},{"name":"上新屋町","zip_code":"4350053"},{"name":"上石田町","zip_code":"4350001"},{"name":"上西町","zip_code":"4350048"},{"name":"北島町","zip_code":"4350041"},{"name":"貴平町","zip_code":"4313104"},{"name":"国吉町","zip_code":"4350011"},{"name":"小池町","zip_code":"4350056"},{"name":"神立町","zip_code":"4300801"},{"name":"子安町","zip_code":"4350015"},{"name":"材木町","zip_code":"4350021"},{"name":"篠ケ瀬町","zip_code":"4350042"},{"name":"下石田町","zip_code":"4350006"},{"name":"将監町","zip_code":"4300802"},{"name":"常光町","zip_code":"4313103"},{"name":"白鳥町","zip_code":"4350002"},{"name":"積志町","zip_code":"4313114"},{"name":"恒武町","zip_code":"4313108"},{"name":"天王町","zip_code":"4350052"},{"name":"天龍川町","zip_code":"4350013"},{"name":"豊西町","zip_code":"4313102"},{"name":"中郡町","zip_code":"4313111"},{"name":"中里町","zip_code":"4350003"},{"name":"中田町","zip_code":"4350057"},{"name":"長鶴町","zip_code":"4350031"},{"name":"中野町","zip_code":"4350004"},{"name":"西ケ崎町","zip_code":"4313115"},{"name":"西塚町","zip_code":"4350044"},{"name":"原島町","zip_code":"4350047"},{"name":"半田町","zip_code":"4313124"},{"name":"半田山","zip_code":"4313125"},{"name":"松小池町","zip_code":"4350008"},{"name":"丸塚町","zip_code":"4350046"},{"name":"宮竹町","zip_code":"4350043"},{"name":"薬師町","zip_code":"4350017"},{"name":"薬新町","zip_code":"4350018"},{"name":"豊町","zip_code":"4313101"},{"name":"龍光町","zip_code":"4350029"},{"name":"流通元町","zip_code":"4350007"},{"name":"和田町","zip_code":"4350016"}]},{"name":"浜松市西区","divisions":[{"name":"伊左地町","zip_code":"4311111"},{"name":"入野町","zip_code":"4328061"},{"name":"大久保町","zip_code":"4328006"},{"name":"大人見町","zip_code":"4311112"},{"name":"大平台","zip_code":"4328068"},{"name":"大山町","zip_code":"4311102"},{"name":"神ケ谷町","zip_code":"4328005"},{"name":"神原町","zip_code":"4328007"},{"name":"舘山寺町","zip_code":"4311209"},{"name":"協和町","zip_code":"4311205"},{"name":"呉松町","zip_code":"4311202"},{"name":"湖東町","zip_code":"4311103"},{"name":"古人見町","zip_code":"4311113"},{"name":"桜台","zip_code":"4311104"},{"name":"佐浜町","zip_code":"4311114"},{"name":"志都呂","zip_code":"4328069"},{"name":"志都呂町","zip_code":"4328066"},{"name":"篠原町","zip_code":"4310201"},{"name":"庄内町","zip_code":"4311208"},{"name":"庄和町","zip_code":"4311206"},{"name":"白洲町","zip_code":"4311204"},{"name":"西都台町","zip_code":"4328071"},{"name":"坪井町","zip_code":"4310202"},{"name":"西鴨江町","zip_code":"4328067"},{"name":"西山町","zip_code":"4328001"},{"name":"平松町","zip_code":"4311203"},{"name":"深萩町","zip_code":"4311201"},{"name":"舞阪町長十新田","zip_code":"4310212"},{"name":"舞阪町浜田","zip_code":"4310213"},{"name":"舞阪町弁天島","zip_code":"4310214"},{"name":"舞阪町舞阪","zip_code":"4310211"},{"name":"馬郡町","zip_code":"4310203"},{"name":"村櫛町","zip_code":"4311207"},{"name":"雄踏","zip_code":"4310103"},{"name":"雄踏町宇布見","zip_code":"4310102"},{"name":"雄踏町山崎","zip_code":"4310101"},{"name":"和光町","zip_code":"4311101"},{"name":"和地町","zip_code":"4311115"}]},{"name":"浜松市南区","divisions":[{"name":"青屋町","zip_code":"4350037"},{"name":"飯田町","zip_code":"4350028"},{"name":"石原町","zip_code":"4350033"},{"name":"瓜内町","zip_code":"4300854"},{"name":"江之島町","zip_code":"4300844"},{"name":"遠州浜","zip_code":"4300835"},{"name":"老間町","zip_code":"4350025"},{"name":"大塚町","zip_code":"4350024"},{"name":"大柳町","zip_code":"4300842"},{"name":"卸本町","zip_code":"4328055"},{"name":"恩地町","zip_code":"4300814"},{"name":"金折町","zip_code":"4350026"},{"name":"河輪町","zip_code":"4300823"},{"name":"倉松町","zip_code":"4328064"},{"name":"御給町","zip_code":"4300831"},{"name":"小沢渡町","zip_code":"4328063"},{"name":"参野町","zip_code":"4300816"},{"name":"三新町","zip_code":"4300833"},{"name":"三和町","zip_code":"4350038"},{"name":"四本松町","zip_code":"4300826"},{"name":"下飯田町","zip_code":"4350027"},{"name":"下江町","zip_code":"4300825"},{"name":"白羽町","zip_code":"4300846"},{"name":"新貝町","zip_code":"4350023"},{"name":"頭陀寺町","zip_code":"4300817"},{"name":"西伝寺町","zip_code":"4350035"},{"name":"増楽町","zip_code":"4328062"},{"name":"高塚町","zip_code":"4328065"},{"name":"田尻町","zip_code":"4328054"},{"name":"立野町","zip_code":"4300827"},{"name":"堤町","zip_code":"4328057"},{"name":"都盛町","zip_code":"4300815"},{"name":"鶴見町","zip_code":"4350022"},{"name":"寺脇町","zip_code":"4300841"},{"name":"富屋町","zip_code":"4300824"},{"name":"中田島町","zip_code":"4300845"},{"name":"長田町","zip_code":"4300832"},{"name":"西島町","zip_code":"4300837"},{"name":"西町","zip_code":"4300821"},{"name":"新橋町","zip_code":"4328058"},{"name":"鼡野町","zip_code":"4300838"},{"name":"法枝町","zip_code":"4328053"},{"name":"東町","zip_code":"4300822"},{"name":"東若林町","zip_code":"4328052"},{"name":"福島町","zip_code":"4300836"},{"name":"福塚町","zip_code":"4300843"},{"name":"古川町","zip_code":"4350032"},{"name":"芳川町","zip_code":"4300813"},{"name":"本郷町","zip_code":"4300812"},{"name":"松島町","zip_code":"4300834"},{"name":"三島町","zip_code":"4300853"},{"name":"安松町","zip_code":"4350034"},{"name":"楊子町","zip_code":"4300855"},{"name":"米津町","zip_code":"4328056"},{"name":"若林町","zip_code":"4328051"},{"name":"渡瀬町","zip_code":"4350036"}]},{"name":"浜松市北区","divisions":[{"name":"引佐町井伊谷","zip_code":"4312212"},{"name":"引佐町伊平","zip_code":"4312205"},{"name":"引佐町奥山","zip_code":"4312224"},{"name":"引佐町金指","zip_code":"4312213"},{"name":"引佐町狩宿","zip_code":"4312225"},{"name":"引佐町川名","zip_code":"4312202"},{"name":"引佐町黒渕","zip_code":"4312222"},{"name":"引佐町渋川","zip_code":"4312537"},{"name":"引佐町四方浄","zip_code":"4312533"},{"name":"引佐町白岩","zip_code":"4312215"},{"name":"引佐町田沢","zip_code":"4312536"},{"name":"引佐町田畑","zip_code":"4312221"},{"name":"引佐町栃窪","zip_code":"4312223"},{"name":"引佐町兎荷","zip_code":"4312204"},{"name":"引佐町西久留女木","zip_code":"4312532"},{"name":"引佐町西黒田","zip_code":"4312206"},{"name":"引佐町花平","zip_code":"4312211"},{"name":"引佐町東久留女木","zip_code":"4312531"},{"name":"引佐町東黒田","zip_code":"4312207"},{"name":"引佐町別所","zip_code":"4312534"},{"name":"引佐町的場","zip_code":"4312535"},{"name":"引佐町三岳","zip_code":"4312203"},{"name":"引佐町谷沢","zip_code":"4312226"},{"name":"引佐町横尾","zip_code":"4312214"},{"name":"大原町","zip_code":"4338102"},{"name":"神宮寺町","zip_code":"4312216"},{"name":"新都田","zip_code":"4312103"},{"name":"滝沢町","zip_code":"4312101"},{"name":"豊岡町","zip_code":"4338103"},{"name":"根洗町","zip_code":"4338108"},{"name":"初生町","zip_code":"4338112"},{"name":"東三方町","zip_code":"4338104"},{"name":"細江町小野","zip_code":"4311301"},{"name":"細江町気賀","zip_code":"4311305"},{"name":"細江町中川","zip_code":"4311304"},{"name":"細江町広岡","zip_code":"4311302"},{"name":"細江町三和","zip_code":"4311303"},{"name":"三方原町","zip_code":"4338105"},{"name":"三ヶ日町宇志","zip_code":"4311404"},{"name":"三ヶ日町大崎","zip_code":"4311403"},{"name":"三ヶ日町大谷","zip_code":"4311407"},{"name":"三ヶ日町岡本","zip_code":"4311415"},{"name":"三ヶ日町上尾奈","zip_code":"4311425"},{"name":"三ヶ日町駒場","zip_code":"4311406"},{"name":"三ヶ日町佐久米","zip_code":"4311401"},{"name":"三ヶ日町下尾奈","zip_code":"4311424"},{"name":"三ヶ日町只木","zip_code":"4311412"},{"name":"三ヶ日町都筑","zip_code":"4311402"},{"name":"三ヶ日町津々崎","zip_code":"4311405"},{"name":"三ヶ日町釣","zip_code":"4311416"},{"name":"三ヶ日町鵺代","zip_code":"4311423"},{"name":"三ヶ日町日比沢","zip_code":"4311422"},{"name":"三ヶ日町平山","zip_code":"4311417"},{"name":"三ヶ日町福長","zip_code":"4311411"},{"name":"三ヶ日町本坂","zip_code":"4311421"},{"name":"三ヶ日町摩訶耶","zip_code":"4311413"},{"name":"三ヶ日町三ヶ日","zip_code":"4311414"},{"name":"都田町","zip_code":"4312102"},{"name":"三幸町","zip_code":"4338101"},{"name":"鷲沢町","zip_code":"4312104"}]},{"name":"浜松市浜北区","divisions":[{"name":"油一色","zip_code":"4340027"},{"name":"内野","zip_code":"4340044"},{"name":"内野台","zip_code":"4340045"},{"name":"大平","zip_code":"4340005"},{"name":"尾野","zip_code":"4340002"},{"name":"於呂","zip_code":"4340015"},{"name":"上島","zip_code":"4340011"},{"name":"上善地","zip_code":"4340028"},{"name":"貴布祢","zip_code":"4340038"},{"name":"小林","zip_code":"4340031"},{"name":"小松","zip_code":"4340042"},{"name":"新原","zip_code":"4340003"},{"name":"善地","zip_code":"4340025"},{"name":"染地台","zip_code":"4340046"},{"name":"高薗","zip_code":"4340023"},{"name":"高畑","zip_code":"4340034"},{"name":"寺島","zip_code":"4340035"},{"name":"道本","zip_code":"4340032"},{"name":"豊保","zip_code":"4340017"},{"name":"永島","zip_code":"4340013"},{"name":"中条","zip_code":"4340043"},{"name":"中瀬","zip_code":"4340012"},{"name":"新野","zip_code":"4340029"},{"name":"新堀","zip_code":"4340022"},{"name":"西美薗","zip_code":"4340033"},{"name":"沼","zip_code":"4340037"},{"name":"根堅","zip_code":"4340016"},{"name":"灰木","zip_code":"4340007"},{"name":"東美薗","zip_code":"4340026"},{"name":"平口","zip_code":"4340041"},{"name":"堀谷","zip_code":"4340001"},{"name":"本沢合","zip_code":"4340014"},{"name":"宮口","zip_code":"4340004"},{"name":"八幡","zip_code":"4340021"},{"name":"横須賀","zip_code":"4340036"},{"name":"四大地","zip_code":"4340006"},{"name":"竜南","zip_code":"4340024"}]},{"name":"浜松市天竜区","divisions":[{"name":"青谷","zip_code":"4313425"},{"name":"芦窪","zip_code":"4313535"},{"name":"阿寺","zip_code":"4313536"},{"name":"石神","zip_code":"4313428"},{"name":"伊砂","zip_code":"4313762"},{"name":"大川","zip_code":"4313755"},{"name":"大栗安","zip_code":"4313642"},{"name":"大谷","zip_code":"4313305"},{"name":"小川","zip_code":"4313752"},{"name":"上野","zip_code":"4313427"},{"name":"神沢","zip_code":"4313643"},{"name":"熊","zip_code":"4313641"},{"name":"佐久","zip_code":"4313753"},{"name":"佐久間町相月","zip_code":"4314111"},{"name":"佐久間町浦川","zip_code":"4313906"},{"name":"佐久間町大井","zip_code":"4313902"},{"name":"佐久間町奥領家","zip_code":"4314112"},{"name":"佐久間町上平山","zip_code":"4313903"},{"name":"佐久間町川合","zip_code":"4313907"},{"name":"佐久間町佐久間","zip_code":"4313901"},{"name":"佐久間町戸口","zip_code":"4313904"},{"name":"佐久間町中部","zip_code":"4313908"},{"name":"佐久間町半場","zip_code":"4313905"},{"name":"次郎八新田","zip_code":"4313304"},{"name":"相津","zip_code":"4313754"},{"name":"只来","zip_code":"4313302"},{"name":"龍山町大嶺","zip_code":"4313804"},{"name":"龍山町下平山","zip_code":"4313802"},{"name":"龍山町瀬尻","zip_code":"4313801"},{"name":"龍山町戸倉","zip_code":"4313803"},{"name":"月","zip_code":"4313763"},{"name":"長沢","zip_code":"4313533"},{"name":"西雲名","zip_code":"4313761"},{"name":"西藤平","zip_code":"4313532"},{"name":"春野町筏戸大上","zip_code":"4370617"},{"name":"春野町砂川","zip_code":"4370621"},{"name":"春野町石打松下","zip_code":"4370615"},{"name":"春野町石切","zip_code":"4370607"},{"name":"春野町和泉平","zip_code":"4370624"},{"name":"春野町大時","zip_code":"4370622"},{"name":"春野町小俣京丸","zip_code":"4370608"},{"name":"春野町川上","zip_code":"4370601"},{"name":"春野町胡桃平","zip_code":"4370623"},{"name":"春野町気田","zip_code":"4370605"},{"name":"春野町越木平","zip_code":"4370618"},{"name":"春野町五和","zip_code":"4370603"},{"name":"春野町杉","zip_code":"4370602"},{"name":"春野町田黒","zip_code":"4370616"},{"name":"春野町田河内","zip_code":"4370611"},{"name":"春野町長蔵寺","zip_code":"4370614"},{"name":"春野町豊岡","zip_code":"4370606"},{"name":"春野町花島","zip_code":"4370612"},{"name":"春野町堀之内","zip_code":"4370625"},{"name":"春野町牧野","zip_code":"4370613"},{"name":"春野町宮川","zip_code":"4370604"},{"name":"春野町領家","zip_code":"4370626"},{"name":"日明","zip_code":"4313421"},{"name":"東雲名","zip_code":"4313751"},{"name":"東藤平","zip_code":"4313531"},{"name":"二俣町阿蔵","zip_code":"4313311"},{"name":"二俣町大園","zip_code":"4313315"},{"name":"二俣町鹿島","zip_code":"4313313"},{"name":"二俣町二俣","zip_code":"4313314"},{"name":"二俣町南鹿島","zip_code":"4313312"},{"name":"懐山","zip_code":"4313534"},{"name":"船明","zip_code":"4313306"},{"name":"水窪町奥領家","zip_code":"4314101"},{"name":"水窪町地頭方","zip_code":"4314102"},{"name":"水窪町山住","zip_code":"4314103"},{"name":"米沢","zip_code":"4313422"},{"name":"山東","zip_code":"4313303"},{"name":"谷山","zip_code":"4313756"},{"name":"横川","zip_code":"4313301"},{"name":"横山町","zip_code":"4313764"},{"name":"両島","zip_code":"4313426"},{"name":"緑恵台","zip_code":"4313424"},{"name":"渡ケ島","zip_code":"4313423"}]},{"name":"沼津市","divisions":[{"name":"上土町","zip_code":"4100802"},{"name":"旭町","zip_code":"4100852"},{"name":"足高","zip_code":"4100001"},{"name":"石川","zip_code":"4100317"},{"name":"泉町","zip_code":"4100045"},{"name":"井田","zip_code":"4103401"},{"name":"市場町","zip_code":"4100831"},{"name":"市道","zip_code":"4100866"},{"name":"一本松","zip_code":"4100314"},{"name":"井出","zip_code":"4100319"},{"name":"今沢","zip_code":"4100875"},{"name":"植田","zip_code":"4100316"},{"name":"魚町","zip_code":"4100892"},{"name":"内浦重須","zip_code":"4100225"},{"name":"内浦小海","zip_code":"4100222"},{"name":"内浦重寺","zip_code":"4100221"},{"name":"内浦長浜","zip_code":"4100224"},{"name":"内浦三津","zip_code":"4100223"},{"name":"江浦","zip_code":"4100103"},{"name":"江原町","zip_code":"4100049"},{"name":"大岡","zip_code":"4100022"},{"name":"大諏訪","zip_code":"4100873"},{"name":"大塚","zip_code":"4100306"},{"name":"大手町","zip_code":"4100801"},{"name":"青野","zip_code":"4100307"},{"name":"大平","zip_code":"4100821"},{"name":"岡一色","zip_code":"4100012"},{"name":"岡宮","zip_code":"4100011"},{"name":"春日町","zip_code":"4100844"},{"name":"我入道","zip_code":"4100823"},{"name":"香貫が丘","zip_code":"4100824"},{"name":"上香貫","zip_code":"4100813"},{"name":"神田町","zip_code":"4100042"},{"name":"北今沢","zip_code":"4100876"},{"name":"北園町","zip_code":"4100061"},{"name":"北高島町","zip_code":"4100054"},{"name":"共栄町","zip_code":"4100064"},{"name":"口野","zip_code":"4100102"},{"name":"くまだか町","zip_code":"4100893"},{"name":"黒瀬町","zip_code":"4100819"},{"name":"小諏訪","zip_code":"4100872"},{"name":"寿町","zip_code":"4100053"},{"name":"小林台","zip_code":"4100021"},{"name":"西条町","zip_code":"4100804"},{"name":"幸町","zip_code":"4100862"},{"name":"五月町","zip_code":"4100044"},{"name":"沢田町","zip_code":"4100052"},{"name":"山王台","zip_code":"4100035"},{"name":"三枚橋","zip_code":"4100031"},{"name":"三枚橋町","zip_code":"4100037"},{"name":"志下","zip_code":"4100106"},{"name":"獅子浜","zip_code":"4100104"},{"name":"下小路町","zip_code":"4100867"},{"name":"下一丁田","zip_code":"4100863"},{"name":"下香貫","zip_code":"4100822"},{"name":"下河原町","zip_code":"4100841"},{"name":"下中溝","zip_code":"4100867"},{"name":"下本町","zip_code":"4100885"},{"name":"蛇松町","zip_code":"4100842"},{"name":"庄栄町","zip_code":"4100047"},{"name":"白銀町","zip_code":"4100805"},{"name":"新沢田町","zip_code":"4100003"},{"name":"新宿町","zip_code":"4100048"},{"name":"新町","zip_code":"4100895"},{"name":"末広町","zip_code":"4100888"},{"name":"杉崎町","zip_code":"4100033"},{"name":"住吉町","zip_code":"4100816"},{"name":"駿河台","zip_code":"4100015"},{"name":"浅間町","zip_code":"4100886"},{"name":"千本","zip_code":"4100867"},{"name":"千本常盤町","zip_code":"4100854"},{"name":"千本中町","zip_code":"4100847"},{"name":"千本東町","zip_code":"4100846"},{"name":"千本西町","zip_code":"4100848"},{"name":"千本緑町","zip_code":"4100855"},{"name":"千本港町","zip_code":"4100845"},{"name":"千本郷林","zip_code":"4100849"},{"name":"添地町","zip_code":"4100803"},{"name":"大門町","zip_code":"4100883"},{"name":"高尾台","zip_code":"4100017"},{"name":"高砂町","zip_code":"4100016"},{"name":"高沢町","zip_code":"4100057"},{"name":"高島町","zip_code":"4100056"},{"name":"高島本町","zip_code":"4100055"},{"name":"蓼原町","zip_code":"4100843"},{"name":"多比","zip_code":"4100101"},{"name":"玉江町","zip_code":"4100814"},{"name":"筒井町","zip_code":"4100041"},{"name":"出口町","zip_code":"4100867"},{"name":"通横町","zip_code":"4100891"},{"name":"常盤町","zip_code":"4100853"},{"name":"鳥谷","zip_code":"4100305"},{"name":"中沢田","zip_code":"4100006"},{"name":"中瀬町","zip_code":"4100811"},{"name":"仲町","zip_code":"4100894"},{"name":"中原町","zip_code":"4100818"},{"name":"西浦足保","zip_code":"4100242"},{"name":"西浦江梨","zip_code":"4100244"},{"name":"西浦木負","zip_code":"4100231"},{"name":"西浦久連","zip_code":"4100233"},{"name":"西浦久料","zip_code":"4100243"},{"name":"西浦古宇","zip_code":"4100241"},{"name":"西浦河内","zip_code":"4100232"},{"name":"西浦立保","zip_code":"4100235"},{"name":"西浦平沢","zip_code":"4100234"},{"name":"西浦大瀬","zip_code":"4100244"},{"name":"錦町","zip_code":"4100807"},{"name":"西熊堂","zip_code":"4100051"},{"name":"西沢田","zip_code":"4100007"},{"name":"西椎路","zip_code":"4100303"},{"name":"西島町","zip_code":"4100835"},{"name":"西添町","zip_code":"4100313"},{"name":"西野","zip_code":"4100321"},{"name":"西間門","zip_code":"4100871"},{"name":"西松下","zip_code":"4100867"},{"name":"沼北町","zip_code":"4100058"},{"name":"根古屋","zip_code":"4100309"},{"name":"八幡町","zip_code":"4100881"},{"name":"花園町","zip_code":"4100065"},{"name":"原","zip_code":"4100312"},{"name":"原町中","zip_code":"4100311"},{"name":"東熊堂","zip_code":"4100013"},{"name":"東沢田","zip_code":"4100002"},{"name":"東椎路","zip_code":"4100302"},{"name":"東原","zip_code":"4100304"},{"name":"東間門","zip_code":"4100865"},{"name":"東宮後町","zip_code":"4100887"},{"name":"日の出町","zip_code":"4100032"},{"name":"平沼","zip_code":"4100318"},{"name":"平町","zip_code":"4100036"},{"name":"富士見町","zip_code":"4100034"},{"name":"双葉町","zip_code":"4100005"},{"name":"戸田","zip_code":"4103402"},{"name":"本","zip_code":"4100867"},{"name":"本郷町","zip_code":"4100817"},{"name":"本田町","zip_code":"4100004"},{"name":"本町","zip_code":"4100884"},{"name":"前田","zip_code":"4100867"},{"name":"槇島町","zip_code":"4100834"},{"name":"馬込","zip_code":"4100105"},{"name":"真砂町","zip_code":"4100861"},{"name":"町方町","zip_code":"4100882"},{"name":"松沢町","zip_code":"4100014"},{"name":"松下","zip_code":"4100864"},{"name":"松下七反田","zip_code":"4100867"},{"name":"松長","zip_code":"4100874"},{"name":"丸子町","zip_code":"4100806"},{"name":"三園町","zip_code":"4100833"},{"name":"緑ケ丘","zip_code":"4100063"},{"name":"南本郷町","zip_code":"4100815"},{"name":"宮前町","zip_code":"4100062"},{"name":"宮町","zip_code":"4100851"},{"name":"宮本","zip_code":"4100301"},{"name":"御幸町","zip_code":"4100832"},{"name":"三芳町","zip_code":"4100038"},{"name":"桃里","zip_code":"4100315"},{"name":"柳沢","zip_code":"4100308"},{"name":"柳町","zip_code":"4100043"},{"name":"山ケ下町","zip_code":"4100812"},{"name":"豊町","zip_code":"4100018"},{"name":"吉田町","zip_code":"4100836"},{"name":"米山町","zip_code":"4100046"},{"name":"若葉町","zip_code":"4100059"}]},{"name":"熱海市","divisions":[{"name":"相の原町","zip_code":"4130039"},{"name":"青葉町","zip_code":"4130041"},{"name":"網代","zip_code":"4130103"},{"name":"熱海","zip_code":"4130033"},{"name":"伊豆山","zip_code":"4130002"},{"name":"泉","zip_code":"4130001"},{"name":"海光町","zip_code":"4130003"},{"name":"春日町","zip_code":"4130005"},{"name":"上宿町","zip_code":"4130018"},{"name":"上多賀","zip_code":"4130101"},{"name":"銀座町","zip_code":"4130013"},{"name":"小嵐町","zip_code":"4130029"},{"name":"咲見町","zip_code":"4130019"},{"name":"桜木町","zip_code":"4130025"},{"name":"桜町","zip_code":"4130028"},{"name":"笹良ケ台町","zip_code":"4130037"},{"name":"清水町","zip_code":"4130021"},{"name":"下多賀","zip_code":"4130102"},{"name":"昭和町","zip_code":"4130022"},{"name":"田原本町","zip_code":"4130011"},{"name":"中央町","zip_code":"4130015"},{"name":"渚町","zip_code":"4130014"},{"name":"西熱海町","zip_code":"4130038"},{"name":"西山町","zip_code":"4130034"},{"name":"梅園町","zip_code":"4130032"},{"name":"梅花町","zip_code":"4130026"},{"name":"初島","zip_code":"4130004"},{"name":"林ガ丘町","zip_code":"4130031"},{"name":"東海岸町","zip_code":"4130012"},{"name":"日金町","zip_code":"4130036"},{"name":"福道町","zip_code":"4130017"},{"name":"緑ガ丘町","zip_code":"4130035"},{"name":"水口町","zip_code":"4130016"},{"name":"紅葉ガ丘町","zip_code":"4130027"},{"name":"桃山町","zip_code":"4130006"},{"name":"山手町","zip_code":"4130042"},{"name":"和田町","zip_code":"4130024"},{"name":"和田浜南町","zip_code":"4130023"}]},{"name":"三島市","divisions":[{"name":"青木","zip_code":"4110811"},{"name":"旭ケ丘","zip_code":"4110020"},{"name":"新谷","zip_code":"4110834"},{"name":"泉町","zip_code":"4110037"},{"name":"市山新田","zip_code":"4110015"},{"name":"一番町","zip_code":"4110036"},{"name":"壱町田","zip_code":"4110025"},{"name":"梅名","zip_code":"4110816"},{"name":"大宮町","zip_code":"4110035"},{"name":"加茂","zip_code":"4110023"},{"name":"加茂川町","zip_code":"4110034"},{"name":"加屋町","zip_code":"4110845"},{"name":"川原ケ谷","zip_code":"4110022"},{"name":"北沢","zip_code":"4110805"},{"name":"北田町","zip_code":"4110854"},{"name":"清住町","zip_code":"4110844"},{"name":"幸原町","zip_code":"4110031"},{"name":"寿町","zip_code":"4110039"},{"name":"栄町","zip_code":"4110846"},{"name":"笹原新田","zip_code":"4110012"},{"name":"佐野","zip_code":"4110047"},{"name":"佐野見晴台","zip_code":"4110041"},{"name":"沢地","zip_code":"4110043"},{"name":"三恵台","zip_code":"4110017"},{"name":"芝本町","zip_code":"4110857"},{"name":"末広町","zip_code":"4110032"},{"name":"千枚原","zip_code":"4110027"},{"name":"大社町","zip_code":"4110853"},{"name":"大場","zip_code":"4110803"},{"name":"竹倉","zip_code":"4110807"},{"name":"玉川","zip_code":"4110835"},{"name":"玉沢","zip_code":"4110014"},{"name":"多呂","zip_code":"4110804"},{"name":"中央町","zip_code":"4110858"},{"name":"塚原新田","zip_code":"4110016"},{"name":"鶴喰","zip_code":"4110813"},{"name":"徳倉","zip_code":"4110044"},{"name":"富田町","zip_code":"4110836"},{"name":"中","zip_code":"4110833"},{"name":"中島","zip_code":"4110814"},{"name":"中田町","zip_code":"4110838"},{"name":"長伏","zip_code":"4110824"},{"name":"錦が丘","zip_code":"4110808"},{"name":"西本町","zip_code":"4110847"},{"name":"西若町","zip_code":"4110038"},{"name":"萩","zip_code":"4110045"},{"name":"八反畑","zip_code":"4110817"},{"name":"初音台","zip_code":"4110018"},{"name":"光ケ丘","zip_code":"4110029"},{"name":"東壱町田","zip_code":"4110026"},{"name":"東大場","zip_code":"4110802"},{"name":"東町","zip_code":"4110852"},{"name":"東本町","zip_code":"4110831"},{"name":"日の出町","zip_code":"4110851"},{"name":"平田","zip_code":"4110821"},{"name":"広小路町","zip_code":"4110856"},{"name":"藤代町","zip_code":"4110812"},{"name":"富士ビレッジ","zip_code":"4110028"},{"name":"富士見台","zip_code":"4110021"},{"name":"芙蓉台","zip_code":"4110046"},{"name":"文教町","zip_code":"4110033"},{"name":"平成台","zip_code":"4110042"},{"name":"本町","zip_code":"4110855"},{"name":"松が丘","zip_code":"4110019"},{"name":"松本","zip_code":"4110822"},{"name":"御園","zip_code":"4110823"},{"name":"三ツ谷新田","zip_code":"4110013"},{"name":"緑町","zip_code":"4110848"},{"name":"南田町","zip_code":"4110837"},{"name":"南町","zip_code":"4110842"},{"name":"南二日町","zip_code":"4110832"},{"name":"南本町","zip_code":"4110841"},{"name":"三好町","zip_code":"4110843"},{"name":"安久","zip_code":"4110815"},{"name":"谷田","zip_code":"4110801"},{"name":"柳郷地","zip_code":"4110806"},{"name":"山中新田","zip_code":"4110011"},{"name":"若松町","zip_code":"4110024"}]},{"name":"富士宮市","divisions":[{"name":"青木","zip_code":"4180047"},{"name":"青木平","zip_code":"4180048"},{"name":"阿幸地","zip_code":"4180016"},{"name":"阿幸地町","zip_code":"4180078"},{"name":"安居山","zip_code":"4180037"},{"name":"朝日町","zip_code":"4180057"},{"name":"浅間町","zip_code":"4180032"},{"name":"粟倉","zip_code":"4180011"},{"name":"粟倉南町","zip_code":"4180018"},{"name":"泉町","zip_code":"4180043"},{"name":"猪之頭","zip_code":"4180108"},{"name":"内野","zip_code":"4180104"},{"name":"内房","zip_code":"4190317"},{"name":"馬見塚","zip_code":"4180113"},{"name":"大岩","zip_code":"4180013"},{"name":"大久保","zip_code":"4190314"},{"name":"大鹿窪","zip_code":"4190303"},{"name":"大中里","zip_code":"4180044"},{"name":"大宮町","zip_code":"4180066"},{"name":"上井出","zip_code":"4180103"},{"name":"上稲子","zip_code":"4190311"},{"name":"上条","zip_code":"4180116"},{"name":"上柚野","zip_code":"4190301"},{"name":"狩宿","zip_code":"4180117"},{"name":"神田川町","zip_code":"4180031"},{"name":"北町","zip_code":"4180061"},{"name":"北山","zip_code":"4180112"},{"name":"貴船町","zip_code":"4180042"},{"name":"黒田","zip_code":"4180034"},{"name":"源道寺町","zip_code":"4180074"},{"name":"小泉","zip_code":"4180022"},{"name":"佐折","zip_code":"4180107"},{"name":"下稲子","zip_code":"4190312"},{"name":"下条","zip_code":"4180114"},{"name":"下柚野","zip_code":"4190305"},{"name":"精進川","zip_code":"4180115"},{"name":"城北町","zip_code":"4180062"},{"name":"杉田","zip_code":"4180021"},{"name":"宝町","zip_code":"4180055"},{"name":"田中町","zip_code":"4180075"},{"name":"中央町","zip_code":"4180065"},{"name":"外神","zip_code":"4180006"},{"name":"外神東町","zip_code":"4180007"},{"name":"鳥並","zip_code":"4190304"},{"name":"中里東町","zip_code":"4180046"},{"name":"中島町","zip_code":"4180045"},{"name":"長貫","zip_code":"4190315"},{"name":"中原町","zip_code":"4180002"},{"name":"南陵","zip_code":"4180019"},{"name":"錦町","zip_code":"4180076"},{"name":"西小泉町","zip_code":"4180026"},{"name":"西町","zip_code":"4180056"},{"name":"西山","zip_code":"4190313"},{"name":"貫戸","zip_code":"4180024"},{"name":"沼久保","zip_code":"4180036"},{"name":"猫沢","zip_code":"4190302"},{"name":"根原","zip_code":"4180101"},{"name":"野中","zip_code":"4180039"},{"name":"野中町","zip_code":"4180038"},{"name":"野中東町","zip_code":"4180033"},{"name":"羽鮒","zip_code":"4190316"},{"name":"原","zip_code":"4180105"},{"name":"半野","zip_code":"4180106"},{"name":"光町","zip_code":"4180054"},{"name":"東阿幸地","zip_code":"4180071"},{"name":"東町","zip_code":"4180077"},{"name":"人穴","zip_code":"4180102"},{"name":"ひばりが丘","zip_code":"4180003"},{"name":"富士見ケ丘","zip_code":"4180014"},{"name":"舟久保町","zip_code":"4180017"},{"name":"麓","zip_code":"4180109"},{"name":"星山","zip_code":"4180035"},{"name":"穂波町","zip_code":"4180058"},{"name":"舞々木町","zip_code":"4180015"},{"name":"前田町","zip_code":"4180025"},{"name":"万野原新田","zip_code":"4180001"},{"name":"三園平","zip_code":"4180004"},{"name":"宮北町","zip_code":"4180053"},{"name":"宮町","zip_code":"4180067"},{"name":"宮原","zip_code":"4180005"},{"name":"村山","zip_code":"4180012"},{"name":"元城町","zip_code":"4180064"},{"name":"矢立町","zip_code":"4180072"},{"name":"山宮","zip_code":"4180111"},{"name":"山本","zip_code":"4180023"},{"name":"豊町","zip_code":"4180068"},{"name":"弓沢町","zip_code":"4180073"},{"name":"淀川町","zip_code":"4180041"},{"name":"淀師","zip_code":"4180051"},{"name":"淀平町","zip_code":"4180052"},{"name":"若の宮町","zip_code":"4180063"}]},{"name":"伊東市","divisions":[{"name":"赤沢","zip_code":"4130233"},{"name":"新井","zip_code":"4140043"},{"name":"池","zip_code":"4130234"},{"name":"宇佐美","zip_code":"4140001"},{"name":"大原","zip_code":"4140046"},{"name":"大室高原","zip_code":"4130235"},{"name":"岡","zip_code":"4140055"},{"name":"岡広町","zip_code":"4140016"},{"name":"荻","zip_code":"4140053"},{"name":"音無町","zip_code":"4140032"},{"name":"鎌田","zip_code":"4140054"},{"name":"瓶山","zip_code":"4140034"},{"name":"川奈","zip_code":"4140044"},{"name":"銀座元町","zip_code":"4140028"},{"name":"玖須美元和田","zip_code":"4140045"},{"name":"グリーンヒル別荘地","zip_code":"4130111"},{"name":"寿町","zip_code":"4140018"},{"name":"幸町","zip_code":"4140017"},{"name":"桜が丘","zip_code":"4140037"},{"name":"桜木町","zip_code":"4140013"},{"name":"猪戸","zip_code":"4140004"},{"name":"静海町","zip_code":"4140042"},{"name":"芝町","zip_code":"4140041"},{"name":"末広町","zip_code":"4140015"},{"name":"宝町","zip_code":"4140012"},{"name":"竹の内","zip_code":"4140027"},{"name":"竹の台","zip_code":"4140026"},{"name":"中央町","zip_code":"4140003"},{"name":"十足","zip_code":"4140052"},{"name":"渚町","zip_code":"4140023"},{"name":"馬場町","zip_code":"4140033"},{"name":"東松原町","zip_code":"4140022"},{"name":"広野","zip_code":"4140038"},{"name":"富戸","zip_code":"4130231"},{"name":"松川町","zip_code":"4140011"},{"name":"松原","zip_code":"4140006"},{"name":"松原本町","zip_code":"4140021"},{"name":"松原湯端町","zip_code":"4140005"},{"name":"南町","zip_code":"4140035"},{"name":"宮川町","zip_code":"4140036"},{"name":"物見が丘","zip_code":"4140025"},{"name":"弥生町","zip_code":"4140014"},{"name":"八幡野","zip_code":"4130232"},{"name":"湯川","zip_code":"4140002"},{"name":"湯田町","zip_code":"4140031"},{"name":"吉田","zip_code":"4140051"},{"name":"和田","zip_code":"4140024"}]},{"name":"島田市","divisions":[{"name":"旭","zip_code":"4270018"},{"name":"阿知ケ谷","zip_code":"4270006"},{"name":"伊久美","zip_code":"4270232"},{"name":"井口","zip_code":"4270104"},{"name":"伊太","zip_code":"4270034"},{"name":"稲荷","zip_code":"4270038"},{"name":"鵜網","zip_code":"4270031"},{"name":"牛尾","zip_code":"4280006"},{"name":"扇町","zip_code":"4270026"},{"name":"御請","zip_code":"4270013"},{"name":"大井町","zip_code":"4270025"},{"name":"相賀","zip_code":"4270033"},{"name":"大川町","zip_code":"4270023"},{"name":"大草","zip_code":"4270002"},{"name":"大代","zip_code":"4280009"},{"name":"大津通","zip_code":"4270056"},{"name":"大柳","zip_code":"4270101"},{"name":"大柳南","zip_code":"4270102"},{"name":"岡田","zip_code":"4270106"},{"name":"御仮屋町","zip_code":"4270053"},{"name":"尾川","zip_code":"4270009"},{"name":"落合","zip_code":"4270008"},{"name":"金谷","zip_code":"4280022"},{"name":"金谷東","zip_code":"4280013"},{"name":"金谷泉町","zip_code":"4280014"},{"name":"金谷扇町","zip_code":"4280015"},{"name":"金谷上十五軒","zip_code":"4280027"},{"name":"金谷河原","zip_code":"4280021"},{"name":"金谷金山町","zip_code":"4280046"},{"name":"金谷栄町","zip_code":"4280017"},{"name":"金谷坂町","zip_code":"4280023"},{"name":"金谷猪土居","zip_code":"4280039"},{"name":"金谷清水","zip_code":"4280031"},{"name":"金谷下十五軒","zip_code":"4280028"},{"name":"金谷城山町","zip_code":"4280048"},{"name":"金谷新町","zip_code":"4280047"},{"name":"金谷代官町","zip_code":"4280012"},{"name":"金谷田町","zip_code":"4280025"},{"name":"金谷天王町","zip_code":"4280032"},{"name":"金谷中町","zip_code":"4280043"},{"name":"金谷二軒家","zip_code":"4280033"},{"name":"金谷根岸町","zip_code":"4280018"},{"name":"金谷富士見町","zip_code":"4280034"},{"name":"金谷古横町","zip_code":"4280042"},{"name":"金谷本町","zip_code":"4280026"},{"name":"金谷緑町","zip_code":"4280044"},{"name":"金谷南町","zip_code":"4280024"},{"name":"金谷都町","zip_code":"4280041"},{"name":"金谷宮崎町","zip_code":"4280016"},{"name":"神尾","zip_code":"4280003"},{"name":"神谷城","zip_code":"4280036"},{"name":"川根町家山","zip_code":"4280104"},{"name":"川根町上河内","zip_code":"4280102"},{"name":"川根町笹間上","zip_code":"4280211"},{"name":"川根町笹間下","zip_code":"4280212"},{"name":"川根町笹間渡","zip_code":"4280101"},{"name":"川根町葛籠","zip_code":"4280105"},{"name":"川根町抜里","zip_code":"4280106"},{"name":"川根町身成","zip_code":"4280103"},{"name":"河原","zip_code":"4270037"},{"name":"神座","zip_code":"4270032"},{"name":"祇園町","zip_code":"4270058"},{"name":"菊川","zip_code":"4280037"},{"name":"岸","zip_code":"4270004"},{"name":"岸町","zip_code":"4270005"},{"name":"切山","zip_code":"4280035"},{"name":"幸町","zip_code":"4270027"},{"name":"栄町","zip_code":"4270028"},{"name":"阪本","zip_code":"4270111"},{"name":"笹間下","zip_code":"4270231"},{"name":"佐夜鹿","zip_code":"4280038"},{"name":"志戸呂","zip_code":"4280019"},{"name":"島","zip_code":"4280007"},{"name":"新田町","zip_code":"4270059"},{"name":"新町通","zip_code":"4270055"},{"name":"高熊","zip_code":"4280001"},{"name":"高砂町","zip_code":"4270054"},{"name":"高島町","zip_code":"4270015"},{"name":"竹下","zip_code":"4280008"},{"name":"千葉","zip_code":"4270001"},{"name":"中央町","zip_code":"4270042"},{"name":"月坂","zip_code":"4270112"},{"name":"道悦","zip_code":"4270019"},{"name":"道悦島","zip_code":"4270014"},{"name":"東光寺","zip_code":"4270003"},{"name":"中河","zip_code":"4270103"},{"name":"中河町","zip_code":"4270041"},{"name":"中溝","zip_code":"4270043"},{"name":"中溝町","zip_code":"4270047"},{"name":"野田","zip_code":"4270007"},{"name":"旗指","zip_code":"4270048"},{"name":"ばらの丘","zip_code":"4270061"},{"name":"番生寺","zip_code":"4280011"},{"name":"東町","zip_code":"4270011"},{"name":"日之出町","zip_code":"4270029"},{"name":"福用","zip_code":"4280002"},{"name":"船木","zip_code":"4270107"},{"name":"宝来町","zip_code":"4270016"},{"name":"細島","zip_code":"4270012"},{"name":"本通","zip_code":"4270022"},{"name":"牧之原","zip_code":"4280049"},{"name":"松葉町","zip_code":"4270052"},{"name":"三ツ合町","zip_code":"4270036"},{"name":"南","zip_code":"4270017"},{"name":"南原","zip_code":"4270105"},{"name":"身成","zip_code":"4270233"},{"name":"宮川町","zip_code":"4270044"},{"name":"向島町","zip_code":"4270045"},{"name":"向谷","zip_code":"4270039"},{"name":"向谷元町","zip_code":"4270035"},{"name":"元島田","zip_code":"4270057"},{"name":"元島田東町","zip_code":"4270051"},{"name":"柳町","zip_code":"4270021"},{"name":"大和町","zip_code":"4280045"},{"name":"湯日","zip_code":"4270113"},{"name":"横井","zip_code":"4270024"},{"name":"横岡","zip_code":"4280004"},{"name":"横岡新田","zip_code":"4280005"},{"name":"横丁","zip_code":"4280029"},{"name":"若松町","zip_code":"4270046"}]},{"name":"富士市","divisions":[{"name":"青島","zip_code":"4170046"},{"name":"青島町","zip_code":"4170047"},{"name":"青葉町","zip_code":"4160952"},{"name":"厚原","zip_code":"4190201"},{"name":"荒田島","zip_code":"4170042"},{"name":"荒田島町","zip_code":"4170043"},{"name":"石井","zip_code":"4170804"},{"name":"石坂","zip_code":"4170862"},{"name":"一色","zip_code":"4170808"},{"name":"今井","zip_code":"4170846"},{"name":"今泉","zip_code":"4170001"},{"name":"今宮","zip_code":"4170802"},{"name":"入山瀬","zip_code":"4190204"},{"name":"岩淵","zip_code":"4213305"},{"name":"岩本","zip_code":"4160901"},{"name":"宇東川東町","zip_code":"4170853"},{"name":"宇東川西町","zip_code":"4170854"},{"name":"鵜無ケ淵","zip_code":"4170805"},{"name":"瓜島","zip_code":"4170025"},{"name":"瓜島町","zip_code":"4170057"},{"name":"江尾","zip_code":"4170811"},{"name":"江尾南","zip_code":"4170817"},{"name":"大野新田","zip_code":"4170845"},{"name":"大淵","zip_code":"4170801"},{"name":"桑崎","zip_code":"4170803"},{"name":"柏原","zip_code":"4170835"},{"name":"加島町","zip_code":"4160912"},{"name":"神谷","zip_code":"4170821"},{"name":"神谷新町","zip_code":"4170822"},{"name":"神谷南","zip_code":"4170823"},{"name":"上横割","zip_code":"4160942"},{"name":"川尻","zip_code":"4170825"},{"name":"川尻東","zip_code":"4170824"},{"name":"川成島","zip_code":"4160939"},{"name":"川成新町","zip_code":"4160955"},{"name":"木島","zip_code":"4213304"},{"name":"北松野","zip_code":"4213301"},{"name":"久沢","zip_code":"4190202"},{"name":"国久保","zip_code":"4170071"},{"name":"香西","zip_code":"4170062"},{"name":"香西新田","zip_code":"4170063"},{"name":"神戸","zip_code":"4170807"},{"name":"五貫島","zip_code":"4160946"},{"name":"五味島","zip_code":"4160905"},{"name":"境","zip_code":"4170812"},{"name":"鮫島","zip_code":"4160934"},{"name":"三新田","zip_code":"4170842"},{"name":"島田町","zip_code":"4170033"},{"name":"下横割","zip_code":"4160943"},{"name":"十兵衛","zip_code":"4160941"},{"name":"新橋町","zip_code":"4170004"},{"name":"鈴川町","zip_code":"4170015"},{"name":"鈴川中町","zip_code":"4170013"},{"name":"鈴川西町","zip_code":"4170014"},{"name":"鈴川東町","zip_code":"4170012"},{"name":"鈴川本町","zip_code":"4170011"},{"name":"浅間上町","zip_code":"4170072"},{"name":"浅間本町","zip_code":"4170073"},{"name":"鷹岡本町","zip_code":"4190203"},{"name":"高島町","zip_code":"4170048"},{"name":"高嶺町","zip_code":"4170044"},{"name":"田子","zip_code":"4160935"},{"name":"田島","zip_code":"4170031"},{"name":"田島新田","zip_code":"4170032"},{"name":"蓼原","zip_code":"4160931"},{"name":"蓼原町","zip_code":"4160953"},{"name":"田中新田","zip_code":"4170843"},{"name":"中央町","zip_code":"4170052"},{"name":"津田","zip_code":"4170034"},{"name":"津田町","zip_code":"4170035"},{"name":"伝法","zip_code":"4170061"},{"name":"天間","zip_code":"4190205"},{"name":"外木","zip_code":"4170037"},{"name":"中柏原新田","zip_code":"4170832"},{"name":"中河原","zip_code":"4170036"},{"name":"中里","zip_code":"4170826"},{"name":"中島","zip_code":"4160907"},{"name":"中野","zip_code":"4170809"},{"name":"中之郷","zip_code":"4213306"},{"name":"中野台","zip_code":"4213302"},{"name":"中丸","zip_code":"4160933"},{"name":"永田","zip_code":"4170054"},{"name":"永田北町","zip_code":"4170058"},{"name":"永田町","zip_code":"4170055"},{"name":"長通","zip_code":"4160902"},{"name":"西柏原新田","zip_code":"4170834"},{"name":"錦町","zip_code":"4170045"},{"name":"西船津","zip_code":"4170814"},{"name":"沼田新田","zip_code":"4170833"},{"name":"八幡町","zip_code":"4160911"},{"name":"浜田町","zip_code":"4160938"},{"name":"原田","zip_code":"4170852"},{"name":"東柏原新田","zip_code":"4170831"},{"name":"比奈","zip_code":"4170847"},{"name":"檜新田","zip_code":"4170844"},{"name":"日乃出町","zip_code":"4170056"},{"name":"広見東本町","zip_code":"4170861"},{"name":"広見西本町","zip_code":"4170863"},{"name":"広見本町","zip_code":"4170864"},{"name":"富士岡","zip_code":"4170841"},{"name":"富士町","zip_code":"4160915"},{"name":"富士見台","zip_code":"4170851"},{"name":"船津","zip_code":"4170813"},{"name":"平垣","zip_code":"4160916"},{"name":"平垣町","zip_code":"4160918"},{"name":"平垣本町","zip_code":"4160913"},{"name":"本町","zip_code":"4160914"},{"name":"前田","zip_code":"4160937"},{"name":"間門","zip_code":"4170806"},{"name":"増川","zip_code":"4170815"},{"name":"増川新町","zip_code":"4170816"},{"name":"松岡","zip_code":"4160909"},{"name":"松富町","zip_code":"4160919"},{"name":"松本","zip_code":"4160903"},{"name":"三ツ沢","zip_code":"4170855"},{"name":"水戸島","zip_code":"4160921"},{"name":"水戸島本町","zip_code":"4160924"},{"name":"水戸島元町","zip_code":"4160922"},{"name":"緑町","zip_code":"4170049"},{"name":"南町","zip_code":"4170026"},{"name":"南松野","zip_code":"4213303"},{"name":"宮下","zip_code":"4160947"},{"name":"宮島","zip_code":"4160945"},{"name":"御幸町","zip_code":"4170041"},{"name":"本市場","zip_code":"4160906"},{"name":"本市場新田","zip_code":"4160904"},{"name":"本市場町","zip_code":"4160954"},{"name":"元町","zip_code":"4160917"},{"name":"森下","zip_code":"4160949"},{"name":"森島","zip_code":"4160948"},{"name":"八代町","zip_code":"4170024"},{"name":"柳島","zip_code":"4160932"},{"name":"弥生","zip_code":"4170064"},{"name":"弥生新田","zip_code":"4170065"},{"name":"柚木","zip_code":"4160908"},{"name":"横割","zip_code":"4160944"},{"name":"横割本町","zip_code":"4160923"},{"name":"吉原","zip_code":"4170051"},{"name":"吉原宝町","zip_code":"4170023"},{"name":"依田原","zip_code":"4170021"},{"name":"依田原新田","zip_code":"4170053"},{"name":"依田原町","zip_code":"4170022"},{"name":"依田橋","zip_code":"4170002"},{"name":"依田橋町","zip_code":"4170003"},{"name":"米之宮町","zip_code":"4160951"}]},{"name":"磐田市","divisions":[{"name":"赤池","zip_code":"4380824"},{"name":"安久路","zip_code":"4380017"},{"name":"旭ケ丘","zip_code":"4380078"},{"name":"新島","zip_code":"4380062"},{"name":"家田","zip_code":"4380105"},{"name":"五十子","zip_code":"4371206"},{"name":"池田","zip_code":"4380805"},{"name":"石原町","zip_code":"4380078"},{"name":"泉町","zip_code":"4380078"},{"name":"一番町","zip_code":"4380086"},{"name":"壱貫地","zip_code":"4380116"},{"name":"一色","zip_code":"4371216"},{"name":"今之浦","zip_code":"4380071"},{"name":"岩井","zip_code":"4380016"},{"name":"岩室","zip_code":"4380104"},{"name":"請負新田","zip_code":"4380223"},{"name":"宇兵衛新田","zip_code":"4371217"},{"name":"梅屋町","zip_code":"4380086"},{"name":"海老島","zip_code":"4380212"},{"name":"海老塚","zip_code":"4380812"},{"name":"大平","zip_code":"4380103"},{"name":"大泉町","zip_code":"4380044"},{"name":"大久保","zip_code":"4380002"},{"name":"大立野","zip_code":"4380036"},{"name":"大当所","zip_code":"4380107"},{"name":"大中瀬","zip_code":"4380214"},{"name":"大原","zip_code":"4380043"},{"name":"岡","zip_code":"4380204"},{"name":"掛下","zip_code":"4380124"},{"name":"掛塚","zip_code":"4380234"},{"name":"笠梅","zip_code":"4380011"},{"name":"鎌田","zip_code":"4380038"},{"name":"上新屋","zip_code":"4380831"},{"name":"上大之郷","zip_code":"4380051"},{"name":"上岡田","zip_code":"4380045"},{"name":"上神増","zip_code":"4380115"},{"name":"上野部","zip_code":"4380111"},{"name":"上本郷","zip_code":"4380822"},{"name":"上万能","zip_code":"4380817"},{"name":"上南田","zip_code":"4380042"},{"name":"加茂","zip_code":"4380804"},{"name":"加茂川通","zip_code":"4380086"},{"name":"川袋","zip_code":"4380232"},{"name":"河原町","zip_code":"4380086"},{"name":"神増","zip_code":"4380121"},{"name":"北島","zip_code":"4380064"},{"name":"北見町","zip_code":"4380086"},{"name":"城之崎","zip_code":"4380084"},{"name":"刑部島","zip_code":"4380061"},{"name":"草崎","zip_code":"4380067"},{"name":"久保町","zip_code":"4380078"},{"name":"気子島","zip_code":"4380814"},{"name":"源平新田","zip_code":"4380837"},{"name":"合代島","zip_code":"4380114"},{"name":"国府台","zip_code":"4380077"},{"name":"小島","zip_code":"4380056"},{"name":"小立野","zip_code":"4380838"},{"name":"御殿","zip_code":"4380078"},{"name":"小中瀬","zip_code":"4380215"},{"name":"駒場","zip_code":"4380233"},{"name":"権現町","zip_code":"4380086"},{"name":"幸町","zip_code":"4380086"},{"name":"坂上町","zip_code":"4380078"},{"name":"栄町","zip_code":"4380078"},{"name":"匂坂上","zip_code":"4380005"},{"name":"匂坂新","zip_code":"4380003"},{"name":"匂坂中","zip_code":"4380004"},{"name":"桜ケ丘","zip_code":"4380078"},{"name":"笹原島","zip_code":"4380813"},{"name":"鮫島","zip_code":"4380055"},{"name":"塩新田","zip_code":"4371213"},{"name":"敷地","zip_code":"4380106"},{"name":"七軒町","zip_code":"4380078"},{"name":"篠原","zip_code":"4380015"},{"name":"清水町","zip_code":"4380086"},{"name":"下大之郷","zip_code":"4380052"},{"name":"下岡田","zip_code":"4380046"},{"name":"下神増","zip_code":"4380126"},{"name":"下野部","zip_code":"4380112"},{"name":"下太","zip_code":"4371205"},{"name":"下本郷","zip_code":"4380823"},{"name":"下万能","zip_code":"4380818"},{"name":"十郎島","zip_code":"4380236"},{"name":"宿町","zip_code":"4380086"},{"name":"白拍子","zip_code":"4380066"},{"name":"白羽","zip_code":"4380235"},{"name":"地脇町","zip_code":"4380086"},{"name":"新開","zip_code":"4380113"},{"name":"新貝","zip_code":"4380025"},{"name":"真光寺","zip_code":"4380063"},{"name":"新出","zip_code":"4380033"},{"name":"新通町","zip_code":"4380086"},{"name":"須恵新田","zip_code":"4380222"},{"name":"住吉町","zip_code":"4380086"},{"name":"清庵新田","zip_code":"4371214"},{"name":"千手堂","zip_code":"4380057"},{"name":"惣兵衛下新田","zip_code":"4380122"},{"name":"高木","zip_code":"4380202"},{"name":"高見丘","zip_code":"4380801"},{"name":"立野","zip_code":"4380821"},{"name":"玉越","zip_code":"4380021"},{"name":"田町","zip_code":"4380078"},{"name":"太郎馬新田","zip_code":"4371215"},{"name":"中央町","zip_code":"4380078"},{"name":"寺谷","zip_code":"4380006"},{"name":"寺谷新田","zip_code":"4380007"},{"name":"天王町","zip_code":"4380086"},{"name":"天龍","zip_code":"4380075"},{"name":"東新町","zip_code":"4380039"},{"name":"東名","zip_code":"4380806"},{"name":"飛平松","zip_code":"4380216"},{"name":"富丘","zip_code":"4380803"},{"name":"富里","zip_code":"4380807"},{"name":"豊岡","zip_code":"4380231"},{"name":"豊島","zip_code":"4380047"},{"name":"豊田","zip_code":"4380808"},{"name":"豊田西之島","zip_code":"4380835"},{"name":"豊浜","zip_code":"4371202"},{"name":"豊浜中野","zip_code":"4371201"},{"name":"鳥之瀬","zip_code":"4380072"},{"name":"中泉","zip_code":"4380078"},{"name":"中川町","zip_code":"4380086"},{"name":"中野","zip_code":"4380053"},{"name":"中平松","zip_code":"4380218"},{"name":"中町","zip_code":"4380078"},{"name":"長森","zip_code":"4380836"},{"name":"長須賀","zip_code":"4380069"},{"name":"中田","zip_code":"4380815"},{"name":"西貝塚","zip_code":"4380026"},{"name":"西坂町","zip_code":"4380086"},{"name":"西島","zip_code":"4380022"},{"name":"西新町","zip_code":"4380078"},{"name":"西之島","zip_code":"4380041"},{"name":"西平松","zip_code":"4380217"},{"name":"西町","zip_code":"4380078"},{"name":"二之宮","zip_code":"4380074"},{"name":"二之宮東","zip_code":"4380073"},{"name":"二番町","zip_code":"4380086"},{"name":"野箱","zip_code":"4380065"},{"name":"馬場町","zip_code":"4380086"},{"name":"浜新田","zip_code":"4380224"},{"name":"浜部","zip_code":"4380054"},{"name":"稗原","zip_code":"4380031"},{"name":"東坂町","zip_code":"4380086"},{"name":"東新屋","zip_code":"4380035"},{"name":"東貝塚","zip_code":"4380037"},{"name":"東小島","zip_code":"4371208"},{"name":"東原","zip_code":"4380802"},{"name":"東平松","zip_code":"4380211"},{"name":"東町","zip_code":"4380078"},{"name":"東山","zip_code":"4380028"},{"name":"東脇","zip_code":"4380032"},{"name":"彦島","zip_code":"4380023"},{"name":"一言","zip_code":"4380811"},{"name":"平間","zip_code":"4380203"},{"name":"平松","zip_code":"4380123"},{"name":"平松掛下入作","zip_code":"4380008"},{"name":"蛭池","zip_code":"4371207"},{"name":"福田","zip_code":"4371203"},{"name":"福田中島","zip_code":"4371204"},{"name":"藤上原","zip_code":"4380001"},{"name":"富士見台","zip_code":"4380088"},{"name":"富士見町","zip_code":"4380083"},{"name":"堀之内","zip_code":"4380205"},{"name":"本町","zip_code":"4380078"},{"name":"前野","zip_code":"4380068"},{"name":"松之木島","zip_code":"4380125"},{"name":"松本","zip_code":"4380206"},{"name":"万正寺","zip_code":"4380058"},{"name":"万瀬","zip_code":"4380101"},{"name":"三ケ野","zip_code":"4380027"},{"name":"三ケ野台","zip_code":"4380018"},{"name":"水堀","zip_code":"4380085"},{"name":"三家","zip_code":"4380127"},{"name":"見付","zip_code":"4380086"},{"name":"緑ケ丘","zip_code":"4380081"},{"name":"美登里町","zip_code":"4380086"},{"name":"南島","zip_code":"4371209"},{"name":"南田","zip_code":"4371212"},{"name":"南田伊兵衛新田","zip_code":"4371218"},{"name":"南平松","zip_code":"4380221"},{"name":"宮之一色","zip_code":"4380816"},{"name":"宮本","zip_code":"4380207"},{"name":"明ケ島","zip_code":"4380024"},{"name":"明ケ島原","zip_code":"4380019"},{"name":"向笠新屋","zip_code":"4380012"},{"name":"向笠竹之内","zip_code":"4380013"},{"name":"向笠西","zip_code":"4380014"},{"name":"虫生","zip_code":"4380102"},{"name":"元倉町","zip_code":"4380086"},{"name":"元天神町","zip_code":"4380082"},{"name":"元宮町","zip_code":"4380086"},{"name":"森岡","zip_code":"4380832"},{"name":"森下","zip_code":"4380834"},{"name":"森本","zip_code":"4380825"},{"name":"社山","zip_code":"4380108"},{"name":"弥藤太島","zip_code":"4380833"},{"name":"竜洋中島","zip_code":"4380201"},{"name":"竜洋稗原","zip_code":"4380213"},{"name":"和口","zip_code":"4380034"}]},{"name":"焼津市","divisions":[{"name":"相川","zip_code":"4210216"},{"name":"新屋","zip_code":"4250023"},{"name":"石津","zip_code":"4250041"},{"name":"石津中町","zip_code":"4250043"},{"name":"石津港町","zip_code":"4250042"},{"name":"石津向町","zip_code":"4250044"},{"name":"石脇上","zip_code":"4250015"},{"name":"石脇下","zip_code":"4250016"},{"name":"一色","zip_code":"4250054"},{"name":"鰯ケ島","zip_code":"4250032"},{"name":"駅北","zip_code":"4250028"},{"name":"越後島","zip_code":"4250092"},{"name":"大","zip_code":"4250083"},{"name":"大島","zip_code":"4250066"},{"name":"大島新田","zip_code":"4250069"},{"name":"大住","zip_code":"4250072"},{"name":"大村","zip_code":"4250082"},{"name":"大村新田","zip_code":"4250084"},{"name":"岡当目","zip_code":"4250013"},{"name":"小浜","zip_code":"4250011"},{"name":"小柳津","zip_code":"4250073"},{"name":"方ノ上","zip_code":"4250005"},{"name":"上泉","zip_code":"4210217"},{"name":"上小杉","zip_code":"4210201"},{"name":"上新田","zip_code":"4210206"},{"name":"北新田","zip_code":"4250058"},{"name":"北浜通","zip_code":"4250024"},{"name":"五ケ堀之内","zip_code":"4250077"},{"name":"小川","zip_code":"4250033"},{"name":"小川新町","zip_code":"4250031"},{"name":"小土","zip_code":"4250086"},{"name":"小屋敷","zip_code":"4250076"},{"name":"栄町","zip_code":"4250027"},{"name":"坂本","zip_code":"4250004"},{"name":"三右衛門新田","zip_code":"4250046"},{"name":"三ケ名","zip_code":"4250071"},{"name":"塩津","zip_code":"4250085"},{"name":"下江留","zip_code":"4210218"},{"name":"下小田","zip_code":"4250057"},{"name":"下小田中町","zip_code":"4250056"},{"name":"下小杉","zip_code":"4210202"},{"name":"治長請所","zip_code":"4250067"},{"name":"城之腰","zip_code":"4250025"},{"name":"すみれ台","zip_code":"4250053"},{"name":"関方","zip_code":"4250006"},{"name":"惣右衛門","zip_code":"4250065"},{"name":"大栄町","zip_code":"4250081"},{"name":"大覚寺","zip_code":"4250088"},{"name":"高崎","zip_code":"4250003"},{"name":"高新田","zip_code":"4210204"},{"name":"田尻","zip_code":"4250052"},{"name":"田尻北","zip_code":"4250051"},{"name":"道原","zip_code":"4250055"},{"name":"中里","zip_code":"4250014"},{"name":"中島","zip_code":"4210214"},{"name":"中新田","zip_code":"4250068"},{"name":"中根","zip_code":"4250061"},{"name":"中根新田","zip_code":"4250062"},{"name":"中港","zip_code":"4250021"},{"name":"西小川","zip_code":"4250036"},{"name":"西島","zip_code":"4210215"},{"name":"西焼津","zip_code":"4250075"},{"name":"祢宜島","zip_code":"4250045"},{"name":"野秋","zip_code":"4250017"},{"name":"花沢","zip_code":"4250001"},{"name":"飯淵","zip_code":"4210213"},{"name":"浜当目","zip_code":"4250012"},{"name":"東小川","zip_code":"4250035"},{"name":"藤守","zip_code":"4210203"},{"name":"保福島","zip_code":"4250087"},{"name":"本中根","zip_code":"4250063"},{"name":"本町","zip_code":"4250022"},{"name":"三和","zip_code":"4250064"},{"name":"策牛","zip_code":"4250007"},{"name":"宗高","zip_code":"4210205"},{"name":"焼津","zip_code":"4250026"},{"name":"八楠","zip_code":"4250091"},{"name":"柳新屋","zip_code":"4250074"},{"name":"吉津","zip_code":"4250002"},{"name":"吉永","zip_code":"4210211"},{"name":"与惣次","zip_code":"4250034"},{"name":"利右衛門","zip_code":"4210212"}]},{"name":"掛川市","divisions":[{"name":"葵町","zip_code":"4360018"},{"name":"青葉台","zip_code":"4360019"},{"name":"秋葉路","zip_code":"4360041"},{"name":"上張","zip_code":"4360022"},{"name":"旭ケ丘","zip_code":"4360062"},{"name":"旭台","zip_code":"4360069"},{"name":"安養寺","zip_code":"4360089"},{"name":"家代","zip_code":"4360225"},{"name":"家代の里","zip_code":"4360227"},{"name":"居尻","zip_code":"4360332"},{"name":"板沢","zip_code":"4360016"},{"name":"今滝","zip_code":"4371436"},{"name":"入山瀬","zip_code":"4371438"},{"name":"岩滑","zip_code":"4371403"},{"name":"印内","zip_code":"4360072"},{"name":"梅橋","zip_code":"4360034"},{"name":"駅前","zip_code":"4360077"},{"name":"大池","zip_code":"4360043"},{"name":"大坂","zip_code":"4371421"},{"name":"大多郎","zip_code":"4360087"},{"name":"大坪台","zip_code":"4371439"},{"name":"大野","zip_code":"4360009"},{"name":"大渕","zip_code":"4371302"},{"name":"大和田","zip_code":"4360335"},{"name":"岡津","zip_code":"4360037"},{"name":"沖之須","zip_code":"4371303"},{"name":"小鷹町","zip_code":"4360045"},{"name":"小貫","zip_code":"4371407"},{"name":"海戸","zip_code":"4371422"},{"name":"各和","zip_code":"4360113"},{"name":"掛川","zip_code":"4360079"},{"name":"葛ケ丘","zip_code":"4360088"},{"name":"金城","zip_code":"4360073"},{"name":"上内田","zip_code":"4360012"},{"name":"上西郷","zip_code":"4360342"},{"name":"上垂木","zip_code":"4360221"},{"name":"上西之谷","zip_code":"4360101"},{"name":"上土方","zip_code":"4371433"},{"name":"上土方落合","zip_code":"4371431"},{"name":"上土方工業団地","zip_code":"4371432"},{"name":"上土方旦付新田","zip_code":"4371437"},{"name":"上土方嶺向","zip_code":"4371435"},{"name":"上屋敷","zip_code":"4360049"},{"name":"亀の甲","zip_code":"4360028"},{"name":"川久保","zip_code":"4371406"},{"name":"岩井寺","zip_code":"4360014"},{"name":"菊浜","zip_code":"4371415"},{"name":"北池新田","zip_code":"4360063"},{"name":"北門","zip_code":"4360064"},{"name":"喜町","zip_code":"4360094"},{"name":"清崎","zip_code":"4360044"},{"name":"葛川","zip_code":"4360074"},{"name":"国包","zip_code":"4371414"},{"name":"国安","zip_code":"4371413"},{"name":"久保","zip_code":"4360027"},{"name":"倉真","zip_code":"4360341"},{"name":"黒田","zip_code":"4360223"},{"name":"黒俣","zip_code":"4360331"},{"name":"結縁寺","zip_code":"4360023"},{"name":"高御所","zip_code":"4360031"},{"name":"紺屋町","zip_code":"4360055"},{"name":"光陽","zip_code":"4360090"},{"name":"御所原","zip_code":"4360068"},{"name":"子隣","zip_code":"4360013"},{"name":"小原子","zip_code":"4360007"},{"name":"五明","zip_code":"4360343"},{"name":"細田","zip_code":"4360048"},{"name":"逆川","zip_code":"4360084"},{"name":"坂里","zip_code":"4371411"},{"name":"肴町","zip_code":"4360078"},{"name":"佐夜鹿","zip_code":"4360002"},{"name":"沢田","zip_code":"4360039"},{"name":"塩町","zip_code":"4360076"},{"name":"篠場","zip_code":"4360033"},{"name":"下西郷","zip_code":"4360067"},{"name":"下垂木","zip_code":"4360222"},{"name":"下土方","zip_code":"4371434"},{"name":"下俣","zip_code":"4360025"},{"name":"下俣南","zip_code":"4360026"},{"name":"十九首","zip_code":"4360057"},{"name":"菖蒲ヶ池","zip_code":"4360040"},{"name":"城下","zip_code":"4360091"},{"name":"城西","zip_code":"4360054"},{"name":"城北","zip_code":"4360059"},{"name":"杉谷","zip_code":"4360017"},{"name":"杉谷南","zip_code":"4360030"},{"name":"炭焼","zip_code":"4360337"},{"name":"千羽","zip_code":"4360008"},{"name":"薗ケ谷","zip_code":"4360083"},{"name":"高瀬","zip_code":"4371401"},{"name":"高田","zip_code":"4360114"},{"name":"伊達方","zip_code":"4360005"},{"name":"満水","zip_code":"4360011"},{"name":"丹間","zip_code":"4360333"},{"name":"淡陽","zip_code":"4360082"},{"name":"千浜","zip_code":"4371412"},{"name":"中央","zip_code":"4360056"},{"name":"中央高町","zip_code":"4360046"},{"name":"寺島","zip_code":"4360106"},{"name":"天王町","zip_code":"4360065"},{"name":"徳泉","zip_code":"4360035"},{"name":"富部","zip_code":"4360224"},{"name":"中","zip_code":"4371405"},{"name":"中宿","zip_code":"4360051"},{"name":"中西之谷","zip_code":"4360102"},{"name":"中方","zip_code":"4371402"},{"name":"中町","zip_code":"4360092"},{"name":"長谷","zip_code":"4360047"},{"name":"七日町","zip_code":"4360058"},{"name":"成滝","zip_code":"4360085"},{"name":"西大渕","zip_code":"4371304"},{"name":"西之谷","zip_code":"4371404"},{"name":"西山","zip_code":"4360116"},{"name":"日坂","zip_code":"4360003"},{"name":"仁藤","zip_code":"4360071"},{"name":"仁藤町","zip_code":"4360075"},{"name":"萩間","zip_code":"4360336"},{"name":"幡鎌","zip_code":"4360117"},{"name":"初馬","zip_code":"4360081"},{"name":"浜川新田","zip_code":"4371423"},{"name":"浜野","zip_code":"4371424"},{"name":"浜野新田","zip_code":"4371425"},{"name":"原川","zip_code":"4360036"},{"name":"原里","zip_code":"4360105"},{"name":"孕石","zip_code":"4360334"},{"name":"東山","zip_code":"4360001"},{"name":"久居島","zip_code":"4360103"},{"name":"平島","zip_code":"4360104"},{"name":"平野","zip_code":"4360032"},{"name":"二瀬川","zip_code":"4360042"},{"name":"細谷","zip_code":"4360112"},{"name":"本郷","zip_code":"4360111"},{"name":"本所","zip_code":"4360006"},{"name":"水垂","zip_code":"4360061"},{"name":"三俣","zip_code":"4371416"},{"name":"緑ケ丘","zip_code":"4360021"},{"name":"南","zip_code":"4360029"},{"name":"南西郷","zip_code":"4360024"},{"name":"宮脇","zip_code":"4360086"},{"name":"八坂","zip_code":"4360004"},{"name":"矢崎町","zip_code":"4360020"},{"name":"柳町","zip_code":"4360052"},{"name":"谷の口町","zip_code":"4360066"},{"name":"山崎","zip_code":"4371305"},{"name":"弥生町","zip_code":"4360053"},{"name":"遊家","zip_code":"4360226"},{"name":"洋望台","zip_code":"4371306"},{"name":"横須賀","zip_code":"4371301"},{"name":"吉岡","zip_code":"4360115"},{"name":"領家","zip_code":"4360038"},{"name":"連雀","zip_code":"4360093"},{"name":"和光","zip_code":"4360338"},{"name":"和田","zip_code":"4360015"}]},{"name":"藤枝市","divisions":[{"name":"青木","zip_code":"4260037"},{"name":"青葉町","zip_code":"4260066"},{"name":"旭が丘","zip_code":"4260081"},{"name":"五十海","zip_code":"4260015"},{"name":"泉町","zip_code":"4260045"},{"name":"稲川","zip_code":"4260022"},{"name":"潮","zip_code":"4260007"},{"name":"内瀬戸","zip_code":"4260076"},{"name":"駅前","zip_code":"4260034"},{"name":"大洲","zip_code":"4260051"},{"name":"大手","zip_code":"4260017"},{"name":"岡出山","zip_code":"4260026"},{"name":"岡部町青羽根","zip_code":"4211103"},{"name":"岡部町入野","zip_code":"4211123"},{"name":"岡部町内谷","zip_code":"4211131"},{"name":"岡部町岡部","zip_code":"4211121"},{"name":"岡部町桂島","zip_code":"4211113"},{"name":"岡部町子持坂","zip_code":"4211122"},{"name":"岡部町玉取","zip_code":"4211101"},{"name":"岡部町殿","zip_code":"4211112"},{"name":"岡部町新舟","zip_code":"4211115"},{"name":"岡部町野田沢","zip_code":"4211111"},{"name":"岡部町羽佐間","zip_code":"4211114"},{"name":"岡部町宮島","zip_code":"4211102"},{"name":"岡部町三輪","zip_code":"4211132"},{"name":"岡部町村良","zip_code":"4211124"},{"name":"音羽町","zip_code":"4260087"},{"name":"鬼島","zip_code":"4260008"},{"name":"上青島","zip_code":"4260036"},{"name":"上当間","zip_code":"4260004"},{"name":"上藪田","zip_code":"4260202"},{"name":"仮宿","zip_code":"4260001"},{"name":"鬼岩寺","zip_code":"4260024"},{"name":"北方","zip_code":"4260212"},{"name":"久兵衛市右衛門請新田","zip_code":"4260064"},{"name":"清里","zip_code":"4260223"},{"name":"源助","zip_code":"4260054"},{"name":"小石川町","zip_code":"4260033"},{"name":"光洋台","zip_code":"4260079"},{"name":"郡","zip_code":"4260016"},{"name":"五平","zip_code":"4260056"},{"name":"志太","zip_code":"4260071"},{"name":"下青島","zip_code":"4260035"},{"name":"下当間","zip_code":"4260003"},{"name":"下之郷","zip_code":"4260203"},{"name":"下藪田","zip_code":"4260201"},{"name":"城南","zip_code":"4260021"},{"name":"新南新屋","zip_code":"4260073"},{"name":"末広","zip_code":"4260065"},{"name":"助宗","zip_code":"4260085"},{"name":"駿河台","zip_code":"4260077"},{"name":"青南町","zip_code":"4260063"},{"name":"瀬古","zip_code":"4260082"},{"name":"瀬戸新屋","zip_code":"4260075"},{"name":"瀬戸ノ谷","zip_code":"4260131"},{"name":"善左衛門","zip_code":"4260053"},{"name":"大新島","zip_code":"4260043"},{"name":"大西町","zip_code":"4260055"},{"name":"大東町","zip_code":"4260044"},{"name":"高岡","zip_code":"4260062"},{"name":"高洲","zip_code":"4260046"},{"name":"高田","zip_code":"4260221"},{"name":"高柳","zip_code":"4260041"},{"name":"滝沢","zip_code":"4260134"},{"name":"立花","zip_code":"4260013"},{"name":"田中","zip_code":"4260012"},{"name":"田沼","zip_code":"4260061"},{"name":"茶町","zip_code":"4260023"},{"name":"忠兵衛","zip_code":"4260057"},{"name":"築地","zip_code":"4260031"},{"name":"築地上","zip_code":"4260032"},{"name":"寺島","zip_code":"4260084"},{"name":"天王町","zip_code":"4260019"},{"name":"時ケ谷","zip_code":"4260204"},{"name":"中ノ合","zip_code":"4260213"},{"name":"中藪田","zip_code":"4260222"},{"name":"西方","zip_code":"4260211"},{"name":"若王子","zip_code":"4260014"},{"name":"花倉","zip_code":"4260205"},{"name":"原","zip_code":"4260086"},{"name":"東町","zip_code":"4260038"},{"name":"兵太夫","zip_code":"4260042"},{"name":"平島","zip_code":"4260011"},{"name":"藤枝","zip_code":"4260025"},{"name":"藤岡","zip_code":"4260006"},{"name":"堀之内","zip_code":"4260088"},{"name":"本郷","zip_code":"4260132"},{"name":"本町","zip_code":"4260018"},{"name":"前島","zip_code":"4260067"},{"name":"益津","zip_code":"4260029"},{"name":"益津下","zip_code":"4260028"},{"name":"水上","zip_code":"4260074"},{"name":"水守","zip_code":"4260005"},{"name":"緑町","zip_code":"4260027"},{"name":"緑の丘","zip_code":"4260070"},{"name":"南新屋","zip_code":"4260072"},{"name":"南清里","zip_code":"4260224"},{"name":"南駿河台","zip_code":"4260078"},{"name":"宮原","zip_code":"4260133"},{"name":"谷稲葉","zip_code":"4260083"},{"name":"弥左衛門","zip_code":"4260052"},{"name":"八幡","zip_code":"4260009"},{"name":"横内","zip_code":"4260002"},{"name":"与左衛門","zip_code":"4260047"}]},{"name":"御殿場市","divisions":[{"name":"板妻","zip_code":"4120048"},{"name":"印野","zip_code":"4120008"},{"name":"大坂","zip_code":"4120034"},{"name":"大堰","zip_code":"4120014"},{"name":"小倉野","zip_code":"4120013"},{"name":"竈","zip_code":"4120039"},{"name":"上小林","zip_code":"4120002"},{"name":"川島田","zip_code":"4120045"},{"name":"川柳","zip_code":"4120009"},{"name":"茱萸沢","zip_code":"4120041"},{"name":"神山","zip_code":"4120033"},{"name":"神山平","zip_code":"4120029"},{"name":"御殿場","zip_code":"4120028"},{"name":"駒門","zip_code":"4120038"},{"name":"柴怒田","zip_code":"4120003"},{"name":"神場","zip_code":"4120047"},{"name":"杉名沢","zip_code":"4120044"},{"name":"清後","zip_code":"4120022"},{"name":"塚原","zip_code":"4120017"},{"name":"中清水","zip_code":"4120037"},{"name":"中畑","zip_code":"4120006"},{"name":"中丸","zip_code":"4120015"},{"name":"中山","zip_code":"4120035"},{"name":"永塚","zip_code":"4120007"},{"name":"新橋","zip_code":"4120043"},{"name":"西田中","zip_code":"4120027"},{"name":"二の岡","zip_code":"4120025"},{"name":"二枚橋","zip_code":"4120021"},{"name":"沼田","zip_code":"4120031"},{"name":"萩蕪","zip_code":"4120036"},{"name":"萩原","zip_code":"4120042"},{"name":"東田中","zip_code":"4120026"},{"name":"東山","zip_code":"4120024"},{"name":"仁杉","zip_code":"4120005"},{"name":"深沢","zip_code":"4120023"},{"name":"富士見原","zip_code":"4120051"},{"name":"二子","zip_code":"4120032"},{"name":"古沢","zip_code":"4120011"},{"name":"北久原","zip_code":"4120004"},{"name":"保土沢","zip_code":"4120046"},{"name":"増田","zip_code":"4120012"},{"name":"水土野","zip_code":"4120001"},{"name":"六日市場","zip_code":"4120016"},{"name":"山尾田","zip_code":"4120019"},{"name":"山之尻","zip_code":"4120018"}]},{"name":"袋井市","divisions":[{"name":"愛野","zip_code":"4370031"},{"name":"愛野東","zip_code":"4370039"},{"name":"愛野南","zip_code":"4370040"},{"name":"葵町","zip_code":"4370016"},{"name":"青木町","zip_code":"4370034"},{"name":"浅岡","zip_code":"4371122"},{"name":"浅名","zip_code":"4371102"},{"name":"浅羽","zip_code":"4371101"},{"name":"浅羽一色","zip_code":"4371123"},{"name":"旭町","zip_code":"4370015"},{"name":"新屋","zip_code":"4370013"},{"name":"泉町","zip_code":"4370062"},{"name":"上田町","zip_code":"4370033"},{"name":"宇刈","zip_code":"4370121"},{"name":"梅山","zip_code":"4371105"},{"name":"永楽町","zip_code":"4370014"},{"name":"太田","zip_code":"4370052"},{"name":"大野","zip_code":"4371112"},{"name":"大谷","zip_code":"4370006"},{"name":"岡崎","zip_code":"4371312"},{"name":"小川町","zip_code":"4370036"},{"name":"沖山梨","zip_code":"4370124"},{"name":"小山","zip_code":"4370056"},{"name":"可睡の杜","zip_code":"4370127"},{"name":"神長","zip_code":"4370028"},{"name":"上山梨","zip_code":"4370125"},{"name":"萱間","zip_code":"4370003"},{"name":"川井","zip_code":"4370064"},{"name":"川会","zip_code":"4370002"},{"name":"木原","zip_code":"4370046"},{"name":"国本","zip_code":"4370012"},{"name":"久能","zip_code":"4370061"},{"name":"栄町","zip_code":"4370025"},{"name":"清水町","zip_code":"4370037"},{"name":"下山梨","zip_code":"4370123"},{"name":"砂本町","zip_code":"4370035"},{"name":"大門","zip_code":"4370038"},{"name":"高尾","zip_code":"4370023"},{"name":"高尾町","zip_code":"4370027"},{"name":"田町","zip_code":"4370063"},{"name":"太郎助","zip_code":"4371116"},{"name":"月見町","zip_code":"4370126"},{"name":"土橋","zip_code":"4370055"},{"name":"天神町","zip_code":"4370067"},{"name":"徳光","zip_code":"4370054"},{"name":"富里","zip_code":"4371124"},{"name":"友永","zip_code":"4370004"},{"name":"豊沢","zip_code":"4370032"},{"name":"豊住","zip_code":"4371103"},{"name":"中","zip_code":"4371125"},{"name":"中新田","zip_code":"4371111"},{"name":"長溝","zip_code":"4371126"},{"name":"新池","zip_code":"4370043"},{"name":"新堀","zip_code":"4371104"},{"name":"西ケ崎","zip_code":"4371118"},{"name":"西田","zip_code":"4370047"},{"name":"西同笠","zip_code":"4371114"},{"name":"延久","zip_code":"4370053"},{"name":"初越","zip_code":"4371119"},{"name":"春岡","zip_code":"4370122"},{"name":"東同笠","zip_code":"4371113"},{"name":"彦島","zip_code":"4370045"},{"name":"広岡","zip_code":"4370021"},{"name":"深見","zip_code":"4370051"},{"name":"袋井","zip_code":"4370026"},{"name":"方丈","zip_code":"4370022"},{"name":"堀越","zip_code":"4370065"},{"name":"松原","zip_code":"4371117"},{"name":"松袋井","zip_code":"4370044"},{"name":"三門町","zip_code":"4370024"},{"name":"見取","zip_code":"4370005"},{"name":"湊","zip_code":"4371115"},{"name":"睦町","zip_code":"4370041"},{"name":"村松","zip_code":"4370011"},{"name":"諸井","zip_code":"4371121"},{"name":"山崎","zip_code":"4371311"},{"name":"山科","zip_code":"4370066"},{"name":"山田","zip_code":"4370001"},{"name":"山名町","zip_code":"4370042"},{"name":"横井","zip_code":"4370057"},{"name":"鷲巣","zip_code":"4370017"}]},{"name":"下田市","divisions":[{"name":"相玉","zip_code":"4130711"},{"name":"荒増","zip_code":"4130703"},{"name":"一丁目","zip_code":"4150021"},{"name":"宇土金","zip_code":"4130715"},{"name":"大賀茂","zip_code":"4150038"},{"name":"大沢","zip_code":"4150039"},{"name":"落合","zip_code":"4130701"},{"name":"柿崎","zip_code":"4150013"},{"name":"加増野","zip_code":"4130713"},{"name":"吉佐美","zip_code":"4150028"},{"name":"北湯ケ野","zip_code":"4130714"},{"name":"旧岡方村","zip_code":"4150027"},{"name":"河内","zip_code":"4150011"},{"name":"五丁目","zip_code":"4150025"},{"name":"三丁目","zip_code":"4150023"},{"name":"椎原","zip_code":"4130704"},{"name":"敷根","zip_code":"4150037"},{"name":"白浜","zip_code":"4150012"},{"name":"須崎","zip_code":"4150014"},{"name":"須原","zip_code":"4130716"},{"name":"武ガ浜","zip_code":"4150015"},{"name":"高馬","zip_code":"4150034"},{"name":"立野","zip_code":"4150032"},{"name":"田牛","zip_code":"4150029"},{"name":"中","zip_code":"4150016"},{"name":"西中","zip_code":"4150018"},{"name":"西本郷","zip_code":"4150036"},{"name":"二丁目","zip_code":"4150022"},{"name":"東中","zip_code":"4150017"},{"name":"東本郷","zip_code":"4150035"},{"name":"堀之内","zip_code":"4130702"},{"name":"本郷","zip_code":"4150033"},{"name":"箕作","zip_code":"4130705"},{"name":"横川","zip_code":"4130712"},{"name":"四丁目","zip_code":"4150024"},{"name":"蓮台寺","zip_code":"4150031"},{"name":"六丁目","zip_code":"4150026"}]},{"name":"裾野市","divisions":[{"name":"上ケ田","zip_code":"4101108"},{"name":"石脇","zip_code":"4101117"},{"name":"伊豆島田","zip_code":"4101123"},{"name":"稲荷","zip_code":"4101113"},{"name":"今里","zip_code":"4101104"},{"name":"岩波","zip_code":"4101101"},{"name":"大畑","zip_code":"4101114"},{"name":"葛山","zip_code":"4101103"},{"name":"金沢","zip_code":"4101106"},{"name":"久根","zip_code":"4101111"},{"name":"公文名","zip_code":"4101112"},{"name":"佐野","zip_code":"4101118"},{"name":"下和田","zip_code":"4101105"},{"name":"須山","zip_code":"4101231"},{"name":"千福","zip_code":"4101116"},{"name":"千福が丘","zip_code":"4101115"},{"name":"茶畑","zip_code":"4101121"},{"name":"富沢","zip_code":"4101125"},{"name":"平松","zip_code":"4101127"},{"name":"深良","zip_code":"4101102"},{"name":"二ツ屋","zip_code":"4101128"},{"name":"御宿","zip_code":"4101107"},{"name":"水窪","zip_code":"4101124"},{"name":"麦塚","zip_code":"4101122"},{"name":"桃園","zip_code":"4101126"},{"name":"呼子","zip_code":"4101109"}]},{"name":"湖西市","divisions":[{"name":"新居町新居","zip_code":"4310302"},{"name":"新居町内山","zip_code":"4310304"},{"name":"新居町中之郷","zip_code":"4310301"},{"name":"新居町浜名","zip_code":"4310303"},{"name":"入出","zip_code":"4310411"},{"name":"内浦","zip_code":"4310412"},{"name":"梅田","zip_code":"4310425"},{"name":"駅南","zip_code":"4310427"},{"name":"太田","zip_code":"4310404"},{"name":"大知波","zip_code":"4310403"},{"name":"岡崎","zip_code":"4310422"},{"name":"風の杜","zip_code":"4310432"},{"name":"神座","zip_code":"4310405"},{"name":"吉美","zip_code":"4310441"},{"name":"古見","zip_code":"4310442"},{"name":"境宿","zip_code":"4310452"},{"name":"白須賀","zip_code":"4310451"},{"name":"新所","zip_code":"4310421"},{"name":"新所・岡崎・梅田入会地","zip_code":"4310423"},{"name":"新所原","zip_code":"4310424"},{"name":"新所原東","zip_code":"4310426"},{"name":"ときわ","zip_code":"4310428"},{"name":"坊瀬","zip_code":"4310444"},{"name":"南台","zip_code":"4310429"},{"name":"山口","zip_code":"4310443"},{"name":"横山","zip_code":"4310401"},{"name":"利木","zip_code":"4310402"},{"name":"鷲津","zip_code":"4310431"}]},{"name":"伊豆市","divisions":[{"name":"青羽根","zip_code":"4103213"},{"name":"筏場","zip_code":"4102516"},{"name":"市山","zip_code":"4103205"},{"name":"梅木","zip_code":"4102509"},{"name":"瓜生野","zip_code":"4102412"},{"name":"大沢","zip_code":"4102417"},{"name":"大平","zip_code":"4102415"},{"name":"大平柿木","zip_code":"4103217"},{"name":"大野","zip_code":"4102402"},{"name":"小土肥","zip_code":"4103301"},{"name":"柏久保","zip_code":"4102407"},{"name":"加殿","zip_code":"4102405"},{"name":"門野原","zip_code":"4103209"},{"name":"上白岩","zip_code":"4102502"},{"name":"上船原","zip_code":"4103216"},{"name":"貴僧坊","zip_code":"4102517"},{"name":"熊坂","zip_code":"4102411"},{"name":"雲金","zip_code":"4103202"},{"name":"小下田","zip_code":"4103304"},{"name":"小立野","zip_code":"4102413"},{"name":"佐野","zip_code":"4103201"},{"name":"地蔵堂","zip_code":"4102515"},{"name":"下白岩","zip_code":"4102501"},{"name":"下船原","zip_code":"4103214"},{"name":"修善寺","zip_code":"4102416"},{"name":"城","zip_code":"4102503"},{"name":"菅引","zip_code":"4102513"},{"name":"関野","zip_code":"4102504"},{"name":"田沢","zip_code":"4103204"},{"name":"田代","zip_code":"4102404"},{"name":"月ケ瀬","zip_code":"4103215"},{"name":"土肥","zip_code":"4103302"},{"name":"徳永","zip_code":"4102506"},{"name":"戸倉野","zip_code":"4102519"},{"name":"年川","zip_code":"4102403"},{"name":"中原戸","zip_code":"4102512"},{"name":"八幡","zip_code":"4102505"},{"name":"冷川","zip_code":"4102507"},{"name":"日向","zip_code":"4102406"},{"name":"姫之湯","zip_code":"4102518"},{"name":"堀切","zip_code":"4102418"},{"name":"本柿木","zip_code":"4103212"},{"name":"本立野","zip_code":"4102414"},{"name":"牧之郷","zip_code":"4102401"},{"name":"松ケ瀬","zip_code":"4103211"},{"name":"宮上","zip_code":"4102511"},{"name":"持越","zip_code":"4103207"},{"name":"八木沢","zip_code":"4103303"},{"name":"矢熊","zip_code":"4103203"},{"name":"柳瀬","zip_code":"4102508"},{"name":"湯ケ島","zip_code":"4103206"},{"name":"吉奈","zip_code":"4103208"},{"name":"原保","zip_code":"4102514"}]},{"name":"御前崎市","divisions":[{"name":"池新田","zip_code":"4371612"},{"name":"御前崎","zip_code":"4371621"},{"name":"門屋","zip_code":"4371615"},{"name":"上朝比奈","zip_code":"4371601"},{"name":"合戸","zip_code":"4371613"},{"name":"佐倉","zip_code":"4371604"},{"name":"塩原新田","zip_code":"4371614"},{"name":"下朝比奈","zip_code":"4371605"},{"name":"白羽","zip_code":"4371622"},{"name":"新野","zip_code":"4371611"},{"name":"比木","zip_code":"4371602"},{"name":"港","zip_code":"4371623"},{"name":"宮内","zip_code":"4371603"}]},{"name":"菊川市","divisions":[{"name":"青葉台","zip_code":"4390012"},{"name":"赤土","zip_code":"4371507"},{"name":"朝日","zip_code":"4390017"},{"name":"牛渕","zip_code":"4390013"},{"name":"小出","zip_code":"4390021"},{"name":"大石","zip_code":"4371524"},{"name":"河東","zip_code":"4371506"},{"name":"上平川","zip_code":"4371521"},{"name":"加茂","zip_code":"4390031"},{"name":"川上","zip_code":"4371503"},{"name":"神尾","zip_code":"4390016"},{"name":"倉沢","zip_code":"4390002"},{"name":"小沢","zip_code":"4390014"},{"name":"沢水加","zip_code":"4390003"},{"name":"猿渡","zip_code":"4371512"},{"name":"下内田","zip_code":"4390034"},{"name":"下平川","zip_code":"4371514"},{"name":"高橋","zip_code":"4371505"},{"name":"棚草","zip_code":"4371513"},{"name":"丹野","zip_code":"4371501"},{"name":"潮海寺","zip_code":"4390005"},{"name":"月岡","zip_code":"4390032"},{"name":"土橋","zip_code":"4390025"},{"name":"堂山新田","zip_code":"4371523"},{"name":"富田","zip_code":"4390001"},{"name":"友田","zip_code":"4390008"},{"name":"中内田","zip_code":"4390036"},{"name":"仲島","zip_code":"4390011"},{"name":"奈良野","zip_code":"4390024"},{"name":"西方","zip_code":"4390037"},{"name":"西横地","zip_code":"4390026"},{"name":"花水木","zip_code":"4371504"},{"name":"半済","zip_code":"4390019"},{"name":"東横地","zip_code":"4390022"},{"name":"平尾","zip_code":"4390035"},{"name":"古谷","zip_code":"4371502"},{"name":"堀之内","zip_code":"4390006"},{"name":"本所","zip_code":"4390018"},{"name":"牧之原","zip_code":"4390015"},{"name":"三沢","zip_code":"4390023"},{"name":"嶺田","zip_code":"4371522"},{"name":"耳川","zip_code":"4390033"},{"name":"目木","zip_code":"4371511"},{"name":"柳","zip_code":"4390007"},{"name":"吉沢","zip_code":"4390009"},{"name":"和田","zip_code":"4390004"}]},{"name":"伊豆の国市","divisions":[{"name":"天野","zip_code":"4102202"},{"name":"浮橋","zip_code":"4102311"},{"name":"内中","zip_code":"4102112"},{"name":"エメラルドタウン","zip_code":"4102103"},{"name":"大仁","zip_code":"4102323"},{"name":"小坂","zip_code":"4102203"},{"name":"神島","zip_code":"4102325"},{"name":"北江間","zip_code":"4102223"},{"name":"古奈","zip_code":"4102201"},{"name":"小松ケ原","zip_code":"4102101"},{"name":"寺家","zip_code":"4102122"},{"name":"下畑","zip_code":"4102314"},{"name":"白山堂","zip_code":"4102318"},{"name":"宗光寺","zip_code":"4102302"},{"name":"田京","zip_code":"4102315"},{"name":"立花","zip_code":"4102303"},{"name":"立花台","zip_code":"4102111"},{"name":"田中山","zip_code":"4102301"},{"name":"田原野","zip_code":"4102313"},{"name":"中條","zip_code":"4102121"},{"name":"長者原","zip_code":"4102312"},{"name":"戸沢","zip_code":"4102213"},{"name":"中","zip_code":"4102113"},{"name":"長岡","zip_code":"4102211"},{"name":"長崎","zip_code":"4102131"},{"name":"中島","zip_code":"4102324"},{"name":"長瀬","zip_code":"4102212"},{"name":"奈古谷","zip_code":"4102132"},{"name":"南條","zip_code":"4102114"},{"name":"韮山金谷","zip_code":"4102142"},{"name":"韮山多田","zip_code":"4102133"},{"name":"韮山土手和田","zip_code":"4102144"},{"name":"韮山韮山","zip_code":"4102143"},{"name":"韮山山木","zip_code":"4102141"},{"name":"花坂","zip_code":"4102214"},{"name":"原木","zip_code":"4102124"},{"name":"富士見","zip_code":"4102205"},{"name":"富士見ニュータウン","zip_code":"4102102"},{"name":"墹之上","zip_code":"4102204"},{"name":"御門","zip_code":"4102316"},{"name":"南江間","zip_code":"4102221"},{"name":"三福","zip_code":"4102321"},{"name":"守木","zip_code":"4102317"},{"name":"吉田","zip_code":"4102322"},{"name":"四日町","zip_code":"4102123"}]},{"name":"牧之原市","divisions":[{"name":"大江","zip_code":"4210512"},{"name":"大沢","zip_code":"4210526"},{"name":"大寄","zip_code":"4210506"},{"name":"男神","zip_code":"4210517"},{"name":"落居","zip_code":"4210531"},{"name":"笠名","zip_code":"4210535"},{"name":"片浜","zip_code":"4210511"},{"name":"勝田","zip_code":"4210406"},{"name":"勝間","zip_code":"4210402"},{"name":"勝俣","zip_code":"4210414"},{"name":"鬼女新田","zip_code":"4210525"},{"name":"切山","zip_code":"4210401"},{"name":"黒子","zip_code":"4210504"},{"name":"西山寺","zip_code":"4210515"},{"name":"坂口","zip_code":"4210411"},{"name":"坂部","zip_code":"4210412"},{"name":"相良","zip_code":"4210522"},{"name":"汐見台","zip_code":"4210527"},{"name":"静谷","zip_code":"4210404"},{"name":"静波","zip_code":"4210422"},{"name":"地頭方","zip_code":"4210532"},{"name":"嶋","zip_code":"4210408"},{"name":"白井","zip_code":"4210405"},{"name":"新庄","zip_code":"4210533"},{"name":"菅ケ谷","zip_code":"4210514"},{"name":"須々木","zip_code":"4210524"},{"name":"道場","zip_code":"4210415"},{"name":"中","zip_code":"4210403"},{"name":"中西","zip_code":"4210505"},{"name":"西萩間","zip_code":"4210508"},{"name":"仁田","zip_code":"4210413"},{"name":"布引原","zip_code":"4210407"},{"name":"波津","zip_code":"4210523"},{"name":"東萩間","zip_code":"4210501"},{"name":"蛭ケ谷","zip_code":"4210503"},{"name":"福岡","zip_code":"4210521"},{"name":"細江","zip_code":"4210421"},{"name":"堀野新田","zip_code":"4210534"},{"name":"牧之原","zip_code":"4210509"},{"name":"松本","zip_code":"4210513"},{"name":"女神","zip_code":"4210516"},{"name":"和田","zip_code":"4210507"}]},{"name":"賀茂郡東伊豆町","divisions":[{"name":"稲取","zip_code":"4130411"},{"name":"大川","zip_code":"4130301"},{"name":"片瀬","zip_code":"4130303"},{"name":"白田","zip_code":"4130304"},{"name":"奈良本","zip_code":"4130302"},{"name":"北川","zip_code":"4130302"}]},{"name":"賀茂郡河津町","divisions":[{"name":"大鍋","zip_code":"4130509"},{"name":"川津筏場","zip_code":"4130502"},{"name":"小鍋","zip_code":"4130508"},{"name":"逆川","zip_code":"4130516"},{"name":"笹原","zip_code":"4130512"},{"name":"沢田","zip_code":"4130505"},{"name":"下佐ケ野","zip_code":"4130506"},{"name":"田中","zip_code":"4130504"},{"name":"梨本","zip_code":"4130501"},{"name":"縄地","zip_code":"4130514"},{"name":"浜","zip_code":"4130513"},{"name":"見高","zip_code":"4130503"},{"name":"峰","zip_code":"4130511"},{"name":"谷津","zip_code":"4130515"},{"name":"湯ケ野","zip_code":"4130507"}]},{"name":"賀茂郡南伊豆町","divisions":[{"name":"青市","zip_code":"4150151"},{"name":"青野","zip_code":"4150327"},{"name":"石井","zip_code":"4150306"},{"name":"一色","zip_code":"4150313"},{"name":"一條","zip_code":"4150301"},{"name":"市之瀬","zip_code":"4150325"},{"name":"一町田","zip_code":"4150531"},{"name":"伊浜","zip_code":"4150531"},{"name":"入間","zip_code":"4150312"},{"name":"石廊崎","zip_code":"4150156"},{"name":"岩殿","zip_code":"4150322"},{"name":"大瀬","zip_code":"4150155"},{"name":"落居","zip_code":"4150531"},{"name":"加納","zip_code":"4150304"},{"name":"上小野","zip_code":"4150324"},{"name":"上賀茂","zip_code":"4150302"},{"name":"川合野","zip_code":"4150323"},{"name":"毛倉野","zip_code":"4150321"},{"name":"子浦","zip_code":"4150532"},{"name":"差田","zip_code":"4150312"},{"name":"下流","zip_code":"4150154"},{"name":"下小野","zip_code":"4150323"},{"name":"下賀茂","zip_code":"4150303"},{"name":"蛇石","zip_code":"4150326"},{"name":"立岩","zip_code":"4150533"},{"name":"蝶ケ野","zip_code":"4150314"},{"name":"手石","zip_code":"4150153"},{"name":"天神原","zip_code":"4150531"},{"name":"中木","zip_code":"4150311"},{"name":"二條","zip_code":"4150305"},{"name":"平戸","zip_code":"4150325"},{"name":"湊","zip_code":"4150152"},{"name":"妻良","zip_code":"4150533"},{"name":"吉田","zip_code":"4150533"}]},{"name":"賀茂郡松崎町","divisions":[{"name":"明伏","zip_code":"4103603"},{"name":"池代","zip_code":"4103601"},{"name":"石部","zip_code":"4103616"},{"name":"岩科南側","zip_code":"4103614"},{"name":"岩科北側","zip_code":"4103613"},{"name":"岩地","zip_code":"4103617"},{"name":"江奈","zip_code":"4103624"},{"name":"大沢","zip_code":"4103604"},{"name":"門野","zip_code":"4103607"},{"name":"雲見","zip_code":"4103615"},{"name":"建久寺","zip_code":"4103627"},{"name":"小杉原","zip_code":"4103602"},{"name":"桜田","zip_code":"4103625"},{"name":"伏倉","zip_code":"4103623"},{"name":"那賀","zip_code":"4103626"},{"name":"南郷","zip_code":"4103622"},{"name":"船田","zip_code":"4103606"},{"name":"松崎","zip_code":"4103611"},{"name":"道部","zip_code":"4103618"},{"name":"峰輪","zip_code":"4103605"},{"name":"宮内","zip_code":"4103612"},{"name":"吉田","zip_code":"4103621"}]},{"name":"賀茂郡西伊豆町","divisions":[{"name":"安良里","zip_code":"4103502"},{"name":"一色","zip_code":"4103512"},{"name":"宇久須","zip_code":"4103501"},{"name":"大沢里","zip_code":"4103511"},{"name":"田子","zip_code":"4103515"},{"name":"中","zip_code":"4103513"},{"name":"仁科","zip_code":"4103514"}]},{"name":"田方郡函南町","divisions":[{"name":"大竹","zip_code":"4190121"},{"name":"大土肥","zip_code":"4190113"},{"name":"柏谷","zip_code":"4190112"},{"name":"上沢","zip_code":"4190122"},{"name":"軽井沢","zip_code":"4190103"},{"name":"桑原","zip_code":"4110001"},{"name":"新田","zip_code":"4190115"},{"name":"田代","zip_code":"4190102"},{"name":"丹那","zip_code":"4190105"},{"name":"塚本","zip_code":"4190124"},{"name":"仁田","zip_code":"4190114"},{"name":"畑","zip_code":"4190104"},{"name":"畑毛","zip_code":"4190111"},{"name":"肥田","zip_code":"4190125"},{"name":"日守","zip_code":"4190116"},{"name":"平井","zip_code":"4190107"},{"name":"間宮","zip_code":"4190123"},{"name":"南箱根ダイヤランド","zip_code":"4190106"}]},{"name":"駿東郡清水町","divisions":[{"name":"卸団地","zip_code":"4110912"},{"name":"柿田","zip_code":"4110904"},{"name":"久米田","zip_code":"4110911"},{"name":"新宿","zip_code":"4110901"},{"name":"玉川","zip_code":"4110902"},{"name":"堂庭","zip_code":"4110903"},{"name":"徳倉","zip_code":"4110917"},{"name":"戸田","zip_code":"4110913"},{"name":"中徳倉","zip_code":"4110916"},{"name":"長沢","zip_code":"4110905"},{"name":"畑中","zip_code":"4110914"},{"name":"伏見","zip_code":"4110907"},{"name":"的場","zip_code":"4110915"},{"name":"八幡","zip_code":"4110906"},{"name":"湯川","zip_code":"4110918"}]},{"name":"駿東郡長泉町","divisions":[{"name":"上土狩","zip_code":"4110941"},{"name":"上長窪","zip_code":"4110935"},{"name":"桜堤","zip_code":"4110951"},{"name":"下土狩","zip_code":"4110943"},{"name":"下長窪","zip_code":"4110934"},{"name":"竹原","zip_code":"4110944"},{"name":"中土狩","zip_code":"4110942"},{"name":"納米里","zip_code":"4110933"},{"name":"東野","zip_code":"4110931"},{"name":"本宿","zip_code":"4110945"},{"name":"南一色","zip_code":"4110932"},{"name":"元長窪","zip_code":"4110936"}]},{"name":"駿東郡小山町","divisions":[{"name":"阿多野","zip_code":"4101321"},{"name":"新柴","zip_code":"4101314"},{"name":"生土","zip_code":"4101303"},{"name":"一色","zip_code":"4101325"},{"name":"上野","zip_code":"4101306"},{"name":"大胡田","zip_code":"4101317"},{"name":"大御神","zip_code":"4101308"},{"name":"小山","zip_code":"4101311"},{"name":"上古城","zip_code":"4101323"},{"name":"桑木","zip_code":"4101315"},{"name":"自衛隊富士学校","zip_code":"4101432"},{"name":"下小林","zip_code":"4101324"},{"name":"下古城","zip_code":"4101316"},{"name":"菅沼","zip_code":"4101312"},{"name":"須走","zip_code":"4101431"},{"name":"竹之下","zip_code":"4101313"},{"name":"棚頭","zip_code":"4101327"},{"name":"中島","zip_code":"4101302"},{"name":"中日向","zip_code":"4101307"},{"name":"藤曲","zip_code":"4101304"},{"name":"柳島","zip_code":"4101301"},{"name":"湯船","zip_code":"4101305"},{"name":"用沢","zip_code":"4101326"},{"name":"吉久保","zip_code":"4101322"}]},{"name":"榛原郡吉田町","divisions":[{"name":"大幡","zip_code":"4210305"},{"name":"片岡","zip_code":"4210303"},{"name":"川尻","zip_code":"4210302"},{"name":"神戸","zip_code":"4210304"},{"name":"住吉","zip_code":"4210301"}]},{"name":"榛原郡川根本町","divisions":[{"name":"青部","zip_code":"4280417"},{"name":"壱町河内","zip_code":"4280303"},{"name":"犬間","zip_code":"4280402"},{"name":"梅地","zip_code":"4280401"},{"name":"奥泉","zip_code":"4280412"},{"name":"上岸","zip_code":"4280415"},{"name":"上長尾","zip_code":"4280313"},{"name":"久野脇","zip_code":"4280315"},{"name":"桑野山","zip_code":"4280413"},{"name":"崎平","zip_code":"4280418"},{"name":"地名","zip_code":"4280305"},{"name":"下泉","zip_code":"4280304"},{"name":"下長尾","zip_code":"4280314"},{"name":"千頭","zip_code":"4280411"},{"name":"田代","zip_code":"4280416"},{"name":"田野口","zip_code":"4280306"},{"name":"徳山","zip_code":"4280301"},{"name":"東藤川","zip_code":"4280414"},{"name":"文沢","zip_code":"4280302"},{"name":"水川","zip_code":"4280312"},{"name":"元藤川","zip_code":"4280311"}]},{"name":"周智郡森町","divisions":[{"name":"天宮","zip_code":"4370216"},{"name":"飯田","zip_code":"4370222"},{"name":"一宮","zip_code":"4370226"},{"name":"牛飼","zip_code":"4370224"},{"name":"薄場","zip_code":"4370217"},{"name":"円田","zip_code":"4370221"},{"name":"大鳥居","zip_code":"4370205"},{"name":"鍛冶島","zip_code":"4370203"},{"name":"葛布","zip_code":"4370206"},{"name":"亀久保","zip_code":"4370202"},{"name":"草ケ谷","zip_code":"4370214"},{"name":"嵯塚","zip_code":"4370201"},{"name":"城下","zip_code":"4370211"},{"name":"橘","zip_code":"4370227"},{"name":"問詰","zip_code":"4370204"},{"name":"中川","zip_code":"4370223"},{"name":"西俣","zip_code":"4370207"},{"name":"三倉","zip_code":"4370208"},{"name":"向天方","zip_code":"4370212"},{"name":"睦実","zip_code":"4370213"},{"name":"森","zip_code":"4370215"},{"name":"谷中","zip_code":"4370225"}]}]}