{"name":"三重県","cities":[{"name":"津市","divisions":[{"name":"相生町","zip_code":"5140017"},{"name":"青葉台","zip_code":"5141139"},{"name":"阿漕町","zip_code":"5140811"},{"name":"愛宕町","zip_code":"5140022"},{"name":"安濃町安濃","zip_code":"5142302"},{"name":"安濃町安部","zip_code":"5142327"},{"name":"安濃町荒木","zip_code":"5142301"},{"name":"安濃町内多","zip_code":"5142303"},{"name":"安濃町粟加","zip_code":"5142324"},{"name":"安濃町太田","zip_code":"5142304"},{"name":"安濃町大塚","zip_code":"5142323"},{"name":"安濃町川西","zip_code":"5142308"},{"name":"安濃町草生","zip_code":"5142328"},{"name":"安濃町神田","zip_code":"5142311"},{"name":"安濃町光明寺","zip_code":"5142315"},{"name":"安濃町今徳","zip_code":"5142313"},{"name":"安濃町清水","zip_code":"5142305"},{"name":"安濃町浄土寺","zip_code":"5142307"},{"name":"安濃町曽根","zip_code":"5142306"},{"name":"安濃町田端上野","zip_code":"5142325"},{"name":"安濃町連部","zip_code":"5142312"},{"name":"安濃町東観音寺","zip_code":"5142326"},{"name":"安濃町戸島","zip_code":"5142322"},{"name":"安濃町中川","zip_code":"5142318"},{"name":"安濃町野口","zip_code":"5142321"},{"name":"安濃町前野","zip_code":"5142317"},{"name":"安濃町南神山","zip_code":"5142316"},{"name":"安濃町妙法寺","zip_code":"5142314"},{"name":"あのつ台","zip_code":"5140131"},{"name":"安東町","zip_code":"5140058"},{"name":"一身田大古曽","zip_code":"5140113"},{"name":"一身田上津部田","zip_code":"5140061"},{"name":"一身田豊野","zip_code":"5140115"},{"name":"一身田中野","zip_code":"5140112"},{"name":"一身田平野","zip_code":"5140111"},{"name":"一身田町","zip_code":"5140114"},{"name":"一志町井生","zip_code":"5152523"},{"name":"一志町石橋","zip_code":"5152525"},{"name":"一志町井関","zip_code":"5152521"},{"name":"一志町大仰","zip_code":"5152524"},{"name":"一志町小山","zip_code":"5152514"},{"name":"一志町片野","zip_code":"5152511"},{"name":"一志町小戸木","zip_code":"5152505"},{"name":"一志町庄村","zip_code":"5152501"},{"name":"一志町新沢田","zip_code":"5152512"},{"name":"一志町其倉","zip_code":"5152526"},{"name":"一志町其村","zip_code":"5152502"},{"name":"一志町高野","zip_code":"5152504"},{"name":"一志町田尻","zip_code":"5152516"},{"name":"一志町虹が丘","zip_code":"5152513"},{"name":"一志町波瀬","zip_code":"5152522"},{"name":"一志町八太","zip_code":"5152515"},{"name":"一志町日置","zip_code":"5152503"},{"name":"一志町みのりケ丘","zip_code":"5152517"},{"name":"一色町","zip_code":"5140057"},{"name":"稲葉町","zip_code":"5141252"},{"name":"岩田","zip_code":"5140838"},{"name":"産品","zip_code":"5140076"},{"name":"江戸橋","zip_code":"5140001"},{"name":"大倉","zip_code":"5140834"},{"name":"大里川北町","zip_code":"5140124"},{"name":"大里窪田町","zip_code":"5140125"},{"name":"大里小野田町","zip_code":"5140123"},{"name":"大里野田町","zip_code":"5140122"},{"name":"大里睦合町","zip_code":"5140126"},{"name":"大里山室町","zip_code":"5140121"},{"name":"大園町","zip_code":"5140046"},{"name":"大谷町","zip_code":"5140007"},{"name":"大鳥町","zip_code":"5141257"},{"name":"押加部町","zip_code":"5140039"},{"name":"乙部","zip_code":"5140016"},{"name":"小舟","zip_code":"5140072"},{"name":"海岸町","zip_code":"5140013"},{"name":"片田井戸町","zip_code":"5140082"},{"name":"片田久保町","zip_code":"5140085"},{"name":"片田志袋町","zip_code":"5140075"},{"name":"片田新町","zip_code":"5140083"},{"name":"片田田中町","zip_code":"5140081"},{"name":"片田長谷町","zip_code":"5140077"},{"name":"片田長谷場町","zip_code":"5140074"},{"name":"片田薬王寺町","zip_code":"5140086"},{"name":"片田町","zip_code":"5140084"},{"name":"神納","zip_code":"5140054"},{"name":"神納町","zip_code":"5140052"},{"name":"上浜町","zip_code":"5140008"},{"name":"上弁財町","zip_code":"5140806"},{"name":"上弁財町津興","zip_code":"5140804"},{"name":"香良洲町","zip_code":"5140311"},{"name":"川方町","zip_code":"5141122"},{"name":"河芸町赤部","zip_code":"5100313"},{"name":"河芸町一色","zip_code":"5100306"},{"name":"河芸町上野","zip_code":"5100304"},{"name":"河芸町影重","zip_code":"5100307"},{"name":"河芸町北黒田","zip_code":"5100317"},{"name":"河芸町久知野","zip_code":"5100312"},{"name":"河芸町高佐","zip_code":"5100315"},{"name":"河芸町千里ケ丘","zip_code":"5100302"},{"name":"河芸町中瀬","zip_code":"5100308"},{"name":"河芸町中別保","zip_code":"5100305"},{"name":"河芸町西千里","zip_code":"5100301"},{"name":"河芸町浜田","zip_code":"5100314"},{"name":"河芸町東千里","zip_code":"5100303"},{"name":"河芸町南黒田","zip_code":"5100316"},{"name":"河芸町三行","zip_code":"5100311"},{"name":"河芸町杜の街","zip_code":"5100318"},{"name":"川添町","zip_code":"5140044"},{"name":"観音寺町","zip_code":"5140062"},{"name":"神戸","zip_code":"5140824"},{"name":"北河路町","zip_code":"5140056"},{"name":"北町津","zip_code":"5140023"},{"name":"北丸之内","zip_code":"5140031"},{"name":"雲出伊倉津町","zip_code":"5140302"},{"name":"雲出鋼管町","zip_code":"5140301"},{"name":"雲出島貫町","zip_code":"5140305"},{"name":"雲出長常町","zip_code":"5140303"},{"name":"雲出本郷町","zip_code":"5140304"},{"name":"栗真小川町","zip_code":"5140104"},{"name":"栗真中山町","zip_code":"5140103"},{"name":"栗真町屋町","zip_code":"5140102"},{"name":"グリンタウン榊原","zip_code":"5152617"},{"name":"芸濃町雲林院","zip_code":"5142204"},{"name":"芸濃町岡本","zip_code":"5142212"},{"name":"芸濃町忍田","zip_code":"5142208"},{"name":"芸濃町小野平","zip_code":"5142206"},{"name":"芸濃町北神山","zip_code":"5142213"},{"name":"芸濃町楠原","zip_code":"5142201"},{"name":"芸濃町河内","zip_code":"5142207"},{"name":"芸濃町多門","zip_code":"5142205"},{"name":"芸濃町中縄","zip_code":"5142203"},{"name":"芸濃町萩野","zip_code":"5142214"},{"name":"芸濃町林","zip_code":"5142202"},{"name":"芸濃町椋本","zip_code":"5142211"},{"name":"河辺町","zip_code":"5140065"},{"name":"広明町","zip_code":"5140006"},{"name":"木造町","zip_code":"5141115"},{"name":"寿町","zip_code":"5140015"},{"name":"幸町","zip_code":"5140835"},{"name":"栄町","zip_code":"5140004"},{"name":"榊原町","zip_code":"5141251"},{"name":"桜田町","zip_code":"5140047"},{"name":"桜橋","zip_code":"5140003"},{"name":"渋見町","zip_code":"5140063"},{"name":"島崎町","zip_code":"5140002"},{"name":"下弁財町津興","zip_code":"5140805"},{"name":"修成町","zip_code":"5140837"},{"name":"庄田町","zip_code":"5141255"},{"name":"白塚町","zip_code":"5140101"},{"name":"城山","zip_code":"5140818"},{"name":"新立町津","zip_code":"5140024"},{"name":"新東町塔世","zip_code":"5140026"},{"name":"新町","zip_code":"5140042"},{"name":"末広町","zip_code":"5140012"},{"name":"須ケ瀬町","zip_code":"5141124"},{"name":"住吉町","zip_code":"5140019"},{"name":"船頭町津興","zip_code":"5140801"},{"name":"大門","zip_code":"5140027"},{"name":"高洲町","zip_code":"5140011"},{"name":"高茶屋","zip_code":"5140819"},{"name":"高茶屋小森上野町","zip_code":"5140816"},{"name":"高茶屋小森町","zip_code":"5140817"},{"name":"高野尾町","zip_code":"5142221"},{"name":"垂水","zip_code":"5140821"},{"name":"中央","zip_code":"5140032"},{"name":"津興","zip_code":"5140812"},{"name":"殿村","zip_code":"5140073"},{"name":"鳥居町","zip_code":"5140005"},{"name":"中河原","zip_code":"5140018"},{"name":"中村町","zip_code":"5141256"},{"name":"長岡町","zip_code":"5140064"},{"name":"なぎさまち","zip_code":"5140010"},{"name":"西阿漕町岩田","zip_code":"5140833"},{"name":"西古河町","zip_code":"5140038"},{"name":"西丸之内","zip_code":"5140035"},{"name":"新家町","zip_code":"5141116"},{"name":"納所町","zip_code":"5140051"},{"name":"野崎垣内岩田","zip_code":"5140836"},{"name":"野田","zip_code":"5140826"},{"name":"博多町","zip_code":"5140053"},{"name":"白山台","zip_code":"5152605"},{"name":"白山町伊勢見","zip_code":"5152614"},{"name":"白山町稲垣","zip_code":"5152616"},{"name":"白山町大原","zip_code":"5153137"},{"name":"白山町岡","zip_code":"5152604"},{"name":"白山町垣内","zip_code":"5152624"},{"name":"白山町上ノ村","zip_code":"5152623"},{"name":"白山町川口","zip_code":"5152603"},{"name":"白山町北家城","zip_code":"5153132"},{"name":"白山町小杉","zip_code":"5153138"},{"name":"白山町佐田","zip_code":"5152621"},{"name":"白山町城立","zip_code":"5153139"},{"name":"白山町中ノ村","zip_code":"5152622"},{"name":"白山町二本木","zip_code":"5152602"},{"name":"白山町八対野","zip_code":"5152615"},{"name":"白山町福田山","zip_code":"5153136"},{"name":"白山町藤","zip_code":"5153131"},{"name":"白山町二俣","zip_code":"5153135"},{"name":"白山町古市","zip_code":"5152612"},{"name":"白山町真見","zip_code":"5153134"},{"name":"白山町三ケ野","zip_code":"5152601"},{"name":"白山町南家城","zip_code":"5153133"},{"name":"白山町南出","zip_code":"5152611"},{"name":"白山町山田野","zip_code":"5152613"},{"name":"八町","zip_code":"5140041"},{"name":"羽所町","zip_code":"5140009"},{"name":"半田","zip_code":"5140823"},{"name":"東古河町","zip_code":"5140037"},{"name":"東町津","zip_code":"5140025"},{"name":"東丸之内","zip_code":"5140028"},{"name":"久居相川町","zip_code":"5141103"},{"name":"久居一色町","zip_code":"5141253"},{"name":"久居井戸山町","zip_code":"5141114"},{"name":"久居射場町","zip_code":"5141108"},{"name":"久居烏木町","zip_code":"5141109"},{"name":"久居北口町","zip_code":"5141105"},{"name":"久居小野辺町","zip_code":"5141112"},{"name":"久居小戸木町","zip_code":"5141137"},{"name":"久居桜が丘町","zip_code":"5141111"},{"name":"久居幸町","zip_code":"5141132"},{"name":"久居新町","zip_code":"5141118"},{"name":"久居寺町","zip_code":"5141106"},{"name":"久居中町","zip_code":"5141107"},{"name":"久居西鷹跡町","zip_code":"5141131"},{"name":"久居二ノ町","zip_code":"5141121"},{"name":"久居野口町","zip_code":"5141117"},{"name":"久居野村町","zip_code":"5141113"},{"name":"久居旅籠町","zip_code":"5141134"},{"name":"久居東鷹跡町","zip_code":"5141136"},{"name":"久居藤ケ丘町","zip_code":"5141102"},{"name":"久居本町","zip_code":"5141135"},{"name":"久居緑が丘町","zip_code":"5141258"},{"name":"久居明神町","zip_code":"5141101"},{"name":"久居持川町","zip_code":"5141104"},{"name":"久居元町","zip_code":"5141125"},{"name":"久居万町","zip_code":"5141133"},{"name":"藤枝町","zip_code":"5140814"},{"name":"藤方","zip_code":"5140815"},{"name":"戸木町","zip_code":"5141138"},{"name":"本町","zip_code":"5140831"},{"name":"牧町","zip_code":"5141123"},{"name":"丸之内","zip_code":"5140033"},{"name":"丸之内養正町","zip_code":"5140036"},{"name":"三重町津興","zip_code":"5140802"},{"name":"美川町","zip_code":"5140045"},{"name":"美里町足坂","zip_code":"5142106"},{"name":"美里町穴倉","zip_code":"5142107"},{"name":"美里町家所","zip_code":"5142104"},{"name":"美里町五百野","zip_code":"5142105"},{"name":"美里町桂畑","zip_code":"5142115"},{"name":"美里町北長野","zip_code":"5142112"},{"name":"美里町高座原","zip_code":"5142101"},{"name":"美里町日南田","zip_code":"5142103"},{"name":"美里町平木","zip_code":"5142111"},{"name":"美里町船山","zip_code":"5142102"},{"name":"美里町三郷","zip_code":"5142113"},{"name":"美里町南長野","zip_code":"5142114"},{"name":"美杉町石名原","zip_code":"5153533"},{"name":"美杉町奥津","zip_code":"5153531"},{"name":"美杉町上多気","zip_code":"5153312"},{"name":"美杉町川上","zip_code":"5153532"},{"name":"美杉町下多気","zip_code":"5153311"},{"name":"美杉町下之川","zip_code":"5153203"},{"name":"美杉町杉平","zip_code":"5153534"},{"name":"美杉町竹原","zip_code":"5153201"},{"name":"美杉町太郎生","zip_code":"5153536"},{"name":"美杉町丹生俣","zip_code":"5153313"},{"name":"美杉町八手俣","zip_code":"5153202"},{"name":"美杉町三多気","zip_code":"5153535"},{"name":"美杉町八知","zip_code":"5153421"},{"name":"緑が丘","zip_code":"5140825"},{"name":"港町","zip_code":"5140014"},{"name":"南が丘","zip_code":"5140822"},{"name":"南河路","zip_code":"5140055"},{"name":"南新町","zip_code":"5140043"},{"name":"南中央","zip_code":"5140832"},{"name":"南丸之内","zip_code":"5140034"},{"name":"森町","zip_code":"5141254"},{"name":"柳山津興","zip_code":"5140803"},{"name":"八幡町","zip_code":"5140813"},{"name":"夢が丘","zip_code":"5140116"},{"name":"万町津","zip_code":"5140021"},{"name":"分部","zip_code":"5140071"}]},{"name":"四日市市","divisions":[{"name":"相生町","zip_code":"5100044"},{"name":"青葉町","zip_code":"5100839"},{"name":"あかつき台","zip_code":"5128046"},{"name":"赤堀","zip_code":"5100826"},{"name":"赤堀新町","zip_code":"5100825"},{"name":"赤堀南町","zip_code":"5100827"},{"name":"あがたが丘","zip_code":"5121202"},{"name":"阿倉川新町","zip_code":"5100810"},{"name":"阿倉川町","zip_code":"5100803"},{"name":"曙","zip_code":"5100053"},{"name":"曙町","zip_code":"5100054"},{"name":"赤水町","zip_code":"5121204"},{"name":"あさけが丘","zip_code":"5128055"},{"name":"朝明町","zip_code":"5128054"},{"name":"朝日町","zip_code":"5100061"},{"name":"天カ須賀","zip_code":"5108001"},{"name":"天カ須賀新町","zip_code":"5108002"},{"name":"生桑町","zip_code":"5120911"},{"name":"伊倉","zip_code":"5100832"},{"name":"伊坂台","zip_code":"5128066"},{"name":"伊坂町","zip_code":"5128064"},{"name":"石塚町","zip_code":"5100828"},{"name":"石原町","zip_code":"5100842"},{"name":"磯津","zip_code":"5100863"},{"name":"市場町","zip_code":"5121302"},{"name":"稲葉町","zip_code":"5100041"},{"name":"浮橋","zip_code":"5120931"},{"name":"内山町","zip_code":"5121101"},{"name":"内堀町","zip_code":"5100872"},{"name":"釆女が丘","zip_code":"5100953"},{"name":"釆女町","zip_code":"5100954"},{"name":"鵜の森","zip_code":"5100074"},{"name":"午起","zip_code":"5100023"},{"name":"江村町","zip_code":"5121206"},{"name":"追分","zip_code":"5100882"},{"name":"桜花台","zip_code":"5121216"},{"name":"大池町","zip_code":"5100866"},{"name":"大井手","zip_code":"5100835"},{"name":"大井の川町","zip_code":"5100846"},{"name":"大鐘町","zip_code":"5128053"},{"name":"大里町","zip_code":"5100863"},{"name":"大谷台","zip_code":"5120901"},{"name":"大浜町","zip_code":"5100847"},{"name":"大宮町","zip_code":"5100003"},{"name":"大宮西町","zip_code":"5100004"},{"name":"大矢知新町","zip_code":"5108039"},{"name":"大矢知町","zip_code":"5108034"},{"name":"沖の島町","zip_code":"5100083"},{"name":"小古曽","zip_code":"5100958"},{"name":"小古曽町","zip_code":"5100952"},{"name":"小古曽東","zip_code":"5100951"},{"name":"尾上町","zip_code":"5100059"},{"name":"大治田","zip_code":"5100875"},{"name":"尾平町","zip_code":"5120921"},{"name":"小山町","zip_code":"5121102"},{"name":"貝家町","zip_code":"5100956"},{"name":"貝塚町","zip_code":"5100873"},{"name":"霞","zip_code":"5100011"},{"name":"金場町","zip_code":"5100014"},{"name":"上海老町","zip_code":"5121201"},{"name":"萱生町","zip_code":"5128045"},{"name":"川合町","zip_code":"5100853"},{"name":"川北町","zip_code":"5108032"},{"name":"川島新町","zip_code":"5120935"},{"name":"川島町","zip_code":"5120934"},{"name":"川尻町","zip_code":"5100871"},{"name":"河原田町","zip_code":"5100874"},{"name":"川原町","zip_code":"5100033"},{"name":"川北","zip_code":"5108031"},{"name":"北小松町","zip_code":"5100955"},{"name":"北条町","zip_code":"5100098"},{"name":"北納屋町","zip_code":"5100047"},{"name":"北野町","zip_code":"5121208"},{"name":"北浜田町","zip_code":"5100062"},{"name":"北浜町","zip_code":"5100091"},{"name":"北町","zip_code":"5100081"},{"name":"北山町","zip_code":"5128051"},{"name":"京町","zip_code":"5100032"},{"name":"楠町小倉","zip_code":"5100101"},{"name":"楠町北一色","zip_code":"5100107"},{"name":"楠町北五味塚","zip_code":"5100103"},{"name":"楠町本郷","zip_code":"5100106"},{"name":"楠町南川","zip_code":"5100105"},{"name":"楠町南五味塚","zip_code":"5100104"},{"name":"楠町吉崎","zip_code":"5100102"},{"name":"九の城町","zip_code":"5100072"},{"name":"久保田","zip_code":"5100821"},{"name":"蔵町","zip_code":"5100045"},{"name":"黒田町","zip_code":"5121207"},{"name":"黄金町","zip_code":"5128062"},{"name":"小杉新町","zip_code":"5120903"},{"name":"小杉町","zip_code":"5120902"},{"name":"寿町","zip_code":"5100055"},{"name":"小浜町","zip_code":"5100865"},{"name":"小林町","zip_code":"5100946"},{"name":"小牧町","zip_code":"5121303"},{"name":"小生町","zip_code":"5120932"},{"name":"幸町","zip_code":"5100069"},{"name":"栄町","zip_code":"5100084"},{"name":"坂部が丘","zip_code":"5120905"},{"name":"坂部台","zip_code":"5120908"},{"name":"桜新町","zip_code":"5121215"},{"name":"桜台","zip_code":"5121214"},{"name":"桜台本町","zip_code":"5121213"},{"name":"桜町","zip_code":"5121211"},{"name":"笹川","zip_code":"5100944"},{"name":"札場町","zip_code":"5128056"},{"name":"三郎町","zip_code":"5100021"},{"name":"三栄町","zip_code":"5100068"},{"name":"塩浜","zip_code":"5100863"},{"name":"塩浜栄町","zip_code":"5100863"},{"name":"塩浜町","zip_code":"5100851"},{"name":"塩浜本町","zip_code":"5100854"},{"name":"鹿間町","zip_code":"5121113"},{"name":"芝田","zip_code":"5100822"},{"name":"清水町","zip_code":"5100814"},{"name":"下海老町","zip_code":"5121203"},{"name":"下さざらい町","zip_code":"5108033"},{"name":"下之宮町","zip_code":"5108028"},{"name":"昌栄町","zip_code":"5100057"},{"name":"松泉町","zip_code":"5100867"},{"name":"白須賀","zip_code":"5100018"},{"name":"城北町","zip_code":"5100823"},{"name":"城西町","zip_code":"5100829"},{"name":"城東町","zip_code":"5100824"},{"name":"城山町","zip_code":"5100015"},{"name":"新正","zip_code":"5100064"},{"name":"新々町","zip_code":"5100094"},{"name":"新町","zip_code":"5100092"},{"name":"新浜町","zip_code":"5100024"},{"name":"十七軒町","zip_code":"5100063"},{"name":"十志町","zip_code":"5108026"},{"name":"水沢町","zip_code":"5121105"},{"name":"水沢野田町","zip_code":"5120301"},{"name":"末永","zip_code":"5100813"},{"name":"末永町","zip_code":"5100807"},{"name":"末広町","zip_code":"5100052"},{"name":"菅原町","zip_code":"5120925"},{"name":"住吉町","zip_code":"5108003"},{"name":"諏訪栄町","zip_code":"5100086"},{"name":"諏訪町","zip_code":"5100085"},{"name":"曽井町","zip_code":"5120922"},{"name":"大協町","zip_code":"5100022"},{"name":"平町","zip_code":"5108017"},{"name":"高旭町","zip_code":"5100857"},{"name":"高砂町","zip_code":"5100042"},{"name":"高角町","zip_code":"5120923"},{"name":"高花平","zip_code":"5100945"},{"name":"高浜新町","zip_code":"5100027"},{"name":"高浜町","zip_code":"5100026"},{"name":"高見台","zip_code":"5121301"},{"name":"宝町","zip_code":"5100844"},{"name":"滝川町","zip_code":"5100034"},{"name":"垂坂新町","zip_code":"5108038"},{"name":"垂坂町","zip_code":"5108037"},{"name":"智積町","zip_code":"5121212"},{"name":"千歳町","zip_code":"5100051"},{"name":"中部","zip_code":"5100082"},{"name":"千代田町","zip_code":"5128065"},{"name":"寺方町","zip_code":"5120924"},{"name":"陶栄町","zip_code":"5100035"},{"name":"堂ケ山町","zip_code":"5121115"},{"name":"東新町","zip_code":"5100025"},{"name":"東邦町","zip_code":"5100848"},{"name":"ときわ","zip_code":"5100834"},{"name":"泊小柳町","zip_code":"5100883"},{"name":"泊町","zip_code":"5100884"},{"name":"泊村","zip_code":"5100894"},{"name":"泊山崎町","zip_code":"5100892"},{"name":"富州原町","zip_code":"5108016"},{"name":"富田","zip_code":"5108014"},{"name":"富田一色町","zip_code":"5108004"},{"name":"富田栄町","zip_code":"5108025"},{"name":"富田浜町","zip_code":"5108008"},{"name":"富田浜元町","zip_code":"5108007"},{"name":"中川原","zip_code":"5100833"},{"name":"中里町","zip_code":"5100864"},{"name":"中納屋町","zip_code":"5100048"},{"name":"中野町","zip_code":"5121304"},{"name":"中浜田町","zip_code":"5100065"},{"name":"中町","zip_code":"5100096"},{"name":"中村町","zip_code":"5128044"},{"name":"七つ屋町","zip_code":"5100856"},{"name":"西阿倉川","zip_code":"5100812"},{"name":"西伊倉町","zip_code":"5100831"},{"name":"西浦","zip_code":"5100071"},{"name":"西大鐘町","zip_code":"5128052"},{"name":"西坂部町","zip_code":"5120913"},{"name":"西新地","zip_code":"5100087"},{"name":"西末広町","zip_code":"5100058"},{"name":"西富田","zip_code":"5108023"},{"name":"西富田町","zip_code":"5108024"},{"name":"西浜田町","zip_code":"5100073"},{"name":"西日野町","zip_code":"5100943"},{"name":"西町","zip_code":"5100089"},{"name":"西松本町","zip_code":"5100837"},{"name":"西村町","zip_code":"5121305"},{"name":"西山町","zip_code":"5121103"},{"name":"野田","zip_code":"5100815"},{"name":"波木が丘町","zip_code":"5100962"},{"name":"波木町","zip_code":"5100961"},{"name":"波木南台","zip_code":"5100963"},{"name":"馳出","zip_code":"5100868"},{"name":"馳出町","zip_code":"5100855"},{"name":"八王子町","zip_code":"5100947"},{"name":"八幡町","zip_code":"5100097"},{"name":"八田","zip_code":"5100001"},{"name":"羽津","zip_code":"5100012"},{"name":"羽津町","zip_code":"5100017"},{"name":"羽津中","zip_code":"5100002"},{"name":"羽津山町","zip_code":"5100016"},{"name":"浜旭町","zip_code":"5100852"},{"name":"浜一色町","zip_code":"5100031"},{"name":"浜園町","zip_code":"5108009"},{"name":"浜田町","zip_code":"5100067"},{"name":"浜町","zip_code":"5100046"},{"name":"万古町","zip_code":"5100804"},{"name":"東阿倉川","zip_code":"5100805"},{"name":"東ケ谷","zip_code":"5120907"},{"name":"東坂部町","zip_code":"5120904"},{"name":"東垂坂町","zip_code":"5108035"},{"name":"東富田町","zip_code":"5108006"},{"name":"東日野","zip_code":"5100941"},{"name":"東日野町","zip_code":"5100942"},{"name":"東茂福町","zip_code":"5108011"},{"name":"日永","zip_code":"5100885"},{"name":"日永東","zip_code":"5100886"},{"name":"日永西","zip_code":"5100891"},{"name":"平尾町","zip_code":"5121205"},{"name":"広永町","zip_code":"5128061"},{"name":"富士町","zip_code":"5100013"},{"name":"富双","zip_code":"5108005"},{"name":"平津新町","zip_code":"5128043"},{"name":"平津町","zip_code":"5128042"},{"name":"別名","zip_code":"5100007"},{"name":"別山","zip_code":"5120936"},{"name":"堀木","zip_code":"5100076"},{"name":"本郷町","zip_code":"5100806"},{"name":"本町","zip_code":"5100093"},{"name":"前田町","zip_code":"5100893"},{"name":"蒔田","zip_code":"5108022"},{"name":"まきの木台","zip_code":"5121306"},{"name":"松寺","zip_code":"5108021"},{"name":"松原町","zip_code":"5108015"},{"name":"松本","zip_code":"5100836"},{"name":"三重","zip_code":"5120912"},{"name":"美里町","zip_code":"5121104"},{"name":"御薗町","zip_code":"5100862"},{"name":"三滝台","zip_code":"5120933"},{"name":"三田町","zip_code":"5100841"},{"name":"三ツ谷町","zip_code":"5100802"},{"name":"三ツ谷東町","zip_code":"5100801"},{"name":"緑丘町","zip_code":"5100006"},{"name":"南いかるが町","zip_code":"5100008"},{"name":"南起町","zip_code":"5100056"},{"name":"南小松町","zip_code":"5100971"},{"name":"南坂部町","zip_code":"5120914"},{"name":"南垂坂町","zip_code":"5108036"},{"name":"南富田町","zip_code":"5108013"},{"name":"南納屋町","zip_code":"5100043"},{"name":"南浜田町","zip_code":"5100066"},{"name":"南松本町","zip_code":"5100838"},{"name":"宮東町","zip_code":"5100843"},{"name":"海山道町","zip_code":"5100845"},{"name":"みゆきケ丘","zip_code":"5100811"},{"name":"室山町","zip_code":"5100948"},{"name":"茂福","zip_code":"5108027"},{"name":"茂福町","zip_code":"5108012"},{"name":"元新町","zip_code":"5100095"},{"name":"元町","zip_code":"5100088"},{"name":"森カ山町","zip_code":"5100957"},{"name":"安島","zip_code":"5100075"},{"name":"八千代台","zip_code":"5128047"},{"name":"柳町","zip_code":"5100861"},{"name":"山分町","zip_code":"5128041"},{"name":"山城町","zip_code":"5128048"},{"name":"山田町","zip_code":"5121111"},{"name":"山手町","zip_code":"5100005"},{"name":"山之一色町","zip_code":"5120906"},{"name":"山村町","zip_code":"5128063"},{"name":"六名町","zip_code":"5121116"},{"name":"六呂見","zip_code":"5100881"},{"name":"和無田町","zip_code":"5121114"}]},{"name":"伊勢市","divisions":[{"name":"旭町","zip_code":"5160045"},{"name":"朝熊町","zip_code":"5170081"},{"name":"有滝町","zip_code":"5150501"},{"name":"粟野町","zip_code":"5160054"},{"name":"磯町","zip_code":"5150504"},{"name":"一宇田町","zip_code":"5160022"},{"name":"一志町","zip_code":"5160075"},{"name":"一之木","zip_code":"5160071"},{"name":"一色町","zip_code":"5160011"},{"name":"岩渕","zip_code":"5160037"},{"name":"岩渕町","zip_code":"5160038"},{"name":"上地町","zip_code":"5160051"},{"name":"上野町","zip_code":"5161104"},{"name":"植山町","zip_code":"5150506"},{"name":"宇治今在家町","zip_code":"5160024"},{"name":"宇治館町","zip_code":"5160023"},{"name":"宇治中之切町","zip_code":"5160025"},{"name":"宇治浦田","zip_code":"5160026"},{"name":"浦口","zip_code":"5160062"},{"name":"浦口町","zip_code":"5160063"},{"name":"円座町","zip_code":"5161108"},{"name":"大倉町","zip_code":"5161101"},{"name":"大世古","zip_code":"5160079"},{"name":"大湊町","zip_code":"5160001"},{"name":"岡本","zip_code":"5160036"},{"name":"尾上町","zip_code":"5160031"},{"name":"小俣町明野","zip_code":"5190501"},{"name":"小俣町新村","zip_code":"5190507"},{"name":"小俣町相合","zip_code":"5190502"},{"name":"小俣町本町","zip_code":"5190505"},{"name":"小俣町宮前","zip_code":"5190504"},{"name":"小俣町元町","zip_code":"5190503"},{"name":"小俣町湯田","zip_code":"5190506"},{"name":"柏町","zip_code":"5150508"},{"name":"樫原町","zip_code":"5150503"},{"name":"鹿海町","zip_code":"5160013"},{"name":"神薗町","zip_code":"5161107"},{"name":"神社港","zip_code":"5160004"},{"name":"河崎","zip_code":"5160009"},{"name":"川端町","zip_code":"5160052"},{"name":"楠部町","zip_code":"5160014"},{"name":"久世戸町","zip_code":"5160015"},{"name":"黒瀬町","zip_code":"5160018"},{"name":"小木町","zip_code":"5160007"},{"name":"神田久志本町","zip_code":"5160016"},{"name":"桜木町","zip_code":"5160027"},{"name":"下野町","zip_code":"5160003"},{"name":"神久","zip_code":"5160017"},{"name":"勢田町","zip_code":"5160035"},{"name":"佐八町","zip_code":"5161102"},{"name":"曽祢","zip_code":"5160078"},{"name":"竹ケ鼻町","zip_code":"5160005"},{"name":"田尻町","zip_code":"5160006"},{"name":"辻久留","zip_code":"5160066"},{"name":"辻久留町","zip_code":"5160046"},{"name":"津村町","zip_code":"5161103"},{"name":"通町","zip_code":"5160012"},{"name":"常磐","zip_code":"5160041"},{"name":"常磐町","zip_code":"5160047"},{"name":"豊川町","zip_code":"5160042"},{"name":"中島","zip_code":"5160067"},{"name":"中須町","zip_code":"5160053"},{"name":"中之町","zip_code":"5160034"},{"name":"中村町","zip_code":"5160028"},{"name":"西豊浜町","zip_code":"5150505"},{"name":"野村町","zip_code":"5150511"},{"name":"東大淀町","zip_code":"5150509"},{"name":"東豊浜町","zip_code":"5150502"},{"name":"吹上","zip_code":"5160073"},{"name":"藤里町","zip_code":"5160043"},{"name":"二俣","zip_code":"5160064"},{"name":"二俣町","zip_code":"5160065"},{"name":"二見町今一色","zip_code":"5190608"},{"name":"二見町江","zip_code":"5190602"},{"name":"二見町荘","zip_code":"5190606"},{"name":"二見町茶屋","zip_code":"5190609"},{"name":"二見町西","zip_code":"5190607"},{"name":"二見町光の街","zip_code":"5190611"},{"name":"二見町松下","zip_code":"5190601"},{"name":"二見町溝口","zip_code":"5190605"},{"name":"二見町三津","zip_code":"5190603"},{"name":"二見町山田原","zip_code":"5190604"},{"name":"船江","zip_code":"5160008"},{"name":"古市町","zip_code":"5160033"},{"name":"本町","zip_code":"5160074"},{"name":"前山町","zip_code":"5160044"},{"name":"馬瀬町","zip_code":"5160002"},{"name":"御薗町王中島","zip_code":"5160803"},{"name":"御薗町小林","zip_code":"5160801"},{"name":"御薗町上條","zip_code":"5150521"},{"name":"御薗町新開","zip_code":"5160802"},{"name":"御薗町高向","zip_code":"5160805"},{"name":"御薗町長屋","zip_code":"5160804"},{"name":"宮川","zip_code":"5160061"},{"name":"宮後","zip_code":"5160072"},{"name":"宮町","zip_code":"5160077"},{"name":"村松町","zip_code":"5150507"},{"name":"倭町","zip_code":"5160032"},{"name":"矢持町","zip_code":"5161105"},{"name":"八日市場町","zip_code":"5160076"},{"name":"横輪町","zip_code":"5161106"}]},{"name":"松阪市","divisions":[{"name":"阿形町","zip_code":"5150823"},{"name":"朝田町","zip_code":"5150027"},{"name":"朝日町","zip_code":"5150004"},{"name":"朝日町一区","zip_code":"5150003"},{"name":"愛宕町","zip_code":"5150037"},{"name":"荒木町","zip_code":"5150007"},{"name":"阿波曽町","zip_code":"5192146"},{"name":"安楽町","zip_code":"5150207"},{"name":"飯高町赤桶","zip_code":"5151505"},{"name":"飯高町粟野","zip_code":"5151613"},{"name":"飯高町猿山","zip_code":"5151617"},{"name":"飯高町青田","zip_code":"5151616"},{"name":"飯高町落方","zip_code":"5151732"},{"name":"飯高町乙栗子","zip_code":"5151723"},{"name":"飯高町加波","zip_code":"5151722"},{"name":"飯高町木梶","zip_code":"5151734"},{"name":"飯高町桑原","zip_code":"5151724"},{"name":"飯高町作滝","zip_code":"5151504"},{"name":"飯高町下滝野","zip_code":"5151501"},{"name":"飯高町草鹿野","zip_code":"5151727"},{"name":"飯高町田引","zip_code":"5151506"},{"name":"飯高町太良木","zip_code":"5151726"},{"name":"飯高町月出","zip_code":"5151721"},{"name":"飯高町栃谷","zip_code":"5151733"},{"name":"飯高町富永","zip_code":"5151612"},{"name":"飯高町七日市","zip_code":"5151611"},{"name":"飯高町野々口","zip_code":"5151503"},{"name":"飯高町波瀬","zip_code":"5151725"},{"name":"飯高町蓮","zip_code":"5151618"},{"name":"飯高町舟戸","zip_code":"5151731"},{"name":"飯高町宮前","zip_code":"5151502"},{"name":"飯高町宮本","zip_code":"5151614"},{"name":"飯高町森","zip_code":"5151615"},{"name":"飯南町有間野","zip_code":"5151413"},{"name":"飯南町上仁柿","zip_code":"5151304"},{"name":"飯南町粥見","zip_code":"5151411"},{"name":"飯南町下仁柿","zip_code":"5151303"},{"name":"飯南町深野","zip_code":"5151301"},{"name":"飯南町向粥見","zip_code":"5151412"},{"name":"飯南町横野","zip_code":"5151302"},{"name":"井口中町","zip_code":"5150126"},{"name":"射和町","zip_code":"5192145"},{"name":"石津町","zip_code":"5150006"},{"name":"五十鈴町","zip_code":"5150086"},{"name":"出間町","zip_code":"5150113"},{"name":"泉町","zip_code":"5150066"},{"name":"伊勢寺町","zip_code":"5150845"},{"name":"伊勢場町","zip_code":"5150213"},{"name":"市場庄町","zip_code":"5152121"},{"name":"稲木町","zip_code":"5150212"},{"name":"飯福田町","zip_code":"5152412"},{"name":"井村町","zip_code":"5150817"},{"name":"上川町","zip_code":"5150041"},{"name":"魚町","zip_code":"5150082"},{"name":"魚見町","zip_code":"5150128"},{"name":"牛草町","zip_code":"5150116"},{"name":"後山町","zip_code":"5152413"},{"name":"内五曲町","zip_code":"5150072"},{"name":"嬉野一志町","zip_code":"5152305"},{"name":"嬉野井之上町","zip_code":"5152351"},{"name":"嬉野岩倉町","zip_code":"5152403"},{"name":"嬉野上野町","zip_code":"5152356"},{"name":"嬉野小原町","zip_code":"5152405"},{"name":"嬉野上小川町","zip_code":"5152404"},{"name":"嬉野神ノ木町","zip_code":"5152357"},{"name":"嬉野釜生田町","zip_code":"5152401"},{"name":"嬉野川北町","zip_code":"5152316"},{"name":"嬉野川原木造町","zip_code":"5152313"},{"name":"嬉野黒田町","zip_code":"5152311"},{"name":"嬉野黒野町","zip_code":"5152334"},{"name":"嬉野合ケ野町","zip_code":"5152406"},{"name":"嬉野小村町","zip_code":"5152315"},{"name":"嬉野権現前町","zip_code":"5152323"},{"name":"嬉野算所町","zip_code":"5152335"},{"name":"嬉野島田町","zip_code":"5152301"},{"name":"嬉野下之庄町","zip_code":"5152354"},{"name":"嬉野須賀町","zip_code":"5152322"},{"name":"嬉野須賀領町","zip_code":"5152331"},{"name":"嬉野滝之川町","zip_code":"5152409"},{"name":"嬉野田村町","zip_code":"5152333"},{"name":"嬉野津屋城町","zip_code":"5152332"},{"name":"嬉野天花寺町","zip_code":"5152302"},{"name":"嬉野中川新町","zip_code":"5152325"},{"name":"嬉野中川町","zip_code":"5152321"},{"name":"嬉野新屋庄町","zip_code":"5152314"},{"name":"嬉野野田町","zip_code":"5152317"},{"name":"嬉野八田町","zip_code":"5152352"},{"name":"嬉野平生町","zip_code":"5152304"},{"name":"嬉野堀之内町","zip_code":"5152353"},{"name":"嬉野見永町","zip_code":"5152312"},{"name":"嬉野宮古町","zip_code":"5152303"},{"name":"嬉野宮野町","zip_code":"5152408"},{"name":"嬉野森本町","zip_code":"5152402"},{"name":"嬉野矢下町","zip_code":"5152407"},{"name":"嬉野薬王寺町","zip_code":"5152355"},{"name":"嬉野町","zip_code":"5152324"},{"name":"大石町","zip_code":"5151205"},{"name":"大阿坂町","zip_code":"5152342"},{"name":"大垣内町","zip_code":"5150114"},{"name":"大口町","zip_code":"5150001"},{"name":"大黒田町","zip_code":"5150063"},{"name":"大塚町","zip_code":"5150813"},{"name":"大津町","zip_code":"5150031"},{"name":"小野町","zip_code":"5152341"},{"name":"大平尾町","zip_code":"5150804"},{"name":"大宮田町","zip_code":"5150024"},{"name":"小片野町","zip_code":"5151204"},{"name":"岡本町","zip_code":"5150831"},{"name":"岡山町","zip_code":"5150834"},{"name":"大河内町","zip_code":"5151105"},{"name":"白粉町","zip_code":"5150076"},{"name":"小津町","zip_code":"5152114"},{"name":"乙部町","zip_code":"5150117"},{"name":"小野江町","zip_code":"5152109"},{"name":"大足町","zip_code":"5150822"},{"name":"垣内田町","zip_code":"5150118"},{"name":"垣鼻町","zip_code":"5150033"},{"name":"柿木原町","zip_code":"5150111"},{"name":"笠松町","zip_code":"5152103"},{"name":"春日町","zip_code":"5150078"},{"name":"桂瀬町","zip_code":"5151104"},{"name":"鎌田町","zip_code":"5150005"},{"name":"上蛸路町","zip_code":"5192141"},{"name":"上七見町","zip_code":"5150201"},{"name":"上ノ庄町","zip_code":"5152123"},{"name":"川井町","zip_code":"5150818"},{"name":"川島町","zip_code":"5150122"},{"name":"神守町","zip_code":"5150119"},{"name":"喜多村新田町","zip_code":"5152113"},{"name":"木の郷町","zip_code":"5150088"},{"name":"京町","zip_code":"5150017"},{"name":"京町一区","zip_code":"5150018"},{"name":"櫛田町","zip_code":"5150204"},{"name":"久保田町","zip_code":"5150814"},{"name":"久保町","zip_code":"5150044"},{"name":"久米町","zip_code":"5152122"},{"name":"黒田町","zip_code":"5150061"},{"name":"小阿坂町","zip_code":"5152343"},{"name":"古井町","zip_code":"5150021"},{"name":"幸生町","zip_code":"5150013"},{"name":"広陽町","zip_code":"5150053"},{"name":"小黒田町","zip_code":"5150062"},{"name":"郷津町","zip_code":"5150002"},{"name":"五反田町","zip_code":"5150064"},{"name":"御殿山町","zip_code":"5150057"},{"name":"五主町","zip_code":"5152102"},{"name":"小舟江町","zip_code":"5152104"},{"name":"阪内町","zip_code":"5151107"},{"name":"佐久米町","zip_code":"5150028"},{"name":"桜町","zip_code":"5150071"},{"name":"笹川町","zip_code":"5151103"},{"name":"五月町","zip_code":"5150065"},{"name":"清水町","zip_code":"5150203"},{"name":"下蛸路町","zip_code":"5192142"},{"name":"下七見町","zip_code":"5150023"},{"name":"下村町","zip_code":"5150043"},{"name":"庄町","zip_code":"5192147"},{"name":"新開町","zip_code":"5150123"},{"name":"新座町","zip_code":"5150074"},{"name":"新町","zip_code":"5150075"},{"name":"新松ケ島町","zip_code":"5150801"},{"name":"新屋敷町","zip_code":"5150022"},{"name":"末広町","zip_code":"5150016"},{"name":"菅生町","zip_code":"5150202"},{"name":"清生町","zip_code":"5150039"},{"name":"勢津町","zip_code":"5151101"},{"name":"外五曲町","zip_code":"5150821"},{"name":"曽原町","zip_code":"5152112"},{"name":"田牧町","zip_code":"5150842"},{"name":"高木町","zip_code":"5150211"},{"name":"高須町","zip_code":"5150104"},{"name":"高町","zip_code":"5150011"},{"name":"宝塚町","zip_code":"5150056"},{"name":"立野町","zip_code":"5150054"},{"name":"立田町","zip_code":"5150026"},{"name":"田村町","zip_code":"5150055"},{"name":"田原町","zip_code":"5150032"},{"name":"茅原町","zip_code":"5151202"},{"name":"茶与町","zip_code":"5150077"},{"name":"中央町","zip_code":"5150019"},{"name":"中万町","zip_code":"5192143"},{"name":"長月町","zip_code":"5150035"},{"name":"塚本町","zip_code":"5150811"},{"name":"辻原町","zip_code":"5151106"},{"name":"土古路町","zip_code":"5150112"},{"name":"殿町","zip_code":"5150073"},{"name":"殿村町","zip_code":"5150843"},{"name":"豊原町","zip_code":"5150205"},{"name":"中ノ庄町","zip_code":"5152124"},{"name":"中林町","zip_code":"5152111"},{"name":"中町","zip_code":"5150083"},{"name":"中道町","zip_code":"5152115"},{"name":"西黒部町","zip_code":"5150103"},{"name":"西之庄町","zip_code":"5150816"},{"name":"西野町","zip_code":"5150833"},{"name":"西野々町","zip_code":"5150029"},{"name":"西肥留町","zip_code":"5152106"},{"name":"西町","zip_code":"5150815"},{"name":"虹が丘町","zip_code":"5150042"},{"name":"丹生寺町","zip_code":"5150832"},{"name":"野村町","zip_code":"5150848"},{"name":"甚目町","zip_code":"5152108"},{"name":"八太町","zip_code":"5192144"},{"name":"早馬瀬町","zip_code":"5150217"},{"name":"腹太町","zip_code":"5150125"},{"name":"日丘町","zip_code":"5150835"},{"name":"光町","zip_code":"5150051"},{"name":"東久保町","zip_code":"5150121"},{"name":"東黒部町","zip_code":"5150101"},{"name":"東町","zip_code":"5150012"},{"name":"挽木町","zip_code":"5150038"},{"name":"日野町","zip_code":"5150084"},{"name":"平生町","zip_code":"5150036"},{"name":"肥留町","zip_code":"5152105"},{"name":"広瀬町","zip_code":"5151201"},{"name":"深長町","zip_code":"5150846"},{"name":"藤之木町","zip_code":"5150825"},{"name":"船江町","zip_code":"5150812"},{"name":"平成町","zip_code":"5150824"},{"name":"法田町","zip_code":"5150214"},{"name":"保津町","zip_code":"5150124"},{"name":"星合町","zip_code":"5152101"},{"name":"本町","zip_code":"5150081"},{"name":"舞出町","zip_code":"5152107"},{"name":"駅部田町","zip_code":"5150045"},{"name":"曲町","zip_code":"5150841"},{"name":"町平尾町","zip_code":"5150803"},{"name":"松ケ島町","zip_code":"5152133"},{"name":"松崎浦町","zip_code":"5152132"},{"name":"松名瀬町","zip_code":"5150102"},{"name":"御麻生薗町","zip_code":"5192148"},{"name":"湊町","zip_code":"5150085"},{"name":"南虹が丘町","zip_code":"5150046"},{"name":"南町","zip_code":"5150034"},{"name":"美濃田町","zip_code":"5152344"},{"name":"宮町","zip_code":"5150015"},{"name":"目田町","zip_code":"5150216"},{"name":"萌木町","zip_code":"5150087"},{"name":"八重田町","zip_code":"5150844"},{"name":"矢津町","zip_code":"5151102"},{"name":"山下町","zip_code":"5150206"},{"name":"山添町","zip_code":"5150208"},{"name":"山室町","zip_code":"5150052"},{"name":"柚原町","zip_code":"5152414"},{"name":"岩内町","zip_code":"5150847"},{"name":"横地町","zip_code":"5150215"},{"name":"与原町","zip_code":"5152411"},{"name":"猟師町","zip_code":"5150802"},{"name":"蓮花寺町","zip_code":"5150115"},{"name":"六呂木町","zip_code":"5151203"},{"name":"六軒町","zip_code":"5152131"},{"name":"六根町","zip_code":"5150127"},{"name":"若葉町","zip_code":"5150014"},{"name":"和屋町","zip_code":"5150025"}]},{"name":"桑名市","divisions":[{"name":"相生町","zip_code":"5110016"},{"name":"相川町","zip_code":"5110052"},{"name":"青葉町","zip_code":"5110817"},{"name":"赤須賀","zip_code":"5110033"},{"name":"赤尾","zip_code":"5110934"},{"name":"赤尾台","zip_code":"5110935"},{"name":"油町","zip_code":"5110084"},{"name":"伊賀町","zip_code":"5110036"},{"name":"和泉","zip_code":"5110838"},{"name":"一色町","zip_code":"5110046"},{"name":"今片町","zip_code":"5110017"},{"name":"今北町","zip_code":"5110006"},{"name":"今島","zip_code":"5110801"},{"name":"今中町","zip_code":"5110018"},{"name":"入江葭町","zip_code":"5110086"},{"name":"上野","zip_code":"5110825"},{"name":"内堀","zip_code":"5110038"},{"name":"馬道","zip_code":"5110822"},{"name":"梅園通","zip_code":"5110815"},{"name":"駅元町","zip_code":"5110071"},{"name":"江戸町","zip_code":"5110022"},{"name":"江場","zip_code":"5110836"},{"name":"大貝須","zip_code":"5110848"},{"name":"大仲新田","zip_code":"5110947"},{"name":"大山田","zip_code":"5110903"},{"name":"尾野山","zip_code":"5110812"},{"name":"蠣塚新田","zip_code":"5110861"},{"name":"神楽町","zip_code":"5110829"},{"name":"掛樋","zip_code":"5110067"},{"name":"鍛冶町","zip_code":"5110047"},{"name":"春日町","zip_code":"5110012"},{"name":"霞町","zip_code":"5110827"},{"name":"片町","zip_code":"5110081"},{"name":"上之輪新田","zip_code":"5110001"},{"name":"上深谷部","zip_code":"5110809"},{"name":"萱町","zip_code":"5110044"},{"name":"嘉例川","zip_code":"5110941"},{"name":"川口町","zip_code":"5110021"},{"name":"川崎町","zip_code":"5110802"},{"name":"北魚町","zip_code":"5110024"},{"name":"北川原台","zip_code":"5110804"},{"name":"北寺町","zip_code":"5110073"},{"name":"北鍋屋町","zip_code":"5110066"},{"name":"北別所","zip_code":"5110819"},{"name":"希望ケ丘","zip_code":"5110851"},{"name":"京橋町","zip_code":"5110063"},{"name":"京町","zip_code":"5110039"},{"name":"清竹の丘","zip_code":"5110810"},{"name":"桑名","zip_code":"5110009"},{"name":"桑部","zip_code":"5110923"},{"name":"小泉","zip_code":"5110837"},{"name":"小貝須","zip_code":"5110841"},{"name":"五反田","zip_code":"5110946"},{"name":"寿町","zip_code":"5110061"},{"name":"紺屋町","zip_code":"5110085"},{"name":"坂井","zip_code":"5110939"},{"name":"桜通","zip_code":"5110813"},{"name":"里町","zip_code":"5110913"},{"name":"三栄町","zip_code":"5110075"},{"name":"参宮通","zip_code":"5110007"},{"name":"三之丸","zip_code":"5110031"},{"name":"汐見町","zip_code":"5110816"},{"name":"繁松新田","zip_code":"5110824"},{"name":"地蔵","zip_code":"5110034"},{"name":"志知","zip_code":"5110937"},{"name":"島田","zip_code":"5110936"},{"name":"清水町","zip_code":"5110019"},{"name":"下深谷部","zip_code":"5110808"},{"name":"城南萱町","zip_code":"5110846"},{"name":"職人町","zip_code":"5110083"},{"name":"新倉持","zip_code":"5110855"},{"name":"神成町","zip_code":"5110866"},{"name":"新地","zip_code":"5110832"},{"name":"新築町","zip_code":"5110064"},{"name":"新西方","zip_code":"5110863"},{"name":"新町","zip_code":"5110048"},{"name":"新屋敷","zip_code":"5110043"},{"name":"新矢田","zip_code":"5110069"},{"name":"末広町","zip_code":"5110077"},{"name":"住吉町","zip_code":"5110004"},{"name":"船馬町","zip_code":"5110011"},{"name":"桑栄町","zip_code":"5110078"},{"name":"外堀","zip_code":"5110041"},{"name":"大央町","zip_code":"5110065"},{"name":"太一丸","zip_code":"5110005"},{"name":"大福","zip_code":"5110834"},{"name":"太平町","zip_code":"5110843"},{"name":"高塚町","zip_code":"5110818"},{"name":"立花町","zip_code":"5110828"},{"name":"立田町","zip_code":"5110842"},{"name":"多度町猪飼","zip_code":"5110124"},{"name":"多度町大鳥居","zip_code":"5110116"},{"name":"多度町小山","zip_code":"5110105"},{"name":"多度町香取","zip_code":"5110102"},{"name":"多度町上之郷","zip_code":"5110113"},{"name":"多度町北猪飼","zip_code":"5110123"},{"name":"多度町古野","zip_code":"5110122"},{"name":"多度町下野代","zip_code":"5110117"},{"name":"多度町多度","zip_code":"5110106"},{"name":"多度町力尾","zip_code":"5110125"},{"name":"多度町戸津","zip_code":"5110103"},{"name":"多度町中須","zip_code":"5110114"},{"name":"多度町肱江","zip_code":"5110104"},{"name":"多度町平古","zip_code":"5110111"},{"name":"多度町美鹿","zip_code":"5110121"},{"name":"多度町福永","zip_code":"5110112"},{"name":"多度町御衣野","zip_code":"5110118"},{"name":"多度町南之郷","zip_code":"5110115"},{"name":"多度町柚井","zip_code":"5110101"},{"name":"田町","zip_code":"5110089"},{"name":"太夫","zip_code":"5110826"},{"name":"中央町","zip_code":"5110068"},{"name":"千代田町","zip_code":"5110058"},{"name":"筑紫","zip_code":"5110945"},{"name":"筒尾","zip_code":"5110901"},{"name":"堤原","zip_code":"5110072"},{"name":"伝馬町","zip_code":"5110045"},{"name":"常盤町","zip_code":"5110062"},{"name":"殿町","zip_code":"5110015"},{"name":"友村","zip_code":"5110938"},{"name":"長島町赤地","zip_code":"5111131"},{"name":"長島町浦安","zip_code":"5111135"},{"name":"長島町大倉","zip_code":"5111112"},{"name":"長島町大島","zip_code":"5111145"},{"name":"長島町押付","zip_code":"5111113"},{"name":"長島町鎌ケ地","zip_code":"5111123"},{"name":"長島町上坂手","zip_code":"5111107"},{"name":"長島町北殿名","zip_code":"5111148"},{"name":"長島町源部外面","zip_code":"5111125"},{"name":"長島町高座","zip_code":"5111104"},{"name":"長島町小島","zip_code":"5111111"},{"name":"長島町駒江","zip_code":"5111144"},{"name":"長島町下坂手","zip_code":"5111106"},{"name":"長島町新所","zip_code":"5111101"},{"name":"長島町杉江","zip_code":"5111108"},{"name":"長島町千倉","zip_code":"5111105"},{"name":"長島町出口","zip_code":"5111142"},{"name":"長島町十日外面","zip_code":"5111146"},{"name":"長島町殿名","zip_code":"5111127"},{"name":"長島町中川","zip_code":"5111103"},{"name":"長島町長島萱町","zip_code":"5111116"},{"name":"長島町長島下町","zip_code":"5111114"},{"name":"長島町長島中町","zip_code":"5111115"},{"name":"長島町西川","zip_code":"5111102"},{"name":"長島町西外面","zip_code":"5111143"},{"name":"長島町西外面市街","zip_code":"5111149"},{"name":"長島町白鶏","zip_code":"5111136"},{"name":"長島町東殿名","zip_code":"5111121"},{"name":"長島町平方","zip_code":"5111147"},{"name":"長島町福豊","zip_code":"5111132"},{"name":"長島町福吉","zip_code":"5111137"},{"name":"長島町又木","zip_code":"5111126"},{"name":"長島町又木市街","zip_code":"5111128"},{"name":"長島町松蔭","zip_code":"5111134"},{"name":"長島町松ケ島","zip_code":"5111122"},{"name":"長島町松之木","zip_code":"5111109"},{"name":"長島町間々","zip_code":"5111141"},{"name":"長島町横満蔵","zip_code":"5111133"},{"name":"長島町葭ケ須","zip_code":"5111124"},{"name":"中山町","zip_code":"5110914"},{"name":"西方","zip_code":"5110864"},{"name":"西金井","zip_code":"5110922"},{"name":"西正和台","zip_code":"5110933"},{"name":"西鍋屋町","zip_code":"5110054"},{"name":"西別所","zip_code":"5110851"},{"name":"西矢田町","zip_code":"5110056"},{"name":"西汰上","zip_code":"5110807"},{"name":"額田","zip_code":"5110911"},{"name":"野田","zip_code":"5110904"},{"name":"能部","zip_code":"5110931"},{"name":"芳ケ崎","zip_code":"5110944"},{"name":"蓮見町","zip_code":"5110008"},{"name":"八間通","zip_code":"5110076"},{"name":"八幡町","zip_code":"5110049"},{"name":"播磨","zip_code":"5110862"},{"name":"稗田","zip_code":"5110852"},{"name":"東方","zip_code":"5110811"},{"name":"東金井","zip_code":"5110921"},{"name":"東正和台","zip_code":"5110932"},{"name":"東太一丸","zip_code":"5110003"},{"name":"東鍋屋町","zip_code":"5110053"},{"name":"東野","zip_code":"5110035"},{"name":"東矢田町","zip_code":"5110055"},{"name":"東汰上","zip_code":"5110806"},{"name":"陽だまりの丘","zip_code":"5110867"},{"name":"広見ケ丘","zip_code":"5110942"},{"name":"枇杷島台","zip_code":"5110803"},{"name":"深谷町","zip_code":"5110805"},{"name":"福江","zip_code":"5110847"},{"name":"福江町","zip_code":"5110833"},{"name":"福岡町","zip_code":"5110844"},{"name":"福島","zip_code":"5110002"},{"name":"福島新町","zip_code":"5110027"},{"name":"福地","zip_code":"5110845"},{"name":"藤が丘","zip_code":"5110865"},{"name":"風呂町","zip_code":"5110025"},{"name":"宝殿町","zip_code":"5110013"},{"name":"星川","zip_code":"5110912"},{"name":"星見ケ丘","zip_code":"5110912"},{"name":"本願寺","zip_code":"5110835"},{"name":"本町","zip_code":"5110023"},{"name":"益生町","zip_code":"5110831"},{"name":"増田","zip_code":"5110853"},{"name":"松並町","zip_code":"5110814"},{"name":"松ノ木","zip_code":"5110902"},{"name":"三崎通","zip_code":"5110014"},{"name":"三ツ矢橋","zip_code":"5110057"},{"name":"南魚町","zip_code":"5110088"},{"name":"南寺町","zip_code":"5110074"},{"name":"宮通","zip_code":"5110082"},{"name":"宮町","zip_code":"5110026"},{"name":"明正町","zip_code":"5110823"},{"name":"元赤須賀","zip_code":"5110037"},{"name":"森忠","zip_code":"5110943"},{"name":"安永","zip_code":"5110839"},{"name":"矢田","zip_code":"5110821"},{"name":"矢田磧","zip_code":"5110051"},{"name":"柳原","zip_code":"5110042"},{"name":"有楽町","zip_code":"5110079"},{"name":"吉之丸","zip_code":"5110032"},{"name":"吉津屋町","zip_code":"5110087"},{"name":"蓮花寺","zip_code":"5110854"}]},{"name":"鈴鹿市","divisions":[{"name":"秋永町","zip_code":"5100258"},{"name":"阿古曽町","zip_code":"5130828"},{"name":"飯野寺家町","zip_code":"5130802"},{"name":"池田町","zip_code":"5130032"},{"name":"石垣","zip_code":"5130855"},{"name":"石薬師町","zip_code":"5130012"},{"name":"和泉町","zip_code":"5130006"},{"name":"磯山","zip_code":"5100256"},{"name":"磯山町","zip_code":"5100255"},{"name":"一ノ宮町","zip_code":"5130031"},{"name":"稲生","zip_code":"5100205"},{"name":"稲生こがね園","zip_code":"5100206"},{"name":"稲生塩屋","zip_code":"5100207"},{"name":"稲生町","zip_code":"5100201"},{"name":"稲生西","zip_code":"5100204"},{"name":"伊船町","zip_code":"5190323"},{"name":"五祝町","zip_code":"5100252"},{"name":"上田町","zip_code":"5130018"},{"name":"上野町","zip_code":"5130017"},{"name":"江島台","zip_code":"5100231"},{"name":"江島町","zip_code":"5100237"},{"name":"江島本町","zip_code":"5100234"},{"name":"追分町","zip_code":"5190313"},{"name":"越知町","zip_code":"5100262"},{"name":"大池","zip_code":"5130827"},{"name":"大久保町","zip_code":"5190311"},{"name":"岡田","zip_code":"5130027"},{"name":"岡田町","zip_code":"5130028"},{"name":"小岐須町","zip_code":"5190316"},{"name":"小田町","zip_code":"5130007"},{"name":"甲斐町","zip_code":"5130021"},{"name":"加佐登","zip_code":"5130004"},{"name":"加佐登町","zip_code":"5130003"},{"name":"上箕田","zip_code":"5130056"},{"name":"上箕田町","zip_code":"5130055"},{"name":"神戸","zip_code":"5130801"},{"name":"神戸本多町","zip_code":"5130801"},{"name":"岸岡町","zip_code":"5100226"},{"name":"岸田町","zip_code":"5131121"},{"name":"北江島町","zip_code":"5100232"},{"name":"北玉垣町","zip_code":"5130813"},{"name":"北長太町","zip_code":"5130049"},{"name":"北堀江","zip_code":"5130045"},{"name":"北堀江町","zip_code":"5130044"},{"name":"北若松町","zip_code":"5100221"},{"name":"木田町","zip_code":"5130015"},{"name":"汲川原町","zip_code":"5130005"},{"name":"河田町","zip_code":"5130023"},{"name":"国府町","zip_code":"5130836"},{"name":"郡山町","zip_code":"5100263"},{"name":"国分町","zip_code":"5130013"},{"name":"小社町","zip_code":"5190324"},{"name":"桜島町","zip_code":"5130817"},{"name":"算所","zip_code":"5130806"},{"name":"算所町","zip_code":"5130805"},{"name":"寺家","zip_code":"5100254"},{"name":"寺家町","zip_code":"5100253"},{"name":"地子町","zip_code":"5130821"},{"name":"下大久保町","zip_code":"5131123"},{"name":"下箕田","zip_code":"5130052"},{"name":"下箕田町","zip_code":"5130051"},{"name":"自由ヶ丘","zip_code":"5131124"},{"name":"庄野共進","zip_code":"5130833"},{"name":"庄野羽山","zip_code":"5130834"},{"name":"庄野東","zip_code":"5130832"},{"name":"庄野町","zip_code":"5130831"},{"name":"白子","zip_code":"5100243"},{"name":"白子駅前","zip_code":"5100241"},{"name":"白子本町","zip_code":"5100242"},{"name":"白子町","zip_code":"5100244"},{"name":"末広北","zip_code":"5130854"},{"name":"末広町","zip_code":"5130822"},{"name":"末広西","zip_code":"5130852"},{"name":"末広東","zip_code":"5130851"},{"name":"末広南","zip_code":"5130853"},{"name":"須賀","zip_code":"5130034"},{"name":"須賀町","zip_code":"5130033"},{"name":"鈴鹿ハイツ","zip_code":"5100208"},{"name":"住吉","zip_code":"5130826"},{"name":"住吉町","zip_code":"5130825"},{"name":"高岡台","zip_code":"5130019"},{"name":"高岡町","zip_code":"5130014"},{"name":"高塚町","zip_code":"5130011"},{"name":"竹野","zip_code":"5130025"},{"name":"竹野町","zip_code":"5130026"},{"name":"長法寺町","zip_code":"5100266"},{"name":"津賀町","zip_code":"5130002"},{"name":"椿一宮町","zip_code":"5190312"},{"name":"道伯","zip_code":"5130823"},{"name":"道伯町","zip_code":"5130824"},{"name":"徳居町","zip_code":"5100264"},{"name":"徳田町","zip_code":"5100251"},{"name":"十宮","zip_code":"5130037"},{"name":"十宮町","zip_code":"5130038"},{"name":"中旭が丘","zip_code":"5100212"},{"name":"中江島町","zip_code":"5100236"},{"name":"中瀬古町","zip_code":"5100259"},{"name":"中冨田町","zip_code":"5130009"},{"name":"中箕田","zip_code":"5130054"},{"name":"中箕田町","zip_code":"5130053"},{"name":"長澤町","zip_code":"5190314"},{"name":"長太旭町","zip_code":"5130042"},{"name":"長太栄町","zip_code":"5130043"},{"name":"長太新町","zip_code":"5130041"},{"name":"西庄内町","zip_code":"5190271"},{"name":"西条","zip_code":"5130809"},{"name":"西條町","zip_code":"5130808"},{"name":"西玉垣町","zip_code":"5130815"},{"name":"西冨田町","zip_code":"5130008"},{"name":"野町","zip_code":"5100202"},{"name":"野町中","zip_code":"5100216"},{"name":"野町西","zip_code":"5100218"},{"name":"野町東","zip_code":"5100217"},{"name":"野町南","zip_code":"5100219"},{"name":"野村町","zip_code":"5100203"},{"name":"野辺","zip_code":"5130024"},{"name":"野辺町","zip_code":"5130022"},{"name":"土師町","zip_code":"5130812"},{"name":"八野町","zip_code":"5130837"},{"name":"花川町","zip_code":"5131122"},{"name":"林崎","zip_code":"5130058"},{"name":"林崎町","zip_code":"5130059"},{"name":"東旭が丘","zip_code":"5100211"},{"name":"東磯山","zip_code":"5100257"},{"name":"東江島町","zip_code":"5100233"},{"name":"東庄内町","zip_code":"5190272"},{"name":"東玉垣町","zip_code":"5130814"},{"name":"肥田町","zip_code":"5130819"},{"name":"平田","zip_code":"5130844"},{"name":"平田新町","zip_code":"5130845"},{"name":"平田町","zip_code":"5130847"},{"name":"平田中町","zip_code":"5130846"},{"name":"平田東町","zip_code":"5130843"},{"name":"平田本町","zip_code":"5130848"},{"name":"平野町","zip_code":"5130835"},{"name":"広瀬町","zip_code":"5130001"},{"name":"深溝町","zip_code":"5190321"},{"name":"御薗町","zip_code":"5100261"},{"name":"三日市","zip_code":"5130807"},{"name":"三日市町","zip_code":"5130803"},{"name":"三日市南","zip_code":"5130804"},{"name":"南旭が丘","zip_code":"5100213"},{"name":"南江島町","zip_code":"5100235"},{"name":"南玉垣町","zip_code":"5130816"},{"name":"南長太町","zip_code":"5130048"},{"name":"南林崎町","zip_code":"5130057"},{"name":"南堀江","zip_code":"5130046"},{"name":"南堀江町","zip_code":"5130047"},{"name":"南若松町","zip_code":"5100227"},{"name":"三畑町","zip_code":"5190322"},{"name":"三宅町","zip_code":"5100265"},{"name":"安塚町","zip_code":"5130818"},{"name":"柳町","zip_code":"5130811"},{"name":"矢橋","zip_code":"5130036"},{"name":"矢橋町","zip_code":"5130035"},{"name":"山辺町","zip_code":"5130016"},{"name":"山本町","zip_code":"5190315"},{"name":"弓削","zip_code":"5130842"},{"name":"弓削町","zip_code":"5130841"},{"name":"若松中","zip_code":"5100224"},{"name":"若松東","zip_code":"5100225"},{"name":"若松西","zip_code":"5100222"},{"name":"若松北","zip_code":"5100223"}]},{"name":"名張市","divisions":[{"name":"赤目町一ノ井","zip_code":"5180468"},{"name":"赤目町柏原","zip_code":"5180464"},{"name":"赤目町相楽","zip_code":"5180467"},{"name":"赤目町新川","zip_code":"5180466"},{"name":"赤目町丈六","zip_code":"5180465"},{"name":"赤目町すみれが丘","zip_code":"5180461"},{"name":"赤目町檀","zip_code":"5180463"},{"name":"赤目町長坂","zip_code":"5180469"},{"name":"赤目町星川","zip_code":"5180462"},{"name":"朝日町","zip_code":"5180721"},{"name":"安部田","zip_code":"5180737"},{"name":"家野","zip_code":"5180607"},{"name":"井手","zip_code":"5180736"},{"name":"上本町","zip_code":"5180716"},{"name":"梅が丘北１番町","zip_code":"5180746"},{"name":"梅が丘北２番町","zip_code":"5180747"},{"name":"梅が丘北３番町","zip_code":"5180748"},{"name":"梅が丘北４番町","zip_code":"5180749"},{"name":"梅が丘北５番町","zip_code":"5180740"},{"name":"梅が丘南１番町","zip_code":"5180741"},{"name":"梅が丘南２番町","zip_code":"5180742"},{"name":"梅が丘南３番町","zip_code":"5180743"},{"name":"梅が丘南４番町","zip_code":"5180744"},{"name":"梅が丘南５番町","zip_code":"5180745"},{"name":"鵜山","zip_code":"5180608"},{"name":"大屋戸","zip_code":"5180733"},{"name":"鍛冶町","zip_code":"5180714"},{"name":"春日丘１番町","zip_code":"5180453"},{"name":"春日丘２番町","zip_code":"5180454"},{"name":"春日丘３番町","zip_code":"5180455"},{"name":"春日丘４番町","zip_code":"5180456"},{"name":"春日丘５番町","zip_code":"5180457"},{"name":"春日丘６番町","zip_code":"5180458"},{"name":"春日丘７番町","zip_code":"5180459"},{"name":"上小波田","zip_code":"5180613"},{"name":"上長瀬","zip_code":"5180502"},{"name":"上八町","zip_code":"5180710"},{"name":"上比奈知","zip_code":"5180412"},{"name":"上三谷","zip_code":"5180762"},{"name":"神屋","zip_code":"5180504"},{"name":"希央台１番町","zip_code":"5180771"},{"name":"希央台２番町","zip_code":"5180772"},{"name":"希央台３番町","zip_code":"5180773"},{"name":"希央台４番町","zip_code":"5180774"},{"name":"希央台５番町","zip_code":"5180775"},{"name":"桔梗が丘１番町","zip_code":"5180621"},{"name":"桔梗が丘２番町","zip_code":"5180622"},{"name":"桔梗が丘３番町","zip_code":"5180623"},{"name":"桔梗が丘４番町","zip_code":"5180624"},{"name":"桔梗が丘５番町","zip_code":"5180625"},{"name":"桔梗が丘６番町","zip_code":"5180626"},{"name":"桔梗が丘７番町","zip_code":"5180627"},{"name":"桔梗が丘８番町","zip_code":"5180628"},{"name":"桔梗が丘西１番町","zip_code":"5180641"},{"name":"桔梗が丘西２番町","zip_code":"5180642"},{"name":"桔梗が丘西３番町","zip_code":"5180643"},{"name":"桔梗が丘西４番町","zip_code":"5180644"},{"name":"桔梗が丘西５番町","zip_code":"5180645"},{"name":"桔梗が丘西６番町","zip_code":"5180646"},{"name":"桔梗が丘西７番町","zip_code":"5180647"},{"name":"桔梗が丘南１番町","zip_code":"5180631"},{"name":"桔梗が丘南２番町","zip_code":"5180632"},{"name":"桔梗が丘南３番町","zip_code":"5180633"},{"name":"桔梗が丘南４番町","zip_code":"5180634"},{"name":"木屋町","zip_code":"5180723"},{"name":"葛尾","zip_code":"5180607"},{"name":"蔵持町里","zip_code":"5180753"},{"name":"蔵持町芝出","zip_code":"5180751"},{"name":"蔵持町原出","zip_code":"5180752"},{"name":"黒田","zip_code":"5180734"},{"name":"結馬","zip_code":"5180735"},{"name":"鴻之台１番町","zip_code":"5180701"},{"name":"鴻之台２番町","zip_code":"5180702"},{"name":"鴻之台３番町","zip_code":"5180703"},{"name":"鴻之台４番町","zip_code":"5180704"},{"name":"鴻之台５番町","zip_code":"5180705"},{"name":"薦生","zip_code":"5180606"},{"name":"栄町","zip_code":"5180719"},{"name":"榊町","zip_code":"5180724"},{"name":"桜ケ丘","zip_code":"5180712"},{"name":"さつき台","zip_code":"5180604"},{"name":"下小波田","zip_code":"5180612"},{"name":"下比奈知","zip_code":"5180413"},{"name":"下三谷","zip_code":"5180739"},{"name":"青蓮寺","zip_code":"5180443"},{"name":"新田","zip_code":"5180611"},{"name":"新町","zip_code":"5180727"},{"name":"すずらん台西１番町","zip_code":"5180406"},{"name":"すずらん台西２番町","zip_code":"5180407"},{"name":"すずらん台西３番町","zip_code":"5180408"},{"name":"すずらん台西４番町","zip_code":"5180409"},{"name":"すずらん台東１番町","zip_code":"5180401"},{"name":"すずらん台東２番町","zip_code":"5180402"},{"name":"すずらん台東３番町","zip_code":"5180403"},{"name":"すずらん台東４番町","zip_code":"5180404"},{"name":"すずらん台東５番町","zip_code":"5180405"},{"name":"瀬古口","zip_code":"5180445"},{"name":"滝之原","zip_code":"5180411"},{"name":"つつじが丘北１番町","zip_code":"5180431"},{"name":"つつじが丘北２番町","zip_code":"5180432"},{"name":"つつじが丘北３番町","zip_code":"5180433"},{"name":"つつじが丘北４番町","zip_code":"5180434"},{"name":"つつじが丘北５番町","zip_code":"5180435"},{"name":"つつじが丘北６番町","zip_code":"5180436"},{"name":"つつじが丘北７番町","zip_code":"5180437"},{"name":"つつじが丘北８番町","zip_code":"5180438"},{"name":"つつじが丘北９番町","zip_code":"5180439"},{"name":"つつじが丘北１０番町","zip_code":"5180430"},{"name":"つつじが丘南１番町","zip_code":"5180421"},{"name":"つつじが丘南２番町","zip_code":"5180422"},{"name":"つつじが丘南３番町","zip_code":"5180423"},{"name":"つつじが丘南４番町","zip_code":"5180424"},{"name":"つつじが丘南５番町","zip_code":"5180425"},{"name":"つつじが丘南６番町","zip_code":"5180426"},{"name":"つつじが丘南７番町","zip_code":"5180427"},{"name":"つつじが丘南８番町","zip_code":"5180428"},{"name":"中知山","zip_code":"5180442"},{"name":"中町","zip_code":"5180717"},{"name":"奈垣","zip_code":"5180505"},{"name":"長瀬","zip_code":"5180501"},{"name":"夏秋","zip_code":"5180731"},{"name":"夏見","zip_code":"5180441"},{"name":"西田原","zip_code":"5180609"},{"name":"西原町","zip_code":"5180603"},{"name":"東田原","zip_code":"5180602"},{"name":"東町","zip_code":"5180711"},{"name":"平尾","zip_code":"5180713"},{"name":"富貴ケ丘１番町","zip_code":"5180414"},{"name":"富貴ケ丘２番町","zip_code":"5180415"},{"name":"富貴ケ丘３番町","zip_code":"5180416"},{"name":"富貴ケ丘４番町","zip_code":"5180417"},{"name":"富貴ケ丘５番町","zip_code":"5180418"},{"name":"富貴ケ丘６番町","zip_code":"5180419"},{"name":"布生","zip_code":"5180503"},{"name":"豊後町","zip_code":"5180728"},{"name":"本町","zip_code":"5180726"},{"name":"松崎町","zip_code":"5180722"},{"name":"松原町","zip_code":"5180732"},{"name":"丸之内","zip_code":"5180718"},{"name":"短野","zip_code":"5180738"},{"name":"緑が丘中","zip_code":"5180755"},{"name":"緑が丘東","zip_code":"5180756"},{"name":"緑が丘西","zip_code":"5180754"},{"name":"南古山","zip_code":"5180601"},{"name":"南町","zip_code":"5180729"},{"name":"南百合が丘","zip_code":"5180446"},{"name":"箕曲中村","zip_code":"5180444"},{"name":"美旗中村","zip_code":"5180615"},{"name":"美旗町池の台東","zip_code":"5180614"},{"name":"美旗町池の台西","zip_code":"5180614"},{"name":"美旗町藤が丘","zip_code":"5180610"},{"name":"美旗町南西原","zip_code":"5180616"},{"name":"美旗町中１番","zip_code":"5180617"},{"name":"美旗町中２番","zip_code":"5180618"},{"name":"美旗町中３番","zip_code":"5180619"},{"name":"元町","zip_code":"5180725"},{"name":"矢川","zip_code":"5180763"},{"name":"柳原町","zip_code":"5180715"},{"name":"八幡","zip_code":"5180605"},{"name":"百合が丘西１番町","zip_code":"5180481"},{"name":"百合が丘西２番町","zip_code":"5180482"},{"name":"百合が丘西３番町","zip_code":"5180483"},{"name":"百合が丘西４番町","zip_code":"5180484"},{"name":"百合が丘西５番町","zip_code":"5180485"},{"name":"百合が丘西６番町","zip_code":"5180486"},{"name":"百合が丘東１番町","zip_code":"5180471"},{"name":"百合が丘東２番町","zip_code":"5180472"},{"name":"百合が丘東３番町","zip_code":"5180473"},{"name":"百合が丘東４番町","zip_code":"5180474"},{"name":"百合が丘東５番町","zip_code":"5180475"},{"name":"百合が丘東６番町","zip_code":"5180476"},{"name":"百合が丘東７番町","zip_code":"5180477"},{"name":"百合が丘東８番町","zip_code":"5180478"},{"name":"百合が丘東９番町","zip_code":"5180479"},{"name":"竜口","zip_code":"5180761"}]},{"name":"尾鷲市","divisions":[{"name":"朝日町","zip_code":"5193611"},{"name":"泉町","zip_code":"5193646"},{"name":"上野町","zip_code":"5193653"},{"name":"大曽根浦","zip_code":"5193623"},{"name":"大滝町","zip_code":"5193642"},{"name":"梶賀町","zip_code":"5193923"},{"name":"賀田町","zip_code":"5193921"},{"name":"桂ケ丘","zip_code":"5193640"},{"name":"北浦町","zip_code":"5193606"},{"name":"北浦西町","zip_code":"5193610"},{"name":"北浦東町","zip_code":"5193609"},{"name":"九鬼町","zip_code":"5193701"},{"name":"国市松泉町","zip_code":"5193626"},{"name":"倉ノ谷町","zip_code":"5193658"},{"name":"小川西町","zip_code":"5193647"},{"name":"小川東町","zip_code":"5193648"},{"name":"古戸町","zip_code":"5193652"},{"name":"古戸野町","zip_code":"5193659"},{"name":"小脇町","zip_code":"5193813"},{"name":"栄町","zip_code":"5193618"},{"name":"坂場西町","zip_code":"5193666"},{"name":"坂場町","zip_code":"5193664"},{"name":"座ノ下町","zip_code":"5193620"},{"name":"新田町","zip_code":"5193638"},{"name":"末広町","zip_code":"5193651"},{"name":"須賀利町","zip_code":"5193421"},{"name":"瀬木山町","zip_code":"5193613"},{"name":"曽根町","zip_code":"5193924"},{"name":"中央町","zip_code":"5193615"},{"name":"天満浦","zip_code":"5193602"},{"name":"中井浦","zip_code":"5193666"},{"name":"中井町","zip_code":"5193605"},{"name":"中川","zip_code":"5193639"},{"name":"中村町","zip_code":"5193616"},{"name":"名柄町","zip_code":"5193812"},{"name":"南陽町","zip_code":"5193614"},{"name":"野地町","zip_code":"5193617"},{"name":"早田町","zip_code":"5193702"},{"name":"林町","zip_code":"5193612"},{"name":"光ケ丘","zip_code":"5193637"},{"name":"古江町","zip_code":"5193922"},{"name":"馬越町","zip_code":"5193619"},{"name":"三木浦町","zip_code":"5193814"},{"name":"三木里町","zip_code":"5193811"},{"name":"港町","zip_code":"5193604"},{"name":"南浦","zip_code":"5193643"},{"name":"宮ノ上町","zip_code":"5193663"},{"name":"向井","zip_code":"5193625"},{"name":"矢浜","zip_code":"5193671"},{"name":"矢浜大道","zip_code":"5193673"},{"name":"矢浜岡崎町","zip_code":"5193672"},{"name":"矢浜真砂","zip_code":"5193674"},{"name":"行野浦","zip_code":"5193621"}]},{"name":"亀山市","divisions":[{"name":"アイリス町","zip_code":"5190171"},{"name":"安坂山町","zip_code":"5190223"},{"name":"安知本町","zip_code":"5190143"},{"name":"阿野田町","zip_code":"5190137"},{"name":"井尻町","zip_code":"5190131"},{"name":"井田川町","zip_code":"5190101"},{"name":"市ケ坂町","zip_code":"5190158"},{"name":"上野町","zip_code":"5190112"},{"name":"江ケ室","zip_code":"5190121"},{"name":"小川町","zip_code":"5190161"},{"name":"小野町","zip_code":"5190167"},{"name":"海本町","zip_code":"5190141"},{"name":"加太板屋","zip_code":"5191129"},{"name":"加太市場","zip_code":"5191122"},{"name":"加太梶ケ坂","zip_code":"5191121"},{"name":"加太北在家","zip_code":"5191128"},{"name":"加太神武","zip_code":"5191126"},{"name":"加太中在家","zip_code":"5191127"},{"name":"加太向井","zip_code":"5191125"},{"name":"亀田町","zip_code":"5190163"},{"name":"川合町","zip_code":"5190103"},{"name":"川崎町","zip_code":"5190211"},{"name":"北鹿島町","zip_code":"5190115"},{"name":"北野町","zip_code":"5190157"},{"name":"北町","zip_code":"5190118"},{"name":"北山町","zip_code":"5190117"},{"name":"楠平尾町","zip_code":"5190144"},{"name":"木下町","zip_code":"5190148"},{"name":"小下町","zip_code":"5190113"},{"name":"栄町","zip_code":"5190111"},{"name":"渋倉町","zip_code":"5190123"},{"name":"下庄町","zip_code":"5190133"},{"name":"白木町","zip_code":"5190169"},{"name":"菅内町","zip_code":"5190132"},{"name":"住山町","zip_code":"5190162"},{"name":"関ケ丘","zip_code":"5191119"},{"name":"関町泉ケ丘","zip_code":"5191117"},{"name":"関町市瀬","zip_code":"5191103"},{"name":"関町会下","zip_code":"5191106"},{"name":"関町越川","zip_code":"5191124"},{"name":"関町小野","zip_code":"5191108"},{"name":"関町金場","zip_code":"5191123"},{"name":"関町久我","zip_code":"5191116"},{"name":"関町沓掛","zip_code":"5191102"},{"name":"関町木崎","zip_code":"5191107"},{"name":"関町坂下","zip_code":"5191101"},{"name":"関町白木一色","zip_code":"5191104"},{"name":"関町新所","zip_code":"5191111"},{"name":"関町中町","zip_code":"5191112"},{"name":"関町萩原","zip_code":"5191114"},{"name":"関町福徳","zip_code":"5191115"},{"name":"関町富士ハイツ","zip_code":"5191118"},{"name":"関町古厩","zip_code":"5191113"},{"name":"関町鷲山","zip_code":"5191105"},{"name":"太岡寺町","zip_code":"5190168"},{"name":"高塚町","zip_code":"5190119"},{"name":"田村町","zip_code":"5190213"},{"name":"田茂町","zip_code":"5190136"},{"name":"長明寺町","zip_code":"5190214"},{"name":"椿世町","zip_code":"5190104"},{"name":"天神","zip_code":"5190142"},{"name":"中庄町","zip_code":"5190134"},{"name":"中屋敷町","zip_code":"5190127"},{"name":"西町","zip_code":"5190153"},{"name":"西丸町","zip_code":"5190159"},{"name":"能褒野町","zip_code":"5190212"},{"name":"野村","zip_code":"5190165"},{"name":"野村町","zip_code":"5190146"},{"name":"羽若町","zip_code":"5190164"},{"name":"東台町","zip_code":"5190122"},{"name":"東町","zip_code":"5190125"},{"name":"東丸町","zip_code":"5190126"},{"name":"東御幸町","zip_code":"5190124"},{"name":"布気町","zip_code":"5190166"},{"name":"両尾町","zip_code":"5190222"},{"name":"太森町","zip_code":"5190215"},{"name":"辺法寺町","zip_code":"5190221"},{"name":"本町","zip_code":"5190116"},{"name":"本丸町","zip_code":"5190152"},{"name":"みずきが丘","zip_code":"5190181"},{"name":"みずほ台","zip_code":"5190105"},{"name":"三寺町","zip_code":"5190135"},{"name":"みどり町","zip_code":"5190106"},{"name":"南鹿島町","zip_code":"5190114"},{"name":"南崎町","zip_code":"5190154"},{"name":"南野町","zip_code":"5190156"},{"name":"御幸町","zip_code":"5190155"},{"name":"山下町","zip_code":"5190147"},{"name":"若山町","zip_code":"5190151"},{"name":"和賀町","zip_code":"5190145"},{"name":"和田町","zip_code":"5190102"}]},{"name":"鳥羽市","divisions":[{"name":"畔蛸町","zip_code":"5170033"},{"name":"安楽島町","zip_code":"5170021"},{"name":"池上町","zip_code":"5170012"},{"name":"石鏡町","zip_code":"5170026"},{"name":"岩倉町","zip_code":"5170041"},{"name":"浦村町","zip_code":"5170025"},{"name":"大明東町","zip_code":"5170022"},{"name":"大明西町","zip_code":"5170023"},{"name":"相差町","zip_code":"5170032"},{"name":"小浜町","zip_code":"5170015"},{"name":"堅神町","zip_code":"5170014"},{"name":"堅子町","zip_code":"5170035"},{"name":"神島町","zip_code":"5170001"},{"name":"国崎町","zip_code":"5170031"},{"name":"河内町","zip_code":"5170044"},{"name":"坂手町","zip_code":"5170005"},{"name":"幸丘","zip_code":"5170046"},{"name":"白木町","zip_code":"5170043"},{"name":"菅島町","zip_code":"5170004"},{"name":"千賀町","zip_code":"5170034"},{"name":"高丘町","zip_code":"5170024"},{"name":"答志町","zip_code":"5170002"},{"name":"鳥羽","zip_code":"5170011"},{"name":"船津町","zip_code":"5170045"},{"name":"松尾町","zip_code":"5170042"},{"name":"桃取町","zip_code":"5170003"},{"name":"屋内町","zip_code":"5170013"},{"name":"若杉町","zip_code":"5170047"}]},{"name":"熊野市","divisions":[{"name":"飛鳥町大又","zip_code":"5194561"},{"name":"飛鳥町神山","zip_code":"5194566"},{"name":"飛鳥町小阪","zip_code":"5194563"},{"name":"飛鳥町小又","zip_code":"5194562"},{"name":"飛鳥町佐渡","zip_code":"5194564"},{"name":"飛鳥町野口","zip_code":"5194565"},{"name":"新鹿町","zip_code":"5194206"},{"name":"有馬町","zip_code":"5194325"},{"name":"育生町赤倉","zip_code":"5194446"},{"name":"育生町大井","zip_code":"5194448"},{"name":"育生町尾川","zip_code":"5194447"},{"name":"育生町粉所","zip_code":"5194445"},{"name":"育生町長井","zip_code":"5194449"},{"name":"五郷町大井谷","zip_code":"5194675"},{"name":"五郷町寺谷","zip_code":"5194673"},{"name":"五郷町桃崎","zip_code":"5194671"},{"name":"五郷町湯谷","zip_code":"5194672"},{"name":"五郷町和田","zip_code":"5194674"},{"name":"磯崎町","zip_code":"5194321"},{"name":"井戸町","zip_code":"5194324"},{"name":"大泊町","zip_code":"5194322"},{"name":"金山町","zip_code":"5194327"},{"name":"神川町神上","zip_code":"5194442"},{"name":"神川町長原","zip_code":"5194444"},{"name":"神川町花知","zip_code":"5194441"},{"name":"神川町柳谷","zip_code":"5194443"},{"name":"木本町","zip_code":"5194323"},{"name":"紀和町赤木","zip_code":"5195404"},{"name":"紀和町板屋","zip_code":"5195413"},{"name":"紀和町大栗須","zip_code":"5195412"},{"name":"紀和町大河内","zip_code":"5195415"},{"name":"紀和町木津呂","zip_code":"5195411"},{"name":"紀和町花井","zip_code":"6471321"},{"name":"紀和町小川口","zip_code":"5195417"},{"name":"紀和町小栗須","zip_code":"5195414"},{"name":"紀和町小船","zip_code":"6471322"},{"name":"紀和町小森","zip_code":"5195401"},{"name":"紀和町長尾","zip_code":"5195403"},{"name":"紀和町平谷","zip_code":"5195402"},{"name":"紀和町丸山","zip_code":"5195405"},{"name":"紀和町矢ノ川","zip_code":"5195406"},{"name":"紀和町湯ノ口","zip_code":"5195416"},{"name":"紀和町楊枝","zip_code":"6471325"},{"name":"紀和町楊枝川","zip_code":"6471323"},{"name":"紀和町和気","zip_code":"6471324"},{"name":"久生屋町","zip_code":"5194326"},{"name":"須野町","zip_code":"5194201"},{"name":"二木島里町","zip_code":"5194203"},{"name":"二木島町","zip_code":"5194204"},{"name":"波田須町","zip_code":"5194207"},{"name":"甫母町","zip_code":"5194202"},{"name":"遊木町","zip_code":"5194205"}]},{"name":"いなべ市","divisions":[{"name":"員弁町石仏","zip_code":"5110204"},{"name":"員弁町市之原","zip_code":"5110201"},{"name":"員弁町宇野","zip_code":"5110206"},{"name":"員弁町大泉","zip_code":"5110224"},{"name":"員弁町大泉新田","zip_code":"5110217"},{"name":"員弁町岡丁田","zip_code":"5110214"},{"name":"員弁町笠田新田","zip_code":"5110205"},{"name":"員弁町上笠田","zip_code":"5110207"},{"name":"員弁町北金井","zip_code":"5110223"},{"name":"員弁町暮明","zip_code":"5110213"},{"name":"員弁町下笠田","zip_code":"5110221"},{"name":"員弁町楚原","zip_code":"5110202"},{"name":"員弁町西方","zip_code":"5110225"},{"name":"員弁町畑新田","zip_code":"5110203"},{"name":"員弁町坂東新田","zip_code":"5110208"},{"name":"員弁町東一色","zip_code":"5110215"},{"name":"員弁町平古","zip_code":"5110212"},{"name":"員弁町松名新田","zip_code":"5110211"},{"name":"員弁町松之木","zip_code":"5110216"},{"name":"員弁町御薗","zip_code":"5110222"},{"name":"大安町石榑北山","zip_code":"5110267"},{"name":"大安町石榑下","zip_code":"5110276"},{"name":"大安町石榑東","zip_code":"5110264"},{"name":"大安町石榑南","zip_code":"5110266"},{"name":"大安町石榑北","zip_code":"5110265"},{"name":"大安町宇賀","zip_code":"5110286"},{"name":"大安町宇賀新田","zip_code":"5110285"},{"name":"大安町梅戸","zip_code":"5110284"},{"name":"大安町大泉","zip_code":"5110282"},{"name":"大安町大井田","zip_code":"5110274"},{"name":"大安町片樋","zip_code":"5110271"},{"name":"大安町高柳","zip_code":"5110272"},{"name":"大安町中央ケ丘","zip_code":"5110287"},{"name":"大安町鍋坂","zip_code":"5110275"},{"name":"大安町丹生川上","zip_code":"5110261"},{"name":"大安町丹生川中","zip_code":"5110262"},{"name":"大安町丹生川久下","zip_code":"5110263"},{"name":"大安町平塚","zip_code":"5110273"},{"name":"大安町南金井","zip_code":"5110283"},{"name":"大安町門前","zip_code":"5110281"},{"name":"藤原町石川","zip_code":"5110514"},{"name":"藤原町市場","zip_code":"5110511"},{"name":"藤原町上之山田","zip_code":"5110507"},{"name":"藤原町大貝戸","zip_code":"5110517"},{"name":"藤原町鼎","zip_code":"5110501"},{"name":"藤原町上相場","zip_code":"5110502"},{"name":"藤原町川合","zip_code":"5110504"},{"name":"藤原町坂本","zip_code":"5110518"},{"name":"藤原町篠立","zip_code":"5110522"},{"name":"藤原町下相場","zip_code":"5110503"},{"name":"藤原町下野尻","zip_code":"5110513"},{"name":"藤原町志礼石新田","zip_code":"5110512"},{"name":"藤原町東禅寺","zip_code":"5110515"},{"name":"藤原町長尾","zip_code":"5110506"},{"name":"藤原町西野尻","zip_code":"5110516"},{"name":"藤原町日内","zip_code":"5110505"},{"name":"藤原町藤ケ丘","zip_code":"5110508"},{"name":"藤原町古田","zip_code":"5110521"},{"name":"藤原町別名","zip_code":"5110519"},{"name":"藤原町本郷","zip_code":"5110523"},{"name":"藤原町山口","zip_code":"5110524"},{"name":"北勢町阿下喜","zip_code":"5110428"},{"name":"北勢町飯倉","zip_code":"5110416"},{"name":"北勢町麻生田","zip_code":"5110427"},{"name":"北勢町大辻新田","zip_code":"5110425"},{"name":"北勢町奥村","zip_code":"5110435"},{"name":"北勢町垣内","zip_code":"5110437"},{"name":"北勢町川原","zip_code":"5110401"},{"name":"北勢町北中津原","zip_code":"5110422"},{"name":"北勢町京ケ野新田","zip_code":"5110411"},{"name":"北勢町小原一色","zip_code":"5110404"},{"name":"北勢町塩崎","zip_code":"5110406"},{"name":"北勢町下平","zip_code":"5110418"},{"name":"北勢町新町","zip_code":"5110436"},{"name":"北勢町瀬木","zip_code":"5110417"},{"name":"北勢町千司久連新田","zip_code":"5110402"},{"name":"北勢町其原","zip_code":"5110426"},{"name":"北勢町田辺","zip_code":"5110405"},{"name":"北勢町皷","zip_code":"5110421"},{"name":"北勢町中山","zip_code":"5110433"},{"name":"北勢町西貝野","zip_code":"5110414"},{"name":"北勢町二之瀬","zip_code":"5110403"},{"name":"北勢町畑毛","zip_code":"5110413"},{"name":"北勢町治田外面","zip_code":"5110438"},{"name":"北勢町東貝野","zip_code":"5110415"},{"name":"北勢町東村","zip_code":"5110432"},{"name":"北勢町平野新田","zip_code":"5110423"},{"name":"北勢町麓村","zip_code":"5110434"},{"name":"北勢町別名","zip_code":"5110431"},{"name":"北勢町南中津原","zip_code":"5110424"},{"name":"北勢町向平","zip_code":"5110412"}]},{"name":"志摩市","divisions":[{"name":"阿児町安乗","zip_code":"5170507"},{"name":"阿児町鵜方","zip_code":"5170501"},{"name":"阿児町国府","zip_code":"5170506"},{"name":"阿児町甲賀","zip_code":"5170505"},{"name":"阿児町志島","zip_code":"5170504"},{"name":"阿児町神明","zip_code":"5170502"},{"name":"阿児町立神","zip_code":"5170503"},{"name":"磯部町穴川","zip_code":"5170213"},{"name":"磯部町飯浜","zip_code":"5170206"},{"name":"磯部町恵利原","zip_code":"5170209"},{"name":"磯部町上之郷","zip_code":"5170208"},{"name":"磯部町沓掛","zip_code":"5170202"},{"name":"磯部町栗木広","zip_code":"5170216"},{"name":"磯部町五知","zip_code":"5170201"},{"name":"磯部町坂崎","zip_code":"5170212"},{"name":"磯部町三ケ所","zip_code":"5170211"},{"name":"磯部町下之郷","zip_code":"5170207"},{"name":"磯部町築地","zip_code":"5170218"},{"name":"磯部町迫間","zip_code":"5170214"},{"name":"磯部町檜山","zip_code":"5170215"},{"name":"磯部町的矢","zip_code":"5170204"},{"name":"磯部町山田","zip_code":"5170203"},{"name":"磯部町山原","zip_code":"5170217"},{"name":"磯部町渡鹿野","zip_code":"5170205"},{"name":"志摩町片田","zip_code":"5170701"},{"name":"志摩町御座","zip_code":"5170705"},{"name":"志摩町越賀","zip_code":"5170704"},{"name":"志摩町布施田","zip_code":"5170702"},{"name":"志摩町和具","zip_code":"5170703"},{"name":"大王町畔名","zip_code":"5170601"},{"name":"大王町波切","zip_code":"5170603"},{"name":"大王町名田","zip_code":"5170602"},{"name":"大王町船越","zip_code":"5170604"},{"name":"浜島町塩屋","zip_code":"5170402"},{"name":"浜島町南張","zip_code":"5170405"},{"name":"浜島町迫子","zip_code":"5170403"},{"name":"浜島町浜島","zip_code":"5170404"},{"name":"浜島町桧山路","zip_code":"5170401"}]},{"name":"伊賀市","divisions":[{"name":"愛田","zip_code":"5191413"},{"name":"阿保","zip_code":"5180226"},{"name":"青山羽根","zip_code":"5180227"},{"name":"朝日ケ丘町","zip_code":"5180114"},{"name":"阿山ハイツ","zip_code":"5181316"},{"name":"荒木","zip_code":"5180818"},{"name":"石川","zip_code":"5181323"},{"name":"印代","zip_code":"5180008"},{"name":"出後","zip_code":"5181407"},{"name":"伊勢路","zip_code":"5180205"},{"name":"猪田","zip_code":"5180123"},{"name":"一之宮","zip_code":"5180003"},{"name":"市部","zip_code":"5180102"},{"name":"依那具","zip_code":"5180101"},{"name":"岩倉","zip_code":"5180026"},{"name":"上野相生町","zip_code":"5180859"},{"name":"上野赤坂町","zip_code":"5180871"},{"name":"上野愛宕町","zip_code":"5180846"},{"name":"上野池町","zip_code":"5180853"},{"name":"上野伊予町","zip_code":"5180852"},{"name":"上野魚町","zip_code":"5180865"},{"name":"上野恵美須町","zip_code":"5180841"},{"name":"上野鍛冶町","zip_code":"5180864"},{"name":"上野片原町","zip_code":"5180862"},{"name":"上野茅町","zip_code":"5180838"},{"name":"上野車坂町","zip_code":"5180832"},{"name":"上野桑町","zip_code":"5180842"},{"name":"上野玄蕃町","zip_code":"5180872"},{"name":"上野幸坂町","zip_code":"5180874"},{"name":"上野小玉町","zip_code":"5180866"},{"name":"上野紺屋町","zip_code":"5180858"},{"name":"上野三之西町","zip_code":"5180857"},{"name":"上野忍町","zip_code":"5180854"},{"name":"上野下幸坂町","zip_code":"5180877"},{"name":"上野新町","zip_code":"5180863"},{"name":"上野田端町","zip_code":"5180839"},{"name":"上野鉄砲町","zip_code":"5180847"},{"name":"上野寺町","zip_code":"5180851"},{"name":"上野徳居町","zip_code":"5180856"},{"name":"上野中町","zip_code":"5180869"},{"name":"上野西大手町","zip_code":"5180878"},{"name":"上野西日南町","zip_code":"5180848"},{"name":"上野西町","zip_code":"5180868"},{"name":"上野農人町","zip_code":"5180831"},{"name":"上野東日南町","zip_code":"5180849"},{"name":"上野東町","zip_code":"5180861"},{"name":"上野福居町","zip_code":"5180867"},{"name":"上野丸之内","zip_code":"5180873"},{"name":"上野向島町","zip_code":"5180875"},{"name":"上野万町","zip_code":"5180855"},{"name":"上林","zip_code":"5180112"},{"name":"上村","zip_code":"5191403"},{"name":"内保","zip_code":"5181321"},{"name":"円徳院","zip_code":"5181314"},{"name":"老川","zip_code":"5180219"},{"name":"大内","zip_code":"5180034"},{"name":"大江","zip_code":"5181317"},{"name":"大滝","zip_code":"5181154"},{"name":"大谷","zip_code":"5180017"},{"name":"大野木","zip_code":"5180033"},{"name":"岡田","zip_code":"5180223"},{"name":"岡波","zip_code":"5180106"},{"name":"沖","zip_code":"5180103"},{"name":"奥鹿野","zip_code":"5180211"},{"name":"奥馬野","zip_code":"5181427"},{"name":"小田町","zip_code":"5180825"},{"name":"音羽","zip_code":"5181324"},{"name":"界外","zip_code":"5180815"},{"name":"笠部","zip_code":"5180122"},{"name":"柏尾","zip_code":"5180224"},{"name":"炊村","zip_code":"5181403"},{"name":"鍛冶屋","zip_code":"5181143"},{"name":"柏野","zip_code":"5191415"},{"name":"勝地","zip_code":"5180203"},{"name":"桂","zip_code":"5181153"},{"name":"上阿波","zip_code":"5181412"},{"name":"上神戸","zip_code":"5180116"},{"name":"上郡","zip_code":"5180125"},{"name":"上友田","zip_code":"5181303"},{"name":"上友生","zip_code":"5180814"},{"name":"上之庄","zip_code":"5180121"},{"name":"川合","zip_code":"5181315"},{"name":"川上","zip_code":"5180218"},{"name":"川北","zip_code":"5181425"},{"name":"川西","zip_code":"5191425"},{"name":"川東","zip_code":"5191424"},{"name":"木興町","zip_code":"5180845"},{"name":"北山","zip_code":"5180204"},{"name":"希望ケ丘西","zip_code":"5191423"},{"name":"希望ケ丘東","zip_code":"5191422"},{"name":"桐ケ丘","zip_code":"5180225"},{"name":"霧生","zip_code":"5180215"},{"name":"久米町","zip_code":"5180843"},{"name":"蔵縄手","zip_code":"5181147"},{"name":"甲野","zip_code":"5181404"},{"name":"腰山","zip_code":"5180214"},{"name":"小杉","zip_code":"5191406"},{"name":"西明寺","zip_code":"5180809"},{"name":"才良","zip_code":"5180108"},{"name":"坂下","zip_code":"5181429"},{"name":"坂之下","zip_code":"5180012"},{"name":"佐那具町","zip_code":"5180001"},{"name":"四十九町","zip_code":"5180823"},{"name":"七本木","zip_code":"5180035"},{"name":"島ケ原","zip_code":"5191711"},{"name":"下阿波","zip_code":"5181416"},{"name":"下川原","zip_code":"5180206"},{"name":"下神戸","zip_code":"5180111"},{"name":"下郡","zip_code":"5180124"},{"name":"下柘植","zip_code":"5191412"},{"name":"下友田","zip_code":"5181305"},{"name":"下友生","zip_code":"5180817"},{"name":"菖蒲池","zip_code":"5181141"},{"name":"白樫","zip_code":"5181151"},{"name":"新堂","zip_code":"5191416"},{"name":"摺見","zip_code":"5180104"},{"name":"諏訪","zip_code":"5180021"},{"name":"千貝","zip_code":"5181319"},{"name":"千歳","zip_code":"5180002"},{"name":"千戸","zip_code":"5181401"},{"name":"高尾","zip_code":"5180216"},{"name":"高畑","zip_code":"5180005"},{"name":"高山","zip_code":"5180812"},{"name":"瀧","zip_code":"5180201"},{"name":"楯岡","zip_code":"5191411"},{"name":"種生","zip_code":"5180217"},{"name":"田中","zip_code":"5181312"},{"name":"玉滝","zip_code":"5181322"},{"name":"朝屋","zip_code":"5180032"},{"name":"柘植町","zip_code":"5191402"},{"name":"土橋","zip_code":"5180015"},{"name":"寺田","zip_code":"5180004"},{"name":"寺脇","zip_code":"5180222"},{"name":"富岡","zip_code":"5181424"},{"name":"富永","zip_code":"5181417"},{"name":"外山","zip_code":"5180011"},{"name":"問屋町","zip_code":"5180822"},{"name":"長田","zip_code":"5180031"},{"name":"中柘植","zip_code":"5191404"},{"name":"中友田","zip_code":"5181304"},{"name":"中友生","zip_code":"5180816"},{"name":"中馬野","zip_code":"5181428"},{"name":"中村","zip_code":"5181406"},{"name":"西条","zip_code":"5180014"},{"name":"西高倉","zip_code":"5180025"},{"name":"西之澤","zip_code":"5191426"},{"name":"西山","zip_code":"5180027"},{"name":"西湯舟","zip_code":"5181301"},{"name":"野間","zip_code":"5180023"},{"name":"野村","zip_code":"5191405"},{"name":"波敷野","zip_code":"5181318"},{"name":"蓮池","zip_code":"5180813"},{"name":"馬田","zip_code":"5181311"},{"name":"畑村","zip_code":"5181408"},{"name":"治田","zip_code":"5181155"},{"name":"服部町","zip_code":"5180007"},{"name":"羽根","zip_code":"5180006"},{"name":"馬場","zip_code":"5181313"},{"name":"東条","zip_code":"5180013"},{"name":"東高倉","zip_code":"5180024"},{"name":"東谷","zip_code":"5181144"},{"name":"東湯舟","zip_code":"5181302"},{"name":"比自岐","zip_code":"5180105"},{"name":"枅川","zip_code":"5180107"},{"name":"比土","zip_code":"5180115"},{"name":"一ツ家","zip_code":"5191401"},{"name":"平田","zip_code":"5181422"},{"name":"平野上川原","zip_code":"5180807"},{"name":"平野北谷","zip_code":"5180826"},{"name":"平野蔵垣内","zip_code":"5180808"},{"name":"平野清水","zip_code":"5180827"},{"name":"平野城北町","zip_code":"5180830"},{"name":"平野中川原","zip_code":"5180828"},{"name":"平野西町","zip_code":"5180820"},{"name":"平野東町","zip_code":"5180810"},{"name":"平野樋之口","zip_code":"5180802"},{"name":"平野見能","zip_code":"5180801"},{"name":"平野山之下","zip_code":"5180829"},{"name":"平野六反田","zip_code":"5180804"},{"name":"広瀬","zip_code":"5181426"},{"name":"福川","zip_code":"5180212"},{"name":"古郡","zip_code":"5180113"},{"name":"生琉里","zip_code":"5180821"},{"name":"古山界外","zip_code":"5181142"},{"name":"別府","zip_code":"5180221"},{"name":"鳳凰寺","zip_code":"5181405"},{"name":"喰代","zip_code":"5180811"},{"name":"法花","zip_code":"5180036"},{"name":"槇山","zip_code":"5181326"},{"name":"猿野","zip_code":"5181414"},{"name":"丸柱","zip_code":"5181325"},{"name":"三田","zip_code":"5180022"},{"name":"御代","zip_code":"5191414"},{"name":"緑ケ丘中町","zip_code":"5180834"},{"name":"緑ケ丘西町","zip_code":"5180837"},{"name":"緑ケ丘東町","zip_code":"5180833"},{"name":"緑ケ丘本町","zip_code":"5180836"},{"name":"緑ケ丘南町","zip_code":"5180835"},{"name":"真泥","zip_code":"5181421"},{"name":"妙楽地","zip_code":"5180202"},{"name":"守田町","zip_code":"5180824"},{"name":"森寺","zip_code":"5180126"},{"name":"諸木","zip_code":"5180213"},{"name":"山神","zip_code":"5180016"},{"name":"安場","zip_code":"5181145"},{"name":"山畑","zip_code":"5191421"},{"name":"八幡町","zip_code":"5180844"},{"name":"山出","zip_code":"5180127"},{"name":"湯舟","zip_code":"5181306"},{"name":"ゆめが丘","zip_code":"5180131"},{"name":"湯屋谷","zip_code":"5181146"},{"name":"陽光台","zip_code":"5180840"},{"name":"予野","zip_code":"5181152"}]},{"name":"桑名郡木曽岬町","divisions":[{"name":"和泉","zip_code":"4980803"},{"name":"近江島","zip_code":"4980808"},{"name":"和富","zip_code":"4980823"},{"name":"加路戸","zip_code":"4980801"},{"name":"雁ケ地","zip_code":"4980818"},{"name":"見入","zip_code":"4980802"},{"name":"見入流作","zip_code":"4980822"},{"name":"源緑輪中","zip_code":"4980816"},{"name":"小和泉","zip_code":"4980804"},{"name":"小林","zip_code":"4980805"},{"name":"栄","zip_code":"4980811"},{"name":"新加路戸","zip_code":"4980821"},{"name":"外平喜","zip_code":"4980806"},{"name":"田代","zip_code":"4980819"},{"name":"富田子","zip_code":"4980813"},{"name":"中和泉","zip_code":"4980812"},{"name":"西対海地","zip_code":"4980807"},{"name":"白鷺","zip_code":"4980815"},{"name":"松永","zip_code":"4980817"},{"name":"三崎","zip_code":"4980814"}]},{"name":"員弁郡東員町","divisions":[{"name":"穴太","zip_code":"5110243"},{"name":"大木","zip_code":"5110244"},{"name":"北大社","zip_code":"5110257"},{"name":"北山田","zip_code":"5110251"},{"name":"笹尾東","zip_code":"5110232"},{"name":"笹尾西","zip_code":"5110231"},{"name":"城山","zip_code":"5110233"},{"name":"瀬古泉","zip_code":"5110252"},{"name":"筑紫","zip_code":"5110253"},{"name":"鳥取","zip_code":"5110241"},{"name":"中上","zip_code":"5110254"},{"name":"長深","zip_code":"5110255"},{"name":"八幡新田","zip_code":"5110245"},{"name":"南大社","zip_code":"5110256"},{"name":"山田","zip_code":"5110251"},{"name":"六把野新田","zip_code":"5110242"}]},{"name":"三重郡菰野町","divisions":[{"name":"池底","zip_code":"5101221"},{"name":"潤田","zip_code":"5101253"},{"name":"大強原","zip_code":"5101222"},{"name":"大羽根園青葉町","zip_code":"5101246"},{"name":"大羽根園呉竹町","zip_code":"5101243"},{"name":"大羽根園柴垣町","zip_code":"5101242"},{"name":"大羽根園新林町","zip_code":"5101241"},{"name":"大羽根園並木通","zip_code":"5101244"},{"name":"大羽根園松ケ枝町","zip_code":"5101245"},{"name":"小島","zip_code":"5101323"},{"name":"音羽","zip_code":"5101252"},{"name":"神森","zip_code":"5101231"},{"name":"川北","zip_code":"5101224"},{"name":"切畑","zip_code":"5101328"},{"name":"菰野","zip_code":"5101233"},{"name":"榊","zip_code":"5101325"},{"name":"下村","zip_code":"5101225"},{"name":"宿野","zip_code":"5101232"},{"name":"杉谷","zip_code":"5101326"},{"name":"諏訪","zip_code":"5101223"},{"name":"田口","zip_code":"5101321"},{"name":"田口新田","zip_code":"5101322"},{"name":"竹成","zip_code":"5101312"},{"name":"田光","zip_code":"5101324"},{"name":"千草","zip_code":"5101251"},{"name":"永井","zip_code":"5101311"},{"name":"根の平","zip_code":"5101327"},{"name":"初若の郷","zip_code":"5101236"},{"name":"福村","zip_code":"5101234"},{"name":"宝永台","zip_code":"5101235"},{"name":"吉沢","zip_code":"5101226"}]},{"name":"三重郡朝日町","divisions":[{"name":"埋縄","zip_code":"5108104"},{"name":"小向","zip_code":"5108102"},{"name":"柿","zip_code":"5108103"},{"name":"向陽台","zip_code":"5108105"},{"name":"白梅の丘西","zip_code":"5108107"},{"name":"白梅の丘東","zip_code":"5108106"},{"name":"縄生","zip_code":"5108101"}]},{"name":"三重郡川越町","divisions":[{"name":"亀尾新田","zip_code":"5108113"},{"name":"亀崎新田","zip_code":"5108114"},{"name":"亀須新田","zip_code":"5108112"},{"name":"北福崎","zip_code":"5108125"},{"name":"高松","zip_code":"5108121"},{"name":"当新田","zip_code":"5108111"},{"name":"豊田","zip_code":"5108122"},{"name":"豊田一色","zip_code":"5108123"},{"name":"南福崎","zip_code":"5108124"}]},{"name":"多気郡多気町","divisions":[{"name":"朝長","zip_code":"5192151"},{"name":"朝柄","zip_code":"5192215"},{"name":"荒蒔","zip_code":"5192158"},{"name":"井内林","zip_code":"5192186"},{"name":"兄国","zip_code":"5192159"},{"name":"相可","zip_code":"5192181"},{"name":"相鹿瀬","zip_code":"5192167"},{"name":"相可台","zip_code":"5192182"},{"name":"弟国","zip_code":"5192152"},{"name":"笠木","zip_code":"5192162"},{"name":"片野","zip_code":"5192203"},{"name":"上出江","zip_code":"5192201"},{"name":"車川","zip_code":"5192214"},{"name":"鍬形","zip_code":"5192187"},{"name":"神坂","zip_code":"5192177"},{"name":"河田","zip_code":"5192153"},{"name":"五桂","zip_code":"5192174"},{"name":"五佐奈","zip_code":"5192157"},{"name":"佐伯中","zip_code":"5192185"},{"name":"三疋田","zip_code":"5192184"},{"name":"色太","zip_code":"5192212"},{"name":"四神田","zip_code":"5192172"},{"name":"四疋田","zip_code":"5192183"},{"name":"下出江","zip_code":"5192202"},{"name":"多気","zip_code":"5192154"},{"name":"田中","zip_code":"5192165"},{"name":"土屋","zip_code":"5192213"},{"name":"津留","zip_code":"5192189"},{"name":"土羽","zip_code":"5192161"},{"name":"丹生","zip_code":"5192211"},{"name":"西池上","zip_code":"5192156"},{"name":"西山","zip_code":"5192171"},{"name":"仁田","zip_code":"5192179"},{"name":"野中","zip_code":"5192166"},{"name":"長谷","zip_code":"5192176"},{"name":"波多瀬","zip_code":"5192204"},{"name":"東池上","zip_code":"5192155"},{"name":"平谷","zip_code":"5192178"},{"name":"古江","zip_code":"5192216"},{"name":"前村","zip_code":"5192175"},{"name":"牧","zip_code":"5192188"},{"name":"森荘","zip_code":"5192164"},{"name":"矢田","zip_code":"5192163"},{"name":"油夫","zip_code":"5192173"}]},{"name":"多気郡明和町","divisions":[{"name":"池村","zip_code":"5150317"},{"name":"上野","zip_code":"5150312"},{"name":"上村","zip_code":"5150322"},{"name":"有爾中","zip_code":"5150316"},{"name":"馬之上","zip_code":"5150332"},{"name":"大堀川新田","zip_code":"5150301"},{"name":"大淀","zip_code":"5150302"},{"name":"川尻","zip_code":"5150349"},{"name":"北藤原","zip_code":"5150341"},{"name":"金剛坂","zip_code":"5150324"},{"name":"斎宮","zip_code":"5150321"},{"name":"坂本","zip_code":"5150333"},{"name":"佐田","zip_code":"5150331"},{"name":"志貴","zip_code":"5150347"},{"name":"新茶屋","zip_code":"5150314"},{"name":"竹川","zip_code":"5150325"},{"name":"田屋","zip_code":"5150345"},{"name":"内座","zip_code":"5150343"},{"name":"中村","zip_code":"5150348"},{"name":"中海","zip_code":"5150334"},{"name":"根倉","zip_code":"5150353"},{"name":"浜田","zip_code":"5150351"},{"name":"平尾","zip_code":"5150311"},{"name":"前野","zip_code":"5150346"},{"name":"南藤原","zip_code":"5150342"},{"name":"蓑村","zip_code":"5150315"},{"name":"明星","zip_code":"5150313"},{"name":"八木戸","zip_code":"5150352"},{"name":"山大淀","zip_code":"5150303"},{"name":"行部","zip_code":"5150354"},{"name":"養川","zip_code":"5150344"},{"name":"岩内","zip_code":"5150323"}]},{"name":"多気郡大台町","divisions":[{"name":"粟生","zip_code":"5192428"},{"name":"天ケ瀬","zip_code":"5192506"},{"name":"岩井","zip_code":"5192631"},{"name":"江馬","zip_code":"5192505"},{"name":"大井","zip_code":"5192518"},{"name":"大ケ所","zip_code":"5192413"},{"name":"大杉","zip_code":"5192634"},{"name":"御棟","zip_code":"5192522"},{"name":"上楠","zip_code":"5192427"},{"name":"上菅","zip_code":"5192411"},{"name":"神瀬","zip_code":"5192425"},{"name":"上真手","zip_code":"5192502"},{"name":"上三瀬","zip_code":"5192403"},{"name":"唐櫃","zip_code":"5192516"},{"name":"川合","zip_code":"5192412"},{"name":"桧原","zip_code":"5192632"},{"name":"清滝","zip_code":"5192512"},{"name":"久豆","zip_code":"5192633"},{"name":"熊内","zip_code":"5192515"},{"name":"栗谷","zip_code":"5192507"},{"name":"神滝","zip_code":"5192524"},{"name":"小切畑","zip_code":"5192504"},{"name":"小滝","zip_code":"5192523"},{"name":"佐原","zip_code":"5192404"},{"name":"下楠","zip_code":"5192426"},{"name":"下菅","zip_code":"5192412"},{"name":"下真手","zip_code":"5192501"},{"name":"下三瀬","zip_code":"5192402"},{"name":"新田","zip_code":"5192423"},{"name":"菅合","zip_code":"5192412"},{"name":"菅木屋","zip_code":"5192511"},{"name":"千代","zip_code":"5192421"},{"name":"薗","zip_code":"5192513"},{"name":"高奈","zip_code":"5192429"},{"name":"滝広","zip_code":"5192412"},{"name":"滝谷","zip_code":"5192525"},{"name":"栃原","zip_code":"5192424"},{"name":"長ケ","zip_code":"5192401"},{"name":"本田木屋","zip_code":"5192503"},{"name":"南","zip_code":"5192517"},{"name":"明豆","zip_code":"5192521"},{"name":"茂原","zip_code":"5192514"},{"name":"弥起井","zip_code":"5192405"},{"name":"柳原","zip_code":"5192422"}]},{"name":"度会郡玉城町","divisions":[{"name":"井倉","zip_code":"5190403"},{"name":"岩出","zip_code":"5190425"},{"name":"岡出","zip_code":"5190428"},{"name":"岡村","zip_code":"5190406"},{"name":"小社曽根","zip_code":"5190422"},{"name":"勝田","zip_code":"5190433"},{"name":"蚊野","zip_code":"5190431"},{"name":"上田辺","zip_code":"5190417"},{"name":"久保","zip_code":"5190411"},{"name":"坂本","zip_code":"5190408"},{"name":"佐田","zip_code":"5190414"},{"name":"下田辺","zip_code":"5190416"},{"name":"世古","zip_code":"5190401"},{"name":"玉川","zip_code":"5190407"},{"name":"田丸","zip_code":"5190415"},{"name":"田宮寺","zip_code":"5190434"},{"name":"中楽","zip_code":"5190412"},{"name":"積良","zip_code":"5190437"},{"name":"富岡","zip_code":"5190421"},{"name":"中角","zip_code":"5190426"},{"name":"長更","zip_code":"5190404"},{"name":"野篠","zip_code":"5190432"},{"name":"原","zip_code":"5190438"},{"name":"日向","zip_code":"5190405"},{"name":"昼田","zip_code":"5190423"},{"name":"宮古","zip_code":"5190427"},{"name":"妙法寺","zip_code":"5190413"},{"name":"門前","zip_code":"5190402"},{"name":"矢野","zip_code":"5190435"},{"name":"山岡","zip_code":"5190424"},{"name":"山神","zip_code":"5190436"}]},{"name":"度会郡度会町","divisions":[{"name":"市場","zip_code":"5161242"},{"name":"大久保","zip_code":"5162106"},{"name":"大野木","zip_code":"5162102"},{"name":"小川","zip_code":"5161236"},{"name":"上久具","zip_code":"5162112"},{"name":"川上","zip_code":"5161245"},{"name":"川口","zip_code":"5161231"},{"name":"葛原","zip_code":"5162101"},{"name":"栗原","zip_code":"5161232"},{"name":"五ケ町","zip_code":"5161237"},{"name":"小萩","zip_code":"5161247"},{"name":"駒ケ野","zip_code":"5161235"},{"name":"坂井","zip_code":"5162116"},{"name":"注連指","zip_code":"5162119"},{"name":"下久具","zip_code":"5162111"},{"name":"田口","zip_code":"5162118"},{"name":"立岡","zip_code":"5162107"},{"name":"棚橋","zip_code":"5162103"},{"name":"田間","zip_code":"5162113"},{"name":"当津","zip_code":"5162114"},{"name":"中之郷","zip_code":"5161238"},{"name":"長原","zip_code":"5162115"},{"name":"鮠川","zip_code":"5162108"},{"name":"火打石","zip_code":"5161234"},{"name":"日向","zip_code":"5161233"},{"name":"平生","zip_code":"5162105"},{"name":"麻加江","zip_code":"5162117"},{"name":"牧戸","zip_code":"5162104"},{"name":"南中村","zip_code":"5161244"},{"name":"柳","zip_code":"5161241"},{"name":"和井野","zip_code":"5161243"},{"name":"脇出","zip_code":"5161246"}]},{"name":"度会郡大紀町","divisions":[{"name":"阿曽","zip_code":"5192704"},{"name":"打見","zip_code":"5192736"},{"name":"永会","zip_code":"5192734"},{"name":"大内山","zip_code":"5193111"},{"name":"柏野","zip_code":"5192801"},{"name":"金輪","zip_code":"5192733"},{"name":"神原","zip_code":"5192735"},{"name":"崎","zip_code":"5192802"},{"name":"滝原","zip_code":"5192703"},{"name":"錦","zip_code":"5192911"},{"name":"野添","zip_code":"5192732"},{"name":"野原","zip_code":"5192731"},{"name":"船木","zip_code":"5192701"},{"name":"三瀬川","zip_code":"5192702"}]},{"name":"度会郡南伊勢町","divisions":[{"name":"阿曽浦","zip_code":"5161305"},{"name":"泉","zip_code":"5160103"},{"name":"伊勢路","zip_code":"5160112"},{"name":"相賀浦","zip_code":"5160118"},{"name":"大江","zip_code":"5161302"},{"name":"大方竈","zip_code":"5161304"},{"name":"小方竈","zip_code":"5161532"},{"name":"押渕","zip_code":"5160115"},{"name":"神前浦","zip_code":"5161422"},{"name":"木谷","zip_code":"5160106"},{"name":"切原","zip_code":"5160102"},{"name":"河内","zip_code":"5161421"},{"name":"五ケ所浦","zip_code":"5160101"},{"name":"古和浦","zip_code":"5161534"},{"name":"神津佐","zip_code":"5160104"},{"name":"斎田","zip_code":"5160113"},{"name":"礫浦","zip_code":"5160117"},{"name":"新桑竈","zip_code":"5161536"},{"name":"下津浦","zip_code":"5160105"},{"name":"宿浦","zip_code":"5160221"},{"name":"慥柄浦","zip_code":"5161306"},{"name":"田曽浦","zip_code":"5160222"},{"name":"棚橋竈","zip_code":"5161535"},{"name":"東宮","zip_code":"5161309"},{"name":"栃木竈","zip_code":"5161533"},{"name":"内瀬","zip_code":"5160111"},{"name":"中津浜浦","zip_code":"5160108"},{"name":"奈屋浦","zip_code":"5161308"},{"name":"贄浦","zip_code":"5161307"},{"name":"迫間浦","zip_code":"5160116"},{"name":"始神","zip_code":"5160114"},{"name":"飯満","zip_code":"5160107"},{"name":"船越","zip_code":"5160109"},{"name":"方座浦","zip_code":"5161531"},{"name":"道方","zip_code":"5161301"},{"name":"道行竈","zip_code":"5161303"},{"name":"村山","zip_code":"5161423"}]},{"name":"北牟婁郡紀北町","divisions":[{"name":"紀伊長島区大原","zip_code":"5193202"},{"name":"紀伊長島区海野","zip_code":"5193206"},{"name":"紀伊長島区島原","zip_code":"5193203"},{"name":"紀伊長島区十須","zip_code":"5193201"},{"name":"紀伊長島区道瀬","zip_code":"5193207"},{"name":"紀伊長島区長島","zip_code":"5193205"},{"name":"紀伊長島区東長島","zip_code":"5193204"},{"name":"紀伊長島区古里","zip_code":"5193209"},{"name":"紀伊長島区三浦","zip_code":"5193208"},{"name":"海山区相賀","zip_code":"5193406"},{"name":"海山区馬瀬","zip_code":"5193401"},{"name":"海山区小浦","zip_code":"5193414"},{"name":"海山区小山浦","zip_code":"5193407"},{"name":"海山区上里","zip_code":"5193403"},{"name":"海山区河内","zip_code":"5193402"},{"name":"海山区島勝浦","zip_code":"5193412"},{"name":"海山区白浦","zip_code":"5193411"},{"name":"海山区中里","zip_code":"5193404"},{"name":"海山区引本浦","zip_code":"5193413"},{"name":"海山区便ノ山","zip_code":"5193408"},{"name":"海山区船津","zip_code":"5193405"},{"name":"海山区矢口浦","zip_code":"5193415"}]},{"name":"南牟婁郡御浜町","divisions":[{"name":"阿田和","zip_code":"5195204"},{"name":"上野","zip_code":"5195322"},{"name":"柿原","zip_code":"5195206"},{"name":"片川","zip_code":"5195325"},{"name":"上市木","zip_code":"5195211"},{"name":"川瀬","zip_code":"5195327"},{"name":"栗須","zip_code":"5195326"},{"name":"神木","zip_code":"5195201"},{"name":"阪本","zip_code":"5195321"},{"name":"下市木","zip_code":"5195203"},{"name":"志原","zip_code":"5195202"},{"name":"中立","zip_code":"5195324"},{"name":"西原","zip_code":"5195323"},{"name":"萩内","zip_code":"5195203"},{"name":"引作","zip_code":"5195205"},{"name":"山地","zip_code":"5195204"}]},{"name":"南牟婁郡紀宝町","divisions":[{"name":"浅里","zip_code":"5195718"},{"name":"井田","zip_code":"5195711"},{"name":"井内","zip_code":"5195834"},{"name":"鵜殿","zip_code":"5195701"},{"name":"大里","zip_code":"5195835"},{"name":"北桧杖","zip_code":"5195716"},{"name":"桐原","zip_code":"5195831"},{"name":"神内","zip_code":"5195712"},{"name":"阪松原","zip_code":"5195832"},{"name":"瀬原","zip_code":"5195717"},{"name":"高岡","zip_code":"5195715"},{"name":"成川","zip_code":"5195713"},{"name":"平尾井","zip_code":"5195833"},{"name":"鮒田","zip_code":"5195714"}]}]}