{"name":"滋賀県","cities":[{"name":"大津市","divisions":[{"name":"青山","zip_code":"5202101"},{"name":"赤尾町","zip_code":"5200864"},{"name":"あかね町","zip_code":"5200003"},{"name":"秋葉台","zip_code":"5200822"},{"name":"朝日","zip_code":"5200533"},{"name":"朝日が丘","zip_code":"5200052"},{"name":"穴太","zip_code":"5200114"},{"name":"荒川","zip_code":"5200513"},{"name":"粟津町","zip_code":"5200832"},{"name":"伊香立上在地町","zip_code":"5200356"},{"name":"伊香立下在地町","zip_code":"5200352"},{"name":"伊香立上龍華町","zip_code":"5200362"},{"name":"伊香立下龍華町","zip_code":"5200363"},{"name":"伊香立北在地町","zip_code":"5200351"},{"name":"伊香立途中町","zip_code":"5200361"},{"name":"伊香立生津町","zip_code":"5200355"},{"name":"伊香立南庄町","zip_code":"5200354"},{"name":"伊香立向在地町","zip_code":"5200353"},{"name":"池の里","zip_code":"5200827"},{"name":"石居","zip_code":"5202272"},{"name":"石場","zip_code":"5200805"},{"name":"石山内畑町","zip_code":"5200869"},{"name":"石山千町","zip_code":"5200860"},{"name":"石山外畑町","zip_code":"5200868"},{"name":"石山寺","zip_code":"5200861"},{"name":"石山寺辺町","zip_code":"5200866"},{"name":"一里山","zip_code":"5202153"},{"name":"稲津","zip_code":"5202271"},{"name":"稲葉台","zip_code":"5200065"},{"name":"今堅田","zip_code":"5200241"},{"name":"打出浜","zip_code":"5200806"},{"name":"梅林","zip_code":"5200051"},{"name":"枝","zip_code":"5202275"},{"name":"追分町","zip_code":"5200064"},{"name":"逢坂","zip_code":"5200054"},{"name":"皇子が丘","zip_code":"5200025"},{"name":"大石小田原","zip_code":"5202267"},{"name":"大石小田原町","zip_code":"5202267"},{"name":"大石曾束","zip_code":"5202261"},{"name":"大石曾束町","zip_code":"5202261"},{"name":"大石富川","zip_code":"5202265"},{"name":"大石富川町","zip_code":"5202265"},{"name":"大石中","zip_code":"5202263"},{"name":"大石東","zip_code":"5202264"},{"name":"大石淀","zip_code":"5202262"},{"name":"大石淀町","zip_code":"5202262"},{"name":"大石龍門","zip_code":"5202266"},{"name":"大江","zip_code":"5202141"},{"name":"大萱","zip_code":"5202144"},{"name":"仰木","zip_code":"5200247"},{"name":"仰木町","zip_code":"5200245"},{"name":"仰木の里","zip_code":"5200246"},{"name":"仰木の里東","zip_code":"5200248"},{"name":"大谷町","zip_code":"5200062"},{"name":"大鳥居","zip_code":"5202118"},{"name":"大平","zip_code":"5200867"},{"name":"雄琴","zip_code":"5200101"},{"name":"雄琴北","zip_code":"5200107"},{"name":"音羽台","zip_code":"5200053"},{"name":"小野","zip_code":"5200525"},{"name":"尾花川","zip_code":"5200031"},{"name":"園城寺町","zip_code":"5200036"},{"name":"鏡が浜","zip_code":"5200012"},{"name":"春日町","zip_code":"5200055"},{"name":"堅田","zip_code":"5200243"},{"name":"葛川梅ノ木町","zip_code":"5200473"},{"name":"葛川木戸口町","zip_code":"5200477"},{"name":"葛川坂下町","zip_code":"5200478"},{"name":"葛川中村町","zip_code":"5200476"},{"name":"葛川貫井町","zip_code":"5200472"},{"name":"葛川細川町","zip_code":"5200471"},{"name":"葛川坊村町","zip_code":"5200475"},{"name":"葛川町居町","zip_code":"5200474"},{"name":"上田上桐生町","zip_code":"5202161"},{"name":"上田上芝原町","zip_code":"5202167"},{"name":"上田上新免町","zip_code":"5202165"},{"name":"上田上堂町","zip_code":"5202166"},{"name":"上田上中野町","zip_code":"5202164"},{"name":"上田上平野町","zip_code":"5202163"},{"name":"上田上牧町","zip_code":"5202162"},{"name":"神出開町","zip_code":"5200061"},{"name":"萱野浦","zip_code":"5202143"},{"name":"唐崎","zip_code":"5200106"},{"name":"唐橋町","zip_code":"5200851"},{"name":"勧学","zip_code":"5200013"},{"name":"観音寺","zip_code":"5200032"},{"name":"北大路","zip_code":"5200843"},{"name":"北小松","zip_code":"5200501"},{"name":"北比良","zip_code":"5200503"},{"name":"木戸","zip_code":"5200514"},{"name":"衣川","zip_code":"5200244"},{"name":"木下町","zip_code":"5200812"},{"name":"京町","zip_code":"5200044"},{"name":"桐生","zip_code":"5202111"},{"name":"栗林町","zip_code":"5202151"},{"name":"栗原","zip_code":"5200527"},{"name":"黒津","zip_code":"5202279"},{"name":"向陽町","zip_code":"5200224"},{"name":"国分","zip_code":"5200844"},{"name":"湖城が丘","zip_code":"5200821"},{"name":"湖青","zip_code":"5200532"},{"name":"小関町","zip_code":"5200035"},{"name":"御殿浜","zip_code":"5200834"},{"name":"木の岡町","zip_code":"5200103"},{"name":"御陵町","zip_code":"5200037"},{"name":"際川","zip_code":"5200002"},{"name":"栄町","zip_code":"5200855"},{"name":"坂本","zip_code":"5200113"},{"name":"坂本本町","zip_code":"5200116"},{"name":"相模町","zip_code":"5200816"},{"name":"桜野町","zip_code":"5200026"},{"name":"里","zip_code":"5202276"},{"name":"三大寺","zip_code":"5202131"},{"name":"滋賀里","zip_code":"5200006"},{"name":"芝原","zip_code":"5202117"},{"name":"島の関","zip_code":"5200042"},{"name":"下阪本","zip_code":"5200105"},{"name":"松陽","zip_code":"5202135"},{"name":"昭和町","zip_code":"5200817"},{"name":"神宮町","zip_code":"5200015"},{"name":"新免","zip_code":"5202115"},{"name":"神領","zip_code":"5202132"},{"name":"水明","zip_code":"5200531"},{"name":"末広町","zip_code":"5200056"},{"name":"杉浦町","zip_code":"5200836"},{"name":"清風町","zip_code":"5200225"},{"name":"晴嵐","zip_code":"5200833"},{"name":"清和町","zip_code":"5200227"},{"name":"関津","zip_code":"5202277"},{"name":"膳所","zip_code":"5200815"},{"name":"膳所池ノ内町","zip_code":"5200825"},{"name":"膳所上別保町","zip_code":"5200823"},{"name":"膳所平尾町","zip_code":"5200824"},{"name":"瀬田","zip_code":"5202134"},{"name":"瀬田大江町","zip_code":"5202123"},{"name":"瀬田神領町","zip_code":"5202124"},{"name":"瀬田月輪町","zip_code":"5202121"},{"name":"瀬田橋本町","zip_code":"5202125"},{"name":"瀬田南大萱町","zip_code":"5202122"},{"name":"千石台","zip_code":"5200028"},{"name":"千町","zip_code":"5200863"},{"name":"園山","zip_code":"5200842"},{"name":"太子","zip_code":"5202278"},{"name":"大物","zip_code":"5200512"},{"name":"大門通","zip_code":"5200033"},{"name":"高砂町","zip_code":"5200005"},{"name":"竜が丘","zip_code":"5200803"},{"name":"田辺町","zip_code":"5200852"},{"name":"玉野浦","zip_code":"5202142"},{"name":"大将軍","zip_code":"5202145"},{"name":"千野","zip_code":"5200111"},{"name":"茶が崎","zip_code":"5200023"},{"name":"茶戸町","zip_code":"5200066"},{"name":"中央","zip_code":"5200043"},{"name":"月輪","zip_code":"5202152"},{"name":"鶴の里","zip_code":"5200826"},{"name":"堂","zip_code":"5202116"},{"name":"鳥居川町","zip_code":"5200854"},{"name":"中庄","zip_code":"5200837"},{"name":"中野","zip_code":"5202114"},{"name":"長等","zip_code":"5200046"},{"name":"南郷","zip_code":"5200865"},{"name":"南郷上山町","zip_code":"5200871"},{"name":"におの浜","zip_code":"5200801"},{"name":"錦織","zip_code":"5200027"},{"name":"西の庄","zip_code":"5200818"},{"name":"二本松","zip_code":"5200021"},{"name":"苗鹿","zip_code":"5200102"},{"name":"野郷原","zip_code":"5202133"},{"name":"羽栗","zip_code":"5202273"},{"name":"蓮池町","zip_code":"5200001"},{"name":"八屋戸","zip_code":"5200515"},{"name":"花園町","zip_code":"5200222"},{"name":"浜大津","zip_code":"5200047"},{"name":"浜町","zip_code":"5200041"},{"name":"馬場","zip_code":"5200802"},{"name":"比叡平","zip_code":"5200016"},{"name":"比叡辻","zip_code":"5200104"},{"name":"光が丘町","zip_code":"5200856"},{"name":"日吉台","zip_code":"5200112"},{"name":"平津","zip_code":"5200862"},{"name":"平野","zip_code":"5202113"},{"name":"藤尾奥町","zip_code":"5200067"},{"name":"富士見台","zip_code":"5200846"},{"name":"札の辻","zip_code":"5200045"},{"name":"別保","zip_code":"5200835"},{"name":"螢谷","zip_code":"5200853"},{"name":"本堅田","zip_code":"5200242"},{"name":"本丸町","zip_code":"5200814"},{"name":"牧","zip_code":"5202112"},{"name":"松が丘","zip_code":"5202102"},{"name":"松原町","zip_code":"5200831"},{"name":"松本","zip_code":"5200807"},{"name":"松山町","zip_code":"5200024"},{"name":"真野","zip_code":"5200232"},{"name":"真野家田町","zip_code":"5200234"},{"name":"真野大野","zip_code":"5200235"},{"name":"真野佐川町","zip_code":"5200236"},{"name":"真野谷口町","zip_code":"5200233"},{"name":"真野普門","zip_code":"5200231"},{"name":"丸の内町","zip_code":"5200813"},{"name":"三井寺町","zip_code":"5200034"},{"name":"美崎町","zip_code":"5200841"},{"name":"見世","zip_code":"5200004"},{"name":"美空町","zip_code":"5200223"},{"name":"緑町","zip_code":"5200221"},{"name":"南小松","zip_code":"5200502"},{"name":"南志賀","zip_code":"5200011"},{"name":"南滋賀町","zip_code":"5200018"},{"name":"南比良","zip_code":"5200511"},{"name":"南船路","zip_code":"5200516"},{"name":"御幸町","zip_code":"5200057"},{"name":"本宮","zip_code":"5200804"},{"name":"森","zip_code":"5202274"},{"name":"柳が崎","zip_code":"5200022"},{"name":"柳川","zip_code":"5200014"},{"name":"山上町","zip_code":"5200038"},{"name":"山中町","zip_code":"5200017"},{"name":"山百合の丘","zip_code":"5200357"},{"name":"弥生町","zip_code":"5200115"},{"name":"由美浜","zip_code":"5200811"},{"name":"陽明町","zip_code":"5200226"},{"name":"横木","zip_code":"5200063"},{"name":"若葉台","zip_code":"5200845"},{"name":"和邇今宿","zip_code":"5200524"},{"name":"和邇春日","zip_code":"5200529"},{"name":"和邇北浜","zip_code":"5200521"},{"name":"和邇高城","zip_code":"5200528"},{"name":"和邇中","zip_code":"5200526"},{"name":"和邇中浜","zip_code":"5200522"},{"name":"和邇南浜","zip_code":"5200523"}]},{"name":"彦根市","divisions":[{"name":"旭町","zip_code":"5220073"},{"name":"安食中町","zip_code":"5291152"},{"name":"池州町","zip_code":"5220065"},{"name":"石寺町","zip_code":"5211101"},{"name":"稲枝町","zip_code":"5211125"},{"name":"稲里町","zip_code":"5211111"},{"name":"稲部町","zip_code":"5211113"},{"name":"犬方町","zip_code":"5220236"},{"name":"宇尾町","zip_code":"5220239"},{"name":"大橋町","zip_code":"5220034"},{"name":"大堀町","zip_code":"5220026"},{"name":"大藪町","zip_code":"5220053"},{"name":"男鬼町","zip_code":"5220017"},{"name":"岡町","zip_code":"5220037"},{"name":"尾末町","zip_code":"5220001"},{"name":"小野町","zip_code":"5220005"},{"name":"海瀬町","zip_code":"5211121"},{"name":"開出今町","zip_code":"5220056"},{"name":"賀田山町","zip_code":"5291155"},{"name":"金沢町","zip_code":"5211112"},{"name":"金田町","zip_code":"5211115"},{"name":"上稲葉町","zip_code":"5211131"},{"name":"上岡部町","zip_code":"5211103"},{"name":"上西川町","zip_code":"5211143"},{"name":"川瀬馬場町","zip_code":"5220223"},{"name":"河原","zip_code":"5220083"},{"name":"甘呂町","zip_code":"5220046"},{"name":"京町","zip_code":"5220081"},{"name":"清崎町","zip_code":"5291156"},{"name":"銀座町","zip_code":"5220088"},{"name":"小泉町","zip_code":"5220043"},{"name":"甲崎町","zip_code":"5211141"},{"name":"甲田町","zip_code":"5220012"},{"name":"広野町","zip_code":"5220238"},{"name":"極楽寺町","zip_code":"5220231"},{"name":"後三条町","zip_code":"5220086"},{"name":"金亀町","zip_code":"5220061"},{"name":"金剛寺町","zip_code":"5220235"},{"name":"幸町","zip_code":"5220021"},{"name":"栄町","zip_code":"5220066"},{"name":"笹尾町","zip_code":"5220019"},{"name":"薩摩町","zip_code":"5211147"},{"name":"里根町","zip_code":"5220022"},{"name":"佐和町","zip_code":"5220075"},{"name":"佐和山町","zip_code":"5220006"},{"name":"地蔵町","zip_code":"5220029"},{"name":"下稲葉町","zip_code":"5211132"},{"name":"下岡部町","zip_code":"5211102"},{"name":"下西川町","zip_code":"5211142"},{"name":"下矢倉町","zip_code":"5220011"},{"name":"荘厳寺町","zip_code":"5220015"},{"name":"正法寺町","zip_code":"5220024"},{"name":"城町","zip_code":"5220068"},{"name":"新海町","zip_code":"5211135"},{"name":"新海浜","zip_code":"5211136"},{"name":"新町","zip_code":"5220085"},{"name":"須越町","zip_code":"5220058"},{"name":"芹川町","zip_code":"5220033"},{"name":"芹中町","zip_code":"5220031"},{"name":"芹橋","zip_code":"5220087"},{"name":"芹町","zip_code":"5220032"},{"name":"善谷町","zip_code":"5220014"},{"name":"太堂町","zip_code":"5291153"},{"name":"大東町","zip_code":"5220074"},{"name":"高宮町","zip_code":"5220201"},{"name":"竹ケ鼻町","zip_code":"5220044"},{"name":"立花町","zip_code":"5220062"},{"name":"田附町","zip_code":"5211134"},{"name":"田原町","zip_code":"5211105"},{"name":"千尋町","zip_code":"5291154"},{"name":"中央町","zip_code":"5220063"},{"name":"辻堂町","zip_code":"5220233"},{"name":"葛籠町","zip_code":"5220212"},{"name":"出路町","zip_code":"5211104"},{"name":"出町","zip_code":"5220214"},{"name":"戸賀町","zip_code":"5220042"},{"name":"外町","zip_code":"5220009"},{"name":"鳥居本町","zip_code":"5220004"},{"name":"中藪","zip_code":"5220051"},{"name":"中藪町","zip_code":"5220051"},{"name":"中山町","zip_code":"5220013"},{"name":"長曽根町","zip_code":"5220067"},{"name":"長曽根南町","zip_code":"5220052"},{"name":"西今町","zip_code":"5220054"},{"name":"錦町","zip_code":"5220089"},{"name":"西葛籠町","zip_code":"5220213"},{"name":"西沼波町","zip_code":"5220038"},{"name":"楡町","zip_code":"5291151"},{"name":"野口町","zip_code":"5220221"},{"name":"野瀬町","zip_code":"5220055"},{"name":"野田山町","zip_code":"5220025"},{"name":"沼波町","zip_code":"5220036"},{"name":"野良田町","zip_code":"5211124"},{"name":"橋向町","zip_code":"5220084"},{"name":"八坂町","zip_code":"5220057"},{"name":"服部町","zip_code":"5211126"},{"name":"原町","zip_code":"5220023"},{"name":"馬場","zip_code":"5220069"},{"name":"東沼波町","zip_code":"5220027"},{"name":"彦富町","zip_code":"5211114"},{"name":"肥田町","zip_code":"5211123"},{"name":"日夏町","zip_code":"5220047"},{"name":"平田町","zip_code":"5220041"},{"name":"普光寺町","zip_code":"5211144"},{"name":"仏生寺町","zip_code":"5220018"},{"name":"武奈町","zip_code":"5220016"},{"name":"船町","zip_code":"5220072"},{"name":"古沢町","zip_code":"5220007"},{"name":"法士町","zip_code":"5220211"},{"name":"堀町","zip_code":"5220237"},{"name":"本庄町","zip_code":"5211133"},{"name":"本町","zip_code":"5220064"},{"name":"松原","zip_code":"5220002"},{"name":"松原町","zip_code":"5220002"},{"name":"三津町","zip_code":"5211122"},{"name":"三津屋町","zip_code":"5220059"},{"name":"南川瀬町","zip_code":"5220222"},{"name":"南三ツ谷町","zip_code":"5211145"},{"name":"宮田町","zip_code":"5220003"},{"name":"元岡町","zip_code":"5220035"},{"name":"元町","zip_code":"5220071"},{"name":"森堂町","zip_code":"5220234"},{"name":"安清町","zip_code":"5220082"},{"name":"安清東町","zip_code":"5220008"},{"name":"柳川町","zip_code":"5211146"},{"name":"山之脇町","zip_code":"5220038"},{"name":"蓮台寺町","zip_code":"5220232"},{"name":"和田町","zip_code":"5220039"}]},{"name":"長浜市","divisions":[{"name":"浅井高原","zip_code":"5260222"},{"name":"朝日町","zip_code":"5260056"},{"name":"安養寺町","zip_code":"5260126"},{"name":"池奥町","zip_code":"5260274"},{"name":"石田町","zip_code":"5260814"},{"name":"泉町","zip_code":"5260003"},{"name":"一の宮町","zip_code":"5260051"},{"name":"稲葉町","zip_code":"5260133"},{"name":"今川町","zip_code":"5260816"},{"name":"今荘町","zip_code":"5260233"},{"name":"今町","zip_code":"5260806"},{"name":"飯山町","zip_code":"5260211"},{"name":"内保町","zip_code":"5260244"},{"name":"瓜生町","zip_code":"5260275"},{"name":"上野町","zip_code":"5260264"},{"name":"永久寺町","zip_code":"5260833"},{"name":"榎木町","zip_code":"5260805"},{"name":"大井町","zip_code":"5290113"},{"name":"大戌亥町","zip_code":"5260043"},{"name":"大島町","zip_code":"5260066"},{"name":"太田町","zip_code":"5260207"},{"name":"大辰巳町","zip_code":"5260834"},{"name":"大浜町","zip_code":"5260115"},{"name":"大東町","zip_code":"5260832"},{"name":"大宮町","zip_code":"5260054"},{"name":"大依町","zip_code":"5260251"},{"name":"岡谷町","zip_code":"5260205"},{"name":"小谷上山田町","zip_code":"5290301"},{"name":"小谷郡上町","zip_code":"5290312"},{"name":"小谷美濃山町","zip_code":"5290311"},{"name":"小谷丁野町","zip_code":"5290304"},{"name":"落合町","zip_code":"5260102"},{"name":"大路町","zip_code":"5260243"},{"name":"小野寺町","zip_code":"5260221"},{"name":"垣籠町","zip_code":"5260811"},{"name":"柿ノ木","zip_code":"5290131"},{"name":"鍛冶屋町","zip_code":"5260204"},{"name":"加田今町","zip_code":"5260827"},{"name":"加田町","zip_code":"5260828"},{"name":"勝町","zip_code":"5260042"},{"name":"鐘紡町","zip_code":"5260068"},{"name":"加納町","zip_code":"5260804"},{"name":"神照町","zip_code":"5260015"},{"name":"上八木町","zip_code":"5260122"},{"name":"唐国町","zip_code":"5290101"},{"name":"川崎町","zip_code":"5260846"},{"name":"川道町","zip_code":"5260111"},{"name":"木尾町","zip_code":"5260265"},{"name":"祇園町","zip_code":"5260061"},{"name":"北池町","zip_code":"5260231"},{"name":"北ノ郷町","zip_code":"5260214"},{"name":"北野町","zip_code":"5260272"},{"name":"北船町","zip_code":"5260057"},{"name":"木之本町赤尾","zip_code":"5290435"},{"name":"木之本町アットリ","zip_code":"5290421"},{"name":"木之本町石道","zip_code":"5290412"},{"name":"木之本町大音","zip_code":"5290431"},{"name":"木之本町大見","zip_code":"5290415"},{"name":"木之本町音羽","zip_code":"5290403"},{"name":"木之本町金居原","zip_code":"5290401"},{"name":"木之本町川合","zip_code":"5290414"},{"name":"木之本町北布施","zip_code":"5290434"},{"name":"木之本町木之本","zip_code":"5290425"},{"name":"木之本町黒田","zip_code":"5290426"},{"name":"木之本町小山","zip_code":"5290413"},{"name":"木之本町杉野","zip_code":"5290402"},{"name":"木之本町杉本","zip_code":"5290404"},{"name":"木之本町千田","zip_code":"5290423"},{"name":"木之本町田居","zip_code":"5290432"},{"name":"木之本町田部","zip_code":"5290422"},{"name":"木之本町西山","zip_code":"5290433"},{"name":"木之本町飯浦","zip_code":"5290541"},{"name":"木之本町廣瀬","zip_code":"5290424"},{"name":"木之本町古橋","zip_code":"5290411"},{"name":"木之本町山梨子","zip_code":"5290436"},{"name":"草野町","zip_code":"5260202"},{"name":"国友町","zip_code":"5260001"},{"name":"口分田町","zip_code":"5260014"},{"name":"黒部町","zip_code":"5260262"},{"name":"小一条町","zip_code":"5260826"},{"name":"公園町","zip_code":"5260065"},{"name":"香花寺町","zip_code":"5260132"},{"name":"郷野町","zip_code":"5260206"},{"name":"小観音寺町","zip_code":"5260134"},{"name":"小沢町","zip_code":"5260004"},{"name":"湖北今町","zip_code":"5290333"},{"name":"湖北高田町","zip_code":"5290342"},{"name":"湖北町青名","zip_code":"5290332"},{"name":"湖北町石川","zip_code":"5290361"},{"name":"湖北町伊部","zip_code":"5290313"},{"name":"湖北町今西","zip_code":"5290365"},{"name":"湖北町海老江","zip_code":"5290367"},{"name":"湖北町延勝寺","zip_code":"5290366"},{"name":"湖北町小倉","zip_code":"5290343"},{"name":"湖北町尾上","zip_code":"5290364"},{"name":"湖北町賀","zip_code":"5290321"},{"name":"湖北町河毛","zip_code":"5290316"},{"name":"湖北町小今","zip_code":"5290322"},{"name":"湖北町五坪","zip_code":"5290352"},{"name":"湖北町沢","zip_code":"5290334"},{"name":"湖北町大安寺","zip_code":"5290345"},{"name":"湖北町田中","zip_code":"5290353"},{"name":"湖北町津里","zip_code":"5290362"},{"name":"湖北町留目","zip_code":"5290314"},{"name":"湖北町猫口","zip_code":"5290335"},{"name":"湖北町速水","zip_code":"5290341"},{"name":"湖北町二俣","zip_code":"5290303"},{"name":"湖北町別所","zip_code":"5290315"},{"name":"湖北町南速水","zip_code":"5290346"},{"name":"湖北町馬渡","zip_code":"5290344"},{"name":"湖北町山本","zip_code":"5290354"},{"name":"湖北町山脇","zip_code":"5290317"},{"name":"湖北町八日市","zip_code":"5290331"},{"name":"湖北東尾上町","zip_code":"5290363"},{"name":"小堀町","zip_code":"5260845"},{"name":"五村","zip_code":"5290141"},{"name":"小室町","zip_code":"5260263"},{"name":"桜町","zip_code":"5290121"},{"name":"佐野町","zip_code":"5260235"},{"name":"三和町","zip_code":"5260055"},{"name":"七条町","zip_code":"5260817"},{"name":"地福寺町","zip_code":"5260036"},{"name":"下坂中町","zip_code":"5260044"},{"name":"下坂浜町","zip_code":"5260047"},{"name":"下之郷町","zip_code":"5260005"},{"name":"下八木町","zip_code":"5260123"},{"name":"下山田","zip_code":"5290302"},{"name":"十里町","zip_code":"5260016"},{"name":"十九町","zip_code":"5260121"},{"name":"常喜町","zip_code":"5260823"},{"name":"新旭町","zip_code":"5290133"},{"name":"新庄寺町","zip_code":"5260013"},{"name":"新庄中町","zip_code":"5260012"},{"name":"新庄馬場町","zip_code":"5260011"},{"name":"神前町","zip_code":"5260052"},{"name":"新三田","zip_code":"5260241"},{"name":"酢","zip_code":"5290122"},{"name":"末広町","zip_code":"5260063"},{"name":"須賀谷町","zip_code":"5260277"},{"name":"相撲町","zip_code":"5260017"},{"name":"相撲庭町","zip_code":"5260234"},{"name":"曽根町","zip_code":"5260103"},{"name":"尊勝寺町","zip_code":"5260256"},{"name":"尊野町","zip_code":"5260254"},{"name":"大光寺町","zip_code":"5290351"},{"name":"醍醐町","zip_code":"5260213"},{"name":"大寺町","zip_code":"5290144"},{"name":"大門町","zip_code":"5260216"},{"name":"高田町","zip_code":"5260037"},{"name":"高月町雨森","zip_code":"5290222"},{"name":"高月町磯野","zip_code":"5290203"},{"name":"高月町井口","zip_code":"5290212"},{"name":"高月町宇根","zip_code":"5290251"},{"name":"高月町落川","zip_code":"5290232"},{"name":"高月町尾山","zip_code":"5290215"},{"name":"高月町柏原","zip_code":"5290234"},{"name":"高月町片山","zip_code":"5290272"},{"name":"高月町唐川","zip_code":"5290205"},{"name":"高月町熊野","zip_code":"5290271"},{"name":"高月町重則","zip_code":"5290275"},{"name":"高月町高月","zip_code":"5290241"},{"name":"高月町高野","zip_code":"5290221"},{"name":"高月町渡岸寺","zip_code":"5290233"},{"name":"高月町西阿閉","zip_code":"5290253"},{"name":"高月町西野","zip_code":"5290273"},{"name":"高月町西物部","zip_code":"5290262"},{"name":"高月町西柳野","zip_code":"5290265"},{"name":"高月町東阿閉","zip_code":"5290252"},{"name":"高月町東高田","zip_code":"5290202"},{"name":"高月町東物部","zip_code":"5290261"},{"name":"高月町東柳野","zip_code":"5290263"},{"name":"高月町布施","zip_code":"5290204"},{"name":"高月町保延寺","zip_code":"5290211"},{"name":"高月町洞戸","zip_code":"5290214"},{"name":"高月町馬上","zip_code":"5290223"},{"name":"高月町松尾","zip_code":"5290274"},{"name":"高月町持寺","zip_code":"5290213"},{"name":"高月町森本","zip_code":"5290231"},{"name":"高月町柳野中","zip_code":"5290264"},{"name":"高月町横山","zip_code":"5290201"},{"name":"高橋町","zip_code":"5260046"},{"name":"高畑町","zip_code":"5260273"},{"name":"高山町","zip_code":"5260201"},{"name":"田川町","zip_code":"5260276"},{"name":"田町","zip_code":"5290142"},{"name":"谷口町","zip_code":"5260271"},{"name":"田村町","zip_code":"5260829"},{"name":"千草町","zip_code":"5260801"},{"name":"月ヶ瀬町","zip_code":"5290102"},{"name":"鶴が島","zip_code":"5260112"},{"name":"寺師町","zip_code":"5260209"},{"name":"寺田町","zip_code":"5260045"},{"name":"当目町","zip_code":"5260215"},{"name":"徳山町","zip_code":"5260212"},{"name":"殿町","zip_code":"5260064"},{"name":"鳥羽上町","zip_code":"5260822"},{"name":"富田町","zip_code":"5260131"},{"name":"長田町","zip_code":"5290132"},{"name":"中野町","zip_code":"5290103"},{"name":"中浜","zip_code":"5260114"},{"name":"中山町","zip_code":"5260022"},{"name":"名越町","zip_code":"5260824"},{"name":"南郷町","zip_code":"5260225"},{"name":"難波町","zip_code":"5260108"},{"name":"新栄町","zip_code":"5260841"},{"name":"西浅井町大浦","zip_code":"5290721"},{"name":"西浅井町小山","zip_code":"5290714"},{"name":"西浅井町沓掛","zip_code":"5290708"},{"name":"西浅井町黒山","zip_code":"5290725"},{"name":"西浅井町塩津中","zip_code":"5290704"},{"name":"西浅井町塩津浜","zip_code":"5290701"},{"name":"西浅井町集福寺","zip_code":"5290707"},{"name":"西浅井町庄","zip_code":"5290722"},{"name":"西浅井町菅浦","zip_code":"5290726"},{"name":"西浅井町月出","zip_code":"5290712"},{"name":"西浅井町中","zip_code":"5290723"},{"name":"西浅井町野坂","zip_code":"5290703"},{"name":"西浅井町八田部","zip_code":"5290713"},{"name":"西浅井町祝山","zip_code":"5290702"},{"name":"西浅井町岩熊","zip_code":"5290711"},{"name":"西浅井町山門","zip_code":"5290724"},{"name":"西浅井町山田","zip_code":"5290715"},{"name":"西浅井町余","zip_code":"5290706"},{"name":"西浅井町横波","zip_code":"5290705"},{"name":"西大井町","zip_code":"5290123"},{"name":"西主計町","zip_code":"5260227"},{"name":"西上坂町","zip_code":"5260803"},{"name":"錦織町","zip_code":"5260101"},{"name":"西新三田","zip_code":"5260246"},{"name":"西野町","zip_code":"5260255"},{"name":"西村町","zip_code":"5260208"},{"name":"新居町","zip_code":"5260107"},{"name":"乗倉町","zip_code":"5260217"},{"name":"野瀬町","zip_code":"5260203"},{"name":"野田町","zip_code":"5260266"},{"name":"野寺町","zip_code":"5260106"},{"name":"野村町","zip_code":"5260236"},{"name":"八条町","zip_code":"5260815"},{"name":"早崎町","zip_code":"5260124"},{"name":"春近町","zip_code":"5260842"},{"name":"東主計町","zip_code":"5260226"},{"name":"東上坂町","zip_code":"5260802"},{"name":"東野町","zip_code":"5260224"},{"name":"平方南町","zip_code":"5260035"},{"name":"平方町","zip_code":"5260033"},{"name":"平塚町","zip_code":"5260253"},{"name":"布勢町","zip_code":"5260825"},{"name":"分木町","zip_code":"5260025"},{"name":"保田町","zip_code":"5260002"},{"name":"法楽寺町","zip_code":"5260223"},{"name":"細江町","zip_code":"5260105"},{"name":"保多町","zip_code":"5260812"},{"name":"堀部町","zip_code":"5260813"},{"name":"本庄町","zip_code":"5260821"},{"name":"本町","zip_code":"5290143"},{"name":"益田町","zip_code":"5260125"},{"name":"三川町","zip_code":"5290111"},{"name":"御館","zip_code":"5260104"},{"name":"三田町","zip_code":"5260242"},{"name":"三ツ矢町","zip_code":"5260023"},{"name":"三ツ矢元町","zip_code":"5260024"},{"name":"港町","zip_code":"5260067"},{"name":"南池町","zip_code":"5260232"},{"name":"南小足町","zip_code":"5260843"},{"name":"南呉服町","zip_code":"5260058"},{"name":"南高田町","zip_code":"5260032"},{"name":"南田附町","zip_code":"5260844"},{"name":"南浜町","zip_code":"5260113"},{"name":"宮司町","zip_code":"5260831"},{"name":"宮部町","zip_code":"5290112"},{"name":"宮前町","zip_code":"5260053"},{"name":"室町","zip_code":"5260835"},{"name":"元浜町","zip_code":"5260059"},{"name":"森町","zip_code":"5260018"},{"name":"八木浜町","zip_code":"5260116"},{"name":"八島町","zip_code":"5260252"},{"name":"弥高町","zip_code":"5260034"},{"name":"山階町","zip_code":"5260847"},{"name":"山ノ前町","zip_code":"5260257"},{"name":"八幡中山町","zip_code":"5260021"},{"name":"八幡東町","zip_code":"5260031"},{"name":"弓削町","zip_code":"5260135"},{"name":"湯次町","zip_code":"5260245"},{"name":"余呉町池原","zip_code":"5290536"},{"name":"余呉町今市","zip_code":"5290535"},{"name":"余呉町小谷","zip_code":"5290534"},{"name":"余呉町奥川並","zip_code":"5290503"},{"name":"余呉町尾羽梨","zip_code":"5290502"},{"name":"余呉町小原","zip_code":"5290505"},{"name":"余呉町上丹生","zip_code":"5290512"},{"name":"余呉町川並","zip_code":"5290523"},{"name":"余呉町国安","zip_code":"5290526"},{"name":"余呉町坂口","zip_code":"5290522"},{"name":"余呉町下丹生","zip_code":"5290514"},{"name":"余呉町下余呉","zip_code":"5290521"},{"name":"余呉町新堂","zip_code":"5290537"},{"name":"余呉町菅並","zip_code":"5290511"},{"name":"余呉町摺墨","zip_code":"5290513"},{"name":"余呉町田戸","zip_code":"5290504"},{"name":"余呉町椿坂","zip_code":"5290532"},{"name":"余呉町中河内","zip_code":"5290531"},{"name":"余呉町中之郷","zip_code":"5290515"},{"name":"余呉町針川","zip_code":"5290501"},{"name":"余呉町東野","zip_code":"5290527"},{"name":"余呉町文室","zip_code":"5290525"},{"name":"余呉町八戸","zip_code":"5290524"},{"name":"余呉町柳ケ瀬","zip_code":"5290533"},{"name":"余呉町鷲見","zip_code":"5290506"},{"name":"四ツ塚町","zip_code":"5260041"},{"name":"力丸町","zip_code":"5260267"},{"name":"竜安寺町","zip_code":"5260261"},{"name":"列見町","zip_code":"5260062"}]},{"name":"近江八幡市","divisions":[{"name":"間之町","zip_code":"5230836"},{"name":"赤尾町","zip_code":"5230052"},{"name":"浅小井町","zip_code":"5230817"},{"name":"安土町石寺","zip_code":"5211331"},{"name":"安土町内野","zip_code":"5211333"},{"name":"安土町上出","zip_code":"5211342"},{"name":"安土町上豊浦","zip_code":"5211341"},{"name":"安土町桑実寺","zip_code":"5211321"},{"name":"安土町小中","zip_code":"5211343"},{"name":"安土町香庄","zip_code":"5211346"},{"name":"安土町慈恩寺","zip_code":"5211345"},{"name":"安土町下豊浦","zip_code":"5211311"},{"name":"安土町常楽寺","zip_code":"5211351"},{"name":"安土町大中","zip_code":"5211301"},{"name":"安土町中屋","zip_code":"5211344"},{"name":"安土町西老蘇","zip_code":"5211334"},{"name":"安土町東老蘇","zip_code":"5211332"},{"name":"安土町宮津","zip_code":"5211322"},{"name":"安養寺町","zip_code":"5230045"},{"name":"生須町","zip_code":"5230823"},{"name":"池田本町","zip_code":"5230043"},{"name":"池田町","zip_code":"5230877"},{"name":"為心町上","zip_code":"5230866"},{"name":"為心町中","zip_code":"5230865"},{"name":"為心町元","zip_code":"5230864"},{"name":"板屋町","zip_code":"5230885"},{"name":"市井町","zip_code":"5230851"},{"name":"上田町","zip_code":"5230015"},{"name":"上野町","zip_code":"5230046"},{"name":"上畑町","zip_code":"5230026"},{"name":"宇津呂町","zip_code":"5230895"},{"name":"魚屋町上","zip_code":"5230869"},{"name":"魚屋町中","zip_code":"5230868"},{"name":"魚屋町元","zip_code":"5230867"},{"name":"江頭町","zip_code":"5230061"},{"name":"江南町","zip_code":"5230832"},{"name":"大杉町","zip_code":"5230837"},{"name":"大房町","zip_code":"5230071"},{"name":"大森町","zip_code":"5230042"},{"name":"沖島町","zip_code":"5230801"},{"name":"長田町","zip_code":"5230811"},{"name":"小田町","zip_code":"5230064"},{"name":"音羽町","zip_code":"5230856"},{"name":"小幡町上","zip_code":"5230875"},{"name":"小幡町中","zip_code":"5230874"},{"name":"鍵之手町","zip_code":"5230852"},{"name":"鍜治屋町","zip_code":"5230833"},{"name":"加茂町","zip_code":"5230058"},{"name":"川原町","zip_code":"5230047"},{"name":"北末町","zip_code":"5230884"},{"name":"北津田町","zip_code":"5230087"},{"name":"北之庄町","zip_code":"5230806"},{"name":"北元町","zip_code":"5230883"},{"name":"倉橋部町","zip_code":"5230023"},{"name":"御所内町","zip_code":"5230003"},{"name":"小船木町","zip_code":"5230083"},{"name":"金剛寺町","zip_code":"5230001"},{"name":"佐久間町","zip_code":"5230881"},{"name":"桜宮町","zip_code":"5230893"},{"name":"佐波江町","zip_code":"5230076"},{"name":"慈恩寺町上","zip_code":"5230843"},{"name":"慈恩寺町中","zip_code":"5230842"},{"name":"慈恩寺町元","zip_code":"5230841"},{"name":"篠原町","zip_code":"5230044"},{"name":"島町","zip_code":"5230804"},{"name":"十王町","zip_code":"5230063"},{"name":"正神町","zip_code":"5230873"},{"name":"浄土寺町","zip_code":"5230024"},{"name":"白王町","zip_code":"5230803"},{"name":"白鳥町","zip_code":"5230032"},{"name":"新左衛門町","zip_code":"5230825"},{"name":"新栄町","zip_code":"5230081"},{"name":"新巻町","zip_code":"5230025"},{"name":"新町","zip_code":"5230871"},{"name":"水茎町","zip_code":"5230074"},{"name":"末広町","zip_code":"5230005"},{"name":"杉森町","zip_code":"5230812"},{"name":"仲屋町上","zip_code":"5230863"},{"name":"仲屋町中","zip_code":"5230862"},{"name":"仲屋町元","zip_code":"5230861"},{"name":"千僧供町","zip_code":"5230016"},{"name":"大工町","zip_code":"5230824"},{"name":"大中町","zip_code":"5230802"},{"name":"鷹飼町","zip_code":"5230891"},{"name":"鷹飼町北","zip_code":"5230896"},{"name":"鷹飼町東","zip_code":"5230897"},{"name":"鷹飼町南","zip_code":"5230898"},{"name":"多賀町","zip_code":"5230821"},{"name":"竹町","zip_code":"5230036"},{"name":"田中江町","zip_code":"5230057"},{"name":"玉木町","zip_code":"5230872"},{"name":"玉屋町","zip_code":"5230831"},{"name":"長光寺町","zip_code":"5230013"},{"name":"長福寺町","zip_code":"5230021"},{"name":"長命寺町","zip_code":"5230808"},{"name":"津田町","zip_code":"5230086"},{"name":"土田町","zip_code":"5230082"},{"name":"鉄炮町","zip_code":"5230827"},{"name":"出町","zip_code":"5230892"},{"name":"友定町","zip_code":"5230011"},{"name":"中小森町","zip_code":"5230041"},{"name":"中之庄町","zip_code":"5230807"},{"name":"永原町上","zip_code":"5230849"},{"name":"永原町中","zip_code":"5230848"},{"name":"永原町元","zip_code":"5230847"},{"name":"中村町","zip_code":"5230894"},{"name":"縄手町末","zip_code":"5230855"},{"name":"縄手町中","zip_code":"5230854"},{"name":"縄手町元","zip_code":"5230853"},{"name":"西宿町","zip_code":"5230014"},{"name":"西末町","zip_code":"5230886"},{"name":"西畳屋町","zip_code":"5230835"},{"name":"西庄町","zip_code":"5230816"},{"name":"西本郷町","zip_code":"5230813"},{"name":"西本郷町西","zip_code":"5230819"},{"name":"西本郷町東","zip_code":"5230818"},{"name":"西元町","zip_code":"5230887"},{"name":"西生来町","zip_code":"5230004"},{"name":"野田町","zip_code":"5230002"},{"name":"野村町","zip_code":"5230075"},{"name":"博労町上","zip_code":"5230846"},{"name":"博労町中","zip_code":"5230845"},{"name":"博労町元","zip_code":"5230844"},{"name":"八幡町","zip_code":"5230857"},{"name":"東川町","zip_code":"5230027"},{"name":"東畳屋町","zip_code":"5230834"},{"name":"東町","zip_code":"5230037"},{"name":"東横関町","zip_code":"5230035"},{"name":"日杉町","zip_code":"5230889"},{"name":"日吉野町","zip_code":"5230033"},{"name":"船木町","zip_code":"5230084"},{"name":"船町","zip_code":"5230822"},{"name":"古川町","zip_code":"5230056"},{"name":"堀上町","zip_code":"5230031"},{"name":"本町","zip_code":"5230876"},{"name":"牧町","zip_code":"5230072"},{"name":"孫平治町","zip_code":"5230888"},{"name":"益田町","zip_code":"5230053"},{"name":"馬淵町","zip_code":"5230022"},{"name":"丸の内町","zip_code":"5230062"},{"name":"円山町","zip_code":"5230805"},{"name":"緑町","zip_code":"5230048"},{"name":"南津田町","zip_code":"5230085"},{"name":"南本郷町","zip_code":"5230814"},{"name":"宮内町","zip_code":"5230828"},{"name":"武佐町","zip_code":"5230012"},{"name":"元水茎町","zip_code":"5230073"},{"name":"元玉屋町","zip_code":"5230882"},{"name":"森尻町","zip_code":"5230054"},{"name":"八木町","zip_code":"5230051"},{"name":"薬師町","zip_code":"5230826"},{"name":"柳町","zip_code":"5230055"},{"name":"若葉町","zip_code":"5230815"},{"name":"若宮町","zip_code":"5230034"}]},{"name":"草津市","divisions":[{"name":"青地町","zip_code":"5250041"},{"name":"芦浦町","zip_code":"5250002"},{"name":"集町","zip_code":"5250015"},{"name":"穴村町","zip_code":"5250012"},{"name":"追分","zip_code":"5250047"},{"name":"追分町","zip_code":"5250046"},{"name":"大路","zip_code":"5250032"},{"name":"岡本町","zip_code":"5250044"},{"name":"下物町","zip_code":"5250001"},{"name":"笠山","zip_code":"5250072"},{"name":"片岡町","zip_code":"5250011"},{"name":"上笠","zip_code":"5250028"},{"name":"上寺町","zip_code":"5250004"},{"name":"川原","zip_code":"5250021"},{"name":"川原町","zip_code":"5250022"},{"name":"北大萱町","zip_code":"5250016"},{"name":"北山田町","zip_code":"5250061"},{"name":"木川町","zip_code":"5250051"},{"name":"草津","zip_code":"5250034"},{"name":"草津町","zip_code":"5250036"},{"name":"駒井沢町","zip_code":"5250014"},{"name":"桜ケ丘","zip_code":"5250057"},{"name":"志那町","zip_code":"5250005"},{"name":"志那中町","zip_code":"5250006"},{"name":"渋川","zip_code":"5250026"},{"name":"下笠町","zip_code":"5250029"},{"name":"下寺町","zip_code":"5250007"},{"name":"新堂町","zip_code":"5250013"},{"name":"新浜町","zip_code":"5250067"},{"name":"長束町","zip_code":"5250003"},{"name":"西大路町","zip_code":"5250037"},{"name":"西草津","zip_code":"5250035"},{"name":"西渋川","zip_code":"5250025"},{"name":"西矢倉","zip_code":"5250052"},{"name":"野路","zip_code":"5250059"},{"name":"野路町","zip_code":"5250055"},{"name":"野路東","zip_code":"5250058"},{"name":"野村","zip_code":"5250027"},{"name":"橋岡町","zip_code":"5250065"},{"name":"馬場町","zip_code":"5250043"},{"name":"東草津","zip_code":"5250033"},{"name":"東矢倉","zip_code":"5250054"},{"name":"平井","zip_code":"5250023"},{"name":"平井町","zip_code":"5250024"},{"name":"御倉町","zip_code":"5250064"},{"name":"南笠町","zip_code":"5250056"},{"name":"南笠東","zip_code":"5250071"},{"name":"南草津","zip_code":"5250050"},{"name":"南山田町","zip_code":"5250063"},{"name":"矢倉","zip_code":"5250053"},{"name":"矢橋町","zip_code":"5250066"},{"name":"山田町","zip_code":"5250062"},{"name":"山寺町","zip_code":"5250042"},{"name":"若草","zip_code":"5250045"},{"name":"若竹町","zip_code":"5250031"}]},{"name":"守山市","divisions":[{"name":"赤野井町","zip_code":"5240061"},{"name":"阿村町","zip_code":"5240035"},{"name":"荒見町","zip_code":"5240016"},{"name":"石田町","zip_code":"5240014"},{"name":"伊勢町","zip_code":"5240036"},{"name":"今市町","zip_code":"5240011"},{"name":"今宿","zip_code":"5240046"},{"name":"今宿町","zip_code":"5240046"},{"name":"今浜町","zip_code":"5240101"},{"name":"梅田町","zip_code":"5240037"},{"name":"焔魔堂町","zip_code":"5240042"},{"name":"大林町","zip_code":"5240054"},{"name":"岡町","zip_code":"5240032"},{"name":"笠原町","zip_code":"5240004"},{"name":"勝部","zip_code":"5240041"},{"name":"勝部町","zip_code":"5240041"},{"name":"金森町","zip_code":"5240045"},{"name":"川田町","zip_code":"5240001"},{"name":"小島町","zip_code":"5240002"},{"name":"木浜町","zip_code":"5240104"},{"name":"小浜町","zip_code":"5240211"},{"name":"幸津川町","zip_code":"5240215"},{"name":"下之郷","zip_code":"5240013"},{"name":"下之郷町","zip_code":"5240013"},{"name":"十二里町","zip_code":"5240055"},{"name":"新庄町","zip_code":"5240213"},{"name":"杉江町","zip_code":"5240062"},{"name":"洲本町","zip_code":"5240103"},{"name":"大門町","zip_code":"5240052"},{"name":"立田町","zip_code":"5240214"},{"name":"立入町","zip_code":"5240031"},{"name":"千代町","zip_code":"5240034"},{"name":"中町","zip_code":"5240003"},{"name":"服部町","zip_code":"5240212"},{"name":"播磨田町","zip_code":"5240012"},{"name":"浮気町","zip_code":"5240033"},{"name":"二町町","zip_code":"5240043"},{"name":"古高町","zip_code":"5240044"},{"name":"欲賀町","zip_code":"5240063"},{"name":"水保町","zip_code":"5240102"},{"name":"三宅町","zip_code":"5240051"},{"name":"森川原町","zip_code":"5240064"},{"name":"守山","zip_code":"5240022"},{"name":"守山町","zip_code":"5240022"},{"name":"矢島町","zip_code":"5240015"},{"name":"山賀町","zip_code":"5240065"},{"name":"横江町","zip_code":"5240053"},{"name":"吉身","zip_code":"5240021"},{"name":"吉身町","zip_code":"5240021"}]},{"name":"栗東市","divisions":[{"name":"荒張","zip_code":"5203003"},{"name":"安養寺","zip_code":"5203015"},{"name":"伊勢落","zip_code":"5203044"},{"name":"井上","zip_code":"5203006"},{"name":"大橋","zip_code":"5203046"},{"name":"岡","zip_code":"5203012"},{"name":"小柿","zip_code":"5203024"},{"name":"小野","zip_code":"5203016"},{"name":"笠川","zip_code":"5203033"},{"name":"上砥山","zip_code":"5203004"},{"name":"上鈎","zip_code":"5203022"},{"name":"苅原","zip_code":"5203032"},{"name":"川辺","zip_code":"5203014"},{"name":"観音寺","zip_code":"5203002"},{"name":"北中小路","zip_code":"5203037"},{"name":"小平井","zip_code":"5203034"},{"name":"下戸山","zip_code":"5203011"},{"name":"下鈎","zip_code":"5203026"},{"name":"十里","zip_code":"5203036"},{"name":"高野","zip_code":"5203045"},{"name":"辻","zip_code":"5203042"},{"name":"出庭","zip_code":"5203041"},{"name":"手原","zip_code":"5203047"},{"name":"中沢","zip_code":"5203025"},{"name":"野尻","zip_code":"5203027"},{"name":"蜂屋","zip_code":"5203021"},{"name":"林","zip_code":"5203043"},{"name":"東坂","zip_code":"5203001"},{"name":"綣","zip_code":"5203031"},{"name":"坊袋","zip_code":"5203023"},{"name":"御園","zip_code":"5203005"},{"name":"目川","zip_code":"5203013"},{"name":"霊仙寺","zip_code":"5203035"},{"name":"六地蔵","zip_code":"5203017"}]},{"name":"甲賀市","divisions":[{"name":"甲賀町油日","zip_code":"5203413"},{"name":"甲賀町櫟野","zip_code":"5203412"},{"name":"甲賀町岩室","zip_code":"5203401"},{"name":"甲賀町上野","zip_code":"5203421"},{"name":"甲賀町大久保","zip_code":"5203414"},{"name":"甲賀町大原市場","zip_code":"5203433"},{"name":"甲賀町大原上田","zip_code":"5203415"},{"name":"甲賀町大原中","zip_code":"5203431"},{"name":"甲賀町隠岐","zip_code":"5203405"},{"name":"甲賀町鹿深台","zip_code":"5203427"},{"name":"甲賀町神","zip_code":"5203411"},{"name":"甲賀町小佐治","zip_code":"5203402"},{"name":"甲賀町五反田","zip_code":"5203423"},{"name":"甲賀町相模","zip_code":"5203435"},{"name":"甲賀町神保","zip_code":"5203404"},{"name":"甲賀町高野","zip_code":"5203434"},{"name":"甲賀町高嶺","zip_code":"5203424"},{"name":"甲賀町滝","zip_code":"5203432"},{"name":"甲賀町田堵野","zip_code":"5203426"},{"name":"甲賀町鳥居野","zip_code":"5203403"},{"name":"甲賀町拝坂","zip_code":"5203436"},{"name":"甲賀町毛枚","zip_code":"5203425"},{"name":"甲賀町和田","zip_code":"5203422"},{"name":"甲南町池田","zip_code":"5203302"},{"name":"甲南町磯尾","zip_code":"5203312"},{"name":"甲南町市原","zip_code":"5203316"},{"name":"甲南町葛木","zip_code":"5203321"},{"name":"甲南町上馬杉","zip_code":"5203303"},{"name":"甲南町希望ケ丘","zip_code":"5203333"},{"name":"甲南町希望ケ丘本町","zip_code":"5203332"},{"name":"甲南町耕心","zip_code":"5203326"},{"name":"甲南町柑子","zip_code":"5203306"},{"name":"甲南町塩野","zip_code":"5203315"},{"name":"甲南町下馬杉","zip_code":"5203304"},{"name":"甲南町新治","zip_code":"5203313"},{"name":"甲南町杉谷","zip_code":"5203314"},{"name":"甲南町寺庄","zip_code":"5203301"},{"name":"甲南町野川","zip_code":"5203305"},{"name":"甲南町野尻","zip_code":"5203307"},{"name":"甲南町野田","zip_code":"5203308"},{"name":"甲南町稗谷","zip_code":"5203331"},{"name":"甲南町深川","zip_code":"5203322"},{"name":"甲南町深川市場","zip_code":"5203323"},{"name":"甲南町宝木","zip_code":"5203325"},{"name":"甲南町森尻","zip_code":"5203324"},{"name":"甲南町竜法師","zip_code":"5203311"},{"name":"信楽町江田","zip_code":"5291811"},{"name":"信楽町小川","zip_code":"5291833"},{"name":"信楽町小川出","zip_code":"5291832"},{"name":"信楽町上朝宮","zip_code":"5291841"},{"name":"信楽町黄瀬","zip_code":"5291802"},{"name":"信楽町神山","zip_code":"5291812"},{"name":"信楽町下朝宮","zip_code":"5291842"},{"name":"信楽町杉山","zip_code":"5291834"},{"name":"信楽町田代","zip_code":"5291814"},{"name":"信楽町多羅尾","zip_code":"5291821"},{"name":"信楽町勅旨","zip_code":"5291804"},{"name":"信楽町中野","zip_code":"5291835"},{"name":"信楽町長野","zip_code":"5291851"},{"name":"信楽町西","zip_code":"5291831"},{"name":"信楽町畑","zip_code":"5291813"},{"name":"信楽町柞原","zip_code":"5291836"},{"name":"信楽町牧","zip_code":"5291803"},{"name":"信楽町宮尻","zip_code":"5291843"},{"name":"信楽町宮町","zip_code":"5291801"},{"name":"土山町山女原","zip_code":"5280204"},{"name":"土山町鮎河","zip_code":"5280202"},{"name":"土山町市場","zip_code":"5280233"},{"name":"土山町猪鼻","zip_code":"5280207"},{"name":"土山町大河原","zip_code":"5280201"},{"name":"土山町大澤","zip_code":"5280213"},{"name":"土山町青土","zip_code":"5280221"},{"name":"土山町大野","zip_code":"5280235"},{"name":"土山町北土山","zip_code":"5280211"},{"name":"土山町黒川","zip_code":"5280208"},{"name":"土山町黒滝","zip_code":"5280203"},{"name":"土山町瀬ノ音","zip_code":"5280223"},{"name":"土山町笹路","zip_code":"5280205"},{"name":"土山町徳原","zip_code":"5280234"},{"name":"土山町頓宮","zip_code":"5280231"},{"name":"土山町野上野","zip_code":"5280224"},{"name":"土山町平子","zip_code":"5280222"},{"name":"土山町前野","zip_code":"5280232"},{"name":"土山町南土山","zip_code":"5280212"},{"name":"土山町山中","zip_code":"5280206"},{"name":"水口町暁","zip_code":"5280012"},{"name":"水口町秋葉","zip_code":"5280071"},{"name":"水口町朝日が丘","zip_code":"5280072"},{"name":"水口町綾野","zip_code":"5280033"},{"name":"水口町泉","zip_code":"5280056"},{"name":"水口町今郷","zip_code":"5280002"},{"name":"水口町岩坂","zip_code":"5280047"},{"name":"水口町植","zip_code":"5280055"},{"name":"水口町宇川","zip_code":"5280052"},{"name":"水口町牛飼","zip_code":"5280045"},{"name":"水口町宇田","zip_code":"5280053"},{"name":"水口町梅が丘","zip_code":"5280022"},{"name":"水口町春日","zip_code":"5280065"},{"name":"水口町嶬峨","zip_code":"5280004"},{"name":"水口町北泉","zip_code":"5280058"},{"name":"水口町北内貴","zip_code":"5280051"},{"name":"水口町北脇","zip_code":"5280057"},{"name":"水口町貴生川","zip_code":"5280049"},{"name":"水口町京町","zip_code":"5280017"},{"name":"水口町古城が丘","zip_code":"5280073"},{"name":"水口町酒人","zip_code":"5280054"},{"name":"水口町笹が丘","zip_code":"5280061"},{"name":"水口町さつきが丘","zip_code":"5280062"},{"name":"水口町三大寺","zip_code":"5280046"},{"name":"水口町下山","zip_code":"5280063"},{"name":"水口町松栄","zip_code":"5280015"},{"name":"水口町城東","zip_code":"5280028"},{"name":"水口町城内","zip_code":"5280027"},{"name":"水口町新城","zip_code":"5280007"},{"name":"水口町新町","zip_code":"5280038"},{"name":"水口町神明","zip_code":"5280016"},{"name":"水口町杣中","zip_code":"5280043"},{"name":"水口町高塚","zip_code":"5280011"},{"name":"水口町高山","zip_code":"5280048"},{"name":"水口町中畑","zip_code":"5280001"},{"name":"水口町中邸","zip_code":"5280024"},{"name":"水口町名坂","zip_code":"5280035"},{"name":"水口町西林口","zip_code":"5280025"},{"name":"水口町日電","zip_code":"5280034"},{"name":"水口町八光","zip_code":"5280021"},{"name":"水口町八田","zip_code":"5280066"},{"name":"水口町伴中山","zip_code":"5280064"},{"name":"水口町東名坂","zip_code":"5280036"},{"name":"水口町東林口","zip_code":"5280026"},{"name":"水口町ひのきが丘","zip_code":"5280068"},{"name":"水口町本町","zip_code":"5280031"},{"name":"水口町本丸","zip_code":"5280023"},{"name":"水口町松尾","zip_code":"5280074"},{"name":"水口町的場","zip_code":"5280020"},{"name":"水口町水口","zip_code":"5280005"},{"name":"水口町南林口","zip_code":"5280029"},{"name":"水口町宮の前","zip_code":"5280013"},{"name":"水口町虫生野","zip_code":"5280041"},{"name":"水口町虫生野中央","zip_code":"5280042"},{"name":"水口町虫生野虹の町","zip_code":"5280069"},{"name":"水口町本綾野","zip_code":"5280037"},{"name":"水口町元町","zip_code":"5280006"},{"name":"水口町八坂","zip_code":"5280032"},{"name":"水口町山","zip_code":"5280067"},{"name":"水口町山上","zip_code":"5280044"},{"name":"水口町鹿深","zip_code":"5280014"},{"name":"水口町和野","zip_code":"5280003"}]},{"name":"野洲市","divisions":[{"name":"菖蒲","zip_code":"5240202"},{"name":"安治","zip_code":"5202411"},{"name":"市三宅","zip_code":"5202362"},{"name":"井口","zip_code":"5202414"},{"name":"入町","zip_code":"5202312"},{"name":"近江富士","zip_code":"5202324"},{"name":"大篠原","zip_code":"5202313"},{"name":"大畑","zip_code":"5202343"},{"name":"乙窪","zip_code":"5202435"},{"name":"上屋","zip_code":"5202316"},{"name":"喜合","zip_code":"5240203"},{"name":"北","zip_code":"5202305"},{"name":"北桜","zip_code":"5202321"},{"name":"北野","zip_code":"5202361"},{"name":"北比江","zip_code":"5202436"},{"name":"木部","zip_code":"5202431"},{"name":"久野部","zip_code":"5202353"},{"name":"小篠原","zip_code":"5202331"},{"name":"五条","zip_code":"5202424"},{"name":"小堤","zip_code":"5202314"},{"name":"五之里","zip_code":"5202364"},{"name":"小比江","zip_code":"5202437"},{"name":"小南","zip_code":"5202301"},{"name":"栄","zip_code":"5202333"},{"name":"下堤","zip_code":"5202417"},{"name":"須原","zip_code":"5202415"},{"name":"高木","zip_code":"5202302"},{"name":"竹ヶ丘","zip_code":"5202365"},{"name":"竹生","zip_code":"5202363"},{"name":"辻町","zip_code":"5202315"},{"name":"堤","zip_code":"5202416"},{"name":"冨波甲","zip_code":"5202351"},{"name":"冨波乙","zip_code":"5202352"},{"name":"中北","zip_code":"5202303"},{"name":"長島","zip_code":"5202311"},{"name":"永原","zip_code":"5202304"},{"name":"西河原","zip_code":"5202423"},{"name":"野田","zip_code":"5202421"},{"name":"比江","zip_code":"5202434"},{"name":"比留田","zip_code":"5202422"},{"name":"三上","zip_code":"5202323"},{"name":"南桜","zip_code":"5202322"},{"name":"妙光寺","zip_code":"5202332"},{"name":"虫生","zip_code":"5202432"},{"name":"野洲","zip_code":"5202342"},{"name":"八夫","zip_code":"5202433"},{"name":"行畑","zip_code":"5202341"},{"name":"吉川","zip_code":"5240201"},{"name":"吉地","zip_code":"5202413"},{"name":"六条","zip_code":"5202412"}]},{"name":"湖南市","divisions":[{"name":"朝国","zip_code":"5203251"},{"name":"雨山","zip_code":"5203116"},{"name":"石部","zip_code":"5203101"},{"name":"石部が丘","zip_code":"5203109"},{"name":"石部北","zip_code":"5203113"},{"name":"石部口","zip_code":"5203114"},{"name":"石部中央","zip_code":"5203106"},{"name":"石部西","zip_code":"5203105"},{"name":"石部東","zip_code":"5203107"},{"name":"石部緑台","zip_code":"5203115"},{"name":"石部南","zip_code":"5203108"},{"name":"岩根","zip_code":"5203252"},{"name":"岩根中央","zip_code":"5203254"},{"name":"梅影町","zip_code":"5203214"},{"name":"近江台","zip_code":"5203245"},{"name":"大池町","zip_code":"5203213"},{"name":"岡出","zip_code":"5203104"},{"name":"北山台","zip_code":"5203241"},{"name":"柑子袋","zip_code":"5203233"},{"name":"小砂町","zip_code":"5203212"},{"name":"サイドタウン","zip_code":"5203244"},{"name":"下田","zip_code":"5203201"},{"name":"正福寺","zip_code":"5203253"},{"name":"高松町","zip_code":"5203211"},{"name":"中央","zip_code":"5203234"},{"name":"夏見","zip_code":"5203223"},{"name":"西寺","zip_code":"5203121"},{"name":"西峰町","zip_code":"5203202"},{"name":"針","zip_code":"5203231"},{"name":"日枝町","zip_code":"5203203"},{"name":"東寺","zip_code":"5203111"},{"name":"平松","zip_code":"5203232"},{"name":"平松北","zip_code":"5203235"},{"name":"宝来坂","zip_code":"5203103"},{"name":"菩提寺","zip_code":"5203242"},{"name":"菩提寺北","zip_code":"5203246"},{"name":"菩提寺西","zip_code":"5203248"},{"name":"菩提寺東","zip_code":"5203247"},{"name":"丸山","zip_code":"5203112"},{"name":"三雲","zip_code":"5203221"},{"name":"水戸町","zip_code":"5203215"},{"name":"宮の森","zip_code":"5203102"},{"name":"吉永","zip_code":"5203222"},{"name":"若竹町","zip_code":"5203216"}]},{"name":"高島市","divisions":[{"name":"安曇川町青柳","zip_code":"5201221"},{"name":"安曇川町上小川","zip_code":"5201224"},{"name":"安曇川町上古賀","zip_code":"5201201"},{"name":"安曇川町川島","zip_code":"5201231"},{"name":"安曇川町北船木","zip_code":"5201232"},{"name":"安曇川町五番領","zip_code":"5201213"},{"name":"安曇川町下小川","zip_code":"5201223"},{"name":"安曇川町下古賀","zip_code":"5201202"},{"name":"安曇川町末広","zip_code":"5201214"},{"name":"安曇川町田中","zip_code":"5201217"},{"name":"安曇川町中央","zip_code":"5201216"},{"name":"安曇川町常磐木","zip_code":"5201211"},{"name":"安曇川町長尾","zip_code":"5201205"},{"name":"安曇川町中野","zip_code":"5201204"},{"name":"安曇川町西万木","zip_code":"5201212"},{"name":"安曇川町三尾里","zip_code":"5201215"},{"name":"安曇川町南古賀","zip_code":"5201203"},{"name":"安曇川町南船木","zip_code":"5201233"},{"name":"安曇川町横江","zip_code":"5201222"},{"name":"安曇川町横江浜","zip_code":"5201235"},{"name":"安曇川町四津川","zip_code":"5201234"},{"name":"今津町天増川","zip_code":"5201647"},{"name":"今津町今津","zip_code":"5201621"},{"name":"今津町梅原","zip_code":"5201654"},{"name":"今津町大供","zip_code":"5201635"},{"name":"今津町大供大門","zip_code":"5201634"},{"name":"今津町桂","zip_code":"5201602"},{"name":"今津町上弘部","zip_code":"5201613"},{"name":"今津町岸脇","zip_code":"5201653"},{"name":"今津町北生見","zip_code":"5201642"},{"name":"今津町北仰","zip_code":"5201603"},{"name":"今津町桜町","zip_code":"5201632"},{"name":"今津町酒波","zip_code":"5201651"},{"name":"今津町下弘部","zip_code":"5201612"},{"name":"今津町松陽台","zip_code":"5201633"},{"name":"今津町杉山","zip_code":"5201646"},{"name":"今津町住吉","zip_code":"5201623"},{"name":"今津町角川","zip_code":"5201648"},{"name":"今津町途中谷","zip_code":"5201644"},{"name":"今津町中沼","zip_code":"5201622"},{"name":"今津町名小路","zip_code":"5201631"},{"name":"今津町浜分","zip_code":"5201604"},{"name":"今津町日置前","zip_code":"5201655"},{"name":"今津町弘川","zip_code":"5201611"},{"name":"今津町深清水","zip_code":"5201601"},{"name":"今津町福岡","zip_code":"5201652"},{"name":"今津町舟橋","zip_code":"5201636"},{"name":"今津町保坂","zip_code":"5201643"},{"name":"今津町南生見","zip_code":"5201641"},{"name":"今津町南新保","zip_code":"5201605"},{"name":"今津町椋川","zip_code":"5201645"},{"name":"今津町藺生","zip_code":"5201614"},{"name":"鵜川","zip_code":"5201122"},{"name":"音羽","zip_code":"5201131"},{"name":"勝野","zip_code":"5201121"},{"name":"鴨","zip_code":"5201111"},{"name":"鴨川平","zip_code":"5201133"},{"name":"朽木麻生","zip_code":"5201451"},{"name":"朽木荒川","zip_code":"5201411"},{"name":"朽木市場","zip_code":"5201401"},{"name":"朽木岩瀬","zip_code":"5201421"},{"name":"朽木上野","zip_code":"5201413"},{"name":"朽木雲洞谷","zip_code":"5201453"},{"name":"朽木生杉","zip_code":"5201442"},{"name":"朽木大野","zip_code":"5201423"},{"name":"朽木小入谷","zip_code":"5201443"},{"name":"朽木柏","zip_code":"5201415"},{"name":"朽木木地山","zip_code":"5201455"},{"name":"朽木桑原","zip_code":"5201433"},{"name":"朽木小川","zip_code":"5201431"},{"name":"朽木地子原","zip_code":"5201452"},{"name":"朽木栃生","zip_code":"5201425"},{"name":"朽木中牧","zip_code":"5201444"},{"name":"朽木能家","zip_code":"5201454"},{"name":"朽木野尻","zip_code":"5201412"},{"name":"朽木古川","zip_code":"5201422"},{"name":"朽木古屋","zip_code":"5201441"},{"name":"朽木平良","zip_code":"5201432"},{"name":"朽木宮前坊","zip_code":"5201414"},{"name":"朽木村井","zip_code":"5201424"},{"name":"黒谷","zip_code":"5201143"},{"name":"鹿ケ瀬","zip_code":"5201142"},{"name":"城山台","zip_code":"5201123"},{"name":"新旭町饗庭","zip_code":"5201531"},{"name":"新旭町旭","zip_code":"5201501"},{"name":"新旭町太田","zip_code":"5201512"},{"name":"新旭町北畑","zip_code":"5201521"},{"name":"新旭町熊野本","zip_code":"5201532"},{"name":"新旭町新庄","zip_code":"5201522"},{"name":"新旭町針江","zip_code":"5201502"},{"name":"新旭町深溝","zip_code":"5201503"},{"name":"新旭町安井川","zip_code":"5201533"},{"name":"新旭町藁園","zip_code":"5201511"},{"name":"高島","zip_code":"5201141"},{"name":"永田","zip_code":"5201112"},{"name":"野田","zip_code":"5201102"},{"name":"拝戸","zip_code":"5201132"},{"name":"畑","zip_code":"5201144"},{"name":"マキノ町在原","zip_code":"5201801"},{"name":"マキノ町石庭","zip_code":"5201835"},{"name":"マキノ町浦","zip_code":"5201804"},{"name":"マキノ町大沼","zip_code":"5201824"},{"name":"マキノ町海津","zip_code":"5201811"},{"name":"マキノ町上開田","zip_code":"5201831"},{"name":"マキノ町小荒路","zip_code":"5201803"},{"name":"マキノ町沢","zip_code":"5201821"},{"name":"マキノ町下","zip_code":"5201805"},{"name":"マキノ町下開田","zip_code":"5201832"},{"name":"マキノ町白谷","zip_code":"5201837"},{"name":"マキノ町新保","zip_code":"5201822"},{"name":"マキノ町高木浜","zip_code":"5201813"},{"name":"マキノ町知内","zip_code":"5201814"},{"name":"マキノ町辻","zip_code":"5201826"},{"name":"マキノ町寺久保","zip_code":"5201834"},{"name":"マキノ町中庄","zip_code":"5201823"},{"name":"マキノ町西浜","zip_code":"5201812"},{"name":"マキノ町野口","zip_code":"5201802"},{"name":"マキノ町蛭口","zip_code":"5201833"},{"name":"マキノ町牧野","zip_code":"5201836"},{"name":"マキノ町森西","zip_code":"5201825"},{"name":"マキノ町山中","zip_code":"5201806"},{"name":"宮野","zip_code":"5201103"},{"name":"武曽横山","zip_code":"5201101"}]},{"name":"東近江市","divisions":[{"name":"愛東外町","zip_code":"5270166"},{"name":"青野町","zip_code":"5270232"},{"name":"青葉町","zip_code":"5270039"},{"name":"青山町","zip_code":"5270164"},{"name":"阿弥陀堂町","zip_code":"5211202"},{"name":"池庄町","zip_code":"5270113"},{"name":"池田町","zip_code":"5270054"},{"name":"池之尻町","zip_code":"5270171"},{"name":"池之脇町","zip_code":"5270222"},{"name":"石谷町","zip_code":"5270227"},{"name":"石塔町","zip_code":"5291501"},{"name":"市ケ原町","zip_code":"5270151"},{"name":"市子沖町","zip_code":"5291533"},{"name":"市子川原町","zip_code":"5291531"},{"name":"市子殿町","zip_code":"5291537"},{"name":"市子松井町","zip_code":"5291532"},{"name":"市辺町","zip_code":"5270074"},{"name":"市原野町","zip_code":"5270224"},{"name":"一式町","zip_code":"5270226"},{"name":"稲垂町","zip_code":"5291561"},{"name":"猪子町","zip_code":"5211223"},{"name":"伊庭町","zip_code":"5211235"},{"name":"茨川町","zip_code":"5270216"},{"name":"今在家町","zip_code":"5270107"},{"name":"今崎町","zip_code":"5270016"},{"name":"今代町","zip_code":"5270053"},{"name":"今町","zip_code":"5211211"},{"name":"今堀町","zip_code":"5270071"},{"name":"妹町","zip_code":"5270162"},{"name":"鋳物師町","zip_code":"5291522"},{"name":"上中野町","zip_code":"5270156"},{"name":"梅林町","zip_code":"5270175"},{"name":"瓜生津町","zip_code":"5270055"},{"name":"永源寺相谷町","zip_code":"5270211"},{"name":"永源寺高野町","zip_code":"5270212"},{"name":"大沢町","zip_code":"5270114"},{"name":"大清水町","zip_code":"5270126"},{"name":"大塚町","zip_code":"5291512"},{"name":"大萩町","zip_code":"5270174"},{"name":"大林町","zip_code":"5270155"},{"name":"大森町","zip_code":"5270063"},{"name":"岡田町","zip_code":"5270057"},{"name":"小川町","zip_code":"5211204"},{"name":"沖野","zip_code":"5270034"},{"name":"小倉町","zip_code":"5270165"},{"name":"長町","zip_code":"5270122"},{"name":"乙女浜町","zip_code":"5211241"},{"name":"小脇町","zip_code":"5270091"},{"name":"垣見町","zip_code":"5211221"},{"name":"柏木町","zip_code":"5270083"},{"name":"春日町","zip_code":"5270032"},{"name":"葛巻町","zip_code":"5291566"},{"name":"綺田町","zip_code":"5291503"},{"name":"上麻生町","zip_code":"5291523"},{"name":"上大森町","zip_code":"5270062"},{"name":"上岸本町","zip_code":"5270173"},{"name":"上南町","zip_code":"5291535"},{"name":"上羽田町","zip_code":"5270082"},{"name":"上平木町","zip_code":"5270086"},{"name":"上二俣町","zip_code":"5270221"},{"name":"上山町","zip_code":"5270142"},{"name":"蒲生大森町","zip_code":"5291514"},{"name":"蒲生岡本町","zip_code":"5291521"},{"name":"蒲生寺町","zip_code":"5291504"},{"name":"蒲生堂町","zip_code":"5291541"},{"name":"萱尾町","zip_code":"5270208"},{"name":"川合町","zip_code":"5291571"},{"name":"川合寺町","zip_code":"5270041"},{"name":"川南町","zip_code":"5211203"},{"name":"祇園町","zip_code":"5270101"},{"name":"北坂町","zip_code":"5270145"},{"name":"北清水町","zip_code":"5270129"},{"name":"北須田町","zip_code":"5211232"},{"name":"北花沢町","zip_code":"5270111"},{"name":"北菩提寺町","zip_code":"5270138"},{"name":"きぬがさ町","zip_code":"5211234"},{"name":"君ケ畑町","zip_code":"5270202"},{"name":"木村町","zip_code":"5291562"},{"name":"黄和田町","zip_code":"5270205"},{"name":"九居瀬町","zip_code":"5270215"},{"name":"栗見新田町","zip_code":"5211243"},{"name":"栗見出在家町","zip_code":"5211245"},{"name":"小池町","zip_code":"5270121"},{"name":"小今町","zip_code":"5270092"},{"name":"甲津畑町","zip_code":"5270214"},{"name":"合戸町","zip_code":"5291536"},{"name":"五個荘石川町","zip_code":"5291425"},{"name":"五個荘石塚町","zip_code":"5291444"},{"name":"五個荘石馬寺町","zip_code":"5291401"},{"name":"五個荘伊野部町","zip_code":"5291435"},{"name":"五個荘奥町","zip_code":"5291423"},{"name":"五個荘小幡町","zip_code":"5291422"},{"name":"五個荘河曲町","zip_code":"5291411"},{"name":"五個荘川並町","zip_code":"5291441"},{"name":"五個荘北町屋町","zip_code":"5291443"},{"name":"五個荘木流町","zip_code":"5291433"},{"name":"五個荘五位田町","zip_code":"5291415"},{"name":"五個荘金堂町","zip_code":"5291405"},{"name":"五個荘七里町","zip_code":"5291402"},{"name":"五個荘清水鼻町","zip_code":"5291445"},{"name":"五個荘新堂町","zip_code":"5291432"},{"name":"五個荘竜田町","zip_code":"5291421"},{"name":"五個荘塚本町","zip_code":"5291442"},{"name":"五個荘中町","zip_code":"5291414"},{"name":"五個荘日吉町","zip_code":"5291403"},{"name":"五個荘平阪町","zip_code":"5291434"},{"name":"五個荘三俣町","zip_code":"5291424"},{"name":"五個荘簗瀬町","zip_code":"5291413"},{"name":"五個荘山本町","zip_code":"5291431"},{"name":"五個荘和田町","zip_code":"5291412"},{"name":"小田苅町","zip_code":"5270125"},{"name":"五智町","zip_code":"5270044"},{"name":"小八木町","zip_code":"5270108"},{"name":"幸町","zip_code":"5270031"},{"name":"栄町","zip_code":"5270027"},{"name":"桜川西町","zip_code":"5291572"},{"name":"桜川東町","zip_code":"5291511"},{"name":"佐生町","zip_code":"5211215"},{"name":"佐野町","zip_code":"5211222"},{"name":"佐目町","zip_code":"5270209"},{"name":"尻無町","zip_code":"5270064"},{"name":"芝原町","zip_code":"5270067"},{"name":"柴原南町","zip_code":"5270066"},{"name":"下麻生町","zip_code":"5291524"},{"name":"下一色町","zip_code":"5270132"},{"name":"下岸本町","zip_code":"5270124"},{"name":"下里町","zip_code":"5270115"},{"name":"下中野町","zip_code":"5270157"},{"name":"下羽田町","zip_code":"5270085"},{"name":"下二俣町","zip_code":"5270065"},{"name":"清水中町","zip_code":"5270128"},{"name":"勝堂町","zip_code":"5270131"},{"name":"昭和町","zip_code":"5270017"},{"name":"新宮町","zip_code":"5211201"},{"name":"神郷町","zip_code":"5211213"},{"name":"新出町","zip_code":"5270225"},{"name":"神田町","zip_code":"5270043"},{"name":"鈴町","zip_code":"5291534"},{"name":"聖徳町","zip_code":"5270038"},{"name":"聖和町","zip_code":"5270036"},{"name":"僧坊町","zip_code":"5270106"},{"name":"曽根町","zip_code":"5270163"},{"name":"園町","zip_code":"5270154"},{"name":"大覚寺町","zip_code":"5270152"},{"name":"躰光寺町","zip_code":"5211205"},{"name":"田井町","zip_code":"5291513"},{"name":"大中町","zip_code":"5211244"},{"name":"高木町","zip_code":"5270223"},{"name":"蓼畑町","zip_code":"5270207"},{"name":"建部上中町","zip_code":"5270002"},{"name":"建部瓦屋寺町","zip_code":"5270007"},{"name":"建部北町","zip_code":"5270003"},{"name":"建部堺町","zip_code":"5270004"},{"name":"建部下野町","zip_code":"5270001"},{"name":"建部日吉町","zip_code":"5270006"},{"name":"建部南町","zip_code":"5270005"},{"name":"種町","zip_code":"5211212"},{"name":"長勝寺町","zip_code":"5211214"},{"name":"寺町","zip_code":"5270052"},{"name":"土器町","zip_code":"5270061"},{"name":"外町","zip_code":"5270042"},{"name":"外原町","zip_code":"5291565"},{"name":"中一色町","zip_code":"5270133"},{"name":"中岸本町","zip_code":"5270123"},{"name":"中里町","zip_code":"5270105"},{"name":"中戸町","zip_code":"5270161"},{"name":"中野町","zip_code":"5270015"},{"name":"中羽田町","zip_code":"5270084"},{"name":"中小路町","zip_code":"5270045"},{"name":"鯰江町","zip_code":"5270172"},{"name":"西中野町","zip_code":"5270014"},{"name":"西菩提寺町","zip_code":"5270137"},{"name":"如来町","zip_code":"5270228"},{"name":"糠塚町","zip_code":"5270093"},{"name":"布引台","zip_code":"5270072"},{"name":"野口町","zip_code":"5270076"},{"name":"能登川町","zip_code":"5211231"},{"name":"野村町","zip_code":"5270047"},{"name":"林田町","zip_code":"5270051"},{"name":"林町","zip_code":"5211224"},{"name":"東今崎町","zip_code":"5270037"},{"name":"東沖野","zip_code":"5270033"},{"name":"東中野町","zip_code":"5270013"},{"name":"ひばり丘町","zip_code":"5270035"},{"name":"百済寺甲町","zip_code":"5270141"},{"name":"百済寺町","zip_code":"5270144"},{"name":"百済寺本町","zip_code":"5270143"},{"name":"平尾町","zip_code":"5270153"},{"name":"平田町","zip_code":"5270087"},{"name":"平林町","zip_code":"5291502"},{"name":"平松町","zip_code":"5270134"},{"name":"平柳町","zip_code":"5270102"},{"name":"蛭谷町","zip_code":"5270201"},{"name":"福堂町","zip_code":"5211242"},{"name":"布施町","zip_code":"5270081"},{"name":"札の辻","zip_code":"5270024"},{"name":"蛇溝町","zip_code":"5270073"},{"name":"政所町","zip_code":"5270204"},{"name":"御園町","zip_code":"5270056"},{"name":"三津屋町","zip_code":"5270075"},{"name":"南清水町","zip_code":"5270127"},{"name":"南須田町","zip_code":"5211233"},{"name":"南花沢町","zip_code":"5270112"},{"name":"南菩提寺町","zip_code":"5270136"},{"name":"箕川町","zip_code":"5270203"},{"name":"宮井町","zip_code":"5291564"},{"name":"宮川町","zip_code":"5291551"},{"name":"宮荘町","zip_code":"5291404"},{"name":"妙法寺町","zip_code":"5270046"},{"name":"山上町","zip_code":"5270231"},{"name":"山路町","zip_code":"5211225"},{"name":"杠葉尾町","zip_code":"5270206"},{"name":"湯屋町","zip_code":"5270103"},{"name":"八日市金屋","zip_code":"5270028"},{"name":"八日市上之町","zip_code":"5270022"},{"name":"八日市清水","zip_code":"5270018"},{"name":"八日市野々宮町","zip_code":"5270026"},{"name":"八日市浜野町","zip_code":"5270011"},{"name":"八日市東浜町","zip_code":"5270021"},{"name":"八日市東本町","zip_code":"5270025"},{"name":"八日市本町","zip_code":"5270012"},{"name":"八日市松尾町","zip_code":"5270019"},{"name":"八日市緑町","zip_code":"5270023"},{"name":"八日市町","zip_code":"5270029"},{"name":"横溝町","zip_code":"5270135"},{"name":"横山町","zip_code":"5291563"},{"name":"読合堂町","zip_code":"5270104"},{"name":"和南町","zip_code":"5270213"}]},{"name":"米原市","divisions":[{"name":"朝妻筑摩","zip_code":"5210001"},{"name":"朝日","zip_code":"5210226"},{"name":"梓河内","zip_code":"5210211"},{"name":"飯","zip_code":"5210063"},{"name":"岩脇","zip_code":"5210091"},{"name":"池下","zip_code":"5210221"},{"name":"磯","zip_code":"5210004"},{"name":"市場","zip_code":"5210225"},{"name":"一色","zip_code":"5210031"},{"name":"井之口","zip_code":"5210234"},{"name":"伊吹","zip_code":"5210311"},{"name":"入江","zip_code":"5210003"},{"name":"上野","zip_code":"5210312"},{"name":"宇賀野","zip_code":"5210062"},{"name":"梅ケ原","zip_code":"5210013"},{"name":"梅ケ原栄","zip_code":"5210014"},{"name":"大久保","zip_code":"5210307"},{"name":"大鹿","zip_code":"5210214"},{"name":"大清水","zip_code":"5210324"},{"name":"大野木","zip_code":"5210244"},{"name":"柏原","zip_code":"5210202"},{"name":"加勢野","zip_code":"5210219"},{"name":"上板並","zip_code":"5210305"},{"name":"上多良","zip_code":"5210002"},{"name":"上丹生","zip_code":"5210033"},{"name":"烏脇","zip_code":"5210227"},{"name":"河南","zip_code":"5210021"},{"name":"北方","zip_code":"5210217"},{"name":"清滝","zip_code":"5210203"},{"name":"小泉","zip_code":"5210308"},{"name":"甲賀","zip_code":"5210303"},{"name":"甲津原","zip_code":"5210301"},{"name":"顔戸","zip_code":"5210072"},{"name":"西円寺","zip_code":"5210092"},{"name":"坂口","zip_code":"5210232"},{"name":"醒井","zip_code":"5210035"},{"name":"枝折","zip_code":"5210032"},{"name":"志賀谷","zip_code":"5210218"},{"name":"下板並","zip_code":"5210306"},{"name":"下多良","zip_code":"5210016"},{"name":"下丹生","zip_code":"5210034"},{"name":"上平寺","zip_code":"5210327"},{"name":"新庄","zip_code":"5210083"},{"name":"春照","zip_code":"5210314"},{"name":"菅江","zip_code":"5210216"},{"name":"須川","zip_code":"5210245"},{"name":"杉沢","zip_code":"5210322"},{"name":"高番","zip_code":"5210321"},{"name":"高溝","zip_code":"5210074"},{"name":"多和田","zip_code":"5210081"},{"name":"長久寺","zip_code":"5210201"},{"name":"寺倉","zip_code":"5210093"},{"name":"寺林","zip_code":"5210326"},{"name":"天満","zip_code":"5210222"},{"name":"堂谷","zip_code":"5210213"},{"name":"長岡","zip_code":"5210242"},{"name":"長沢","zip_code":"5210061"},{"name":"中多良","zip_code":"5210011"},{"name":"西坂","zip_code":"5210024"},{"name":"西山","zip_code":"5210241"},{"name":"日光寺","zip_code":"5210084"},{"name":"野一色","zip_code":"5210233"},{"name":"能登瀬","zip_code":"5210082"},{"name":"間田","zip_code":"5210236"},{"name":"番場","zip_code":"5210025"},{"name":"樋口","zip_code":"5210022"},{"name":"藤川","zip_code":"5210325"},{"name":"舟崎","zip_code":"5210071"},{"name":"夫馬","zip_code":"5210224"},{"name":"本郷","zip_code":"5210212"},{"name":"米原","zip_code":"5210012"},{"name":"米原西","zip_code":"5210015"},{"name":"曲谷","zip_code":"5210302"},{"name":"万願寺","zip_code":"5210243"},{"name":"箕浦","zip_code":"5210073"},{"name":"三吉","zip_code":"5210023"},{"name":"村居田","zip_code":"5210231"},{"name":"村木","zip_code":"5210323"},{"name":"本市場","zip_code":"5210223"},{"name":"弥高","zip_code":"5210313"},{"name":"小田","zip_code":"5210235"},{"name":"山室","zip_code":"5210215"},{"name":"吉槻","zip_code":"5210304"},{"name":"世継","zip_code":"5210064"}]},{"name":"蒲生郡日野町","divisions":[{"name":"安部居","zip_code":"5291661"},{"name":"石原","zip_code":"5291655"},{"name":"いせの","zip_code":"5291648"},{"name":"内池","zip_code":"5291644"},{"name":"小井口","zip_code":"5291605"},{"name":"大窪","zip_code":"5291603"},{"name":"大谷","zip_code":"5291608"},{"name":"奥師","zip_code":"5291616"},{"name":"奥之池","zip_code":"5291610"},{"name":"音羽","zip_code":"5291626"},{"name":"鎌掛","zip_code":"5291631"},{"name":"上駒月","zip_code":"5291632"},{"name":"川原","zip_code":"5291613"},{"name":"河原","zip_code":"5291602"},{"name":"北畑","zip_code":"5291622"},{"name":"北脇","zip_code":"5291663"},{"name":"木津","zip_code":"5291607"},{"name":"清田","zip_code":"5291636"},{"name":"熊野","zip_code":"5291623"},{"name":"上野田","zip_code":"5291642"},{"name":"小谷","zip_code":"5291654"},{"name":"小野","zip_code":"5291615"},{"name":"小御門","zip_code":"5291652"},{"name":"西明寺","zip_code":"5291621"},{"name":"蔵王","zip_code":"5291625"},{"name":"佐久良","zip_code":"5291619"},{"name":"里口","zip_code":"5291643"},{"name":"下駒月","zip_code":"5291633"},{"name":"十禅師","zip_code":"5291645"},{"name":"杉","zip_code":"5291612"},{"name":"杣","zip_code":"5291611"},{"name":"寺尻","zip_code":"5291606"},{"name":"豊田","zip_code":"5291657"},{"name":"鳥居平","zip_code":"5291618"},{"name":"中在寺","zip_code":"5291662"},{"name":"中之郷","zip_code":"5291617"},{"name":"中道","zip_code":"5291609"},{"name":"中山","zip_code":"5291658"},{"name":"西大路","zip_code":"5291628"},{"name":"仁本木","zip_code":"5291627"},{"name":"猫田","zip_code":"5291646"},{"name":"野出","zip_code":"5291665"},{"name":"迫","zip_code":"5291635"},{"name":"原","zip_code":"5291614"},{"name":"日田","zip_code":"5291641"},{"name":"平子","zip_code":"5291624"},{"name":"別所","zip_code":"5291647"},{"name":"増田","zip_code":"5291656"},{"name":"松尾","zip_code":"5291601"},{"name":"三十坪","zip_code":"5291653"},{"name":"深山口","zip_code":"5291634"},{"name":"村井","zip_code":"5291604"},{"name":"山本","zip_code":"5291651"},{"name":"蓮花寺","zip_code":"5291664"}]},{"name":"蒲生郡竜王町","divisions":[{"name":"綾戸","zip_code":"5202524"},{"name":"岩井","zip_code":"5202522"},{"name":"鵜川","zip_code":"5202562"},{"name":"岡屋","zip_code":"5202541"},{"name":"小口","zip_code":"5202552"},{"name":"鏡","zip_code":"5202573"},{"name":"駕輿丁","zip_code":"5202512"},{"name":"川上","zip_code":"5202504"},{"name":"川守","zip_code":"5202521"},{"name":"薬師","zip_code":"5202551"},{"name":"七里","zip_code":"5202563"},{"name":"信濃","zip_code":"5202503"},{"name":"島","zip_code":"5202513"},{"name":"庄","zip_code":"5202502"},{"name":"須恵","zip_code":"5202561"},{"name":"田中","zip_code":"5202523"},{"name":"西川","zip_code":"5202572"},{"name":"西横関","zip_code":"5202571"},{"name":"橋本","zip_code":"5202514"},{"name":"林","zip_code":"5202511"},{"name":"山面","zip_code":"5202564"},{"name":"山中","zip_code":"5202542"},{"name":"山之上","zip_code":"5202531"},{"name":"弓削","zip_code":"5202501"}]},{"name":"愛知郡愛荘町","divisions":[{"name":"安孫子","zip_code":"5291234"},{"name":"石橋","zip_code":"5291311"},{"name":"市","zip_code":"5291313"},{"name":"岩倉","zip_code":"5291207"},{"name":"愛知川","zip_code":"5291331"},{"name":"円城寺","zip_code":"5291231"},{"name":"沖","zip_code":"5291213"},{"name":"蚊野","zip_code":"5291206"},{"name":"蚊野外","zip_code":"5291204"},{"name":"上蚊野","zip_code":"5291203"},{"name":"苅間","zip_code":"5291324"},{"name":"軽野","zip_code":"5291205"},{"name":"川久保","zip_code":"5291312"},{"name":"川原","zip_code":"5291302"},{"name":"北八木","zip_code":"5291222"},{"name":"沓掛","zip_code":"5291315"},{"name":"栗田","zip_code":"5291225"},{"name":"香之庄","zip_code":"5291211"},{"name":"島川","zip_code":"5291223"},{"name":"下八木","zip_code":"5291221"},{"name":"常安寺","zip_code":"5291232"},{"name":"竹原","zip_code":"5291208"},{"name":"東円堂","zip_code":"5291325"},{"name":"豊満","zip_code":"5291321"},{"name":"中宿","zip_code":"5291314"},{"name":"長塚","zip_code":"5291224"},{"name":"長野","zip_code":"5291303"},{"name":"西出","zip_code":"5291237"},{"name":"野々目","zip_code":"5291227"},{"name":"畑田","zip_code":"5291323"},{"name":"東出","zip_code":"5291233"},{"name":"平居","zip_code":"5291322"},{"name":"深草","zip_code":"5291236"},{"name":"松尾寺","zip_code":"5291202"},{"name":"南野々目","zip_code":"5291226"},{"name":"宮後","zip_code":"5291214"},{"name":"目加田","zip_code":"5291235"},{"name":"元持","zip_code":"5291212"},{"name":"山川原","zip_code":"5291301"},{"name":"矢守","zip_code":"5291228"},{"name":"斧磨","zip_code":"5291201"}]},{"name":"犬上郡豊郷町","divisions":[{"name":"雨降野","zip_code":"5291163"},{"name":"安食西","zip_code":"5291171"},{"name":"安食南","zip_code":"5291172"},{"name":"石畑","zip_code":"5291169"},{"name":"大町","zip_code":"5291176"},{"name":"上枝","zip_code":"5291166"},{"name":"沢","zip_code":"5291175"},{"name":"四十九院","zip_code":"5291161"},{"name":"下枝","zip_code":"5291174"},{"name":"杉","zip_code":"5291167"},{"name":"高野瀬","zip_code":"5291173"},{"name":"八目","zip_code":"5291168"},{"name":"八町","zip_code":"5291162"},{"name":"日栄","zip_code":"5291164"},{"name":"三ツ池","zip_code":"5291177"},{"name":"吉田","zip_code":"5291165"}]},{"name":"犬上郡甲良町","divisions":[{"name":"尼子","zip_code":"5220242"},{"name":"池寺","zip_code":"5220254"},{"name":"長寺","zip_code":"5220261"},{"name":"金屋","zip_code":"5220252"},{"name":"北落","zip_code":"5220251"},{"name":"呉竹","zip_code":"5220241"},{"name":"小川原","zip_code":"5220243"},{"name":"在士","zip_code":"5220244"},{"name":"下之郷","zip_code":"5220271"},{"name":"正楽寺","zip_code":"5220253"},{"name":"法養寺","zip_code":"5220263"},{"name":"横関","zip_code":"5220262"}]},{"name":"犬上郡多賀町","divisions":[{"name":"一之瀬","zip_code":"5220323"},{"name":"後谷","zip_code":"5220304"},{"name":"大岡","zip_code":"5220315"},{"name":"大杉","zip_code":"5220331"},{"name":"大君ケ畑","zip_code":"5220321"},{"name":"萱原","zip_code":"5220333"},{"name":"河内","zip_code":"5220301"},{"name":"川相","zip_code":"5220324"},{"name":"木曽","zip_code":"5220356"},{"name":"久徳","zip_code":"5220352"},{"name":"栗栖","zip_code":"5220316"},{"name":"甲頭倉","zip_code":"5220305"},{"name":"五僧","zip_code":"5220311"},{"name":"小原","zip_code":"5220325"},{"name":"佐目","zip_code":"5220322"},{"name":"猿木","zip_code":"5220343"},{"name":"四手","zip_code":"5220314"},{"name":"霜ケ原","zip_code":"5220326"},{"name":"水谷","zip_code":"5220318"},{"name":"杉","zip_code":"5220313"},{"name":"多賀","zip_code":"5220341"},{"name":"月之木","zip_code":"5220353"},{"name":"土田","zip_code":"5220354"},{"name":"壺","zip_code":"5220338"},{"name":"富之尾","zip_code":"5220337"},{"name":"中川原","zip_code":"5220355"},{"name":"楢崎","zip_code":"5220336"},{"name":"樋田","zip_code":"5220332"},{"name":"屏風","zip_code":"5220303"},{"name":"敏満寺","zip_code":"5220342"},{"name":"藤瀬","zip_code":"5220335"},{"name":"保月","zip_code":"5220312"},{"name":"仏ケ後","zip_code":"5220334"},{"name":"南後谷","zip_code":"5220327"},{"name":"向之倉","zip_code":"5220302"},{"name":"桃原","zip_code":"5220319"},{"name":"八重練","zip_code":"5220351"},{"name":"霊仙","zip_code":"5220306"}]}]}