{"name":"大阪府","cities":[{"name":"大阪市都島区","divisions":[{"name":"網島町","zip_code":"5340026"},{"name":"内代町","zip_code":"5340013"},{"name":"片町","zip_code":"5340025"},{"name":"毛馬町","zip_code":"5340001"},{"name":"善源寺町","zip_code":"5340015"},{"name":"大東町","zip_code":"5340002"},{"name":"高倉町","zip_code":"5340011"},{"name":"友渕町","zip_code":"5340016"},{"name":"中野町","zip_code":"5340027"},{"name":"東野田町","zip_code":"5340024"},{"name":"都島中通","zip_code":"5340022"},{"name":"都島本通","zip_code":"5340021"},{"name":"都島南通","zip_code":"5340023"},{"name":"都島北通","zip_code":"5340014"},{"name":"御幸町","zip_code":"5340012"}]},{"name":"大阪市福島区","divisions":[{"name":"海老江","zip_code":"5530001"},{"name":"大開","zip_code":"5530007"},{"name":"鷺洲","zip_code":"5530002"},{"name":"玉川","zip_code":"5530004"},{"name":"野田","zip_code":"5530005"},{"name":"福島","zip_code":"5530003"},{"name":"吉野","zip_code":"5530006"}]},{"name":"大阪市此花区","divisions":[{"name":"朝日","zip_code":"5540011"},{"name":"梅町","zip_code":"5540032"},{"name":"春日出中","zip_code":"5540022"},{"name":"春日出南","zip_code":"5540023"},{"name":"春日出北","zip_code":"5540021"},{"name":"桜島","zip_code":"5540031"},{"name":"四貫島","zip_code":"5540014"},{"name":"島屋","zip_code":"5540024"},{"name":"高見","zip_code":"5540001"},{"name":"常吉","zip_code":"5540052"},{"name":"伝法","zip_code":"5540002"},{"name":"酉島","zip_code":"5540051"},{"name":"西九条","zip_code":"5540012"},{"name":"梅香","zip_code":"5540013"},{"name":"北港","zip_code":"5540033"},{"name":"北港白津","zip_code":"5540041"},{"name":"北港緑地","zip_code":"5540042"},{"name":"夢洲東","zip_code":"5540043"}]},{"name":"大阪市西区","divisions":[{"name":"安治川","zip_code":"5500026"},{"name":"阿波座","zip_code":"5500011"},{"name":"立売堀","zip_code":"5500012"},{"name":"靱本町","zip_code":"5500004"},{"name":"江戸堀","zip_code":"5500002"},{"name":"江之子島","zip_code":"5500006"},{"name":"川口","zip_code":"5500021"},{"name":"北堀江","zip_code":"5500014"},{"name":"京町堀","zip_code":"5500003"},{"name":"九条","zip_code":"5500027"},{"name":"九条南","zip_code":"5500025"},{"name":"境川","zip_code":"5500024"},{"name":"新町","zip_code":"5500013"},{"name":"千代崎","zip_code":"5500023"},{"name":"土佐堀","zip_code":"5500001"},{"name":"西本町","zip_code":"5500005"},{"name":"本田","zip_code":"5500022"},{"name":"南堀江","zip_code":"5500015"}]},{"name":"大阪市港区","divisions":[{"name":"池島","zip_code":"5520015"},{"name":"石田","zip_code":"5520006"},{"name":"磯路","zip_code":"5520003"},{"name":"市岡","zip_code":"5520012"},{"name":"市岡元町","zip_code":"5520002"},{"name":"海岸通","zip_code":"5520022"},{"name":"港晴","zip_code":"5520023"},{"name":"田中","zip_code":"5520005"},{"name":"築港","zip_code":"5520021"},{"name":"波除","zip_code":"5520001"},{"name":"福崎","zip_code":"5520013"},{"name":"弁天","zip_code":"5520007"},{"name":"三先","zip_code":"5520016"},{"name":"南市岡","zip_code":"5520011"},{"name":"八幡屋","zip_code":"5520014"},{"name":"夕凪","zip_code":"5520004"}]},{"name":"大阪市大正区","divisions":[{"name":"泉尾","zip_code":"5510031"},{"name":"北恩加島","zip_code":"5510033"},{"name":"北村","zip_code":"5510032"},{"name":"小林東","zip_code":"5510011"},{"name":"小林西","zip_code":"5510013"},{"name":"三軒家東","zip_code":"5510002"},{"name":"三軒家西","zip_code":"5510001"},{"name":"千島","zip_code":"5510003"},{"name":"鶴町","zip_code":"5510023"},{"name":"平尾","zip_code":"5510012"},{"name":"船町","zip_code":"5510022"},{"name":"南恩加島","zip_code":"5510021"}]},{"name":"大阪市天王寺区","divisions":[{"name":"味原町","zip_code":"5430023"},{"name":"味原本町","zip_code":"5430022"},{"name":"生玉寺町","zip_code":"5430073"},{"name":"生玉前町","zip_code":"5430072"},{"name":"生玉町","zip_code":"5430071"},{"name":"石ケ辻町","zip_code":"5430031"},{"name":"上汐","zip_code":"5430002"},{"name":"上之宮町","zip_code":"5430037"},{"name":"上本町","zip_code":"5430001"},{"name":"餌差町","zip_code":"5430016"},{"name":"逢阪","zip_code":"5430062"},{"name":"小橋町","zip_code":"5430028"},{"name":"勝山","zip_code":"5430043"},{"name":"空清町","zip_code":"5430018"},{"name":"烏ケ辻","zip_code":"5430042"},{"name":"空堀町","zip_code":"5430012"},{"name":"北河堀町","zip_code":"5430053"},{"name":"北山町","zip_code":"5430035"},{"name":"国分町","zip_code":"5430044"},{"name":"小宮町","zip_code":"5430036"},{"name":"細工谷","zip_code":"5430032"},{"name":"真田山町","zip_code":"5430015"},{"name":"下寺町","zip_code":"5430076"},{"name":"四天王寺","zip_code":"5430051"},{"name":"清水谷町","zip_code":"5430011"},{"name":"下味原町","zip_code":"5430025"},{"name":"城南寺町","zip_code":"5430017"},{"name":"真法院町","zip_code":"5430041"},{"name":"大道","zip_code":"5430052"},{"name":"玉造本町","zip_code":"5430013"},{"name":"玉造元町","zip_code":"5430014"},{"name":"茶臼山町","zip_code":"5430063"},{"name":"寺田町","zip_code":"5430045"},{"name":"堂ケ芝","zip_code":"5430033"},{"name":"東上町","zip_code":"5430026"},{"name":"東高津町","zip_code":"5430021"},{"name":"悲田院町","zip_code":"5430055"},{"name":"筆ケ崎町","zip_code":"5430027"},{"name":"舟橋町","zip_code":"5430024"},{"name":"堀越町","zip_code":"5430056"},{"name":"松ケ鼻町","zip_code":"5430034"},{"name":"南河堀町","zip_code":"5430054"},{"name":"夕陽丘町","zip_code":"5430075"},{"name":"伶人町","zip_code":"5430061"},{"name":"六万体町","zip_code":"5430074"}]},{"name":"大阪市浪速区","divisions":[{"name":"芦原","zip_code":"5560029"},{"name":"稲荷","zip_code":"5560023"},{"name":"戎本町","zip_code":"5560013"},{"name":"恵美須東","zip_code":"5560002"},{"name":"恵美須西","zip_code":"5560003"},{"name":"木津川","zip_code":"5560027"},{"name":"久保吉","zip_code":"5560028"},{"name":"幸町","zip_code":"5560021"},{"name":"桜川","zip_code":"5560022"},{"name":"塩草","zip_code":"5560024"},{"name":"敷津東","zip_code":"5560012"},{"name":"敷津西","zip_code":"5560015"},{"name":"下寺","zip_code":"5560001"},{"name":"大国","zip_code":"5560014"},{"name":"立葉","zip_code":"5560020"},{"name":"浪速東","zip_code":"5560025"},{"name":"浪速西","zip_code":"5560026"},{"name":"難波中","zip_code":"5560011"},{"name":"日本橋","zip_code":"5560005"},{"name":"日本橋東","zip_code":"5560006"},{"name":"日本橋西","zip_code":"5560004"},{"name":"湊町","zip_code":"5560017"},{"name":"元町","zip_code":"5560016"}]},{"name":"大阪市西淀川区","divisions":[{"name":"歌島","zip_code":"5550021"},{"name":"大野","zip_code":"5550043"},{"name":"大和田","zip_code":"5550032"},{"name":"柏里","zip_code":"5550022"},{"name":"竹島","zip_code":"5550011"},{"name":"千舟","zip_code":"5550013"},{"name":"佃","zip_code":"5550001"},{"name":"出来島","zip_code":"5550031"},{"name":"中島","zip_code":"5550041"},{"name":"西島","zip_code":"5550042"},{"name":"野里","zip_code":"5550024"},{"name":"花川","zip_code":"5550023"},{"name":"姫里","zip_code":"5550025"},{"name":"姫島","zip_code":"5550033"},{"name":"百島","zip_code":"5550044"},{"name":"福町","zip_code":"5550034"},{"name":"御幣島","zip_code":"5550012"}]},{"name":"大阪市東淀川区","divisions":[{"name":"相川","zip_code":"5330007"},{"name":"淡路","zip_code":"5330032"},{"name":"井高野","zip_code":"5330001"},{"name":"大隅","zip_code":"5330015"},{"name":"上新庄","zip_code":"5330006"},{"name":"北江口","zip_code":"5330002"},{"name":"柴島","zip_code":"5330024"},{"name":"小松","zip_code":"5330004"},{"name":"下新庄","zip_code":"5330021"},{"name":"瑞光","zip_code":"5330005"},{"name":"菅原","zip_code":"5330022"},{"name":"大桐","zip_code":"5330011"},{"name":"大道南","zip_code":"5330012"},{"name":"豊里","zip_code":"5330013"},{"name":"西淡路","zip_code":"5330031"},{"name":"東淡路","zip_code":"5330023"},{"name":"東中島","zip_code":"5330033"},{"name":"豊新","zip_code":"5330014"},{"name":"南江口","zip_code":"5330003"}]},{"name":"大阪市東成区","divisions":[{"name":"大今里","zip_code":"5370012"},{"name":"大今里西","zip_code":"5370014"},{"name":"大今里南","zip_code":"5370013"},{"name":"神路","zip_code":"5370003"},{"name":"玉津","zip_code":"5370023"},{"name":"中道","zip_code":"5370025"},{"name":"中本","zip_code":"5370022"},{"name":"東今里","zip_code":"5370011"},{"name":"東小橋","zip_code":"5370024"},{"name":"東中本","zip_code":"5370021"},{"name":"深江南","zip_code":"5370002"},{"name":"深江北","zip_code":"5370001"}]},{"name":"大阪市生野区","divisions":[{"name":"生野東","zip_code":"5440025"},{"name":"生野西","zip_code":"5440024"},{"name":"勝山南","zip_code":"5440021"},{"name":"勝山北","zip_code":"5440033"},{"name":"舎利寺","zip_code":"5440022"},{"name":"小路","zip_code":"5440002"},{"name":"小路東","zip_code":"5440003"},{"name":"新今里","zip_code":"5440001"},{"name":"田島","zip_code":"5440011"},{"name":"巽中","zip_code":"5440013"},{"name":"巽東","zip_code":"5440014"},{"name":"巽西","zip_code":"5440012"},{"name":"巽南","zip_code":"5440015"},{"name":"巽北","zip_code":"5440004"},{"name":"鶴橋","zip_code":"5440031"},{"name":"中川","zip_code":"5440005"},{"name":"中川東","zip_code":"5440006"},{"name":"中川西","zip_code":"5440032"},{"name":"林寺","zip_code":"5440023"},{"name":"桃谷","zip_code":"5440034"}]},{"name":"大阪市旭区","divisions":[{"name":"赤川","zip_code":"5350005"},{"name":"生江","zip_code":"5350004"},{"name":"今市","zip_code":"5350011"},{"name":"大宮","zip_code":"5350002"},{"name":"清水","zip_code":"5350021"},{"name":"新森","zip_code":"5350022"},{"name":"千林","zip_code":"5350012"},{"name":"太子橋","zip_code":"5350001"},{"name":"高殿","zip_code":"5350031"},{"name":"中宮","zip_code":"5350003"},{"name":"森小路","zip_code":"5350013"}]},{"name":"大阪市城東区","divisions":[{"name":"今福東","zip_code":"5360002"},{"name":"今福西","zip_code":"5360004"},{"name":"今福南","zip_code":"5360003"},{"name":"蒲生","zip_code":"5360016"},{"name":"新喜多","zip_code":"5360015"},{"name":"新喜多東","zip_code":"5360017"},{"name":"鴫野東","zip_code":"5360013"},{"name":"鴫野西","zip_code":"5360014"},{"name":"諏訪","zip_code":"5360021"},{"name":"成育","zip_code":"5360007"},{"name":"関目","zip_code":"5360008"},{"name":"中央","zip_code":"5360005"},{"name":"天王田","zip_code":"5360012"},{"name":"中浜","zip_code":"5360024"},{"name":"永田","zip_code":"5360022"},{"name":"野江","zip_code":"5360006"},{"name":"放出西","zip_code":"5360011"},{"name":"東中浜","zip_code":"5360023"},{"name":"古市","zip_code":"5360001"},{"name":"森之宮","zip_code":"5360025"}]},{"name":"大阪市阿倍野区","divisions":[{"name":"相生通","zip_code":"5450033"},{"name":"旭町","zip_code":"5450051"},{"name":"阿倍野筋","zip_code":"5450052"},{"name":"阿倍野元町","zip_code":"5450034"},{"name":"王子町","zip_code":"5450023"},{"name":"北畠","zip_code":"5450035"},{"name":"共立通","zip_code":"5450041"},{"name":"三明町","zip_code":"5450005"},{"name":"昭和町","zip_code":"5450011"},{"name":"晴明通","zip_code":"5450032"},{"name":"帝塚山","zip_code":"5450037"},{"name":"天王寺町南","zip_code":"5450002"},{"name":"天王寺町北","zip_code":"5450001"},{"name":"長池町","zip_code":"5450013"},{"name":"西田辺町","zip_code":"5450014"},{"name":"橋本町","zip_code":"5450031"},{"name":"播磨町","zip_code":"5450022"},{"name":"阪南町","zip_code":"5450021"},{"name":"万代","zip_code":"5450036"},{"name":"美章園","zip_code":"5450003"},{"name":"文の里","zip_code":"5450004"},{"name":"松崎町","zip_code":"5450053"},{"name":"松虫通","zip_code":"5450043"},{"name":"丸山通","zip_code":"5450042"},{"name":"桃ケ池町","zip_code":"5450012"}]},{"name":"大阪市住吉区","divisions":[{"name":"浅香","zip_code":"5580021"},{"name":"我孫子","zip_code":"5580014"},{"name":"我孫子東","zip_code":"5580013"},{"name":"我孫子西","zip_code":"5580015"},{"name":"上住吉","zip_code":"5580046"},{"name":"遠里小野","zip_code":"5580032"},{"name":"苅田","zip_code":"5580011"},{"name":"沢之町","zip_code":"5580031"},{"name":"清水丘","zip_code":"5580033"},{"name":"杉本","zip_code":"5580022"},{"name":"墨江","zip_code":"5580043"},{"name":"住吉","zip_code":"5580045"},{"name":"千躰","zip_code":"5580047"},{"name":"大領","zip_code":"5580001"},{"name":"帝塚山中","zip_code":"5580053"},{"name":"帝塚山東","zip_code":"5580054"},{"name":"帝塚山西","zip_code":"5580052"},{"name":"殿辻","zip_code":"5580042"},{"name":"長居","zip_code":"5580003"},{"name":"長居東","zip_code":"5580004"},{"name":"長居西","zip_code":"5580002"},{"name":"長峡町","zip_code":"5580044"},{"name":"庭井","zip_code":"5580012"},{"name":"万代","zip_code":"5580055"},{"name":"万代東","zip_code":"5580056"},{"name":"東粉浜","zip_code":"5580051"},{"name":"南住吉","zip_code":"5580041"},{"name":"山之内","zip_code":"5580023"},{"name":"山之内元町","zip_code":"5580024"}]},{"name":"大阪市東住吉区","divisions":[{"name":"今川","zip_code":"5460003"},{"name":"今林","zip_code":"5460001"},{"name":"北田辺","zip_code":"5460044"},{"name":"杭全","zip_code":"5460002"},{"name":"桑津","zip_code":"5460041"},{"name":"公園南矢田","zip_code":"5460024"},{"name":"駒川","zip_code":"5460043"},{"name":"住道矢田","zip_code":"5460022"},{"name":"鷹合","zip_code":"5460014"},{"name":"田辺","zip_code":"5460031"},{"name":"照ケ丘矢田","zip_code":"5460021"},{"name":"中野","zip_code":"5460012"},{"name":"長居公園","zip_code":"5460034"},{"name":"西今川","zip_code":"5460042"},{"name":"針中野","zip_code":"5460011"},{"name":"東田辺","zip_code":"5460032"},{"name":"南田辺","zip_code":"5460033"},{"name":"矢田","zip_code":"5460023"},{"name":"山坂","zip_code":"5460035"},{"name":"湯里","zip_code":"5460013"}]},{"name":"大阪市西成区","divisions":[{"name":"旭","zip_code":"5570032"},{"name":"岸里","zip_code":"5570041"},{"name":"岸里東","zip_code":"5570042"},{"name":"北津守","zip_code":"5570061"},{"name":"北開","zip_code":"5570021"},{"name":"山王","zip_code":"5570001"},{"name":"潮路","zip_code":"5570052"},{"name":"聖天下","zip_code":"5570012"},{"name":"千本中","zip_code":"5570054"},{"name":"千本南","zip_code":"5570055"},{"name":"千本北","zip_code":"5570053"},{"name":"太子","zip_code":"5570002"},{"name":"橘","zip_code":"5570051"},{"name":"玉出中","zip_code":"5570044"},{"name":"玉出東","zip_code":"5570043"},{"name":"玉出西","zip_code":"5570045"},{"name":"津守","zip_code":"5570062"},{"name":"鶴見橋","zip_code":"5570031"},{"name":"出城","zip_code":"5570024"},{"name":"天下茶屋","zip_code":"5570014"},{"name":"天下茶屋東","zip_code":"5570011"},{"name":"天下茶屋北","zip_code":"5570003"},{"name":"天神ノ森","zip_code":"5570013"},{"name":"中開","zip_code":"5570022"},{"name":"長橋","zip_code":"5570025"},{"name":"梅南","zip_code":"5570033"},{"name":"萩之茶屋","zip_code":"5570004"},{"name":"花園南","zip_code":"5570015"},{"name":"花園北","zip_code":"5570016"},{"name":"松","zip_code":"5570034"},{"name":"南津守","zip_code":"5570063"},{"name":"南開","zip_code":"5570023"}]},{"name":"大阪市淀川区","divisions":[{"name":"加島","zip_code":"5320031"},{"name":"木川東","zip_code":"5320012"},{"name":"木川西","zip_code":"5320013"},{"name":"新北野","zip_code":"5320025"},{"name":"十三本町","zip_code":"5320024"},{"name":"十三元今里","zip_code":"5320028"},{"name":"十三東","zip_code":"5320023"},{"name":"十八条","zip_code":"5320001"},{"name":"田川","zip_code":"5320027"},{"name":"田川北","zip_code":"5320021"},{"name":"塚本","zip_code":"5320026"},{"name":"新高","zip_code":"5320033"},{"name":"西中島","zip_code":"5320011"},{"name":"西三国","zip_code":"5320006"},{"name":"西宮原","zip_code":"5320004"},{"name":"野中南","zip_code":"5320022"},{"name":"野中北","zip_code":"5320034"},{"name":"東三国","zip_code":"5320002"},{"name":"三国本町","zip_code":"5320005"},{"name":"三津屋中","zip_code":"5320036"},{"name":"三津屋南","zip_code":"5320035"},{"name":"三津屋北","zip_code":"5320032"},{"name":"宮原","zip_code":"5320003"}]},{"name":"大阪市鶴見区","divisions":[{"name":"今津中","zip_code":"5380042"},{"name":"今津南","zip_code":"5380043"},{"name":"今津北","zip_code":"5380041"},{"name":"鶴見","zip_code":"5380053"},{"name":"徳庵","zip_code":"5380034"},{"name":"中茶屋","zip_code":"5380033"},{"name":"放出東","zip_code":"5380044"},{"name":"浜","zip_code":"5380035"},{"name":"茨田大宮","zip_code":"5380031"},{"name":"緑","zip_code":"5380054"},{"name":"諸口","zip_code":"5380051"},{"name":"焼野","zip_code":"5380037"},{"name":"安田","zip_code":"5380032"},{"name":"横堤","zip_code":"5380052"},{"name":"緑地公園","zip_code":"5380036"}]},{"name":"大阪市住之江区","divisions":[{"name":"安立","zip_code":"5590003"},{"name":"泉","zip_code":"5590023"},{"name":"北加賀屋","zip_code":"5590011"},{"name":"北島","zip_code":"5590014"},{"name":"粉浜","zip_code":"5590001"},{"name":"粉浜西","zip_code":"5590007"},{"name":"柴谷","zip_code":"5590021"},{"name":"新北島","zip_code":"5590024"},{"name":"住之江","zip_code":"5590004"},{"name":"中加賀屋","zip_code":"5590017"},{"name":"南港中","zip_code":"5590033"},{"name":"南港東","zip_code":"5590031"},{"name":"南港南","zip_code":"5590032"},{"name":"南港北","zip_code":"5590034"},{"name":"西加賀屋","zip_code":"5590016"},{"name":"西住之江","zip_code":"5590005"},{"name":"浜口東","zip_code":"5590002"},{"name":"浜口西","zip_code":"5590006"},{"name":"東加賀屋","zip_code":"5590012"},{"name":"平林南","zip_code":"5590025"},{"name":"平林北","zip_code":"5590026"},{"name":"御崎","zip_code":"5590013"},{"name":"緑木","zip_code":"5590022"},{"name":"南加賀屋","zip_code":"5590015"}]},{"name":"大阪市平野区","divisions":[{"name":"瓜破","zip_code":"5470024"},{"name":"瓜破東","zip_code":"5470022"},{"name":"瓜破西","zip_code":"5470025"},{"name":"瓜破南","zip_code":"5470023"},{"name":"加美鞍作","zip_code":"5470004"},{"name":"加美正覚寺","zip_code":"5470006"},{"name":"加美東","zip_code":"5470002"},{"name":"加美西","zip_code":"5470005"},{"name":"加美南","zip_code":"5470003"},{"name":"加美北","zip_code":"5470001"},{"name":"喜連","zip_code":"5470027"},{"name":"喜連東","zip_code":"5470021"},{"name":"喜連西","zip_code":"5470026"},{"name":"背戸口","zip_code":"5470034"},{"name":"長吉川辺","zip_code":"5470014"},{"name":"長吉出戸","zip_code":"5470011"},{"name":"長吉長原","zip_code":"5470016"},{"name":"長吉長原東","zip_code":"5470013"},{"name":"長吉長原西","zip_code":"5470015"},{"name":"長吉六反","zip_code":"5470012"},{"name":"流町","zip_code":"5470032"},{"name":"西脇","zip_code":"5470035"},{"name":"平野市町","zip_code":"5470042"},{"name":"平野上町","zip_code":"5470045"},{"name":"平野馬場","zip_code":"5470048"},{"name":"平野本町","zip_code":"5470044"},{"name":"平野宮町","zip_code":"5470046"},{"name":"平野元町","zip_code":"5470047"},{"name":"平野東","zip_code":"5470043"},{"name":"平野西","zip_code":"5470033"},{"name":"平野南","zip_code":"5470031"},{"name":"平野北","zip_code":"5470041"}]},{"name":"大阪市北区","divisions":[{"name":"池田町","zip_code":"5300033"},{"name":"浮田","zip_code":"5300021"},{"name":"梅田","zip_code":"5300001"},{"name":"扇町","zip_code":"5300025"},{"name":"大深町","zip_code":"5300011"},{"name":"大淀中","zip_code":"5310076"},{"name":"大淀南","zip_code":"5310075"},{"name":"大淀北","zip_code":"5310077"},{"name":"角田町","zip_code":"5300017"},{"name":"神山町","zip_code":"5300026"},{"name":"菅栄町","zip_code":"5300031"},{"name":"黒崎町","zip_code":"5300023"},{"name":"紅梅町","zip_code":"5300038"},{"name":"国分寺","zip_code":"5310064"},{"name":"小松原町","zip_code":"5300018"},{"name":"芝田","zip_code":"5300012"},{"name":"末広町","zip_code":"5300053"},{"name":"菅原町","zip_code":"5300046"},{"name":"曽根崎","zip_code":"5300057"},{"name":"曽根崎新地","zip_code":"5300002"},{"name":"太融寺町","zip_code":"5300051"},{"name":"茶屋町","zip_code":"5300013"},{"name":"鶴野町","zip_code":"5300014"},{"name":"天神西町","zip_code":"5300045"},{"name":"天神橋","zip_code":"5300041"},{"name":"天満","zip_code":"5300043"},{"name":"天満橋","zip_code":"5300042"},{"name":"堂島","zip_code":"5300003"},{"name":"堂島浜","zip_code":"5300004"},{"name":"同心","zip_code":"5300035"},{"name":"堂山町","zip_code":"5300027"},{"name":"兎我野町","zip_code":"5300056"},{"name":"豊崎","zip_code":"5310072"},{"name":"中崎","zip_code":"5300016"},{"name":"中崎西","zip_code":"5300015"},{"name":"中津","zip_code":"5310071"},{"name":"中之島","zip_code":"5300005"},{"name":"長柄中","zip_code":"5310062"},{"name":"長柄東","zip_code":"5310063"},{"name":"長柄西","zip_code":"5310061"},{"name":"浪花町","zip_code":"5300022"},{"name":"錦町","zip_code":"5300034"},{"name":"西天満","zip_code":"5300047"},{"name":"野崎町","zip_code":"5300055"},{"name":"万歳町","zip_code":"5300028"},{"name":"東天満","zip_code":"5300044"},{"name":"樋之口町","zip_code":"5300032"},{"name":"本庄東","zip_code":"5310074"},{"name":"本庄西","zip_code":"5310073"},{"name":"松ケ枝町","zip_code":"5300037"},{"name":"南扇町","zip_code":"5300052"},{"name":"南森町","zip_code":"5300054"},{"name":"山崎町","zip_code":"5300024"},{"name":"与力町","zip_code":"5300036"}]},{"name":"大阪市中央区","divisions":[{"name":"安土町","zip_code":"5410052"},{"name":"淡路町","zip_code":"5410047"},{"name":"安堂寺町","zip_code":"5420061"},{"name":"和泉町","zip_code":"5400019"},{"name":"糸屋町","zip_code":"5400022"},{"name":"今橋","zip_code":"5410042"},{"name":"上汐","zip_code":"5420064"},{"name":"上本町西","zip_code":"5420062"},{"name":"上町","zip_code":"5400005"},{"name":"内淡路町","zip_code":"5400038"},{"name":"内久宝寺町","zip_code":"5400013"},{"name":"内平野町","zip_code":"5400037"},{"name":"内本町","zip_code":"5400026"},{"name":"大阪城","zip_code":"5400002"},{"name":"大手通","zip_code":"5400021"},{"name":"大手前","zip_code":"5400008"},{"name":"瓦町","zip_code":"5410048"},{"name":"瓦屋町","zip_code":"5420066"},{"name":"神崎町","zip_code":"5400016"},{"name":"北久宝寺町","zip_code":"5410057"},{"name":"北新町","zip_code":"5400023"},{"name":"北浜","zip_code":"5410041"},{"name":"北浜東","zip_code":"5400031"},{"name":"久太郎町","zip_code":"5410056"},{"name":"高津","zip_code":"5420072"},{"name":"高麗橋","zip_code":"5410043"},{"name":"粉川町","zip_code":"5400018"},{"name":"石町","zip_code":"5400033"},{"name":"材木町","zip_code":"5400010"},{"name":"島之内","zip_code":"5420082"},{"name":"島町","zip_code":"5400034"},{"name":"十二軒町","zip_code":"5400015"},{"name":"城見","zip_code":"5400001"},{"name":"心斎橋筋","zip_code":"5420085"},{"name":"千日前","zip_code":"5420074"},{"name":"船場中央","zip_code":"5410055"},{"name":"宗右衛門町","zip_code":"5420084"},{"name":"谷町","zip_code":"5400012"},{"name":"玉造","zip_code":"5400004"},{"name":"釣鐘町","zip_code":"5400035"},{"name":"天満橋京町","zip_code":"5400032"},{"name":"東平","zip_code":"5420063"},{"name":"常盤町","zip_code":"5400028"},{"name":"徳井町","zip_code":"5400025"},{"name":"道頓堀","zip_code":"5420077"},{"name":"道修町","zip_code":"5410045"},{"name":"中寺","zip_code":"5420065"},{"name":"難波","zip_code":"5420076"},{"name":"難波千日前","zip_code":"5420075"},{"name":"西心斎橋","zip_code":"5420086"},{"name":"日本橋","zip_code":"5420073"},{"name":"農人橋","zip_code":"5400011"},{"name":"博労町","zip_code":"5410059"},{"name":"馬場町","zip_code":"5400007"},{"name":"東高麗橋","zip_code":"5400039"},{"name":"東心斎橋","zip_code":"5420083"},{"name":"平野町","zip_code":"5410046"},{"name":"備後町","zip_code":"5410051"},{"name":"伏見町","zip_code":"5410044"},{"name":"船越町","zip_code":"5400036"},{"name":"法円坂","zip_code":"5400006"},{"name":"本町","zip_code":"5410053"},{"name":"本町橋","zip_code":"5400029"},{"name":"松屋町","zip_code":"5420067"},{"name":"松屋町住吉","zip_code":"5400017"},{"name":"南久宝寺町","zip_code":"5410058"},{"name":"南新町","zip_code":"5400024"},{"name":"南船場","zip_code":"5420081"},{"name":"南本町","zip_code":"5410054"},{"name":"森ノ宮中央","zip_code":"5400003"},{"name":"鎗屋町","zip_code":"5400027"},{"name":"龍造寺町","zip_code":"5400014"}]},{"name":"堺市堺区","divisions":[{"name":"浅香山町","zip_code":"5900012"},{"name":"旭ケ丘北町","zip_code":"5900809"},{"name":"旭ケ丘中町","zip_code":"5900808"},{"name":"旭ケ丘南町","zip_code":"5900807"},{"name":"旭通","zip_code":"5900055"},{"name":"綾之町西","zip_code":"5900926"},{"name":"綾之町東","zip_code":"5900925"},{"name":"石津北町","zip_code":"5900823"},{"name":"石津町","zip_code":"5900814"},{"name":"一条通","zip_code":"5900048"},{"name":"市之町西","zip_code":"5900951"},{"name":"市之町東","zip_code":"5900952"},{"name":"今池町","zip_code":"5900018"},{"name":"永代町","zip_code":"5900065"},{"name":"榎元町","zip_code":"5900027"},{"name":"戎島町","zip_code":"5900985"},{"name":"戎之町西","zip_code":"5900948"},{"name":"戎之町東","zip_code":"5900945"},{"name":"老松町","zip_code":"5900824"},{"name":"大町西","zip_code":"5900959"},{"name":"大町東","zip_code":"5900954"},{"name":"大浜北町","zip_code":"5900974"},{"name":"大浜中町","zip_code":"5900975"},{"name":"大浜西町","zip_code":"5900977"},{"name":"大浜南町","zip_code":"5900976"},{"name":"翁橋町","zip_code":"5900061"},{"name":"遠里小野町","zip_code":"5900001"},{"name":"海山町","zip_code":"5900982"},{"name":"甲斐町西","zip_code":"5900950"},{"name":"甲斐町東","zip_code":"5900953"},{"name":"香ケ丘町","zip_code":"5900011"},{"name":"柏木町","zip_code":"5900837"},{"name":"春日通","zip_code":"5900827"},{"name":"霞ケ丘町","zip_code":"5900812"},{"name":"神石市之町","zip_code":"5900813"},{"name":"神南辺町","zip_code":"5900984"},{"name":"北瓦町","zip_code":"5900076"},{"name":"北向陽町","zip_code":"5900071"},{"name":"北清水町","zip_code":"5900004"},{"name":"北庄町","zip_code":"5900007"},{"name":"北田出井町","zip_code":"5900017"},{"name":"北旅籠町西","zip_code":"5900928"},{"name":"北旅籠町東","zip_code":"5900923"},{"name":"北波止町","zip_code":"5900986"},{"name":"北花田口町","zip_code":"5900074"},{"name":"北半町西","zip_code":"5900921"},{"name":"北半町東","zip_code":"5900922"},{"name":"北丸保園","zip_code":"5900037"},{"name":"北三国ケ丘町","zip_code":"5900021"},{"name":"北安井町","zip_code":"5900062"},{"name":"京町通","zip_code":"5900054"},{"name":"協和町","zip_code":"5900822"},{"name":"錦綾町","zip_code":"5900006"},{"name":"九間町西","zip_code":"5900939"},{"name":"九間町東","zip_code":"5900934"},{"name":"櫛屋町西","zip_code":"5900949"},{"name":"櫛屋町東","zip_code":"5900944"},{"name":"楠町","zip_code":"5900836"},{"name":"熊野町西","zip_code":"5900947"},{"name":"熊野町東","zip_code":"5900946"},{"name":"車之町西","zip_code":"5900940"},{"name":"車之町東","zip_code":"5900943"},{"name":"向陵中町","zip_code":"5900024"},{"name":"向陵西町","zip_code":"5900026"},{"name":"向陵東町","zip_code":"5900025"},{"name":"五条通","zip_code":"5900044"},{"name":"御陵通","zip_code":"5900057"},{"name":"材木町西","zip_code":"5900941"},{"name":"材木町東","zip_code":"5900942"},{"name":"幸通","zip_code":"5900051"},{"name":"栄橋町","zip_code":"5900971"},{"name":"桜之町西","zip_code":"5900927"},{"name":"桜之町東","zip_code":"5900924"},{"name":"五月町","zip_code":"5900031"},{"name":"三条通","zip_code":"5900046"},{"name":"三宝町","zip_code":"5900906"},{"name":"塩浜町","zip_code":"5900981"},{"name":"四条通","zip_code":"5900045"},{"name":"七条通","zip_code":"5900042"},{"name":"七道西町","zip_code":"5900911"},{"name":"七道東町","zip_code":"5900913"},{"name":"東雲西町","zip_code":"5900013"},{"name":"宿院町西","zip_code":"5900958"},{"name":"宿院町東","zip_code":"5900955"},{"name":"宿屋町西","zip_code":"5900937"},{"name":"宿屋町東","zip_code":"5900936"},{"name":"少林寺町西","zip_code":"5900960"},{"name":"少林寺町東","zip_code":"5900963"},{"name":"昭和通","zip_code":"5900825"},{"name":"新在家町西","zip_code":"5900969"},{"name":"新在家町東","zip_code":"5900964"},{"name":"神保通","zip_code":"5900056"},{"name":"新町","zip_code":"5900079"},{"name":"神明町西","zip_code":"5900938"},{"name":"神明町東","zip_code":"5900935"},{"name":"菅原通","zip_code":"5900826"},{"name":"砂道町","zip_code":"5900002"},{"name":"住吉橋町","zip_code":"5900973"},{"name":"大仙町","zip_code":"5900035"},{"name":"大仙中町","zip_code":"5900801"},{"name":"大仙西町","zip_code":"5900821"},{"name":"高砂町","zip_code":"5900820"},{"name":"高須町","zip_code":"5900003"},{"name":"匠町","zip_code":"5900908"},{"name":"田出井町","zip_code":"5900014"},{"name":"築港南町","zip_code":"5900987"},{"name":"築港八幡町","zip_code":"5900901"},{"name":"出島海岸通","zip_code":"5900833"},{"name":"出島町","zip_code":"5900834"},{"name":"出島西町","zip_code":"5900831"},{"name":"出島浜通","zip_code":"5900832"},{"name":"鉄砲町","zip_code":"5900905"},{"name":"寺地町西","zip_code":"5900961"},{"name":"寺地町東","zip_code":"5900962"},{"name":"中瓦町","zip_code":"5900077"},{"name":"中向陽町","zip_code":"5900072"},{"name":"中田出井町","zip_code":"5900016"},{"name":"中永山園","zip_code":"5900033"},{"name":"中之町西","zip_code":"5900957"},{"name":"中之町東","zip_code":"5900956"},{"name":"中三国ケ丘町","zip_code":"5900022"},{"name":"中安井町","zip_code":"5900063"},{"name":"並松町","zip_code":"5900912"},{"name":"南陵町","zip_code":"5900811"},{"name":"賑町","zip_code":"5900066"},{"name":"錦之町西","zip_code":"5900931"},{"name":"錦之町東","zip_code":"5900932"},{"name":"西永山園","zip_code":"5900032"},{"name":"西湊町","zip_code":"5900835"},{"name":"二条通","zip_code":"5900047"},{"name":"東上野芝町","zip_code":"5900803"},{"name":"東永山園","zip_code":"5900034"},{"name":"東湊町","zip_code":"5900829"},{"name":"松屋町","zip_code":"5900903"},{"name":"松屋大和川通","zip_code":"5900902"},{"name":"三国ケ丘御幸通","zip_code":"5900028"},{"name":"緑ヶ丘北町","zip_code":"5900806"},{"name":"緑ヶ丘中町","zip_code":"5900805"},{"name":"緑ヶ丘南町","zip_code":"5900804"},{"name":"緑町","zip_code":"5900907"},{"name":"南瓦町","zip_code":"5900078"},{"name":"南向陽町","zip_code":"5900073"},{"name":"南島町","zip_code":"5900904"},{"name":"南清水町","zip_code":"5900005"},{"name":"南庄町","zip_code":"5900008"},{"name":"南田出井町","zip_code":"5900015"},{"name":"南旅篭町西","zip_code":"5900968"},{"name":"南旅篭町東","zip_code":"5900965"},{"name":"南花田口町","zip_code":"5900075"},{"name":"南半町西","zip_code":"5900967"},{"name":"南半町東","zip_code":"5900966"},{"name":"南丸保園","zip_code":"5900036"},{"name":"南三国ケ丘町","zip_code":"5900023"},{"name":"南安井町","zip_code":"5900064"},{"name":"百舌鳥夕雲町","zip_code":"5900802"},{"name":"文珠橋通","zip_code":"5900053"},{"name":"八千代通","zip_code":"5900052"},{"name":"柳之町西","zip_code":"5900930"},{"name":"柳之町東","zip_code":"5900933"},{"name":"八幡通","zip_code":"5900828"},{"name":"山本町","zip_code":"5900983"},{"name":"竜神橋町","zip_code":"5900972"},{"name":"陵西通","zip_code":"5900041"},{"name":"六条通","zip_code":"5900043"}]},{"name":"堺市中区","divisions":[{"name":"上之","zip_code":"5998244"},{"name":"大野芝町","zip_code":"5998233"},{"name":"学園町","zip_code":"5998231"},{"name":"毛穴町","zip_code":"5998266"},{"name":"小阪","zip_code":"5998276"},{"name":"小阪西町","zip_code":"5998264"},{"name":"新家町","zip_code":"5998232"},{"name":"田園","zip_code":"5998246"},{"name":"辻之","zip_code":"5998245"},{"name":"陶器北","zip_code":"5998242"},{"name":"土塔町","zip_code":"5998234"},{"name":"楢葉","zip_code":"5998252"},{"name":"土師町","zip_code":"5998238"},{"name":"八田寺町","zip_code":"5998267"},{"name":"八田北町","zip_code":"5998262"},{"name":"八田西町","zip_code":"5998265"},{"name":"八田南之町","zip_code":"5998263"},{"name":"東八田","zip_code":"5998275"},{"name":"東山","zip_code":"5998247"},{"name":"平井","zip_code":"5998251"},{"name":"深井北町","zip_code":"5998271"},{"name":"深井沢町","zip_code":"5998236"},{"name":"深井清水町","zip_code":"5998273"},{"name":"深井中町","zip_code":"5998272"},{"name":"深井畑山町","zip_code":"5998248"},{"name":"深井東町","zip_code":"5998235"},{"name":"深井水池町","zip_code":"5998237"},{"name":"深阪","zip_code":"5998253"},{"name":"福田","zip_code":"5998241"},{"name":"伏尾","zip_code":"5998254"},{"name":"堀上町","zip_code":"5998261"},{"name":"見野山","zip_code":"5998243"},{"name":"宮園町","zip_code":"5998274"}]},{"name":"堺市東区","divisions":[{"name":"石原町","zip_code":"5998102"},{"name":"大美野","zip_code":"5998126"},{"name":"北野田","zip_code":"5998123"},{"name":"草尾","zip_code":"5998127"},{"name":"丈六","zip_code":"5998122"},{"name":"白鷺町","zip_code":"5998107"},{"name":"関茶屋","zip_code":"5998115"},{"name":"高松","zip_code":"5998121"},{"name":"中茶屋","zip_code":"5998128"},{"name":"西野","zip_code":"5998125"},{"name":"野尻町","zip_code":"5998116"},{"name":"日置荘北町","zip_code":"5998111"},{"name":"日置荘田中町","zip_code":"5998113"},{"name":"日置荘西町","zip_code":"5998114"},{"name":"日置荘原寺町","zip_code":"5998112"},{"name":"引野町","zip_code":"5998104"},{"name":"菩提町","zip_code":"5998103"},{"name":"南野田","zip_code":"5998124"},{"name":"八下町","zip_code":"5998101"}]},{"name":"堺市西区","divisions":[{"name":"石津西町","zip_code":"5928332"},{"name":"上野芝町","zip_code":"5938301"},{"name":"上野芝向ケ丘町","zip_code":"5938303"},{"name":"家原寺町","zip_code":"5938304"},{"name":"鳳北町","zip_code":"5938328"},{"name":"鳳中町","zip_code":"5938327"},{"name":"鳳西町","zip_code":"5938326"},{"name":"鳳東町","zip_code":"5938324"},{"name":"鳳南町","zip_code":"5938325"},{"name":"上","zip_code":"5938311"},{"name":"草部","zip_code":"5938312"},{"name":"神野町","zip_code":"5938308"},{"name":"小代","zip_code":"5938313"},{"name":"下田町","zip_code":"5938329"},{"name":"太平寺","zip_code":"5938314"},{"name":"築港新町","zip_code":"5928331"},{"name":"築港浜寺町","zip_code":"5928351"},{"name":"築港浜寺西町","zip_code":"5928352"},{"name":"津久野町","zip_code":"5938322"},{"name":"鶴田町","zip_code":"5938323"},{"name":"浜寺石津町中","zip_code":"5928334"},{"name":"浜寺石津町西","zip_code":"5928333"},{"name":"浜寺石津町東","zip_code":"5928335"},{"name":"浜寺公園町","zip_code":"5928346"},{"name":"浜寺昭和町","zip_code":"5928345"},{"name":"浜寺諏訪森町中","zip_code":"5928348"},{"name":"浜寺諏訪森町西","zip_code":"5928347"},{"name":"浜寺諏訪森町東","zip_code":"5928349"},{"name":"浜寺船尾町西","zip_code":"5928342"},{"name":"浜寺船尾町東","zip_code":"5928341"},{"name":"浜寺南町","zip_code":"5928344"},{"name":"浜寺元町","zip_code":"5928343"},{"name":"原田","zip_code":"5938317"},{"name":"八田寺町","zip_code":"5938306"},{"name":"菱木","zip_code":"5938315"},{"name":"平岡町","zip_code":"5938307"},{"name":"北条町","zip_code":"5938302"},{"name":"堀上緑町","zip_code":"5938305"},{"name":"宮下町","zip_code":"5938321"},{"name":"山田","zip_code":"5938316"}]},{"name":"堺市南区","divisions":[{"name":"赤坂台","zip_code":"5900144"},{"name":"泉田中","zip_code":"5900126"},{"name":"稲葉","zip_code":"5900156"},{"name":"岩室","zip_code":"5900112"},{"name":"大庭寺","zip_code":"5900153"},{"name":"大森","zip_code":"5900145"},{"name":"片蔵","zip_code":"5900121"},{"name":"釜室","zip_code":"5900122"},{"name":"鴨谷台","zip_code":"5900138"},{"name":"小代","zip_code":"5900151"},{"name":"逆瀬川","zip_code":"5900123"},{"name":"城山台","zip_code":"5900137"},{"name":"新檜尾台","zip_code":"5900143"},{"name":"太平寺","zip_code":"5900158"},{"name":"高尾","zip_code":"5900157"},{"name":"高倉台","zip_code":"5900117"},{"name":"竹城台","zip_code":"5900105"},{"name":"茶山台","zip_code":"5900115"},{"name":"栂","zip_code":"5900131"},{"name":"土佐屋台","zip_code":"5900104"},{"name":"富蔵","zip_code":"5900127"},{"name":"豊田","zip_code":"5900106"},{"name":"庭代台","zip_code":"5900133"},{"name":"野々井","zip_code":"5900155"},{"name":"畑","zip_code":"5900124"},{"name":"鉢ケ峯寺","zip_code":"5900125"},{"name":"原山台","zip_code":"5900132"},{"name":"晴美台","zip_code":"5900113"},{"name":"檜尾","zip_code":"5900142"},{"name":"深阪南","zip_code":"5900103"},{"name":"別所","zip_code":"5900135"},{"name":"槇塚台","zip_code":"5900114"},{"name":"御池台","zip_code":"5900134"},{"name":"美木多上","zip_code":"5900136"},{"name":"三木閉","zip_code":"5900154"},{"name":"三原台","zip_code":"5900111"},{"name":"宮山台","zip_code":"5900101"},{"name":"桃山台","zip_code":"5900141"},{"name":"若松台","zip_code":"5900116"},{"name":"和田","zip_code":"5900152"},{"name":"和田東","zip_code":"5900102"}]},{"name":"堺市北区","divisions":[{"name":"奥本町","zip_code":"5918007"},{"name":"金岡町","zip_code":"5918022"},{"name":"北長尾町","zip_code":"5918043"},{"name":"北花田町","zip_code":"5918002"},{"name":"蔵前町","zip_code":"5918004"},{"name":"黒土町","zip_code":"5918024"},{"name":"東雲東町","zip_code":"5918041"},{"name":"新金岡町","zip_code":"5918021"},{"name":"新堀町","zip_code":"5918005"},{"name":"船堂町","zip_code":"5918003"},{"name":"常磐町","zip_code":"5918001"},{"name":"長曾根町","zip_code":"5918025"},{"name":"中長尾町","zip_code":"5918044"},{"name":"中村町","zip_code":"5918012"},{"name":"中百舌鳥町","zip_code":"5918023"},{"name":"野遠町","zip_code":"5918013"},{"name":"東浅香山町","zip_code":"5918008"},{"name":"東上野芝町","zip_code":"5918035"},{"name":"東三国ケ丘町","zip_code":"5918046"},{"name":"大豆塚町","zip_code":"5918042"},{"name":"南長尾町","zip_code":"5918045"},{"name":"南花田町","zip_code":"5918011"},{"name":"宮本町","zip_code":"5918006"},{"name":"百舌鳥赤畑町","zip_code":"5918037"},{"name":"百舌鳥梅北町","zip_code":"5918031"},{"name":"百舌鳥梅町","zip_code":"5918032"},{"name":"百舌鳥西之町","zip_code":"5918033"},{"name":"百舌鳥本町","zip_code":"5918036"},{"name":"百舌鳥陵南町","zip_code":"5918034"},{"name":"八下北","zip_code":"5918014"}]},{"name":"堺市美原区","divisions":[{"name":"阿弥","zip_code":"5870003"},{"name":"石原","zip_code":"5870066"},{"name":"今井","zip_code":"5870061"},{"name":"大饗","zip_code":"5870063"},{"name":"北余部","zip_code":"5870051"},{"name":"北余部西","zip_code":"5870053"},{"name":"黒山","zip_code":"5870002"},{"name":"小寺","zip_code":"5870065"},{"name":"小平尾","zip_code":"5870021"},{"name":"さつき野西","zip_code":"5870031"},{"name":"さつき野東","zip_code":"5870032"},{"name":"真福寺","zip_code":"5870013"},{"name":"菅生","zip_code":"5870041"},{"name":"青南台","zip_code":"5870043"},{"name":"太井","zip_code":"5870062"},{"name":"大保","zip_code":"5870001"},{"name":"多治井","zip_code":"5870012"},{"name":"丹上","zip_code":"5870011"},{"name":"丹南","zip_code":"5870014"},{"name":"平尾","zip_code":"5870022"},{"name":"菩提","zip_code":"5870064"},{"name":"南余部","zip_code":"5870052"},{"name":"南余部西","zip_code":"5870054"},{"name":"木材通","zip_code":"5870042"}]},{"name":"岸和田市","divisions":[{"name":"阿間河滝町","zip_code":"5960845"},{"name":"荒木町","zip_code":"5960004"},{"name":"池尻町","zip_code":"5960813"},{"name":"磯上町","zip_code":"5960001"},{"name":"稲葉町","zip_code":"5960103"},{"name":"今木町","zip_code":"5960804"},{"name":"上町","zip_code":"5960077"},{"name":"魚屋町","zip_code":"5960071"},{"name":"内畑町","zip_code":"5960105"},{"name":"戎町","zip_code":"5960022"},{"name":"大北町","zip_code":"5960061"},{"name":"大沢町","zip_code":"5960114"},{"name":"大手町","zip_code":"5960063"},{"name":"大町","zip_code":"5960812"},{"name":"岡山町","zip_code":"5960814"},{"name":"尾生町","zip_code":"5960816"},{"name":"河合町","zip_code":"5960113"},{"name":"額原町","zip_code":"5960822"},{"name":"葛城町","zip_code":"5960824"},{"name":"包近町","zip_code":"5960101"},{"name":"上白原町","zip_code":"5960111"},{"name":"上野町東","zip_code":"5960047"},{"name":"上野町西","zip_code":"5960048"},{"name":"上松町","zip_code":"5960827"},{"name":"紙屋町","zip_code":"5960064"},{"name":"加守町","zip_code":"5960042"},{"name":"岸城町","zip_code":"5960073"},{"name":"岸之浦町","zip_code":"5960016"},{"name":"岸野町","zip_code":"5960051"},{"name":"北阪町","zip_code":"5960843"},{"name":"北町","zip_code":"5960056"},{"name":"神須屋町","zip_code":"5960833"},{"name":"神於町","zip_code":"5960112"},{"name":"極楽寺町","zip_code":"5960832"},{"name":"五軒屋町","zip_code":"5960055"},{"name":"小松里町","zip_code":"5960821"},{"name":"堺町","zip_code":"5960072"},{"name":"作才町","zip_code":"5960826"},{"name":"三ケ山町","zip_code":"5960815"},{"name":"地蔵浜町","zip_code":"5960015"},{"name":"下池田町","zip_code":"5960811"},{"name":"下野町","zip_code":"5960041"},{"name":"下松町","zip_code":"5960823"},{"name":"新港町","zip_code":"5960012"},{"name":"筋海町","zip_code":"5960057"},{"name":"相川町","zip_code":"5960115"},{"name":"大工町","zip_code":"5960066"},{"name":"田治米町","zip_code":"5960805"},{"name":"積川町","zip_code":"5960104"},{"name":"天神山町","zip_code":"5960834"},{"name":"塔原町","zip_code":"5960116"},{"name":"中井町","zip_code":"5960003"},{"name":"中北町","zip_code":"5960062"},{"name":"中之浜町","zip_code":"5960065"},{"name":"中町","zip_code":"5960075"},{"name":"流木町","zip_code":"5960835"},{"name":"並松町","zip_code":"5960052"},{"name":"西大路町","zip_code":"5960802"},{"name":"西之内町","zip_code":"5960044"},{"name":"沼町","zip_code":"5960053"},{"name":"野田町","zip_code":"5960076"},{"name":"畑町","zip_code":"5960831"},{"name":"八幡町","zip_code":"5960023"},{"name":"八田町","zip_code":"5960841"},{"name":"土生滝町","zip_code":"5960844"},{"name":"土生町","zip_code":"5960825"},{"name":"春木旭町","zip_code":"5960005"},{"name":"春木泉町","zip_code":"5960035"},{"name":"春木大小路町","zip_code":"5960031"},{"name":"春木大国町","zip_code":"5960026"},{"name":"春木中町","zip_code":"5960033"},{"name":"春木本町","zip_code":"5960034"},{"name":"春木南浜町","zip_code":"5960036"},{"name":"春木北浜町","zip_code":"5960037"},{"name":"春木宮川町","zip_code":"5960024"},{"name":"春木宮本町","zip_code":"5960025"},{"name":"春木元町","zip_code":"5960032"},{"name":"春木若松町","zip_code":"5960006"},{"name":"東大路町","zip_code":"5960803"},{"name":"東ケ丘町","zip_code":"5960807"},{"name":"藤井町","zip_code":"5960046"},{"name":"別所町","zip_code":"5960045"},{"name":"本町","zip_code":"5960074"},{"name":"真上町","zip_code":"5960842"},{"name":"松風町","zip_code":"5960021"},{"name":"摩湯町","zip_code":"5960806"},{"name":"三田町","zip_code":"5960808"},{"name":"箕土路町","zip_code":"5960801"},{"name":"港緑町","zip_code":"5960014"},{"name":"南上町","zip_code":"5960078"},{"name":"南町","zip_code":"5960067"},{"name":"宮前町","zip_code":"5960043"},{"name":"宮本町","zip_code":"5960054"},{"name":"木材町","zip_code":"5960011"},{"name":"門前町","zip_code":"5960828"},{"name":"山直中町","zip_code":"5960102"},{"name":"八阪町","zip_code":"5960049"},{"name":"行遇町","zip_code":"5960836"},{"name":"吉井町","zip_code":"5960002"},{"name":"臨海町","zip_code":"5960013"}]},{"name":"豊中市","divisions":[{"name":"赤阪","zip_code":"5600015"},{"name":"旭丘","zip_code":"5610865"},{"name":"石橋麻田町","zip_code":"5600042"},{"name":"稲津町","zip_code":"5610854"},{"name":"今在家町","zip_code":"5610842"},{"name":"上野東","zip_code":"5600013"},{"name":"上野西","zip_code":"5600011"},{"name":"上野坂","zip_code":"5600012"},{"name":"永楽荘","zip_code":"5600051"},{"name":"大島町","zip_code":"5610824"},{"name":"岡上の町","zip_code":"5600023"},{"name":"岡町","zip_code":"5610885"},{"name":"岡町南","zip_code":"5610883"},{"name":"岡町北","zip_code":"5610884"},{"name":"小曽根","zip_code":"5610813"},{"name":"春日町","zip_code":"5600052"},{"name":"勝部","zip_code":"5610894"},{"name":"上新田","zip_code":"5600085"},{"name":"神州町","zip_code":"5610823"},{"name":"北桜塚","zip_code":"5600022"},{"name":"北条町","zip_code":"5610812"},{"name":"北緑丘","zip_code":"5600001"},{"name":"熊野町","zip_code":"5600014"},{"name":"栗ケ丘町","zip_code":"5600016"},{"name":"上津島","zip_code":"5610843"},{"name":"桜の町","zip_code":"5600054"},{"name":"三和町","zip_code":"5610828"},{"name":"柴原町","zip_code":"5600055"},{"name":"島江町","zip_code":"5610826"},{"name":"少路","zip_code":"5600004"},{"name":"庄内幸町","zip_code":"5610833"},{"name":"庄内栄町","zip_code":"5610834"},{"name":"庄内宝町","zip_code":"5610836"},{"name":"庄内東町","zip_code":"5610831"},{"name":"庄内西町","zip_code":"5610832"},{"name":"庄本町","zip_code":"5610835"},{"name":"城山町","zip_code":"5610803"},{"name":"新千里東町","zip_code":"5600082"},{"name":"新千里西町","zip_code":"5600083"},{"name":"新千里南町","zip_code":"5600084"},{"name":"新千里北町","zip_code":"5600081"},{"name":"末広町","zip_code":"5600024"},{"name":"清風荘","zip_code":"5600041"},{"name":"千成町","zip_code":"5610829"},{"name":"千里園","zip_code":"5600046"},{"name":"曽根東町","zip_code":"5610802"},{"name":"曽根西町","zip_code":"5610801"},{"name":"曽根南町","zip_code":"5610804"},{"name":"大黒町","zip_code":"5610827"},{"name":"立花町","zip_code":"5600025"},{"name":"玉井町","zip_code":"5600026"},{"name":"長興寺南","zip_code":"5610874"},{"name":"長興寺北","zip_code":"5610875"},{"name":"寺内","zip_code":"5610872"},{"name":"利倉","zip_code":"5610845"},{"name":"利倉東","zip_code":"5610846"},{"name":"利倉西","zip_code":"5610844"},{"name":"刀根山","zip_code":"5600045"},{"name":"刀根山元町","zip_code":"5600044"},{"name":"中桜塚","zip_code":"5610881"},{"name":"西泉丘","zip_code":"5610862"},{"name":"西緑丘","zip_code":"5600005"},{"name":"野田町","zip_code":"5610855"},{"name":"走井","zip_code":"5610891"},{"name":"服部寿町","zip_code":"5610857"},{"name":"服部本町","zip_code":"5610852"},{"name":"服部西町","zip_code":"5610858"},{"name":"服部南町","zip_code":"5610853"},{"name":"服部元町","zip_code":"5610851"},{"name":"服部豊町","zip_code":"5610859"},{"name":"服部緑地","zip_code":"5610873"},{"name":"浜","zip_code":"5610817"},{"name":"原田西町","zip_code":"5610806"},{"name":"原田元町","zip_code":"5610808"},{"name":"原田南","zip_code":"5610805"},{"name":"原田中","zip_code":"5610807"},{"name":"東泉丘","zip_code":"5610861"},{"name":"東寺内町","zip_code":"5610871"},{"name":"東豊中町","zip_code":"5600003"},{"name":"日出町","zip_code":"5610821"},{"name":"広田町","zip_code":"5610863"},{"name":"二葉町","zip_code":"5610825"},{"name":"宝山町","zip_code":"5610893"},{"name":"豊南町東","zip_code":"5610814"},{"name":"豊南町西","zip_code":"5610816"},{"name":"豊南町南","zip_code":"5610815"},{"name":"蛍池東町","zip_code":"5600032"},{"name":"蛍池西町","zip_code":"5600036"},{"name":"蛍池南町","zip_code":"5600034"},{"name":"蛍池北町","zip_code":"5600031"},{"name":"蛍池中町","zip_code":"5600033"},{"name":"穂積","zip_code":"5610856"},{"name":"本町","zip_code":"5600021"},{"name":"待兼山町","zip_code":"5600043"},{"name":"三国","zip_code":"5610822"},{"name":"緑丘","zip_code":"5600002"},{"name":"南桜塚","zip_code":"5610882"},{"name":"箕輪","zip_code":"5600035"},{"name":"宮山町","zip_code":"5600056"},{"name":"向丘","zip_code":"5600053"},{"name":"名神口","zip_code":"5610841"},{"name":"山ノ上町","zip_code":"5610892"},{"name":"夕日丘","zip_code":"5610864"},{"name":"若竹町","zip_code":"5610811"}]},{"name":"池田市","divisions":[{"name":"旭丘","zip_code":"5630022"},{"name":"綾羽","zip_code":"5630051"},{"name":"井口堂","zip_code":"5630023"},{"name":"石橋","zip_code":"5630032"},{"name":"上池田","zip_code":"5630027"},{"name":"宇保町","zip_code":"5630042"},{"name":"木部町","zip_code":"5630014"},{"name":"空港","zip_code":"5630034"},{"name":"呉服町","zip_code":"5630048"},{"name":"神田","zip_code":"5630043"},{"name":"栄本町","zip_code":"5630058"},{"name":"栄町","zip_code":"5630056"},{"name":"五月丘","zip_code":"5630029"},{"name":"渋谷","zip_code":"5630028"},{"name":"城南","zip_code":"5630025"},{"name":"城山町","zip_code":"5630052"},{"name":"新町","zip_code":"5630050"},{"name":"菅原町","zip_code":"5630055"},{"name":"住吉","zip_code":"5630033"},{"name":"荘園","zip_code":"5630038"},{"name":"ダイハツ町","zip_code":"5630044"},{"name":"大和町","zip_code":"5630054"},{"name":"建石町","zip_code":"5630053"},{"name":"槻木町","zip_code":"5630057"},{"name":"天神","zip_code":"5630031"},{"name":"豊島南","zip_code":"5630035"},{"name":"豊島北","zip_code":"5630036"},{"name":"中川原町","zip_code":"5630013"},{"name":"西本町","zip_code":"5630059"},{"name":"畑","zip_code":"5630021"},{"name":"八王寺","zip_code":"5630037"},{"name":"鉢塚","zip_code":"5630024"},{"name":"東山町","zip_code":"5630012"},{"name":"姫室町","zip_code":"5630046"},{"name":"伏尾台","zip_code":"5630017"},{"name":"伏尾町","zip_code":"5630011"},{"name":"古江町","zip_code":"5630015"},{"name":"満寿美町","zip_code":"5630041"},{"name":"緑丘","zip_code":"5630026"},{"name":"室町","zip_code":"5630047"},{"name":"桃園","zip_code":"5630045"},{"name":"吉田町","zip_code":"5630016"}]},{"name":"吹田市","divisions":[{"name":"青葉丘南","zip_code":"5650802"},{"name":"青葉丘北","zip_code":"5650801"},{"name":"青山台","zip_code":"5650875"},{"name":"朝日が丘町","zip_code":"5640083"},{"name":"朝日町","zip_code":"5640027"},{"name":"泉町","zip_code":"5640041"},{"name":"内本町","zip_code":"5640032"},{"name":"江坂町","zip_code":"5640063"},{"name":"江の木町","zip_code":"5640053"},{"name":"樫切山","zip_code":"5650806"},{"name":"春日","zip_code":"5650853"},{"name":"片山町","zip_code":"5640082"},{"name":"金田町","zip_code":"5640045"},{"name":"上山田","zip_code":"5650872"},{"name":"上山手町","zip_code":"5650841"},{"name":"川岸町","zip_code":"5640037"},{"name":"川園町","zip_code":"5640013"},{"name":"岸部中","zip_code":"5640002"},{"name":"岸部南","zip_code":"5640011"},{"name":"岸部北","zip_code":"5640001"},{"name":"寿町","zip_code":"5640036"},{"name":"佐井寺","zip_code":"5650836"},{"name":"佐井寺南が丘","zip_code":"5650837"},{"name":"幸町","zip_code":"5640015"},{"name":"佐竹台","zip_code":"5650855"},{"name":"五月が丘東","zip_code":"5650831"},{"name":"五月が丘西","zip_code":"5650833"},{"name":"五月が丘南","zip_code":"5650832"},{"name":"五月が丘北","zip_code":"5650834"},{"name":"芝田町","zip_code":"5640017"},{"name":"清水","zip_code":"5650805"},{"name":"尺谷","zip_code":"5650818"},{"name":"昭和町","zip_code":"5640028"},{"name":"新芦屋上","zip_code":"5650804"},{"name":"新芦屋下","zip_code":"5650803"},{"name":"吹東町","zip_code":"5640014"},{"name":"末広町","zip_code":"5640022"},{"name":"清和園町","zip_code":"5640039"},{"name":"千里万博公園","zip_code":"5650826"},{"name":"千里丘上","zip_code":"5650811"},{"name":"千里丘中","zip_code":"5650812"},{"name":"千里丘下","zip_code":"5650813"},{"name":"千里丘西","zip_code":"5650814"},{"name":"千里丘北","zip_code":"5650815"},{"name":"千里山霧が丘","zip_code":"5650844"},{"name":"千里山高塚","zip_code":"5650848"},{"name":"千里山竹園","zip_code":"5650852"},{"name":"千里山月が丘","zip_code":"5650847"},{"name":"千里山虹が丘","zip_code":"5650846"},{"name":"千里山星が丘","zip_code":"5650845"},{"name":"千里山松が丘","zip_code":"5650843"},{"name":"千里山東","zip_code":"5650842"},{"name":"千里山西","zip_code":"5650851"},{"name":"高城町","zip_code":"5640024"},{"name":"高野台","zip_code":"5650861"},{"name":"高浜町","zip_code":"5640026"},{"name":"竹谷町","zip_code":"5650835"},{"name":"竹見台","zip_code":"5650863"},{"name":"垂水町","zip_code":"5640062"},{"name":"津雲台","zip_code":"5650862"},{"name":"出口町","zip_code":"5640072"},{"name":"天道町","zip_code":"5640003"},{"name":"豊津町","zip_code":"5640051"},{"name":"中の島町","zip_code":"5640035"},{"name":"長野東","zip_code":"5650816"},{"name":"長野西","zip_code":"5650817"},{"name":"西御旅町","zip_code":"5640034"},{"name":"西の庄町","zip_code":"5640071"},{"name":"原町","zip_code":"5640004"},{"name":"東御旅町","zip_code":"5640033"},{"name":"日の出町","zip_code":"5640023"},{"name":"平松町","zip_code":"5640016"},{"name":"広芝町","zip_code":"5640052"},{"name":"藤が丘町","zip_code":"5640081"},{"name":"藤白台","zip_code":"5650873"},{"name":"古江台","zip_code":"5650874"},{"name":"穂波町","zip_code":"5640042"},{"name":"円山町","zip_code":"5640061"},{"name":"南金田","zip_code":"5640044"},{"name":"南正雀","zip_code":"5640012"},{"name":"南吹田","zip_code":"5640043"},{"name":"南清和園町","zip_code":"5640038"},{"name":"南高浜町","zip_code":"5640025"},{"name":"目俵町","zip_code":"5640021"},{"name":"元町","zip_code":"5640031"},{"name":"桃山台","zip_code":"5650854"},{"name":"山田市場","zip_code":"5650822"},{"name":"山田東","zip_code":"5650821"},{"name":"山田西","zip_code":"5650824"},{"name":"山田南","zip_code":"5650823"},{"name":"山田北","zip_code":"5650825"},{"name":"山田丘","zip_code":"5650871"},{"name":"山手町","zip_code":"5640073"},{"name":"芳野町","zip_code":"5640054"}]},{"name":"泉大津市","divisions":[{"name":"青葉町","zip_code":"5950053"},{"name":"旭町","zip_code":"5950025"},{"name":"穴田","zip_code":"5950032"},{"name":"我孫子","zip_code":"5950031"},{"name":"綾井","zip_code":"5950001"},{"name":"池浦","zip_code":"5950022"},{"name":"池浦町","zip_code":"5950024"},{"name":"池園町","zip_code":"5950017"},{"name":"板原","zip_code":"5950033"},{"name":"板原町","zip_code":"5950033"},{"name":"上之町","zip_code":"5950046"},{"name":"宇多","zip_code":"5950034"},{"name":"戎町","zip_code":"5950041"},{"name":"尾井千原町","zip_code":"5950003"},{"name":"小津島町","zip_code":"5950074"},{"name":"春日町","zip_code":"5950061"},{"name":"要池住宅","zip_code":"5950028"},{"name":"河原町","zip_code":"5950044"},{"name":"北豊中町","zip_code":"5950012"},{"name":"楠町西","zip_code":"5950038"},{"name":"楠町東","zip_code":"5950039"},{"name":"下条町","zip_code":"5950027"},{"name":"寿町","zip_code":"5950014"},{"name":"小松町","zip_code":"5950067"},{"name":"汐見町","zip_code":"5950054"},{"name":"式内町","zip_code":"5950035"},{"name":"下之町","zip_code":"5950045"},{"name":"東雲町","zip_code":"5950026"},{"name":"清水町","zip_code":"5950043"},{"name":"条南町","zip_code":"5950016"},{"name":"昭和町","zip_code":"5950036"},{"name":"新港町","zip_code":"5950073"},{"name":"神明町","zip_code":"5950064"},{"name":"末広町","zip_code":"5950002"},{"name":"菅原町","zip_code":"5950066"},{"name":"助松町","zip_code":"5950071"},{"name":"助松団地","zip_code":"5950007"},{"name":"曽根町","zip_code":"5950011"},{"name":"高津町","zip_code":"5950042"},{"name":"田中町","zip_code":"5950062"},{"name":"千原町","zip_code":"5950004"},{"name":"豊中町","zip_code":"5950023"},{"name":"なぎさ町","zip_code":"5950055"},{"name":"西港町","zip_code":"5950052"},{"name":"東助松町","zip_code":"5950006"},{"name":"東豊中町","zip_code":"5950021"},{"name":"東港町","zip_code":"5950051"},{"name":"二田町","zip_code":"5950015"},{"name":"本町","zip_code":"5950063"},{"name":"松之浜町","zip_code":"5950072"},{"name":"南曾根","zip_code":"5950011"},{"name":"宮町","zip_code":"5950013"},{"name":"虫取","zip_code":"5950037"},{"name":"虫取町","zip_code":"5950037"},{"name":"森町","zip_code":"5950005"},{"name":"夕凪町","zip_code":"5950056"},{"name":"臨海町","zip_code":"5950075"},{"name":"若宮町","zip_code":"5950065"}]},{"name":"高槻市","divisions":[{"name":"赤大路町","zip_code":"5691146"},{"name":"芥川町","zip_code":"5691123"},{"name":"明田町","zip_code":"5690806"},{"name":"明野町","zip_code":"5690082"},{"name":"朝日町","zip_code":"5691134"},{"name":"阿武野","zip_code":"5691045"},{"name":"安満磐手町","zip_code":"5691102"},{"name":"安満御所の町","zip_code":"5691101"},{"name":"安満新町","zip_code":"5691106"},{"name":"安満中の町","zip_code":"5691105"},{"name":"安満東の町","zip_code":"5691104"},{"name":"安満西の町","zip_code":"5691107"},{"name":"安満北の町","zip_code":"5691108"},{"name":"天川新町","zip_code":"5690027"},{"name":"天川町","zip_code":"5690026"},{"name":"安岡寺町","zip_code":"5691029"},{"name":"井尻","zip_code":"5690015"},{"name":"出灰","zip_code":"5691003"},{"name":"今城町","zip_code":"5691135"},{"name":"美しが丘","zip_code":"5691111"},{"name":"浦堂","zip_code":"5691027"},{"name":"浦堂本町","zip_code":"5691028"},{"name":"永楽町","zip_code":"5690083"},{"name":"大冠町","zip_code":"5690031"},{"name":"大塚町","zip_code":"5690034"},{"name":"大手町","zip_code":"5690078"},{"name":"大畑町","zip_code":"5691144"},{"name":"岡本町","zip_code":"5691137"},{"name":"奥天神町","zip_code":"5691118"},{"name":"梶原","zip_code":"5690091"},{"name":"梶原中村町","zip_code":"5690092"},{"name":"春日町","zip_code":"5690053"},{"name":"上田辺町","zip_code":"5690805"},{"name":"上土室","zip_code":"5691044"},{"name":"上本町","zip_code":"5690073"},{"name":"唐崎","zip_code":"5690834"},{"name":"唐崎中","zip_code":"5690832"},{"name":"唐崎西","zip_code":"5690836"},{"name":"唐崎南","zip_code":"5690833"},{"name":"唐崎北","zip_code":"5690831"},{"name":"花林苑","zip_code":"5691018"},{"name":"川久保","zip_code":"5691011"},{"name":"川添","zip_code":"5690824"},{"name":"川西町","zip_code":"5691133"},{"name":"上牧南駅前町","zip_code":"5690004"},{"name":"上牧北駅前町","zip_code":"5690005"},{"name":"上牧山手町","zip_code":"5690006"},{"name":"上牧町","zip_code":"5690003"},{"name":"北大樋町","zip_code":"5690041"},{"name":"北昭和台町","zip_code":"5690816"},{"name":"北園町","zip_code":"5690802"},{"name":"北柳川町","zip_code":"5690852"},{"name":"京口町","zip_code":"5690072"},{"name":"郡家新町","zip_code":"5691136"},{"name":"郡家本町","zip_code":"5691131"},{"name":"高西町","zip_code":"5690061"},{"name":"神内","zip_code":"5690007"},{"name":"黄金の里","zip_code":"5691038"},{"name":"古曽部町","zip_code":"5691115"},{"name":"寿町","zip_code":"5690826"},{"name":"五領町","zip_code":"5690016"},{"name":"紺屋町","zip_code":"5690804"},{"name":"西面中","zip_code":"5690842"},{"name":"西面南","zip_code":"5690847"},{"name":"西面北","zip_code":"5690841"},{"name":"幸町","zip_code":"5691143"},{"name":"栄町","zip_code":"5690825"},{"name":"桜ケ丘南町","zip_code":"5690818"},{"name":"桜ケ丘北町","zip_code":"5690817"},{"name":"桜町","zip_code":"5690807"},{"name":"沢良木町","zip_code":"5690084"},{"name":"三箇牧","zip_code":"5690843"},{"name":"芝谷町","zip_code":"5691025"},{"name":"芝生町","zip_code":"5690823"},{"name":"清水台","zip_code":"5691039"},{"name":"下田部町","zip_code":"5690062"},{"name":"庄所町","zip_code":"5690064"},{"name":"昭和台町","zip_code":"5690815"},{"name":"城東町","zip_code":"5690052"},{"name":"城西町","zip_code":"5690065"},{"name":"城南町","zip_code":"5690056"},{"name":"城北町","zip_code":"5690071"},{"name":"城内町","zip_code":"5690075"},{"name":"須賀町","zip_code":"5690022"},{"name":"杉生","zip_code":"5691005"},{"name":"辻子","zip_code":"5690036"},{"name":"清福寺町","zip_code":"5691132"},{"name":"高垣町","zip_code":"5690097"},{"name":"高槻町","zip_code":"5690803"},{"name":"高見台","zip_code":"5691020"},{"name":"竹の内町","zip_code":"5690043"},{"name":"大学町","zip_code":"5690801"},{"name":"大蔵司","zip_code":"5691034"},{"name":"大和","zip_code":"5691047"},{"name":"田能","zip_code":"5691002"},{"name":"玉川","zip_code":"5690857"},{"name":"玉川新町","zip_code":"5690856"},{"name":"千代田町","zip_code":"5690087"},{"name":"塚原","zip_code":"5691046"},{"name":"塚脇","zip_code":"5691036"},{"name":"月見町","zip_code":"5691122"},{"name":"堤町","zip_code":"5690047"},{"name":"津之江北町","zip_code":"5690821"},{"name":"津之江町","zip_code":"5690822"},{"name":"出丸町","zip_code":"5690076"},{"name":"寺谷町","zip_code":"5691024"},{"name":"天神町","zip_code":"5691117"},{"name":"天王町","zip_code":"5690088"},{"name":"道鵜町","zip_code":"5690011"},{"name":"桃園町","zip_code":"5690067"},{"name":"東和町","zip_code":"5690032"},{"name":"殿町","zip_code":"5691126"},{"name":"土橋町","zip_code":"5690057"},{"name":"登美の里町","zip_code":"5690812"},{"name":"富田丘町","zip_code":"5691145"},{"name":"富田町","zip_code":"5690814"},{"name":"中川町","zip_code":"5690066"},{"name":"中畑","zip_code":"5691001"},{"name":"奈佐原","zip_code":"5691041"},{"name":"奈佐原元町","zip_code":"5691043"},{"name":"成合","zip_code":"5691012"},{"name":"成合東の町","zip_code":"5691014"},{"name":"成合西の町","zip_code":"5691016"},{"name":"成合南の町","zip_code":"5691013"},{"name":"成合北の町","zip_code":"5691017"},{"name":"成合中の町","zip_code":"5691015"},{"name":"南平台","zip_code":"5691042"},{"name":"西大樋町","zip_code":"5690045"},{"name":"西冠","zip_code":"5690055"},{"name":"西之川原","zip_code":"5691035"},{"name":"西真上","zip_code":"5691127"},{"name":"西町","zip_code":"5690854"},{"name":"西五百住町","zip_code":"5690813"},{"name":"如是町","zip_code":"5690827"},{"name":"二料","zip_code":"5691004"},{"name":"野田","zip_code":"5690013"},{"name":"野田東","zip_code":"5690014"},{"name":"登町","zip_code":"5690046"},{"name":"野見町","zip_code":"5690077"},{"name":"萩谷","zip_code":"5691054"},{"name":"萩谷月見台","zip_code":"5691053"},{"name":"萩之庄","zip_code":"5690093"},{"name":"白梅町","zip_code":"5691116"},{"name":"柱本","zip_code":"5690844"},{"name":"柱本新町","zip_code":"5690846"},{"name":"柱本南町","zip_code":"5690845"},{"name":"八丁畷町","zip_code":"5690096"},{"name":"八丁西町","zip_code":"5690095"},{"name":"土室町","zip_code":"5691147"},{"name":"原","zip_code":"5691051"},{"name":"番田","zip_code":"5690044"},{"name":"東天川","zip_code":"5690012"},{"name":"東上牧","zip_code":"5690002"},{"name":"東城山町","zip_code":"5691037"},{"name":"東五百住町","zip_code":"5690811"},{"name":"氷室町","zip_code":"5691141"},{"name":"日向町","zip_code":"5690024"},{"name":"日吉台","zip_code":"5691022"},{"name":"深沢町","zip_code":"5690035"},{"name":"深沢本町","zip_code":"5690033"},{"name":"藤の里町","zip_code":"5690025"},{"name":"別所新町","zip_code":"5691114"},{"name":"別所中の町","zip_code":"5691113"},{"name":"別所本町","zip_code":"5691112"},{"name":"紅茸町","zip_code":"5691109"},{"name":"本町","zip_code":"5690074"},{"name":"前島","zip_code":"5690021"},{"name":"真上町","zip_code":"5691121"},{"name":"牧田町","zip_code":"5690855"},{"name":"松川町","zip_code":"5690023"},{"name":"松が丘","zip_code":"5691031"},{"name":"松原町","zip_code":"5690086"},{"name":"三島江","zip_code":"5690835"},{"name":"緑が丘","zip_code":"5691026"},{"name":"緑町","zip_code":"5690094"},{"name":"南芥川町","zip_code":"5691124"},{"name":"南大樋町","zip_code":"5690042"},{"name":"南庄所町","zip_code":"5690063"},{"name":"南総持寺町","zip_code":"5690851"},{"name":"南松原町","zip_code":"5690085"},{"name":"宮が谷町","zip_code":"5691023"},{"name":"宮田町","zip_code":"5691142"},{"name":"宮之川原","zip_code":"5691032"},{"name":"宮之川原元町","zip_code":"5691033"},{"name":"宮野町","zip_code":"5690081"},{"name":"紫町","zip_code":"5691125"},{"name":"名神町","zip_code":"5691128"},{"name":"柳川町","zip_code":"5690853"},{"name":"八幡町","zip_code":"5690051"},{"name":"山手町","zip_code":"5691103"},{"name":"弥生が丘町","zip_code":"5691021"},{"name":"淀の原町","zip_code":"5690001"},{"name":"霊仙寺町","zip_code":"5691052"},{"name":"若松町","zip_code":"5690054"}]},{"name":"貝塚市","divisions":[{"name":"麻生中","zip_code":"5970081"},{"name":"石才","zip_code":"5970082"},{"name":"海塚","zip_code":"5970083"},{"name":"浦田","zip_code":"5970061"},{"name":"王子","zip_code":"5970051"},{"name":"大川","zip_code":"5970112"},{"name":"加治","zip_code":"5970074"},{"name":"加神","zip_code":"5970071"},{"name":"北町","zip_code":"5970011"},{"name":"秬谷","zip_code":"5970113"},{"name":"久保","zip_code":"5970031"},{"name":"窪田","zip_code":"5970052"},{"name":"神前","zip_code":"5970075"},{"name":"近木","zip_code":"5970001"},{"name":"小瀬","zip_code":"5970021"},{"name":"木積","zip_code":"5970102"},{"name":"澤","zip_code":"5970062"},{"name":"地蔵堂","zip_code":"5970107"},{"name":"新町","zip_code":"5970002"},{"name":"清児","zip_code":"5970041"},{"name":"清児新町","zip_code":"5960901"},{"name":"蕎原","zip_code":"5970111"},{"name":"津田","zip_code":"5970012"},{"name":"津田南町","zip_code":"5970014"},{"name":"津田北町","zip_code":"5970013"},{"name":"堤","zip_code":"5970054"},{"name":"鳥羽","zip_code":"5970084"},{"name":"中","zip_code":"5970003"},{"name":"永吉","zip_code":"5970032"},{"name":"名越","zip_code":"5970042"},{"name":"新井","zip_code":"5970022"},{"name":"二色","zip_code":"5970091"},{"name":"二色中町","zip_code":"5970093"},{"name":"二色港町","zip_code":"5970063"},{"name":"二色南町","zip_code":"5970094"},{"name":"二色北町","zip_code":"5970092"},{"name":"西町","zip_code":"5970004"},{"name":"橋本","zip_code":"5970043"},{"name":"畠中","zip_code":"5970106"},{"name":"馬場","zip_code":"5970103"},{"name":"半田","zip_code":"5970033"},{"name":"東","zip_code":"5970085"},{"name":"東山","zip_code":"5970046"},{"name":"福田","zip_code":"5970023"},{"name":"堀","zip_code":"5970015"},{"name":"三ケ山","zip_code":"5970101"},{"name":"水間","zip_code":"5970104"},{"name":"三ツ松","zip_code":"5970045"},{"name":"港","zip_code":"5970095"},{"name":"南町","zip_code":"5970005"},{"name":"森","zip_code":"5970044"},{"name":"脇浜","zip_code":"5970073"}]},{"name":"守口市","divisions":[{"name":"暁町","zip_code":"5700022"},{"name":"祝町","zip_code":"5700071"},{"name":"梅園町","zip_code":"5700066"},{"name":"梅町","zip_code":"5700087"},{"name":"大枝東町","zip_code":"5700036"},{"name":"大枝西町","zip_code":"5700054"},{"name":"大枝南町","zip_code":"5700051"},{"name":"大枝北町","zip_code":"5700037"},{"name":"大久保町","zip_code":"5700012"},{"name":"大庭町","zip_code":"5700009"},{"name":"大宮通","zip_code":"5700033"},{"name":"梶町","zip_code":"5700015"},{"name":"春日町","zip_code":"5700055"},{"name":"金下町","zip_code":"5700079"},{"name":"神木町","zip_code":"5700024"},{"name":"河原町","zip_code":"5700038"},{"name":"菊水通","zip_code":"5700032"},{"name":"金田町","zip_code":"5700011"},{"name":"京阪北本通","zip_code":"5700094"},{"name":"京阪本通","zip_code":"5700083"},{"name":"寿町","zip_code":"5700077"},{"name":"小春町","zip_code":"5700061"},{"name":"西郷通","zip_code":"5700034"},{"name":"桜町","zip_code":"5700027"},{"name":"佐太中町","zip_code":"5700002"},{"name":"佐太東町","zip_code":"5700017"},{"name":"佐太西町","zip_code":"5700001"},{"name":"早苗町","zip_code":"5700072"},{"name":"寺内町","zip_code":"5700056"},{"name":"下島町","zip_code":"5700007"},{"name":"松月町","zip_code":"5700026"},{"name":"新橋寺町","zip_code":"5700098"},{"name":"外島町","zip_code":"5700096"},{"name":"大日町","zip_code":"5700003"},{"name":"大日東町","zip_code":"5700016"},{"name":"大門町","zip_code":"5700063"},{"name":"高瀬旧大枝","zip_code":"5700043"},{"name":"高瀬旧世木","zip_code":"5700043"},{"name":"高瀬旧馬場","zip_code":"5700043"},{"name":"高瀬町","zip_code":"5700053"},{"name":"滝井西町","zip_code":"5700076"},{"name":"滝井元町","zip_code":"5700065"},{"name":"竹町","zip_code":"5700086"},{"name":"竜田通","zip_code":"5700025"},{"name":"寺方錦通","zip_code":"5700042"},{"name":"寺方本通","zip_code":"5700048"},{"name":"寺方元町","zip_code":"5700047"},{"name":"土居町","zip_code":"5700073"},{"name":"東光町","zip_code":"5700035"},{"name":"東郷通","zip_code":"5700041"},{"name":"藤田町","zip_code":"5700014"},{"name":"豊秀町","zip_code":"5700082"},{"name":"長池町","zip_code":"5700064"},{"name":"日光町","zip_code":"5700092"},{"name":"橋波東之町","zip_code":"5700031"},{"name":"橋波西之町","zip_code":"5700039"},{"name":"浜町","zip_code":"5700093"},{"name":"馬場町","zip_code":"5700062"},{"name":"東町","zip_code":"5700013"},{"name":"日向町","zip_code":"5700023"},{"name":"日吉町","zip_code":"5700081"},{"name":"平代町","zip_code":"5700078"},{"name":"文園町","zip_code":"5700074"},{"name":"紅屋町","zip_code":"5700075"},{"name":"北斗町","zip_code":"5700091"},{"name":"本町","zip_code":"5700028"},{"name":"松下町","zip_code":"5700052"},{"name":"松町","zip_code":"5700085"},{"name":"緑町","zip_code":"5700084"},{"name":"南寺方中通","zip_code":"5700045"},{"name":"南寺方東通","zip_code":"5700043"},{"name":"南寺方南通","zip_code":"5700044"},{"name":"南寺方北通","zip_code":"5700046"},{"name":"桃町","zip_code":"5700097"},{"name":"八雲中町","zip_code":"5700005"},{"name":"八雲東町","zip_code":"5700021"},{"name":"八雲西町","zip_code":"5700006"},{"name":"八雲北町","zip_code":"5700008"},{"name":"八島町","zip_code":"5700095"},{"name":"淀江町","zip_code":"5700004"},{"name":"来迎町","zip_code":"5700029"}]},{"name":"枚方市","divisions":[{"name":"朝日丘町","zip_code":"5730026"},{"name":"天之川町","zip_code":"5731185"},{"name":"伊加賀東町","zip_code":"5730058"},{"name":"伊加賀西町","zip_code":"5730066"},{"name":"伊加賀南町","zip_code":"5730053"},{"name":"伊加賀北町","zip_code":"5730036"},{"name":"伊加賀寿町","zip_code":"5730061"},{"name":"伊加賀栄町","zip_code":"5730062"},{"name":"伊加賀本町","zip_code":"5730055"},{"name":"伊加賀緑町","zip_code":"5730067"},{"name":"池之宮","zip_code":"5730005"},{"name":"磯島茶屋町","zip_code":"5731184"},{"name":"磯島南町","zip_code":"5731186"},{"name":"磯島北町","zip_code":"5731188"},{"name":"磯島元町","zip_code":"5731187"},{"name":"印田町","zip_code":"5730017"},{"name":"上野","zip_code":"5731175"},{"name":"宇山町","zip_code":"5731143"},{"name":"宇山東町","zip_code":"5731136"},{"name":"大垣内町","zip_code":"5730027"},{"name":"大峰東町","zip_code":"5730142"},{"name":"大峰南町","zip_code":"5730145"},{"name":"大峰北町","zip_code":"5730141"},{"name":"大峰元町","zip_code":"5730146"},{"name":"岡東町","zip_code":"5730032"},{"name":"岡本町","zip_code":"5730031"},{"name":"岡南町","zip_code":"5730033"},{"name":"岡山手町","zip_code":"5730034"},{"name":"小倉町","zip_code":"5731173"},{"name":"小倉東町","zip_code":"5731174"},{"name":"甲斐田新町","zip_code":"5731163"},{"name":"甲斐田東町","zip_code":"5731168"},{"name":"甲斐田町","zip_code":"5731167"},{"name":"春日東町","zip_code":"5730134"},{"name":"春日西町","zip_code":"5730136"},{"name":"春日北町","zip_code":"5730137"},{"name":"春日元町","zip_code":"5730135"},{"name":"春日野","zip_code":"5730131"},{"name":"片鉾東町","zip_code":"5731156"},{"name":"片鉾本町","zip_code":"5731157"},{"name":"上島町","zip_code":"5731127"},{"name":"上島東町","zip_code":"5731126"},{"name":"川原町","zip_code":"5730028"},{"name":"菊丘町","zip_code":"5730091"},{"name":"菊丘南町","zip_code":"5730092"},{"name":"北片鉾町","zip_code":"5731158"},{"name":"北楠葉町","zip_code":"5731102"},{"name":"北中振","zip_code":"5730064"},{"name":"北船橋町","zip_code":"5731117"},{"name":"北山","zip_code":"5730171"},{"name":"禁野本町","zip_code":"5731197"},{"name":"楠葉朝日","zip_code":"5731111"},{"name":"楠葉丘","zip_code":"5731104"},{"name":"楠葉中之芝","zip_code":"5731101"},{"name":"楠葉中町","zip_code":"5731107"},{"name":"楠葉並木","zip_code":"5731118"},{"name":"楠葉野田","zip_code":"5731103"},{"name":"楠葉花園町","zip_code":"5731121"},{"name":"楠葉美咲","zip_code":"5731112"},{"name":"楠葉面取町","zip_code":"5731113"},{"name":"車塚","zip_code":"5731159"},{"name":"高田","zip_code":"5730073"},{"name":"交北","zip_code":"5731161"},{"name":"高野道","zip_code":"5731131"},{"name":"香里園桜木町","zip_code":"5730088"},{"name":"香里園東之町","zip_code":"5730085"},{"name":"香里園山之手町","zip_code":"5730087"},{"name":"香里園町","zip_code":"5730086"},{"name":"香里ケ丘","zip_code":"5730084"},{"name":"黄金野","zip_code":"5731145"},{"name":"御殿山町","zip_code":"5731182"},{"name":"御殿山南町","zip_code":"5731193"},{"name":"桜丘町","zip_code":"5730018"},{"name":"桜町","zip_code":"5730056"},{"name":"釈尊寺町","zip_code":"5730081"},{"name":"招提大谷","zip_code":"5731153"},{"name":"招提田近","zip_code":"5731132"},{"name":"招提中町","zip_code":"5731152"},{"name":"招提平野町","zip_code":"5731135"},{"name":"招提東町","zip_code":"5731154"},{"name":"招提南町","zip_code":"5731155"},{"name":"招提北町","zip_code":"5731138"},{"name":"招提元町","zip_code":"5731133"},{"name":"新之栄町","zip_code":"5731166"},{"name":"新町","zip_code":"5731191"},{"name":"翠香園町","zip_code":"5730095"},{"name":"杉","zip_code":"5730117"},{"name":"杉北町","zip_code":"5730111"},{"name":"杉責谷","zip_code":"5730116"},{"name":"杉山手","zip_code":"5730118"},{"name":"須山町","zip_code":"5731164"},{"name":"宗谷","zip_code":"5730113"},{"name":"尊延寺","zip_code":"5730112"},{"name":"高塚町","zip_code":"5730035"},{"name":"田口","zip_code":"5731162"},{"name":"田口山","zip_code":"5730001"},{"name":"田宮本町","zip_code":"5730024"},{"name":"津田","zip_code":"5730123"},{"name":"津田駅前","zip_code":"5730125"},{"name":"津田東町","zip_code":"5730122"},{"name":"津田西町","zip_code":"5730126"},{"name":"津田南町","zip_code":"5730124"},{"name":"津田北町","zip_code":"5730121"},{"name":"津田元町","zip_code":"5730127"},{"name":"津田山手","zip_code":"5730128"},{"name":"堤町","zip_code":"5730057"},{"name":"出口","zip_code":"5730065"},{"name":"出屋敷西町","zip_code":"5730003"},{"name":"出屋敷元町","zip_code":"5730002"},{"name":"藤田町","zip_code":"5730045"},{"name":"堂山","zip_code":"5730007"},{"name":"堂山東町","zip_code":"5730006"},{"name":"中宮大池","zip_code":"5730004"},{"name":"中宮北町","zip_code":"5731194"},{"name":"中宮東之町","zip_code":"5731195"},{"name":"中宮西之町","zip_code":"5730021"},{"name":"中宮本町","zip_code":"5731196"},{"name":"中宮山戸町","zip_code":"5730011"},{"name":"長尾荒阪","zip_code":"5730103"},{"name":"長尾家具町","zip_code":"5730102"},{"name":"長尾谷町","zip_code":"5730164"},{"name":"長尾峠町","zip_code":"5730101"},{"name":"長尾播磨谷","zip_code":"5730104"},{"name":"長尾東町","zip_code":"5730105"},{"name":"長尾西町","zip_code":"5730162"},{"name":"長尾北町","zip_code":"5730161"},{"name":"長尾宮前","zip_code":"5730107"},{"name":"長尾元町","zip_code":"5730163"},{"name":"長尾台","zip_code":"5730106"},{"name":"渚内野","zip_code":"5731147"},{"name":"渚栄町","zip_code":"5731172"},{"name":"渚本町","zip_code":"5731181"},{"name":"渚東町","zip_code":"5731176"},{"name":"渚南町","zip_code":"5731183"},{"name":"渚元町","zip_code":"5731177"},{"name":"渚西","zip_code":"5731178"},{"name":"茄子作","zip_code":"5730071"},{"name":"茄子作東町","zip_code":"5730082"},{"name":"茄子作南町","zip_code":"5730072"},{"name":"茄子作北町","zip_code":"5730083"},{"name":"西禁野","zip_code":"5731192"},{"name":"西招提町","zip_code":"5731137"},{"name":"西田宮町","zip_code":"5730025"},{"name":"西船橋","zip_code":"5731122"},{"name":"西牧野","zip_code":"5731148"},{"name":"野村中町","zip_code":"5730144"},{"name":"野村南町","zip_code":"5730133"},{"name":"野村北町","zip_code":"5730143"},{"name":"野村元町","zip_code":"5730132"},{"name":"走谷","zip_code":"5730063"},{"name":"東香里","zip_code":"5730075"},{"name":"東香里新町","zip_code":"5730077"},{"name":"東香里南町","zip_code":"5730074"},{"name":"東香里元町","zip_code":"5730076"},{"name":"東田宮","zip_code":"5730023"},{"name":"東藤田町","zip_code":"5730044"},{"name":"東中振","zip_code":"5730093"},{"name":"東船橋","zip_code":"5731115"},{"name":"東牧野町","zip_code":"5731151"},{"name":"東山","zip_code":"5731114"},{"name":"樋之上町","zip_code":"5731128"},{"name":"氷室台","zip_code":"5730115"},{"name":"枚方上之町","zip_code":"5730037"},{"name":"枚方公園町","zip_code":"5730054"},{"name":"枚方元町","zip_code":"5730052"},{"name":"藤阪天神町","zip_code":"5730155"},{"name":"藤阪中町","zip_code":"5730152"},{"name":"藤阪東町","zip_code":"5730153"},{"name":"藤阪西町","zip_code":"5730158"},{"name":"藤阪南町","zip_code":"5730156"},{"name":"藤阪北町","zip_code":"5730151"},{"name":"藤阪元町","zip_code":"5730157"},{"name":"船橋本町","zip_code":"5731116"},{"name":"星丘","zip_code":"5730013"},{"name":"穂谷","zip_code":"5730114"},{"name":"牧野北町","zip_code":"5731149"},{"name":"牧野阪","zip_code":"5731146"},{"name":"牧野下島町","zip_code":"5731142"},{"name":"牧野本町","zip_code":"5731144"},{"name":"町楠葉","zip_code":"5731106"},{"name":"松丘町","zip_code":"5730012"},{"name":"三矢町","zip_code":"5730051"},{"name":"南楠葉","zip_code":"5731105"},{"name":"南中振","zip_code":"5730094"},{"name":"南船橋","zip_code":"5731123"},{"name":"都丘町","zip_code":"5731165"},{"name":"宮之阪","zip_code":"5730022"},{"name":"宮之下町","zip_code":"5730046"},{"name":"村野高見台","zip_code":"5730014"},{"name":"村野東町","zip_code":"5730015"},{"name":"村野西町","zip_code":"5730042"},{"name":"村野南町","zip_code":"5730043"},{"name":"村野本町","zip_code":"5730016"},{"name":"三栗","zip_code":"5731171"},{"name":"養父東町","zip_code":"5731124"},{"name":"養父西町","zip_code":"5731141"},{"name":"養父元町","zip_code":"5731125"},{"name":"養父丘","zip_code":"5731134"},{"name":"山田池公園","zip_code":"5730167"},{"name":"山田池東町","zip_code":"5730165"},{"name":"山田池南町","zip_code":"5730168"},{"name":"山田池北町","zip_code":"5730166"},{"name":"山之上","zip_code":"5730047"},{"name":"山之上東町","zip_code":"5730041"},{"name":"山之上西町","zip_code":"5730048"},{"name":"山之上北町","zip_code":"5730049"},{"name":"王仁公園","zip_code":"5730154"}]},{"name":"茨木市","divisions":[{"name":"安威","zip_code":"5670001"},{"name":"粟生岩阪","zip_code":"5680096"},{"name":"鮎川","zip_code":"5670831"},{"name":"主原町","zip_code":"5670897"},{"name":"井口台","zip_code":"5670076"},{"name":"五十鈴町","zip_code":"5670842"},{"name":"泉原","zip_code":"5680097"},{"name":"五日市","zip_code":"5670005"},{"name":"五日市緑町","zip_code":"5670029"},{"name":"稲葉町","zip_code":"5670827"},{"name":"岩倉町","zip_code":"5670871"},{"name":"上野町","zip_code":"5670064"},{"name":"丑寅","zip_code":"5670877"},{"name":"宇野辺","zip_code":"5670042"},{"name":"永代町","zip_code":"5670816"},{"name":"駅前","zip_code":"5670888"},{"name":"大池","zip_code":"5670826"},{"name":"大岩","zip_code":"5680091"},{"name":"大住町","zip_code":"5670813"},{"name":"太田","zip_code":"5670018"},{"name":"太田東芝町","zip_code":"5670013"},{"name":"大手町","zip_code":"5670883"},{"name":"小川町","zip_code":"5670873"},{"name":"学園町","zip_code":"5670833"},{"name":"学園南町","zip_code":"5670834"},{"name":"春日","zip_code":"5670031"},{"name":"片桐町","zip_code":"5670819"},{"name":"上泉町","zip_code":"5670811"},{"name":"上音羽","zip_code":"5680086"},{"name":"上郡","zip_code":"5670065"},{"name":"上中条","zip_code":"5670881"},{"name":"上穂積","zip_code":"5670036"},{"name":"上穂東町","zip_code":"5670037"},{"name":"北春日丘","zip_code":"5670048"},{"name":"清阪","zip_code":"5680081"},{"name":"蔵垣内","zip_code":"5670878"},{"name":"車作","zip_code":"5680083"},{"name":"桑田町","zip_code":"5670841"},{"name":"桑原","zip_code":"5680094"},{"name":"郡","zip_code":"5670072"},{"name":"郡山","zip_code":"5670071"},{"name":"小坪井","zip_code":"5670043"},{"name":"小柳町","zip_code":"5670852"},{"name":"彩都あさぎ","zip_code":"5670085"},{"name":"彩都やまぶき","zip_code":"5670086"},{"name":"道祖本","zip_code":"5670075"},{"name":"佐保","zip_code":"5680095"},{"name":"沢良宜浜","zip_code":"5670864"},{"name":"沢良宜東町","zip_code":"5670863"},{"name":"沢良宜西","zip_code":"5670868"},{"name":"島","zip_code":"5670854"},{"name":"清水","zip_code":"5670059"},{"name":"紫明園","zip_code":"5670045"},{"name":"下井町","zip_code":"5670066"},{"name":"下音羽","zip_code":"5680082"},{"name":"下中条町","zip_code":"5670886"},{"name":"下穂積","zip_code":"5670041"},{"name":"宿川原町","zip_code":"5670055"},{"name":"宿久庄","zip_code":"5670051"},{"name":"庄","zip_code":"5670806"},{"name":"生保","zip_code":"5680092"},{"name":"白川","zip_code":"5670832"},{"name":"城の前町","zip_code":"5670014"},{"name":"新郡山","zip_code":"5670074"},{"name":"新庄町","zip_code":"5670884"},{"name":"新中条町","zip_code":"5670872"},{"name":"新堂","zip_code":"5670835"},{"name":"新和町","zip_code":"5670855"},{"name":"末広町","zip_code":"5670821"},{"name":"銭原","zip_code":"5680087"},{"name":"千提寺","zip_code":"5680098"},{"name":"総持寺","zip_code":"5670801"},{"name":"総持寺駅前町","zip_code":"5670802"},{"name":"総持寺台","zip_code":"5670804"},{"name":"園田町","zip_code":"5670825"},{"name":"大正町","zip_code":"5670867"},{"name":"大同町","zip_code":"5670844"},{"name":"大門寺","zip_code":"5680093"},{"name":"高田町","zip_code":"5670011"},{"name":"高浜町","zip_code":"5670866"},{"name":"竹橋町","zip_code":"5670815"},{"name":"田中町","zip_code":"5670025"},{"name":"玉櫛","zip_code":"5670895"},{"name":"玉島","zip_code":"5670846"},{"name":"玉島台","zip_code":"5670848"},{"name":"玉瀬町","zip_code":"5670893"},{"name":"玉水町","zip_code":"5670896"},{"name":"寺田町","zip_code":"5670823"},{"name":"天王","zip_code":"5670876"},{"name":"東宮町","zip_code":"5670812"},{"name":"十日市町","zip_code":"5670016"},{"name":"戸伏町","zip_code":"5670814"},{"name":"豊川","zip_code":"5670057"},{"name":"豊原町","zip_code":"5670053"},{"name":"中河原町","zip_code":"5670063"},{"name":"中総持寺町","zip_code":"5670803"},{"name":"中津町","zip_code":"5670824"},{"name":"中穂積","zip_code":"5670034"},{"name":"中村町","zip_code":"5670822"},{"name":"長谷","zip_code":"5680088"},{"name":"並木町","zip_code":"5670892"},{"name":"奈良町","zip_code":"5670874"},{"name":"西安威","zip_code":"5670008"},{"name":"西駅前町","zip_code":"5670032"},{"name":"西太田町","zip_code":"5670015"},{"name":"西河原","zip_code":"5670023"},{"name":"西河原北町","zip_code":"5670003"},{"name":"西田中町","zip_code":"5670027"},{"name":"西中条町","zip_code":"5670887"},{"name":"西豊川町","zip_code":"5670058"},{"name":"西福井","zip_code":"5670067"},{"name":"西穂積町","zip_code":"5670073"},{"name":"忍頂寺","zip_code":"5680085"},{"name":"野々宮","zip_code":"5670847"},{"name":"橋の内","zip_code":"5670805"},{"name":"畑田町","zip_code":"5670028"},{"name":"花園","zip_code":"5670017"},{"name":"東安威","zip_code":"5670002"},{"name":"東宇野辺町","zip_code":"5670879"},{"name":"東太田","zip_code":"5670012"},{"name":"東中条町","zip_code":"5670885"},{"name":"東奈良","zip_code":"5670861"},{"name":"東野々宮町","zip_code":"5670838"},{"name":"東福井","zip_code":"5670062"},{"name":"平田","zip_code":"5670845"},{"name":"平田台","zip_code":"5670849"},{"name":"福井","zip_code":"5670061"},{"name":"藤の里","zip_code":"5670054"},{"name":"双葉町","zip_code":"5670829"},{"name":"舟木町","zip_code":"5670828"},{"name":"別院町","zip_code":"5670817"},{"name":"星見町","zip_code":"5670843"},{"name":"穂積台","zip_code":"5670044"},{"name":"本町","zip_code":"5670818"},{"name":"真砂","zip_code":"5670851"},{"name":"真砂玉島台","zip_code":"5670850"},{"name":"松ケ本町","zip_code":"5670033"},{"name":"松下町","zip_code":"5670026"},{"name":"三咲町","zip_code":"5670024"},{"name":"美沢町","zip_code":"5670862"},{"name":"三島丘","zip_code":"5670021"},{"name":"三島町","zip_code":"5670022"},{"name":"水尾","zip_code":"5670891"},{"name":"見付山","zip_code":"5670035"},{"name":"南安威","zip_code":"5670007"},{"name":"南春日丘","zip_code":"5670046"},{"name":"南清水町","zip_code":"5670056"},{"name":"南耳原","zip_code":"5670004"},{"name":"南目垣","zip_code":"5670837"},{"name":"耳原","zip_code":"5670006"},{"name":"美穂ケ丘","zip_code":"5670047"},{"name":"宮島","zip_code":"5670853"},{"name":"宮元町","zip_code":"5670810"},{"name":"室山","zip_code":"5670052"},{"name":"目垣","zip_code":"5670836"},{"name":"元町","zip_code":"5670882"},{"name":"安元","zip_code":"5680084"},{"name":"山手台","zip_code":"5670009"},{"name":"山手台新町","zip_code":"5670010"},{"name":"山手台東町","zip_code":"5680089"},{"name":"横江","zip_code":"5670865"},{"name":"若草町","zip_code":"5670875"},{"name":"若園町","zip_code":"5670894"}]},{"name":"八尾市","divisions":[{"name":"相生町","zip_code":"5810082"},{"name":"青山町","zip_code":"5810018"},{"name":"曙川東","zip_code":"5810020"},{"name":"曙町","zip_code":"5810026"},{"name":"明美町","zip_code":"5810087"},{"name":"旭ケ丘","zip_code":"5810833"},{"name":"跡部本町","zip_code":"5810064"},{"name":"跡部南の町","zip_code":"5810055"},{"name":"跡部北の町","zip_code":"5810068"},{"name":"泉町","zip_code":"5810813"},{"name":"植松町","zip_code":"5810084"},{"name":"老原","zip_code":"5810092"},{"name":"大窪","zip_code":"5810863"},{"name":"太田","zip_code":"5810037"},{"name":"大竹","zip_code":"5810854"},{"name":"太田新町","zip_code":"5810039"},{"name":"刑部","zip_code":"5810015"},{"name":"恩智中町","zip_code":"5810883"},{"name":"恩智南町","zip_code":"5810884"},{"name":"恩智北町","zip_code":"5810882"},{"name":"垣内","zip_code":"5810881"},{"name":"楽音寺","zip_code":"5810853"},{"name":"柏村町","zip_code":"5810022"},{"name":"春日町","zip_code":"5810061"},{"name":"桂町","zip_code":"5810823"},{"name":"上尾町","zip_code":"5810851"},{"name":"上之島町南","zip_code":"5810846"},{"name":"上之島町北","zip_code":"5810845"},{"name":"亀井町","zip_code":"5810065"},{"name":"萱振町","zip_code":"5810834"},{"name":"北亀井町","zip_code":"5810066"},{"name":"北木の本","zip_code":"5810041"},{"name":"北久宝寺","zip_code":"5810071"},{"name":"北本町","zip_code":"5810802"},{"name":"木の本","zip_code":"5810044"},{"name":"久宝園","zip_code":"5810817"},{"name":"久宝寺","zip_code":"5810072"},{"name":"教興寺","zip_code":"5810874"},{"name":"空港","zip_code":"5810043"},{"name":"楠根町","zip_code":"5810814"},{"name":"黒谷","zip_code":"5810873"},{"name":"神立","zip_code":"5810855"},{"name":"光南町","zip_code":"5810007"},{"name":"郡川","zip_code":"5810872"},{"name":"小阪合町","zip_code":"5810012"},{"name":"小畑町","zip_code":"5810835"},{"name":"幸町","zip_code":"5810821"},{"name":"栄町","zip_code":"5810074"},{"name":"桜ケ丘","zip_code":"5810869"},{"name":"佐堂町","zip_code":"5810816"},{"name":"志紀町","zip_code":"5810031"},{"name":"志紀町西","zip_code":"5810094"},{"name":"志紀町南","zip_code":"5810033"},{"name":"渋川町","zip_code":"5810075"},{"name":"清水町","zip_code":"5810006"},{"name":"新家町","zip_code":"5810811"},{"name":"神宮寺","zip_code":"5810885"},{"name":"神武町","zip_code":"5810067"},{"name":"末広町","zip_code":"5810001"},{"name":"荘内町","zip_code":"5810005"},{"name":"太子堂","zip_code":"5810063"},{"name":"田井中","zip_code":"5810095"},{"name":"高砂町","zip_code":"5810822"},{"name":"高町","zip_code":"5810073"},{"name":"高美町","zip_code":"5810017"},{"name":"高安町南","zip_code":"5810875"},{"name":"高安町北","zip_code":"5810871"},{"name":"竹渕","zip_code":"5810052"},{"name":"竹渕東","zip_code":"5810053"},{"name":"竹渕西","zip_code":"5810051"},{"name":"千塚","zip_code":"5810862"},{"name":"堤町","zip_code":"5810832"},{"name":"天王寺屋","zip_code":"5810025"},{"name":"中田","zip_code":"5810014"},{"name":"長池町","zip_code":"5810836"},{"name":"永畑町","zip_code":"5810083"},{"name":"西木の本","zip_code":"5810045"},{"name":"西久宝寺","zip_code":"5810077"},{"name":"西高安町","zip_code":"5810852"},{"name":"西山本町","zip_code":"5810868"},{"name":"西弓削","zip_code":"5810035"},{"name":"沼","zip_code":"5810036"},{"name":"服部川","zip_code":"5810865"},{"name":"光町","zip_code":"5810803"},{"name":"東老原","zip_code":"5810093"},{"name":"東久宝寺","zip_code":"5810002"},{"name":"東太子","zip_code":"5810062"},{"name":"東本町","zip_code":"5810004"},{"name":"東町","zip_code":"5810861"},{"name":"東山本新町","zip_code":"5810866"},{"name":"東山本町","zip_code":"5810847"},{"name":"東弓削","zip_code":"5810029"},{"name":"福栄町","zip_code":"5810844"},{"name":"福万寺町","zip_code":"5810842"},{"name":"福万寺町南","zip_code":"5810843"},{"name":"福万寺町北","zip_code":"5810841"},{"name":"二俣","zip_code":"5810024"},{"name":"本町","zip_code":"5810003"},{"name":"松山町","zip_code":"5810088"},{"name":"水越","zip_code":"5810856"},{"name":"美園町","zip_code":"5810818"},{"name":"緑ケ丘","zip_code":"5810837"},{"name":"南植松町","zip_code":"5810091"},{"name":"南亀井町","zip_code":"5810054"},{"name":"南木の本","zip_code":"5810042"},{"name":"南久宝寺","zip_code":"5810076"},{"name":"南小阪合町","zip_code":"5810019"},{"name":"南太子堂","zip_code":"5810056"},{"name":"南本町","zip_code":"5810081"},{"name":"都塚","zip_code":"5810023"},{"name":"宮町","zip_code":"5810815"},{"name":"八尾木","zip_code":"5810027"},{"name":"八尾木東","zip_code":"5810028"},{"name":"八尾木北","zip_code":"5810016"},{"name":"安中町","zip_code":"5810085"},{"name":"山賀町","zip_code":"5810812"},{"name":"山城町","zip_code":"5810801"},{"name":"山畑","zip_code":"5810864"},{"name":"山本高安町","zip_code":"5810021"},{"name":"山本町","zip_code":"5810867"},{"name":"山本町南","zip_code":"5810013"},{"name":"山本町北","zip_code":"5810831"},{"name":"弓削町","zip_code":"5810032"},{"name":"弓削町南","zip_code":"5810034"},{"name":"陽光園","zip_code":"5810086"},{"name":"龍華町","zip_code":"5810069"},{"name":"若草町","zip_code":"5810011"},{"name":"若林町","zip_code":"5810038"}]},{"name":"泉佐野市","divisions":[{"name":"葵町","zip_code":"5980014"},{"name":"旭町","zip_code":"5980052"},{"name":"泉ケ丘","zip_code":"5980072"},{"name":"市場東","zip_code":"5980005"},{"name":"市場西","zip_code":"5980006"},{"name":"市場南","zip_code":"5980004"},{"name":"上町","zip_code":"5980007"},{"name":"大木","zip_code":"5980023"},{"name":"大宮町","zip_code":"5980053"},{"name":"大西","zip_code":"5980043"},{"name":"笠松","zip_code":"5980044"},{"name":"春日町","zip_code":"5980058"},{"name":"上瓦屋","zip_code":"5980001"},{"name":"上之郷","zip_code":"5980024"},{"name":"栄町","zip_code":"5980054"},{"name":"佐野台","zip_code":"5980075"},{"name":"下瓦屋","zip_code":"5980062"},{"name":"松風台","zip_code":"5980008"},{"name":"新町","zip_code":"5980051"},{"name":"新安松","zip_code":"5980032"},{"name":"住吉町","zip_code":"5980061"},{"name":"泉州空港北","zip_code":"5490001"},{"name":"高松東","zip_code":"5980012"},{"name":"高松西","zip_code":"5980016"},{"name":"高松南","zip_code":"5980015"},{"name":"高松北","zip_code":"5980011"},{"name":"俵屋","zip_code":"5980003"},{"name":"土丸","zip_code":"5980022"},{"name":"鶴原","zip_code":"5980071"},{"name":"中庄","zip_code":"5980002"},{"name":"中町","zip_code":"5980013"},{"name":"長滝","zip_code":"5980034"},{"name":"新浜町","zip_code":"5980064"},{"name":"西本町","zip_code":"5980042"},{"name":"野出町","zip_code":"5980041"},{"name":"羽倉崎","zip_code":"5980046"},{"name":"羽倉崎上町","zip_code":"5980037"},{"name":"東佐野台","zip_code":"5980074"},{"name":"東羽倉崎町","zip_code":"5980031"},{"name":"日根野","zip_code":"5980021"},{"name":"本町","zip_code":"5980057"},{"name":"松原","zip_code":"5980045"},{"name":"湊","zip_code":"5980063"},{"name":"南泉ケ丘","zip_code":"5980073"},{"name":"南中岡本","zip_code":"5980036"},{"name":"南中樫井","zip_code":"5980035"},{"name":"南中安松","zip_code":"5980033"},{"name":"元町","zip_code":"5980056"},{"name":"りんくう往来南","zip_code":"5980047"},{"name":"りんくう往来北","zip_code":"5980048"},{"name":"若宮町","zip_code":"5980055"}]},{"name":"富田林市","divisions":[{"name":"青葉丘","zip_code":"5840076"},{"name":"旭ケ丘町","zip_code":"5840006"},{"name":"粟ケ池町","zip_code":"5840012"},{"name":"梅の里","zip_code":"5840001"},{"name":"嬉","zip_code":"5840056"},{"name":"毛人谷","zip_code":"5840095"},{"name":"彼方","zip_code":"5840058"},{"name":"かがり台","zip_code":"5840040"},{"name":"加太","zip_code":"5840078"},{"name":"川面町","zip_code":"5840014"},{"name":"川向町","zip_code":"5840049"},{"name":"甘南備","zip_code":"5840054"},{"name":"喜志","zip_code":"5840008"},{"name":"喜志新家町","zip_code":"5840003"},{"name":"喜志町","zip_code":"5840005"},{"name":"北大伴町","zip_code":"5840042"},{"name":"木戸山町","zip_code":"5840004"},{"name":"楠町","zip_code":"5840041"},{"name":"久野喜台","zip_code":"5840074"},{"name":"甲田","zip_code":"5840036"},{"name":"向陽台","zip_code":"5840082"},{"name":"小金台","zip_code":"5840083"},{"name":"五軒家","zip_code":"5840079"},{"name":"寿町","zip_code":"5840031"},{"name":"金剛錦織台","zip_code":"5840070"},{"name":"金剛伏山台","zip_code":"5840065"},{"name":"西条町","zip_code":"5840015"},{"name":"桜井町","zip_code":"5840013"},{"name":"桜ケ丘町","zip_code":"5840084"},{"name":"佐備","zip_code":"5840052"},{"name":"清水町","zip_code":"5840034"},{"name":"昭和町","zip_code":"5840092"},{"name":"新青葉丘町","zip_code":"5840077"},{"name":"新家","zip_code":"5840085"},{"name":"新堂","zip_code":"5840091"},{"name":"須賀","zip_code":"5840062"},{"name":"高辺台","zip_code":"5840072"},{"name":"谷川町","zip_code":"5840035"},{"name":"通法寺町","zip_code":"5840016"},{"name":"廿山","zip_code":"5840081"},{"name":"津々山台","zip_code":"5840086"},{"name":"寺池台","zip_code":"5840073"},{"name":"常盤町","zip_code":"5840032"},{"name":"富田林町","zip_code":"5840033"},{"name":"中野","zip_code":"5840027"},{"name":"中野町","zip_code":"5840021"},{"name":"中野町東","zip_code":"5840022"},{"name":"中野町西","zip_code":"5840028"},{"name":"楠風台","zip_code":"5840051"},{"name":"西板持町","zip_code":"5840048"},{"name":"錦織","zip_code":"5840063"},{"name":"錦織北","zip_code":"5840066"},{"name":"錦織中","zip_code":"5840068"},{"name":"錦織東","zip_code":"5840069"},{"name":"錦織南","zip_code":"5840067"},{"name":"錦ケ丘町","zip_code":"5840038"},{"name":"東板持町","zip_code":"5840046"},{"name":"平町","zip_code":"5840002"},{"name":"伏見堂","zip_code":"5840055"},{"name":"伏山","zip_code":"5840061"},{"name":"藤沢台","zip_code":"5840071"},{"name":"不動ケ丘町","zip_code":"5840064"},{"name":"富美ケ丘町","zip_code":"5840094"},{"name":"別井","zip_code":"5840044"},{"name":"本町","zip_code":"5840093"},{"name":"緑ケ丘町","zip_code":"5840026"},{"name":"南旭ケ丘町","zip_code":"5840007"},{"name":"南大伴町","zip_code":"5840043"},{"name":"宮甲田町","zip_code":"5840037"},{"name":"宮町","zip_code":"5840011"},{"name":"美山台","zip_code":"5840039"},{"name":"山中田町","zip_code":"5840045"},{"name":"山手町","zip_code":"5840047"},{"name":"横山","zip_code":"5840057"},{"name":"龍泉","zip_code":"5840053"},{"name":"若松町","zip_code":"5840024"},{"name":"若松町東","zip_code":"5840023"},{"name":"若松町西","zip_code":"5840025"}]},{"name":"寝屋川市","divisions":[{"name":"池田","zip_code":"5720039"},{"name":"池田旭町","zip_code":"5720035"},{"name":"池田東町","zip_code":"5720033"},{"name":"池田西町","zip_code":"5720036"},{"name":"池田南町","zip_code":"5720034"},{"name":"池田北町","zip_code":"5720073"},{"name":"池田新町","zip_code":"5720038"},{"name":"池田中町","zip_code":"5720074"},{"name":"池田本町","zip_code":"5720030"},{"name":"池の瀬町","zip_code":"5720012"},{"name":"石津中町","zip_code":"5720026"},{"name":"石津東町","zip_code":"5720027"},{"name":"石津南町","zip_code":"5720024"},{"name":"石津元町","zip_code":"5720025"},{"name":"出雲町","zip_code":"5720821"},{"name":"太秦桜が丘","zip_code":"5720840"},{"name":"太秦高塚町","zip_code":"5720842"},{"name":"太秦中町","zip_code":"5720843"},{"name":"太秦東が丘","zip_code":"5720841"},{"name":"太秦緑が丘","zip_code":"5720844"},{"name":"太秦元町","zip_code":"5720849"},{"name":"宇谷町","zip_code":"5720856"},{"name":"打上新町","zip_code":"5720859"},{"name":"打上高塚町","zip_code":"5720850"},{"name":"打上中町","zip_code":"5720857"},{"name":"打上南町","zip_code":"5720861"},{"name":"打上宮前町","zip_code":"5720862"},{"name":"打上元町","zip_code":"5720858"},{"name":"梅が丘","zip_code":"5720803"},{"name":"大谷町","zip_code":"5720853"},{"name":"大利町","zip_code":"5720048"},{"name":"大利元町","zip_code":"5720047"},{"name":"音羽町","zip_code":"5720023"},{"name":"春日町","zip_code":"5720063"},{"name":"上神田","zip_code":"5720052"},{"name":"萱島桜園町","zip_code":"5720828"},{"name":"萱島信和町","zip_code":"5720829"},{"name":"萱島本町","zip_code":"5720827"},{"name":"萱島南町","zip_code":"5720825"},{"name":"萱島東","zip_code":"5720824"},{"name":"川勝町","zip_code":"5720015"},{"name":"河北中町","zip_code":"5720816"},{"name":"河北東町","zip_code":"5720815"},{"name":"河北西町","zip_code":"5720817"},{"name":"菅相塚町","zip_code":"5720008"},{"name":"北大利町","zip_code":"5720032"},{"name":"木田町","zip_code":"5720836"},{"name":"木田元宮","zip_code":"5720822"},{"name":"楠根南町","zip_code":"5720811"},{"name":"楠根北町","zip_code":"5720845"},{"name":"葛原","zip_code":"5720075"},{"name":"葛原新町","zip_code":"5720037"},{"name":"国松町","zip_code":"5720016"},{"name":"黒原旭町","zip_code":"5720057"},{"name":"黒原新町","zip_code":"5720059"},{"name":"黒原城内町","zip_code":"5720050"},{"name":"黒原橘町","zip_code":"5720058"},{"name":"香里新町","zip_code":"5720085"},{"name":"香里本通町","zip_code":"5720082"},{"name":"香里西之町","zip_code":"5720089"},{"name":"香里南之町","zip_code":"5720084"},{"name":"香里北之町","zip_code":"5720080"},{"name":"郡元町","zip_code":"5720083"},{"name":"寿町","zip_code":"5720029"},{"name":"木屋町","zip_code":"5720087"},{"name":"木屋元町","zip_code":"5720088"},{"name":"幸町","zip_code":"5720017"},{"name":"境橋町","zip_code":"5720018"},{"name":"桜木町","zip_code":"5720041"},{"name":"讃良東町","zip_code":"5720813"},{"name":"讃良西町","zip_code":"5720818"},{"name":"清水町","zip_code":"5720044"},{"name":"点野","zip_code":"5720077"},{"name":"下神田町","zip_code":"5720054"},{"name":"下木田町","zip_code":"5720823"},{"name":"昭栄町","zip_code":"5720834"},{"name":"小路北町","zip_code":"5720865"},{"name":"小路南町","zip_code":"5720866"},{"name":"新家","zip_code":"5720812"},{"name":"末広町","zip_code":"5720009"},{"name":"成美町","zip_code":"5720046"},{"name":"大成町","zip_code":"5720819"},{"name":"田井町","zip_code":"5720021"},{"name":"田井西町","zip_code":"5720020"},{"name":"太間町","zip_code":"5720078"},{"name":"太間東町","zip_code":"5720072"},{"name":"高倉","zip_code":"5720864"},{"name":"高宮","zip_code":"5720806"},{"name":"高宮あさひ丘","zip_code":"5720867"},{"name":"高宮栄町","zip_code":"5720846"},{"name":"高宮新町","zip_code":"5720847"},{"name":"高柳","zip_code":"5720051"},{"name":"高柳栄町","zip_code":"5720062"},{"name":"宝町","zip_code":"5720067"},{"name":"長栄寺町","zip_code":"5720061"},{"name":"対馬江東町","zip_code":"5720064"},{"name":"対馬江西町","zip_code":"5720065"},{"name":"豊里町","zip_code":"5720071"},{"name":"豊野町","zip_code":"5720831"},{"name":"中神田町","zip_code":"5720053"},{"name":"中木田町","zip_code":"5720820"},{"name":"成田東が丘","zip_code":"5720002"},{"name":"成田東町","zip_code":"5720001"},{"name":"成田西町","zip_code":"5720005"},{"name":"成田南町","zip_code":"5720003"},{"name":"成田町","zip_code":"5720004"},{"name":"南水苑町","zip_code":"5720826"},{"name":"錦町","zip_code":"5720043"},{"name":"日新町","zip_code":"5720028"},{"name":"仁和寺町","zip_code":"5720066"},{"name":"仁和寺本町","zip_code":"5720076"},{"name":"寝屋","zip_code":"5720801"},{"name":"寝屋川公園","zip_code":"5720854"},{"name":"寝屋北町","zip_code":"5720851"},{"name":"寝屋新町","zip_code":"5720852"},{"name":"寝屋南","zip_code":"5720855"},{"name":"秦町","zip_code":"5720848"},{"name":"八幡台","zip_code":"5720014"},{"name":"初町","zip_code":"5720833"},{"name":"早子町","zip_code":"5720837"},{"name":"東大利町","zip_code":"5720042"},{"name":"東神田町","zip_code":"5720045"},{"name":"東香里園町","zip_code":"5720081"},{"name":"日之出町","zip_code":"5720835"},{"name":"平池町","zip_code":"5720839"},{"name":"堀溝","zip_code":"5720814"},{"name":"堀溝北町","zip_code":"5720810"},{"name":"本町","zip_code":"5720832"},{"name":"松屋町","zip_code":"5720086"},{"name":"三井が丘","zip_code":"5720013"},{"name":"美井町","zip_code":"5720007"},{"name":"三井南町","zip_code":"5720019"},{"name":"美井元町","zip_code":"5720006"},{"name":"緑町","zip_code":"5720022"},{"name":"御幸東町","zip_code":"5720055"},{"name":"御幸西町","zip_code":"5720056"},{"name":"明徳","zip_code":"5720011"},{"name":"明和","zip_code":"5720863"},{"name":"八坂町","zip_code":"5720838"},{"name":"若葉町","zip_code":"5720031"}]},{"name":"河内長野市","divisions":[{"name":"あかしあ台","zip_code":"5860095"},{"name":"旭ケ丘","zip_code":"5860084"},{"name":"天野町","zip_code":"5860086"},{"name":"天見","zip_code":"5860062"},{"name":"石仏","zip_code":"5860069"},{"name":"石見川","zip_code":"5860058"},{"name":"市町","zip_code":"5860002"},{"name":"岩瀬","zip_code":"5860061"},{"name":"上田町","zip_code":"5860034"},{"name":"上原町","zip_code":"5860037"},{"name":"上原西町","zip_code":"5860038"},{"name":"太井","zip_code":"5860056"},{"name":"大矢船中町","zip_code":"5860075"},{"name":"大矢船西町","zip_code":"5860073"},{"name":"大矢船南町","zip_code":"5860074"},{"name":"大矢船北町","zip_code":"5860076"},{"name":"小塩町","zip_code":"5860035"},{"name":"小山田町","zip_code":"5860094"},{"name":"加賀田","zip_code":"5860071"},{"name":"神ガ丘","zip_code":"5860054"},{"name":"唐久谷","zip_code":"5860064"},{"name":"河合寺","zip_code":"5860052"},{"name":"菊水町","zip_code":"5860012"},{"name":"北青葉台","zip_code":"5860068"},{"name":"北貴望ケ丘","zip_code":"5860091"},{"name":"喜多町","zip_code":"5860033"},{"name":"木戸","zip_code":"5860001"},{"name":"木戸西町","zip_code":"5860009"},{"name":"木戸東町","zip_code":"5860008"},{"name":"木戸町","zip_code":"5860001"},{"name":"清見台","zip_code":"5860043"},{"name":"桐ケ丘","zip_code":"5860097"},{"name":"楠ケ丘","zip_code":"5860039"},{"name":"楠町東","zip_code":"5860003"},{"name":"楠町西","zip_code":"5860004"},{"name":"寿町","zip_code":"5860026"},{"name":"小深","zip_code":"5860057"},{"name":"栄町","zip_code":"5860032"},{"name":"汐の宮町","zip_code":"5860011"},{"name":"清水","zip_code":"5860066"},{"name":"下里町","zip_code":"5860087"},{"name":"自由ケ丘","zip_code":"5860096"},{"name":"昭栄町","zip_code":"5860025"},{"name":"末広町","zip_code":"5860051"},{"name":"荘園町","zip_code":"5860093"},{"name":"大師町","zip_code":"5860041"},{"name":"滝畑","zip_code":"5860072"},{"name":"高向","zip_code":"5860036"},{"name":"千代田台町","zip_code":"5860027"},{"name":"千代田南町","zip_code":"5860018"},{"name":"寺元","zip_code":"5860053"},{"name":"中片添町","zip_code":"5860046"},{"name":"長野町","zip_code":"5860014"},{"name":"流谷","zip_code":"5860063"},{"name":"南花台","zip_code":"5860077"},{"name":"西片添町","zip_code":"5860047"},{"name":"錦町","zip_code":"5860031"},{"name":"西代町","zip_code":"5860016"},{"name":"西之山町","zip_code":"5860024"},{"name":"日東町","zip_code":"5860042"},{"name":"野作町","zip_code":"5860023"},{"name":"鳩原","zip_code":"5860055"},{"name":"原町","zip_code":"5860021"},{"name":"東片添町","zip_code":"5860045"},{"name":"日野","zip_code":"5860085"},{"name":"古野町","zip_code":"5860017"},{"name":"本多町","zip_code":"5860022"},{"name":"本町","zip_code":"5860015"},{"name":"松ケ丘中町","zip_code":"5860006"},{"name":"松ケ丘東町","zip_code":"5860007"},{"name":"松ケ丘西町","zip_code":"5860005"},{"name":"美加の台","zip_code":"5860044"},{"name":"三日市町","zip_code":"5860048"},{"name":"緑ケ丘中町","zip_code":"5860082"},{"name":"緑ケ丘南町","zip_code":"5860083"},{"name":"緑ケ丘北町","zip_code":"5860081"},{"name":"南青葉台","zip_code":"5860067"},{"name":"南ケ丘","zip_code":"5860065"},{"name":"南貴望ケ丘","zip_code":"5860092"},{"name":"向野町","zip_code":"5860013"}]},{"name":"松原市","divisions":[{"name":"阿保","zip_code":"5800043"},{"name":"天美東","zip_code":"5800032"},{"name":"天美西","zip_code":"5800034"},{"name":"天美南","zip_code":"5800033"},{"name":"天美北","zip_code":"5800031"},{"name":"天美我堂","zip_code":"5800026"},{"name":"上田","zip_code":"5800016"},{"name":"大堀","zip_code":"5800006"},{"name":"岡","zip_code":"5800014"},{"name":"小川","zip_code":"5800002"},{"name":"河合","zip_code":"5800022"},{"name":"北新町","zip_code":"5800025"},{"name":"柴垣","zip_code":"5800017"},{"name":"新堂","zip_code":"5800015"},{"name":"田井城","zip_code":"5800044"},{"name":"高見の里","zip_code":"5800021"},{"name":"立部","zip_code":"5800012"},{"name":"丹南","zip_code":"5800013"},{"name":"西大塚","zip_code":"5800011"},{"name":"西野々","zip_code":"5800004"},{"name":"東新町","zip_code":"5800024"},{"name":"一津屋","zip_code":"5800003"},{"name":"別所","zip_code":"5800005"},{"name":"松ケ丘","zip_code":"5800042"},{"name":"南新町","zip_code":"5800023"},{"name":"三宅中","zip_code":"5800046"},{"name":"三宅東","zip_code":"5800041"},{"name":"三宅西","zip_code":"5800045"},{"name":"若林","zip_code":"5800001"}]},{"name":"大東市","divisions":[{"name":"赤井","zip_code":"5740046"},{"name":"曙町","zip_code":"5740076"},{"name":"明美の里町","zip_code":"5740003"},{"name":"泉町","zip_code":"5740024"},{"name":"栄和町","zip_code":"5740032"},{"name":"扇町","zip_code":"5740033"},{"name":"大野","zip_code":"5740042"},{"name":"学園町","zip_code":"5740001"},{"name":"川中新町","zip_code":"5740031"},{"name":"北楠の里町","zip_code":"5740007"},{"name":"北新町","zip_code":"5740008"},{"name":"御供田","zip_code":"5740025"},{"name":"御領","zip_code":"5740064"},{"name":"幸町","zip_code":"5740028"},{"name":"三箇","zip_code":"5740077"},{"name":"三洋町","zip_code":"5740035"},{"name":"新田旭町","zip_code":"5740053"},{"name":"新田境町","zip_code":"5740051"},{"name":"新田中町","zip_code":"5740056"},{"name":"新田西町","zip_code":"5740057"},{"name":"新田北町","zip_code":"5740052"},{"name":"新田東本町","zip_code":"5740054"},{"name":"新田本町","zip_code":"5740055"},{"name":"新町","zip_code":"5740037"},{"name":"末広町","zip_code":"5740036"},{"name":"住道","zip_code":"5740026"},{"name":"大東町","zip_code":"5740061"},{"name":"太子田","zip_code":"5740045"},{"name":"龍間","zip_code":"5740012"},{"name":"谷川","zip_code":"5740074"},{"name":"津の辺町","zip_code":"5740017"},{"name":"寺川","zip_code":"5740014"},{"name":"中垣内","zip_code":"5740013"},{"name":"中楠の里町","zip_code":"5740006"},{"name":"南郷町","zip_code":"5740063"},{"name":"錦町","zip_code":"5740002"},{"name":"西楠の里町","zip_code":"5740005"},{"name":"野崎","zip_code":"5740015"},{"name":"灰塚","zip_code":"5740043"},{"name":"浜町","zip_code":"5740041"},{"name":"氷野","zip_code":"5740062"},{"name":"平野屋","zip_code":"5740022"},{"name":"平野屋新町","zip_code":"5740021"},{"name":"深野","zip_code":"5740072"},{"name":"深野南町","zip_code":"5740075"},{"name":"深野北","zip_code":"5740071"},{"name":"北条","zip_code":"5740011"},{"name":"朋来","zip_code":"5740034"},{"name":"三住町","zip_code":"5740027"},{"name":"緑が丘","zip_code":"5740073"},{"name":"南楠の里町","zip_code":"5740004"},{"name":"南新田","zip_code":"5740023"},{"name":"南津の辺町","zip_code":"5740016"},{"name":"諸福","zip_code":"5740044"}]},{"name":"和泉市","divisions":[{"name":"青葉台","zip_code":"5941153"},{"name":"芦部町","zip_code":"5940053"},{"name":"あゆみ野","zip_code":"5941157"},{"name":"池上町","zip_code":"5940083"},{"name":"池田下町","zip_code":"5940032"},{"name":"一条院町","zip_code":"5940054"},{"name":"井ノ口町","zip_code":"5940072"},{"name":"いぶき野","zip_code":"5940041"},{"name":"今福町","zip_code":"5940063"},{"name":"上代町","zip_code":"5940011"},{"name":"内田町","zip_code":"5941156"},{"name":"浦田町","zip_code":"5941103"},{"name":"王子町","zip_code":"5940004"},{"name":"大野町","zip_code":"5941134"},{"name":"岡町","zip_code":"5941128"},{"name":"小田町","zip_code":"5940074"},{"name":"尾井町","zip_code":"5940006"},{"name":"小野田町","zip_code":"5941127"},{"name":"小野町","zip_code":"5940012"},{"name":"鍛治屋町","zip_code":"5941117"},{"name":"上町","zip_code":"5940002"},{"name":"唐国町","zip_code":"5941151"},{"name":"観音寺町","zip_code":"5940065"},{"name":"北田中町","zip_code":"5941122"},{"name":"九鬼町","zip_code":"5941126"},{"name":"葛の葉町","zip_code":"5940081"},{"name":"黒石町","zip_code":"5941113"},{"name":"黒鳥町","zip_code":"5940022"},{"name":"桑原町","zip_code":"5940066"},{"name":"光明台","zip_code":"5941111"},{"name":"国分町","zip_code":"5941114"},{"name":"幸","zip_code":"5940005"},{"name":"阪本町","zip_code":"5940052"},{"name":"山荘町","zip_code":"5940021"},{"name":"下宮町","zip_code":"5941121"},{"name":"善正町","zip_code":"5941125"},{"name":"太町","zip_code":"5940003"},{"name":"父鬼町","zip_code":"5941132"},{"name":"坪井町","zip_code":"5941135"},{"name":"鶴山台","zip_code":"5940013"},{"name":"テクノステージ","zip_code":"5941144"},{"name":"寺門町","zip_code":"5940064"},{"name":"寺田町","zip_code":"5940062"},{"name":"富秋町","zip_code":"5940082"},{"name":"南面利町","zip_code":"5941124"},{"name":"納花町","zip_code":"5941116"},{"name":"のぞみ野","zip_code":"5941105"},{"name":"伯太町","zip_code":"5940023"},{"name":"はつが野","zip_code":"5941106"},{"name":"春木川町","zip_code":"5941133"},{"name":"春木町","zip_code":"5941141"},{"name":"繁和町","zip_code":"5940075"},{"name":"東阪本町","zip_code":"5940051"},{"name":"肥子町","zip_code":"5940076"},{"name":"久井町","zip_code":"5941142"},{"name":"平井町","zip_code":"5941115"},{"name":"福瀬町","zip_code":"5941123"},{"name":"伏屋町","zip_code":"5940031"},{"name":"府中町","zip_code":"5940071"},{"name":"仏並町","zip_code":"5941136"},{"name":"舞町","zip_code":"5940001"},{"name":"槇尾山町","zip_code":"5941131"},{"name":"松尾寺町","zip_code":"5941154"},{"name":"まなび野","zip_code":"5941152"},{"name":"万町","zip_code":"5941104"},{"name":"箕形町","zip_code":"5940042"},{"name":"みずき台","zip_code":"5941118"},{"name":"緑ケ丘","zip_code":"5941155"},{"name":"三林町","zip_code":"5941112"},{"name":"室堂町","zip_code":"5941101"},{"name":"弥生町","zip_code":"5940061"},{"name":"若樫町","zip_code":"5941143"},{"name":"和気町","zip_code":"5940073"},{"name":"和田町","zip_code":"5941102"}]},{"name":"箕面市","divisions":[{"name":"粟生外院","zip_code":"5620025"},{"name":"粟生新家","zip_code":"5620024"},{"name":"粟生間谷","zip_code":"5620021"},{"name":"粟生間谷東","zip_code":"5620022"},{"name":"粟生間谷西","zip_code":"5620023"},{"name":"石丸","zip_code":"5620027"},{"name":"稲","zip_code":"5620015"},{"name":"今宮","zip_code":"5620033"},{"name":"小野原東","zip_code":"5620031"},{"name":"小野原西","zip_code":"5620032"},{"name":"温泉町","zip_code":"5620006"},{"name":"上止々呂美","zip_code":"5630251"},{"name":"萱野","zip_code":"5620014"},{"name":"外院","zip_code":"5620026"},{"name":"彩都粟生南","zip_code":"5620028"},{"name":"彩都粟生北","zip_code":"5620029"},{"name":"桜","zip_code":"5620041"},{"name":"桜井","zip_code":"5620043"},{"name":"桜ケ丘","zip_code":"5620046"},{"name":"下止々呂美","zip_code":"5630252"},{"name":"森町北","zip_code":"5630256"},{"name":"森町中","zip_code":"5630257"},{"name":"森町南","zip_code":"5630258"},{"name":"瀬川","zip_code":"5620045"},{"name":"船場東","zip_code":"5620035"},{"name":"船場西","zip_code":"5620036"},{"name":"新稲","zip_code":"5620005"},{"name":"西小路","zip_code":"5620003"},{"name":"西宿","zip_code":"5620034"},{"name":"如意谷","zip_code":"5620011"},{"name":"白島","zip_code":"5620012"},{"name":"半町","zip_code":"5620044"},{"name":"百楽荘","zip_code":"5620042"},{"name":"坊島","zip_code":"5620013"},{"name":"牧落","zip_code":"5620004"},{"name":"箕面","zip_code":"5620001"},{"name":"箕面公園","zip_code":"5620002"}]},{"name":"柏原市","divisions":[{"name":"青谷","zip_code":"5820014"},{"name":"旭ケ丘","zip_code":"5820026"},{"name":"安堂町","zip_code":"5820016"},{"name":"石川町","zip_code":"5820029"},{"name":"今町","zip_code":"5820002"},{"name":"円明町","zip_code":"5820027"},{"name":"大県","zip_code":"5820018"},{"name":"片山町","zip_code":"5820020"},{"name":"上市","zip_code":"5820007"},{"name":"雁多尾畑","zip_code":"5820012"},{"name":"河原町","zip_code":"5820004"},{"name":"清州","zip_code":"5820006"},{"name":"国分市場","zip_code":"5820022"},{"name":"国分東条町","zip_code":"5820023"},{"name":"国分本町","zip_code":"5820021"},{"name":"国分西","zip_code":"5820025"},{"name":"大正","zip_code":"5820009"},{"name":"太平寺","zip_code":"5820017"},{"name":"高井田","zip_code":"5820015"},{"name":"田辺","zip_code":"5820024"},{"name":"玉手町","zip_code":"5820028"},{"name":"峠","zip_code":"5820013"},{"name":"堂島町","zip_code":"5820003"},{"name":"平野","zip_code":"5820019"},{"name":"古町","zip_code":"5820008"},{"name":"法善寺","zip_code":"5820005"},{"name":"本郷","zip_code":"5820001"},{"name":"本堂","zip_code":"5820011"},{"name":"山ノ井町","zip_code":"5820010"}]},{"name":"羽曳野市","divisions":[{"name":"飛鳥","zip_code":"5830842"},{"name":"伊賀","zip_code":"5830876"},{"name":"碓井","zip_code":"5830851"},{"name":"恵我之荘","zip_code":"5830886"},{"name":"大黒","zip_code":"5830847"},{"name":"学園前","zip_code":"5830868"},{"name":"樫山","zip_code":"5830875"},{"name":"軽里","zip_code":"5830854"},{"name":"河原城","zip_code":"5830867"},{"name":"川向","zip_code":"5830848"},{"name":"蔵之内","zip_code":"5830863"},{"name":"郡戸","zip_code":"5830874"},{"name":"駒ケ谷","zip_code":"5830841"},{"name":"誉田","zip_code":"5830857"},{"name":"栄町","zip_code":"5830853"},{"name":"島泉","zip_code":"5830881"},{"name":"尺度","zip_code":"5830862"},{"name":"翠鳥園","zip_code":"5830855"},{"name":"高鷲","zip_code":"5830882"},{"name":"通法寺","zip_code":"5830843"},{"name":"壺井","zip_code":"5830844"},{"name":"西浦","zip_code":"5830861"},{"name":"野","zip_code":"5830884"},{"name":"野々上","zip_code":"5830871"},{"name":"白鳥","zip_code":"5830856"},{"name":"埴生野","zip_code":"5830866"},{"name":"羽曳が丘","zip_code":"5830864"},{"name":"羽曳が丘西","zip_code":"5830865"},{"name":"はびきの","zip_code":"5830872"},{"name":"東阪田","zip_code":"5830846"},{"name":"広瀬","zip_code":"5830845"},{"name":"古市","zip_code":"5830852"},{"name":"南恵我之荘","zip_code":"5830885"},{"name":"南古市","zip_code":"5830858"},{"name":"向野","zip_code":"5830883"},{"name":"桃山台","zip_code":"5830873"}]},{"name":"門真市","divisions":[{"name":"朝日町","zip_code":"5710061"},{"name":"石原町","zip_code":"5710067"},{"name":"泉町","zip_code":"5710053"},{"name":"一番町","zip_code":"5710033"},{"name":"打越","zip_code":"5710028"},{"name":"打越町","zip_code":"5710029"},{"name":"江端町","zip_code":"5710012"},{"name":"大池町","zip_code":"5710076"},{"name":"大倉町","zip_code":"5710068"},{"name":"大橋町","zip_code":"5710077"},{"name":"沖町","zip_code":"5710022"},{"name":"垣内町","zip_code":"5710065"},{"name":"門真","zip_code":"5710050"},{"name":"上島町","zip_code":"5710071"},{"name":"上野口町","zip_code":"5710070"},{"name":"岸和田","zip_code":"5710002"},{"name":"北岸和田","zip_code":"5710007"},{"name":"北島","zip_code":"5710025"},{"name":"北島町","zip_code":"5710026"},{"name":"北巣本町","zip_code":"5710073"},{"name":"桑才","zip_code":"5710035"},{"name":"桑才新町","zip_code":"5710043"},{"name":"幸福町","zip_code":"5710066"},{"name":"寿町","zip_code":"5710032"},{"name":"栄町","zip_code":"5710047"},{"name":"五月田町","zip_code":"5710027"},{"name":"三番","zip_code":"5710036"},{"name":"四宮","zip_code":"5710017"},{"name":"島頭","zip_code":"5710016"},{"name":"下島頭","zip_code":"5710004"},{"name":"下島町","zip_code":"5710075"},{"name":"下馬伏町","zip_code":"5710009"},{"name":"小路町","zip_code":"5710058"},{"name":"常称寺町","zip_code":"5710063"},{"name":"城垣町","zip_code":"5710072"},{"name":"新橋町","zip_code":"5710048"},{"name":"末広町","zip_code":"5710030"},{"name":"巣本町","zip_code":"5710001"},{"name":"千石東町","zip_code":"5710013"},{"name":"千石西町","zip_code":"5710014"},{"name":"月出町","zip_code":"5710052"},{"name":"堂山町","zip_code":"5710059"},{"name":"常盤町","zip_code":"5710078"},{"name":"殿島町","zip_code":"5710045"},{"name":"中町","zip_code":"5710055"},{"name":"野口","zip_code":"5710024"},{"name":"野里町","zip_code":"5710079"},{"name":"浜町","zip_code":"5710054"},{"name":"速見町","zip_code":"5710039"},{"name":"ひえ島","zip_code":"5710037"},{"name":"東江端町","zip_code":"5710008"},{"name":"東田町","zip_code":"5710034"},{"name":"深田町","zip_code":"5710042"},{"name":"舟田町","zip_code":"5710021"},{"name":"古川町","zip_code":"5710031"},{"name":"本町","zip_code":"5710046"},{"name":"松生町","zip_code":"5710044"},{"name":"松葉町","zip_code":"5710056"},{"name":"三ツ島","zip_code":"5710015"},{"name":"御堂町","zip_code":"5710064"},{"name":"南野口町","zip_code":"5710005"},{"name":"宮野町","zip_code":"5710062"},{"name":"宮前町","zip_code":"5710074"},{"name":"向島町","zip_code":"5710051"},{"name":"元町","zip_code":"5710057"},{"name":"柳田町","zip_code":"5710038"},{"name":"柳町","zip_code":"5710041"},{"name":"横地","zip_code":"5710023"},{"name":"脇田町","zip_code":"5710011"}]},{"name":"摂津市","divisions":[{"name":"安威川南町","zip_code":"5660051"},{"name":"学園町","zip_code":"5660033"},{"name":"北別府町","zip_code":"5660041"},{"name":"香露園","zip_code":"5660034"},{"name":"桜町","zip_code":"5660032"},{"name":"正雀","zip_code":"5660023"},{"name":"正雀本町","zip_code":"5660024"},{"name":"庄屋","zip_code":"5660012"},{"name":"昭和園","zip_code":"5660031"},{"name":"新在家","zip_code":"5660055"},{"name":"千里丘","zip_code":"5660001"},{"name":"千里丘東","zip_code":"5660011"},{"name":"鶴野","zip_code":"5660035"},{"name":"鳥飼上","zip_code":"5660062"},{"name":"鳥飼中","zip_code":"5660064"},{"name":"鳥飼下","zip_code":"5660071"},{"name":"鳥飼新町","zip_code":"5660065"},{"name":"鳥飼野々","zip_code":"5660053"},{"name":"鳥飼八防","zip_code":"5660054"},{"name":"鳥飼八町","zip_code":"5660061"},{"name":"鳥飼本町","zip_code":"5660052"},{"name":"鳥飼銘木町","zip_code":"5660063"},{"name":"鳥飼和道","zip_code":"5660073"},{"name":"鳥飼西","zip_code":"5660072"},{"name":"西一津屋","zip_code":"5660044"},{"name":"浜町","zip_code":"5660047"},{"name":"阪急正雀","zip_code":"5660013"},{"name":"東正雀","zip_code":"5660025"},{"name":"東一津屋","zip_code":"5660074"},{"name":"東別府","zip_code":"5660042"},{"name":"一津屋","zip_code":"5660043"},{"name":"別府","zip_code":"5660046"},{"name":"三島","zip_code":"5660022"},{"name":"南千里丘","zip_code":"5660021"},{"name":"南別府町","zip_code":"5660045"}]},{"name":"高石市","divisions":[{"name":"綾園","zip_code":"5920014"},{"name":"加茂","zip_code":"5920011"},{"name":"高砂","zip_code":"5920001"},{"name":"高師浜","zip_code":"5920004"},{"name":"高師浜丁","zip_code":"5920006"},{"name":"千代田","zip_code":"5920005"},{"name":"取石","zip_code":"5920013"},{"name":"西取石","zip_code":"5920012"},{"name":"羽衣","zip_code":"5920002"},{"name":"羽衣公園丁","zip_code":"5920002"},{"name":"東羽衣","zip_code":"5920003"},{"name":"南高砂","zip_code":"5950081"}]},{"name":"藤井寺市","divisions":[{"name":"青山","zip_code":"5830015"},{"name":"梅が園町","zip_code":"5830004"},{"name":"恵美坂","zip_code":"5830036"},{"name":"大井","zip_code":"5830008"},{"name":"岡","zip_code":"5830027"},{"name":"春日丘","zip_code":"5830026"},{"name":"春日丘新町","zip_code":"5830025"},{"name":"川北","zip_code":"5830001"},{"name":"北岡","zip_code":"5830035"},{"name":"国府","zip_code":"5830006"},{"name":"古室","zip_code":"5830013"},{"name":"小山","zip_code":"5830033"},{"name":"小山新町","zip_code":"5830031"},{"name":"小山藤の里町","zip_code":"5830034"},{"name":"小山藤美町","zip_code":"5830032"},{"name":"さくら町","zip_code":"5830023"},{"name":"沢田","zip_code":"5830011"},{"name":"惣社","zip_code":"5830005"},{"name":"津堂","zip_code":"5830037"},{"name":"道明寺","zip_code":"5830012"},{"name":"西大井","zip_code":"5830009"},{"name":"西古室","zip_code":"5830018"},{"name":"野中","zip_code":"5830014"},{"name":"林","zip_code":"5830007"},{"name":"東藤井寺町","zip_code":"5830022"},{"name":"藤井寺","zip_code":"5830024"},{"name":"藤ケ丘","zip_code":"5830017"},{"name":"船橋町","zip_code":"5830003"},{"name":"北條町","zip_code":"5830002"},{"name":"御舟町","zip_code":"5830021"},{"name":"陵南町","zip_code":"5830016"}]},{"name":"東大阪市","divisions":[{"name":"旭町","zip_code":"5798048"},{"name":"足代","zip_code":"5770841"},{"name":"足代新町","zip_code":"5770057"},{"name":"足代南","zip_code":"5770842"},{"name":"足代北","zip_code":"5770058"},{"name":"荒川","zip_code":"5770843"},{"name":"荒本","zip_code":"5770023"},{"name":"荒本新町","zip_code":"5770022"},{"name":"荒本西","zip_code":"5770024"},{"name":"荒本北","zip_code":"5770011"},{"name":"池島町","zip_code":"5798064"},{"name":"池之端町","zip_code":"5798002"},{"name":"出雲井町","zip_code":"5798033"},{"name":"出雲井本町","zip_code":"5798034"},{"name":"稲田上町","zip_code":"5770002"},{"name":"稲田新町","zip_code":"5770004"},{"name":"稲田本町","zip_code":"5770007"},{"name":"稲田三島町","zip_code":"5770003"},{"name":"稲葉","zip_code":"5780925"},{"name":"今米","zip_code":"5780903"},{"name":"岩田町","zip_code":"5780941"},{"name":"瓜生堂","zip_code":"5780946"},{"name":"永和","zip_code":"5770809"},{"name":"近江堂","zip_code":"5770817"},{"name":"大蓮東","zip_code":"5770824"},{"name":"大蓮南","zip_code":"5770825"},{"name":"大蓮北","zip_code":"5770826"},{"name":"柏田東町","zip_code":"5770833"},{"name":"柏田本町","zip_code":"5770834"},{"name":"柏田西","zip_code":"5770835"},{"name":"金岡","zip_code":"5770823"},{"name":"金物町","zip_code":"5770815"},{"name":"加納","zip_code":"5780901"},{"name":"上石切町","zip_code":"6300271"},{"name":"上小阪","zip_code":"5770806"},{"name":"上四条町","zip_code":"5798052"},{"name":"上六万寺町","zip_code":"5798062"},{"name":"川田","zip_code":"5780905"},{"name":"河内町","zip_code":"5798044"},{"name":"川中","zip_code":"5780902"},{"name":"川俣","zip_code":"5770063"},{"name":"川俣本町","zip_code":"5770064"},{"name":"神田町","zip_code":"5798058"},{"name":"岸田堂南町","zip_code":"5770847"},{"name":"岸田堂北町","zip_code":"5770846"},{"name":"岸田堂西","zip_code":"5770848"},{"name":"衣摺","zip_code":"5770827"},{"name":"北石切町","zip_code":"5798015"},{"name":"北鴻池町","zip_code":"5780978"},{"name":"客坊町","zip_code":"5798043"},{"name":"喜里川町","zip_code":"5798041"},{"name":"日下町","zip_code":"5798003"},{"name":"楠根","zip_code":"5770006"},{"name":"源氏ケ丘","zip_code":"5770822"},{"name":"鴻池徳庵町","zip_code":"5780977"},{"name":"鴻池本町","zip_code":"5780971"},{"name":"鴻池元町","zip_code":"5780974"},{"name":"鴻池町","zip_code":"5780972"},{"name":"小阪","zip_code":"5770801"},{"name":"小阪本町","zip_code":"5770802"},{"name":"五条町","zip_code":"5798042"},{"name":"寿町","zip_code":"5770837"},{"name":"古箕輪","zip_code":"5780915"},{"name":"小若江","zip_code":"5770818"},{"name":"桜町","zip_code":"5798047"},{"name":"三ノ瀬","zip_code":"5770849"},{"name":"新喜多","zip_code":"5770052"},{"name":"四条町","zip_code":"5798053"},{"name":"七軒家","zip_code":"5770005"},{"name":"渋川町","zip_code":"5770836"},{"name":"島之内","zip_code":"5780981"},{"name":"下小阪","zip_code":"5770803"},{"name":"下六万寺町","zip_code":"5798066"},{"name":"俊徳町","zip_code":"5770831"},{"name":"昭和町","zip_code":"5798046"},{"name":"新池島町","zip_code":"5798065"},{"name":"新上小阪","zip_code":"5770813"},{"name":"新家","zip_code":"5770025"},{"name":"新家中町","zip_code":"5770027"},{"name":"新家東町","zip_code":"5770026"},{"name":"新家西町","zip_code":"5770028"},{"name":"新鴻池町","zip_code":"5780967"},{"name":"新庄","zip_code":"5780963"},{"name":"新庄東","zip_code":"5780951"},{"name":"新庄西","zip_code":"5780964"},{"name":"新庄南","zip_code":"5780958"},{"name":"新町","zip_code":"5798037"},{"name":"末広町","zip_code":"5798055"},{"name":"角田","zip_code":"5780912"},{"name":"善根寺町","zip_code":"5798001"},{"name":"太平寺","zip_code":"5770844"},{"name":"高井田","zip_code":"5770053"},{"name":"高井田中","zip_code":"5770065"},{"name":"高井田本通","zip_code":"5770066"},{"name":"高井田元町","zip_code":"5770054"},{"name":"高井田西","zip_code":"5770067"},{"name":"鷹殿町","zip_code":"5798036"},{"name":"宝町","zip_code":"5798025"},{"name":"立花町","zip_code":"5798023"},{"name":"玉串町東","zip_code":"5780932"},{"name":"玉串町西","zip_code":"5780934"},{"name":"玉串元町","zip_code":"5780933"},{"name":"長栄寺","zip_code":"5770055"},{"name":"長堂","zip_code":"5770056"},{"name":"寺前町","zip_code":"5770845"},{"name":"徳庵本町","zip_code":"5770001"},{"name":"友井","zip_code":"5770816"},{"name":"豊浦町","zip_code":"5798031"},{"name":"鳥居町","zip_code":"5798035"},{"name":"中石切町","zip_code":"5798014"},{"name":"中鴻池町","zip_code":"5780975"},{"name":"中小阪","zip_code":"5770804"},{"name":"中新開","zip_code":"5780911"},{"name":"長瀬町","zip_code":"5770832"},{"name":"長田","zip_code":"5770015"},{"name":"長田内介","zip_code":"5770014"},{"name":"長田中","zip_code":"5770013"},{"name":"長田東","zip_code":"5770012"},{"name":"長田西","zip_code":"5770016"},{"name":"中野","zip_code":"5780913"},{"name":"中野南","zip_code":"5780985"},{"name":"南荘町","zip_code":"5798024"},{"name":"西石切町","zip_code":"5798013"},{"name":"西岩田","zip_code":"5780947"},{"name":"西上小阪","zip_code":"5770811"},{"name":"西鴻池町","zip_code":"5780976"},{"name":"西堤","zip_code":"5770042"},{"name":"西堤学園町","zip_code":"5770044"},{"name":"西堤楠町","zip_code":"5770047"},{"name":"西堤西","zip_code":"5770048"},{"name":"西堤本通東","zip_code":"5770045"},{"name":"西堤本通西","zip_code":"5770046"},{"name":"額田町","zip_code":"5798021"},{"name":"布市町","zip_code":"5798004"},{"name":"箱殿町","zip_code":"5798038"},{"name":"花園東町","zip_code":"5780931"},{"name":"花園西町","zip_code":"5780936"},{"name":"花園本町","zip_code":"5780937"},{"name":"東石切町","zip_code":"5798011"},{"name":"東上小阪","zip_code":"5770812"},{"name":"東鴻池町","zip_code":"5780973"},{"name":"東豊浦町","zip_code":"5798032"},{"name":"東山町","zip_code":"5798027"},{"name":"菱江","zip_code":"5780984"},{"name":"菱屋東","zip_code":"5780948"},{"name":"菱屋西","zip_code":"5770807"},{"name":"瓢箪山町","zip_code":"5798051"},{"name":"藤戸新田","zip_code":"5770017"},{"name":"宝持","zip_code":"5770805"},{"name":"本庄","zip_code":"5780953"},{"name":"本庄中","zip_code":"5780957"},{"name":"本庄東","zip_code":"5780952"},{"name":"本庄西","zip_code":"5780965"},{"name":"本町","zip_code":"5798045"},{"name":"松原","zip_code":"5780922"},{"name":"松原南","zip_code":"5780923"},{"name":"御厨","zip_code":"5770032"},{"name":"御厨栄町","zip_code":"5770036"},{"name":"御厨中","zip_code":"5770035"},{"name":"御厨西ノ町","zip_code":"5770037"},{"name":"御厨東","zip_code":"5770033"},{"name":"御厨南","zip_code":"5770034"},{"name":"三島","zip_code":"5780966"},{"name":"水走","zip_code":"5780921"},{"name":"南上小阪","zip_code":"5770814"},{"name":"南鴻池町","zip_code":"5780961"},{"name":"南四条町","zip_code":"5798054"},{"name":"箕輪","zip_code":"5780914"},{"name":"御幸町","zip_code":"5798057"},{"name":"元町","zip_code":"5798005"},{"name":"森河内東","zip_code":"5770062"},{"name":"森河内西","zip_code":"5770061"},{"name":"山手町","zip_code":"5798022"},{"name":"弥生町","zip_code":"5798026"},{"name":"横小路町","zip_code":"5798063"},{"name":"横沼町","zip_code":"5770808"},{"name":"横枕","zip_code":"5780954"},{"name":"横枕西","zip_code":"5780956"},{"name":"横枕南","zip_code":"5780955"},{"name":"吉田","zip_code":"5780924"},{"name":"吉田下島","zip_code":"5780983"},{"name":"吉田本町","zip_code":"5780982"},{"name":"吉原","zip_code":"5780904"},{"name":"吉松","zip_code":"5770821"},{"name":"六万寺町","zip_code":"5798061"},{"name":"若江東町","zip_code":"5780935"},{"name":"若江南町","zip_code":"5780943"},{"name":"若江北町","zip_code":"5780945"},{"name":"若江西新町","zip_code":"5780944"},{"name":"若江本町","zip_code":"5780942"},{"name":"若草町","zip_code":"5798056"}]},{"name":"泉南市","divisions":[{"name":"兎田","zip_code":"5900501"},{"name":"岡田","zip_code":"5900531"},{"name":"男里","zip_code":"5900526"},{"name":"北野","zip_code":"5900532"},{"name":"新家","zip_code":"5900503"},{"name":"信達市場","zip_code":"5900504"},{"name":"信達岡中","zip_code":"5900523"},{"name":"信達大苗代","zip_code":"5900505"},{"name":"信達金熊寺","zip_code":"5900514"},{"name":"信達楠畑","zip_code":"5900513"},{"name":"信達葛畑","zip_code":"5900511"},{"name":"信達牧野","zip_code":"5900522"},{"name":"信達六尾","zip_code":"5900515"},{"name":"信達童子畑","zip_code":"5900512"},{"name":"泉州空港南","zip_code":"5490021"},{"name":"樽井","zip_code":"5900521"},{"name":"中小路","zip_code":"5900533"},{"name":"鳴滝","zip_code":"5900534"},{"name":"馬場","zip_code":"5900525"},{"name":"幡代","zip_code":"5900524"},{"name":"別所","zip_code":"5900502"},{"name":"りんくう南浜","zip_code":"5900535"}]},{"name":"四條畷市","divisions":[{"name":"江瀬美町","zip_code":"5750034"},{"name":"逢阪","zip_code":"5750011"},{"name":"岡山","zip_code":"5750004"},{"name":"岡山東","zip_code":"5750003"},{"name":"上田原","zip_code":"5750014"},{"name":"雁屋西町","zip_code":"5750045"},{"name":"雁屋南町","zip_code":"5750036"},{"name":"雁屋北町","zip_code":"5750035"},{"name":"北出町","zip_code":"5750043"},{"name":"清瀧","zip_code":"5750063"},{"name":"清滝新町","zip_code":"5750062"},{"name":"清滝中町","zip_code":"5750061"},{"name":"米崎町","zip_code":"5750032"},{"name":"さつきケ丘","zip_code":"5750015"},{"name":"蔀屋","zip_code":"5750031"},{"name":"蔀屋新町","zip_code":"5750041"},{"name":"蔀屋本町","zip_code":"5750042"},{"name":"下田原","zip_code":"5750012"},{"name":"砂","zip_code":"5750001"},{"name":"田原台","zip_code":"5750013"},{"name":"塚脇町","zip_code":"5750024"},{"name":"中野","zip_code":"5750053"},{"name":"中野新町","zip_code":"5750054"},{"name":"中野本町","zip_code":"5750051"},{"name":"楠公","zip_code":"5750023"},{"name":"二丁通町","zip_code":"5750044"},{"name":"美田町","zip_code":"5750033"},{"name":"南野","zip_code":"5750022"},{"name":"緑風台","zip_code":"5750016"}]},{"name":"交野市","divisions":[{"name":"青山","zip_code":"5760066"},{"name":"天野が原町","zip_code":"5760034"},{"name":"幾野","zip_code":"5760054"},{"name":"梅が枝","zip_code":"5760042"},{"name":"私市","zip_code":"5760033"},{"name":"私市山手","zip_code":"5760032"},{"name":"私部","zip_code":"5760052"},{"name":"私部西","zip_code":"5760041"},{"name":"私部南","zip_code":"5760035"},{"name":"倉治","zip_code":"5760051"},{"name":"郡津","zip_code":"5760053"},{"name":"神宮寺","zip_code":"5760062"},{"name":"寺","zip_code":"5760063"},{"name":"寺南野","zip_code":"5760064"},{"name":"南星台","zip_code":"5760013"},{"name":"東倉治","zip_code":"5760061"},{"name":"藤が尾","zip_code":"5760022"},{"name":"傍示","zip_code":"5760003"},{"name":"星田","zip_code":"5760016"},{"name":"星田山手","zip_code":"5760014"},{"name":"星田西","zip_code":"5760015"},{"name":"星田北","zip_code":"5760017"},{"name":"松塚","zip_code":"5760043"},{"name":"妙見坂","zip_code":"5760021"},{"name":"妙見東","zip_code":"5760012"},{"name":"向井田","zip_code":"5760065"},{"name":"森","zip_code":"5760005"},{"name":"森南","zip_code":"5760031"},{"name":"森北","zip_code":"5760036"}]},{"name":"大阪狭山市","divisions":[{"name":"池尻自由丘","zip_code":"5890008"},{"name":"池尻中","zip_code":"5890007"},{"name":"池尻北","zip_code":"5890009"},{"name":"池之原","zip_code":"5890031"},{"name":"今熊","zip_code":"5890021"},{"name":"岩室","zip_code":"5890032"},{"name":"大野台","zip_code":"5890023"},{"name":"大野中","zip_code":"5890015"},{"name":"大野東","zip_code":"5890014"},{"name":"大野西","zip_code":"5890016"},{"name":"茱萸木","zip_code":"5890013"},{"name":"金剛","zip_code":"5890006"},{"name":"狭山","zip_code":"5890005"},{"name":"西山台","zip_code":"5890022"},{"name":"半田","zip_code":"5890011"},{"name":"東池尻","zip_code":"5890004"},{"name":"東茱萸木","zip_code":"5890012"},{"name":"東野中","zip_code":"5890002"},{"name":"東野東","zip_code":"5890003"},{"name":"東野西","zip_code":"5890001"},{"name":"山本中","zip_code":"5890034"},{"name":"山本東","zip_code":"5890036"},{"name":"山本南","zip_code":"5890033"},{"name":"山本北","zip_code":"5890035"}]},{"name":"阪南市","divisions":[{"name":"石田","zip_code":"5990221"},{"name":"和泉鳥取","zip_code":"5990213"},{"name":"尾崎町","zip_code":"5990201"},{"name":"貝掛","zip_code":"5990231"},{"name":"黒田","zip_code":"5990203"},{"name":"桑畑","zip_code":"5990222"},{"name":"光陽台","zip_code":"5990223"},{"name":"さつき台","zip_code":"5990215"},{"name":"自然田","zip_code":"5990212"},{"name":"下出","zip_code":"5990202"},{"name":"新町","zip_code":"5990205"},{"name":"淡輪","zip_code":"5990234"},{"name":"鳥取","zip_code":"5990204"},{"name":"鳥取中","zip_code":"5990211"},{"name":"鳥取三井","zip_code":"5990225"},{"name":"箱作","zip_code":"5990232"},{"name":"箱の浦","zip_code":"5990235"},{"name":"舞","zip_code":"5990224"},{"name":"緑ケ丘","zip_code":"5990216"},{"name":"南山中","zip_code":"5990233"},{"name":"桃の木台","zip_code":"5990236"},{"name":"山中渓","zip_code":"5990214"}]},{"name":"三島郡島本町","divisions":[{"name":"青葉","zip_code":"6180015"},{"name":"江川","zip_code":"6180013"},{"name":"大沢","zip_code":"6180004"},{"name":"桜井","zip_code":"6180022"},{"name":"桜井台","zip_code":"6180023"},{"name":"尺代","zip_code":"6180003"},{"name":"高浜","zip_code":"6180012"},{"name":"東大寺","zip_code":"6180002"},{"name":"百山","zip_code":"6180021"},{"name":"広瀬","zip_code":"6180011"},{"name":"水無瀬","zip_code":"6180014"},{"name":"山崎","zip_code":"6180001"},{"name":"若山台","zip_code":"6180024"}]},{"name":"豊能郡豊能町","divisions":[{"name":"川尻","zip_code":"5630217"},{"name":"木代","zip_code":"5630215"},{"name":"希望ケ丘","zip_code":"5630214"},{"name":"切畑","zip_code":"5630213"},{"name":"光風台","zip_code":"5630104"},{"name":"新光風台","zip_code":"5630105"},{"name":"高山","zip_code":"5630216"},{"name":"寺田","zip_code":"5630212"},{"name":"ときわ台","zip_code":"5630102"},{"name":"野間口","zip_code":"5630218"},{"name":"東ときわ台","zip_code":"5630103"},{"name":"牧","zip_code":"5630211"},{"name":"吉川","zip_code":"5630101"},{"name":"余野","zip_code":"5630219"}]},{"name":"豊能郡能勢町","divisions":[{"name":"稲地","zip_code":"5630363"},{"name":"今西","zip_code":"5630361"},{"name":"上杉","zip_code":"5630365"},{"name":"大里","zip_code":"5630352"},{"name":"柏原","zip_code":"5630353"},{"name":"片山","zip_code":"5630354"},{"name":"上田尻","zip_code":"5630122"},{"name":"倉垣","zip_code":"5630113"},{"name":"栗栖","zip_code":"5630351"},{"name":"神山","zip_code":"5630367"},{"name":"地黄","zip_code":"5630121"},{"name":"下田尻","zip_code":"5630123"},{"name":"下田","zip_code":"5630355"},{"name":"宿野","zip_code":"5630341"},{"name":"杉原","zip_code":"5630112"},{"name":"垂水","zip_code":"5630366"},{"name":"天王","zip_code":"5630371"},{"name":"長谷","zip_code":"5630368"},{"name":"野間稲地","zip_code":"5630133"},{"name":"野間大原","zip_code":"5630131"},{"name":"野間出野","zip_code":"5630134"},{"name":"野間中","zip_code":"5630132"},{"name":"野間西山","zip_code":"5630135"},{"name":"平通","zip_code":"5630356"},{"name":"平野","zip_code":"5630364"},{"name":"森上","zip_code":"5630362"},{"name":"山内","zip_code":"5630114"},{"name":"山田","zip_code":"5630373"},{"name":"山辺","zip_code":"5630372"},{"name":"吉野","zip_code":"5630111"}]},{"name":"泉北郡忠岡町","divisions":[{"name":"北出","zip_code":"5950803"},{"name":"高月南","zip_code":"5950802"},{"name":"高月北","zip_code":"5950801"},{"name":"忠岡中","zip_code":"5950812"},{"name":"忠岡東","zip_code":"5950805"},{"name":"忠岡南","zip_code":"5950813"},{"name":"忠岡北","zip_code":"5950811"},{"name":"新浜","zip_code":"5950814"},{"name":"馬瀬","zip_code":"5950804"}]},{"name":"泉南郡熊取町","divisions":[{"name":"青葉台","zip_code":"5900407"},{"name":"朝代西","zip_code":"5900458"},{"name":"朝代東","zip_code":"5900457"},{"name":"朝代台","zip_code":"5900459"},{"name":"大久保","zip_code":"5900401"},{"name":"大久保北","zip_code":"5900402"},{"name":"大久保中","zip_code":"5900403"},{"name":"大久保西","zip_code":"5900404"},{"name":"大久保東","zip_code":"5900406"},{"name":"大久保南","zip_code":"5900405"},{"name":"大宮","zip_code":"5900450"},{"name":"小垣内","zip_code":"5900432"},{"name":"小谷","zip_code":"5900431"},{"name":"小谷北","zip_code":"5900434"},{"name":"小谷南","zip_code":"5900435"},{"name":"希望が丘","zip_code":"5900422"},{"name":"久保","zip_code":"5900441"},{"name":"高田","zip_code":"5900436"},{"name":"五門","zip_code":"5900411"},{"name":"五門西","zip_code":"5900415"},{"name":"五門東","zip_code":"5900414"},{"name":"紺屋","zip_code":"5900412"},{"name":"桜が丘","zip_code":"5900413"},{"name":"五月ケ丘","zip_code":"5900445"},{"name":"七山","zip_code":"5900421"},{"name":"七山東","zip_code":"5900425"},{"name":"七山西","zip_code":"5900427"},{"name":"七山南","zip_code":"5900426"},{"name":"七山北","zip_code":"5900424"},{"name":"自由が丘","zip_code":"5900423"},{"name":"新野田","zip_code":"5900454"},{"name":"つばさが丘北","zip_code":"5900444"},{"name":"つばさが丘西","zip_code":"5900443"},{"name":"つばさが丘東","zip_code":"5900442"},{"name":"東和苑","zip_code":"5900416"},{"name":"長池","zip_code":"5900455"},{"name":"成合東","zip_code":"5900447"},{"name":"成合西","zip_code":"5900449"},{"name":"成合南","zip_code":"5900448"},{"name":"成合北","zip_code":"5900446"},{"name":"野田","zip_code":"5900451"},{"name":"美熊台","zip_code":"5900456"},{"name":"南山の手台","zip_code":"5900453"},{"name":"山の手台","zip_code":"5900452"},{"name":"若葉","zip_code":"5900433"},{"name":"和田","zip_code":"5900417"}]},{"name":"泉南郡田尻町","divisions":[{"name":"嘉祥寺","zip_code":"5980091"},{"name":"泉州空港中","zip_code":"5490011"},{"name":"吉見","zip_code":"5980092"},{"name":"りんくうポート南","zip_code":"5980094"},{"name":"りんくうポート北","zip_code":"5980093"}]},{"name":"泉南郡岬町","divisions":[{"name":"孝子","zip_code":"5990302"},{"name":"多奈川小島","zip_code":"5990314"},{"name":"多奈川谷川","zip_code":"5990311"},{"name":"多奈川東畑","zip_code":"5990312"},{"name":"多奈川西畑","zip_code":"5990313"},{"name":"淡輪","zip_code":"5990301"},{"name":"望海坂","zip_code":"5990304"},{"name":"深日","zip_code":"5990303"}]},{"name":"南河内郡太子町","divisions":[{"name":"春日","zip_code":"5830991"},{"name":"聖和台","zip_code":"5830996"},{"name":"太子","zip_code":"5830995"},{"name":"畑","zip_code":"5830993"},{"name":"葉室","zip_code":"5830994"},{"name":"山田","zip_code":"5830992"}]},{"name":"南河内郡河南町","divisions":[{"name":"一須賀","zip_code":"5850002"},{"name":"加納","zip_code":"5850012"},{"name":"上河内","zip_code":"5850024"},{"name":"寛弘寺","zip_code":"5850035"},{"name":"神山","zip_code":"5850034"},{"name":"さくら坂","zip_code":"5850025"},{"name":"さくら坂南","zip_code":"5850027"},{"name":"下河内","zip_code":"5850023"},{"name":"白木","zip_code":"5850014"},{"name":"鈴美台","zip_code":"5850026"},{"name":"芹生谷","zip_code":"5850033"},{"name":"大ケ塚","zip_code":"5850003"},{"name":"大宝","zip_code":"5850005"},{"name":"寺田","zip_code":"5850011"},{"name":"中","zip_code":"5850031"},{"name":"葉室","zip_code":"5850006"},{"name":"東山","zip_code":"5850001"},{"name":"平石","zip_code":"5850013"},{"name":"弘川","zip_code":"5850022"},{"name":"馬谷","zip_code":"5850032"},{"name":"持尾","zip_code":"5850021"},{"name":"山城","zip_code":"5850004"}]},{"name":"南河内郡千早赤阪村","divisions":[{"name":"東阪","zip_code":"5850055"},{"name":"川野辺","zip_code":"5850045"},{"name":"桐山","zip_code":"5850043"},{"name":"小吹","zip_code":"5850053"},{"name":"水分","zip_code":"5850041"},{"name":"千早","zip_code":"5850051"},{"name":"中津原","zip_code":"5850052"},{"name":"二河原辺","zip_code":"5850042"},{"name":"森屋","zip_code":"5850044"},{"name":"吉年","zip_code":"5850054"}]}]}