{"name":"兵庫県","cities":[{"name":"神戸市東灘区","divisions":[{"name":"魚崎中町","zip_code":"6580083"},{"name":"魚崎西町","zip_code":"6580026"},{"name":"魚崎南町","zip_code":"6580025"},{"name":"魚崎北町","zip_code":"6580082"},{"name":"魚崎浜町","zip_code":"6580024"},{"name":"渦森台","zip_code":"6580066"},{"name":"青木","zip_code":"6580027"},{"name":"岡本","zip_code":"6580072"},{"name":"鴨子ケ原","zip_code":"6580064"},{"name":"北青木","zip_code":"6580014"},{"name":"甲南台","zip_code":"6580002"},{"name":"甲南町","zip_code":"6580084"},{"name":"向洋町中","zip_code":"6580032"},{"name":"向洋町東","zip_code":"6580031"},{"name":"向洋町西","zip_code":"6580033"},{"name":"住吉台","zip_code":"6580062"},{"name":"住吉浜町","zip_code":"6580042"},{"name":"住吉本町","zip_code":"6580051"},{"name":"住吉東町","zip_code":"6580052"},{"name":"住吉南町","zip_code":"6580041"},{"name":"住吉宮町","zip_code":"6580053"},{"name":"住吉山手","zip_code":"6580063"},{"name":"田中町","zip_code":"6580081"},{"name":"西岡本","zip_code":"6580073"},{"name":"深江浜町","zip_code":"6580023"},{"name":"深江本町","zip_code":"6580021"},{"name":"深江南町","zip_code":"6580022"},{"name":"深江北町","zip_code":"6580013"},{"name":"本庄町","zip_code":"6580012"},{"name":"御影","zip_code":"6580047"},{"name":"御影石町","zip_code":"6580045"},{"name":"御影郡家","zip_code":"6580048"},{"name":"御影塚町","zip_code":"6580044"},{"name":"御影中町","zip_code":"6580054"},{"name":"御影浜町","zip_code":"6580043"},{"name":"御影本町","zip_code":"6580046"},{"name":"御影山手","zip_code":"6580065"},{"name":"本山北町","zip_code":"6580003"},{"name":"本山町岡本","zip_code":"6580071"},{"name":"本山町北畑","zip_code":"6580005"},{"name":"本山町田中","zip_code":"6580061"},{"name":"本山町田辺","zip_code":"6580004"},{"name":"本山町森","zip_code":"6570111"},{"name":"本山中町","zip_code":"6580016"},{"name":"本山南町","zip_code":"6580015"},{"name":"森北町","zip_code":"6580001"},{"name":"森南町","zip_code":"6580011"}]},{"name":"神戸市灘区","divisions":[{"name":"青谷町","zip_code":"6570805"},{"name":"赤坂通","zip_code":"6570821"},{"name":"赤松町","zip_code":"6570061"},{"name":"天城通","zip_code":"6570823"},{"name":"泉通","zip_code":"6570834"},{"name":"一王山町","zip_code":"6570012"},{"name":"岩屋","zip_code":"6570803"},{"name":"岩屋北町","zip_code":"6570846"},{"name":"岩屋中町","zip_code":"6570845"},{"name":"岩屋南町","zip_code":"6570856"},{"name":"上野","zip_code":"6570103"},{"name":"上野通","zip_code":"6570817"},{"name":"烏帽子町","zip_code":"6570042"},{"name":"王子町","zip_code":"6570838"},{"name":"大石北町","zip_code":"6570843"},{"name":"大石東町","zip_code":"6570043"},{"name":"大石南町","zip_code":"6570852"},{"name":"大内通","zip_code":"6570833"},{"name":"大月台","zip_code":"6570017"},{"name":"大土平町","zip_code":"6570014"},{"name":"上河原通","zip_code":"6570055"},{"name":"神ノ木通","zip_code":"6570057"},{"name":"神前町","zip_code":"6570052"},{"name":"岸地通","zip_code":"6570832"},{"name":"記田町","zip_code":"6570034"},{"name":"楠丘町","zip_code":"6570024"},{"name":"国玉通","zip_code":"6570816"},{"name":"倉石通","zip_code":"6570826"},{"name":"高徳町","zip_code":"6570025"},{"name":"五毛","zip_code":"6570801"},{"name":"五毛通","zip_code":"6570814"},{"name":"桜ケ丘町","zip_code":"6570021"},{"name":"桜口町","zip_code":"6570036"},{"name":"鹿ノ下通","zip_code":"6570044"},{"name":"篠原伯母野山町","zip_code":"6570015"},{"name":"篠原北町","zip_code":"6570068"},{"name":"篠原台","zip_code":"6570016"},{"name":"篠原中町","zip_code":"6570066"},{"name":"篠原本町","zip_code":"6570067"},{"name":"篠原南町","zip_code":"6570059"},{"name":"篠原","zip_code":"6570002"},{"name":"下河原通","zip_code":"6570045"},{"name":"将軍通","zip_code":"6570058"},{"name":"城内通","zip_code":"6570836"},{"name":"城の下通","zip_code":"6570804"},{"name":"新在家南町","zip_code":"6570864"},{"name":"新在家北町","zip_code":"6570861"},{"name":"水車新田","zip_code":"6570018"},{"name":"水道筋","zip_code":"6570831"},{"name":"千旦通","zip_code":"6570056"},{"name":"曾和町","zip_code":"6570063"},{"name":"高尾通","zip_code":"6570813"},{"name":"高羽","zip_code":"6570001"},{"name":"高羽町","zip_code":"6570023"},{"name":"土山町","zip_code":"6570022"},{"name":"鶴甲","zip_code":"6570011"},{"name":"寺口町","zip_code":"6570062"},{"name":"徳井町","zip_code":"6570033"},{"name":"友田町","zip_code":"6570035"},{"name":"中郷町","zip_code":"6570032"},{"name":"中原通","zip_code":"6570825"},{"name":"永手町","zip_code":"6570027"},{"name":"長峰台","zip_code":"6570811"},{"name":"灘北通","zip_code":"6570835"},{"name":"灘浜町","zip_code":"6570853"},{"name":"灘浜東町","zip_code":"6570863"},{"name":"灘南通","zip_code":"6570841"},{"name":"畑原","zip_code":"6570102"},{"name":"畑原通","zip_code":"6570822"},{"name":"浜田町","zip_code":"6570862"},{"name":"原田","zip_code":"6570802"},{"name":"原田通","zip_code":"6570837"},{"name":"稗原町","zip_code":"6570054"},{"name":"日尾町","zip_code":"6570029"},{"name":"琵琶町","zip_code":"6570041"},{"name":"備後町","zip_code":"6570037"},{"name":"深田町","zip_code":"6570038"},{"name":"福住通","zip_code":"6570824"},{"name":"船寺通","zip_code":"6570842"},{"name":"摩耶海岸通","zip_code":"6570855"},{"name":"摩耶山","zip_code":"6570104"},{"name":"摩耶山町","zip_code":"6570105"},{"name":"摩耶埠頭","zip_code":"6570854"},{"name":"味泥町","zip_code":"6570851"},{"name":"箕岡通","zip_code":"6570812"},{"name":"都通","zip_code":"6570844"},{"name":"宮山町","zip_code":"6570065"},{"name":"森後町","zip_code":"6570028"},{"name":"薬師通","zip_code":"6570815"},{"name":"八幡町","zip_code":"6570051"},{"name":"山田町","zip_code":"6570064"},{"name":"大和町","zip_code":"6570031"},{"name":"弓木町","zip_code":"6570026"},{"name":"六甲山町","zip_code":"6570101"},{"name":"六甲台町","zip_code":"6570013"},{"name":"六甲町","zip_code":"6570053"}]},{"name":"神戸市兵庫区","divisions":[{"name":"芦原通","zip_code":"6520882"},{"name":"荒田町","zip_code":"6520032"},{"name":"石井町","zip_code":"6520061"},{"name":"磯之町","zip_code":"6520842"},{"name":"今出在家町","zip_code":"6520853"},{"name":"入江通","zip_code":"6520894"},{"name":"梅元町","zip_code":"6520003"},{"name":"永沢町","zip_code":"6520816"},{"name":"駅前通","zip_code":"6520898"},{"name":"駅南通","zip_code":"6520897"},{"name":"会下山町","zip_code":"6520043"},{"name":"大井通","zip_code":"6520044"},{"name":"小河通","zip_code":"6520895"},{"name":"笠松通","zip_code":"6520864"},{"name":"鍛冶屋町","zip_code":"6520832"},{"name":"上祇園町","zip_code":"6520008"},{"name":"上沢通","zip_code":"6520046"},{"name":"上三条町","zip_code":"6520013"},{"name":"上庄通","zip_code":"6520862"},{"name":"烏原町","zip_code":"6520001"},{"name":"神田町","zip_code":"6520006"},{"name":"菊水町","zip_code":"6520058"},{"name":"北逆瀬川町","zip_code":"6520837"},{"name":"北山町","zip_code":"6520053"},{"name":"切戸町","zip_code":"6520847"},{"name":"金平町","zip_code":"6520873"},{"name":"楠谷町","zip_code":"6520004"},{"name":"熊野町","zip_code":"6520064"},{"name":"御所通","zip_code":"6520885"},{"name":"五宮町","zip_code":"6520007"},{"name":"小松通","zip_code":"6520865"},{"name":"小山町","zip_code":"6520055"},{"name":"材木町","zip_code":"6520851"},{"name":"里山町","zip_code":"6520051"},{"name":"佐比江町","zip_code":"6520821"},{"name":"山王町","zip_code":"6520011"},{"name":"七宮町","zip_code":"6520831"},{"name":"島上町","zip_code":"6520833"},{"name":"清水町","zip_code":"6520065"},{"name":"下祇園町","zip_code":"6520015"},{"name":"下沢通","zip_code":"6520047"},{"name":"下三条町","zip_code":"6520014"},{"name":"新開地","zip_code":"6520811"},{"name":"神明町","zip_code":"6520836"},{"name":"須佐野通","zip_code":"6520896"},{"name":"大同町","zip_code":"6520062"},{"name":"高松町","zip_code":"6520874"},{"name":"滝山町","zip_code":"6520056"},{"name":"大開通","zip_code":"6520803"},{"name":"千鳥町","zip_code":"6520022"},{"name":"塚本通","zip_code":"6520804"},{"name":"築地町","zip_code":"6520845"},{"name":"都由乃町","zip_code":"6520023"},{"name":"出在家町","zip_code":"6520846"},{"name":"天王町","zip_code":"6520021"},{"name":"遠矢浜町","zip_code":"6520866"},{"name":"中之島","zip_code":"6520844"},{"name":"中道通","zip_code":"6520801"},{"name":"西上橘通","zip_code":"6520033"},{"name":"西橘通","zip_code":"6520034"},{"name":"西多聞通","zip_code":"6520035"},{"name":"西出町","zip_code":"6520822"},{"name":"西仲町","zip_code":"6520835"},{"name":"西宮内町","zip_code":"6520891"},{"name":"西柳原町","zip_code":"6520806"},{"name":"羽坂通","zip_code":"6520805"},{"name":"馬場町","zip_code":"6520016"},{"name":"浜崎通","zip_code":"6520807"},{"name":"浜中町","zip_code":"6520875"},{"name":"浜山通","zip_code":"6520871"},{"name":"東出町","zip_code":"6520823"},{"name":"東柳原町","zip_code":"6520892"},{"name":"東山町","zip_code":"6520042"},{"name":"氷室町","zip_code":"6520054"},{"name":"兵庫町","zip_code":"6520813"},{"name":"鵯越筋","zip_code":"6520052"},{"name":"鵯越町","zip_code":"6520057"},{"name":"平野町","zip_code":"6520002"},{"name":"福原町","zip_code":"6520036"},{"name":"船大工町","zip_code":"6520843"},{"name":"本町","zip_code":"6520834"},{"name":"松原通","zip_code":"6520881"},{"name":"松本通","zip_code":"6520045"},{"name":"三川口町","zip_code":"6520815"},{"name":"御崎町","zip_code":"6520855"},{"name":"御崎本町","zip_code":"6520852"},{"name":"水木通","zip_code":"6520802"},{"name":"三石通","zip_code":"6520861"},{"name":"湊川町","zip_code":"6520041"},{"name":"湊町","zip_code":"6520812"},{"name":"湊山町","zip_code":"6520012"},{"name":"南逆瀬川町","zip_code":"6520893"},{"name":"南仲町","zip_code":"6520841"},{"name":"明和通","zip_code":"6520883"},{"name":"門口町","zip_code":"6520814"},{"name":"矢部町","zip_code":"6520005"},{"name":"雪御所町","zip_code":"6520031"},{"name":"夢野町","zip_code":"6520063"},{"name":"吉田町","zip_code":"6520872"},{"name":"和田崎町","zip_code":"6520854"},{"name":"和田宮通","zip_code":"6520863"},{"name":"和田山通","zip_code":"6520884"}]},{"name":"神戸市長田区","divisions":[{"name":"池田上町","zip_code":"6530824"},{"name":"池田経町","zip_code":"6530823"},{"name":"池田塩町","zip_code":"6530826"},{"name":"池田新町","zip_code":"6530825"},{"name":"池田惣町","zip_code":"6530864"},{"name":"池田寺町","zip_code":"6530822"},{"name":"池田広町","zip_code":"6530814"},{"name":"池田宮町","zip_code":"6530865"},{"name":"池田谷町","zip_code":"6530821"},{"name":"一番町","zip_code":"6530013"},{"name":"一里山町","zip_code":"6530878"},{"name":"鶯町","zip_code":"6530871"},{"name":"腕塚町","zip_code":"6530036"},{"name":"梅ケ香町","zip_code":"6530021"},{"name":"大谷町","zip_code":"6530838"},{"name":"大塚町","zip_code":"6530811"},{"name":"大橋町","zip_code":"6530037"},{"name":"大道通","zip_code":"6530833"},{"name":"重池町","zip_code":"6530802"},{"name":"御屋敷通","zip_code":"6530843"},{"name":"海運町","zip_code":"6530052"},{"name":"神楽町","zip_code":"6530836"},{"name":"片山町","zip_code":"6530805"},{"name":"上池田","zip_code":"6530827"},{"name":"苅藻島町","zip_code":"6530033"},{"name":"苅藻通","zip_code":"6530032"},{"name":"川西通","zip_code":"6530834"},{"name":"北町","zip_code":"6530016"},{"name":"久保町","zip_code":"6530041"},{"name":"源平町","zip_code":"6530888"},{"name":"五位ノ池町","zip_code":"6530851"},{"name":"高東町","zip_code":"6530867"},{"name":"五番町","zip_code":"6530003"},{"name":"駒栄町","zip_code":"6530034"},{"name":"駒ケ林町","zip_code":"6530043"},{"name":"駒ケ林南町","zip_code":"6530045"},{"name":"三番町","zip_code":"6530011"},{"name":"鹿松町","zip_code":"6530877"},{"name":"庄田町","zip_code":"6530035"},{"name":"庄山町","zip_code":"6530853"},{"name":"菅原通","zip_code":"6530015"},{"name":"大丸町","zip_code":"6530806"},{"name":"高取山町","zip_code":"6530856"},{"name":"滝谷町","zip_code":"6530881"},{"name":"大日丘町","zip_code":"6530872"},{"name":"長者町","zip_code":"6530866"},{"name":"寺池町","zip_code":"6530804"},{"name":"戸崎通","zip_code":"6530845"},{"name":"長尾町","zip_code":"6530855"},{"name":"長田町","zip_code":"6530812"},{"name":"長田天神町","zip_code":"6530882"},{"name":"長楽町","zip_code":"6530054"},{"name":"名倉町","zip_code":"6530883"},{"name":"七番町","zip_code":"6530001"},{"name":"浪松町","zip_code":"6530055"},{"name":"西尻池町","zip_code":"6530031"},{"name":"西代通","zip_code":"6530844"},{"name":"西丸山町","zip_code":"6530874"},{"name":"西山町","zip_code":"6530862"},{"name":"二番町","zip_code":"6530012"},{"name":"野田町","zip_code":"6530051"},{"name":"萩乃町","zip_code":"6530873"},{"name":"蓮池町","zip_code":"6530837"},{"name":"蓮宮通","zip_code":"6530831"},{"name":"花山町","zip_code":"6530876"},{"name":"浜添通","zip_code":"6530024"},{"name":"林山町","zip_code":"6530861"},{"name":"檜川町","zip_code":"6530887"},{"name":"東尻池新町","zip_code":"6530023"},{"name":"東尻池町","zip_code":"6530022"},{"name":"東丸山町","zip_code":"6530886"},{"name":"雲雀ケ丘","zip_code":"6530879"},{"name":"日吉町","zip_code":"6530039"},{"name":"二葉町","zip_code":"6530042"},{"name":"平和台町","zip_code":"6530854"},{"name":"房王寺町","zip_code":"6530801"},{"name":"細田町","zip_code":"6530835"},{"name":"堀切町","zip_code":"6530885"},{"name":"本庄町","zip_code":"6530053"},{"name":"前原町","zip_code":"6530803"},{"name":"松野通","zip_code":"6530841"},{"name":"真野町","zip_code":"6530025"},{"name":"丸山町","zip_code":"6530875"},{"name":"御蔵通","zip_code":"6530014"},{"name":"水笠通","zip_code":"6530842"},{"name":"南駒栄町","zip_code":"6530044"},{"name":"御船通","zip_code":"6530832"},{"name":"宮丘町","zip_code":"6530863"},{"name":"宮川町","zip_code":"6530813"},{"name":"明泉寺町","zip_code":"6530884"},{"name":"山下町","zip_code":"6530852"},{"name":"四番町","zip_code":"6530004"},{"name":"六番町","zip_code":"6530002"},{"name":"若松町","zip_code":"6530038"}]},{"name":"神戸市須磨区","divisions":[{"name":"青葉町","zip_code":"6540038"},{"name":"磯馴町","zip_code":"6540047"},{"name":"板宿町","zip_code":"6540009"},{"name":"一ノ谷町","zip_code":"6540076"},{"name":"稲葉町","zip_code":"6540044"},{"name":"永楽町","zip_code":"6540004"},{"name":"戎町","zip_code":"6540023"},{"name":"大池町","zip_code":"6540026"},{"name":"大田町","zip_code":"6540024"},{"name":"大手","zip_code":"6540017"},{"name":"大手町","zip_code":"6540013"},{"name":"奥山畑町","zip_code":"6540015"},{"name":"神の谷","zip_code":"6540162"},{"name":"上細沢町","zip_code":"6540016"},{"name":"川上町","zip_code":"6540005"},{"name":"菊池町","zip_code":"6540008"},{"name":"北落合","zip_code":"6540151"},{"name":"北町","zip_code":"6540064"},{"name":"衣掛町","zip_code":"6540048"},{"name":"車","zip_code":"6540111"},{"name":"小寺町","zip_code":"6540042"},{"name":"権現町","zip_code":"6540031"},{"name":"桜木町","zip_code":"6540066"},{"name":"潮見台町","zip_code":"6540075"},{"name":"清水台","zip_code":"6540123"},{"name":"白川","zip_code":"6540101"},{"name":"白川台","zip_code":"6540103"},{"name":"神撫町","zip_code":"6540003"},{"name":"菅の台","zip_code":"6540143"},{"name":"須磨浦通","zip_code":"6540055"},{"name":"須磨寺町","zip_code":"6540071"},{"name":"須磨本町","zip_code":"6540054"},{"name":"関守町","zip_code":"6540073"},{"name":"禅昌寺町","zip_code":"6540001"},{"name":"外浜町","zip_code":"6540043"},{"name":"大黒町","zip_code":"6540022"},{"name":"多井畑","zip_code":"6540133"},{"name":"多井畑東町","zip_code":"6540134"},{"name":"多井畑南町","zip_code":"6540132"},{"name":"高尾台","zip_code":"6540061"},{"name":"高倉台","zip_code":"6540081"},{"name":"高倉町","zip_code":"6540074"},{"name":"鷹取町","zip_code":"6540039"},{"name":"千歳町","zip_code":"6540027"},{"name":"千守町","zip_code":"6540072"},{"name":"月見山町","zip_code":"6540063"},{"name":"月見山本町","zip_code":"6540051"},{"name":"寺田町","zip_code":"6540025"},{"name":"天神町","zip_code":"6540053"},{"name":"道正台","zip_code":"6540122"},{"name":"常盤町","zip_code":"6540028"},{"name":"飛松町","zip_code":"6540012"},{"name":"戸政町","zip_code":"6540034"},{"name":"友が丘","zip_code":"6540142"},{"name":"中落合","zip_code":"6540154"},{"name":"中島町","zip_code":"6540035"},{"name":"西落合","zip_code":"6540155"},{"name":"西須磨","zip_code":"6540068"},{"name":"東落合","zip_code":"6540152"},{"name":"東白川台","zip_code":"6540102"},{"name":"東須磨","zip_code":"6540018"},{"name":"東町","zip_code":"6540033"},{"name":"平田町","zip_code":"6540021"},{"name":"古川町","zip_code":"6540041"},{"name":"宝田町","zip_code":"6540007"},{"name":"堀池町","zip_code":"6540032"},{"name":"前池町","zip_code":"6540011"},{"name":"松風町","zip_code":"6540045"},{"name":"水野町","zip_code":"6540062"},{"name":"緑が丘","zip_code":"6540113"},{"name":"緑台","zip_code":"6540163"},{"name":"南落合","zip_code":"6540153"},{"name":"南町","zip_code":"6540036"},{"name":"行幸町","zip_code":"6540052"},{"name":"明神町","zip_code":"6540002"},{"name":"妙法寺","zip_code":"6540121"},{"name":"村雨町","zip_code":"6540046"},{"name":"弥栄台","zip_code":"6540161"},{"name":"行平町","zip_code":"6540037"},{"name":"養老町","zip_code":"6540006"},{"name":"横尾","zip_code":"6540131"},{"name":"離宮西町","zip_code":"6540067"},{"name":"離宮前町","zip_code":"6540065"},{"name":"竜が台","zip_code":"6540141"},{"name":"若木町","zip_code":"6540014"},{"name":"若草町","zip_code":"6540112"},{"name":"若宮町","zip_code":"6540049"}]},{"name":"神戸市垂水区","divisions":[{"name":"青山台","zip_code":"6550873"},{"name":"朝谷町","zip_code":"6550862"},{"name":"旭が丘","zip_code":"6550033"},{"name":"泉が丘","zip_code":"6550885"},{"name":"歌敷山","zip_code":"6550037"},{"name":"王居殿","zip_code":"6550883"},{"name":"大町","zip_code":"6550014"},{"name":"乙木","zip_code":"6550882"},{"name":"海岸通","zip_code":"6550036"},{"name":"霞ケ丘","zip_code":"6550039"},{"name":"上高丸","zip_code":"6550017"},{"name":"狩口台","zip_code":"6550049"},{"name":"川原","zip_code":"6550894"},{"name":"神田町","zip_code":"6550027"},{"name":"北舞子","zip_code":"6550045"},{"name":"陸ノ町","zip_code":"6550026"},{"name":"向陽","zip_code":"6550012"},{"name":"小束台","zip_code":"6550008"},{"name":"小束山","zip_code":"6550002"},{"name":"小束山手","zip_code":"6550009"},{"name":"小束山本町","zip_code":"6550003"},{"name":"五色山","zip_code":"6550035"},{"name":"御霊町","zip_code":"6550024"},{"name":"坂上","zip_code":"6550895"},{"name":"潮見が丘","zip_code":"6550005"},{"name":"塩屋北町","zip_code":"6550863"},{"name":"塩屋台","zip_code":"6550864"},{"name":"塩屋町","zip_code":"6550872"},{"name":"清水が丘","zip_code":"6550031"},{"name":"清水通","zip_code":"6550023"},{"name":"下畑町","zip_code":"6550861"},{"name":"松風台","zip_code":"6550871"},{"name":"城が山","zip_code":"6550884"},{"name":"神陵台","zip_code":"6550041"},{"name":"神和台","zip_code":"6550851"},{"name":"清玄町","zip_code":"6550865"},{"name":"星陵台","zip_code":"6550038"},{"name":"高丸","zip_code":"6550016"},{"name":"多聞台","zip_code":"6550007"},{"name":"多聞町","zip_code":"6550001"},{"name":"千鳥が丘","zip_code":"6550011"},{"name":"千代が丘","zip_code":"6550018"},{"name":"つつじが丘","zip_code":"6550853"},{"name":"天ノ下町","zip_code":"6550029"},{"name":"仲田","zip_code":"6550034"},{"name":"中道","zip_code":"6550896"},{"name":"西舞子","zip_code":"6550048"},{"name":"西脇","zip_code":"6550042"},{"name":"野田通","zip_code":"6550015"},{"name":"馬場通","zip_code":"6550021"},{"name":"東垂水","zip_code":"6550886"},{"name":"東垂水町","zip_code":"6550881"},{"name":"東舞子町","zip_code":"6550047"},{"name":"日向","zip_code":"6550893"},{"name":"平磯","zip_code":"6550892"},{"name":"福田","zip_code":"6550013"},{"name":"星が丘","zip_code":"6550032"},{"name":"本多聞","zip_code":"6550006"},{"name":"舞子坂","zip_code":"6550044"},{"name":"舞子台","zip_code":"6550046"},{"name":"舞多聞西","zip_code":"6550051"},{"name":"舞多聞東","zip_code":"6550052"},{"name":"学が丘","zip_code":"6550004"},{"name":"瑞ケ丘","zip_code":"6550025"},{"name":"瑞穂通","zip_code":"6550022"},{"name":"南多聞台","zip_code":"6550043"},{"name":"美山台","zip_code":"6550874"},{"name":"宮本町","zip_code":"6550028"},{"name":"名谷町","zip_code":"6550852"},{"name":"桃山台","zip_code":"6550854"},{"name":"山手","zip_code":"6550891"}]},{"name":"神戸市北区","divisions":[{"name":"青葉台","zip_code":"6511231"},{"name":"赤松台","zip_code":"6511516"},{"name":"有野台","zip_code":"6511321"},{"name":"有野町有野","zip_code":"6511312"},{"name":"有野町唐櫃","zip_code":"6511331"},{"name":"有野町二郎","zip_code":"6511311"},{"name":"有野中町","zip_code":"6511313"},{"name":"有馬町","zip_code":"6511401"},{"name":"泉台","zip_code":"6511141"},{"name":"淡河町淡河","zip_code":"6511603"},{"name":"淡河町勝雄","zip_code":"6511604"},{"name":"淡河町北僧尾","zip_code":"6511601"},{"name":"淡河町北畑","zip_code":"6511616"},{"name":"淡河町木津","zip_code":"6511614"},{"name":"淡河町行原","zip_code":"6511613"},{"name":"淡河町神田","zip_code":"6511622"},{"name":"淡河町中山","zip_code":"6511611"},{"name":"淡河町野瀬","zip_code":"6511623"},{"name":"淡河町萩原","zip_code":"6511615"},{"name":"淡河町東畑","zip_code":"6511612"},{"name":"淡河町神影","zip_code":"6511621"},{"name":"淡河町南僧尾","zip_code":"6511602"},{"name":"大池見山台","zip_code":"6511206"},{"name":"大沢町市原","zip_code":"6511521"},{"name":"大沢町上大沢","zip_code":"6511522"},{"name":"大沢町神付","zip_code":"6511523"},{"name":"大沢町簾","zip_code":"6511526"},{"name":"大沢町中大沢","zip_code":"6511524"},{"name":"大沢町日西原","zip_code":"6511525"},{"name":"大原","zip_code":"6511222"},{"name":"大脇台","zip_code":"6511144"},{"name":"小倉台","zip_code":"6511211"},{"name":"柏尾台","zip_code":"6511255"},{"name":"桂木","zip_code":"6511223"},{"name":"鹿の子台南町","zip_code":"6511514"},{"name":"鹿の子台北町","zip_code":"6511513"},{"name":"唐櫃台","zip_code":"6511332"},{"name":"唐櫃六甲台","zip_code":"6511334"},{"name":"北五葉","zip_code":"6511131"},{"name":"君影町","zip_code":"6511122"},{"name":"京地","zip_code":"6511304"},{"name":"甲栄台","zip_code":"6511142"},{"name":"上津台","zip_code":"6511515"},{"name":"幸陽町","zip_code":"6511203"},{"name":"広陵町","zip_code":"6511213"},{"name":"桜森町","zip_code":"6511214"},{"name":"菖蒲が丘","zip_code":"6511306"},{"name":"杉尾台","zip_code":"6511146"},{"name":"鈴蘭台東町","zip_code":"6511112"},{"name":"鈴蘭台西町","zip_code":"6511114"},{"name":"鈴蘭台南町","zip_code":"6511113"},{"name":"鈴蘭台北町","zip_code":"6511111"},{"name":"星和台","zip_code":"6511121"},{"name":"惣山町","zip_code":"6511145"},{"name":"谷上東町","zip_code":"6511245"},{"name":"谷上西町","zip_code":"6511246"},{"name":"谷上南町","zip_code":"6511244"},{"name":"筑紫が丘","zip_code":"6511212"},{"name":"道場町日下部","zip_code":"6511505"},{"name":"道場町塩田","zip_code":"6511502"},{"name":"道場町道場","zip_code":"6511501"},{"name":"道場町平田","zip_code":"6511504"},{"name":"道場町生野","zip_code":"6691161"},{"name":"中里町","zip_code":"6511103"},{"name":"長尾町宅原","zip_code":"6511511"},{"name":"長尾町上津","zip_code":"6511512"},{"name":"鳴子","zip_code":"6511133"},{"name":"西大池","zip_code":"6511201"},{"name":"西山","zip_code":"6511305"},{"name":"八多町上小名田","zip_code":"6511354"},{"name":"八多町下小名田","zip_code":"6511352"},{"name":"八多町附物","zip_code":"6511343"},{"name":"八多町中","zip_code":"6511351"},{"name":"八多町西畑","zip_code":"6511345"},{"name":"八多町屏風","zip_code":"6511344"},{"name":"八多町深谷","zip_code":"6511341"},{"name":"八多町柳谷","zip_code":"6511342"},{"name":"八多町吉尾","zip_code":"6511353"},{"name":"花山台","zip_code":"6511205"},{"name":"花山中尾台","zip_code":"6511202"},{"name":"花山東町","zip_code":"6511204"},{"name":"東有野台","zip_code":"6511322"},{"name":"東大池","zip_code":"6511333"},{"name":"日の峰","zip_code":"6511233"},{"name":"ひよどり北町","zip_code":"6511124"},{"name":"ひよどり台","zip_code":"6511123"},{"name":"ひよどり台南町","zip_code":"6511125"},{"name":"藤原台北町","zip_code":"6511301"},{"name":"藤原台中町","zip_code":"6511302"},{"name":"藤原台南町","zip_code":"6511303"},{"name":"松が枝町","zip_code":"6511232"},{"name":"松宮台","zip_code":"6511147"},{"name":"緑町","zip_code":"6511221"},{"name":"南五葉","zip_code":"6511132"},{"name":"山田町藍那","zip_code":"6511104"},{"name":"山田町小河","zip_code":"6511105"},{"name":"山田町小部","zip_code":"6511101"},{"name":"山田町大池","zip_code":"6511241"},{"name":"山田町上谷上","zip_code":"6511242"},{"name":"山田町坂本","zip_code":"6511261"},{"name":"山田町下谷上","zip_code":"6511102"},{"name":"山田町衝原","zip_code":"6511264"},{"name":"山田町中","zip_code":"6511253"},{"name":"山田町西下","zip_code":"6511263"},{"name":"山田町原野","zip_code":"6511252"},{"name":"山田町東下","zip_code":"6511262"},{"name":"山田町福地","zip_code":"6511254"},{"name":"山田町与左衛門新田","zip_code":"6511251"},{"name":"若葉台","zip_code":"6511143"}]},{"name":"神戸市中央区","divisions":[{"name":"相生町","zip_code":"6500025"},{"name":"明石町","zip_code":"6500037"},{"name":"旭通","zip_code":"6510095"},{"name":"吾妻通","zip_code":"6510076"},{"name":"生田町","zip_code":"6510092"},{"name":"磯上通","zip_code":"6510086"},{"name":"磯辺通","zip_code":"6510084"},{"name":"伊藤町","zip_code":"6500032"},{"name":"江戸町","zip_code":"6500033"},{"name":"小野柄通","zip_code":"6510088"},{"name":"小野浜町","zip_code":"6510082"},{"name":"海岸通","zip_code":"6500024"},{"name":"籠池通","zip_code":"6510053"},{"name":"加納町","zip_code":"6500001"},{"name":"上筒井通","zip_code":"6510061"},{"name":"神若通","zip_code":"6510067"},{"name":"北長狭通","zip_code":"6500012"},{"name":"北野町","zip_code":"6500002"},{"name":"北本町通","zip_code":"6510075"},{"name":"京町","zip_code":"6500034"},{"name":"楠町","zip_code":"6500017"},{"name":"国香通","zip_code":"6510066"},{"name":"雲井通","zip_code":"6510096"},{"name":"熊内町","zip_code":"6510056"},{"name":"熊内橋通","zip_code":"6510055"},{"name":"神戸空港","zip_code":"6500048"},{"name":"神戸港地方","zip_code":"6500007"},{"name":"御幸通","zip_code":"6510087"},{"name":"琴ノ緒町","zip_code":"6510094"},{"name":"古湊通","zip_code":"6500026"},{"name":"栄町通","zip_code":"6500023"},{"name":"坂口通","zip_code":"6510062"},{"name":"三宮町","zip_code":"6500021"},{"name":"東雲通","zip_code":"6510079"},{"name":"下山手通","zip_code":"6500011"},{"name":"新港町","zip_code":"6500041"},{"name":"神仙寺通","zip_code":"6510051"},{"name":"諏訪山町","zip_code":"6500006"},{"name":"大日通","zip_code":"6510064"},{"name":"橘通","zip_code":"6500016"},{"name":"多聞通","zip_code":"6500015"},{"name":"筒井町","zip_code":"6510071"},{"name":"中尾町","zip_code":"6510057"},{"name":"中島通","zip_code":"6510052"},{"name":"中町通","zip_code":"6500027"},{"name":"中山手通","zip_code":"6500004"},{"name":"浪花町","zip_code":"6500035"},{"name":"西町","zip_code":"6500038"},{"name":"二宮町","zip_code":"6510093"},{"name":"布引町","zip_code":"6510097"},{"name":"野崎通","zip_code":"6510054"},{"name":"旗塚通","zip_code":"6510068"},{"name":"八幡通","zip_code":"6510085"},{"name":"波止場町","zip_code":"6500042"},{"name":"花隈町","zip_code":"6500013"},{"name":"浜辺通","zip_code":"6510083"},{"name":"播磨町","zip_code":"6500036"},{"name":"東川崎町","zip_code":"6500044"},{"name":"東町","zip_code":"6500031"},{"name":"日暮通","zip_code":"6510077"},{"name":"葺合町","zip_code":"6510058"},{"name":"再度筋町","zip_code":"6500005"},{"name":"弁天町","zip_code":"6500043"},{"name":"前町","zip_code":"6500039"},{"name":"真砂通","zip_code":"6510081"},{"name":"港島","zip_code":"6500045"},{"name":"港島中町","zip_code":"6500046"},{"name":"港島南町","zip_code":"6500047"},{"name":"南本町通","zip_code":"6510074"},{"name":"宮本通","zip_code":"6510063"},{"name":"元町高架通","zip_code":"6500014"},{"name":"元町通","zip_code":"6500022"},{"name":"八雲通","zip_code":"6510078"},{"name":"山本通","zip_code":"6500003"},{"name":"若菜通","zip_code":"6510091"},{"name":"脇浜海岸通","zip_code":"6510073"},{"name":"脇浜町","zip_code":"6510072"},{"name":"割塚通","zip_code":"6510065"}]},{"name":"神戸市西区","divisions":[{"name":"秋葉台","zip_code":"6512224"},{"name":"曙町","zip_code":"6512134"},{"name":"天が岡","zip_code":"6512141"},{"name":"伊川谷町有瀬","zip_code":"6512113"},{"name":"伊川谷町井吹","zip_code":"6512106"},{"name":"伊川谷町上脇","zip_code":"6512105"},{"name":"伊川谷町小寺","zip_code":"6512107"},{"name":"伊川谷町潤和","zip_code":"6512124"},{"name":"伊川谷町前開","zip_code":"6512108"},{"name":"伊川谷町長坂","zip_code":"6512104"},{"name":"伊川谷町布施畑","zip_code":"6512101"},{"name":"伊川谷町別府","zip_code":"6512115"},{"name":"池上","zip_code":"6512111"},{"name":"井吹台東町","zip_code":"6512242"},{"name":"井吹台西町","zip_code":"6512243"},{"name":"井吹台北町","zip_code":"6512244"},{"name":"今寺","zip_code":"6512114"},{"name":"岩岡町岩岡","zip_code":"6512401"},{"name":"岩岡町印路","zip_code":"6512402"},{"name":"岩岡町西脇","zip_code":"6512403"},{"name":"岩岡町野中","zip_code":"6512405"},{"name":"岩岡町古郷","zip_code":"6512404"},{"name":"枝吉","zip_code":"6512133"},{"name":"王塚台","zip_code":"6512135"},{"name":"大沢","zip_code":"6512414"},{"name":"大津和","zip_code":"6512112"},{"name":"押部谷町押部","zip_code":"6512212"},{"name":"押部谷町木津","zip_code":"6512222"},{"name":"押部谷町近江","zip_code":"6512203"},{"name":"押部谷町木見","zip_code":"6512223"},{"name":"押部谷町木幡","zip_code":"6512221"},{"name":"押部谷町細田","zip_code":"6512207"},{"name":"押部谷町栄","zip_code":"6512211"},{"name":"押部谷町高和","zip_code":"6512204"},{"name":"押部谷町西盛","zip_code":"6512202"},{"name":"押部谷町福住","zip_code":"6512213"},{"name":"押部谷町養田","zip_code":"6512205"},{"name":"押部谷町和田","zip_code":"6512206"},{"name":"学園西町","zip_code":"6512103"},{"name":"学園東町","zip_code":"6512102"},{"name":"樫野台","zip_code":"6512275"},{"name":"春日台","zip_code":"6512276"},{"name":"上新地","zip_code":"6512411"},{"name":"狩場台","zip_code":"6512272"},{"name":"神出町五百蔵","zip_code":"6512303"},{"name":"神出町池田","zip_code":"6512333"},{"name":"神出町古神","zip_code":"6512302"},{"name":"神出町小束野","zip_code":"6512304"},{"name":"神出町田井","zip_code":"6512313"},{"name":"神出町広谷","zip_code":"6512331"},{"name":"神出町宝勢","zip_code":"6512321"},{"name":"神出町紫合","zip_code":"6512334"},{"name":"神出町勝成","zip_code":"6512301"},{"name":"神出町東","zip_code":"6512311"},{"name":"神出町南","zip_code":"6512312"},{"name":"神出町北","zip_code":"6512332"},{"name":"北別府","zip_code":"6512117"},{"name":"北山台","zip_code":"6512215"},{"name":"糀台","zip_code":"6512273"},{"name":"小山","zip_code":"6512144"},{"name":"桜が丘中町","zip_code":"6512226"},{"name":"桜が丘東町","zip_code":"6512225"},{"name":"桜が丘西町","zip_code":"6512227"},{"name":"白水","zip_code":"6512129"},{"name":"前開南町","zip_code":"6512109"},{"name":"高雄台","zip_code":"6512201"},{"name":"高塚台","zip_code":"6512271"},{"name":"竹の台","zip_code":"6512274"},{"name":"玉津町居住","zip_code":"6512145"},{"name":"玉津町今津","zip_code":"6512128"},{"name":"玉津町上池","zip_code":"6512126"},{"name":"玉津町高津橋","zip_code":"6512122"},{"name":"玉津町小山","zip_code":"6512144"},{"name":"玉津町新方","zip_code":"6512125"},{"name":"玉津町田中","zip_code":"6512147"},{"name":"玉津町出合","zip_code":"6512137"},{"name":"玉津町西河原","zip_code":"6512127"},{"name":"玉津町二ツ屋","zip_code":"6512142"},{"name":"玉津町丸塚","zip_code":"6512143"},{"name":"玉津町水谷","zip_code":"6512121"},{"name":"玉津町吉田","zip_code":"6512138"},{"name":"月が丘","zip_code":"6512217"},{"name":"天王山","zip_code":"6512123"},{"name":"中野","zip_code":"6512136"},{"name":"長畑町","zip_code":"6512148"},{"name":"櫨谷町池谷","zip_code":"6512234"},{"name":"櫨谷町菅野","zip_code":"6512238"},{"name":"櫨谷町谷口","zip_code":"6512237"},{"name":"櫨谷町寺谷","zip_code":"6512231"},{"name":"櫨谷町栃木","zip_code":"6512236"},{"name":"櫨谷町友清","zip_code":"6512232"},{"name":"櫨谷町長谷","zip_code":"6512235"},{"name":"櫨谷町福谷","zip_code":"6512233"},{"name":"櫨谷町松本","zip_code":"6512239"},{"name":"平野町印路","zip_code":"6512266"},{"name":"平野町大野","zip_code":"6512256"},{"name":"平野町大畑","zip_code":"6512264"},{"name":"平野町堅田","zip_code":"6512261"},{"name":"平野町黒田","zip_code":"6512268"},{"name":"平野町慶明","zip_code":"6512255"},{"name":"平野町繁田","zip_code":"6512262"},{"name":"平野町芝崎","zip_code":"6512254"},{"name":"平野町下村","zip_code":"6512251"},{"name":"平野町常本","zip_code":"6512263"},{"name":"平野町中津","zip_code":"6512257"},{"name":"平野町西戸田","zip_code":"6512267"},{"name":"平野町福中","zip_code":"6512252"},{"name":"平野町宮前","zip_code":"6512265"},{"name":"平野町向井","zip_code":"6512253"},{"name":"福吉台","zip_code":"6512413"},{"name":"富士見が丘","zip_code":"6512214"},{"name":"二ツ屋","zip_code":"6512142"},{"name":"丸塚","zip_code":"6512143"},{"name":"美賀多台","zip_code":"6512277"},{"name":"水谷","zip_code":"6512121"},{"name":"見津が丘","zip_code":"6512228"},{"name":"南別府","zip_code":"6512116"},{"name":"美穂が丘","zip_code":"6512216"},{"name":"宮下","zip_code":"6512146"},{"name":"室谷","zip_code":"6512241"},{"name":"持子","zip_code":"6512131"},{"name":"森友","zip_code":"6512132"},{"name":"竜が岡","zip_code":"6512412"},{"name":"和井取","zip_code":"6512120"}]},{"name":"姫路市","divisions":[{"name":"相野","zip_code":"6712232"},{"name":"青山","zip_code":"6712222"},{"name":"青山西","zip_code":"6712224"},{"name":"青山南","zip_code":"6712223"},{"name":"青山北","zip_code":"6712221"},{"name":"朝日町","zip_code":"6700934"},{"name":"阿保","zip_code":"6700944"},{"name":"網干区網干浜","zip_code":"6711236"},{"name":"網干区大江島","zip_code":"6711231"},{"name":"網干区大江島寺前町","zip_code":"6711232"},{"name":"網干区大江島古川町","zip_code":"6711233"},{"name":"網干区興浜","zip_code":"6711241"},{"name":"網干区垣内中町","zip_code":"6711253"},{"name":"網干区垣内東町","zip_code":"6711252"},{"name":"網干区垣内西町","zip_code":"6711256"},{"name":"網干区垣内南町","zip_code":"6711255"},{"name":"網干区垣内北町","zip_code":"6711251"},{"name":"網干区垣内本町","zip_code":"6711257"},{"name":"網干区北新在家","zip_code":"6711235"},{"name":"網干区坂上","zip_code":"6711223"},{"name":"網干区坂出","zip_code":"6711228"},{"name":"網干区新在家","zip_code":"6711234"},{"name":"網干区田井","zip_code":"6711221"},{"name":"網干区高田","zip_code":"6711226"},{"name":"網干区津市場","zip_code":"6711224"},{"name":"網干区浜田","zip_code":"6711242"},{"name":"網干区福井","zip_code":"6711225"},{"name":"網干区宮内","zip_code":"6711222"},{"name":"網干区余子浜","zip_code":"6711254"},{"name":"網干区和久","zip_code":"6711227"},{"name":"嵐山町","zip_code":"6700029"},{"name":"飯田","zip_code":"6700974"},{"name":"家島町坊勢","zip_code":"6720103"},{"name":"家島町真浦","zip_code":"6720101"},{"name":"家島町宮","zip_code":"6720102"},{"name":"生野町","zip_code":"6700007"},{"name":"石倉","zip_code":"6712231"},{"name":"市川台","zip_code":"6700822"},{"name":"市川橋通","zip_code":"6700825"},{"name":"市之郷町","zip_code":"6700943"},{"name":"伊伝居","zip_code":"6700871"},{"name":"威徳寺町","zip_code":"6700816"},{"name":"井ノ口","zip_code":"6700983"},{"name":"今宿","zip_code":"6700052"},{"name":"岩端町","zip_code":"6700028"},{"name":"魚町","zip_code":"6700905"},{"name":"打越","zip_code":"6712246"},{"name":"梅ケ枝町","zip_code":"6700817"},{"name":"梅ケ谷町","zip_code":"6700894"},{"name":"駅前町","zip_code":"6700927"},{"name":"太市中","zip_code":"6712233"},{"name":"大塩町","zip_code":"6710101"},{"name":"大塩町汐咲","zip_code":"6710102"},{"name":"大塩町宮前","zip_code":"6710103"},{"name":"大津区恵美酒町","zip_code":"6711136"},{"name":"大津区大津町","zip_code":"6711146"},{"name":"大津区勘兵衛町","zip_code":"6711132"},{"name":"大津区北天満町","zip_code":"6711142"},{"name":"大津区吉美","zip_code":"6711133"},{"name":"大津区新町","zip_code":"6711135"},{"name":"大津区天神町","zip_code":"6711131"},{"name":"大津区天満","zip_code":"6711143"},{"name":"大津区長松","zip_code":"6711144"},{"name":"大津区西土井","zip_code":"6711141"},{"name":"大津区平松","zip_code":"6711145"},{"name":"大津区真砂町","zip_code":"6711134"},{"name":"大野町","zip_code":"6700868"},{"name":"岡田","zip_code":"6700982"},{"name":"岡町","zip_code":"6700026"},{"name":"奥山","zip_code":"6728003"},{"name":"柿山伏","zip_code":"6700037"},{"name":"鍵町","zip_code":"6700009"},{"name":"鍛冶町","zip_code":"6700002"},{"name":"片田町","zip_code":"6700045"},{"name":"刀出","zip_code":"6712241"},{"name":"勝原区朝日谷","zip_code":"6711204"},{"name":"勝原区大谷","zip_code":"6711205"},{"name":"勝原区勝原町","zip_code":"6711212"},{"name":"勝原区勝山町","zip_code":"6711202"},{"name":"勝原区熊見","zip_code":"6711211"},{"name":"勝原区下太田","zip_code":"6711201"},{"name":"勝原区宮田","zip_code":"6711213"},{"name":"勝原区山戸","zip_code":"6711214"},{"name":"勝原区丁","zip_code":"6711203"},{"name":"金屋町","zip_code":"6700005"},{"name":"兼田","zip_code":"6728001"},{"name":"上大野","zip_code":"6700896"},{"name":"上片町","zip_code":"6700041"},{"name":"上手野","zip_code":"6700065"},{"name":"神屋町","zip_code":"6700836"},{"name":"亀井町","zip_code":"6700925"},{"name":"亀山","zip_code":"6700973"},{"name":"川西台","zip_code":"6712213"},{"name":"川西","zip_code":"6712212"},{"name":"神田町","zip_code":"6700991"},{"name":"北今宿","zip_code":"6700057"},{"name":"北新在家","zip_code":"6700091"},{"name":"北原","zip_code":"6728002"},{"name":"北平野","zip_code":"6700893"},{"name":"北平野奥垣内","zip_code":"6700892"},{"name":"北平野台町","zip_code":"6700895"},{"name":"北平野南の町","zip_code":"6700887"},{"name":"北八代","zip_code":"6700877"},{"name":"北夢前台","zip_code":"6712202"},{"name":"木場","zip_code":"6728016"},{"name":"木場十八反町","zip_code":"6728017"},{"name":"木場前中町","zip_code":"6728018"},{"name":"木場前七反町","zip_code":"6728019"},{"name":"京口町","zip_code":"6700851"},{"name":"京町","zip_code":"6700824"},{"name":"楠町","zip_code":"6700826"},{"name":"久保町","zip_code":"6700916"},{"name":"栗山町","zip_code":"6700954"},{"name":"車崎","zip_code":"6700058"},{"name":"景福寺前","zip_code":"6700027"},{"name":"香寺町相坂","zip_code":"6792154"},{"name":"香寺町犬飼","zip_code":"6792131"},{"name":"香寺町岩部","zip_code":"6792141"},{"name":"香寺町久畑","zip_code":"6792167"},{"name":"香寺町香呂","zip_code":"6792151"},{"name":"香寺町須加院","zip_code":"6792132"},{"name":"香寺町田野","zip_code":"6792153"},{"name":"香寺町恒屋","zip_code":"6792165"},{"name":"香寺町中寺","zip_code":"6792164"},{"name":"香寺町中仁野","zip_code":"6792143"},{"name":"香寺町中村","zip_code":"6792166"},{"name":"香寺町中屋","zip_code":"6792144"},{"name":"香寺町野田","zip_code":"6792162"},{"name":"香寺町土師","zip_code":"6792163"},{"name":"香寺町広瀬","zip_code":"6792142"},{"name":"香寺町溝口","zip_code":"6792161"},{"name":"香寺町矢田部","zip_code":"6792155"},{"name":"香寺町行重","zip_code":"6792152"},{"name":"国府寺町","zip_code":"6700852"},{"name":"五軒邸","zip_code":"6700854"},{"name":"小姓町","zip_code":"6700043"},{"name":"琴岡町","zip_code":"6700035"},{"name":"古二階町","zip_code":"6700936"},{"name":"河間町","zip_code":"6700001"},{"name":"米屋町","zip_code":"6700003"},{"name":"小利木町","zip_code":"6700022"},{"name":"紺屋町","zip_code":"6700924"},{"name":"呉服町","zip_code":"6700923"},{"name":"五郎右衛門邸","zip_code":"6700857"},{"name":"西庄","zip_code":"6700981"},{"name":"材木町","zip_code":"6700025"},{"name":"幸町","zip_code":"6700835"},{"name":"堺町","zip_code":"6700014"},{"name":"坂田町","zip_code":"6700931"},{"name":"坂元町","zip_code":"6700016"},{"name":"定元町","zip_code":"6700994"},{"name":"三左衛門堀西の町","zip_code":"6700940"},{"name":"三左衛門堀東の町","zip_code":"6700949"},{"name":"三条町","zip_code":"6700953"},{"name":"塩町","zip_code":"6700904"},{"name":"飾磨区英賀","zip_code":"6728078"},{"name":"飾磨区英賀春日町","zip_code":"6728092"},{"name":"飾磨区英賀清水町","zip_code":"6728084"},{"name":"飾磨区英賀東町","zip_code":"6728087"},{"name":"飾磨区英賀西町","zip_code":"6728088"},{"name":"飾磨区英賀保駅前町","zip_code":"6728091"},{"name":"飾磨区英賀宮台","zip_code":"6728089"},{"name":"飾磨区英賀宮町","zip_code":"6728080"},{"name":"飾磨区阿成","zip_code":"6728037"},{"name":"飾磨区阿成植木","zip_code":"6728030"},{"name":"飾磨区阿成鹿古","zip_code":"6728038"},{"name":"飾磨区阿成下垣内","zip_code":"6728059"},{"name":"飾磨区阿成中垣内","zip_code":"6728058"},{"name":"飾磨区阿成渡場","zip_code":"6728039"},{"name":"飾磨区今在家","zip_code":"6728079"},{"name":"飾磨区今在家北","zip_code":"6728090"},{"name":"飾磨区入船町","zip_code":"6728076"},{"name":"飾磨区恵美酒","zip_code":"6728057"},{"name":"飾磨区大浜","zip_code":"6728062"},{"name":"飾磨区粕谷新町","zip_code":"6728077"},{"name":"飾磨区構","zip_code":"6728071"},{"name":"飾磨区鎌倉町","zip_code":"6728094"},{"name":"飾磨区上野田","zip_code":"6728043"},{"name":"飾磨区亀山","zip_code":"6728047"},{"name":"飾磨区加茂","zip_code":"6728074"},{"name":"飾磨区加茂北","zip_code":"6728073"},{"name":"飾磨区加茂東","zip_code":"6728070"},{"name":"飾磨区加茂南","zip_code":"6728069"},{"name":"飾磨区御幸","zip_code":"6728056"},{"name":"飾磨区栄町","zip_code":"6728053"},{"name":"飾磨区三和町","zip_code":"6728036"},{"name":"飾磨区思案橋","zip_code":"6728075"},{"name":"飾磨区清水","zip_code":"6728051"},{"name":"飾磨区下野田","zip_code":"6728044"},{"name":"飾磨区城南町","zip_code":"6728083"},{"name":"飾磨区須加","zip_code":"6728063"},{"name":"飾磨区高町","zip_code":"6728081"},{"name":"飾磨区蓼野町","zip_code":"6728072"},{"name":"飾磨区玉地","zip_code":"6728052"},{"name":"飾磨区付城","zip_code":"6728082"},{"name":"飾磨区天神","zip_code":"6728061"},{"name":"飾磨区都倉","zip_code":"6728046"},{"name":"飾磨区中島","zip_code":"6728035"},{"name":"飾磨区中野田","zip_code":"6728045"},{"name":"飾磨区中浜町","zip_code":"6728085"},{"name":"飾磨区西浜町","zip_code":"6728086"},{"name":"飾磨区野田町","zip_code":"6728040"},{"name":"飾磨区東堀","zip_code":"6728054"},{"name":"飾磨区富士見ケ丘町","zip_code":"6728098"},{"name":"飾磨区細江","zip_code":"6728064"},{"name":"飾磨区堀川町","zip_code":"6728025"},{"name":"飾磨区宮","zip_code":"6728055"},{"name":"飾磨区三宅","zip_code":"6728048"},{"name":"飾磨区妻鹿","zip_code":"6728031"},{"name":"飾磨区妻鹿東海町","zip_code":"6728032"},{"name":"飾磨区妻鹿常盤町","zip_code":"6728034"},{"name":"飾磨区妻鹿日田町","zip_code":"6728033"},{"name":"飾磨区矢倉町","zip_code":"6728093"},{"name":"飾磨区山崎","zip_code":"6728097"},{"name":"飾磨区山崎台","zip_code":"6728096"},{"name":"飾磨区若宮町","zip_code":"6728095"},{"name":"飾西","zip_code":"6712216"},{"name":"飾西台","zip_code":"6712215"},{"name":"飾東町大釜","zip_code":"6710203"},{"name":"飾東町大釜新","zip_code":"6710204"},{"name":"飾東町小原","zip_code":"6710209"},{"name":"飾東町小原新","zip_code":"6710201"},{"name":"飾東町唐端新","zip_code":"6710214"},{"name":"飾東町北野","zip_code":"6710202"},{"name":"飾東町北山","zip_code":"6710212"},{"name":"飾東町清住","zip_code":"6710205"},{"name":"飾東町佐良和","zip_code":"6710217"},{"name":"飾東町塩崎","zip_code":"6710211"},{"name":"飾東町志吹","zip_code":"6710216"},{"name":"飾東町庄","zip_code":"6710218"},{"name":"飾東町豊国","zip_code":"6710219"},{"name":"飾東町八重畑","zip_code":"6710208"},{"name":"飾東町山崎","zip_code":"6710207"},{"name":"飾東町夕陽ケ丘","zip_code":"6710215"},{"name":"四郷町明田","zip_code":"6710245"},{"name":"四郷町上鈴","zip_code":"6710241"},{"name":"四郷町坂元","zip_code":"6710246"},{"name":"四郷町中鈴","zip_code":"6710242"},{"name":"四郷町東阿保","zip_code":"6710247"},{"name":"四郷町本郷","zip_code":"6710243"},{"name":"四郷町見野","zip_code":"6710244"},{"name":"四郷町山脇","zip_code":"6710248"},{"name":"地内町","zip_code":"6700044"},{"name":"東雲町","zip_code":"6700046"},{"name":"忍町","zip_code":"6700917"},{"name":"実法寺","zip_code":"6712244"},{"name":"下手野","zip_code":"6700063"},{"name":"下寺町","zip_code":"6700932"},{"name":"十二所前町","zip_code":"6700911"},{"name":"庄田","zip_code":"6700951"},{"name":"城東町","zip_code":"6700841"},{"name":"城東町京口台","zip_code":"6700845"},{"name":"城東町五軒屋","zip_code":"6700849"},{"name":"城東町清水","zip_code":"6700843"},{"name":"城東町竹之門","zip_code":"6700848"},{"name":"城東町中河原","zip_code":"6700847"},{"name":"城東町野田","zip_code":"6700844"},{"name":"城東町毘沙門","zip_code":"6700842"},{"name":"城北新町","zip_code":"6700883"},{"name":"城北本町","zip_code":"6700884"},{"name":"書写","zip_code":"6712201"},{"name":"書写台","zip_code":"6712203"},{"name":"白国","zip_code":"6700808"},{"name":"白浜町","zip_code":"6728023"},{"name":"白浜町宇佐崎中","zip_code":"6728021"},{"name":"白浜町宇佐崎南","zip_code":"6728022"},{"name":"白浜町宇佐崎北","zip_code":"6728013"},{"name":"白浜町神田","zip_code":"6728011"},{"name":"白浜町寺家","zip_code":"6728012"},{"name":"白浜町灘浜","zip_code":"6728024"},{"name":"白銀町","zip_code":"6700902"},{"name":"城見台","zip_code":"6700803"},{"name":"城見町","zip_code":"6700831"},{"name":"新在家","zip_code":"6700095"},{"name":"新在家中の町","zip_code":"6700094"},{"name":"新在家本町","zip_code":"6700092"},{"name":"神和町","zip_code":"6700834"},{"name":"菅生台","zip_code":"6712243"},{"name":"総社本町","zip_code":"6700015"},{"name":"大黒壱丁町","zip_code":"6700853"},{"name":"大寿台","zip_code":"6700898"},{"name":"大善町","zip_code":"6700833"},{"name":"田井台","zip_code":"6712211"},{"name":"高岡新町","zip_code":"6700062"},{"name":"高尾町","zip_code":"6700915"},{"name":"鷹匠町","zip_code":"6700024"},{"name":"竹田町","zip_code":"6700013"},{"name":"龍野町","zip_code":"6700032"},{"name":"立町","zip_code":"6700903"},{"name":"田寺","zip_code":"6700086"},{"name":"田寺山手町","zip_code":"6700082"},{"name":"田寺東","zip_code":"6700081"},{"name":"玉手","zip_code":"6700985"},{"name":"中地","zip_code":"6700976"},{"name":"中地南町","zip_code":"6700975"},{"name":"町田","zip_code":"6712217"},{"name":"町坪","zip_code":"6700984"},{"name":"町坪南町","zip_code":"6700989"},{"name":"千代田町","zip_code":"6700993"},{"name":"継","zip_code":"6728004"},{"name":"佃町","zip_code":"6728049"},{"name":"辻井","zip_code":"6700083"},{"name":"土山","zip_code":"6700996"},{"name":"土山東の町","zip_code":"6700995"},{"name":"手柄","zip_code":"6700972"},{"name":"天神町","zip_code":"6700846"},{"name":"東郷町","zip_code":"6700821"},{"name":"同心町","zip_code":"6700856"},{"name":"豆腐町","zip_code":"6700914"},{"name":"砥堀","zip_code":"6700802"},{"name":"苫編","zip_code":"6700986"},{"name":"苫編南","zip_code":"6700987"},{"name":"豊沢町","zip_code":"6700964"},{"name":"豊富町甲丘","zip_code":"6792124"},{"name":"豊富町神谷","zip_code":"6792121"},{"name":"豊富町豊富","zip_code":"6792123"},{"name":"豊富町御蔭","zip_code":"6792122"},{"name":"名古山町","zip_code":"6700051"},{"name":"南条","zip_code":"6700952"},{"name":"二階町","zip_code":"6700922"},{"name":"西今宿","zip_code":"6700061"},{"name":"西駅前町","zip_code":"6700913"},{"name":"西新在家","zip_code":"6700096"},{"name":"西新町","zip_code":"6700033"},{"name":"西大寿台","zip_code":"6700897"},{"name":"西中島","zip_code":"6700805"},{"name":"西二階町","zip_code":"6700901"},{"name":"西延末","zip_code":"6700971"},{"name":"西八代町","zip_code":"6700876"},{"name":"西夢前台","zip_code":"6712214"},{"name":"西脇","zip_code":"6712234"},{"name":"仁豊野","zip_code":"6700801"},{"name":"農人町","zip_code":"6700038"},{"name":"南畝町","zip_code":"6700961"},{"name":"野里","zip_code":"6700811"},{"name":"野里上野町","zip_code":"6700814"},{"name":"野里慶雲寺前町","zip_code":"6700813"},{"name":"野里新町","zip_code":"6700862"},{"name":"野里大和町","zip_code":"6700815"},{"name":"野里月丘町","zip_code":"6700865"},{"name":"野里寺町","zip_code":"6700867"},{"name":"野里中町","zip_code":"6700864"},{"name":"野里東同心町","zip_code":"6700863"},{"name":"野里東町","zip_code":"6700861"},{"name":"野里堀留町","zip_code":"6700866"},{"name":"延末","zip_code":"6700966"},{"name":"白鳥台","zip_code":"6712245"},{"name":"博労町","zip_code":"6700906"},{"name":"橋之町","zip_code":"6700008"},{"name":"花影町","zip_code":"6700047"},{"name":"花田町一本松","zip_code":"6710253"},{"name":"花田町小川","zip_code":"6710255"},{"name":"花田町加納原田","zip_code":"6710252"},{"name":"花田町上原田","zip_code":"6710251"},{"name":"花田町高木","zip_code":"6710256"},{"name":"花田町勅旨","zip_code":"6710254"},{"name":"林田町大堤","zip_code":"6794231"},{"name":"林田町奥佐見","zip_code":"6794223"},{"name":"林田町上伊勢","zip_code":"6794232"},{"name":"林田町下伊勢","zip_code":"6794233"},{"name":"林田町上構","zip_code":"6794204"},{"name":"林田町中構","zip_code":"6794203"},{"name":"林田町下構","zip_code":"6794202"},{"name":"林田町口佐見","zip_code":"6794222"},{"name":"林田町久保","zip_code":"6794201"},{"name":"林田町新町","zip_code":"6794205"},{"name":"林田町中山下","zip_code":"6794214"},{"name":"林田町林田","zip_code":"6794206"},{"name":"林田町林谷","zip_code":"6794221"},{"name":"林田町松山","zip_code":"6794212"},{"name":"林田町六九谷","zip_code":"6794211"},{"name":"林田町八幡","zip_code":"6794215"},{"name":"林田町山田","zip_code":"6794213"},{"name":"東今宿","zip_code":"6700056"},{"name":"東駅前町","zip_code":"6700926"},{"name":"東辻井","zip_code":"6700084"},{"name":"東延末","zip_code":"6700965"},{"name":"東山","zip_code":"6728014"},{"name":"東夢前台","zip_code":"6700064"},{"name":"日出町","zip_code":"6700942"},{"name":"平野町","zip_code":"6700933"},{"name":"広畑区吾妻町","zip_code":"6711154"},{"name":"広畑区大町","zip_code":"6711155"},{"name":"広畑区蒲田","zip_code":"6711102"},{"name":"広畑区北河原町","zip_code":"6711111"},{"name":"広畑区北野町","zip_code":"6711112"},{"name":"広畑区京見町","zip_code":"6711106"},{"name":"広畑区小坂","zip_code":"6711156"},{"name":"広畑区小松町","zip_code":"6711152"},{"name":"広畑区才","zip_code":"6711104"},{"name":"広畑区清水町","zip_code":"6711113"},{"name":"広畑区城山町","zip_code":"6711108"},{"name":"広畑区末広町","zip_code":"6711115"},{"name":"広畑区正門通","zip_code":"6711116"},{"name":"広畑区高浜町","zip_code":"6711153"},{"name":"広畑区鶴町","zip_code":"6711124"},{"name":"広畑区長町","zip_code":"6711125"},{"name":"広畑区西蒲田","zip_code":"6711107"},{"name":"広畑区則直","zip_code":"6711105"},{"name":"広畑区早瀬町","zip_code":"6711151"},{"name":"広畑区東新町","zip_code":"6711121"},{"name":"広畑区東夢前台","zip_code":"6711101"},{"name":"広畑区西夢前台","zip_code":"6711103"},{"name":"広畑区富士町","zip_code":"6711123"},{"name":"広畑区本町","zip_code":"6711114"},{"name":"広畑区夢前町","zip_code":"6711122"},{"name":"広峰","zip_code":"6700882"},{"name":"広嶺山","zip_code":"6700891"},{"name":"福居町","zip_code":"6700855"},{"name":"福沢町","zip_code":"6700992"},{"name":"福中町","zip_code":"6700017"},{"name":"福本町","zip_code":"6700004"},{"name":"藤ケ台","zip_code":"6700066"},{"name":"双葉町","zip_code":"6700832"},{"name":"船丘町","zip_code":"6700034"},{"name":"船津町","zip_code":"6792101"},{"name":"船橋町","zip_code":"6700048"},{"name":"別所町家具町","zip_code":"6710225"},{"name":"別所町北宿","zip_code":"6710223"},{"name":"別所町小林","zip_code":"6710222"},{"name":"別所町佐土","zip_code":"6710224"},{"name":"別所町佐土新","zip_code":"6710226"},{"name":"別所町別所","zip_code":"6710221"},{"name":"北条","zip_code":"6700947"},{"name":"北条梅原町","zip_code":"6700945"},{"name":"北条永良町","zip_code":"6700946"},{"name":"北条宮の町","zip_code":"6700948"},{"name":"北条口","zip_code":"6700935"},{"name":"保城","zip_code":"6700804"},{"name":"坊主町","zip_code":"6700011"},{"name":"峰南町","zip_code":"6700881"},{"name":"本町","zip_code":"6700012"},{"name":"増位新町","zip_code":"6700806"},{"name":"増位本町","zip_code":"6700807"},{"name":"的形町福泊","zip_code":"6710112"},{"name":"的形町的形","zip_code":"6710111"},{"name":"丸尾町","zip_code":"6700827"},{"name":"御国野町国分寺","zip_code":"6710234"},{"name":"御国野町御着","zip_code":"6710232"},{"name":"御国野町西御着","zip_code":"6710233"},{"name":"御国野町深志野","zip_code":"6710231"},{"name":"神子岡前","zip_code":"6700055"},{"name":"御立中","zip_code":"6700073"},{"name":"御立東","zip_code":"6700072"},{"name":"御立西","zip_code":"6700074"},{"name":"御立北","zip_code":"6700071"},{"name":"緑台","zip_code":"6712247"},{"name":"南今宿","zip_code":"6700054"},{"name":"南駅前町","zip_code":"6700962"},{"name":"南車崎","zip_code":"6700053"},{"name":"南新在家","zip_code":"6700093"},{"name":"南町","zip_code":"6700912"},{"name":"南八代町","zip_code":"6700875"},{"name":"宮上町","zip_code":"6700823"},{"name":"宮西町","zip_code":"6700837"},{"name":"睦町","zip_code":"6700812"},{"name":"元塩町","zip_code":"6700937"},{"name":"元町","zip_code":"6700049"},{"name":"八家","zip_code":"6728015"},{"name":"八木町","zip_code":"6700006"},{"name":"八代","zip_code":"6700872"},{"name":"八代東光寺町","zip_code":"6700873"},{"name":"八代本町","zip_code":"6700874"},{"name":"八代緑ケ丘町","zip_code":"6700886"},{"name":"八代宮前町","zip_code":"6700885"},{"name":"安田","zip_code":"6700955"},{"name":"安富町安志","zip_code":"6712401"},{"name":"安富町植木野","zip_code":"6712426"},{"name":"安富町塩野","zip_code":"6712422"},{"name":"安富町末広","zip_code":"6712413"},{"name":"安富町瀬川","zip_code":"6712424"},{"name":"安富町関","zip_code":"6712416"},{"name":"安富町狭戸","zip_code":"6712423"},{"name":"安富町杤原","zip_code":"6712414"},{"name":"安富町長野","zip_code":"6712421"},{"name":"安富町名坂","zip_code":"6712412"},{"name":"安富町三坂","zip_code":"6712425"},{"name":"安富町三森","zip_code":"6712411"},{"name":"安富町皆河","zip_code":"6712415"},{"name":"柳町","zip_code":"6700023"},{"name":"山田町多田","zip_code":"6792111"},{"name":"山田町牧野","zip_code":"6792114"},{"name":"山田町西山田","zip_code":"6792115"},{"name":"山田町南山田","zip_code":"6792113"},{"name":"山田町北山田","zip_code":"6792112"},{"name":"山野井町","zip_code":"6700021"},{"name":"山畑新田","zip_code":"6700036"},{"name":"山吹","zip_code":"6700085"},{"name":"夢前町芦田","zip_code":"6712133"},{"name":"夢前町莇野","zip_code":"6712106"},{"name":"夢前町糸田","zip_code":"6712114"},{"name":"夢前町置本","zip_code":"6712122"},{"name":"夢前町高長","zip_code":"6712117"},{"name":"夢前町護持","zip_code":"6712136"},{"name":"夢前町古瀬畑","zip_code":"6712132"},{"name":"夢前町古知之庄","zip_code":"6712113"},{"name":"夢前町神種","zip_code":"6712105"},{"name":"夢前町塩田","zip_code":"6712112"},{"name":"夢前町新庄","zip_code":"6712102"},{"name":"夢前町杉之内","zip_code":"6712111"},{"name":"夢前町菅生澗","zip_code":"6712134"},{"name":"夢前町玉田","zip_code":"6712124"},{"name":"夢前町塚本","zip_code":"6712135"},{"name":"夢前町寺","zip_code":"6712116"},{"name":"夢前町戸倉","zip_code":"6712131"},{"name":"夢前町野畑","zip_code":"6712137"},{"name":"夢前町前之庄","zip_code":"6712103"},{"name":"夢前町又坂","zip_code":"6712115"},{"name":"夢前町宮置","zip_code":"6712121"},{"name":"夢前町山冨","zip_code":"6712123"},{"name":"夢前町山之内","zip_code":"6712101"},{"name":"吉田町","zip_code":"6700031"},{"name":"米田町","zip_code":"6700042"},{"name":"余部区上川原","zip_code":"6711263"},{"name":"余部区上余部","zip_code":"6711262"},{"name":"余部区下余部","zip_code":"6711261"},{"name":"六角","zip_code":"6712242"},{"name":"若菜町","zip_code":"6700941"},{"name":"綿町","zip_code":"6700921"}]},{"name":"尼崎市","divisions":[{"name":"猪名寺","zip_code":"6610981"},{"name":"稲葉荘","zip_code":"6600064"},{"name":"稲葉元町","zip_code":"6600055"},{"name":"今福","zip_code":"6600812"},{"name":"扇町","zip_code":"6600096"},{"name":"大島","zip_code":"6600076"},{"name":"大庄川田町","zip_code":"6600072"},{"name":"大庄中通","zip_code":"6600075"},{"name":"大庄西町","zip_code":"6600077"},{"name":"大庄北","zip_code":"6600063"},{"name":"大高洲町","zip_code":"6600842"},{"name":"大西町","zip_code":"6610023"},{"name":"大浜町","zip_code":"6600095"},{"name":"尾浜町","zip_code":"6610022"},{"name":"開明町","zip_code":"6600862"},{"name":"梶ケ島","zip_code":"6600821"},{"name":"上坂部","zip_code":"6610979"},{"name":"上ノ島町","zip_code":"6610014"},{"name":"瓦宮","zip_code":"6610971"},{"name":"神崎町","zip_code":"6610964"},{"name":"神田中通","zip_code":"6600884"},{"name":"神田南通","zip_code":"6600885"},{"name":"神田北通","zip_code":"6600883"},{"name":"北城内","zip_code":"6600826"},{"name":"北竹谷町","zip_code":"6600878"},{"name":"北大物町","zip_code":"6600804"},{"name":"北初島町","zip_code":"6600834"},{"name":"金楽寺町","zip_code":"6600806"},{"name":"杭瀬寺島","zip_code":"6600813"},{"name":"杭瀬本町","zip_code":"6600814"},{"name":"杭瀬南新町","zip_code":"6600822"},{"name":"杭瀬北新町","zip_code":"6600815"},{"name":"久々知","zip_code":"6610977"},{"name":"久々知西町","zip_code":"6610978"},{"name":"口田中","zip_code":"6610983"},{"name":"栗山町","zip_code":"6610013"},{"name":"玄番南之町","zip_code":"6600873"},{"name":"玄番北之町","zip_code":"6600872"},{"name":"食満","zip_code":"6610982"},{"name":"琴浦町","zip_code":"6600074"},{"name":"小中島","zip_code":"6610972"},{"name":"三反田町","zip_code":"6610024"},{"name":"潮江","zip_code":"6600808"},{"name":"汐町","zip_code":"6600866"},{"name":"椎堂","zip_code":"6610952"},{"name":"下坂部","zip_code":"6610975"},{"name":"常光寺","zip_code":"6600811"},{"name":"昭和通","zip_code":"6600881"},{"name":"昭和南通","zip_code":"6600882"},{"name":"水明町","zip_code":"6600082"},{"name":"末広町","zip_code":"6600094"},{"name":"崇徳院","zip_code":"6600071"},{"name":"善法寺町","zip_code":"6610973"},{"name":"大物町","zip_code":"6600823"},{"name":"高田町","zip_code":"6610963"},{"name":"竹谷町","zip_code":"6600876"},{"name":"立花町","zip_code":"6610025"},{"name":"建家町","zip_code":"6600871"},{"name":"田能","zip_code":"6610951"},{"name":"塚口町","zip_code":"6610002"},{"name":"塚口本町","zip_code":"6610001"},{"name":"築地","zip_code":"6600858"},{"name":"次屋","zip_code":"6610965"},{"name":"常松","zip_code":"6610046"},{"name":"常吉","zip_code":"6610042"},{"name":"鶴町","zip_code":"6600092"},{"name":"寺町","zip_code":"6600867"},{"name":"道意町","zip_code":"6600083"},{"name":"戸ノ内町","zip_code":"6610961"},{"name":"富松町","zip_code":"6610003"},{"name":"中在家町","zip_code":"6600851"},{"name":"中浜町","zip_code":"6600091"},{"name":"長洲中通","zip_code":"6600802"},{"name":"長洲東通","zip_code":"6600801"},{"name":"長洲西通","zip_code":"6600807"},{"name":"長洲本通","zip_code":"6600803"},{"name":"菜切山町","zip_code":"6600073"},{"name":"若王寺","zip_code":"6610974"},{"name":"七松町","zip_code":"6600052"},{"name":"西海岸町","zip_code":"6600093"},{"name":"西川","zip_code":"6610966"},{"name":"西昆陽","zip_code":"6610047"},{"name":"西桜木町","zip_code":"6600865"},{"name":"西高洲町","zip_code":"6600845"},{"name":"西立花町","zip_code":"6600054"},{"name":"西大物町","zip_code":"6600827"},{"name":"西長洲町","zip_code":"6600805"},{"name":"西難波町","zip_code":"6600893"},{"name":"西本町","zip_code":"6600874"},{"name":"西本町北通","zip_code":"6600863"},{"name":"西松島町","zip_code":"6600837"},{"name":"西御園町","zip_code":"6600868"},{"name":"西向島町","zip_code":"6600857"},{"name":"額田町","zip_code":"6610962"},{"name":"浜","zip_code":"6610967"},{"name":"浜田町","zip_code":"6600062"},{"name":"東海岸町","zip_code":"6600843"},{"name":"東桜木町","zip_code":"6600864"},{"name":"東園田町","zip_code":"6610953"},{"name":"東高洲町","zip_code":"6600841"},{"name":"東大物町","zip_code":"6600828"},{"name":"東塚口町","zip_code":"6610011"},{"name":"東七松町","zip_code":"6600051"},{"name":"東難波町","zip_code":"6600892"},{"name":"東初島町","zip_code":"6600832"},{"name":"東浜町","zip_code":"6600844"},{"name":"東本町","zip_code":"6600824"},{"name":"東松島町","zip_code":"6600831"},{"name":"東向島東之町","zip_code":"6600835"},{"name":"東向島西之町","zip_code":"6600856"},{"name":"扶桑町","zip_code":"6600891"},{"name":"船出","zip_code":"6600846"},{"name":"平左衛門町","zip_code":"6600087"},{"name":"丸島町","zip_code":"6600086"},{"name":"水堂町","zip_code":"6610026"},{"name":"御園","zip_code":"6610984"},{"name":"御園町","zip_code":"6600861"},{"name":"南清水","zip_code":"6610985"},{"name":"南城内","zip_code":"6600825"},{"name":"南竹谷町","zip_code":"6600875"},{"name":"南塚口町","zip_code":"6610012"},{"name":"南七松町","zip_code":"6600053"},{"name":"南初島町","zip_code":"6600833"},{"name":"南武庫之荘","zip_code":"6610033"},{"name":"宮内町","zip_code":"6600877"},{"name":"武庫川町","zip_code":"6600084"},{"name":"武庫町","zip_code":"6610044"},{"name":"武庫の里","zip_code":"6610041"},{"name":"武庫之荘","zip_code":"6610035"},{"name":"武庫之荘本町","zip_code":"6610031"},{"name":"武庫之荘東","zip_code":"6610032"},{"name":"武庫之荘西","zip_code":"6610034"},{"name":"武庫元町","zip_code":"6610043"},{"name":"武庫豊町","zip_code":"6610045"},{"name":"名神町","zip_code":"6610021"},{"name":"元浜町","zip_code":"6600085"},{"name":"弥生ケ丘町","zip_code":"6610970"},{"name":"蓬川荘園","zip_code":"6600061"},{"name":"蓬川町","zip_code":"6600081"}]},{"name":"明石市","divisions":[{"name":"相生町","zip_code":"6730882"},{"name":"明石公園","zip_code":"6730847"},{"name":"朝霧北町","zip_code":"6730851"},{"name":"朝霧台","zip_code":"6730852"},{"name":"朝霧町","zip_code":"6730866"},{"name":"朝霧東町","zip_code":"6730860"},{"name":"朝霧山手町","zip_code":"6730853"},{"name":"旭が丘","zip_code":"6730002"},{"name":"上ノ丸","zip_code":"6730846"},{"name":"魚住町金ケ崎","zip_code":"6740071"},{"name":"魚住町鴨池","zip_code":"6740073"},{"name":"魚住町清水","zip_code":"6740074"},{"name":"魚住町住吉","zip_code":"6740083"},{"name":"魚住町長坂寺","zip_code":"6740072"},{"name":"魚住町中尾","zip_code":"6740082"},{"name":"魚住町西岡","zip_code":"6740084"},{"name":"魚住町錦が丘","zip_code":"6740081"},{"name":"王子","zip_code":"6730022"},{"name":"大明石町","zip_code":"6730891"},{"name":"大久保町江井島","zip_code":"6740064"},{"name":"大久保町駅前","zip_code":"6740058"},{"name":"大久保町大窪","zip_code":"6740051"},{"name":"大久保町大久保町","zip_code":"6740067"},{"name":"大久保町高丘","zip_code":"6740057"},{"name":"大久保町谷八木","zip_code":"6740062"},{"name":"大久保町西島","zip_code":"6740065"},{"name":"大久保町西脇","zip_code":"6740054"},{"name":"大久保町福田","zip_code":"6740066"},{"name":"大久保町松陰","zip_code":"6740053"},{"name":"大久保町松陰新田","zip_code":"6740052"},{"name":"大久保町緑が丘","zip_code":"6740055"},{"name":"大久保町森田","zip_code":"6740061"},{"name":"大久保町八木","zip_code":"6740063"},{"name":"大久保町山手台","zip_code":"6740056"},{"name":"大久保町ゆりのき通","zip_code":"6740068"},{"name":"大久保町わかば","zip_code":"6740069"},{"name":"大蔵海岸通","zip_code":"6730879"},{"name":"大蔵天神町","zip_code":"6730875"},{"name":"大蔵中町","zip_code":"6730873"},{"name":"大蔵八幡町","zip_code":"6730871"},{"name":"大蔵本町","zip_code":"6730874"},{"name":"大蔵谷狩口","zip_code":"6730863"},{"name":"大蔵谷清水","zip_code":"6730865"},{"name":"大蔵谷東山","zip_code":"6730869"},{"name":"大蔵谷東山西山","zip_code":"6730864"},{"name":"大蔵谷奥","zip_code":"6730867"},{"name":"大蔵町","zip_code":"6730872"},{"name":"鍛治屋町","zip_code":"6730884"},{"name":"和坂","zip_code":"6730012"},{"name":"川崎町","zip_code":"6730014"},{"name":"貴崎","zip_code":"6730037"},{"name":"北朝霧丘","zip_code":"6730857"},{"name":"北王子町","zip_code":"6730021"},{"name":"小久保","zip_code":"6730005"},{"name":"材木町","zip_code":"6730893"},{"name":"茶園場町","zip_code":"6730849"},{"name":"桜町","zip_code":"6730885"},{"name":"沢野","zip_code":"6730008"},{"name":"新明町","zip_code":"6730027"},{"name":"硯町","zip_code":"6730028"},{"name":"大観町","zip_code":"6730897"},{"name":"太寺","zip_code":"6730845"},{"name":"太寺大野町","zip_code":"6730843"},{"name":"太寺天王町","zip_code":"6730841"},{"name":"大道町","zip_code":"6730029"},{"name":"鷹匠町","zip_code":"6730848"},{"name":"立石","zip_code":"6730032"},{"name":"田町","zip_code":"6730025"},{"name":"樽屋町","zip_code":"6730898"},{"name":"天文町","zip_code":"6730881"},{"name":"鳥羽","zip_code":"6730003"},{"name":"鳥羽西鳥羽","zip_code":"6730007"},{"name":"鳥羽二本松","zip_code":"6730006"},{"name":"鳥羽弁財天","zip_code":"6730004"},{"name":"中朝霧丘","zip_code":"6730855"},{"name":"中崎","zip_code":"6730883"},{"name":"西明石東町","zip_code":"6730009"},{"name":"西明石西町","zip_code":"6730049"},{"name":"西明石南町","zip_code":"6730041"},{"name":"西明石北町","zip_code":"6730018"},{"name":"西明石町","zip_code":"6730011"},{"name":"西朝霧丘","zip_code":"6730856"},{"name":"西新町","zip_code":"6730023"},{"name":"荷山町","zip_code":"6730842"},{"name":"野々上","zip_code":"6730017"},{"name":"花園町","zip_code":"6730015"},{"name":"林","zip_code":"6730034"},{"name":"林崎町","zip_code":"6730033"},{"name":"東朝霧丘","zip_code":"6730854"},{"name":"東仲ノ町","zip_code":"6730886"},{"name":"東野町","zip_code":"6730844"},{"name":"東人丸町","zip_code":"6730876"},{"name":"東藤江","zip_code":"6730042"},{"name":"東山町","zip_code":"6730868"},{"name":"人丸町","zip_code":"6730877"},{"name":"日富美町","zip_code":"6730896"},{"name":"藤江","zip_code":"6730044"},{"name":"藤が丘","zip_code":"6730046"},{"name":"二見町東二見","zip_code":"6740092"},{"name":"二見町西二見","zip_code":"6740094"},{"name":"二見町西二見駅前","zip_code":"6740095"},{"name":"二見町南二見","zip_code":"6740093"},{"name":"二見町福里","zip_code":"6740091"},{"name":"船上町","zip_code":"6730026"},{"name":"別所町","zip_code":"6730038"},{"name":"本町","zip_code":"6730892"},{"name":"松江","zip_code":"6730036"},{"name":"松が丘","zip_code":"6730862"},{"name":"松が丘北町","zip_code":"6730861"},{"name":"松の内","zip_code":"6730016"},{"name":"岬町","zip_code":"6730895"},{"name":"港町","zip_code":"6730894"},{"name":"南王子町","zip_code":"6730024"},{"name":"南貴崎町","zip_code":"6730035"},{"name":"宮の上","zip_code":"6730031"},{"name":"明南町","zip_code":"6730001"},{"name":"山下町","zip_code":"6730878"},{"name":"和坂稲荷町","zip_code":"6730013"}]},{"name":"西宮市","divisions":[{"name":"相生町","zip_code":"6620063"},{"name":"青木町","zip_code":"6620862"},{"name":"青葉台","zip_code":"6691122"},{"name":"上鳴尾町","zip_code":"6638186"},{"name":"朝凪町","zip_code":"6620925"},{"name":"芦原町","zip_code":"6620842"},{"name":"愛宕山","zip_code":"6620871"},{"name":"荒戎町","zip_code":"6620946"},{"name":"荒木町","zip_code":"6638025"},{"name":"池田町","zip_code":"6620911"},{"name":"池開町","zip_code":"6638137"},{"name":"石在町","zip_code":"6620928"},{"name":"石刎町","zip_code":"6620074"},{"name":"泉町","zip_code":"6620932"},{"name":"一ケ谷町","zip_code":"6620873"},{"name":"市庭町","zip_code":"6620975"},{"name":"一里山町","zip_code":"6638002"},{"name":"今在家町","zip_code":"6620972"},{"name":"今津曙町","zip_code":"6638214"},{"name":"今津上野町","zip_code":"6638213"},{"name":"今津大東町","zip_code":"6638221"},{"name":"今津久寿川町","zip_code":"6638222"},{"name":"今津社前町","zip_code":"6638229"},{"name":"今津巽町","zip_code":"6638223"},{"name":"今津出在家町","zip_code":"6638227"},{"name":"今津西浜町","zip_code":"6638225"},{"name":"今津野田町","zip_code":"6638212"},{"name":"今津二葉町","zip_code":"6638228"},{"name":"今津真砂町","zip_code":"6638224"},{"name":"今津水波町","zip_code":"6638215"},{"name":"今津港町","zip_code":"6638226"},{"name":"今津山中町","zip_code":"6638211"},{"name":"上ケ原山田町","zip_code":"6620886"},{"name":"上ケ原山手町","zip_code":"6620885"},{"name":"上ケ原一番町","zip_code":"6620891"},{"name":"上ケ原二番町","zip_code":"6620892"},{"name":"上ケ原三番町","zip_code":"6620893"},{"name":"上ケ原四番町","zip_code":"6620894"},{"name":"上ケ原五番町","zip_code":"6620895"},{"name":"上ケ原六番町","zip_code":"6620896"},{"name":"上ケ原七番町","zip_code":"6620881"},{"name":"上ケ原八番町","zip_code":"6620882"},{"name":"上ケ原九番町","zip_code":"6620883"},{"name":"上ケ原十番町","zip_code":"6620884"},{"name":"上田中町","zip_code":"6638134"},{"name":"上田東町","zip_code":"6638133"},{"name":"上田西町","zip_code":"6638135"},{"name":"江上町","zip_code":"6620855"},{"name":"枝川町","zip_code":"6638143"},{"name":"老松町","zip_code":"6620085"},{"name":"大井手町","zip_code":"6620036"},{"name":"大島町","zip_code":"6638017"},{"name":"大谷町","zip_code":"6620054"},{"name":"大畑町","zip_code":"6620836"},{"name":"大浜町","zip_code":"6620957"},{"name":"大森町","zip_code":"6638023"},{"name":"大屋町","zip_code":"6638106"},{"name":"岡田山","zip_code":"6620827"},{"name":"奥畑","zip_code":"6620022"},{"name":"御茶家所町","zip_code":"6620961"},{"name":"学文殿町","zip_code":"6638182"},{"name":"神楽町","zip_code":"6620977"},{"name":"笠屋町","zip_code":"6638136"},{"name":"霞町","zip_code":"6620052"},{"name":"甲山町","zip_code":"6620001"},{"name":"上大市","zip_code":"6638003"},{"name":"神垣町","zip_code":"6620865"},{"name":"上甲子園","zip_code":"6638114"},{"name":"上甲東園","zip_code":"6620813"},{"name":"神園町","zip_code":"6620027"},{"name":"上之町","zip_code":"6638021"},{"name":"上葭原町","zip_code":"6620954"},{"name":"柏堂町","zip_code":"6620097"},{"name":"柏堂西町","zip_code":"6620098"},{"name":"川添町","zip_code":"6620944"},{"name":"川西町","zip_code":"6620951"},{"name":"河原町","zip_code":"6620861"},{"name":"川東町","zip_code":"6620945"},{"name":"瓦林町","zip_code":"6638107"},{"name":"神呪町","zip_code":"6620823"},{"name":"神原","zip_code":"6620021"},{"name":"菊谷町","zip_code":"6620078"},{"name":"木津山町","zip_code":"6620062"},{"name":"北口町","zip_code":"6638035"},{"name":"北昭和町","zip_code":"6620833"},{"name":"北名次町","zip_code":"6620025"},{"name":"北山町","zip_code":"6620091"},{"name":"北六甲台","zip_code":"6511413"},{"name":"清瀬台","zip_code":"6691131"},{"name":"久出ケ谷町","zip_code":"6620077"},{"name":"国見台","zip_code":"6691135"},{"name":"久保町","zip_code":"6620927"},{"name":"熊野町","zip_code":"6638103"},{"name":"雲井町","zip_code":"6620064"},{"name":"鞍掛町","zip_code":"6620926"},{"name":"苦楽園一番町","zip_code":"6620083"},{"name":"苦楽園二番町","zip_code":"6620082"},{"name":"苦楽園三番町","zip_code":"6620081"},{"name":"苦楽園四番町","zip_code":"6620088"},{"name":"苦楽園五番町","zip_code":"6620087"},{"name":"苦楽園六番町","zip_code":"6620086"},{"name":"結善町","zip_code":"6620037"},{"name":"剣谷町","zip_code":"6620099"},{"name":"甲子園網引町","zip_code":"6638156"},{"name":"甲子園浦風町","zip_code":"6638165"},{"name":"甲子園洲鳥町","zip_code":"6638151"},{"name":"甲子園砂田町","zip_code":"6638162"},{"name":"甲子園高潮町","zip_code":"6638166"},{"name":"甲子園浜田町","zip_code":"6638167"},{"name":"甲子園春風町","zip_code":"6638161"},{"name":"甲子園三保町","zip_code":"6638163"},{"name":"甲子園六石町","zip_code":"6638164"},{"name":"甲子園一番町","zip_code":"6638171"},{"name":"甲子園二番町","zip_code":"6638172"},{"name":"甲子園三番町","zip_code":"6638173"},{"name":"甲子園四番町","zip_code":"6638174"},{"name":"甲子園五番町","zip_code":"6638175"},{"name":"甲子園六番町","zip_code":"6638176"},{"name":"甲子園七番町","zip_code":"6638177"},{"name":"甲子園八番町","zip_code":"6638178"},{"name":"甲子園九番町","zip_code":"6638179"},{"name":"甲子園口","zip_code":"6638113"},{"name":"甲子園口北町","zip_code":"6638112"},{"name":"甲子園町","zip_code":"6638152"},{"name":"甲子園浜","zip_code":"6638155"},{"name":"甲東園","zip_code":"6620812"},{"name":"甲風園","zip_code":"6620832"},{"name":"郷免町","zip_code":"6620965"},{"name":"甲陽園山王町","zip_code":"6620018"},{"name":"甲陽園東山町","zip_code":"6620012"},{"name":"甲陽園西山町","zip_code":"6620017"},{"name":"甲陽園日之出町","zip_code":"6620014"},{"name":"甲陽園本庄町","zip_code":"6620015"},{"name":"甲陽園目神山町","zip_code":"6620011"},{"name":"甲陽園若江町","zip_code":"6620016"},{"name":"甑岩町","zip_code":"6620092"},{"name":"越水社家郷山","zip_code":"6620006"},{"name":"越水町","zip_code":"6620864"},{"name":"小曽根町","zip_code":"6638122"},{"name":"寿町","zip_code":"6620047"},{"name":"小松東町","zip_code":"6638123"},{"name":"小松西町","zip_code":"6638125"},{"name":"小松南町","zip_code":"6638124"},{"name":"小松北町","zip_code":"6638126"},{"name":"小松町","zip_code":"6638127"},{"name":"西福町","zip_code":"6620844"},{"name":"桜谷町","zip_code":"6620032"},{"name":"桜町","zip_code":"6620071"},{"name":"五月ケ丘","zip_code":"6620875"},{"name":"里中町","zip_code":"6638183"},{"name":"産所町","zip_code":"6620978"},{"name":"塩瀬町生瀬","zip_code":"6691101"},{"name":"塩瀬町名塩","zip_code":"6691251"},{"name":"獅子ケ口町","zip_code":"6620026"},{"name":"清水町","zip_code":"6620033"},{"name":"下大市東町","zip_code":"6638004"},{"name":"下大市西町","zip_code":"6638005"},{"name":"下葭原町","zip_code":"6620956"},{"name":"社家町","zip_code":"6620974"},{"name":"鷲林寺","zip_code":"6620004"},{"name":"鷲林寺町","zip_code":"6620003"},{"name":"鷲林寺南町","zip_code":"6620002"},{"name":"城ケ堀町","zip_code":"6620856"},{"name":"松籟荘","zip_code":"6620822"},{"name":"城山","zip_code":"6620023"},{"name":"神祇官町","zip_code":"6620843"},{"name":"新甲陽町","zip_code":"6620013"},{"name":"神明町","zip_code":"6620845"},{"name":"末広町","zip_code":"6620041"},{"name":"角石町","zip_code":"6620096"},{"name":"すみれ台","zip_code":"6511432"},{"name":"染殿町","zip_code":"6620913"},{"name":"大社町","zip_code":"6620867"},{"name":"高木東町","zip_code":"6638033"},{"name":"高木西町","zip_code":"6638032"},{"name":"高座町","zip_code":"6620872"},{"name":"高須町","zip_code":"6638141"},{"name":"高塚町","zip_code":"6620066"},{"name":"高畑町","zip_code":"6638202"},{"name":"高松町","zip_code":"6638204"},{"name":"田代町","zip_code":"6638201"},{"name":"田近野町","zip_code":"6638001"},{"name":"建石町","zip_code":"6620943"},{"name":"田中町","zip_code":"6620973"},{"name":"段上町","zip_code":"6638006"},{"name":"千歳町","zip_code":"6620046"},{"name":"津田町","zip_code":"6620853"},{"name":"堤町","zip_code":"6638012"},{"name":"津門綾羽町","zip_code":"6638244"},{"name":"津門飯田町","zip_code":"6638242"},{"name":"津門稲荷町","zip_code":"6638247"},{"name":"津門大箇町","zip_code":"6638243"},{"name":"津門大塚町","zip_code":"6638241"},{"name":"津門呉羽町","zip_code":"6638245"},{"name":"津門住江町","zip_code":"6638234"},{"name":"津門西口町","zip_code":"6638231"},{"name":"津門仁辺町","zip_code":"6638246"},{"name":"津門宝津町","zip_code":"6638232"},{"name":"津門川町","zip_code":"6638233"},{"name":"天道町","zip_code":"6638104"},{"name":"常磐町","zip_code":"6620043"},{"name":"戸崎町","zip_code":"6638121"},{"name":"戸田町","zip_code":"6620916"},{"name":"殿山町","zip_code":"6620065"},{"name":"中島町","zip_code":"6638105"},{"name":"中須佐町","zip_code":"6620851"},{"name":"中殿町","zip_code":"6620852"},{"name":"中浜町","zip_code":"6620952"},{"name":"中前田町","zip_code":"6620857"},{"name":"中屋町","zip_code":"6620868"},{"name":"中葭原町","zip_code":"6620955"},{"name":"長田町","zip_code":"6638034"},{"name":"名塩","zip_code":"6691147"},{"name":"名塩赤坂","zip_code":"6691149"},{"name":"名塩ガーデン","zip_code":"6691143"},{"name":"名塩木之元","zip_code":"6691136"},{"name":"名塩さくら台","zip_code":"6691146"},{"name":"名塩山荘","zip_code":"6691142"},{"name":"名塩茶園町","zip_code":"6691144"},{"name":"名塩東久保","zip_code":"6691148"},{"name":"名塩平成台","zip_code":"6691145"},{"name":"名塩南台","zip_code":"6691132"},{"name":"名塩美山","zip_code":"6691162"},{"name":"名塩新町","zip_code":"6691134"},{"name":"名次町","zip_code":"6620024"},{"name":"生瀬東町","zip_code":"6691103"},{"name":"生瀬高台","zip_code":"6691111"},{"name":"生瀬町","zip_code":"6691102"},{"name":"生瀬武庫川町","zip_code":"6691104"},{"name":"鳴尾町","zip_code":"6638184"},{"name":"鳴尾浜","zip_code":"6638142"},{"name":"南郷町","zip_code":"6620038"},{"name":"仁川五ケ山町","zip_code":"6620814"},{"name":"仁川百合野町","zip_code":"6620815"},{"name":"仁川町","zip_code":"6620811"},{"name":"西田町","zip_code":"6620034"},{"name":"西宮浜","zip_code":"6620934"},{"name":"西波止町","zip_code":"6620933"},{"name":"西平町","zip_code":"6620093"},{"name":"能登町","zip_code":"6620838"},{"name":"野間町","zip_code":"6638015"},{"name":"羽衣町","zip_code":"6620051"},{"name":"櫨塚町","zip_code":"6620854"},{"name":"花園町","zip_code":"6638187"},{"name":"花の峯","zip_code":"6691121"},{"name":"馬場町","zip_code":"6620915"},{"name":"浜甲子園","zip_code":"6638154"},{"name":"浜町","zip_code":"6620942"},{"name":"浜松原町","zip_code":"6620923"},{"name":"浜脇町","zip_code":"6620941"},{"name":"林田町","zip_code":"6638014"},{"name":"東鳴尾町","zip_code":"6638132"},{"name":"東浜町","zip_code":"6620924"},{"name":"東町","zip_code":"6620922"},{"name":"東山台","zip_code":"6691133"},{"name":"毘沙門町","zip_code":"6620094"},{"name":"樋之池町","zip_code":"6620084"},{"name":"樋ノ口町","zip_code":"6638011"},{"name":"日野町","zip_code":"6638022"},{"name":"平木町","zip_code":"6620835"},{"name":"平松町","zip_code":"6620044"},{"name":"広田町","zip_code":"6620837"},{"name":"深津町","zip_code":"6638203"},{"name":"深谷町","zip_code":"6620067"},{"name":"伏原町","zip_code":"6638031"},{"name":"二見町","zip_code":"6638111"},{"name":"古川町","zip_code":"6638185"},{"name":"分銅町","zip_code":"6620042"},{"name":"宝生ケ丘","zip_code":"6691112"},{"name":"豊楽町","zip_code":"6620072"},{"name":"堀切町","zip_code":"6620953"},{"name":"本町","zip_code":"6620914"},{"name":"前浜町","zip_code":"6620931"},{"name":"松生町","zip_code":"6620076"},{"name":"松風町","zip_code":"6620073"},{"name":"松ケ丘町","zip_code":"6620061"},{"name":"松下町","zip_code":"6620962"},{"name":"松園町","zip_code":"6620053"},{"name":"松並町","zip_code":"6638102"},{"name":"松原町","zip_code":"6620912"},{"name":"松山町","zip_code":"6638101"},{"name":"丸橋町","zip_code":"6620831"},{"name":"満池谷町","zip_code":"6620031"},{"name":"美作町","zip_code":"6620095"},{"name":"南甲子園","zip_code":"6638153"},{"name":"南越木岩町","zip_code":"6620075"},{"name":"南昭和町","zip_code":"6620834"},{"name":"宮西町","zip_code":"6620976"},{"name":"宮前町","zip_code":"6620947"},{"name":"武庫川町","zip_code":"6638131"},{"name":"室川町","zip_code":"6620863"},{"name":"森下町","zip_code":"6620846"},{"name":"門前町","zip_code":"6638013"},{"name":"門戸岡田町","zip_code":"6620826"},{"name":"門戸東町","zip_code":"6620824"},{"name":"門戸西町","zip_code":"6620828"},{"name":"門戸荘","zip_code":"6620825"},{"name":"薬師町","zip_code":"6638024"},{"name":"屋敷町","zip_code":"6620963"},{"name":"安井町","zip_code":"6620045"},{"name":"柳本町","zip_code":"6620866"},{"name":"山口町上山口","zip_code":"6511421"},{"name":"山口町金仙寺","zip_code":"6511422"},{"name":"山口町香花園","zip_code":"6511424"},{"name":"山口町下山口","zip_code":"6511412"},{"name":"山口町中野","zip_code":"6511433"},{"name":"山口町名来","zip_code":"6511411"},{"name":"山口町阪神流通センター","zip_code":"6511431"},{"name":"山口町船坂","zip_code":"6511423"},{"name":"湯元町","zip_code":"6620005"},{"name":"弓場町","zip_code":"6620964"},{"name":"用海町","zip_code":"6620921"},{"name":"与古道町","zip_code":"6620917"},{"name":"両度町","zip_code":"6620841"},{"name":"六湛寺町","zip_code":"6620918"},{"name":"六軒町","zip_code":"6620874"},{"name":"若草町","zip_code":"6638181"},{"name":"若松町","zip_code":"6620035"},{"name":"若山町","zip_code":"6638016"},{"name":"和上町","zip_code":"6620971"}]},{"name":"洲本市","divisions":[{"name":"相川組","zip_code":"6562531"},{"name":"安乎町北谷","zip_code":"6562124"},{"name":"安乎町中田","zip_code":"6562122"},{"name":"安乎町古宮","zip_code":"6562123"},{"name":"安乎町平安浦","zip_code":"6562121"},{"name":"安乎町宮野原","zip_code":"6562126"},{"name":"安乎町山田原","zip_code":"6562125"},{"name":"鮎屋","zip_code":"6560111"},{"name":"池田","zip_code":"6560043"},{"name":"池内","zip_code":"6560042"},{"name":"宇原","zip_code":"6560054"},{"name":"宇山","zip_code":"6560012"},{"name":"大野","zip_code":"6560055"},{"name":"奥畑","zip_code":"6560018"},{"name":"納","zip_code":"6560101"},{"name":"小路谷","zip_code":"6560023"},{"name":"海岸通","zip_code":"6560022"},{"name":"金屋","zip_code":"6560046"},{"name":"上加茂","zip_code":"6560015"},{"name":"上内膳","zip_code":"6560017"},{"name":"上物部","zip_code":"6560053"},{"name":"木戸","zip_code":"6560045"},{"name":"桑間","zip_code":"6560014"},{"name":"五色町鮎原鮎の郷","zip_code":"6561314"},{"name":"五色町鮎原宇谷","zip_code":"6561315"},{"name":"五色町鮎原上","zip_code":"6561322"},{"name":"五色町鮎原栢野","zip_code":"6561316"},{"name":"五色町鮎原小山田","zip_code":"6561317"},{"name":"五色町鮎原下","zip_code":"6561326"},{"name":"五色町鮎原神陽","zip_code":"6561318"},{"name":"五色町鮎原田処","zip_code":"6561327"},{"name":"五色町鮎原葛尾","zip_code":"6561311"},{"name":"五色町鮎原塔下","zip_code":"6561323"},{"name":"五色町鮎原中邑","zip_code":"6561321"},{"name":"五色町鮎原西","zip_code":"6561313"},{"name":"五色町鮎原南谷","zip_code":"6561325"},{"name":"五色町鮎原三野畑","zip_code":"6561324"},{"name":"五色町鮎原吉田","zip_code":"6561312"},{"name":"五色町上堺","zip_code":"6561336"},{"name":"五色町下堺","zip_code":"6561337"},{"name":"五色町都志","zip_code":"6561301"},{"name":"五色町都志大宮","zip_code":"6561303"},{"name":"五色町都志米山","zip_code":"6561302"},{"name":"五色町都志大日","zip_code":"6561331"},{"name":"五色町都志角川","zip_code":"6561341"},{"name":"五色町都志万歳","zip_code":"6561304"},{"name":"五色町鳥飼浦","zip_code":"6561344"},{"name":"五色町鳥飼上","zip_code":"6561342"},{"name":"五色町鳥飼中","zip_code":"6561343"},{"name":"五色町広石上","zip_code":"6561333"},{"name":"五色町広石北","zip_code":"6561332"},{"name":"五色町広石下","zip_code":"6561335"},{"name":"五色町広石中","zip_code":"6561334"},{"name":"栄町","zip_code":"6560026"},{"name":"塩屋","zip_code":"6560021"},{"name":"下加茂","zip_code":"6560013"},{"name":"下内膳","zip_code":"6560016"},{"name":"新村","zip_code":"6560041"},{"name":"炬口","zip_code":"6560011"},{"name":"千草","zip_code":"6560031"},{"name":"津田","zip_code":"6560052"},{"name":"中川原町厚浜","zip_code":"6560001"},{"name":"中川原町市原","zip_code":"6560005"},{"name":"中川原町中川原","zip_code":"6560002"},{"name":"中川原町二ツ石","zip_code":"6560006"},{"name":"中川原町三木田","zip_code":"6560003"},{"name":"中川原町安坂","zip_code":"6560004"},{"name":"中津川組","zip_code":"6562532"},{"name":"畑田組","zip_code":"6562533"},{"name":"本町","zip_code":"6560025"},{"name":"前平","zip_code":"6560044"},{"name":"港","zip_code":"6560027"},{"name":"物部","zip_code":"6560051"},{"name":"山手","zip_code":"6560024"},{"name":"由良","zip_code":"6562541"},{"name":"由良町内田","zip_code":"6562542"},{"name":"由良町由良","zip_code":"6562543"}]},{"name":"芦屋市","divisions":[{"name":"朝日ケ丘町","zip_code":"6590012"},{"name":"伊勢町","zip_code":"6590052"},{"name":"岩園町","zip_code":"6590013"},{"name":"打出小槌町","zip_code":"6590028"},{"name":"打出町","zip_code":"6590022"},{"name":"大原町","zip_code":"6590092"},{"name":"大桝町","zip_code":"6590066"},{"name":"奥池町","zip_code":"6590003"},{"name":"奥池南町","zip_code":"6590004"},{"name":"奥山","zip_code":"6590002"},{"name":"海洋町","zip_code":"6590035"},{"name":"春日町","zip_code":"6590021"},{"name":"上宮川町","zip_code":"6590061"},{"name":"川西町","zip_code":"6590072"},{"name":"公光町","zip_code":"6590065"},{"name":"楠町","zip_code":"6590015"},{"name":"呉川町","zip_code":"6590051"},{"name":"剣谷","zip_code":"6590001"},{"name":"三条町","zip_code":"6590087"},{"name":"三条南町","zip_code":"6590086"},{"name":"潮見町","zip_code":"6590043"},{"name":"清水町","zip_code":"6590076"},{"name":"城山","zip_code":"6590081"},{"name":"親王塚町","zip_code":"6590016"},{"name":"涼風町","zip_code":"6590036"},{"name":"精道町","zip_code":"6590064"},{"name":"大東町","zip_code":"6590023"},{"name":"高浜町","zip_code":"6590033"},{"name":"竹園町","zip_code":"6590055"},{"name":"茶屋之町","zip_code":"6590067"},{"name":"月若町","zip_code":"6590084"},{"name":"津知町","zip_code":"6590075"},{"name":"業平町","zip_code":"6590068"},{"name":"南宮町","zip_code":"6590024"},{"name":"新浜町","zip_code":"6590031"},{"name":"西芦屋町","zip_code":"6590085"},{"name":"西蔵町","zip_code":"6590026"},{"name":"西山町","zip_code":"6590083"},{"name":"浜芦屋町","zip_code":"6590054"},{"name":"浜風町","zip_code":"6590032"},{"name":"浜町","zip_code":"6590025"},{"name":"東芦屋町","zip_code":"6590095"},{"name":"東山町","zip_code":"6590091"},{"name":"平田北町","zip_code":"6590073"},{"name":"平田町","zip_code":"6590074"},{"name":"船戸町","zip_code":"6590093"},{"name":"前田町","zip_code":"6590071"},{"name":"松ノ内町","zip_code":"6590094"},{"name":"松浜町","zip_code":"6590053"},{"name":"翠ケ丘町","zip_code":"6590014"},{"name":"緑町","zip_code":"6590042"},{"name":"南浜町","zip_code":"6590037"},{"name":"宮川町","zip_code":"6590063"},{"name":"宮塚町","zip_code":"6590062"},{"name":"山芦屋町","zip_code":"6590082"},{"name":"山手町","zip_code":"6590096"},{"name":"陽光町","zip_code":"6590034"},{"name":"六麓荘町","zip_code":"6590011"},{"name":"若葉町","zip_code":"6590041"},{"name":"若宮町","zip_code":"6590027"}]},{"name":"伊丹市","divisions":[{"name":"荒牧","zip_code":"6640001"},{"name":"荒牧南","zip_code":"6640008"},{"name":"安堂寺町","zip_code":"6640864"},{"name":"池尻","zip_code":"6640027"},{"name":"伊丹","zip_code":"6640846"},{"name":"稲野町","zip_code":"6640861"},{"name":"鋳物師","zip_code":"6640011"},{"name":"岩屋","zip_code":"6640843"},{"name":"梅ノ木","zip_code":"6640856"},{"name":"大鹿","zip_code":"6640899"},{"name":"大野","zip_code":"6640003"},{"name":"荻野","zip_code":"6640002"},{"name":"荻野西","zip_code":"6640031"},{"name":"奥畑","zip_code":"6640025"},{"name":"小阪田","zip_code":"5630801"},{"name":"柏木町","zip_code":"6640863"},{"name":"春日丘","zip_code":"6640893"},{"name":"北伊丹","zip_code":"6640831"},{"name":"北河原","zip_code":"6640837"},{"name":"北園","zip_code":"6640891"},{"name":"北野","zip_code":"6640007"},{"name":"北本町","zip_code":"6640836"},{"name":"行基町","zip_code":"6640857"},{"name":"口酒井","zip_code":"6640844"},{"name":"車塚","zip_code":"6640872"},{"name":"桑津","zip_code":"6640839"},{"name":"鴻池","zip_code":"6640006"},{"name":"御願塚","zip_code":"6640855"},{"name":"昆陽","zip_code":"6640881"},{"name":"昆陽池","zip_code":"6640015"},{"name":"昆陽泉町","zip_code":"6640885"},{"name":"昆陽北","zip_code":"6640016"},{"name":"昆陽東","zip_code":"6640886"},{"name":"昆陽南","zip_code":"6640888"},{"name":"桜ケ丘","zip_code":"6640897"},{"name":"清水","zip_code":"6640894"},{"name":"下河原","zip_code":"6640832"},{"name":"鈴原町","zip_code":"6640882"},{"name":"千僧","zip_code":"6640898"},{"name":"高台","zip_code":"6640892"},{"name":"中央","zip_code":"6640851"},{"name":"寺本","zip_code":"6640026"},{"name":"寺本東","zip_code":"6640020"},{"name":"中野","zip_code":"6640021"},{"name":"中野東","zip_code":"6640022"},{"name":"中野西","zip_code":"6640023"},{"name":"中野北","zip_code":"6640029"},{"name":"中村","zip_code":"6640838"},{"name":"西桑津","zip_code":"6640834"},{"name":"西台","zip_code":"6640858"},{"name":"西野","zip_code":"6640028"},{"name":"野間","zip_code":"6640873"},{"name":"野間北","zip_code":"6640875"},{"name":"東有岡","zip_code":"6640845"},{"name":"東桑津","zip_code":"6640835"},{"name":"東野","zip_code":"6640004"},{"name":"平松","zip_code":"6640853"},{"name":"広畑","zip_code":"6640014"},{"name":"藤ノ木","zip_code":"6640847"},{"name":"船原","zip_code":"6640896"},{"name":"堀池","zip_code":"6640871"},{"name":"松ケ丘","zip_code":"6640024"},{"name":"美鈴町","zip_code":"6640884"},{"name":"瑞ケ丘","zip_code":"6640017"},{"name":"瑞原","zip_code":"6640005"},{"name":"瑞穂町","zip_code":"6640013"},{"name":"緑ケ丘","zip_code":"6640012"},{"name":"南鈴原","zip_code":"6640883"},{"name":"南町","zip_code":"6640854"},{"name":"南野","zip_code":"6640865"},{"name":"南野北","zip_code":"6640887"},{"name":"南本町","zip_code":"6640852"},{"name":"宮ノ前","zip_code":"6640895"},{"name":"森本","zip_code":"6640842"},{"name":"山田","zip_code":"6640874"},{"name":"若菱町","zip_code":"6640862"}]},{"name":"相生市","divisions":[{"name":"相生","zip_code":"6780141"},{"name":"青葉台","zip_code":"6780064"},{"name":"赤坂","zip_code":"6780021"},{"name":"旭","zip_code":"6780031"},{"name":"池之内","zip_code":"6780004"},{"name":"大石町","zip_code":"6780005"},{"name":"大島町","zip_code":"6780052"},{"name":"大谷町","zip_code":"6780043"},{"name":"垣内町","zip_code":"6780022"},{"name":"川原町","zip_code":"6780042"},{"name":"陸","zip_code":"6780003"},{"name":"陸本町","zip_code":"6780007"},{"name":"向陽台","zip_code":"6780023"},{"name":"栄町","zip_code":"6780008"},{"name":"佐方","zip_code":"6780063"},{"name":"桜ケ丘町","zip_code":"6780061"},{"name":"汐見台","zip_code":"6780002"},{"name":"菅原町","zip_code":"6780073"},{"name":"千尋町","zip_code":"6780062"},{"name":"那波","zip_code":"6780067"},{"name":"那波大浜町","zip_code":"6780051"},{"name":"那波東本町","zip_code":"6780056"},{"name":"那波西本町","zip_code":"6780054"},{"name":"那波南本町","zip_code":"6780053"},{"name":"那波本町","zip_code":"6780055"},{"name":"那波野","zip_code":"6780011"},{"name":"西谷町","zip_code":"6780065"},{"name":"野瀬","zip_code":"6780044"},{"name":"ひかりが丘","zip_code":"6780074"},{"name":"双葉","zip_code":"6780024"},{"name":"古池","zip_code":"6780012"},{"name":"古池本町","zip_code":"6780025"},{"name":"本郷町","zip_code":"6780006"},{"name":"緑ケ丘","zip_code":"6780071"},{"name":"矢野町瓜生","zip_code":"6780091"},{"name":"矢野町小河","zip_code":"6780092"},{"name":"矢野町金坂","zip_code":"6780091"},{"name":"矢野町釜出","zip_code":"6780091"},{"name":"矢野町上","zip_code":"6780091"},{"name":"矢野町上土井","zip_code":"6780092"},{"name":"矢野町榊","zip_code":"6780091"},{"name":"矢野町下田","zip_code":"6780092"},{"name":"矢野町菅谷","zip_code":"6780091"},{"name":"矢野町中野","zip_code":"6780091"},{"name":"矢野町能下","zip_code":"6780091"},{"name":"矢野町二木","zip_code":"6780091"},{"name":"矢野町真広","zip_code":"6780091"},{"name":"矢野町森","zip_code":"6780091"},{"name":"山崎町","zip_code":"6780066"},{"name":"山手","zip_code":"6780001"},{"name":"竜泉町","zip_code":"6780072"},{"name":"若狭野町雨内","zip_code":"6780081"},{"name":"若狭野町入野","zip_code":"6780081"},{"name":"若狭野町上松","zip_code":"6780081"},{"name":"若狭野町下土井","zip_code":"6780082"},{"name":"若狭野町寺田","zip_code":"6780082"},{"name":"若狭野町出","zip_code":"6780082"},{"name":"若狭野町野々","zip_code":"6780082"},{"name":"若狭野町八洞","zip_code":"6780082"},{"name":"若狭野町東後明","zip_code":"6780081"},{"name":"若狭野町西後明","zip_code":"6780081"},{"name":"若狭野町福井","zip_code":"6780082"},{"name":"若狭野町若狭野","zip_code":"6780081"}]},{"name":"豊岡市","divisions":[{"name":"赤石","zip_code":"6680801"},{"name":"伊賀谷","zip_code":"6680001"},{"name":"出石町荒木","zip_code":"6680261"},{"name":"出石町伊木","zip_code":"6680213"},{"name":"出石町伊豆","zip_code":"6680207"},{"name":"出石町入佐","zip_code":"6680218"},{"name":"出石町上野","zip_code":"6680244"},{"name":"出石町魚屋","zip_code":"6680215"},{"name":"出石町内町","zip_code":"6680214"},{"name":"出石町大谷","zip_code":"6680271"},{"name":"出石町奥小野","zip_code":"6680201"},{"name":"出石町奥山","zip_code":"6680251"},{"name":"出石町鍛冶屋","zip_code":"6680235"},{"name":"出石町片間","zip_code":"6680279"},{"name":"出石町上村","zip_code":"6680255"},{"name":"出石町川原","zip_code":"6680231"},{"name":"出石町桐野","zip_code":"6680242"},{"name":"出石町口小野","zip_code":"6680202"},{"name":"出石町暮坂","zip_code":"6680264"},{"name":"出石町小人","zip_code":"6680256"},{"name":"出石町材木","zip_code":"6680216"},{"name":"出石町嶋","zip_code":"6680205"},{"name":"出石町下谷","zip_code":"6680211"},{"name":"出石町田結庄","zip_code":"6680233"},{"name":"出石町田多地","zip_code":"6680209"},{"name":"出石町谷山","zip_code":"6680212"},{"name":"出石町坪井","zip_code":"6680273"},{"name":"出石町坪口","zip_code":"6680257"},{"name":"出石町鉄砲","zip_code":"6680223"},{"name":"出石町寺坂","zip_code":"6680241"},{"name":"出石町寺町","zip_code":"6680222"},{"name":"出石町東條","zip_code":"6680217"},{"name":"出石町鳥居","zip_code":"6680272"},{"name":"出石町長砂","zip_code":"6680275"},{"name":"出石町中野","zip_code":"6680243"},{"name":"出石町中村","zip_code":"6680254"},{"name":"出石町袴狭","zip_code":"6680203"},{"name":"出石町馬場","zip_code":"6680237"},{"name":"出石町日野辺","zip_code":"6680246"},{"name":"出石町平田","zip_code":"6680266"},{"name":"出石町弘原","zip_code":"6680238"},{"name":"出石町福居","zip_code":"6680206"},{"name":"出石町福住","zip_code":"6680263"},{"name":"出石町福見","zip_code":"6680265"},{"name":"出石町細見","zip_code":"6680262"},{"name":"出石町本町","zip_code":"6680224"},{"name":"出石町町分","zip_code":"6680221"},{"name":"出石町松枝","zip_code":"6680236"},{"name":"出石町丸中","zip_code":"6680277"},{"name":"出石町三木","zip_code":"6680278"},{"name":"出石町宮内","zip_code":"6680204"},{"name":"出石町水上","zip_code":"6680274"},{"name":"出石町森井","zip_code":"6680276"},{"name":"出石町八木","zip_code":"6680225"},{"name":"出石町安良","zip_code":"6680208"},{"name":"出石町柳","zip_code":"6680234"},{"name":"出石町百合","zip_code":"6680245"},{"name":"出石町宵田","zip_code":"6680232"},{"name":"出石町榎見","zip_code":"6680253"},{"name":"出石町和屋","zip_code":"6680252"},{"name":"泉町","zip_code":"6680021"},{"name":"市場","zip_code":"6680821"},{"name":"今森","zip_code":"6680851"},{"name":"岩井","zip_code":"6680081"},{"name":"岩熊","zip_code":"6680002"},{"name":"内町","zip_code":"6680071"},{"name":"江本","zip_code":"6680852"},{"name":"大磯町","zip_code":"6680041"},{"name":"大篠岡","zip_code":"6680861"},{"name":"大谷","zip_code":"6680072"},{"name":"大手町","zip_code":"6680031"},{"name":"奥野","zip_code":"6680822"},{"name":"小島","zip_code":"6696123"},{"name":"小田井町","zip_code":"6680022"},{"name":"梶原","zip_code":"6680871"},{"name":"香住","zip_code":"6680862"},{"name":"加広町","zip_code":"6680023"},{"name":"鎌田","zip_code":"6680811"},{"name":"上陰","zip_code":"6680011"},{"name":"上佐野","zip_code":"6680061"},{"name":"上鉢山","zip_code":"6680863"},{"name":"神美台","zip_code":"6680831"},{"name":"加陽","zip_code":"6680841"},{"name":"木内","zip_code":"6680864"},{"name":"城崎町今津","zip_code":"6696103"},{"name":"城崎町上山","zip_code":"6696116"},{"name":"城崎町来日","zip_code":"6696115"},{"name":"城崎町楽々浦","zip_code":"6696111"},{"name":"城崎町戸島","zip_code":"6696114"},{"name":"城崎町飯谷","zip_code":"6696112"},{"name":"城崎町結","zip_code":"6696113"},{"name":"城崎町桃島","zip_code":"6696102"},{"name":"城崎町湯島","zip_code":"6696101"},{"name":"京町","zip_code":"6680042"},{"name":"倉見","zip_code":"6680832"},{"name":"気比","zip_code":"6696124"},{"name":"河谷","zip_code":"6680872"},{"name":"江野","zip_code":"6680003"},{"name":"九日市上町","zip_code":"6680051"},{"name":"九日市中町","zip_code":"6680053"},{"name":"九日市下町","zip_code":"6680052"},{"name":"寿町","zip_code":"6680024"},{"name":"金剛寺","zip_code":"6680802"},{"name":"幸町","zip_code":"6680025"},{"name":"栄町","zip_code":"6680812"},{"name":"桜町","zip_code":"6680043"},{"name":"佐野","zip_code":"6680062"},{"name":"山王町","zip_code":"6680044"},{"name":"塩津町","zip_code":"6680054"},{"name":"下陰","zip_code":"6680012"},{"name":"下鶴井","zip_code":"6680803"},{"name":"下宮","zip_code":"6680813"},{"name":"下鉢山","zip_code":"6680865"},{"name":"庄","zip_code":"6680082"},{"name":"祥雲寺","zip_code":"6680814"},{"name":"庄境","zip_code":"6680873"},{"name":"城南町","zip_code":"6680045"},{"name":"正法寺","zip_code":"6680063"},{"name":"清冷寺","zip_code":"6680853"},{"name":"昭和町","zip_code":"6680055"},{"name":"新堂","zip_code":"6680004"},{"name":"瀬戸","zip_code":"6696122"},{"name":"田結","zip_code":"6696125"},{"name":"高屋","zip_code":"6680064"},{"name":"滝","zip_code":"6680005"},{"name":"竹野町阿金谷","zip_code":"6696214"},{"name":"竹野町芦谷","zip_code":"6696223"},{"name":"竹野町宇日","zip_code":"6696202"},{"name":"竹野町大森","zip_code":"6696352"},{"name":"竹野町奥須井","zip_code":"6696218"},{"name":"竹野町鬼神谷","zip_code":"6696224"},{"name":"竹野町御又","zip_code":"6696333"},{"name":"竹野町川南谷","zip_code":"6696354"},{"name":"竹野町河内","zip_code":"6696334"},{"name":"竹野町切浜","zip_code":"6696216"},{"name":"竹野町金原","zip_code":"6696229"},{"name":"竹野町草飼","zip_code":"6696215"},{"name":"竹野町桑野本","zip_code":"6696353"},{"name":"竹野町小城","zip_code":"6696341"},{"name":"竹野町小丸","zip_code":"6696222"},{"name":"竹野町下塚","zip_code":"6696226"},{"name":"竹野町須谷","zip_code":"6696221"},{"name":"竹野町須野谷","zip_code":"6696351"},{"name":"竹野町田久日","zip_code":"6696203"},{"name":"竹野町竹野","zip_code":"6696201"},{"name":"竹野町段","zip_code":"6696343"},{"name":"竹野町轟","zip_code":"6696225"},{"name":"竹野町二連原","zip_code":"6696342"},{"name":"竹野町椒","zip_code":"6696344"},{"name":"竹野町羽入","zip_code":"6696213"},{"name":"竹野町浜須井","zip_code":"6696217"},{"name":"竹野町林","zip_code":"6696227"},{"name":"竹野町東大谷","zip_code":"6696228"},{"name":"竹野町坊岡","zip_code":"6696331"},{"name":"竹野町松本","zip_code":"6696212"},{"name":"竹野町三原","zip_code":"6696355"},{"name":"竹野町森本","zip_code":"6696332"},{"name":"竹野町門谷","zip_code":"6696335"},{"name":"竹野町和田","zip_code":"6696211"},{"name":"駄坂","zip_code":"6680866"},{"name":"立野町","zip_code":"6680046"},{"name":"立石","zip_code":"6680833"},{"name":"但東町相田","zip_code":"6680324"},{"name":"但東町赤花","zip_code":"6680352"},{"name":"但東町天谷","zip_code":"6680316"},{"name":"但東町後","zip_code":"6680374"},{"name":"但東町大河内","zip_code":"6680372"},{"name":"但東町太田","zip_code":"6680335"},{"name":"但東町奥赤","zip_code":"6680353"},{"name":"但東町奥藤","zip_code":"6680343"},{"name":"但東町奥矢根","zip_code":"6680301"},{"name":"但東町小谷","zip_code":"6680323"},{"name":"但東町唐川","zip_code":"6680321"},{"name":"但東町木村","zip_code":"6680331"},{"name":"但東町口藤","zip_code":"6680341"},{"name":"但東町久畑","zip_code":"6680373"},{"name":"但東町栗尾","zip_code":"6680363"},{"name":"但東町河本","zip_code":"6680315"},{"name":"但東町高龍寺","zip_code":"6680333"},{"name":"但東町小坂","zip_code":"6680376"},{"name":"但東町坂津","zip_code":"6680354"},{"name":"但東町坂野","zip_code":"6680334"},{"name":"但東町佐々木","zip_code":"6680325"},{"name":"但東町佐田","zip_code":"6680364"},{"name":"但東町正法寺","zip_code":"6680361"},{"name":"但東町出合","zip_code":"6680311"},{"name":"但東町出合市場","zip_code":"6680313"},{"name":"但東町東里","zip_code":"6680337"},{"name":"但東町中藤","zip_code":"6680342"},{"name":"但東町中山","zip_code":"6680345"},{"name":"但東町西谷","zip_code":"6680317"},{"name":"但東町西野々","zip_code":"6680332"},{"name":"但東町畑","zip_code":"6680303"},{"name":"但東町畑山","zip_code":"6680351"},{"name":"但東町東中","zip_code":"6680375"},{"name":"但東町日殿","zip_code":"6680314"},{"name":"但東町日向","zip_code":"6680336"},{"name":"但東町平田","zip_code":"6680362"},{"name":"但東町水石","zip_code":"6680304"},{"name":"但東町南尾","zip_code":"6680312"},{"name":"但東町三原","zip_code":"6680322"},{"name":"但東町虫生","zip_code":"6680344"},{"name":"但東町薬王寺","zip_code":"6680371"},{"name":"但東町矢根","zip_code":"6680302"},{"name":"中央町","zip_code":"6680033"},{"name":"千代田町","zip_code":"6680032"},{"name":"津居山","zip_code":"6696121"},{"name":"辻","zip_code":"6680073"},{"name":"栃江","zip_code":"6680083"},{"name":"戸牧","zip_code":"6680065"},{"name":"中陰","zip_code":"6680013"},{"name":"中郷","zip_code":"6680842"},{"name":"中谷","zip_code":"6680874"},{"name":"長谷","zip_code":"6680834"},{"name":"野垣","zip_code":"6680074"},{"name":"野上","zip_code":"6680804"},{"name":"野田","zip_code":"6680014"},{"name":"八社宮","zip_code":"6680854"},{"name":"畑上","zip_code":"6696127"},{"name":"引野","zip_code":"6680843"},{"name":"土渕","zip_code":"6680844"},{"name":"日高町赤崎","zip_code":"6695314"},{"name":"日高町上石","zip_code":"6695331"},{"name":"日高町浅倉","zip_code":"6695315"},{"name":"日高町荒川","zip_code":"6695356"},{"name":"日高町池上","zip_code":"6695326"},{"name":"日高町石井","zip_code":"6695367"},{"name":"日高町稲葉","zip_code":"6695375"},{"name":"日高町猪子垣","zip_code":"6695357"},{"name":"日高町猪爪","zip_code":"6695338"},{"name":"日高町伊府","zip_code":"6695346"},{"name":"日高町岩中","zip_code":"6695302"},{"name":"日高町江原","zip_code":"6695301"},{"name":"日高町大岡","zip_code":"6695339"},{"name":"日高町上郷","zip_code":"6695324"},{"name":"日高町河江","zip_code":"6695339"},{"name":"日高町観音寺","zip_code":"6695354"},{"name":"日高町久田谷","zip_code":"6695345"},{"name":"日高町久斗","zip_code":"6695342"},{"name":"日高町栗栖野","zip_code":"6695372"},{"name":"日高町栗山","zip_code":"6695361"},{"name":"日高町小河江","zip_code":"6695339"},{"name":"日高町国分寺","zip_code":"6695341"},{"name":"日高町頃垣","zip_code":"6695366"},{"name":"日高町佐田","zip_code":"6695351"},{"name":"日高町篠垣","zip_code":"6695355"},{"name":"日高町芝","zip_code":"6695362"},{"name":"日高町十戸","zip_code":"6695365"},{"name":"日高町庄境","zip_code":"6695364"},{"name":"日高町竹貫","zip_code":"6695332"},{"name":"日高町太田","zip_code":"6695371"},{"name":"日高町谷","zip_code":"6695336"},{"name":"日高町田ノ口","zip_code":"6695357"},{"name":"日高町知見","zip_code":"6695352"},{"name":"日高町鶴岡","zip_code":"6695313"},{"name":"日高町土居","zip_code":"6695321"},{"name":"日高町道場","zip_code":"6695343"},{"name":"日高町栃本","zip_code":"6695369"},{"name":"日高町殿","zip_code":"6695358"},{"name":"日高町中","zip_code":"6695337"},{"name":"日高町奈佐路","zip_code":"6695335"},{"name":"日高町名色","zip_code":"6695379"},{"name":"日高町夏栗","zip_code":"6695344"},{"name":"日高町西芝","zip_code":"6695328"},{"name":"日高町祢布","zip_code":"6695305"},{"name":"日高町野","zip_code":"6695363"},{"name":"日高町野々庄","zip_code":"6695327"},{"name":"日高町羽尻","zip_code":"6695359"},{"name":"日高町日置","zip_code":"6695311"},{"name":"日高町東構","zip_code":"6695303"},{"name":"日高町東河内","zip_code":"6695373"},{"name":"日高町東芝","zip_code":"6695328"},{"name":"日高町日高","zip_code":"6695312"},{"name":"日高町広井","zip_code":"6695358"},{"name":"日高町府市場","zip_code":"6695322"},{"name":"日高町藤井","zip_code":"6695333"},{"name":"日高町府中新","zip_code":"6695323"},{"name":"日高町堀","zip_code":"6695325"},{"name":"日高町松岡","zip_code":"6695307"},{"name":"日高町万劫","zip_code":"6695376"},{"name":"日高町万場","zip_code":"6695378"},{"name":"日高町水上","zip_code":"6695306"},{"name":"日高町水口","zip_code":"6695374"},{"name":"日高町森山","zip_code":"6695353"},{"name":"日高町八代","zip_code":"6695339"},{"name":"日高町山田","zip_code":"6695377"},{"name":"日高町山宮","zip_code":"6695368"},{"name":"日高町山本","zip_code":"6695334"},{"name":"日高町宵田","zip_code":"6695304"},{"name":"一日市","zip_code":"6680015"},{"name":"日撫","zip_code":"6680815"},{"name":"福成寺","zip_code":"6680075"},{"name":"福田","zip_code":"6680084"},{"name":"伏","zip_code":"6680855"},{"name":"船谷","zip_code":"6680076"},{"name":"船町","zip_code":"6680805"},{"name":"法花寺","zip_code":"6680816"},{"name":"三坂町","zip_code":"6680047"},{"name":"三原","zip_code":"6696126"},{"name":"宮井","zip_code":"6680085"},{"name":"三宅","zip_code":"6680823"},{"name":"宮島","zip_code":"6680016"},{"name":"妙楽寺","zip_code":"6680056"},{"name":"目坂","zip_code":"6680077"},{"name":"元町","zip_code":"6680026"},{"name":"森","zip_code":"6680806"},{"name":"森尾","zip_code":"6680824"},{"name":"森津","zip_code":"6680006"},{"name":"弥栄町","zip_code":"6680057"},{"name":"山本","zip_code":"6680807"},{"name":"百合地","zip_code":"6680875"},{"name":"吉井","zip_code":"6680078"},{"name":"六地蔵","zip_code":"6680817"},{"name":"若松町","zip_code":"6680027"}]},{"name":"加古川市","divisions":[{"name":"尾上町旭","zip_code":"6750026"},{"name":"尾上町池田","zip_code":"6750023"},{"name":"尾上町今福","zip_code":"6750027"},{"name":"尾上町口里","zip_code":"6750022"},{"name":"尾上町長田","zip_code":"6750024"},{"name":"尾上町安田","zip_code":"6750021"},{"name":"尾上町養田","zip_code":"6750025"},{"name":"加古川町粟津","zip_code":"6750039"},{"name":"加古川町稲屋","zip_code":"6750034"},{"name":"加古川町大野","zip_code":"6750061"},{"name":"加古川町河原","zip_code":"6750067"},{"name":"加古川町北在家","zip_code":"6750031"},{"name":"加古川町木村","zip_code":"6750038"},{"name":"加古川町篠原町","zip_code":"6750065"},{"name":"加古川町寺家町","zip_code":"6750066"},{"name":"加古川町友沢","zip_code":"6750035"},{"name":"加古川町中津","zip_code":"6750068"},{"name":"加古川町西河原","zip_code":"6750036"},{"name":"加古川町平野","zip_code":"6750063"},{"name":"加古川町備後","zip_code":"6750032"},{"name":"加古川町本町","zip_code":"6750037"},{"name":"加古川町溝之口","zip_code":"6750064"},{"name":"加古川町南備後","zip_code":"6750033"},{"name":"加古川町美乃利","zip_code":"6750062"},{"name":"金沢町","zip_code":"6750137"},{"name":"上荘町井ノ口","zip_code":"6751212"},{"name":"上荘町小野","zip_code":"6751218"},{"name":"上荘町薬栗","zip_code":"6751217"},{"name":"上荘町国包","zip_code":"6751213"},{"name":"上荘町白沢","zip_code":"6751211"},{"name":"上荘町都染","zip_code":"6751216"},{"name":"上荘町見土呂","zip_code":"6751214"},{"name":"上荘町都台","zip_code":"6751215"},{"name":"神野町石守","zip_code":"6750005"},{"name":"神野町神野","zip_code":"6750003"},{"name":"神野町西条","zip_code":"6750009"},{"name":"神野町西之山","zip_code":"6750007"},{"name":"神野町日岡苑","zip_code":"6750006"},{"name":"神野町福留","zip_code":"6750004"},{"name":"西条山手","zip_code":"6750001"},{"name":"志方町大澤","zip_code":"6750301"},{"name":"志方町大宗","zip_code":"6750305"},{"name":"志方町岡","zip_code":"6750311"},{"name":"志方町上冨木","zip_code":"6750314"},{"name":"志方町細工所","zip_code":"6750303"},{"name":"志方町志方町","zip_code":"6750321"},{"name":"志方町雑郷","zip_code":"6750342"},{"name":"志方町高畑","zip_code":"6750304"},{"name":"志方町永室","zip_code":"6750347"},{"name":"志方町成井","zip_code":"6750334"},{"name":"志方町西飯坂","zip_code":"6750345"},{"name":"志方町西中","zip_code":"6750346"},{"name":"志方町西牧","zip_code":"6750331"},{"name":"志方町西山","zip_code":"6750333"},{"name":"志方町投松","zip_code":"6750313"},{"name":"志方町野尻","zip_code":"6750302"},{"name":"志方町畑","zip_code":"6750341"},{"name":"志方町原","zip_code":"6750335"},{"name":"志方町東飯坂","zip_code":"6750344"},{"name":"志方町東中","zip_code":"6750306"},{"name":"志方町広尾","zip_code":"6750312"},{"name":"志方町山中","zip_code":"6750336"},{"name":"志方町行常","zip_code":"6750343"},{"name":"志方町横大路","zip_code":"6750332"},{"name":"新神野","zip_code":"6750008"},{"name":"西神吉町大国","zip_code":"6750044"},{"name":"西神吉町鼎","zip_code":"6750047"},{"name":"西神吉町岸","zip_code":"6750045"},{"name":"西神吉町辻","zip_code":"6750046"},{"name":"西神吉町中西","zip_code":"6750043"},{"name":"西神吉町西村","zip_code":"6750042"},{"name":"西神吉町宮前","zip_code":"6750041"},{"name":"野口町北野","zip_code":"6750011"},{"name":"野口町坂井","zip_code":"6750015"},{"name":"野口町坂元","zip_code":"6750018"},{"name":"野口町坂元北","zip_code":"6750010"},{"name":"野口町長砂","zip_code":"6750016"},{"name":"野口町野口","zip_code":"6750012"},{"name":"野口町二屋","zip_code":"6750013"},{"name":"野口町古大内","zip_code":"6750014"},{"name":"野口町水足","zip_code":"6750019"},{"name":"野口町良野","zip_code":"6750017"},{"name":"東神吉町天下原","zip_code":"6750058"},{"name":"東神吉町砂部","zip_code":"6750056"},{"name":"東神吉町神吉","zip_code":"6750057"},{"name":"東神吉町出河原","zip_code":"6750052"},{"name":"東神吉町西井ノ口","zip_code":"6750055"},{"name":"東神吉町升田","zip_code":"6750051"},{"name":"平岡町一色","zip_code":"6750115"},{"name":"平岡町一色東","zip_code":"6750116"},{"name":"平岡町一色西","zip_code":"6750117"},{"name":"平岡町新在家","zip_code":"6750101"},{"name":"平岡町高畑","zip_code":"6750103"},{"name":"平岡町土山","zip_code":"6750104"},{"name":"平岡町つつじ野","zip_code":"6750105"},{"name":"平岡町中野","zip_code":"6750113"},{"name":"平岡町西谷","zip_code":"6750102"},{"name":"平岡町八反田","zip_code":"6750114"},{"name":"平岡町二俣","zip_code":"6750111"},{"name":"平岡町山之上","zip_code":"6750112"},{"name":"平荘町池尻","zip_code":"6751233"},{"name":"平荘町一本松","zip_code":"6751236"},{"name":"平荘町磐","zip_code":"6751226"},{"name":"平荘町上原","zip_code":"6751224"},{"name":"平荘町神木","zip_code":"6751222"},{"name":"平荘町小畑","zip_code":"6751235"},{"name":"平荘町里","zip_code":"6751232"},{"name":"平荘町新中山","zip_code":"6751223"},{"name":"平荘町中山","zip_code":"6751225"},{"name":"平荘町西山","zip_code":"6751234"},{"name":"平荘町山角","zip_code":"6751221"},{"name":"平荘町養老","zip_code":"6751231"},{"name":"別府町朝日町","zip_code":"6750123"},{"name":"別府町石町","zip_code":"6750127"},{"name":"別府町新野辺","zip_code":"6750131"},{"name":"別府町新野辺北町","zip_code":"6750121"},{"name":"別府町中島町","zip_code":"6750128"},{"name":"別府町西町","zip_code":"6750133"},{"name":"別府町西脇","zip_code":"6750125"},{"name":"別府町東町","zip_code":"6750135"},{"name":"別府町別府","zip_code":"6750122"},{"name":"別府町本町","zip_code":"6750126"},{"name":"別府町緑町","zip_code":"6750124"},{"name":"別府町港町","zip_code":"6750136"},{"name":"別府町宮田町","zip_code":"6750132"},{"name":"別府町元町","zip_code":"6750134"},{"name":"八幡町上西条","zip_code":"6751204"},{"name":"八幡町下村","zip_code":"6751203"},{"name":"八幡町宗佐","zip_code":"6751201"},{"name":"八幡町中西条","zip_code":"6751205"},{"name":"八幡町野村","zip_code":"6751202"},{"name":"八幡町船町","zip_code":"6751206"},{"name":"山手","zip_code":"6750002"},{"name":"米田町船頭","zip_code":"6750053"},{"name":"米田町平津","zip_code":"6750054"}]},{"name":"赤穂市","divisions":[{"name":"朝日町","zip_code":"6780214"},{"name":"磯浜町","zip_code":"6780250"},{"name":"板屋町","zip_code":"6780248"},{"name":"有年楢原","zip_code":"6781181"},{"name":"有年原","zip_code":"6781182"},{"name":"有年牟礼","zip_code":"6781183"},{"name":"有年横尾","zip_code":"6781184"},{"name":"大津","zip_code":"6780252"},{"name":"大橋町","zip_code":"6780229"},{"name":"大町","zip_code":"6780205"},{"name":"尾崎","zip_code":"6780221"},{"name":"折方","zip_code":"6780254"},{"name":"海浜町","zip_code":"6780225"},{"name":"片浜町","zip_code":"6780249"},{"name":"上仮屋","zip_code":"6780235"},{"name":"上仮屋南","zip_code":"6780236"},{"name":"上仮屋北","zip_code":"6780237"},{"name":"加里屋","zip_code":"6780239"},{"name":"加里屋中洲","zip_code":"6780233"},{"name":"加里屋南","zip_code":"6780234"},{"name":"北野中","zip_code":"6780175"},{"name":"木津","zip_code":"6780165"},{"name":"木生谷","zip_code":"6780253"},{"name":"黒崎町","zip_code":"6780259"},{"name":"元禄橋町","zip_code":"6780223"},{"name":"高野","zip_code":"6780171"},{"name":"寿町","zip_code":"6780204"},{"name":"古浜町","zip_code":"6780258"},{"name":"坂越","zip_code":"6780172"},{"name":"さつき町","zip_code":"6780226"},{"name":"塩屋","zip_code":"6780201"},{"name":"清水町","zip_code":"6780212"},{"name":"城西町","zip_code":"6780244"},{"name":"正保橋町","zip_code":"6780216"},{"name":"新田","zip_code":"6780255"},{"name":"周世","zip_code":"6780162"},{"name":"惣門町","zip_code":"6780241"},{"name":"高雄","zip_code":"6780163"},{"name":"鷆和","zip_code":"6780256"},{"name":"中浜町","zip_code":"6780227"},{"name":"中広","zip_code":"6780232"},{"name":"中山","zip_code":"6780161"},{"name":"長池町","zip_code":"6780242"},{"name":"南宮町","zip_code":"6780211"},{"name":"西有年","zip_code":"6780251"},{"name":"西浜北町","zip_code":"6780207"},{"name":"西浜町","zip_code":"6780208"},{"name":"農神町","zip_code":"6780238"},{"name":"浜市","zip_code":"6780173"},{"name":"東有年","zip_code":"6781185"},{"name":"東浜町","zip_code":"6780222"},{"name":"福浦","zip_code":"6780257"},{"name":"平成町","zip_code":"6780247"},{"name":"細野町","zip_code":"6780231"},{"name":"本水尾町","zip_code":"6780217"},{"name":"松原町","zip_code":"6780228"},{"name":"真殿","zip_code":"6780166"},{"name":"砂子","zip_code":"6780174"},{"name":"御崎","zip_code":"6780215"},{"name":"三樋町","zip_code":"6780245"},{"name":"南野中","zip_code":"6780176"},{"name":"宮前町","zip_code":"6780206"},{"name":"目坂","zip_code":"6780164"},{"name":"元沖町","zip_code":"6780224"},{"name":"元塩町","zip_code":"6780213"},{"name":"元町","zip_code":"6780203"},{"name":"山手町","zip_code":"6780202"},{"name":"六百目町","zip_code":"6780246"},{"name":"若草町","zip_code":"6780243"}]},{"name":"西脇市","divisions":[{"name":"合山町","zip_code":"6770061"},{"name":"板波町","zip_code":"6770056"},{"name":"市原町","zip_code":"6770004"},{"name":"上野","zip_code":"6770044"},{"name":"大垣内","zip_code":"6770038"},{"name":"大木町","zip_code":"6770001"},{"name":"大野","zip_code":"6770025"},{"name":"岡崎町","zip_code":"6770065"},{"name":"落方町","zip_code":"6770068"},{"name":"上王子町","zip_code":"6770069"},{"name":"上戸田","zip_code":"6770035"},{"name":"上比延町","zip_code":"6770039"},{"name":"黒田庄町石原","zip_code":"6790322"},{"name":"黒田庄町大伏","zip_code":"6790324"},{"name":"黒田庄町岡","zip_code":"6790313"},{"name":"黒田庄町喜多","zip_code":"6790311"},{"name":"黒田庄町黒田","zip_code":"6790302"},{"name":"黒田庄町小苗","zip_code":"6790301"},{"name":"黒田庄町大門","zip_code":"6790316"},{"name":"黒田庄町田高","zip_code":"6790321"},{"name":"黒田庄町津万井","zip_code":"6790315"},{"name":"黒田庄町西澤","zip_code":"6790323"},{"name":"黒田庄町福地","zip_code":"6790314"},{"name":"黒田庄町船町","zip_code":"6790304"},{"name":"黒田庄町前坂","zip_code":"6790303"},{"name":"黒田庄町門柳","zip_code":"6790312"},{"name":"高田井町","zip_code":"6770016"},{"name":"小坂町","zip_code":"6770017"},{"name":"郷瀬町","zip_code":"6770014"},{"name":"蒲江","zip_code":"6770021"},{"name":"坂本","zip_code":"6770026"},{"name":"鹿野町","zip_code":"6770033"},{"name":"嶋","zip_code":"6770024"},{"name":"下戸田","zip_code":"6770043"},{"name":"住吉町","zip_code":"6770031"},{"name":"高嶋町","zip_code":"6770041"},{"name":"高松町","zip_code":"6770055"},{"name":"谷町","zip_code":"6770051"},{"name":"塚口町","zip_code":"6770034"},{"name":"津万","zip_code":"6770036"},{"name":"出会町","zip_code":"6770062"},{"name":"寺内","zip_code":"6770022"},{"name":"富田町","zip_code":"6770018"},{"name":"富吉上町","zip_code":"6770011"},{"name":"富吉南町","zip_code":"6770012"},{"name":"中畑町","zip_code":"6770032"},{"name":"西嶋","zip_code":"6770023"},{"name":"西田町","zip_code":"6770003"},{"name":"西脇","zip_code":"6770015"},{"name":"野中町","zip_code":"6770005"},{"name":"野村町","zip_code":"6770054"},{"name":"野村町茜が丘","zip_code":"6770057"},{"name":"羽安町","zip_code":"6770006"},{"name":"比延町","zip_code":"6770037"},{"name":"日野町","zip_code":"6770013"},{"name":"平野町","zip_code":"6770063"},{"name":"堀町","zip_code":"6770042"},{"name":"前島町","zip_code":"6770002"},{"name":"水尾町","zip_code":"6770066"},{"name":"明楽寺町","zip_code":"6770067"},{"name":"八坂町","zip_code":"6770064"},{"name":"和田町","zip_code":"6770052"},{"name":"和布町","zip_code":"6770053"}]},{"name":"宝塚市","divisions":[{"name":"青葉台","zip_code":"6650014"},{"name":"安倉中","zip_code":"6650822"},{"name":"安倉西","zip_code":"6650825"},{"name":"安倉南","zip_code":"6650823"},{"name":"安倉北","zip_code":"6650821"},{"name":"旭町","zip_code":"6650835"},{"name":"泉ガ丘","zip_code":"6650851"},{"name":"泉町","zip_code":"6650864"},{"name":"伊孑志","zip_code":"6650033"},{"name":"今里町","zip_code":"6650862"},{"name":"梅野町","zip_code":"6650004"},{"name":"大原野","zip_code":"6691211"},{"name":"大吹町","zip_code":"6650057"},{"name":"小林","zip_code":"6650034"},{"name":"小林西山","zip_code":"6650017"},{"name":"鹿塩","zip_code":"6650054"},{"name":"金井町","zip_code":"6650824"},{"name":"上佐曽利","zip_code":"6691202"},{"name":"亀井町","zip_code":"6650047"},{"name":"川面","zip_code":"6650842"},{"name":"清荒神","zip_code":"6650836"},{"name":"切畑","zip_code":"6691241"},{"name":"口谷東","zip_code":"6650812"},{"name":"口谷西","zip_code":"6650813"},{"name":"蔵人","zip_code":"6650023"},{"name":"向月町","zip_code":"6650832"},{"name":"香合新田","zip_code":"6691201"},{"name":"光明町","zip_code":"6650045"},{"name":"御所の前町","zip_code":"6650041"},{"name":"御殿山","zip_code":"6650841"},{"name":"寿町","zip_code":"6650865"},{"name":"小浜","zip_code":"6650827"},{"name":"駒の町","zip_code":"6650053"},{"name":"境野","zip_code":"6691222"},{"name":"栄町","zip_code":"6650845"},{"name":"逆瀬川","zip_code":"6650035"},{"name":"逆瀬台","zip_code":"6650024"},{"name":"桜ガ丘","zip_code":"6650846"},{"name":"芝辻新田","zip_code":"6691205"},{"name":"下佐曽利","zip_code":"6691203"},{"name":"寿楽荘","zip_code":"6650012"},{"name":"新明和町","zip_code":"6650052"},{"name":"末成町","zip_code":"6650044"},{"name":"末広町","zip_code":"6650031"},{"name":"すみれガ丘","zip_code":"6650847"},{"name":"大成町","zip_code":"6650055"},{"name":"高司","zip_code":"6650051"},{"name":"高松町","zip_code":"6650043"},{"name":"谷口町","zip_code":"6650076"},{"name":"玉瀬","zip_code":"6691231"},{"name":"千種","zip_code":"6650072"},{"name":"長寿ガ丘","zip_code":"6650001"},{"name":"月見山","zip_code":"6650002"},{"name":"鶴の荘","zip_code":"6650833"},{"name":"塔の町","zip_code":"6650073"},{"name":"東洋町","zip_code":"6650032"},{"name":"中州","zip_code":"6650021"},{"name":"中筋","zip_code":"6650874"},{"name":"中筋山手","zip_code":"6650875"},{"name":"中野町","zip_code":"6650056"},{"name":"中山桜台","zip_code":"6650877"},{"name":"中山五月台","zip_code":"6650871"},{"name":"中山荘園","zip_code":"6650868"},{"name":"中山台","zip_code":"6650876"},{"name":"中山寺","zip_code":"6650861"},{"name":"長尾台","zip_code":"6650807"},{"name":"長尾町","zip_code":"6650873"},{"name":"長谷","zip_code":"6691204"},{"name":"仁川旭ガ丘","zip_code":"6650065"},{"name":"仁川うぐいす台","zip_code":"6650064"},{"name":"仁川高台","zip_code":"6650062"},{"name":"仁川高丸","zip_code":"6650063"},{"name":"仁川団地","zip_code":"6650066"},{"name":"仁川月見ガ丘","zip_code":"6650067"},{"name":"仁川宮西町","zip_code":"6650075"},{"name":"仁川北","zip_code":"6650061"},{"name":"仁川台","zip_code":"6650074"},{"name":"野上","zip_code":"6650022"},{"name":"波豆","zip_code":"6691221"},{"name":"花屋敷荘園","zip_code":"6650802"},{"name":"花屋敷つつじガ丘","zip_code":"6650803"},{"name":"花屋敷松ガ丘","zip_code":"6650801"},{"name":"花屋敷緑ガ丘","zip_code":"6660162"},{"name":"光ガ丘","zip_code":"6650015"},{"name":"雲雀丘","zip_code":"6650805"},{"name":"雲雀丘山手","zip_code":"6650804"},{"name":"平井","zip_code":"6650816"},{"name":"平井山荘","zip_code":"6650817"},{"name":"福井町","zip_code":"6650046"},{"name":"ふじガ丘","zip_code":"6650806"},{"name":"宝松苑","zip_code":"6650016"},{"name":"宝梅","zip_code":"6650013"},{"name":"星の荘","zip_code":"6650866"},{"name":"米谷","zip_code":"6650831"},{"name":"米谷清","zip_code":"6650837"},{"name":"三笠町","zip_code":"6650863"},{"name":"美座","zip_code":"6650834"},{"name":"南口","zip_code":"6650011"},{"name":"南ひばりガ丘","zip_code":"6650811"},{"name":"宮の町","zip_code":"6650843"},{"name":"美幸町","zip_code":"6650042"},{"name":"武庫川町","zip_code":"6650844"},{"name":"武庫山","zip_code":"6650005"},{"name":"売布","zip_code":"6650852"},{"name":"売布きよしガ丘","zip_code":"6650855"},{"name":"売布自由ガ丘","zip_code":"6650856"},{"name":"売布東の町","zip_code":"6650867"},{"name":"売布山手町","zip_code":"6650854"},{"name":"売布ガ丘","zip_code":"6650853"},{"name":"紅葉ガ丘","zip_code":"6650006"},{"name":"社町","zip_code":"6650071"},{"name":"山手台東","zip_code":"6650887"},{"name":"山手台西","zip_code":"6650886"},{"name":"山本中","zip_code":"6650883"},{"name":"山本野里","zip_code":"6650814"},{"name":"山本丸橋","zip_code":"6650815"},{"name":"山本東","zip_code":"6650881"},{"name":"山本西","zip_code":"6650884"},{"name":"山本南","zip_code":"6650882"},{"name":"山本台","zip_code":"6650885"},{"name":"弥生町","zip_code":"6650826"},{"name":"ゆずり葉台","zip_code":"6650025"},{"name":"湯本町","zip_code":"6650003"}]},{"name":"三木市","divisions":[{"name":"跡部","zip_code":"6730401"},{"name":"岩宮","zip_code":"6730412"},{"name":"上の丸町","zip_code":"6730432"},{"name":"大塚","zip_code":"6730413"},{"name":"大村","zip_code":"6730404"},{"name":"加佐","zip_code":"6730402"},{"name":"加佐草荷野","zip_code":"6730723"},{"name":"君が峰町","zip_code":"6730425"},{"name":"口吉川町大島","zip_code":"6730755"},{"name":"口吉川町吉祥寺","zip_code":"6730752"},{"name":"口吉川町桾原","zip_code":"6730743"},{"name":"口吉川町笹原","zip_code":"6730757"},{"name":"口吉川町里脇","zip_code":"6730751"},{"name":"口吉川町善祥寺","zip_code":"6730754"},{"name":"口吉川町殿畑","zip_code":"6730741"},{"name":"口吉川町西中","zip_code":"6730735"},{"name":"口吉川町馬場","zip_code":"6730732"},{"name":"口吉川町東中","zip_code":"6730731"},{"name":"口吉川町久次","zip_code":"6730758"},{"name":"口吉川町保木","zip_code":"6730742"},{"name":"口吉川町槇","zip_code":"6730753"},{"name":"口吉川町南畑","zip_code":"6730756"},{"name":"口吉川町桃坂","zip_code":"6730736"},{"name":"口吉川町蓮花寺","zip_code":"6730734"},{"name":"口吉川町東","zip_code":"6730733"},{"name":"久留美","zip_code":"6730411"},{"name":"さつき台","zip_code":"6730436"},{"name":"志染町青山","zip_code":"6730521"},{"name":"志染町安福田","zip_code":"6730502"},{"name":"志染町井上","zip_code":"6730512"},{"name":"志染町窟屋","zip_code":"6730503"},{"name":"志染町大谷","zip_code":"6730513"},{"name":"志染町高男寺","zip_code":"6730504"},{"name":"志染町四合谷","zip_code":"6730506"},{"name":"志染町志染中","zip_code":"6730511"},{"name":"志染町戸田","zip_code":"6730514"},{"name":"志染町中自由が丘","zip_code":"6730552"},{"name":"志染町東自由が丘","zip_code":"6730553"},{"name":"志染町西自由が丘","zip_code":"6730551"},{"name":"志染町広野","zip_code":"6730541"},{"name":"志染町細目","zip_code":"6730505"},{"name":"志染町御坂","zip_code":"6730516"},{"name":"志染町三津田","zip_code":"6730515"},{"name":"志染町吉田","zip_code":"6730501"},{"name":"芝町","zip_code":"6730414"},{"name":"自由が丘本町","zip_code":"6730424"},{"name":"宿原","zip_code":"6730423"},{"name":"末広","zip_code":"6730403"},{"name":"鳥町","zip_code":"6730456"},{"name":"平井","zip_code":"6730421"},{"name":"平田","zip_code":"6730405"},{"name":"福井","zip_code":"6730433"},{"name":"府内","zip_code":"6730415"},{"name":"別所町朝日ケ丘","zip_code":"6730441"},{"name":"別所町石野","zip_code":"6730452"},{"name":"別所町興治","zip_code":"6730442"},{"name":"別所町小林","zip_code":"6730434"},{"name":"別所町近藤","zip_code":"6730451"},{"name":"別所町下石野","zip_code":"6730453"},{"name":"別所町正法寺","zip_code":"6730454"},{"name":"別所町高木","zip_code":"6730435"},{"name":"別所町巴","zip_code":"6730443"},{"name":"別所町花尻","zip_code":"6730446"},{"name":"別所町東這田","zip_code":"6730444"},{"name":"別所町西這田","zip_code":"6730445"},{"name":"別所町和田","zip_code":"6730455"},{"name":"細川町金屋","zip_code":"6730711"},{"name":"細川町高篠","zip_code":"6730721"},{"name":"細川町高畑","zip_code":"6730724"},{"name":"細川町垂穂","zip_code":"6730703"},{"name":"細川町豊地","zip_code":"6730713"},{"name":"細川町中里","zip_code":"6730702"},{"name":"細川町細川中","zip_code":"6730714"},{"name":"細川町増田","zip_code":"6730704"},{"name":"細川町瑞穂","zip_code":"6730701"},{"name":"細川町桃津","zip_code":"6730712"},{"name":"細川町脇川","zip_code":"6730722"},{"name":"細川町西","zip_code":"6730715"},{"name":"本町","zip_code":"6730431"},{"name":"緑が丘町中","zip_code":"6730532"},{"name":"緑が丘町本町","zip_code":"6730534"},{"name":"緑が丘町東","zip_code":"6730533"},{"name":"緑が丘町西","zip_code":"6730531"},{"name":"吉川町有安","zip_code":"6731107"},{"name":"吉川町市野瀬","zip_code":"6731235"},{"name":"吉川町稲田","zip_code":"6731231"},{"name":"吉川町上松","zip_code":"6731126"},{"name":"吉川町大沢","zip_code":"6731115"},{"name":"吉川町大畑","zip_code":"6731116"},{"name":"吉川町奥谷","zip_code":"6731242"},{"name":"吉川町貸潮","zip_code":"6731118"},{"name":"吉川町鍛治屋","zip_code":"6731119"},{"name":"吉川町上荒川","zip_code":"6731111"},{"name":"吉川町上中","zip_code":"6731104"},{"name":"吉川町吉安","zip_code":"6731114"},{"name":"吉川町金会","zip_code":"6731232"},{"name":"吉川町楠原","zip_code":"6731241"},{"name":"吉川町実楽","zip_code":"6731106"},{"name":"吉川町田谷","zip_code":"6731125"},{"name":"吉川町冨岡","zip_code":"6731102"},{"name":"吉川町豊岡","zip_code":"6731243"},{"name":"吉川町長谷","zip_code":"6731127"},{"name":"吉川町西奥","zip_code":"6731122"},{"name":"吉川町新田","zip_code":"6731101"},{"name":"吉川町畑枝","zip_code":"6731112"},{"name":"吉川町東田","zip_code":"6731236"},{"name":"吉川町毘沙門","zip_code":"6731233"},{"name":"吉川町福井","zip_code":"6731113"},{"name":"吉川町福吉","zip_code":"6731234"},{"name":"吉川町古市","zip_code":"6731108"},{"name":"吉川町古川","zip_code":"6731105"},{"name":"吉川町法光寺","zip_code":"6731124"},{"name":"吉川町前田","zip_code":"6731103"},{"name":"吉川町水上","zip_code":"6731244"},{"name":"吉川町みなぎ台","zip_code":"6731117"},{"name":"吉川町山上","zip_code":"6731128"},{"name":"吉川町湯谷","zip_code":"6731123"},{"name":"吉川町米田","zip_code":"6731121"},{"name":"吉川町渡瀬","zip_code":"6731129"},{"name":"与呂木","zip_code":"6730422"}]},{"name":"高砂市","divisions":[{"name":"阿弥陀","zip_code":"6760815"},{"name":"阿弥陀町阿弥陀","zip_code":"6760827"},{"name":"阿弥陀町魚橋","zip_code":"6760822"},{"name":"阿弥陀町生石","zip_code":"6760823"},{"name":"阿弥陀町北池","zip_code":"6760825"},{"name":"阿弥陀町北山","zip_code":"6760826"},{"name":"阿弥陀町地徳","zip_code":"6760828"},{"name":"阿弥陀町長尾","zip_code":"6760821"},{"name":"阿弥陀町南池","zip_code":"6760824"},{"name":"荒井町扇町","zip_code":"6760016"},{"name":"荒井町御旅","zip_code":"6760005"},{"name":"荒井町紙町","zip_code":"6760015"},{"name":"荒井町小松原","zip_code":"6760011"},{"name":"荒井町新浜","zip_code":"6760008"},{"name":"荒井町千鳥","zip_code":"6760004"},{"name":"荒井町中新町","zip_code":"6760012"},{"name":"荒井町中町","zip_code":"6760007"},{"name":"荒井町蓮池","zip_code":"6760013"},{"name":"荒井町東本町","zip_code":"6760017"},{"name":"荒井町日之出町","zip_code":"6760014"},{"name":"荒井町南栄町","zip_code":"6760006"},{"name":"荒井町若宮町","zip_code":"6760018"},{"name":"伊保","zip_code":"6760078"},{"name":"伊保港町","zip_code":"6760072"},{"name":"伊保東","zip_code":"6760071"},{"name":"伊保崎","zip_code":"6760076"},{"name":"伊保崎南","zip_code":"6760075"},{"name":"伊保町中筋","zip_code":"6760081"},{"name":"今市","zip_code":"6760003"},{"name":"梅井","zip_code":"6760074"},{"name":"春日野町","zip_code":"6760814"},{"name":"神爪","zip_code":"6760808"},{"name":"金ケ田町","zip_code":"6760816"},{"name":"北浜町牛谷","zip_code":"6710121"},{"name":"北浜町北脇","zip_code":"6710122"},{"name":"北浜町西浜","zip_code":"6710123"},{"name":"時光寺町","zip_code":"6760813"},{"name":"松陽","zip_code":"6760077"},{"name":"末広町","zip_code":"6760002"},{"name":"曽根町","zip_code":"6760082"},{"name":"高砂町相生町","zip_code":"6760028"},{"name":"高砂町藍屋町","zip_code":"6760037"},{"name":"高砂町朝日町","zip_code":"6760021"},{"name":"高砂町今津町","zip_code":"6760041"},{"name":"高砂町魚町","zip_code":"6760053"},{"name":"高砂町戎町","zip_code":"6760045"},{"name":"高砂町沖浜町","zip_code":"6760026"},{"name":"高砂町鍵町","zip_code":"6760066"},{"name":"高砂町鍛冶屋町","zip_code":"6760068"},{"name":"高砂町狩網町","zip_code":"6760054"},{"name":"高砂町木曽町","zip_code":"6760024"},{"name":"高砂町北渡海町","zip_code":"6760062"},{"name":"高砂町北本町","zip_code":"6760064"},{"name":"高砂町細工町","zip_code":"6760065"},{"name":"高砂町栄町","zip_code":"6760038"},{"name":"高砂町材木町","zip_code":"6760033"},{"name":"高砂町清水町","zip_code":"6760035"},{"name":"高砂町次郎助町","zip_code":"6760063"},{"name":"高砂町船頭町","zip_code":"6760034"},{"name":"高砂町高瀬町","zip_code":"6760036"},{"name":"高砂町田町","zip_code":"6760049"},{"name":"高砂町大工町","zip_code":"6760056"},{"name":"高砂町釣船町","zip_code":"6760055"},{"name":"高砂町西宮町","zip_code":"6760046"},{"name":"高砂町農人町","zip_code":"6760061"},{"name":"高砂町浜田町","zip_code":"6760022"},{"name":"高砂町東農人町","zip_code":"6760067"},{"name":"高砂町東浜町","zip_code":"6760032"},{"name":"高砂町東宮町","zip_code":"6760043"},{"name":"高砂町松波町","zip_code":"6760023"},{"name":"高砂町南材木町","zip_code":"6760044"},{"name":"高砂町南渡海町","zip_code":"6760052"},{"name":"高砂町南浜町","zip_code":"6760042"},{"name":"高砂町南本町","zip_code":"6760047"},{"name":"高砂町宮前町","zip_code":"6760027"},{"name":"高砂町向島町","zip_code":"6760031"},{"name":"高砂町横町","zip_code":"6760051"},{"name":"高砂町猟師町","zip_code":"6760048"},{"name":"高須","zip_code":"6760073"},{"name":"竜山","zip_code":"6760811"},{"name":"中島","zip_code":"6760001"},{"name":"中筋","zip_code":"6760812"},{"name":"西畑","zip_code":"6760025"},{"name":"緑丘","zip_code":"6760019"},{"name":"美保里","zip_code":"6760804"},{"name":"百合丘","zip_code":"6760803"},{"name":"米田団地","zip_code":"6760809"},{"name":"米田町古新","zip_code":"6760802"},{"name":"米田町塩市","zip_code":"6760806"},{"name":"米田町島","zip_code":"6760807"},{"name":"米田町米田","zip_code":"6760805"},{"name":"米田町米田新","zip_code":"6760801"}]},{"name":"川西市","divisions":[{"name":"赤松","zip_code":"6660148"},{"name":"石道","zip_code":"6660156"},{"name":"芋生","zip_code":"6660146"},{"name":"鴬が丘","zip_code":"6660007"},{"name":"鴬台","zip_code":"6660133"},{"name":"鴬の森町","zip_code":"6660001"},{"name":"小戸","zip_code":"6660014"},{"name":"小花","zip_code":"6660015"},{"name":"霞ケ丘","zip_code":"6660031"},{"name":"加茂","zip_code":"6660025"},{"name":"絹延町","zip_code":"6660012"},{"name":"錦松台","zip_code":"6660135"},{"name":"久代","zip_code":"6660024"},{"name":"国崎","zip_code":"6660103"},{"name":"黒川","zip_code":"6660101"},{"name":"下財町","zip_code":"6660107"},{"name":"けやき坂","zip_code":"6660145"},{"name":"向陽台","zip_code":"6660115"},{"name":"栄町","zip_code":"6660033"},{"name":"栄根","zip_code":"6660021"},{"name":"笹部","zip_code":"6660104"},{"name":"下加茂","zip_code":"6660022"},{"name":"新田","zip_code":"6660125"},{"name":"水明台","zip_code":"6660116"},{"name":"清流台","zip_code":"6660158"},{"name":"清和台東","zip_code":"6660142"},{"name":"清和台西","zip_code":"6660143"},{"name":"大和東","zip_code":"6660111"},{"name":"大和西","zip_code":"6660112"},{"name":"滝山町","zip_code":"6660002"},{"name":"多田院","zip_code":"6660126"},{"name":"多田院多田所町","zip_code":"6660127"},{"name":"多田院西","zip_code":"6660128"},{"name":"多田桜木","zip_code":"6660124"},{"name":"中央町","zip_code":"6660016"},{"name":"鼓が滝","zip_code":"6660123"},{"name":"出在家町","zip_code":"6660011"},{"name":"寺畑","zip_code":"6660034"},{"name":"長尾町","zip_code":"6660113"},{"name":"西畦野","zip_code":"6660155"},{"name":"西多田","zip_code":"6660138"},{"name":"萩原","zip_code":"6660004"},{"name":"萩原台東","zip_code":"6660005"},{"name":"萩原台西","zip_code":"6660006"},{"name":"花屋敷","zip_code":"6660035"},{"name":"花屋敷山手町","zip_code":"6660036"},{"name":"火打","zip_code":"6660017"},{"name":"東畦野","zip_code":"6660117"},{"name":"東畦野山手","zip_code":"6660114"},{"name":"東久代","zip_code":"6660023"},{"name":"東多田","zip_code":"6660122"},{"name":"日高町","zip_code":"6660032"},{"name":"一庫","zip_code":"6660153"},{"name":"平野","zip_code":"6660121"},{"name":"松が丘町","zip_code":"6660037"},{"name":"丸の内町","zip_code":"6660003"},{"name":"丸山台","zip_code":"6660152"},{"name":"満願寺町","zip_code":"6650891"},{"name":"美園町","zip_code":"6660013"},{"name":"緑が丘","zip_code":"6660157"},{"name":"緑台","zip_code":"6660129"},{"name":"南野坂","zip_code":"6660136"},{"name":"南花屋敷","zip_code":"6660026"},{"name":"見野","zip_code":"6660105"},{"name":"美山台","zip_code":"6660151"},{"name":"虫生","zip_code":"6660141"},{"name":"矢問","zip_code":"6660131"},{"name":"矢問東町","zip_code":"6660132"},{"name":"柳谷","zip_code":"6660144"},{"name":"山下町","zip_code":"6660106"},{"name":"山原","zip_code":"6660154"},{"name":"湯山台","zip_code":"6660137"},{"name":"横路","zip_code":"6660102"},{"name":"若宮","zip_code":"6660147"}]},{"name":"小野市","divisions":[{"name":"粟生町","zip_code":"6751358"},{"name":"青野ケ原町","zip_code":"6751352"},{"name":"阿形町","zip_code":"6751342"},{"name":"旭町","zip_code":"6751356"},{"name":"育ケ丘町","zip_code":"6751324"},{"name":"池尻町","zip_code":"6751326"},{"name":"池田町","zip_code":"6751303"},{"name":"市場町","zip_code":"6751327"},{"name":"王子町","zip_code":"6751378"},{"name":"大島町","zip_code":"6751334"},{"name":"小田町","zip_code":"6751301"},{"name":"樫山町","zip_code":"6751325"},{"name":"片山町","zip_code":"6751335"},{"name":"鹿野町","zip_code":"6751364"},{"name":"上新町","zip_code":"6751378"},{"name":"上本町","zip_code":"6751379"},{"name":"河合中町","zip_code":"6751353"},{"name":"河合西町","zip_code":"6751354"},{"name":"来住町","zip_code":"6751343"},{"name":"北丘町","zip_code":"6751318"},{"name":"喜多町","zip_code":"6751360"},{"name":"黍田町","zip_code":"6751345"},{"name":"浄谷町","zip_code":"6751317"},{"name":"久保木町","zip_code":"6751362"},{"name":"久茂町","zip_code":"6751337"},{"name":"黒川町","zip_code":"6751371"},{"name":"広渡町","zip_code":"6751365"},{"name":"栄町","zip_code":"6751312"},{"name":"榊町","zip_code":"6751323"},{"name":"桜台","zip_code":"6751351"},{"name":"敷地町","zip_code":"6751367"},{"name":"下大部町","zip_code":"6751336"},{"name":"下来住町","zip_code":"6751344"},{"name":"昭和町","zip_code":"6751359"},{"name":"新部町","zip_code":"6751355"},{"name":"神明町","zip_code":"6751331"},{"name":"菅田町","zip_code":"6751307"},{"name":"住永町","zip_code":"6751368"},{"name":"住吉町","zip_code":"6751361"},{"name":"曽根町","zip_code":"6751302"},{"name":"大開町","zip_code":"6751313"},{"name":"高田町","zip_code":"6751369"},{"name":"高山町","zip_code":"6751362"},{"name":"匠台","zip_code":"6751322"},{"name":"垂井町","zip_code":"6751333"},{"name":"田園町","zip_code":"6751338"},{"name":"天神町","zip_code":"6751316"},{"name":"中島町","zip_code":"6751366"},{"name":"中谷町","zip_code":"6751304"},{"name":"中町","zip_code":"6751332"},{"name":"中番町","zip_code":"6751308"},{"name":"長尾町","zip_code":"6751314"},{"name":"西本町","zip_code":"6751375"},{"name":"西山町","zip_code":"6751352"},{"name":"西脇町","zip_code":"6751341"},{"name":"葉多町","zip_code":"6751377"},{"name":"東本町","zip_code":"6751373"},{"name":"日吉町","zip_code":"6751315"},{"name":"復井町","zip_code":"6751352"},{"name":"福住町","zip_code":"6751309"},{"name":"福甸町","zip_code":"6751346"},{"name":"二葉町","zip_code":"6751328"},{"name":"船木町","zip_code":"6751306"},{"name":"古川町","zip_code":"6751363"},{"name":"本町","zip_code":"6751374"},{"name":"丸山町","zip_code":"6751376"},{"name":"万勝寺町","zip_code":"6751311"},{"name":"南青野町","zip_code":"6751350"},{"name":"三和町","zip_code":"6751357"},{"name":"山田町","zip_code":"6751321"},{"name":"脇本町","zip_code":"6751305"}]},{"name":"三田市","divisions":[{"name":"相生町","zip_code":"6691526"},{"name":"藍本","zip_code":"6691358"},{"name":"あかしあ台","zip_code":"6691323"},{"name":"池尻","zip_code":"6691548"},{"name":"市之瀬","zip_code":"6691414"},{"name":"井ノ草","zip_code":"6691356"},{"name":"馬渡","zip_code":"6691336"},{"name":"永沢寺","zip_code":"6691502"},{"name":"駅前町","zip_code":"6691528"},{"name":"大川瀬","zip_code":"6691349"},{"name":"大畑","zip_code":"6691354"},{"name":"大原","zip_code":"6691515"},{"name":"乙原","zip_code":"6691503"},{"name":"小野","zip_code":"6691504"},{"name":"学園","zip_code":"6691337"},{"name":"香下","zip_code":"6691507"},{"name":"上相野","zip_code":"6691346"},{"name":"上青野","zip_code":"6691301"},{"name":"上井沢","zip_code":"6691316"},{"name":"上内神","zip_code":"6691338"},{"name":"上槻瀬","zip_code":"6691415"},{"name":"上深田","zip_code":"6691542"},{"name":"上本庄","zip_code":"6691351"},{"name":"加茂","zip_code":"6691311"},{"name":"川除","zip_code":"6691514"},{"name":"川原","zip_code":"6691403"},{"name":"貴志","zip_code":"6691541"},{"name":"北浦","zip_code":"6691304"},{"name":"桑原","zip_code":"6691521"},{"name":"けやき台","zip_code":"6691321"},{"name":"木器","zip_code":"6691412"},{"name":"小柿","zip_code":"6691401"},{"name":"酒井","zip_code":"6691405"},{"name":"さくら坂","zip_code":"6691325"},{"name":"沢谷","zip_code":"6691335"},{"name":"三田町","zip_code":"6691533"},{"name":"志手原","zip_code":"6691506"},{"name":"下相野","zip_code":"6691345"},{"name":"下青野","zip_code":"6691302"},{"name":"下井沢","zip_code":"6691315"},{"name":"下内神","zip_code":"6691333"},{"name":"下里","zip_code":"6691416"},{"name":"下田中","zip_code":"6691522"},{"name":"下槻瀬","zip_code":"6691413"},{"name":"下深田","zip_code":"6691543"},{"name":"末","zip_code":"6691303"},{"name":"末吉","zip_code":"6691402"},{"name":"鈴鹿","zip_code":"6691417"},{"name":"すずかけ台","zip_code":"6691322"},{"name":"須磨田","zip_code":"6691352"},{"name":"対中町","zip_code":"6691525"},{"name":"高次","zip_code":"6691512"},{"name":"田中","zip_code":"6691406"},{"name":"中央町","zip_code":"6691529"},{"name":"つつじが丘南","zip_code":"6691347"},{"name":"つつじが丘北","zip_code":"6691348"},{"name":"テクノパーク","zip_code":"6691339"},{"name":"寺村町","zip_code":"6691523"},{"name":"天神","zip_code":"6691531"},{"name":"十倉","zip_code":"6691404"},{"name":"友が丘","zip_code":"6691516"},{"name":"中内神","zip_code":"6691334"},{"name":"中町","zip_code":"6691527"},{"name":"長坂","zip_code":"6691355"},{"name":"成谷","zip_code":"6691517"},{"name":"西相野","zip_code":"6691341"},{"name":"西野上","zip_code":"6691314"},{"name":"西山","zip_code":"6691537"},{"name":"尼寺","zip_code":"6691505"},{"name":"狭間が丘","zip_code":"6691545"},{"name":"波豆川","zip_code":"6691411"},{"name":"八景町","zip_code":"6691524"},{"name":"東野上","zip_code":"6691312"},{"name":"東本庄","zip_code":"6691357"},{"name":"東山","zip_code":"6691353"},{"name":"広沢","zip_code":"6691332"},{"name":"広野","zip_code":"6691331"},{"name":"布木","zip_code":"6691407"},{"name":"福島","zip_code":"6691313"},{"name":"富士が丘","zip_code":"6691547"},{"name":"洞","zip_code":"6691343"},{"name":"溝口","zip_code":"6691344"},{"name":"南が丘","zip_code":"6691535"},{"name":"宮脇","zip_code":"6691317"},{"name":"三輪","zip_code":"6691513"},{"name":"武庫が丘","zip_code":"6691544"},{"name":"母子","zip_code":"6691501"},{"name":"屋敷町","zip_code":"6691532"},{"name":"山田","zip_code":"6691511"},{"name":"弥生が丘","zip_code":"6691546"},{"name":"ゆりのき台","zip_code":"6691324"},{"name":"横山町","zip_code":"6691534"},{"name":"四ツ辻","zip_code":"6691342"}]},{"name":"加西市","divisions":[{"name":"青野町","zip_code":"6752413"},{"name":"青野原町","zip_code":"6790102"},{"name":"朝妻町","zip_code":"6790105"},{"name":"網引町","zip_code":"6752113"},{"name":"池上町","zip_code":"6752425"},{"name":"和泉町","zip_code":"6752423"},{"name":"市村町","zip_code":"6752337"},{"name":"上野町","zip_code":"6752434"},{"name":"牛居町","zip_code":"6752203"},{"name":"鶉野町","zip_code":"6752103"},{"name":"越水町","zip_code":"6752441"},{"name":"王子町","zip_code":"6752231"},{"name":"大内町","zip_code":"6752455"},{"name":"大村町","zip_code":"6752234"},{"name":"尾崎町","zip_code":"6752242"},{"name":"大柳町","zip_code":"6752344"},{"name":"鍛治屋町","zip_code":"6752412"},{"name":"上芥田町","zip_code":"6752465"},{"name":"上万願寺町","zip_code":"6752451"},{"name":"上道山町","zip_code":"6752453"},{"name":"上宮木町","zip_code":"6752104"},{"name":"鴨谷町","zip_code":"6752444"},{"name":"岸呂町","zip_code":"6752333"},{"name":"北町","zip_code":"6752433"},{"name":"国正町","zip_code":"6752401"},{"name":"窪田町","zip_code":"6752364"},{"name":"倉谷町","zip_code":"6752221"},{"name":"桑原田町","zip_code":"6752111"},{"name":"小印南町","zip_code":"6752403"},{"name":"河内町","zip_code":"6752421"},{"name":"栄町","zip_code":"6752112"},{"name":"坂本町","zip_code":"6752222"},{"name":"坂元町","zip_code":"6752336"},{"name":"笹倉町","zip_code":"6752443"},{"name":"佐谷町","zip_code":"6752461"},{"name":"島町","zip_code":"6752431"},{"name":"下芥田町","zip_code":"6752464"},{"name":"下万願寺町","zip_code":"6752452"},{"name":"下道山町","zip_code":"6752454"},{"name":"下宮木町","zip_code":"6752105"},{"name":"新生町","zip_code":"6752204"},{"name":"吸谷町","zip_code":"6752363"},{"name":"大工町","zip_code":"6752411"},{"name":"谷口町","zip_code":"6752352"},{"name":"谷町","zip_code":"6752361"},{"name":"田原町","zip_code":"6752114"},{"name":"玉丘町","zip_code":"6790109"},{"name":"玉野町","zip_code":"6790107"},{"name":"田谷町","zip_code":"6752402"},{"name":"段下町","zip_code":"6752241"},{"name":"都染町","zip_code":"6790101"},{"name":"常吉町","zip_code":"6790104"},{"name":"鎮岩町","zip_code":"6752332"},{"name":"戸田井町","zip_code":"6752232"},{"name":"殿原町","zip_code":"6752445"},{"name":"豊倉町","zip_code":"6790106"},{"name":"中富町","zip_code":"6752442"},{"name":"中西町","zip_code":"6752243"},{"name":"中野町","zip_code":"6752102"},{"name":"中山町","zip_code":"6752343"},{"name":"西上野町","zip_code":"6752362"},{"name":"西長町","zip_code":"6752342"},{"name":"西笠原町","zip_code":"6752213"},{"name":"西剣坂町","zip_code":"6752345"},{"name":"西谷町","zip_code":"6752366"},{"name":"西野々町","zip_code":"6752426"},{"name":"西横田町","zip_code":"6752335"},{"name":"野条町","zip_code":"6752202"},{"name":"野上町","zip_code":"6752424"},{"name":"野田町","zip_code":"6752211"},{"name":"畑町","zip_code":"6752365"},{"name":"繁昌町","zip_code":"6752101"},{"name":"東長町","zip_code":"6752341"},{"name":"東笠原町","zip_code":"6752212"},{"name":"東剣坂町","zip_code":"6752346"},{"name":"東横田町","zip_code":"6752331"},{"name":"広原町","zip_code":"6752463"},{"name":"琵琶甲町","zip_code":"6752201"},{"name":"福居町","zip_code":"6752351"},{"name":"福住町","zip_code":"6752334"},{"name":"別所町","zip_code":"6752462"},{"name":"別府町","zip_code":"6790103"},{"name":"北条町栗田","zip_code":"6752302"},{"name":"北条町黒駒","zip_code":"6752313"},{"name":"北条町小谷","zip_code":"6752301"},{"name":"北条町東高室","zip_code":"6752321"},{"name":"北条町西高室","zip_code":"6752322"},{"name":"北条町東南","zip_code":"6752324"},{"name":"北条町西南","zip_code":"6752323"},{"name":"北条町古坂","zip_code":"6752303"},{"name":"北条町北条","zip_code":"6752312"},{"name":"北条町横尾","zip_code":"6752311"},{"name":"満久町","zip_code":"6752432"},{"name":"三口町","zip_code":"6752223"},{"name":"馬渡谷町","zip_code":"6752414"},{"name":"山枝町","zip_code":"6790108"},{"name":"山下町","zip_code":"6752354"},{"name":"山田町","zip_code":"6752422"},{"name":"油谷町","zip_code":"6752404"},{"name":"吉野町","zip_code":"6752353"},{"name":"若井町","zip_code":"6752456"},{"name":"両月町","zip_code":"6752233"}]},{"name":"篠山市","divisions":[{"name":"網掛","zip_code":"6692205"},{"name":"県守","zip_code":"6692402"},{"name":"明野","zip_code":"6692822"},{"name":"味間奥","zip_code":"6692223"},{"name":"味間北","zip_code":"6692224"},{"name":"味間新","zip_code":"6692214"},{"name":"味間南","zip_code":"6692222"},{"name":"油井","zip_code":"6692114"},{"name":"荒子新田","zip_code":"6692804"},{"name":"有居","zip_code":"6692354"},{"name":"井串","zip_code":"6692541"},{"name":"池上","zip_code":"6692436"},{"name":"石住","zip_code":"6692811"},{"name":"泉","zip_code":"6692406"},{"name":"一印谷","zip_code":"6692813"},{"name":"市野々","zip_code":"6692613"},{"name":"市山","zip_code":"6692718"},{"name":"乾新町","zip_code":"6692335"},{"name":"犬飼","zip_code":"6692105"},{"name":"井ノ上","zip_code":"6692416"},{"name":"今谷","zip_code":"6692304"},{"name":"今福","zip_code":"6692357"},{"name":"岩崎","zip_code":"6692454"},{"name":"魚屋町","zip_code":"6692336"},{"name":"牛ケ瀬","zip_code":"6692106"},{"name":"打坂","zip_code":"6692715"},{"name":"宇土","zip_code":"6692455"},{"name":"追入","zip_code":"6692801"},{"name":"大上","zip_code":"6692306"},{"name":"大熊","zip_code":"6692318"},{"name":"大沢","zip_code":"6692212"},{"name":"大沢新","zip_code":"6692211"},{"name":"大谷","zip_code":"6692363"},{"name":"大野","zip_code":"6692355"},{"name":"大藤","zip_code":"6692611"},{"name":"大渕","zip_code":"6692309"},{"name":"大山上","zip_code":"6692803"},{"name":"大山下","zip_code":"6692823"},{"name":"大山新","zip_code":"6692827"},{"name":"大山宮","zip_code":"6692802"},{"name":"小川町","zip_code":"6692326"},{"name":"奥県守","zip_code":"6692401"},{"name":"奥畑","zip_code":"6692302"},{"name":"奥原山","zip_code":"6692501"},{"name":"奥山","zip_code":"6692616"},{"name":"小倉","zip_code":"6692614"},{"name":"小坂","zip_code":"6692731"},{"name":"小多田","zip_code":"6692435"},{"name":"小立","zip_code":"6692532"},{"name":"遠方","zip_code":"6692704"},{"name":"小野奥谷","zip_code":"6692522"},{"name":"小野新","zip_code":"6692523"},{"name":"小原","zip_code":"6692604"},{"name":"貝田","zip_code":"6692554"},{"name":"垣屋","zip_code":"6692714"},{"name":"春日江","zip_code":"6692408"},{"name":"上板井","zip_code":"6692732"},{"name":"上筱見","zip_code":"6692534"},{"name":"上宿","zip_code":"6692415"},{"name":"河内台","zip_code":"6692722"},{"name":"川北","zip_code":"6692724"},{"name":"川北新田","zip_code":"6692725"},{"name":"川阪","zip_code":"6692701"},{"name":"川西","zip_code":"6692735"},{"name":"川原","zip_code":"6692512"},{"name":"河原町","zip_code":"6692325"},{"name":"北","zip_code":"6692451"},{"name":"北沢田","zip_code":"6692317"},{"name":"北島","zip_code":"6692417"},{"name":"北新町","zip_code":"6692332"},{"name":"北野","zip_code":"6692824"},{"name":"北野新田","zip_code":"6692825"},{"name":"京町","zip_code":"6692438"},{"name":"草野","zip_code":"6692113"},{"name":"草ノ上","zip_code":"6692544"},{"name":"口阪本","zip_code":"6692723"},{"name":"熊谷","zip_code":"6692367"},{"name":"倉谷","zip_code":"6692407"},{"name":"倉本","zip_code":"6692713"},{"name":"栗柄","zip_code":"6692711"},{"name":"栗栖野","zip_code":"6692465"},{"name":"黒岡","zip_code":"6692321"},{"name":"黒田","zip_code":"6692726"},{"name":"桑原","zip_code":"6692703"},{"name":"郡家","zip_code":"6692341"},{"name":"古森","zip_code":"6692112"},{"name":"小田中","zip_code":"6692545"},{"name":"小中","zip_code":"6692412"},{"name":"不来坂","zip_code":"6692124"},{"name":"呉服町","zip_code":"6692322"},{"name":"小枕","zip_code":"6692461"},{"name":"今田町間新田","zip_code":"6692144"},{"name":"今田町芦原新田","zip_code":"6692155"},{"name":"今田町市原","zip_code":"6692154"},{"name":"今田町荻野分","zip_code":"6692152"},{"name":"今田町釜屋","zip_code":"6692143"},{"name":"今田町上小野原","zip_code":"6692132"},{"name":"今田町上立杭","zip_code":"6692135"},{"name":"今田町黒石","zip_code":"6692162"},{"name":"今田町木津","zip_code":"6692145"},{"name":"今田町今田","zip_code":"6692151"},{"name":"今田町今田新田","zip_code":"6692153"},{"name":"今田町佐曽良新田","zip_code":"6692156"},{"name":"今田町四斗谷","zip_code":"6692161"},{"name":"今田町下小野原","zip_code":"6692133"},{"name":"今田町下立杭","zip_code":"6692141"},{"name":"今田町辰巳","zip_code":"6692131"},{"name":"今田町東庄","zip_code":"6692142"},{"name":"今田町本荘","zip_code":"6692163"},{"name":"今田町休場","zip_code":"6692134"},{"name":"細工所","zip_code":"6692542"},{"name":"坂本","zip_code":"6692712"},{"name":"佐倉","zip_code":"6692365"},{"name":"佐貫谷","zip_code":"6692405"},{"name":"後川奥","zip_code":"6692425"},{"name":"後川上","zip_code":"6692422"},{"name":"後川下","zip_code":"6692424"},{"name":"後川新田","zip_code":"6692421"},{"name":"後川中","zip_code":"6692423"},{"name":"渋谷","zip_code":"6692439"},{"name":"下板井","zip_code":"6692733"},{"name":"下筱見","zip_code":"6692535"},{"name":"下原山","zip_code":"6692503"},{"name":"塩岡","zip_code":"6692543"},{"name":"新荘","zip_code":"6692311"},{"name":"杉","zip_code":"6692204"},{"name":"菅","zip_code":"6692312"},{"name":"筋山","zip_code":"6692315"},{"name":"住山","zip_code":"6692125"},{"name":"住吉台","zip_code":"6692231"},{"name":"瀬利","zip_code":"6692303"},{"name":"曽地奥","zip_code":"6692444"},{"name":"曽地口","zip_code":"6692442"},{"name":"曽地中","zip_code":"6692443"},{"name":"園田分","zip_code":"6692805"},{"name":"高倉","zip_code":"6692812"},{"name":"高坂","zip_code":"6692717"},{"name":"高屋","zip_code":"6692727"},{"name":"立金","zip_code":"6692612"},{"name":"立町","zip_code":"6692323"},{"name":"谷山","zip_code":"6692453"},{"name":"垂水","zip_code":"6692531"},{"name":"知足","zip_code":"6692362"},{"name":"長安寺","zip_code":"6692814"},{"name":"町ノ田","zip_code":"6692815"},{"name":"辻","zip_code":"6692411"},{"name":"寺内","zip_code":"6692366"},{"name":"東河地","zip_code":"6692821"},{"name":"当野","zip_code":"6692111"},{"name":"徳永","zip_code":"6692826"},{"name":"栃梨","zip_code":"6692525"},{"name":"殿町","zip_code":"6692434"},{"name":"中","zip_code":"6692601"},{"name":"中野","zip_code":"6692213"},{"name":"中原山","zip_code":"6692502"},{"name":"二階町","zip_code":"6692331"},{"name":"西岡屋","zip_code":"6692346"},{"name":"西木之部","zip_code":"6692736"},{"name":"西古佐","zip_code":"6692221"},{"name":"西阪本","zip_code":"6692728"},{"name":"西荘","zip_code":"6692447"},{"name":"西新町","zip_code":"6692334"},{"name":"西谷","zip_code":"6692721"},{"name":"西野々","zip_code":"6692504"},{"name":"西浜谷","zip_code":"6692352"},{"name":"西吹","zip_code":"6692206"},{"name":"西本荘","zip_code":"6692404"},{"name":"西町","zip_code":"6692342"},{"name":"西八上","zip_code":"6692433"},{"name":"二之坪","zip_code":"6692521"},{"name":"野尻","zip_code":"6692353"},{"name":"野中","zip_code":"6692452"},{"name":"野々垣","zip_code":"6692445"},{"name":"野間","zip_code":"6692313"},{"name":"乗竹","zip_code":"6692716"},{"name":"波賀野","zip_code":"6692103"},{"name":"波賀野新田","zip_code":"6692122"},{"name":"箱谷","zip_code":"6692524"},{"name":"畑井","zip_code":"6692418"},{"name":"畑市","zip_code":"6692413"},{"name":"安口","zip_code":"6692505"},{"name":"幡路","zip_code":"6692553"},{"name":"畑宮","zip_code":"6692305"},{"name":"初田","zip_code":"6692101"},{"name":"般若寺","zip_code":"6692307"},{"name":"火打岩","zip_code":"6692301"},{"name":"日置","zip_code":"6692441"},{"name":"東岡屋","zip_code":"6692345"},{"name":"東木之部","zip_code":"6692737"},{"name":"東古佐","zip_code":"6692201"},{"name":"東沢田","zip_code":"6692314"},{"name":"東新町","zip_code":"6692324"},{"name":"東浜谷","zip_code":"6692351"},{"name":"東吹","zip_code":"6692202"},{"name":"東本荘","zip_code":"6692403"},{"name":"風深","zip_code":"6692343"},{"name":"吹上","zip_code":"6692344"},{"name":"吹新","zip_code":"6692203"},{"name":"福井","zip_code":"6692603"},{"name":"福住","zip_code":"6692513"},{"name":"藤岡奥","zip_code":"6692369"},{"name":"藤岡口","zip_code":"6692368"},{"name":"藤坂","zip_code":"6692605"},{"name":"藤之木","zip_code":"6692552"},{"name":"古市","zip_code":"6692123"},{"name":"本郷","zip_code":"6692702"},{"name":"本明谷","zip_code":"6692511"},{"name":"前沢田","zip_code":"6692316"},{"name":"松ケ鼻","zip_code":"6692527"},{"name":"真南条上","zip_code":"6692462"},{"name":"真南条下","zip_code":"6692464"},{"name":"真南条中","zip_code":"6692463"},{"name":"丸山","zip_code":"6692361"},{"name":"見内","zip_code":"6692121"},{"name":"三熊","zip_code":"6692602"},{"name":"南新町","zip_code":"6692333"},{"name":"南矢代","zip_code":"6692102"},{"name":"宮代","zip_code":"6692615"},{"name":"宮田","zip_code":"6692734"},{"name":"宮ノ前","zip_code":"6692414"},{"name":"向井","zip_code":"6692526"},{"name":"糯ケ坪","zip_code":"6692437"},{"name":"八上内","zip_code":"6692432"},{"name":"八上上","zip_code":"6692446"},{"name":"八上下","zip_code":"6692431"},{"name":"矢代","zip_code":"6692356"},{"name":"矢代新","zip_code":"6692104"},{"name":"安田","zip_code":"6692551"},{"name":"山内町","zip_code":"6692337"},{"name":"山田","zip_code":"6692533"},{"name":"鷲尾","zip_code":"6692364"},{"name":"和田","zip_code":"6692308"}]},{"name":"養父市","divisions":[{"name":"上箇","zip_code":"6670115"},{"name":"浅野","zip_code":"6670103"},{"name":"伊豆","zip_code":"6670104"},{"name":"稲津","zip_code":"6670132"},{"name":"上野","zip_code":"6670131"},{"name":"鵜縄","zip_code":"6671119"},{"name":"大久保","zip_code":"6671127"},{"name":"大谷","zip_code":"6671102"},{"name":"大塚","zip_code":"6670125"},{"name":"大坪","zip_code":"6670134"},{"name":"大屋町明延","zip_code":"6670436"},{"name":"大屋町筏","zip_code":"6670322"},{"name":"大屋町糸原","zip_code":"6670431"},{"name":"大屋町上山","zip_code":"6670301"},{"name":"大屋町おうみ","zip_code":"6670303"},{"name":"大屋町大杉","zip_code":"6670314"},{"name":"大屋町大屋市場","zip_code":"6670311"},{"name":"大屋町笠谷","zip_code":"6670313"},{"name":"大屋町門野","zip_code":"6670433"},{"name":"大屋町加保","zip_code":"6670315"},{"name":"大屋町蔵垣","zip_code":"6670321"},{"name":"大屋町栗ノ下","zip_code":"6670325"},{"name":"大屋町須西","zip_code":"6670434"},{"name":"大屋町樽見","zip_code":"6670302"},{"name":"大屋町中","zip_code":"6670304"},{"name":"大屋町中間","zip_code":"6670325"},{"name":"大屋町夏梅","zip_code":"6670305"},{"name":"大屋町宮垣","zip_code":"6670306"},{"name":"大屋町宮本","zip_code":"6670432"},{"name":"大屋町山路","zip_code":"6670312"},{"name":"大屋町由良","zip_code":"6670304"},{"name":"大屋町横行","zip_code":"6670324"},{"name":"大屋町若杉","zip_code":"6670323"},{"name":"大屋町和田","zip_code":"6670435"},{"name":"大薮","zip_code":"6670111"},{"name":"奥米地","zip_code":"6670121"},{"name":"尾崎","zip_code":"6671104"},{"name":"小路頃","zip_code":"6671114"},{"name":"葛畑","zip_code":"6671115"},{"name":"鉄屋米地","zip_code":"6670123"},{"name":"川原場","zip_code":"6671113"},{"name":"草出","zip_code":"6671122"},{"name":"口米地","zip_code":"6670124"},{"name":"小城","zip_code":"6670114"},{"name":"左近山","zip_code":"6670105"},{"name":"十二所","zip_code":"6670102"},{"name":"新津","zip_code":"6670107"},{"name":"関宮","zip_code":"6671105"},{"name":"建屋","zip_code":"6670142"},{"name":"玉見","zip_code":"6670106"},{"name":"丹戸","zip_code":"6671124"},{"name":"出合","zip_code":"6671112"},{"name":"轟","zip_code":"6671117"},{"name":"外野","zip_code":"6671121"},{"name":"中瀬","zip_code":"6671116"},{"name":"長野","zip_code":"6670145"},{"name":"中米地","zip_code":"6670122"},{"name":"梨ケ原","zip_code":"6671123"},{"name":"奈良尾","zip_code":"6671125"},{"name":"能座","zip_code":"6670143"},{"name":"畑","zip_code":"6670133"},{"name":"広谷","zip_code":"6670101"},{"name":"福定","zip_code":"6671126"},{"name":"船谷","zip_code":"6670135"},{"name":"別宮","zip_code":"6671128"},{"name":"堀畑","zip_code":"6670126"},{"name":"万久里","zip_code":"6671103"},{"name":"三谷","zip_code":"6670136"},{"name":"三宅","zip_code":"6671101"},{"name":"餅耕地","zip_code":"6670144"},{"name":"森","zip_code":"6670141"},{"name":"安井","zip_code":"6671118"},{"name":"養父市場","zip_code":"6670112"},{"name":"薮崎","zip_code":"6670113"},{"name":"八鹿町青山","zip_code":"6670001"},{"name":"八鹿町朝倉","zip_code":"6670024"},{"name":"八鹿町浅間","zip_code":"6670011"},{"name":"八鹿町伊佐","zip_code":"6670012"},{"name":"八鹿町石原","zip_code":"6670051"},{"name":"八鹿町岩崎","zip_code":"6670014"},{"name":"八鹿町大江","zip_code":"6670015"},{"name":"八鹿町小佐","zip_code":"6670053"},{"name":"八鹿町上小田","zip_code":"6670004"},{"name":"八鹿町上網場","zip_code":"6670023"},{"name":"八鹿町国木","zip_code":"6670044"},{"name":"八鹿町九鹿","zip_code":"6670031"},{"name":"八鹿町小山","zip_code":"6670032"},{"name":"八鹿町今滝寺","zip_code":"6670042"},{"name":"八鹿町坂本","zip_code":"6670013"},{"name":"八鹿町下小田","zip_code":"6670005"},{"name":"八鹿町下網場","zip_code":"6670022"},{"name":"八鹿町宿南","zip_code":"6670003"},{"name":"八鹿町高柳","zip_code":"6670043"},{"name":"八鹿町日畑","zip_code":"6670052"},{"name":"八鹿町舞狂","zip_code":"6670016"},{"name":"八鹿町三谷","zip_code":"6670002"},{"name":"八鹿町米里","zip_code":"6670045"},{"name":"八鹿町八木","zip_code":"6670041"},{"name":"八鹿町八鹿","zip_code":"6670021"},{"name":"吉井","zip_code":"6671111"}]},{"name":"丹波市","divisions":[{"name":"青垣町市原","zip_code":"6693831"},{"name":"青垣町稲土","zip_code":"6693827"},{"name":"青垣町奥塩久","zip_code":"6693843"},{"name":"青垣町小倉","zip_code":"6693812"},{"name":"青垣町大名草","zip_code":"6693822"},{"name":"青垣町大稗","zip_code":"6693823"},{"name":"青垣町口塩久","zip_code":"6693841"},{"name":"青垣町栗住野","zip_code":"6693802"},{"name":"青垣町小稗","zip_code":"6693824"},{"name":"青垣町佐治","zip_code":"6693811"},{"name":"青垣町沢野","zip_code":"6693842"},{"name":"青垣町惣持","zip_code":"6693825"},{"name":"青垣町田井縄","zip_code":"6693804"},{"name":"青垣町遠阪","zip_code":"6693832"},{"name":"青垣町中佐治","zip_code":"6693834"},{"name":"青垣町西芦田","zip_code":"6693803"},{"name":"青垣町東芦田","zip_code":"6693801"},{"name":"青垣町桧倉","zip_code":"6693821"},{"name":"青垣町文室","zip_code":"6693826"},{"name":"青垣町山垣","zip_code":"6693833"},{"name":"市島町市島","zip_code":"6694324"},{"name":"市島町岩戸","zip_code":"6694316"},{"name":"市島町上垣","zip_code":"6694321"},{"name":"市島町上牧","zip_code":"6694317"},{"name":"市島町乙河内","zip_code":"6694336"},{"name":"市島町梶原","zip_code":"6694323"},{"name":"市島町上鴨阪","zip_code":"6694344"},{"name":"市島町上田","zip_code":"6694322"},{"name":"市島町上竹田","zip_code":"6694341"},{"name":"市島町喜多","zip_code":"6694315"},{"name":"市島町北岡本","zip_code":"6694325"},{"name":"市島町北奥","zip_code":"6694312"},{"name":"市島町酒梨","zip_code":"6694337"},{"name":"市島町下鴨阪","zip_code":"6694343"},{"name":"市島町下竹田","zip_code":"6694301"},{"name":"市島町多利","zip_code":"6694313"},{"name":"市島町勅使","zip_code":"6694332"},{"name":"市島町徳尾","zip_code":"6694345"},{"name":"市島町戸坂","zip_code":"6694333"},{"name":"市島町戸平","zip_code":"6694311"},{"name":"市島町中竹田","zip_code":"6694302"},{"name":"市島町東勅使","zip_code":"6694331"},{"name":"市島町白毫寺","zip_code":"6694334"},{"name":"市島町南","zip_code":"6694314"},{"name":"市島町矢代","zip_code":"6694342"},{"name":"市島町与戸","zip_code":"6694335"},{"name":"柏原町挙田","zip_code":"6693314"},{"name":"柏原町石戸","zip_code":"6693307"},{"name":"柏原町大新屋","zip_code":"6693315"},{"name":"柏原町柏原","zip_code":"6693309"},{"name":"柏原町上小倉","zip_code":"6693304"},{"name":"柏原町鴨野","zip_code":"6693316"},{"name":"柏原町北中","zip_code":"6693306"},{"name":"柏原町北山","zip_code":"6693313"},{"name":"柏原町小南","zip_code":"6693308"},{"name":"柏原町下小倉","zip_code":"6693305"},{"name":"柏原町田路","zip_code":"6693312"},{"name":"柏原町東奥","zip_code":"6693302"},{"name":"柏原町母坪","zip_code":"6693311"},{"name":"柏原町見長","zip_code":"6693303"},{"name":"柏原町南多田","zip_code":"6693301"},{"name":"春日町朝日","zip_code":"6693411"},{"name":"春日町池尾","zip_code":"6694121"},{"name":"春日町石才","zip_code":"6693413"},{"name":"春日町稲塚","zip_code":"6694135"},{"name":"春日町牛河内","zip_code":"6693404"},{"name":"春日町歌道谷","zip_code":"6693414"},{"name":"春日町上三井庄","zip_code":"6694251"},{"name":"春日町栢野","zip_code":"6694262"},{"name":"春日町鹿場","zip_code":"6694253"},{"name":"春日町黒井","zip_code":"6694141"},{"name":"春日町国領","zip_code":"6694273"},{"name":"春日町小多利","zip_code":"6694122"},{"name":"春日町坂","zip_code":"6693415"},{"name":"春日町下三井庄","zip_code":"6694252"},{"name":"春日町新才","zip_code":"6693402"},{"name":"春日町園部","zip_code":"6693412"},{"name":"春日町多田","zip_code":"6694125"},{"name":"春日町棚原","zip_code":"6694274"},{"name":"春日町多利","zip_code":"6694123"},{"name":"春日町長王","zip_code":"6693403"},{"name":"春日町中山","zip_code":"6694265"},{"name":"春日町七日市","zip_code":"6694131"},{"name":"春日町野上野","zip_code":"6694124"},{"name":"春日町野瀬","zip_code":"6694261"},{"name":"春日町野村","zip_code":"6694132"},{"name":"春日町野山","zip_code":"6693416"},{"name":"春日町東中","zip_code":"6694272"},{"name":"春日町平松","zip_code":"6694133"},{"name":"春日町広瀬","zip_code":"6694263"},{"name":"春日町古河","zip_code":"6694134"},{"name":"春日町松森","zip_code":"6694264"},{"name":"春日町山田","zip_code":"6693401"},{"name":"春日町柚津","zip_code":"6694271"},{"name":"山南町青田","zip_code":"6693112"},{"name":"山南町阿草","zip_code":"6693111"},{"name":"山南町池谷","zip_code":"6693125"},{"name":"山南町井原","zip_code":"6693143"},{"name":"山南町岩屋","zip_code":"6693141"},{"name":"山南町応地","zip_code":"6693158"},{"name":"山南町大河","zip_code":"6693123"},{"name":"山南町太田","zip_code":"6693113"},{"name":"山南町大谷","zip_code":"6693124"},{"name":"山南町岡本","zip_code":"6693127"},{"name":"山南町奥","zip_code":"6693144"},{"name":"山南町奥野々","zip_code":"6693121"},{"name":"山南町小野尻","zip_code":"6693166"},{"name":"山南町小畑","zip_code":"6693167"},{"name":"山南町梶","zip_code":"6693154"},{"name":"山南町金倉","zip_code":"6693156"},{"name":"山南町金屋","zip_code":"6693128"},{"name":"山南町上滝","zip_code":"6693101"},{"name":"山南町北太田","zip_code":"6693105"},{"name":"山南町北和田","zip_code":"6693152"},{"name":"山南町きらら通","zip_code":"6693148"},{"name":"山南町草部","zip_code":"6693151"},{"name":"山南町五ケ野","zip_code":"6693161"},{"name":"山南町小新屋","zip_code":"6693155"},{"name":"山南町坂尻","zip_code":"6693162"},{"name":"山南町篠場","zip_code":"6693103"},{"name":"山南町子茂田","zip_code":"6693147"},{"name":"山南町下滝","zip_code":"6693102"},{"name":"山南町谷川","zip_code":"6693131"},{"name":"山南町玉巻","zip_code":"6693122"},{"name":"山南町富田","zip_code":"6693165"},{"name":"山南町長野","zip_code":"6693126"},{"name":"山南町西谷","zip_code":"6693168"},{"name":"山南町野坂","zip_code":"6693145"},{"name":"山南町畑内","zip_code":"6693104"},{"name":"山南町前川","zip_code":"6693153"},{"name":"山南町南中","zip_code":"6693146"},{"name":"山南町美和","zip_code":"6693159"},{"name":"山南町村森","zip_code":"6693142"},{"name":"山南町山崎","zip_code":"6693132"},{"name":"山南町山本","zip_code":"6693163"},{"name":"山南町若林","zip_code":"6693164"},{"name":"山南町和田","zip_code":"6693157"},{"name":"氷上町上成松","zip_code":"6693606"},{"name":"氷上町朝阪","zip_code":"6693574"},{"name":"氷上町伊佐口","zip_code":"6693643"},{"name":"氷上町石生","zip_code":"6693464"},{"name":"氷上町市辺","zip_code":"6693461"},{"name":"氷上町井中","zip_code":"6693632"},{"name":"氷上町稲継","zip_code":"6693466"},{"name":"氷上町稲畑","zip_code":"6693581"},{"name":"氷上町犬岡","zip_code":"6693604"},{"name":"氷上町大崎","zip_code":"6693462"},{"name":"氷上町大谷","zip_code":"6693621"},{"name":"氷上町長野","zip_code":"6693612"},{"name":"氷上町小野","zip_code":"6693575"},{"name":"氷上町柿柴","zip_code":"6693611"},{"name":"氷上町上新庄","zip_code":"6693613"},{"name":"氷上町賀茂","zip_code":"6693631"},{"name":"氷上町鴨内","zip_code":"6693645"},{"name":"氷上町北野","zip_code":"6693463"},{"name":"氷上町北油良","zip_code":"6693653"},{"name":"氷上町絹山","zip_code":"6693641"},{"name":"氷上町清住","zip_code":"6693626"},{"name":"氷上町黒田","zip_code":"6693605"},{"name":"氷上町香良","zip_code":"6693642"},{"name":"氷上町小谷","zip_code":"6693646"},{"name":"氷上町御油","zip_code":"6693633"},{"name":"氷上町桟敷","zip_code":"6693652"},{"name":"氷上町佐野","zip_code":"6693582"},{"name":"氷上町下新庄","zip_code":"6693614"},{"name":"氷上町常楽","zip_code":"6693602"},{"name":"氷上町新郷","zip_code":"6693571"},{"name":"氷上町谷村","zip_code":"6693572"},{"name":"氷上町中","zip_code":"6693625"},{"name":"氷上町中野","zip_code":"6693623"},{"name":"氷上町成松","zip_code":"6693601"},{"name":"氷上町西中","zip_code":"6693603"},{"name":"氷上町沼","zip_code":"6693634"},{"name":"氷上町氷上","zip_code":"6693651"},{"name":"氷上町日比宇","zip_code":"6693644"},{"name":"氷上町福田","zip_code":"6693583"},{"name":"氷上町本郷","zip_code":"6693467"},{"name":"氷上町三方","zip_code":"6693624"},{"name":"氷上町南油良","zip_code":"6693654"},{"name":"氷上町三原","zip_code":"6693622"},{"name":"氷上町油利","zip_code":"6693573"},{"name":"氷上町横田","zip_code":"6693465"}]},{"name":"南あわじ市","divisions":[{"name":"阿那賀","zip_code":"6560661"},{"name":"阿那賀志知川","zip_code":"6560662"},{"name":"阿那賀西路","zip_code":"6560663"},{"name":"阿万上町","zip_code":"6560541"},{"name":"阿万塩屋町","zip_code":"6560543"},{"name":"阿万下町","zip_code":"6560544"},{"name":"阿万西町","zip_code":"6560545"},{"name":"阿万東町","zip_code":"6560546"},{"name":"阿万吹上町","zip_code":"6560542"},{"name":"伊加利","zip_code":"6560651"},{"name":"市青木","zip_code":"6560462"},{"name":"市市","zip_code":"6560474"},{"name":"市円行寺","zip_code":"6560461"},{"name":"市小井","zip_code":"6560473"},{"name":"市三條","zip_code":"6560475"},{"name":"市十一ケ所","zip_code":"6560471"},{"name":"市新","zip_code":"6560476"},{"name":"市善光寺","zip_code":"6560472"},{"name":"市徳長","zip_code":"6560477"},{"name":"市福永","zip_code":"6560478"},{"name":"榎列大榎列","zip_code":"6560426"},{"name":"榎列上幡多","zip_code":"6560422"},{"name":"榎列掃守","zip_code":"6560428"},{"name":"榎列小榎列","zip_code":"6560425"},{"name":"榎列下幡多","zip_code":"6560423"},{"name":"榎列西川","zip_code":"6560424"},{"name":"榎列松田","zip_code":"6560427"},{"name":"榎列山所","zip_code":"6560421"},{"name":"賀集牛内","zip_code":"6560518"},{"name":"賀集内ケ原","zip_code":"6560517"},{"name":"賀集鍛治屋","zip_code":"6560515"},{"name":"賀集生子","zip_code":"6560517"},{"name":"賀集立川瀬","zip_code":"6560512"},{"name":"賀集長原","zip_code":"6560517"},{"name":"賀集野田","zip_code":"6560513"},{"name":"賀集福井","zip_code":"6560516"},{"name":"賀集八幡","zip_code":"6560511"},{"name":"賀集","zip_code":"6560514"},{"name":"北阿万伊賀野","zip_code":"6560531"},{"name":"北阿万稲田南","zip_code":"6560532"},{"name":"北阿万新田","zip_code":"6560533"},{"name":"北阿万筒井","zip_code":"6560534"},{"name":"潮美台","zip_code":"6560521"},{"name":"志知","zip_code":"6560321"},{"name":"志知奥","zip_code":"6560325"},{"name":"志知北","zip_code":"6560327"},{"name":"志知口","zip_code":"6560324"},{"name":"志知佐礼尾","zip_code":"6560484"},{"name":"志知鈩","zip_code":"6560322"},{"name":"志知中島","zip_code":"6560483"},{"name":"志知難波","zip_code":"6560482"},{"name":"志知飯山寺","zip_code":"6560323"},{"name":"志知松本","zip_code":"6560481"},{"name":"志知南","zip_code":"6560326"},{"name":"倭文安住寺","zip_code":"6560151"},{"name":"倭文委文","zip_code":"6560412"},{"name":"倭文高","zip_code":"6560411"},{"name":"倭文庄田","zip_code":"6560153"},{"name":"倭文神道","zip_code":"6560154"},{"name":"倭文土井","zip_code":"6560161"},{"name":"倭文長田","zip_code":"6560152"},{"name":"倭文流","zip_code":"6560413"},{"name":"神代浦壁","zip_code":"6560452"},{"name":"神代喜来","zip_code":"6560454"},{"name":"神代黒道","zip_code":"6560453"},{"name":"神代國衙","zip_code":"6560455"},{"name":"神代地頭方","zip_code":"6560456"},{"name":"神代社家","zip_code":"6560451"},{"name":"神代富田","zip_code":"6560457"},{"name":"中条中筋","zip_code":"6560143"},{"name":"中条徳原","zip_code":"6560142"},{"name":"中条広田","zip_code":"6560141"},{"name":"津井","zip_code":"6560341"},{"name":"灘","zip_code":"6560551"},{"name":"沼島","zip_code":"6560961"},{"name":"広田中筋","zip_code":"6560131"},{"name":"広田広田","zip_code":"6560122"},{"name":"福良乙","zip_code":"6560502"},{"name":"福良甲","zip_code":"6560501"},{"name":"福良丙","zip_code":"6560503"},{"name":"松帆檪田","zip_code":"6560307"},{"name":"松帆江尻","zip_code":"6560303"},{"name":"松帆戒旦寺","zip_code":"6560311"},{"name":"松帆北方","zip_code":"6560301"},{"name":"松帆北浜","zip_code":"6560305"},{"name":"松帆慶野","zip_code":"6560306"},{"name":"松帆古津路","zip_code":"6560304"},{"name":"松帆塩浜","zip_code":"6560302"},{"name":"松帆志知川","zip_code":"6560313"},{"name":"松帆高屋","zip_code":"6560315"},{"name":"松帆西路","zip_code":"6560314"},{"name":"松帆宝明寺","zip_code":"6560308"},{"name":"松帆脇田","zip_code":"6560312"},{"name":"湊","zip_code":"6560332"},{"name":"湊里","zip_code":"6560331"},{"name":"八木入田","zip_code":"6560441"},{"name":"八木馬回","zip_code":"6560445"},{"name":"八木大久保","zip_code":"6560444"},{"name":"八木国分","zip_code":"6560434"},{"name":"八木寺内","zip_code":"6560446"},{"name":"八木新庄","zip_code":"6560436"},{"name":"八木立石","zip_code":"6560435"},{"name":"八木徳野","zip_code":"6560432"},{"name":"八木鳥井","zip_code":"6560433"},{"name":"八木野原","zip_code":"6560431"},{"name":"八木養宜上","zip_code":"6560443"},{"name":"八木養宜中","zip_code":"6560442"},{"name":"山添","zip_code":"6560121"}]},{"name":"朝来市","divisions":[{"name":"生野町猪野々","zip_code":"6793325"},{"name":"生野町奥銀谷","zip_code":"6793322"},{"name":"生野町川尻","zip_code":"6793332"},{"name":"生野町口銀谷","zip_code":"6793301"},{"name":"生野町黒川","zip_code":"6793341"},{"name":"生野町小野","zip_code":"6793324"},{"name":"生野町白口","zip_code":"6793326"},{"name":"生野町新町","zip_code":"6793321"},{"name":"生野町竹原野","zip_code":"6793323"},{"name":"生野町栃原","zip_code":"6793331"},{"name":"生野町真弓","zip_code":"6793311"},{"name":"生野町円山","zip_code":"6793302"},{"name":"石田","zip_code":"6793422"},{"name":"伊由市場","zip_code":"6793421"},{"name":"岩津","zip_code":"6793433"},{"name":"上八代","zip_code":"6793451"},{"name":"川上","zip_code":"6793414"},{"name":"桑市","zip_code":"6793402"},{"name":"佐嚢","zip_code":"6793453"},{"name":"沢","zip_code":"6793411"},{"name":"山東町粟鹿","zip_code":"6695125"},{"name":"山東町一品","zip_code":"6695123"},{"name":"山東町大内","zip_code":"6695112"},{"name":"山東町大垣","zip_code":"6695102"},{"name":"山東町大月","zip_code":"6695153"},{"name":"山東町越田","zip_code":"6695142"},{"name":"山東町柿坪","zip_code":"6695143"},{"name":"山東町楽音寺","zip_code":"6695152"},{"name":"山東町金浦","zip_code":"6695115"},{"name":"山東町喜多垣","zip_code":"6695133"},{"name":"山東町小谷","zip_code":"6695151"},{"name":"山東町塩田","zip_code":"6695113"},{"name":"山東町柴","zip_code":"6695124"},{"name":"山東町新堂","zip_code":"6695111"},{"name":"山東町滝田","zip_code":"6695101"},{"name":"山東町野間","zip_code":"6695114"},{"name":"山東町迫間","zip_code":"6695134"},{"name":"山東町柊木","zip_code":"6695131"},{"name":"山東町末歳","zip_code":"6695104"},{"name":"山東町溝黒","zip_code":"6695132"},{"name":"山東町三保","zip_code":"6695141"},{"name":"山東町森","zip_code":"6695135"},{"name":"山東町矢名瀬町","zip_code":"6695103"},{"name":"山東町与布土","zip_code":"6695136"},{"name":"山東町和賀","zip_code":"6695121"},{"name":"山東町早田","zip_code":"6695122"},{"name":"多々良木","zip_code":"6793423"},{"name":"立脇","zip_code":"6793403"},{"name":"立野","zip_code":"6793424"},{"name":"田路","zip_code":"6793442"},{"name":"新井","zip_code":"6793431"},{"name":"納座","zip_code":"6793413"},{"name":"羽渕","zip_code":"6793441"},{"name":"物部","zip_code":"6793401"},{"name":"八代","zip_code":"6793452"},{"name":"山内","zip_code":"6793412"},{"name":"山口","zip_code":"6793432"},{"name":"和田山町秋葉台","zip_code":"6695221"},{"name":"和田山町朝日","zip_code":"6695238"},{"name":"和田山町市場","zip_code":"6695234"},{"name":"和田山町市御堂","zip_code":"6695262"},{"name":"和田山町内海","zip_code":"6695236"},{"name":"和田山町駅北","zip_code":"6695204"},{"name":"和田山町岡","zip_code":"6695246"},{"name":"和田山町岡田","zip_code":"6695224"},{"name":"和田山町加都","zip_code":"6695264"},{"name":"和田山町久世田","zip_code":"6695253"},{"name":"和田山町久田和","zip_code":"6695228"},{"name":"和田山町久留引","zip_code":"6695263"},{"name":"和田山町桑原","zip_code":"6695214"},{"name":"和田山町栄町","zip_code":"6695251"},{"name":"和田山町三波","zip_code":"6695256"},{"name":"和田山町城南台","zip_code":"6695258"},{"name":"和田山町白井","zip_code":"6695220"},{"name":"和田山町高田","zip_code":"6695243"},{"name":"和田山町竹田","zip_code":"6695252"},{"name":"和田山町竹ノ内","zip_code":"6695237"},{"name":"和田山町高生田","zip_code":"6695233"},{"name":"和田山町立ノ原","zip_code":"6695268"},{"name":"和田山町玉置","zip_code":"6695213"},{"name":"和田山町筒江","zip_code":"6695265"},{"name":"和田山町寺内","zip_code":"6695232"},{"name":"和田山町寺谷","zip_code":"6695203"},{"name":"和田山町殿","zip_code":"6695255"},{"name":"和田山町中","zip_code":"6695226"},{"name":"和田山町野村","zip_code":"6695225"},{"name":"和田山町林垣","zip_code":"6695231"},{"name":"和田山町土田","zip_code":"6695241"},{"name":"和田山町東谷","zip_code":"6695202"},{"name":"和田山町東和田","zip_code":"6695227"},{"name":"和田山町比治","zip_code":"6695266"},{"name":"和田山町枚田","zip_code":"6695261"},{"name":"和田山町枚田岡","zip_code":"6695215"},{"name":"和田山町平野","zip_code":"6695211"},{"name":"和田山町藤和","zip_code":"6695257"},{"name":"和田山町法道寺","zip_code":"6695245"},{"name":"和田山町法興寺","zip_code":"6695267"},{"name":"和田山町万葉台","zip_code":"6695222"},{"name":"和田山町宮","zip_code":"6695229"},{"name":"和田山町宮内","zip_code":"6695244"},{"name":"和田山町宮田","zip_code":"6695242"},{"name":"和田山町室尾","zip_code":"6695223"},{"name":"和田山町安井","zip_code":"6695254"},{"name":"和田山町柳原","zip_code":"6695212"},{"name":"和田山町弥生が丘","zip_code":"6695216"},{"name":"和田山町和田","zip_code":"6695235"},{"name":"和田山町和田山","zip_code":"6695201"}]},{"name":"淡路市","divisions":[{"name":"浅野神田","zip_code":"6561742"},{"name":"浅野南","zip_code":"6561741"},{"name":"生田大坪","zip_code":"6561603"},{"name":"生田田尻","zip_code":"6561605"},{"name":"生田畑","zip_code":"6561604"},{"name":"育波","zip_code":"6561602"},{"name":"生穂","zip_code":"6562223"},{"name":"生穂新島","zip_code":"6562225"},{"name":"池ノ内","zip_code":"6562161"},{"name":"石田","zip_code":"6561712"},{"name":"井手","zip_code":"6561525"},{"name":"入野","zip_code":"6561552"},{"name":"岩屋","zip_code":"6562401"},{"name":"浦","zip_code":"6562305"},{"name":"江井","zip_code":"6561531"},{"name":"王子","zip_code":"6562162"},{"name":"大磯","zip_code":"6562302"},{"name":"大谷","zip_code":"6562224"},{"name":"大町上","zip_code":"6562155"},{"name":"大町下","zip_code":"6562156"},{"name":"大町畑","zip_code":"6562151"},{"name":"小倉","zip_code":"6561736"},{"name":"尾崎","zip_code":"6561501"},{"name":"小田","zip_code":"6561732"},{"name":"釜口","zip_code":"6562334"},{"name":"上河合","zip_code":"6561523"},{"name":"仮屋","zip_code":"6562331"},{"name":"木曽上","zip_code":"6562152"},{"name":"木曽上畑","zip_code":"6562153"},{"name":"木曽下","zip_code":"6562154"},{"name":"北山","zip_code":"6561512"},{"name":"草香","zip_code":"6561556"},{"name":"草香北","zip_code":"6561558"},{"name":"楠本","zip_code":"6562301"},{"name":"下司","zip_code":"6562144"},{"name":"久野々","zip_code":"6561735"},{"name":"久留麻","zip_code":"6562311"},{"name":"黒谷","zip_code":"6561601"},{"name":"郡家","zip_code":"6561511"},{"name":"小磯","zip_code":"6562303"},{"name":"河内","zip_code":"6562323"},{"name":"興隆寺","zip_code":"6562211"},{"name":"里","zip_code":"6562143"},{"name":"佐野","zip_code":"6562212"},{"name":"佐野新島","zip_code":"6562213"},{"name":"塩尾","zip_code":"6562141"},{"name":"塩田新島","zip_code":"6562142"},{"name":"志筑","zip_code":"6562131"},{"name":"志筑新島","zip_code":"6562132"},{"name":"下河合","zip_code":"6561522"},{"name":"下田","zip_code":"6562333"},{"name":"白山","zip_code":"6562322"},{"name":"新村","zip_code":"6561502"},{"name":"多賀","zip_code":"6561521"},{"name":"高山","zip_code":"6561551"},{"name":"竹谷","zip_code":"6561524"},{"name":"谷","zip_code":"6562332"},{"name":"遠田","zip_code":"6561503"},{"name":"富島","zip_code":"6561711"},{"name":"斗ノ内","zip_code":"6561743"},{"name":"長沢","zip_code":"6562221"},{"name":"中田","zip_code":"6562163"},{"name":"長畠","zip_code":"6561733"},{"name":"中村","zip_code":"6561526"},{"name":"中持","zip_code":"6562321"},{"name":"仁井","zip_code":"6561731"},{"name":"野島大川","zip_code":"6561723"},{"name":"野島貴船","zip_code":"6561727"},{"name":"野島常盤","zip_code":"6561726"},{"name":"野島轟木","zip_code":"6561722"},{"name":"野島蟇浦","zip_code":"6561721"},{"name":"野島平林","zip_code":"6561724"},{"name":"野島江崎","zip_code":"6562451"},{"name":"野田尾","zip_code":"6562222"},{"name":"浜","zip_code":"6562304"},{"name":"深草","zip_code":"6561554"},{"name":"舟木","zip_code":"6561734"},{"name":"南","zip_code":"6561555"},{"name":"南鵜崎","zip_code":"6562307"},{"name":"明神","zip_code":"6561557"},{"name":"室津","zip_code":"6561606"},{"name":"柳沢","zip_code":"6561541"},{"name":"山田","zip_code":"6561553"},{"name":"夢舞台","zip_code":"6562306"}]},{"name":"宍粟市","divisions":[{"name":"一宮町安黒","zip_code":"6714135"},{"name":"一宮町安積","zip_code":"6714131"},{"name":"一宮町井内","zip_code":"6714104"},{"name":"一宮町生栖","zip_code":"6714123"},{"name":"一宮町伊和","zip_code":"6714134"},{"name":"一宮町閏賀","zip_code":"6714137"},{"name":"一宮町百千家満","zip_code":"6714106"},{"name":"一宮町上岸田","zip_code":"6714105"},{"name":"一宮町上野田","zip_code":"6714143"},{"name":"一宮町河原田","zip_code":"6714115"},{"name":"一宮町草木","zip_code":"6714107"},{"name":"一宮町公文","zip_code":"6714111"},{"name":"一宮町倉床","zip_code":"6714101"},{"name":"一宮町黒原","zip_code":"6714103"},{"name":"一宮町嶋田","zip_code":"6714136"},{"name":"一宮町下野田","zip_code":"6714144"},{"name":"一宮町杉田","zip_code":"6714139"},{"name":"一宮町須行名","zip_code":"6714133"},{"name":"一宮町千町","zip_code":"6714108"},{"name":"一宮町西安積","zip_code":"6714138"},{"name":"一宮町西深","zip_code":"6714125"},{"name":"一宮町東市場","zip_code":"6714132"},{"name":"一宮町東河内","zip_code":"6714141"},{"name":"一宮町深河谷","zip_code":"6714124"},{"name":"一宮町福知","zip_code":"6714122"},{"name":"一宮町福中","zip_code":"6714121"},{"name":"一宮町福野","zip_code":"6714114"},{"name":"一宮町三方町","zip_code":"6714113"},{"name":"一宮町森添","zip_code":"6714112"},{"name":"一宮町能倉","zip_code":"6714142"},{"name":"一宮町横山","zip_code":"6714102"},{"name":"千種町岩野辺","zip_code":"6713211"},{"name":"千種町奥西山","zip_code":"6713222"},{"name":"千種町黒土","zip_code":"6713202"},{"name":"千種町下河野","zip_code":"6713225"},{"name":"千種町河内","zip_code":"6713232"},{"name":"千種町河呂","zip_code":"6713231"},{"name":"千種町鷹巣","zip_code":"6713212"},{"name":"千種町千草","zip_code":"6713201"},{"name":"千種町西河内","zip_code":"6713233"},{"name":"千種町西山","zip_code":"6713221"},{"name":"千種町七野","zip_code":"6713224"},{"name":"千種町室","zip_code":"6713223"},{"name":"波賀町有賀","zip_code":"6714231"},{"name":"波賀町飯見","zip_code":"6714215"},{"name":"波賀町今市","zip_code":"6714242"},{"name":"波賀町上野","zip_code":"6714221"},{"name":"波賀町小野","zip_code":"6714243"},{"name":"波賀町音水","zip_code":"6714211"},{"name":"波賀町斉木","zip_code":"6714232"},{"name":"波賀町鹿伏","zip_code":"6714203"},{"name":"波賀町谷","zip_code":"6714244"},{"name":"波賀町道谷","zip_code":"6714202"},{"name":"波賀町戸倉","zip_code":"6714201"},{"name":"波賀町野尻","zip_code":"6714214"},{"name":"波賀町原","zip_code":"6714213"},{"name":"波賀町引原","zip_code":"6714204"},{"name":"波賀町日ノ原","zip_code":"6714212"},{"name":"波賀町日見谷","zip_code":"6714245"},{"name":"波賀町皆木","zip_code":"6714216"},{"name":"波賀町安賀","zip_code":"6714241"},{"name":"山崎町青木","zip_code":"6712564"},{"name":"山崎町五十波","zip_code":"6712515"},{"name":"山崎町生谷","zip_code":"6712517"},{"name":"山崎町市場","zip_code":"6712566"},{"name":"山崎町今宿","zip_code":"6712573"},{"name":"山崎町上寺","zip_code":"6712571"},{"name":"山崎町宇野","zip_code":"6712506"},{"name":"山崎町宇原","zip_code":"6712535"},{"name":"山崎町大沢","zip_code":"6712562"},{"name":"山崎町大谷","zip_code":"6712503"},{"name":"山崎町梯","zip_code":"6712513"},{"name":"山崎町加生","zip_code":"6712570"},{"name":"山崎町葛根","zip_code":"6712568"},{"name":"山崎町片山","zip_code":"6712505"},{"name":"山崎町金谷","zip_code":"6712555"},{"name":"山崎町上ノ","zip_code":"6712501"},{"name":"山崎町上比地","zip_code":"6712558"},{"name":"山崎町上牧谷","zip_code":"6712508"},{"name":"山崎町川戸","zip_code":"6712534"},{"name":"山崎町岸田","zip_code":"6712527"},{"name":"山崎町木谷","zip_code":"6712567"},{"name":"山崎町木ノ谷","zip_code":"6712521"},{"name":"山崎町高下","zip_code":"6712565"},{"name":"山崎町高所","zip_code":"6712532"},{"name":"山崎町神谷","zip_code":"6712525"},{"name":"山崎町小茅野","zip_code":"6712561"},{"name":"山崎町御名","zip_code":"6712554"},{"name":"山崎町塩田","zip_code":"6712563"},{"name":"山崎町塩山","zip_code":"6712560"},{"name":"山崎町鹿沢","zip_code":"6712576"},{"name":"山崎町下宇原","zip_code":"6712536"},{"name":"山崎町下比地","zip_code":"6712556"},{"name":"山崎町下広瀬","zip_code":"6712541"},{"name":"山崎町下牧谷","zip_code":"6712507"},{"name":"山崎町下町","zip_code":"6712519"},{"name":"山崎町庄能","zip_code":"6712572"},{"name":"山崎町須賀沢","zip_code":"6712533"},{"name":"山崎町杉ケ瀬","zip_code":"6712522"},{"name":"山崎町清野","zip_code":"6712511"},{"name":"山崎町千本屋","zip_code":"6712544"},{"name":"山崎町田井","zip_code":"6712514"},{"name":"山崎町段","zip_code":"6712552"},{"name":"山崎町鶴木","zip_code":"6712553"},{"name":"山崎町中","zip_code":"6712531"},{"name":"山崎町中井","zip_code":"6712545"},{"name":"山崎町中野","zip_code":"6712502"},{"name":"山崎町中比地","zip_code":"6712557"},{"name":"山崎町中広瀬","zip_code":"6712574"},{"name":"山崎町野","zip_code":"6712543"},{"name":"山崎町野々上","zip_code":"6712528"},{"name":"山崎町春安","zip_code":"6712551"},{"name":"山崎町東下野","zip_code":"6712504"},{"name":"山崎町土万","zip_code":"6712569"},{"name":"山崎町船元","zip_code":"6712542"},{"name":"山崎町三谷","zip_code":"6712524"},{"name":"山崎町三津","zip_code":"6712516"},{"name":"山崎町母栖","zip_code":"6712523"},{"name":"山崎町元山崎","zip_code":"6712578"},{"name":"山崎町門前","zip_code":"6712579"},{"name":"山崎町矢原","zip_code":"6712526"},{"name":"山崎町山崎","zip_code":"6712577"},{"name":"山崎町山田","zip_code":"6712575"},{"name":"山崎町与位","zip_code":"6712512"},{"name":"山崎町横須","zip_code":"6712518"}]},{"name":"加東市","divisions":[{"name":"秋津","zip_code":"6731302"},{"name":"厚利","zip_code":"6731338"},{"name":"家原","zip_code":"6731451"},{"name":"池之内","zip_code":"6731413"},{"name":"出水","zip_code":"6731442"},{"name":"稲尾","zip_code":"6790203"},{"name":"岩屋","zip_code":"6731321"},{"name":"上田","zip_code":"6731446"},{"name":"馬瀬","zip_code":"6731404"},{"name":"永福","zip_code":"6731313"},{"name":"多井田","zip_code":"6790202"},{"name":"大畑","zip_code":"6731325"},{"name":"岡本","zip_code":"6731323"},{"name":"小沢","zip_code":"6731333"},{"name":"貝原","zip_code":"6731453"},{"name":"梶原","zip_code":"6731463"},{"name":"上鴨川","zip_code":"6731401"},{"name":"上久米","zip_code":"6731414"},{"name":"上滝野","zip_code":"6790211"},{"name":"上中","zip_code":"6731464"},{"name":"上三草","zip_code":"6731472"},{"name":"喜田","zip_code":"6731465"},{"name":"北野","zip_code":"6790205"},{"name":"木梨","zip_code":"6731461"},{"name":"窪田","zip_code":"6731456"},{"name":"久米","zip_code":"6731416"},{"name":"黒谷","zip_code":"6731301"},{"name":"河高","zip_code":"6790221"},{"name":"光明寺","zip_code":"6790213"},{"name":"栄枝","zip_code":"6731332"},{"name":"桜台","zip_code":"6790223"},{"name":"佐保","zip_code":"6731447"},{"name":"沢部","zip_code":"6731444"},{"name":"下鴨川","zip_code":"6731403"},{"name":"下久米","zip_code":"6731415"},{"name":"下滝野","zip_code":"6790212"},{"name":"下三草","zip_code":"6731473"},{"name":"少分谷","zip_code":"6731303"},{"name":"新定","zip_code":"6731324"},{"name":"新町","zip_code":"6790204"},{"name":"曽我","zip_code":"6790201"},{"name":"大門","zip_code":"6731445"},{"name":"高岡","zip_code":"6790222"},{"name":"滝野団地","zip_code":"6790207"},{"name":"田中","zip_code":"6731441"},{"name":"天神","zip_code":"6731311"},{"name":"東実","zip_code":"6731434"},{"name":"鳥居","zip_code":"6731452"},{"name":"中古瀬","zip_code":"6731424"},{"name":"長貞","zip_code":"6731304"},{"name":"西古瀬","zip_code":"6731425"},{"name":"西垂水","zip_code":"6731455"},{"name":"野村","zip_code":"6731454"},{"name":"掎鹿谷","zip_code":"6731312"},{"name":"畑","zip_code":"6731411"},{"name":"東古瀬","zip_code":"6731423"},{"name":"東垂水","zip_code":"6731336"},{"name":"平木","zip_code":"6731402"},{"name":"ひろのが丘","zip_code":"6731432"},{"name":"福吉","zip_code":"6731443"},{"name":"藤田","zip_code":"6731462"},{"name":"穂積","zip_code":"6790206"},{"name":"牧野","zip_code":"6731474"},{"name":"松尾","zip_code":"6731433"},{"name":"松沢","zip_code":"6731337"},{"name":"廻渕","zip_code":"6731412"},{"name":"南山","zip_code":"6731341"},{"name":"森","zip_code":"6731322"},{"name":"森尾","zip_code":"6731331"},{"name":"社","zip_code":"6731431"},{"name":"屋度","zip_code":"6731422"},{"name":"藪","zip_code":"6731335"},{"name":"山口","zip_code":"6731471"},{"name":"山国","zip_code":"6731421"},{"name":"横谷","zip_code":"6731314"},{"name":"吉井","zip_code":"6731334"},{"name":"吉馬","zip_code":"6731475"}]},{"name":"たつの市","divisions":[{"name":"揖西町芦原台","zip_code":"6794008"},{"name":"揖西町小神","zip_code":"6794003"},{"name":"揖西町尾崎","zip_code":"6794024"},{"name":"揖西町小畑","zip_code":"6794025"},{"name":"揖西町構","zip_code":"6794007"},{"name":"揖西町北沢","zip_code":"6794022"},{"name":"揖西町北山","zip_code":"6794013"},{"name":"揖西町小犬丸","zip_code":"6794021"},{"name":"揖西町佐江","zip_code":"6794011"},{"name":"揖西町清水","zip_code":"6794005"},{"name":"揖西町清水新","zip_code":"6794004"},{"name":"揖西町新宮","zip_code":"6794001"},{"name":"揖西町住吉","zip_code":"6794023"},{"name":"揖西町田井","zip_code":"6794006"},{"name":"揖西町竹原","zip_code":"6794026"},{"name":"揖西町竹万","zip_code":"6794014"},{"name":"揖西町長尾","zip_code":"6794027"},{"name":"揖西町中垣内","zip_code":"6794002"},{"name":"揖西町土師","zip_code":"6794017"},{"name":"揖西町前地","zip_code":"6794012"},{"name":"揖西町南山","zip_code":"6794016"},{"name":"揖西町龍子","zip_code":"6794015"},{"name":"揖保川町市場","zip_code":"6711662"},{"name":"揖保川町馬場","zip_code":"6711665"},{"name":"揖保川町浦部","zip_code":"6711663"},{"name":"揖保川町片島","zip_code":"6711651"},{"name":"揖保川町神戸北山","zip_code":"6711643"},{"name":"揖保川町黍田","zip_code":"6711632"},{"name":"揖保川町金剛山","zip_code":"6711664"},{"name":"揖保川町正條","zip_code":"6711621"},{"name":"揖保川町新在家","zip_code":"6711611"},{"name":"揖保川町大門","zip_code":"6711642"},{"name":"揖保川町野田","zip_code":"6711602"},{"name":"揖保川町原","zip_code":"6711641"},{"name":"揖保川町半田","zip_code":"6711601"},{"name":"揖保川町袋尻","zip_code":"6711661"},{"name":"揖保川町二塚","zip_code":"6711613"},{"name":"揖保川町本條","zip_code":"6711612"},{"name":"揖保川町養久","zip_code":"6711603"},{"name":"揖保川町山津屋","zip_code":"6711631"},{"name":"揖保町揖保上","zip_code":"6794156"},{"name":"揖保町揖保中","zip_code":"6794155"},{"name":"揖保町今市","zip_code":"6794146"},{"name":"揖保町栄","zip_code":"6794141"},{"name":"揖保町東用","zip_code":"6794143"},{"name":"揖保町中臣","zip_code":"6794152"},{"name":"揖保町西構","zip_code":"6794154"},{"name":"揖保町萩原","zip_code":"6794145"},{"name":"揖保町真砂","zip_code":"6794144"},{"name":"揖保町松原","zip_code":"6794142"},{"name":"揖保町門前","zip_code":"6794153"},{"name":"揖保町山下","zip_code":"6794151"},{"name":"神岡町入野","zip_code":"6794115"},{"name":"神岡町追分","zip_code":"6794112"},{"name":"神岡町奥村","zip_code":"6794101"},{"name":"神岡町上横内","zip_code":"6794103"},{"name":"神岡町北横内","zip_code":"6794102"},{"name":"神岡町沢田","zip_code":"6794116"},{"name":"神岡町大住寺","zip_code":"6794108"},{"name":"神岡町田中","zip_code":"6794113"},{"name":"神岡町筒井","zip_code":"6794104"},{"name":"神岡町西鳥井","zip_code":"6794105"},{"name":"神岡町西横内","zip_code":"6794107"},{"name":"神岡町野部","zip_code":"6794111"},{"name":"神岡町東觜崎","zip_code":"6794109"},{"name":"神岡町横内","zip_code":"6794106"},{"name":"神岡町寄井","zip_code":"6794114"},{"name":"新宮町市野保","zip_code":"6794331"},{"name":"新宮町井野原","zip_code":"6794315"},{"name":"新宮町馬立","zip_code":"6794332"},{"name":"新宮町大屋","zip_code":"6794343"},{"name":"新宮町奥小屋","zip_code":"6795151"},{"name":"新宮町鍛冶屋","zip_code":"6795154"},{"name":"新宮町上莇原","zip_code":"6795162"},{"name":"新宮町上笹","zip_code":"6794303"},{"name":"新宮町北村","zip_code":"6794323"},{"name":"新宮町栗町","zip_code":"6795155"},{"name":"新宮町光都","zip_code":"6795165"},{"name":"新宮町香山","zip_code":"6794302"},{"name":"新宮町芝田","zip_code":"6794316"},{"name":"新宮町佐野","zip_code":"6794325"},{"name":"新宮町篠首","zip_code":"6794301"},{"name":"新宮町下莇原","zip_code":"6795161"},{"name":"新宮町下笹","zip_code":"6794304"},{"name":"新宮町下野","zip_code":"6794312"},{"name":"新宮町下野田","zip_code":"6794333"},{"name":"新宮町新宮","zip_code":"6794313"},{"name":"新宮町善定","zip_code":"6794344"},{"name":"新宮町仙正","zip_code":"6794322"},{"name":"新宮町千本","zip_code":"6794346"},{"name":"新宮町曽我井","zip_code":"6794314"},{"name":"新宮町段之上","zip_code":"6794321"},{"name":"新宮町角亀","zip_code":"6795163"},{"name":"新宮町時重","zip_code":"6795153"},{"name":"新宮町中野庄","zip_code":"6794327"},{"name":"新宮町能地","zip_code":"6794341"},{"name":"新宮町觜崎","zip_code":"6794324"},{"name":"新宮町平野","zip_code":"6794342"},{"name":"新宮町福栖","zip_code":"6794345"},{"name":"新宮町二柏野","zip_code":"6795164"},{"name":"新宮町船渡","zip_code":"6794326"},{"name":"新宮町牧","zip_code":"6795152"},{"name":"新宮町宮内","zip_code":"6794311"},{"name":"新宮町吉島","zip_code":"6794305"},{"name":"龍野町旭町","zip_code":"6794175"},{"name":"龍野町大手","zip_code":"6794178"},{"name":"龍野町小宅北","zip_code":"6794128"},{"name":"龍野町片山","zip_code":"6794123"},{"name":"龍野町上霞城","zip_code":"6794179"},{"name":"龍野町上川原","zip_code":"6794172"},{"name":"龍野町川原町","zip_code":"6794166"},{"name":"龍野町北龍野","zip_code":"6794171"},{"name":"龍野町島田","zip_code":"6794121"},{"name":"龍野町下霞城","zip_code":"6794162"},{"name":"龍野町下川原","zip_code":"6794177"},{"name":"龍野町水神町","zip_code":"6794176"},{"name":"龍野町末政","zip_code":"6794125"},{"name":"龍野町大道","zip_code":"6794169"},{"name":"龍野町立町","zip_code":"6794164"},{"name":"龍野町堂本","zip_code":"6794129"},{"name":"龍野町富永","zip_code":"6794167"},{"name":"龍野町中井","zip_code":"6794124"},{"name":"龍野町中霞城","zip_code":"6794170"},{"name":"龍野町中村","zip_code":"6794126"},{"name":"龍野町日飼","zip_code":"6794122"},{"name":"龍野町日山","zip_code":"6794161"},{"name":"龍野町福の神","zip_code":"6794163"},{"name":"龍野町本町","zip_code":"6794165"},{"name":"龍野町宮脇","zip_code":"6794127"},{"name":"龍野町門の外","zip_code":"6794173"},{"name":"龍野町柳原","zip_code":"6794174"},{"name":"龍野町四箇","zip_code":"6794168"},{"name":"誉田町井上","zip_code":"6794136"},{"name":"誉田町内山","zip_code":"6794131"},{"name":"誉田町片吹","zip_code":"6794137"},{"name":"誉田町上沖","zip_code":"6794139"},{"name":"誉田町下沖","zip_code":"6794138"},{"name":"誉田町高駄","zip_code":"6794135"},{"name":"誉田町長真","zip_code":"6794130"},{"name":"誉田町広山","zip_code":"6794134"},{"name":"誉田町福田","zip_code":"6794132"},{"name":"誉田町誉","zip_code":"6794133"},{"name":"御津町朝臣","zip_code":"6711342"},{"name":"御津町碇岩","zip_code":"6711312"},{"name":"御津町岩見","zip_code":"6711331"},{"name":"御津町釜屋","zip_code":"6711341"},{"name":"御津町苅屋","zip_code":"6711321"},{"name":"御津町黒崎","zip_code":"6711301"},{"name":"御津町中島","zip_code":"6711311"},{"name":"御津町室津","zip_code":"6711332"}]},{"name":"川辺郡猪名川町","divisions":[{"name":"旭ケ丘","zip_code":"6660212"},{"name":"猪名川台","zip_code":"6660246"},{"name":"猪渕","zip_code":"6660255"},{"name":"上野","zip_code":"6660244"},{"name":"内馬場","zip_code":"6660241"},{"name":"柏梨田","zip_code":"6660243"},{"name":"柏原","zip_code":"6660204"},{"name":"鎌倉","zip_code":"6660202"},{"name":"上阿古谷","zip_code":"6660231"},{"name":"北田原","zip_code":"6660236"},{"name":"北野","zip_code":"6660234"},{"name":"木津","zip_code":"6660225"},{"name":"肝川","zip_code":"6660254"},{"name":"銀山","zip_code":"6660256"},{"name":"木間生","zip_code":"6660223"},{"name":"笹尾","zip_code":"6660227"},{"name":"差組","zip_code":"6660253"},{"name":"島","zip_code":"6660215"},{"name":"清水","zip_code":"6660214"},{"name":"清水東","zip_code":"6660213"},{"name":"下阿古谷","zip_code":"6660237"},{"name":"白金","zip_code":"6660257"},{"name":"杉生","zip_code":"6660201"},{"name":"民田","zip_code":"6660232"},{"name":"槻並","zip_code":"6660222"},{"name":"つつじが丘","zip_code":"6660245"},{"name":"杤原","zip_code":"6660221"},{"name":"西畑","zip_code":"6660203"},{"name":"仁頂寺","zip_code":"6660211"},{"name":"林田","zip_code":"6660226"},{"name":"原","zip_code":"6660242"},{"name":"広根","zip_code":"6660252"},{"name":"伏見台","zip_code":"6660262"},{"name":"松尾台","zip_code":"6660261"},{"name":"万善","zip_code":"6660224"},{"name":"南田原","zip_code":"6660235"},{"name":"紫合","zip_code":"6660233"},{"name":"若葉","zip_code":"6660251"}]},{"name":"多可郡多可町","divisions":[{"name":"加美区岩座神","zip_code":"6791205"},{"name":"加美区市原","zip_code":"6791327"},{"name":"加美区大袋","zip_code":"6791332"},{"name":"加美区奥荒田","zip_code":"6791215"},{"name":"加美区奥豊部","zip_code":"6791337"},{"name":"加美区門村","zip_code":"6791335"},{"name":"加美区観音寺","zip_code":"6791338"},{"name":"加美区清水","zip_code":"6791323"},{"name":"加美区熊野部","zip_code":"6791202"},{"name":"加美区杉原","zip_code":"6791336"},{"name":"加美区多田","zip_code":"6791203"},{"name":"加美区棚釜","zip_code":"6791204"},{"name":"加美区丹治","zip_code":"6791331"},{"name":"加美区寺内","zip_code":"6791211"},{"name":"加美区轟","zip_code":"6791324"},{"name":"加美区豊部","zip_code":"6791201"},{"name":"加美区鳥羽","zip_code":"6791322"},{"name":"加美区西山","zip_code":"6791326"},{"name":"加美区西脇","zip_code":"6791212"},{"name":"加美区箸荷","zip_code":"6791334"},{"name":"加美区的場","zip_code":"6791214"},{"name":"加美区三谷","zip_code":"6791333"},{"name":"加美区山口","zip_code":"6791325"},{"name":"加美区山野部","zip_code":"6791213"},{"name":"加美区山寄上","zip_code":"6791321"},{"name":"中区安坂","zip_code":"6791135"},{"name":"中区天田","zip_code":"6791115"},{"name":"中区安楽田","zip_code":"6791102"},{"name":"中区奥中","zip_code":"6791107"},{"name":"中区鍛冶屋","zip_code":"6791111"},{"name":"中区岸上","zip_code":"6791114"},{"name":"中区糀屋","zip_code":"6791133"},{"name":"中区坂本","zip_code":"6791132"},{"name":"中区茂利","zip_code":"6791134"},{"name":"中区曽我井","zip_code":"6791131"},{"name":"中区高岸","zip_code":"6791106"},{"name":"中区田野口","zip_code":"6791104"},{"name":"中区徳畑","zip_code":"6791107"},{"name":"中区中村町","zip_code":"6791113"},{"name":"中区中安田","zip_code":"6791122"},{"name":"中区西安田","zip_code":"6791123"},{"name":"中区東安田","zip_code":"6791121"},{"name":"中区東山","zip_code":"6791105"},{"name":"中区牧野","zip_code":"6791103"},{"name":"中区間子","zip_code":"6791112"},{"name":"中区森本","zip_code":"6791124"},{"name":"中区門前","zip_code":"6791101"},{"name":"八千代区赤坂","zip_code":"6770112"},{"name":"八千代区大屋","zip_code":"6770101"},{"name":"八千代区門田","zip_code":"6770111"},{"name":"八千代区坂本","zip_code":"6770102"},{"name":"八千代区仕出原","zip_code":"6770114"},{"name":"八千代区下野間","zip_code":"6770122"},{"name":"八千代区下三原","zip_code":"6770131"},{"name":"八千代区下村","zip_code":"6770105"},{"name":"八千代区俵田","zip_code":"6770113"},{"name":"八千代区中野間","zip_code":"6770121"},{"name":"八千代区中村","zip_code":"6770103"},{"name":"八千代区大和","zip_code":"6770132"},{"name":"八千代区横屋","zip_code":"6770104"}]},{"name":"加古郡稲美町","divisions":[{"name":"印南","zip_code":"6751111"},{"name":"岡","zip_code":"6751113"},{"name":"加古","zip_code":"6751105"},{"name":"北山","zip_code":"6751121"},{"name":"草谷","zip_code":"6751102"},{"name":"国岡","zip_code":"6751115"},{"name":"国北","zip_code":"6751123"},{"name":"国安","zip_code":"6751114"},{"name":"幸竹","zip_code":"6751126"},{"name":"下草谷","zip_code":"6751101"},{"name":"蛸草","zip_code":"6751116"},{"name":"中一色","zip_code":"6751127"},{"name":"中村","zip_code":"6751122"},{"name":"野谷","zip_code":"6751103"},{"name":"野寺","zip_code":"6751104"},{"name":"森安","zip_code":"6751124"},{"name":"六分一","zip_code":"6751112"},{"name":"和田","zip_code":"6751125"}]},{"name":"加古郡播磨町","divisions":[{"name":"大中","zip_code":"6750142"},{"name":"上野添","zip_code":"6750157"},{"name":"北野添","zip_code":"6750158"},{"name":"北古田","zip_code":"6750148"},{"name":"北本荘","zip_code":"6750144"},{"name":"古宮","zip_code":"6750163"},{"name":"新島","zip_code":"6750155"},{"name":"西野添","zip_code":"6750160"},{"name":"野添","zip_code":"6750151"},{"name":"野添城","zip_code":"6750141"},{"name":"東新島","zip_code":"6750164"},{"name":"東野添","zip_code":"6750159"},{"name":"東本荘","zip_code":"6750156"},{"name":"二子","zip_code":"6750162"},{"name":"古田","zip_code":"6750146"},{"name":"本荘","zip_code":"6750154"},{"name":"南大中","zip_code":"6750147"},{"name":"南野添","zip_code":"6750150"},{"name":"宮北","zip_code":"6750143"},{"name":"宮西","zip_code":"6750145"}]},{"name":"神崎郡市川町","divisions":[{"name":"浅野","zip_code":"6792317"},{"name":"甘地","zip_code":"6792323"},{"name":"上田中","zip_code":"6792311"},{"name":"奥","zip_code":"6792325"},{"name":"小畑","zip_code":"6792318"},{"name":"上牛尾","zip_code":"6792301"},{"name":"上瀬加","zip_code":"6792303"},{"name":"神崎","zip_code":"6792333"},{"name":"北田中","zip_code":"6792314"},{"name":"小谷","zip_code":"6792322"},{"name":"小室","zip_code":"6792331"},{"name":"坂戸","zip_code":"6792324"},{"name":"沢","zip_code":"6792336"},{"name":"下牛尾","zip_code":"6792302"},{"name":"下瀬加","zip_code":"6792304"},{"name":"田中","zip_code":"6792332"},{"name":"谷","zip_code":"6792326"},{"name":"近平","zip_code":"6792327"},{"name":"千原","zip_code":"6792321"},{"name":"鶴居","zip_code":"6792334"},{"name":"西川辺","zip_code":"6792315"},{"name":"西田中","zip_code":"6792313"},{"name":"東川辺","zip_code":"6792316"},{"name":"保喜","zip_code":"6792312"},{"name":"美佐","zip_code":"6792335"},{"name":"屋形","zip_code":"6792337"}]},{"name":"神崎郡福崎町","divisions":[{"name":"馬田","zip_code":"6792213"},{"name":"大貫","zip_code":"6792201"},{"name":"西治","zip_code":"6792215"},{"name":"高岡","zip_code":"6792217"},{"name":"高橋","zip_code":"6792216"},{"name":"田口","zip_code":"6792218"},{"name":"西田原","zip_code":"6792204"},{"name":"東田原","zip_code":"6792205"},{"name":"福崎新","zip_code":"6792214"},{"name":"福田","zip_code":"6792212"},{"name":"南田原","zip_code":"6792203"},{"name":"八千種","zip_code":"6792202"},{"name":"山崎","zip_code":"6792211"}]},{"name":"神崎郡神河町","divisions":[{"name":"上岩","zip_code":"6793121"},{"name":"粟賀町","zip_code":"6792414"},{"name":"猪篠","zip_code":"6792431"},{"name":"岩屋","zip_code":"6792405"},{"name":"大河","zip_code":"6793111"},{"name":"大畑","zip_code":"6792403"},{"name":"大山","zip_code":"6792432"},{"name":"越知","zip_code":"6792404"},{"name":"貝野","zip_code":"6792422"},{"name":"鍛治","zip_code":"6793112"},{"name":"柏尾","zip_code":"6792424"},{"name":"加納","zip_code":"6792421"},{"name":"上小田","zip_code":"6793125"},{"name":"川上","zip_code":"6793104"},{"name":"栗","zip_code":"6793102"},{"name":"作畑","zip_code":"6792402"},{"name":"新田","zip_code":"6792401"},{"name":"杉","zip_code":"6792433"},{"name":"高朝田","zip_code":"6793122"},{"name":"寺野","zip_code":"6792423"},{"name":"寺前","zip_code":"6793116"},{"name":"中村","zip_code":"6792413"},{"name":"新野","zip_code":"6793114"},{"name":"野村","zip_code":"6793113"},{"name":"長谷","zip_code":"6793103"},{"name":"比延","zip_code":"6793115"},{"name":"東柏尾","zip_code":"6792425"},{"name":"福本","zip_code":"6792415"},{"name":"渕","zip_code":"6793101"},{"name":"南小田","zip_code":"6793124"},{"name":"宮野","zip_code":"6793123"},{"name":"根宇野","zip_code":"6792411"},{"name":"山田","zip_code":"6792412"},{"name":"吉冨","zip_code":"6792434"}]},{"name":"揖保郡太子町","divisions":[{"name":"阿曽","zip_code":"6711557"},{"name":"鵤","zip_code":"6711561"},{"name":"糸井","zip_code":"6711532"},{"name":"岩見構","zip_code":"6711545"},{"name":"老原","zip_code":"6711553"},{"name":"王子","zip_code":"6711572"},{"name":"太田","zip_code":"6711511"},{"name":"沖代","zip_code":"6711543"},{"name":"上太田","zip_code":"6711573"},{"name":"黒岡","zip_code":"6711504"},{"name":"佐用岡","zip_code":"6711575"},{"name":"下阿曽","zip_code":"6711552"},{"name":"常全","zip_code":"6711556"},{"name":"竹広","zip_code":"6711533"},{"name":"立岡","zip_code":"6711531"},{"name":"塚森","zip_code":"6711541"},{"name":"天満山","zip_code":"6711503"},{"name":"東出","zip_code":"6711521"},{"name":"東南","zip_code":"6711523"},{"name":"東保","zip_code":"6711524"},{"name":"馬場","zip_code":"6711551"},{"name":"原","zip_code":"6711502"},{"name":"広坂","zip_code":"6711571"},{"name":"福地","zip_code":"6711534"},{"name":"船代","zip_code":"6711554"},{"name":"松尾","zip_code":"6711576"},{"name":"松ケ下","zip_code":"6711574"},{"name":"宮本","zip_code":"6711555"},{"name":"矢田部","zip_code":"6711522"},{"name":"山田","zip_code":"6711501"},{"name":"吉福","zip_code":"6711544"},{"name":"米田","zip_code":"6711542"},{"name":"蓮常寺","zip_code":"6711535"}]},{"name":"赤穂郡上郡町","divisions":[{"name":"赤松","zip_code":"6781273"},{"name":"旭日","zip_code":"6781261"},{"name":"井上","zip_code":"6781251"},{"name":"岩木","zip_code":"6781262"},{"name":"宇治山","zip_code":"6781218"},{"name":"宇野山","zip_code":"6781213"},{"name":"大枝","zip_code":"6781275"},{"name":"大枝新","zip_code":"6781276"},{"name":"大冨","zip_code":"6781204"},{"name":"奥","zip_code":"6781219"},{"name":"尾長谷","zip_code":"6781203"},{"name":"小野豆","zip_code":"6781211"},{"name":"落地","zip_code":"6781243"},{"name":"柏野","zip_code":"6781274"},{"name":"金出地","zip_code":"6781201"},{"name":"釜島","zip_code":"6781223"},{"name":"上郡","zip_code":"6781231"},{"name":"休治","zip_code":"6781214"},{"name":"楠","zip_code":"6781271"},{"name":"栗原","zip_code":"6781242"},{"name":"光都","zip_code":"6781205"},{"name":"河野原","zip_code":"6781278"},{"name":"苔縄","zip_code":"6781277"},{"name":"佐用谷","zip_code":"6781212"},{"name":"神明寺","zip_code":"6781221"},{"name":"宿","zip_code":"6781217"},{"name":"正福寺","zip_code":"6781215"},{"name":"大持","zip_code":"6781233"},{"name":"高田台","zip_code":"6781226"},{"name":"高山","zip_code":"6781254"},{"name":"竹万","zip_code":"6781232"},{"name":"中野","zip_code":"6781216"},{"name":"梨ケ原","zip_code":"6781244"},{"name":"西野山","zip_code":"6781222"},{"name":"野桑","zip_code":"6781202"},{"name":"船坂","zip_code":"6781252"},{"name":"別名","zip_code":"6781253"},{"name":"細野","zip_code":"6781272"},{"name":"八保","zip_code":"6781256"},{"name":"山野里","zip_code":"6781241"},{"name":"行頭","zip_code":"6781255"},{"name":"與井","zip_code":"6781225"},{"name":"與井新","zip_code":"6781224"}]},{"name":"佐用郡佐用町","divisions":[{"name":"庵","zip_code":"6795333"},{"name":"宇根","zip_code":"6795531"},{"name":"漆野","zip_code":"6795221"},{"name":"円光寺","zip_code":"6795642"},{"name":"円応寺","zip_code":"6795307"},{"name":"大垣内","zip_code":"6795504"},{"name":"大木谷","zip_code":"6795314"},{"name":"大下り","zip_code":"6795146"},{"name":"大酒","zip_code":"6795654"},{"name":"大畑","zip_code":"6795145"},{"name":"大畠","zip_code":"6795319"},{"name":"大日山","zip_code":"6795646"},{"name":"奥金近","zip_code":"6795345"},{"name":"奥長谷","zip_code":"6795344"},{"name":"奥海","zip_code":"6795324"},{"name":"皆田","zip_code":"6795505"},{"name":"金屋","zip_code":"6795513"},{"name":"上秋里","zip_code":"6795644"},{"name":"上石井","zip_code":"6795322"},{"name":"上本郷","zip_code":"6795131"},{"name":"上三河","zip_code":"6795225"},{"name":"久崎","zip_code":"6795641"},{"name":"櫛田","zip_code":"6795651"},{"name":"口金近","zip_code":"6795346"},{"name":"口長谷","zip_code":"6795343"},{"name":"桑野","zip_code":"6795334"},{"name":"家内","zip_code":"6795652"},{"name":"小赤松","zip_code":"6795653"},{"name":"河崎","zip_code":"6795226"},{"name":"上月","zip_code":"6795523"},{"name":"光都","zip_code":"6795148"},{"name":"小日山","zip_code":"6795535"},{"name":"小山","zip_code":"6795204"},{"name":"才金","zip_code":"6795502"},{"name":"桜山","zip_code":"6795501"},{"name":"真盛","zip_code":"6795303"},{"name":"真宗","zip_code":"6795137"},{"name":"佐用","zip_code":"6795301"},{"name":"志文","zip_code":"6795136"},{"name":"下秋里","zip_code":"6795643"},{"name":"下石井","zip_code":"6795321"},{"name":"下徳久","zip_code":"6795211"},{"name":"下本郷","zip_code":"6795132"},{"name":"下三河","zip_code":"6795223"},{"name":"末包","zip_code":"6795317"},{"name":"末廣","zip_code":"6795147"},{"name":"須安","zip_code":"6795532"},{"name":"多賀","zip_code":"6795201"},{"name":"弦谷","zip_code":"6795142"},{"name":"土井","zip_code":"6795206"},{"name":"豊福","zip_code":"6795316"},{"name":"中島","zip_code":"6795202"},{"name":"中三河","zip_code":"6795224"},{"name":"長尾","zip_code":"6795305"},{"name":"仁位","zip_code":"6795522"},{"name":"仁方","zip_code":"6795312"},{"name":"西大畠","zip_code":"6795534"},{"name":"西河内","zip_code":"6795313"},{"name":"西下野","zip_code":"6795222"},{"name":"西新宿","zip_code":"6795645"},{"name":"西徳久","zip_code":"6795214"},{"name":"乃井野","zip_code":"6795134"},{"name":"延吉","zip_code":"6795332"},{"name":"林崎","zip_code":"6795212"},{"name":"早瀬","zip_code":"6795521"},{"name":"春哉","zip_code":"6795135"},{"name":"東徳久","zip_code":"6795213"},{"name":"東中山","zip_code":"6795318"},{"name":"平福","zip_code":"6795331"},{"name":"平松","zip_code":"6795215"},{"name":"廣山","zip_code":"6795141"},{"name":"福沢","zip_code":"6795311"},{"name":"福中","zip_code":"6795511"},{"name":"福吉","zip_code":"6795514"},{"name":"船越","zip_code":"6795227"},{"name":"宝蔵寺","zip_code":"6795207"},{"name":"本位田","zip_code":"6795306"},{"name":"本郷","zip_code":"6795503"},{"name":"海内","zip_code":"6795335"},{"name":"三日月","zip_code":"6795133"},{"name":"水根","zip_code":"6795325"},{"name":"三ツ尾","zip_code":"6795144"},{"name":"南中山","zip_code":"6795512"},{"name":"三原","zip_code":"6795143"},{"name":"宗行","zip_code":"6795342"},{"name":"目高","zip_code":"6795525"},{"name":"安川","zip_code":"6795205"},{"name":"山田","zip_code":"6795304"},{"name":"山脇","zip_code":"6795302"},{"name":"横坂","zip_code":"6795341"},{"name":"淀","zip_code":"6795315"},{"name":"米田","zip_code":"6795203"},{"name":"寄延","zip_code":"6795524"},{"name":"力万","zip_code":"6795533"},{"name":"若州","zip_code":"6795323"}]},{"name":"美方郡香美町","divisions":[{"name":"小代区秋岡","zip_code":"6671533"},{"name":"小代区石寺","zip_code":"6671512"},{"name":"小代区大谷","zip_code":"6671503"},{"name":"小代区鍛治屋","zip_code":"6671542"},{"name":"小代区茅野","zip_code":"6671531"},{"name":"小代区神水","zip_code":"6671511"},{"name":"小代区神場","zip_code":"6671514"},{"name":"小代区久須部","zip_code":"6671501"},{"name":"小代区実山","zip_code":"6671522"},{"name":"小代区佐坊","zip_code":"6671541"},{"name":"小代区城山","zip_code":"6671502"},{"name":"小代区忠宮","zip_code":"6671543"},{"name":"小代区新屋","zip_code":"6671532"},{"name":"小代区貫田","zip_code":"6671544"},{"name":"小代区野間谷","zip_code":"6671521"},{"name":"小代区東垣","zip_code":"6671545"},{"name":"小代区平野","zip_code":"6671523"},{"name":"小代区広井","zip_code":"6671513"},{"name":"小代区水間","zip_code":"6671515"},{"name":"香住区相谷","zip_code":"6696404"},{"name":"香住区上計","zip_code":"6696432"},{"name":"香住区余部","zip_code":"6696671"},{"name":"香住区浦上","zip_code":"6696431"},{"name":"香住区大梶","zip_code":"6696425"},{"name":"香住区大谷","zip_code":"6696554"},{"name":"香住区大野","zip_code":"6696555"},{"name":"香住区沖浦","zip_code":"6696433"},{"name":"香住区加鹿野","zip_code":"6696552"},{"name":"香住区香住","zip_code":"6696544"},{"name":"香住区上岡","zip_code":"6696414"},{"name":"香住区九斗","zip_code":"6696411"},{"name":"香住区訓谷","zip_code":"6696402"},{"name":"香住区小原","zip_code":"6696559"},{"name":"香住区境","zip_code":"6696541"},{"name":"香住区下岡","zip_code":"6696413"},{"name":"香住区下浜","zip_code":"6696564"},{"name":"香住区守柄","zip_code":"6696551"},{"name":"香住区中野","zip_code":"6696556"},{"name":"香住区七日市","zip_code":"6696546"},{"name":"香住区丹生地","zip_code":"6696416"},{"name":"香住区西下岡","zip_code":"6696415"},{"name":"香住区畑","zip_code":"6696423"},{"name":"香住区土生","zip_code":"6696422"},{"name":"香住区隼人","zip_code":"6696424"},{"name":"香住区一日市","zip_code":"6696542"},{"name":"香住区藤","zip_code":"6696557"},{"name":"香住区間室","zip_code":"6696561"},{"name":"香住区三川","zip_code":"6696426"},{"name":"香住区三谷","zip_code":"6696553"},{"name":"香住区無南垣","zip_code":"6696401"},{"name":"香住区米地","zip_code":"6696412"},{"name":"香住区本見塚","zip_code":"6696421"},{"name":"香住区森","zip_code":"6696545"},{"name":"香住区安木","zip_code":"6696403"},{"name":"香住区矢田","zip_code":"6696563"},{"name":"香住区八原","zip_code":"6696558"},{"name":"香住区油良","zip_code":"6696562"},{"name":"香住区鎧","zip_code":"6696672"},{"name":"香住区若松","zip_code":"6696543"},{"name":"村岡区相田","zip_code":"6671312"},{"name":"村岡区池ケ平","zip_code":"6671346"},{"name":"村岡区板仕野","zip_code":"6671315"},{"name":"村岡区市原","zip_code":"6671324"},{"name":"村岡区入江","zip_code":"6671368"},{"name":"村岡区大笹","zip_code":"6671344"},{"name":"村岡区大糠","zip_code":"6671321"},{"name":"村岡区大野","zip_code":"6671333"},{"name":"村岡区耀山","zip_code":"6671323"},{"name":"村岡区川会","zip_code":"6671366"},{"name":"村岡区神坂","zip_code":"6671313"},{"name":"村岡区口大谷","zip_code":"6671342"},{"name":"村岡区熊波","zip_code":"6671353"},{"name":"村岡区黒田","zip_code":"6671335"},{"name":"村岡区柤岡","zip_code":"6671354"},{"name":"村岡区光陽","zip_code":"6671326"},{"name":"村岡区小城","zip_code":"6671303"},{"name":"村岡区境","zip_code":"6671301"},{"name":"村岡区鹿田","zip_code":"6671316"},{"name":"村岡区高井","zip_code":"6671325"},{"name":"村岡区高坂","zip_code":"6671345"},{"name":"村岡区高津","zip_code":"6671365"},{"name":"村岡区作山","zip_code":"6671331"},{"name":"村岡区寺河内","zip_code":"6671322"},{"name":"村岡区長板","zip_code":"6671352"},{"name":"村岡区中大谷","zip_code":"6671343"},{"name":"村岡区長須","zip_code":"6671364"},{"name":"村岡区長瀬","zip_code":"6671361"},{"name":"村岡区萩山","zip_code":"6671314"},{"name":"村岡区原","zip_code":"6671362"},{"name":"村岡区日影","zip_code":"6671337"},{"name":"村岡区福岡","zip_code":"6671334"},{"name":"村岡区丸味","zip_code":"6671351"},{"name":"村岡区味取","zip_code":"6671363"},{"name":"村岡区村岡","zip_code":"6671311"},{"name":"村岡区森脇","zip_code":"6671341"},{"name":"村岡区八井谷","zip_code":"6671332"},{"name":"村岡区宿","zip_code":"6671336"},{"name":"村岡区山田","zip_code":"6671302"},{"name":"村岡区用野","zip_code":"6671317"},{"name":"村岡区和佐父","zip_code":"6671304"},{"name":"村岡区和田","zip_code":"6671367"},{"name":"村岡区和池","zip_code":"6671347"}]},{"name":"美方郡新温泉町","divisions":[{"name":"赤崎","zip_code":"6696714"},{"name":"芦屋","zip_code":"6696701"},{"name":"飯野","zip_code":"6696832"},{"name":"居組","zip_code":"6696751"},{"name":"石橋","zip_code":"6696953"},{"name":"伊角","zip_code":"6696805"},{"name":"井土","zip_code":"6696801"},{"name":"今岡","zip_code":"6696803"},{"name":"歌長","zip_code":"6696808"},{"name":"内山","zip_code":"6696945"},{"name":"海上","zip_code":"6696952"},{"name":"多子","zip_code":"6696811"},{"name":"越坂","zip_code":"6696946"},{"name":"金屋","zip_code":"6696802"},{"name":"鐘尾","zip_code":"6696942"},{"name":"釜屋","zip_code":"6696752"},{"name":"岸田","zip_code":"6696954"},{"name":"清富","zip_code":"6696711"},{"name":"桐岡","zip_code":"6696815"},{"name":"切畑","zip_code":"6696812"},{"name":"久谷","zip_code":"6696721"},{"name":"久斗山","zip_code":"6696727"},{"name":"熊谷","zip_code":"6696804"},{"name":"境","zip_code":"6696726"},{"name":"指杭","zip_code":"6696712"},{"name":"塩山","zip_code":"6696833"},{"name":"七釜","zip_code":"6696741"},{"name":"正法庵","zip_code":"6696723"},{"name":"新市","zip_code":"6696742"},{"name":"田井","zip_code":"6696713"},{"name":"対田","zip_code":"6696728"},{"name":"高末","zip_code":"6696722"},{"name":"竹田","zip_code":"6696761"},{"name":"丹土","zip_code":"6696813"},{"name":"千谷","zip_code":"6696943"},{"name":"千原","zip_code":"6696941"},{"name":"栃谷","zip_code":"6696745"},{"name":"中辻","zip_code":"6696814"},{"name":"浜坂","zip_code":"6696702"},{"name":"春来","zip_code":"6696807"},{"name":"桧尾","zip_code":"6696806"},{"name":"福富","zip_code":"6696732"},{"name":"藤尾","zip_code":"6696725"},{"name":"二日市","zip_code":"6696731"},{"name":"古市","zip_code":"6696743"},{"name":"戸田","zip_code":"6696746"},{"name":"辺地","zip_code":"6696724"},{"name":"細田","zip_code":"6696822"},{"name":"前","zip_code":"6696951"},{"name":"三尾","zip_code":"6696715"},{"name":"三谷","zip_code":"6696747"},{"name":"宮脇","zip_code":"6696944"},{"name":"諸寄","zip_code":"6696753"},{"name":"湯","zip_code":"6696821"},{"name":"用土","zip_code":"6696744"},{"name":"和田","zip_code":"6696716"}]}]}