{"name":"奈良県","cities":[{"name":"奈良市","divisions":[{"name":"青垣台","zip_code":"6310053"},{"name":"青野町","zip_code":"6310841"},{"name":"青山","zip_code":"6308101"},{"name":"赤膚町","zip_code":"6308035"},{"name":"秋篠早月町","zip_code":"6310812"},{"name":"秋篠三和町","zip_code":"6310814"},{"name":"秋篠新町","zip_code":"6310813"},{"name":"秋篠町","zip_code":"6310811"},{"name":"朝日町","zip_code":"6310014"},{"name":"阿字万字町","zip_code":"6308346"},{"name":"油阪地方町","zip_code":"6308246"},{"name":"油阪町","zip_code":"6308247"},{"name":"尼辻中町","zip_code":"6308024"},{"name":"尼辻西町","zip_code":"6308023"},{"name":"尼辻南町","zip_code":"6308022"},{"name":"尼辻北町","zip_code":"6308025"},{"name":"尼辻町","zip_code":"6308021"},{"name":"あやめ池南","zip_code":"6310033"},{"name":"あやめ池北","zip_code":"6310032"},{"name":"藺生町","zip_code":"6320245"},{"name":"池田町","zip_code":"6308445"},{"name":"池之町","zip_code":"6308361"},{"name":"石木町","zip_code":"6310054"},{"name":"井上町","zip_code":"6308317"},{"name":"今市町","zip_code":"6308444"},{"name":"今小路町","zip_code":"6308207"},{"name":"今在家町","zip_code":"6308205"},{"name":"今辻子町","zip_code":"6308243"},{"name":"今御門町","zip_code":"6308374"},{"name":"陰陽町","zip_code":"6308338"},{"name":"右京","zip_code":"6310805"},{"name":"歌姫町","zip_code":"6310802"},{"name":"荻町","zip_code":"6320103"},{"name":"邑地町","zip_code":"6301233"},{"name":"大野町","zip_code":"6302161"},{"name":"大渕町","zip_code":"6310005"},{"name":"大保町","zip_code":"6301236"},{"name":"大宮町","zip_code":"6308115"},{"name":"大森町","zip_code":"6308131"},{"name":"大森西町","zip_code":"6308132"},{"name":"大柳生町","zip_code":"6301242"},{"name":"大倭町","zip_code":"6310042"},{"name":"大和田町","zip_code":"6310055"},{"name":"小川町","zip_code":"6308233"},{"name":"興ケ原町","zip_code":"6301232"},{"name":"奥子守町","zip_code":"6308235"},{"name":"奥芝町","zip_code":"6308256"},{"name":"小倉町","zip_code":"6320111"},{"name":"押上町","zip_code":"6308273"},{"name":"押熊町","zip_code":"6310011"},{"name":"押小路町","zip_code":"6308294"},{"name":"大平尾町","zip_code":"6301243"},{"name":"肘塚町","zip_code":"6308142"},{"name":"鵲町","zip_code":"6308391"},{"name":"柏木町","zip_code":"6308031"},{"name":"春日野町","zip_code":"6308212"},{"name":"桂木町","zip_code":"6308143"},{"name":"上三条町","zip_code":"6308228"},{"name":"上深川町","zip_code":"6320102"},{"name":"杏町","zip_code":"6308454"},{"name":"川上町","zip_code":"6308202"},{"name":"川久保町","zip_code":"6308293"},{"name":"川之上町","zip_code":"6308313"},{"name":"川之上突抜町","zip_code":"6308314"},{"name":"瓦堂町","zip_code":"6308326"},{"name":"漢国町","zip_code":"6308242"},{"name":"学園赤松町","zip_code":"6310027"},{"name":"学園朝日町","zip_code":"6310016"},{"name":"学園朝日元町","zip_code":"6310015"},{"name":"学園新田町","zip_code":"6310025"},{"name":"学園大和町","zip_code":"6310041"},{"name":"学園中","zip_code":"6310035"},{"name":"学園緑ケ丘","zip_code":"6310026"},{"name":"学園南","zip_code":"6310034"},{"name":"学園北","zip_code":"6310036"},{"name":"元興寺町","zip_code":"6308332"},{"name":"元林院町","zip_code":"6308221"},{"name":"北市町","zip_code":"6308261"},{"name":"北魚屋東町","zip_code":"6308285"},{"name":"北魚屋西町","zip_code":"6308263"},{"name":"北川端町","zip_code":"6308297"},{"name":"北京終町","zip_code":"6308322"},{"name":"北小路町","zip_code":"6308252"},{"name":"北新町","zip_code":"6308011"},{"name":"北椿尾町","zip_code":"6308405"},{"name":"北登美ケ丘","zip_code":"6310001"},{"name":"北永井町","zip_code":"6308442"},{"name":"北之庄町","zip_code":"6308451"},{"name":"北之庄西町","zip_code":"6308452"},{"name":"北野山町","zip_code":"6301234"},{"name":"北半田中町","zip_code":"6308275"},{"name":"北半田東町","zip_code":"6308274"},{"name":"北半田西町","zip_code":"6308276"},{"name":"北袋町","zip_code":"6308262"},{"name":"北風呂町","zip_code":"6308352"},{"name":"北御門町","zip_code":"6308204"},{"name":"北向町","zip_code":"6308232"},{"name":"北村町","zip_code":"6301113"},{"name":"北室町","zip_code":"6308364"},{"name":"紀寺町","zip_code":"6308306"},{"name":"京終地方東側町","zip_code":"6308323"},{"name":"京終地方西側町","zip_code":"6308324"},{"name":"沓掛町","zip_code":"6302172"},{"name":"公納堂町","zip_code":"6308382"},{"name":"窪之庄町","zip_code":"6308431"},{"name":"恋の窪","zip_code":"6308136"},{"name":"恋の窪東町","zip_code":"6308137"},{"name":"興善院町","zip_code":"6308103"},{"name":"光明院町","zip_code":"6308371"},{"name":"興隆寺町","zip_code":"6308403"},{"name":"虚空蔵町","zip_code":"6308412"},{"name":"小太郎町","zip_code":"6308348"},{"name":"後藤町","zip_code":"6308296"},{"name":"神殿町","zip_code":"6308441"},{"name":"小西町","zip_code":"6308226"},{"name":"此瀬町","zip_code":"6302177"},{"name":"五条","zip_code":"6308033"},{"name":"五条町","zip_code":"6308032"},{"name":"五条畑","zip_code":"6308036"},{"name":"五条西","zip_code":"6308034"},{"name":"西九条町","zip_code":"6308453"},{"name":"西大寺赤田町","zip_code":"6310818"},{"name":"西大寺国見町","zip_code":"6310823"},{"name":"西大寺小坊町","zip_code":"6310827"},{"name":"西大寺栄町","zip_code":"6310822"},{"name":"西大寺芝町","zip_code":"6310825"},{"name":"西大寺新池町","zip_code":"6310834"},{"name":"西大寺新田町","zip_code":"6310832"},{"name":"西大寺新町","zip_code":"6310815"},{"name":"西大寺高塚町","zip_code":"6310835"},{"name":"西大寺宝ケ丘","zip_code":"6310831"},{"name":"西大寺野神町","zip_code":"6310833"},{"name":"西大寺本町","zip_code":"6310816"},{"name":"西大寺東町","zip_code":"6310821"},{"name":"西大寺南町","zip_code":"6310824"},{"name":"西大寺北町","zip_code":"6310817"},{"name":"西大寺竜王町","zip_code":"6310836"},{"name":"西大寺町","zip_code":"6310826"},{"name":"阪新屋町","zip_code":"6308255"},{"name":"阪原町","zip_code":"6301241"},{"name":"狭川東町","zip_code":"6301103"},{"name":"狭川両町","zip_code":"6301104"},{"name":"佐紀町","zip_code":"6308003"},{"name":"左京","zip_code":"6310801"},{"name":"佐保台","zip_code":"6308105"},{"name":"佐保台西町","zip_code":"6308106"},{"name":"三条大路","zip_code":"6308013"},{"name":"三条大宮町","zip_code":"6308123"},{"name":"三条川西町","zip_code":"6308125"},{"name":"三条栄町","zip_code":"6308126"},{"name":"三条添川町","zip_code":"6308127"},{"name":"三条桧町","zip_code":"6308124"},{"name":"三条本町","zip_code":"6308122"},{"name":"三条宮前町","zip_code":"6308121"},{"name":"三条町","zip_code":"6308244"},{"name":"敷島町","zip_code":"6310031"},{"name":"四条大路","zip_code":"6308014"},{"name":"四条大路南町","zip_code":"6308015"},{"name":"七条","zip_code":"6308053"},{"name":"七条町","zip_code":"6308051"},{"name":"七条東町","zip_code":"6308052"},{"name":"七条西町","zip_code":"6308054"},{"name":"芝突抜町","zip_code":"6308385"},{"name":"芝辻町","zip_code":"6308114"},{"name":"芝新屋町","zip_code":"6308384"},{"name":"柴屋町","zip_code":"6308433"},{"name":"下狭川町","zip_code":"6301102"},{"name":"下三条町","zip_code":"6308236"},{"name":"下深川町","zip_code":"6320101"},{"name":"下御門町","zip_code":"6308365"},{"name":"宿院町","zip_code":"6308265"},{"name":"勝南院町","zip_code":"6308363"},{"name":"菖蒲池町","zip_code":"6308254"},{"name":"松陽台","zip_code":"6310007"},{"name":"十輪院町","zip_code":"6308312"},{"name":"十輪院畑町","zip_code":"6308311"},{"name":"神功","zip_code":"6310804"},{"name":"水門町","zip_code":"6308208"},{"name":"菅野台","zip_code":"6310043"},{"name":"菅原町","zip_code":"6310842"},{"name":"須川町","zip_code":"6301111"},{"name":"朱雀","zip_code":"6310806"},{"name":"須山町","zip_code":"6302178"},{"name":"杉ケ町","zip_code":"6308357"},{"name":"誓多林町","zip_code":"6302171"},{"name":"雑司町","zip_code":"6308211"},{"name":"園田町","zip_code":"6301121"},{"name":"杣ノ川町","zip_code":"6302152"},{"name":"大安寺","zip_code":"6308133"},{"name":"大安寺西","zip_code":"6308135"},{"name":"大安寺町","zip_code":"6308134"},{"name":"大慈仙町","zip_code":"6301245"},{"name":"高畑町","zip_code":"6308301"},{"name":"高樋町","zip_code":"6308411"},{"name":"高天市町","zip_code":"6308238"},{"name":"高天町","zip_code":"6308241"},{"name":"高御門町","zip_code":"6308336"},{"name":"田中町","zip_code":"6308432"},{"name":"多門町","zip_code":"6308112"},{"name":"樽井町","zip_code":"6308218"},{"name":"田原春日野町","zip_code":"6302167"},{"name":"中院町","zip_code":"6308392"},{"name":"千代ケ丘","zip_code":"6310045"},{"name":"月ケ瀬石打","zip_code":"6302301"},{"name":"月ケ瀬尾山","zip_code":"6302302"},{"name":"月ケ瀬嵩","zip_code":"6302304"},{"name":"月ケ瀬月瀬","zip_code":"6302305"},{"name":"月ケ瀬長引","zip_code":"6302303"},{"name":"月ケ瀬桃香野","zip_code":"6302306"},{"name":"都祁小山戸町","zip_code":"6320243"},{"name":"都祁甲岡町","zip_code":"6320247"},{"name":"都祁こぶしが丘","zip_code":"6320232"},{"name":"都祁白石町","zip_code":"6320221"},{"name":"都祁相河町","zip_code":"6320242"},{"name":"都祁友田町","zip_code":"6320246"},{"name":"都祁馬場町","zip_code":"6320113"},{"name":"都祁吐山町","zip_code":"6320231"},{"name":"都祁南之庄町","zip_code":"6320241"},{"name":"築地之内町","zip_code":"6308316"},{"name":"角振新屋町","zip_code":"6308223"},{"name":"角振町","zip_code":"6308224"},{"name":"椿井町","zip_code":"6308343"},{"name":"鶴福院町","zip_code":"6308393"},{"name":"鶴舞東町","zip_code":"6310021"},{"name":"鶴舞西町","zip_code":"6310022"},{"name":"手貝町","zip_code":"6308206"},{"name":"帝塚山","zip_code":"6310062"},{"name":"帝塚山中町","zip_code":"6310063"},{"name":"帝塚山西","zip_code":"6310066"},{"name":"帝塚山南","zip_code":"6310064"},{"name":"出屋敷町","zip_code":"6308423"},{"name":"寺町","zip_code":"6308234"},{"name":"東九条町","zip_code":"6308144"},{"name":"富雄泉ケ丘","zip_code":"6310051"},{"name":"富雄川西","zip_code":"6310077"},{"name":"富雄元町","zip_code":"6310078"},{"name":"富雄北","zip_code":"6310076"},{"name":"登美ケ丘","zip_code":"6310004"},{"name":"鳥見町","zip_code":"6310065"},{"name":"中筋町","zip_code":"6308237"},{"name":"中辻町","zip_code":"6308315"},{"name":"中貫町","zip_code":"6302162"},{"name":"中登美ケ丘","zip_code":"6310003"},{"name":"中ノ川町","zip_code":"6301124"},{"name":"中之庄町","zip_code":"6302163"},{"name":"中新屋町","zip_code":"6308333"},{"name":"中畑町","zip_code":"6308401"},{"name":"中町","zip_code":"6308037"},{"name":"中御門町","zip_code":"6308292"},{"name":"中山町","zip_code":"6310012"},{"name":"中山町西","zip_code":"6310013"},{"name":"長谷町","zip_code":"6302165"},{"name":"内侍原町","zip_code":"6308253"},{"name":"鍋屋町","zip_code":"6308264"},{"name":"奈保町","zip_code":"6308107"},{"name":"奈良阪町","zip_code":"6308104"},{"name":"鳴川町","zip_code":"6308335"},{"name":"西包永町","zip_code":"6308287"},{"name":"西木辻町","zip_code":"6308325"},{"name":"西紀寺町","zip_code":"6308307"},{"name":"西狭川町","zip_code":"6301105"},{"name":"西笹鉾町","zip_code":"6308291"},{"name":"西新在家号所町","zip_code":"6308251"},{"name":"西新在家町","zip_code":"6308248"},{"name":"西城戸町","zip_code":"6308345"},{"name":"西千代ケ丘","zip_code":"6310046"},{"name":"西寺林町","zip_code":"6308372"},{"name":"西登美ケ丘","zip_code":"6310006"},{"name":"西ノ京町","zip_code":"6308042"},{"name":"西之阪町","zip_code":"6308245"},{"name":"西新屋町","zip_code":"6308334"},{"name":"西御門町","zip_code":"6308225"},{"name":"二条大路南","zip_code":"6308012"},{"name":"二条町","zip_code":"6308002"},{"name":"二名","zip_code":"6310072"},{"name":"二名東町","zip_code":"6310073"},{"name":"二名平野","zip_code":"6310071"},{"name":"二名町","zip_code":"6310008"},{"name":"丹生町","zip_code":"6301235"},{"name":"忍辱山町","zip_code":"6301244"},{"name":"納院町","zip_code":"6308318"},{"name":"登大路町","zip_code":"6308213"},{"name":"橋本町","zip_code":"6308217"},{"name":"畑中町","zip_code":"6308257"},{"name":"八条","zip_code":"6308145"},{"name":"八条町","zip_code":"6308146"},{"name":"鉢伏町","zip_code":"6308414"},{"name":"花芝町","zip_code":"6308266"},{"name":"花園町","zip_code":"6308328"},{"name":"馬場町","zip_code":"6308354"},{"name":"林小路町","zip_code":"6308227"},{"name":"針ケ別所町","zip_code":"6320112"},{"name":"針町","zip_code":"6320251"},{"name":"半田突抜町","zip_code":"6308295"},{"name":"半田開町","zip_code":"6308111"},{"name":"半田横町","zip_code":"6308284"},{"name":"般若寺町","zip_code":"6308102"},{"name":"日笠町","zip_code":"6302173"},{"name":"東包永町","zip_code":"6308286"},{"name":"東木辻町","zip_code":"6308327"},{"name":"東紀寺町","zip_code":"6308305"},{"name":"東笹鉾町","zip_code":"6308288"},{"name":"東新在家町","zip_code":"6308272"},{"name":"東城戸町","zip_code":"6308344"},{"name":"東寺林町","zip_code":"6308362"},{"name":"東登美ケ丘","zip_code":"6310002"},{"name":"東鳴川町","zip_code":"6301125"},{"name":"東之阪町","zip_code":"6308203"},{"name":"東向中町","zip_code":"6308215"},{"name":"東向南町","zip_code":"6308216"},{"name":"東向北町","zip_code":"6308214"},{"name":"疋田町","zip_code":"6310843"},{"name":"毘沙門町","zip_code":"6308383"},{"name":"白毫寺町","zip_code":"6308302"},{"name":"百楽園","zip_code":"6310024"},{"name":"平清水町","zip_code":"6301122"},{"name":"平松","zip_code":"6310846"},{"name":"広岡町","zip_code":"6301101"},{"name":"福智院町","zip_code":"6308381"},{"name":"不審ヶ辻子町","zip_code":"6308394"},{"name":"藤ノ木台","zip_code":"6310044"},{"name":"藤原町","zip_code":"6308421"},{"name":"船橋町","zip_code":"6308258"},{"name":"古市町","zip_code":"6308424"},{"name":"生琉里町","zip_code":"6301123"},{"name":"別所町","zip_code":"6302153"},{"name":"法用町","zip_code":"6301126"},{"name":"宝来","zip_code":"6310845"},{"name":"宝来町","zip_code":"6310844"},{"name":"法蓮佐保山","zip_code":"6308108"},{"name":"法蓮町","zip_code":"6308113"},{"name":"法華寺町","zip_code":"6308001"},{"name":"本子守町","zip_code":"6308231"},{"name":"坊屋敷町","zip_code":"6308271"},{"name":"菩提山町","zip_code":"6302168"},{"name":"米谷町","zip_code":"6308402"},{"name":"大豆山町","zip_code":"6308268"},{"name":"大豆山突抜町","zip_code":"6308267"},{"name":"丸山","zip_code":"6310056"},{"name":"山陵町","zip_code":"6310803"},{"name":"三碓","zip_code":"6310061"},{"name":"三碓町","zip_code":"6310061"},{"name":"三棟町","zip_code":"6308331"},{"name":"南市町","zip_code":"6308373"},{"name":"南魚屋町","zip_code":"6308355"},{"name":"南肘塚町","zip_code":"6308304"},{"name":"南紀寺町","zip_code":"6308303"},{"name":"南京終町","zip_code":"6308141"},{"name":"南庄町","zip_code":"6301112"},{"name":"南新町","zip_code":"6308356"},{"name":"南城戸町","zip_code":"6308341"},{"name":"南田原町","zip_code":"6302164"},{"name":"南椿尾町","zip_code":"6308404"},{"name":"南登美ケ丘","zip_code":"6310023"},{"name":"南中町","zip_code":"6308347"},{"name":"南永井町","zip_code":"6308443"},{"name":"南半田中町","zip_code":"6308281"},{"name":"南半田東町","zip_code":"6308277"},{"name":"南半田西町","zip_code":"6308282"},{"name":"南袋町","zip_code":"6308342"},{"name":"南風呂町","zip_code":"6308351"},{"name":"水間町","zip_code":"6302151"},{"name":"三松","zip_code":"6310074"},{"name":"三松ケ丘","zip_code":"6310075"},{"name":"茗荷町","zip_code":"6302175"},{"name":"餅飯殿町","zip_code":"6308222"},{"name":"柳生下町","zip_code":"6301231"},{"name":"柳生町","zip_code":"6301237"},{"name":"薬師堂町","zip_code":"6308321"},{"name":"八島町","zip_code":"6308435"},{"name":"矢田原町","zip_code":"6302166"},{"name":"柳町","zip_code":"6308353"},{"name":"山町","zip_code":"6308434"},{"name":"油留木町","zip_code":"6308283"},{"name":"横井","zip_code":"6308422"},{"name":"横井町","zip_code":"6308422"},{"name":"横田町","zip_code":"6302174"},{"name":"横領町","zip_code":"6310828"},{"name":"来迎寺町","zip_code":"6320244"},{"name":"六条","zip_code":"6308043"},{"name":"六条緑町","zip_code":"6308045"},{"name":"六条西","zip_code":"6308044"},{"name":"六条町","zip_code":"6308041"},{"name":"鹿野園町","zip_code":"6308425"},{"name":"若葉台","zip_code":"6310837"},{"name":"脇戸町","zip_code":"6308337"},{"name":"和田町","zip_code":"6302176"}]},{"name":"大和高田市","divisions":[{"name":"秋吉","zip_code":"6350053"},{"name":"曙町","zip_code":"6350012"},{"name":"旭南町","zip_code":"6350035"},{"name":"旭北町","zip_code":"6350036"},{"name":"有井","zip_code":"6350072"},{"name":"池尻","zip_code":"6350021"},{"name":"池田","zip_code":"6350077"},{"name":"礒野","zip_code":"6350093"},{"name":"礒野新町","zip_code":"6350063"},{"name":"礒野東町","zip_code":"6350061"},{"name":"礒野南町","zip_code":"6350062"},{"name":"礒野北町","zip_code":"6350094"},{"name":"礒野町","zip_code":"6350093"},{"name":"市場","zip_code":"6350074"},{"name":"出","zip_code":"6350043"},{"name":"今里","zip_code":"6350031"},{"name":"今里川合方","zip_code":"6350032"},{"name":"今里町","zip_code":"6350031"},{"name":"内本町","zip_code":"6350087"},{"name":"永和町","zip_code":"6350083"},{"name":"大谷","zip_code":"6350076"},{"name":"大中","zip_code":"6350095"},{"name":"大中東町","zip_code":"6350091"},{"name":"大中南町","zip_code":"6350092"},{"name":"大東町","zip_code":"6350016"},{"name":"岡崎","zip_code":"6350073"},{"name":"奥田","zip_code":"6350052"},{"name":"勝目","zip_code":"6350042"},{"name":"春日町","zip_code":"6350067"},{"name":"片塩町","zip_code":"6350085"},{"name":"甘田町","zip_code":"6350056"},{"name":"北片塩町","zip_code":"6350084"},{"name":"北本町","zip_code":"6350097"},{"name":"蔵之宮町","zip_code":"6350044"},{"name":"材木町","zip_code":"6350011"},{"name":"幸町","zip_code":"6350015"},{"name":"栄町","zip_code":"6350064"},{"name":"三和町","zip_code":"6350014"},{"name":"東雲町","zip_code":"6350017"},{"name":"昭和町","zip_code":"6350013"},{"name":"神楽","zip_code":"6350025"},{"name":"曽大根","zip_code":"6350055"},{"name":"田井","zip_code":"6350041"},{"name":"田井新町","zip_code":"6350047"},{"name":"高砂町","zip_code":"6350081"},{"name":"高田","zip_code":"6350022"},{"name":"築山","zip_code":"6350071"},{"name":"土庫","zip_code":"6350002"},{"name":"中今里町","zip_code":"6350037"},{"name":"中三倉堂","zip_code":"6350045"},{"name":"南陽町","zip_code":"6350057"},{"name":"西坊城","zip_code":"6350058"},{"name":"西町","zip_code":"6350096"},{"name":"西三倉堂","zip_code":"6350046"},{"name":"根成柿","zip_code":"6350051"},{"name":"野口","zip_code":"6350075"},{"name":"東中","zip_code":"6350065"},{"name":"東三倉堂町","zip_code":"6350034"},{"name":"日之出町","zip_code":"6350022"},{"name":"日之出東本町","zip_code":"6350023"},{"name":"日之出西本町","zip_code":"6350024"},{"name":"藤森","zip_code":"6350004"},{"name":"本郷町","zip_code":"6350082"},{"name":"松塚","zip_code":"6350001"},{"name":"南今里町","zip_code":"6350033"},{"name":"南本町","zip_code":"6350086"},{"name":"吉井","zip_code":"6350059"}]},{"name":"大和郡山市","divisions":[{"name":"朝日町","zip_code":"6391013"},{"name":"池沢町","zip_code":"6391032"},{"name":"池之内町","zip_code":"6391027"},{"name":"石川町","zip_code":"6391111"},{"name":"伊豆七条町","zip_code":"6391116"},{"name":"泉原町","zip_code":"6391056"},{"name":"櫟枝町","zip_code":"6391113"},{"name":"井戸野町","zip_code":"6391104"},{"name":"藺町","zip_code":"6391158"},{"name":"今井町","zip_code":"6391155"},{"name":"今国府町","zip_code":"6391031"},{"name":"植槻町","zip_code":"6391005"},{"name":"魚町","zip_code":"6391168"},{"name":"永慶寺町","zip_code":"6391019"},{"name":"大江町","zip_code":"6391106"},{"name":"大宮町","zip_code":"6391138"},{"name":"柏木町","zip_code":"6391034"},{"name":"上三橋町","zip_code":"6391102"},{"name":"冠山町","zip_code":"6391018"},{"name":"観音寺町","zip_code":"6391161"},{"name":"北鍛冶町","zip_code":"6391165"},{"name":"北郡山町","zip_code":"6391160"},{"name":"北大工町","zip_code":"6391146"},{"name":"北西町","zip_code":"6391025"},{"name":"九条町","zip_code":"6391001"},{"name":"九条平野町","zip_code":"6391002"},{"name":"車町","zip_code":"6391147"},{"name":"小泉町","zip_code":"6391042"},{"name":"小泉町東","zip_code":"6391044"},{"name":"小林町","zip_code":"6391026"},{"name":"小林町西","zip_code":"6391045"},{"name":"小南町","zip_code":"6391023"},{"name":"紺屋町","zip_code":"6391148"},{"name":"堺町","zip_code":"6391156"},{"name":"材木町","zip_code":"6391141"},{"name":"雑穀町","zip_code":"6391150"},{"name":"塩町","zip_code":"6391169"},{"name":"椎木町","zip_code":"6391039"},{"name":"下三橋町","zip_code":"6391101"},{"name":"城町","zip_code":"6391051"},{"name":"城内町","zip_code":"6391011"},{"name":"城南町","zip_code":"6391016"},{"name":"城北町","zip_code":"6391004"},{"name":"昭和町","zip_code":"6391033"},{"name":"白土町","zip_code":"6391112"},{"name":"城の台町","zip_code":"6391008"},{"name":"城見町","zip_code":"6391012"},{"name":"新紺屋町","zip_code":"6391143"},{"name":"新庄町","zip_code":"6391114"},{"name":"新中町","zip_code":"6391157"},{"name":"新町","zip_code":"6391054"},{"name":"杉町","zip_code":"6391121"},{"name":"千日町","zip_code":"6391053"},{"name":"代官町","zip_code":"6391003"},{"name":"高田口町","zip_code":"6391133"},{"name":"高田町","zip_code":"6391132"},{"name":"田中町","zip_code":"6391028"},{"name":"丹後庄町","zip_code":"6391122"},{"name":"茶町","zip_code":"6391152"},{"name":"長安寺町","zip_code":"6391127"},{"name":"筒井町","zip_code":"6391123"},{"name":"天井町","zip_code":"6391135"},{"name":"天理町","zip_code":"6391006"},{"name":"洞泉寺町","zip_code":"6391144"},{"name":"豆腐町","zip_code":"6391149"},{"name":"外川町","zip_code":"6391052"},{"name":"豊浦町","zip_code":"6391022"},{"name":"中鍛冶町","zip_code":"6391166"},{"name":"中城町","zip_code":"6391118"},{"name":"奈良町","zip_code":"6391159"},{"name":"新木町","zip_code":"6391021"},{"name":"西岡町","zip_code":"6391014"},{"name":"西観音寺町","zip_code":"6391164"},{"name":"西田中町","zip_code":"6391043"},{"name":"西奈良口町","zip_code":"6391163"},{"name":"西野垣内町","zip_code":"6391153"},{"name":"西町","zip_code":"6391038"},{"name":"額田部寺町","zip_code":"6391036"},{"name":"額田部南町","zip_code":"6391035"},{"name":"額田部北町","zip_code":"6391037"},{"name":"野垣内町","zip_code":"6391131"},{"name":"八条町","zip_code":"6391125"},{"name":"発志院町","zip_code":"6391119"},{"name":"番匠田中町","zip_code":"6391105"},{"name":"番条町","zip_code":"6391117"},{"name":"稗田町","zip_code":"6391108"},{"name":"東岡町","zip_code":"6391137"},{"name":"東奈良口町","zip_code":"6391162"},{"name":"藤原町","zip_code":"6391017"},{"name":"本庄町","zip_code":"6391136"},{"name":"本町","zip_code":"6391151"},{"name":"馬司町","zip_code":"6391124"},{"name":"満願寺町","zip_code":"6391041"},{"name":"南井町","zip_code":"6391024"},{"name":"南鍛冶町","zip_code":"6391167"},{"name":"南郡山町","zip_code":"6391007"},{"name":"南大工町","zip_code":"6391145"},{"name":"美濃庄町","zip_code":"6391103"},{"name":"箕山町","zip_code":"6391015"},{"name":"宮堂町","zip_code":"6391126"},{"name":"矢田町","zip_code":"6391058"},{"name":"矢田町通","zip_code":"6391142"},{"name":"矢田山町","zip_code":"6391055"},{"name":"柳","zip_code":"6391134"},{"name":"山田町","zip_code":"6391057"},{"name":"横田町","zip_code":"6391115"},{"name":"若槻町","zip_code":"6391107"},{"name":"綿町","zip_code":"6391154"}]},{"name":"天理市","divisions":[{"name":"合場町","zip_code":"6320068"},{"name":"荒蒔町","zip_code":"6320082"},{"name":"石上町","zip_code":"6320011"},{"name":"櫟本町","zip_code":"6320004"},{"name":"稲葉町","zip_code":"6320083"},{"name":"岩室町","zip_code":"6320076"},{"name":"岩屋町","zip_code":"6320003"},{"name":"内馬場町","zip_code":"6320031"},{"name":"庵治町","zip_code":"6320086"},{"name":"乙木町","zip_code":"6320047"},{"name":"海知町","zip_code":"6320064"},{"name":"嘉幡町","zip_code":"6320084"},{"name":"上仁興町","zip_code":"6320024"},{"name":"萱生町","zip_code":"6320042"},{"name":"川原城町","zip_code":"6320016"},{"name":"上総町","zip_code":"6320091"},{"name":"岸田町","zip_code":"6320056"},{"name":"喜殿町","zip_code":"6320095"},{"name":"九条町","zip_code":"6320069"},{"name":"蔵之庄町","zip_code":"6320006"},{"name":"御経野町","zip_code":"6320036"},{"name":"小島町","zip_code":"6320085"},{"name":"小田中町","zip_code":"6320092"},{"name":"指柳町","zip_code":"6320093"},{"name":"佐保庄町","zip_code":"6320043"},{"name":"三昧田町","zip_code":"6320046"},{"name":"渋谷町","zip_code":"6320053"},{"name":"下仁興町","zip_code":"6320023"},{"name":"成願寺町","zip_code":"6320058"},{"name":"小路町","zip_code":"6320096"},{"name":"杉本町","zip_code":"6320078"},{"name":"前栽町","zip_code":"6320094"},{"name":"園原町","zip_code":"6320048"},{"name":"杣之内町","zip_code":"6320032"},{"name":"田井庄町","zip_code":"6320071"},{"name":"滝本町","zip_code":"6320021"},{"name":"竹之内町","zip_code":"6320041"},{"name":"田町","zip_code":"6320073"},{"name":"田部町","zip_code":"6320017"},{"name":"丹波市町","zip_code":"6320034"},{"name":"苣原町","zip_code":"6320022"},{"name":"遠田町","zip_code":"6320055"},{"name":"富堂町","zip_code":"6320072"},{"name":"豊井町","zip_code":"6320013"},{"name":"豊田町","zip_code":"6320012"},{"name":"中町","zip_code":"6320097"},{"name":"中之庄町","zip_code":"6320001"},{"name":"中山町","zip_code":"6320051"},{"name":"長滝町","zip_code":"6320123"},{"name":"永原町","zip_code":"6320061"},{"name":"長柄町","zip_code":"6320062"},{"name":"楢町","zip_code":"6320005"},{"name":"新泉町","zip_code":"6320057"},{"name":"二階堂上ノ庄町","zip_code":"6320081"},{"name":"二階堂南菅田町","zip_code":"6320087"},{"name":"二階堂北菅田町","zip_code":"6320088"},{"name":"西井戸堂町","zip_code":"6320075"},{"name":"西長柄町","zip_code":"6320063"},{"name":"檜垣町","zip_code":"6320054"},{"name":"東井戸堂町","zip_code":"6320074"},{"name":"兵庫町","zip_code":"6320044"},{"name":"備前町","zip_code":"6320066"},{"name":"平等坊町","zip_code":"6320077"},{"name":"福住町","zip_code":"6320122"},{"name":"福知堂町","zip_code":"6320045"},{"name":"藤井町","zip_code":"6320025"},{"name":"布留町","zip_code":"6320014"},{"name":"別所町","zip_code":"6320018"},{"name":"勾田町","zip_code":"6320033"},{"name":"三島町","zip_code":"6320015"},{"name":"南六条町","zip_code":"6320098"},{"name":"武蔵町","zip_code":"6320065"},{"name":"守目堂町","zip_code":"6320035"},{"name":"森本町","zip_code":"6320007"},{"name":"柳本町","zip_code":"6320052"},{"name":"山田町","zip_code":"6320121"},{"name":"吉田町","zip_code":"6320067"},{"name":"和爾町","zip_code":"6320002"}]},{"name":"橿原市","divisions":[{"name":"石川町","zip_code":"6340045"},{"name":"石原田町","zip_code":"6340014"},{"name":"今井町","zip_code":"6340812"},{"name":"忌部町","zip_code":"6340833"},{"name":"雲梯町","zip_code":"6340834"},{"name":"畝傍町","zip_code":"6340065"},{"name":"栄和町","zip_code":"6340046"},{"name":"小房町","zip_code":"6340075"},{"name":"小槻町","zip_code":"6340846"},{"name":"大垣町","zip_code":"6340841"},{"name":"大軽町","zip_code":"6340044"},{"name":"大久保町","zip_code":"6340061"},{"name":"大谷町","zip_code":"6340815"},{"name":"太田市町","zip_code":"6340001"},{"name":"戒外町","zip_code":"6340023"},{"name":"膳夫町","zip_code":"6340012"},{"name":"一町","zip_code":"6340824"},{"name":"上飛騨町","zip_code":"6340031"},{"name":"川西町","zip_code":"6340826"},{"name":"観音寺町","zip_code":"6340825"},{"name":"北越智町","zip_code":"6340823"},{"name":"北妙法寺町","zip_code":"6340843"},{"name":"北八木町","zip_code":"6340005"},{"name":"城殿町","zip_code":"6340033"},{"name":"木之本町","zip_code":"6340025"},{"name":"木原町","zip_code":"6340004"},{"name":"葛本町","zip_code":"6340007"},{"name":"久米町","zip_code":"6340063"},{"name":"光陽町","zip_code":"6340827"},{"name":"五井町","zip_code":"6340832"},{"name":"五条野町","zip_code":"6340043"},{"name":"御坊町","zip_code":"6340062"},{"name":"四条町","zip_code":"6340813"},{"name":"四分町","zip_code":"6340074"},{"name":"下八釣町","zip_code":"6340029"},{"name":"小綱町","zip_code":"6340811"},{"name":"菖蒲町","zip_code":"6340042"},{"name":"上品寺町","zip_code":"6340803"},{"name":"白橿町","zip_code":"6340051"},{"name":"新賀町","zip_code":"6340006"},{"name":"新堂町","zip_code":"6340836"},{"name":"地黄町","zip_code":"6340805"},{"name":"慈明寺町","zip_code":"6340816"},{"name":"曽我町","zip_code":"6340831"},{"name":"醍醐町","zip_code":"6340072"},{"name":"高殿町","zip_code":"6340027"},{"name":"田中町","zip_code":"6340032"},{"name":"土橋町","zip_code":"6340844"},{"name":"出合町","zip_code":"6340013"},{"name":"出垣内町","zip_code":"6340011"},{"name":"寺田町","zip_code":"6340817"},{"name":"十市町","zip_code":"6340008"},{"name":"常盤町","zip_code":"6340003"},{"name":"豊田町","zip_code":"6340842"},{"name":"鳥屋町","zip_code":"6340822"},{"name":"内膳町","zip_code":"6340804"},{"name":"中曽司町","zip_code":"6340845"},{"name":"中町","zip_code":"6340009"},{"name":"縄手町","zip_code":"6340073"},{"name":"西池尻町","zip_code":"6340821"},{"name":"西新堂町","zip_code":"6340801"},{"name":"新口町","zip_code":"6340802"},{"name":"東池尻町","zip_code":"6340021"},{"name":"東竹田町","zip_code":"6340002"},{"name":"東坊城町","zip_code":"6340835"},{"name":"飯高町","zip_code":"6340847"},{"name":"飛騨町","zip_code":"6340034"},{"name":"兵部町","zip_code":"6340076"},{"name":"古川町","zip_code":"6340828"},{"name":"別所町","zip_code":"6340026"},{"name":"法花寺町","zip_code":"6340028"},{"name":"曲川町","zip_code":"6340837"},{"name":"見瀬町","zip_code":"6340064"},{"name":"南浦町","zip_code":"6340022"},{"name":"南妙法寺町","zip_code":"6340052"},{"name":"南八木町","zip_code":"6340077"},{"name":"南山町","zip_code":"6340024"},{"name":"八木町","zip_code":"6340078"},{"name":"山之坊町","zip_code":"6340071"},{"name":"山本町","zip_code":"6340814"},{"name":"吉田町","zip_code":"6340829"},{"name":"和田町","zip_code":"6340041"}]},{"name":"桜井市","divisions":[{"name":"赤尾","zip_code":"6330006"},{"name":"朝倉台東","zip_code":"6330003"},{"name":"朝倉台西","zip_code":"6330004"},{"name":"浅古","zip_code":"6330052"},{"name":"穴師","zip_code":"6330071"},{"name":"阿部","zip_code":"6330054"},{"name":"安倍木材団地","zip_code":"6330055"},{"name":"飯盛塚","zip_code":"6330026"},{"name":"池之内","zip_code":"6330046"},{"name":"出雲","zip_code":"6330122"},{"name":"今井谷","zip_code":"6330035"},{"name":"岩坂","zip_code":"6330013"},{"name":"上之宮","zip_code":"6330041"},{"name":"江包","zip_code":"6330086"},{"name":"大泉","zip_code":"6330076"},{"name":"生田","zip_code":"6330048"},{"name":"太田","zip_code":"6330084"},{"name":"粟殿","zip_code":"6330062"},{"name":"粟原","zip_code":"6330014"},{"name":"小夫","zip_code":"6330101"},{"name":"小夫嵩方","zip_code":"6330103"},{"name":"大西","zip_code":"6330077"},{"name":"忍阪","zip_code":"6330005"},{"name":"下居","zip_code":"6330031"},{"name":"戒重","zip_code":"6330064"},{"name":"笠","zip_code":"6330133"},{"name":"金屋","zip_code":"6330002"},{"name":"上之庄","zip_code":"6330061"},{"name":"萱森","zip_code":"6330106"},{"name":"川合","zip_code":"6330063"},{"name":"河西","zip_code":"6330051"},{"name":"北音羽","zip_code":"6330022"},{"name":"北山","zip_code":"6330034"},{"name":"吉備","zip_code":"6330065"},{"name":"草川","zip_code":"6330081"},{"name":"倉橋","zip_code":"6330021"},{"name":"黒崎","zip_code":"6330011"},{"name":"狛","zip_code":"6330012"},{"name":"下り尾","zip_code":"6330015"},{"name":"桜井","zip_code":"6330091"},{"name":"慈恩寺","zip_code":"6330017"},{"name":"芝","zip_code":"6330074"},{"name":"下","zip_code":"6330042"},{"name":"修理枝","zip_code":"6330131"},{"name":"白河","zip_code":"6330121"},{"name":"白木","zip_code":"6330105"},{"name":"新屋敷","zip_code":"6330075"},{"name":"芹井","zip_code":"6330104"},{"name":"高家","zip_code":"6330044"},{"name":"大福","zip_code":"6330067"},{"name":"高田","zip_code":"6330043"},{"name":"滝倉","zip_code":"6330108"},{"name":"谷","zip_code":"6330053"},{"name":"茅原","zip_code":"6330073"},{"name":"辻","zip_code":"6330083"},{"name":"多武峰","zip_code":"6330032"},{"name":"外山","zip_code":"6330007"},{"name":"豊田","zip_code":"6330079"},{"name":"中谷","zip_code":"6330107"},{"name":"西口","zip_code":"6330033"},{"name":"西之宮","zip_code":"6330066"},{"name":"箸中","zip_code":"6330072"},{"name":"橋本","zip_code":"6330047"},{"name":"初瀬","zip_code":"6330112"},{"name":"針道","zip_code":"6330024"},{"name":"東新堂","zip_code":"6330068"},{"name":"東田","zip_code":"6330085"},{"name":"豊前","zip_code":"6330078"},{"name":"巻野内","zip_code":"6330082"},{"name":"大豆越","zip_code":"6330087"},{"name":"三谷","zip_code":"6330102"},{"name":"南音羽","zip_code":"6330023"},{"name":"三輪","zip_code":"6330001"},{"name":"百市","zip_code":"6330028"},{"name":"八井内","zip_code":"6330025"},{"name":"山田","zip_code":"6330045"},{"name":"横柿","zip_code":"6330036"},{"name":"吉隠","zip_code":"6330111"},{"name":"竜谷","zip_code":"6330016"},{"name":"鹿路","zip_code":"6330027"},{"name":"脇本","zip_code":"6330018"},{"name":"和田","zip_code":"6330132"}]},{"name":"五條市","divisions":[{"name":"相谷町","zip_code":"6370074"},{"name":"居伝町","zip_code":"6370013"},{"name":"犬飼町","zip_code":"6370072"},{"name":"今井","zip_code":"6370004"},{"name":"今井町","zip_code":"6370004"},{"name":"宇野町","zip_code":"6370003"},{"name":"大沢町","zip_code":"6370077"},{"name":"大津町","zip_code":"6370060"},{"name":"大塔町宇井","zip_code":"6370405"},{"name":"大塔町小代","zip_code":"6370416"},{"name":"大塔町阪本","zip_code":"6370417"},{"name":"大塔町猿谷","zip_code":"6370414"},{"name":"大塔町篠原","zip_code":"6370401"},{"name":"大塔町清水","zip_code":"6370406"},{"name":"大塔町簾","zip_code":"6370419"},{"name":"大塔町惣谷","zip_code":"6370402"},{"name":"大塔町辻堂","zip_code":"6370408"},{"name":"大塔町堂平","zip_code":"6370411"},{"name":"大塔町閉君","zip_code":"6370407"},{"name":"大塔町殿野","zip_code":"6370409"},{"name":"大塔町中井傍示","zip_code":"6370403"},{"name":"大塔町中原","zip_code":"6370415"},{"name":"大塔町中峯","zip_code":"6370404"},{"name":"大塔町引土","zip_code":"6370413"},{"name":"大塔町飛養曽","zip_code":"6370412"},{"name":"大野新田町","zip_code":"6370015"},{"name":"大野町","zip_code":"6370063"},{"name":"大深町","zip_code":"6370066"},{"name":"岡口","zip_code":"6370006"},{"name":"岡町","zip_code":"6370092"},{"name":"生子町","zip_code":"6370053"},{"name":"小和町","zip_code":"6370019"},{"name":"樫辻町","zip_code":"6370054"},{"name":"釜窪町","zip_code":"6370084"},{"name":"上之町","zip_code":"6370081"},{"name":"北山町","zip_code":"6370091"},{"name":"木ノ原町","zip_code":"6370076"},{"name":"久留野町","zip_code":"6370018"},{"name":"車谷町","zip_code":"6370025"},{"name":"黒駒町","zip_code":"6370062"},{"name":"上野町","zip_code":"6370073"},{"name":"小島町","zip_code":"6370031"},{"name":"五條","zip_code":"6370042"},{"name":"小山町","zip_code":"6370012"},{"name":"阪合部新田町","zip_code":"6370065"},{"name":"三在町","zip_code":"6370002"},{"name":"島野町","zip_code":"6370027"},{"name":"下之町","zip_code":"6370083"},{"name":"新町","zip_code":"6370043"},{"name":"須恵","zip_code":"6370005"},{"name":"住川町","zip_code":"6370014"},{"name":"滝町","zip_code":"6370024"},{"name":"田殿町","zip_code":"6370067"},{"name":"丹原町","zip_code":"6370052"},{"name":"近内町","zip_code":"6370016"},{"name":"出屋敷町","zip_code":"6370011"},{"name":"田園","zip_code":"6370093"},{"name":"中町","zip_code":"6370061"},{"name":"中之町","zip_code":"6370082"},{"name":"なつみ台","zip_code":"6370078"},{"name":"西阿田町","zip_code":"6370020"},{"name":"西河内町","zip_code":"6370001"},{"name":"西久留野町","zip_code":"6370017"},{"name":"西吉野町赤松","zip_code":"6380643"},{"name":"西吉野町賀名生","zip_code":"6370117"},{"name":"西吉野町尼ケ生","zip_code":"6380652"},{"name":"西吉野町永谷","zip_code":"6370221"},{"name":"西吉野町江出","zip_code":"6370111"},{"name":"西吉野町老野","zip_code":"6370112"},{"name":"西吉野町大峯","zip_code":"6370234"},{"name":"西吉野町奥谷","zip_code":"6380663"},{"name":"西吉野町大日川","zip_code":"6370101"},{"name":"西吉野町小古田","zip_code":"6380655"},{"name":"西吉野町陰地","zip_code":"6370239"},{"name":"西吉野町唐戸","zip_code":"6380651"},{"name":"西吉野町川岸","zip_code":"6370231"},{"name":"西吉野町川股","zip_code":"6370225"},{"name":"西吉野町黒淵","zip_code":"6370102"},{"name":"西吉野町神野","zip_code":"6370113"},{"name":"西吉野町阪巻","zip_code":"6370236"},{"name":"西吉野町鹿場","zip_code":"6380656"},{"name":"西吉野町城戸","zip_code":"6370230"},{"name":"西吉野町勢井","zip_code":"6370227"},{"name":"西吉野町滝","zip_code":"6370114"},{"name":"西吉野町立川渡","zip_code":"6370222"},{"name":"西吉野町津越","zip_code":"6370232"},{"name":"西吉野町十日市","zip_code":"6380653"},{"name":"西吉野町茄子原","zip_code":"6370224"},{"name":"西吉野町西新子","zip_code":"6380661"},{"name":"西吉野町西野","zip_code":"6370238"},{"name":"西吉野町西日裏","zip_code":"6370226"},{"name":"西吉野町桧川迫","zip_code":"6370233"},{"name":"西吉野町平雄","zip_code":"6370235"},{"name":"西吉野町平沼田","zip_code":"6380642"},{"name":"西吉野町北曽木","zip_code":"6370115"},{"name":"西吉野町南山","zip_code":"6380654"},{"name":"西吉野町向加名生","zip_code":"6370103"},{"name":"西吉野町宗川野","zip_code":"6370237"},{"name":"西吉野町本谷","zip_code":"6370223"},{"name":"西吉野町百谷","zip_code":"6380641"},{"name":"西吉野町八ツ川","zip_code":"6380657"},{"name":"西吉野町屋那瀬","zip_code":"6370104"},{"name":"西吉野町湯川","zip_code":"6380644"},{"name":"西吉野町湯塩","zip_code":"6370105"},{"name":"西吉野町夜中","zip_code":"6380662"},{"name":"西吉野町和田","zip_code":"6370116"},{"name":"野原町","zip_code":"6370034"},{"name":"野原中","zip_code":"6370037"},{"name":"野原西","zip_code":"6370036"},{"name":"野原東","zip_code":"6370038"},{"name":"畑田町","zip_code":"6370075"},{"name":"八田町","zip_code":"6370022"},{"name":"原町","zip_code":"6370028"},{"name":"火打町","zip_code":"6370068"},{"name":"東阿田町","zip_code":"6370021"},{"name":"表野町","zip_code":"6370069"},{"name":"二見","zip_code":"6370071"},{"name":"本町","zip_code":"6370041"},{"name":"牧町","zip_code":"6370033"},{"name":"南阿田町","zip_code":"6370023"},{"name":"御山町","zip_code":"6370051"},{"name":"六倉町","zip_code":"6370032"},{"name":"山陰町","zip_code":"6370064"},{"name":"山田町","zip_code":"6370029"},{"name":"湯谷市塚町","zip_code":"6370026"},{"name":"霊安寺町","zip_code":"6370035"}]},{"name":"御所市","divisions":[{"name":"朝妻","zip_code":"6392341"},{"name":"旭町","zip_code":"6392239"},{"name":"朝町","zip_code":"6392255"},{"name":"五百家","zip_code":"6392264"},{"name":"池之内","zip_code":"6392273"},{"name":"井戸","zip_code":"6392326"},{"name":"稲宿","zip_code":"6392258"},{"name":"今住","zip_code":"6392245"},{"name":"今出","zip_code":"6392279"},{"name":"今城","zip_code":"6392207"},{"name":"内谷","zip_code":"6392267"},{"name":"多田","zip_code":"6392323"},{"name":"大橋通り","zip_code":"6392238"},{"name":"大広町","zip_code":"6392304"},{"name":"小殿","zip_code":"6392257"},{"name":"柿ケ坪町","zip_code":"6392231"},{"name":"柏原","zip_code":"6392244"},{"name":"鴨神","zip_code":"6392343"},{"name":"鴨口町","zip_code":"6392229"},{"name":"北窪","zip_code":"6392334"},{"name":"北十三","zip_code":"6392203"},{"name":"櫛羅","zip_code":"6392312"},{"name":"栗阪","zip_code":"6392256"},{"name":"国鉄御所駅前通り","zip_code":"6392211"},{"name":"極楽寺","zip_code":"6392337"},{"name":"古瀬","zip_code":"6392254"},{"name":"小林","zip_code":"6392311"},{"name":"西柏町","zip_code":"6392224"},{"name":"幸町","zip_code":"6392314"},{"name":"栄町","zip_code":"6392221"},{"name":"佐田","zip_code":"6392325"},{"name":"蛇穴","zip_code":"6392272"},{"name":"下茶屋","zip_code":"6392324"},{"name":"條","zip_code":"6392276"},{"name":"城山台","zip_code":"6392261"},{"name":"神宮町","zip_code":"6392213"},{"name":"新地町","zip_code":"6392217"},{"name":"新田","zip_code":"6392265"},{"name":"寺内町","zip_code":"6392235"},{"name":"末広町","zip_code":"6392303"},{"name":"関屋","zip_code":"6392328"},{"name":"僧堂","zip_code":"6392342"},{"name":"代官町","zip_code":"6392236"},{"name":"高天","zip_code":"6392336"},{"name":"竹田","zip_code":"6392206"},{"name":"玉手","zip_code":"6392247"},{"name":"茅原","zip_code":"6392241"},{"name":"中央通り","zip_code":"6392212"},{"name":"出走","zip_code":"6392275"},{"name":"出屋敷","zip_code":"6392202"},{"name":"戸毛","zip_code":"6392251"},{"name":"冨田","zip_code":"6392274"},{"name":"豊田","zip_code":"6392317"},{"name":"鳥井戸","zip_code":"6392263"},{"name":"中本町","zip_code":"6392225"},{"name":"名柄","zip_code":"6392321"},{"name":"楢原","zip_code":"6392313"},{"name":"南郷","zip_code":"6392331"},{"name":"西北窪","zip_code":"6392335"},{"name":"西久保本町","zip_code":"6392228"},{"name":"西佐味","zip_code":"6392345"},{"name":"西寺田","zip_code":"6392316"},{"name":"西町","zip_code":"6392215"},{"name":"西持田","zip_code":"6392332"},{"name":"林","zip_code":"6392333"},{"name":"原谷","zip_code":"6392246"},{"name":"東久保町","zip_code":"6392227"},{"name":"東佐味","zip_code":"6392344"},{"name":"東辻","zip_code":"6392205"},{"name":"東寺田","zip_code":"6392243"},{"name":"東名柄","zip_code":"6392322"},{"name":"東松本","zip_code":"6392302"},{"name":"東持田","zip_code":"6392262"},{"name":"樋野","zip_code":"6392252"},{"name":"伏見","zip_code":"6392346"},{"name":"船路","zip_code":"6392268"},{"name":"奉膳","zip_code":"6392253"},{"name":"重阪","zip_code":"6392266"},{"name":"豊年橋通り","zip_code":"6392237"},{"name":"本馬","zip_code":"6392242"},{"name":"本町","zip_code":"6392223"},{"name":"増","zip_code":"6392327"},{"name":"御門町","zip_code":"6392232"},{"name":"御国通り","zip_code":"6392216"},{"name":"御堂魚棚町","zip_code":"6392214"},{"name":"緑ケ丘","zip_code":"6392278"},{"name":"緑町","zip_code":"6392248"},{"name":"南十三","zip_code":"6392204"},{"name":"南中町","zip_code":"6392226"},{"name":"三室","zip_code":"6392306"},{"name":"都町","zip_code":"6392233"},{"name":"宮戸","zip_code":"6392315"},{"name":"宮前町","zip_code":"6392271"},{"name":"室","zip_code":"6392277"},{"name":"持田","zip_code":"6392262"},{"name":"元町","zip_code":"6392301"},{"name":"森脇","zip_code":"6392318"},{"name":"柳田町","zip_code":"6392305"},{"name":"柳原","zip_code":"6392201"},{"name":"柳町","zip_code":"6392234"},{"name":"六軒町","zip_code":"6392222"}]},{"name":"生駒市","divisions":[{"name":"青山台","zip_code":"6300239"},{"name":"あすか台","zip_code":"6300132"},{"name":"あすか野南","zip_code":"6300133"},{"name":"あすか野北","zip_code":"6300134"},{"name":"有里町","zip_code":"6300233"},{"name":"生駒台南","zip_code":"6300202"},{"name":"生駒台北","zip_code":"6300203"},{"name":"壱分町","zip_code":"6300222"},{"name":"小倉寺町","zip_code":"6300232"},{"name":"小瀬町","zip_code":"6300223"},{"name":"乙田町","zip_code":"6300227"},{"name":"鬼取町","zip_code":"6300237"},{"name":"上町","zip_code":"6300131"},{"name":"上町台","zip_code":"6300138"},{"name":"軽井沢町","zip_code":"6300265"},{"name":"北新町","zip_code":"6300245"},{"name":"北田原町","zip_code":"6300142"},{"name":"北大和","zip_code":"6300121"},{"name":"喜里が丘","zip_code":"6300248"},{"name":"小明町","zip_code":"6300201"},{"name":"光陽台","zip_code":"6300247"},{"name":"小平尾町","zip_code":"6300226"},{"name":"桜ケ丘","zip_code":"6300211"},{"name":"さつき台","zip_code":"6300221"},{"name":"鹿ノ台東","zip_code":"6300112"},{"name":"鹿ノ台西","zip_code":"6300114"},{"name":"鹿ノ台南","zip_code":"6300113"},{"name":"鹿ノ台北","zip_code":"6300111"},{"name":"鹿畑町","zip_code":"6300115"},{"name":"白庭台","zip_code":"6300136"},{"name":"新旭ケ丘","zip_code":"6300253"},{"name":"新生駒台","zip_code":"6300242"},{"name":"大門町","zip_code":"6300238"},{"name":"高山町","zip_code":"6300101"},{"name":"谷田町","zip_code":"6300251"},{"name":"俵口町","zip_code":"6300243"},{"name":"辻町","zip_code":"6300212"},{"name":"中菜畑","zip_code":"6300263"},{"name":"仲之町","zip_code":"6300267"},{"name":"菜畑町","zip_code":"6300231"},{"name":"西旭ケ丘","zip_code":"6300261"},{"name":"西白庭台","zip_code":"6300137"},{"name":"西菜畑町","zip_code":"6300264"},{"name":"西畑町","zip_code":"6300236"},{"name":"西松ケ丘","zip_code":"6300246"},{"name":"萩の台","zip_code":"6300224"},{"name":"萩原町","zip_code":"6300234"},{"name":"ひかりが丘","zip_code":"6300141"},{"name":"東旭ケ丘","zip_code":"6300254"},{"name":"東生駒","zip_code":"6300213"},{"name":"東生駒月見町","zip_code":"6300214"},{"name":"東新町","zip_code":"6300258"},{"name":"東菜畑","zip_code":"6300215"},{"name":"東松ケ丘","zip_code":"6300244"},{"name":"東山町","zip_code":"6300225"},{"name":"藤尾町","zip_code":"6300235"},{"name":"本町","zip_code":"6300256"},{"name":"松美台","zip_code":"6300241"},{"name":"真弓","zip_code":"6300122"},{"name":"真弓南","zip_code":"6300123"},{"name":"美鹿の台","zip_code":"6300116"},{"name":"緑ケ丘","zip_code":"6300262"},{"name":"南田原町","zip_code":"6300135"},{"name":"南山手台","zip_code":"6300228"},{"name":"元町","zip_code":"6300257"},{"name":"門前町","zip_code":"6300266"},{"name":"山崎新町","zip_code":"6300255"},{"name":"山崎町","zip_code":"6300252"}]},{"name":"香芝市","divisions":[{"name":"旭ケ丘","zip_code":"6390266"},{"name":"穴虫","zip_code":"6390252"},{"name":"磯壁","zip_code":"6390236"},{"name":"今泉","zip_code":"6390264"},{"name":"逢坂","zip_code":"6390251"},{"name":"鎌田","zip_code":"6390227"},{"name":"上中","zip_code":"6390265"},{"name":"瓦口","zip_code":"6390225"},{"name":"北今市","zip_code":"6390242"},{"name":"狐井","zip_code":"6390234"},{"name":"五位堂","zip_code":"6390226"},{"name":"五ケ所","zip_code":"6390221"},{"name":"下田","zip_code":"6390233"},{"name":"下田東","zip_code":"6390232"},{"name":"下田西","zip_code":"6390231"},{"name":"関屋","zip_code":"6390255"},{"name":"関屋北","zip_code":"6390254"},{"name":"高","zip_code":"6390241"},{"name":"高山台","zip_code":"6390256"},{"name":"田尻","zip_code":"6390253"},{"name":"西真美","zip_code":"6390222"},{"name":"尼寺","zip_code":"6390261"},{"name":"白鳳台","zip_code":"6390262"},{"name":"畑","zip_code":"6390245"},{"name":"平野","zip_code":"6390263"},{"name":"藤山","zip_code":"6390243"},{"name":"別所","zip_code":"6390224"},{"name":"本町","zip_code":"6390244"},{"name":"真美ケ丘","zip_code":"6390223"},{"name":"良福寺","zip_code":"6390235"}]},{"name":"葛城市","divisions":[{"name":"今在家","zip_code":"6390274"},{"name":"梅室","zip_code":"6392133"},{"name":"太田","zip_code":"6392153"},{"name":"大屋","zip_code":"6392145"},{"name":"忍海","zip_code":"6392123"},{"name":"大畑","zip_code":"6392152"},{"name":"柿本","zip_code":"6392111"},{"name":"勝根","zip_code":"6390275"},{"name":"葛木","zip_code":"6392144"},{"name":"加守","zip_code":"6390271"},{"name":"北花内","zip_code":"6392113"},{"name":"北道穂","zip_code":"6392142"},{"name":"木戸","zip_code":"6392161"},{"name":"新村","zip_code":"6392121"},{"name":"尺土","zip_code":"6392162"},{"name":"新在家","zip_code":"6390272"},{"name":"新庄","zip_code":"6392147"},{"name":"新町","zip_code":"6392127"},{"name":"染野","zip_code":"6390273"},{"name":"當麻","zip_code":"6390276"},{"name":"竹内","zip_code":"6392155"},{"name":"寺口","zip_code":"6392135"},{"name":"長尾","zip_code":"6392164"},{"name":"中戸","zip_code":"6392146"},{"name":"西辻","zip_code":"6392125"},{"name":"西室","zip_code":"6392103"},{"name":"薑","zip_code":"6392122"},{"name":"八川","zip_code":"6392163"},{"name":"林堂","zip_code":"6392131"},{"name":"東室","zip_code":"6392102"},{"name":"疋田","zip_code":"6392101"},{"name":"兵家","zip_code":"6392154"},{"name":"平岡","zip_code":"6392136"},{"name":"笛堂","zip_code":"6392112"},{"name":"笛吹","zip_code":"6392132"},{"name":"弁之庄","zip_code":"6392141"},{"name":"南今市","zip_code":"6392151"},{"name":"南新町","zip_code":"6392123"},{"name":"南花内","zip_code":"6392126"},{"name":"南藤井","zip_code":"6392137"},{"name":"南道穂","zip_code":"6392143"},{"name":"山口","zip_code":"6392134"},{"name":"山田","zip_code":"6392138"},{"name":"脇田","zip_code":"6392124"}]},{"name":"宇陀市","divisions":[{"name":"菟田野稲戸","zip_code":"6332225"},{"name":"菟田野岩崎","zip_code":"6332227"},{"name":"菟田野岩端","zip_code":"6332214"},{"name":"菟田野宇賀志","zip_code":"6332223"},{"name":"菟田野大神","zip_code":"6332202"},{"name":"菟田野大澤","zip_code":"6332204"},{"name":"菟田野上芳野","zip_code":"6332213"},{"name":"菟田野駒帰","zip_code":"6332222"},{"name":"菟田野佐倉","zip_code":"6332224"},{"name":"菟田野下芳野","zip_code":"6332212"},{"name":"菟田野東郷","zip_code":"6332215"},{"name":"菟田野入谷","zip_code":"6332211"},{"name":"菟田野平井","zip_code":"6332201"},{"name":"菟田野古市場","zip_code":"6332226"},{"name":"菟田野別所","zip_code":"6332205"},{"name":"菟田野松井","zip_code":"6332221"},{"name":"菟田野見田","zip_code":"6332203"},{"name":"大宇陀麻生田","zip_code":"6332105"},{"name":"大宇陀五津","zip_code":"6332101"},{"name":"大宇陀出新","zip_code":"6332162"},{"name":"大宇陀岩清水","zip_code":"6332126"},{"name":"大宇陀岩室","zip_code":"6332116"},{"name":"大宇陀内原","zip_code":"6332111"},{"name":"大宇陀嬉河原","zip_code":"6332107"},{"name":"大宇陀大熊","zip_code":"6332136"},{"name":"大宇陀春日","zip_code":"6332114"},{"name":"大宇陀上","zip_code":"6332174"},{"name":"大宇陀上片岡","zip_code":"6332141"},{"name":"大宇陀上品","zip_code":"6332133"},{"name":"大宇陀上新","zip_code":"6332161"},{"name":"大宇陀上茶","zip_code":"6332171"},{"name":"大宇陀上中","zip_code":"6332173"},{"name":"大宇陀上本","zip_code":"6332172"},{"name":"大宇陀口今井","zip_code":"6332104"},{"name":"大宇陀栗野","zip_code":"6332144"},{"name":"大宇陀黒木","zip_code":"6332155"},{"name":"大宇陀小出口","zip_code":"6332176"},{"name":"大宇陀小附","zip_code":"6332112"},{"name":"大宇陀小和田","zip_code":"6332134"},{"name":"大宇陀才ケ辻","zip_code":"6332124"},{"name":"大宇陀芝生","zip_code":"6332117"},{"name":"大宇陀下片岡","zip_code":"6332137"},{"name":"大宇陀下品","zip_code":"6332132"},{"name":"大宇陀下竹","zip_code":"6332113"},{"name":"大宇陀下茶","zip_code":"6332170"},{"name":"大宇陀下出口","zip_code":"6332177"},{"name":"大宇陀下中","zip_code":"6332178"},{"name":"大宇陀下本","zip_code":"6332179"},{"name":"大宇陀下宮奥","zip_code":"6332153"},{"name":"大宇陀白鳥居","zip_code":"6332138"},{"name":"大宇陀関戸","zip_code":"6332152"},{"name":"大宇陀大東","zip_code":"6332151"},{"name":"大宇陀田原","zip_code":"6332142"},{"name":"大宇陀調子","zip_code":"6332122"},{"name":"大宇陀塚脇","zip_code":"6332121"},{"name":"大宇陀中新","zip_code":"6332175"},{"name":"大宇陀中庄","zip_code":"6332165"},{"name":"大宇陀西山","zip_code":"6332115"},{"name":"大宇陀野依","zip_code":"6332103"},{"name":"大宇陀迫間","zip_code":"6332166"},{"name":"大宇陀半阪","zip_code":"6332108"},{"name":"大宇陀東平尾","zip_code":"6332135"},{"name":"大宇陀平尾","zip_code":"6332102"},{"name":"大宇陀拾生","zip_code":"6332164"},{"name":"大宇陀藤井","zip_code":"6332123"},{"name":"大宇陀本郷","zip_code":"6332156"},{"name":"大宇陀牧","zip_code":"6332143"},{"name":"大宇陀馬取柿","zip_code":"6332106"},{"name":"大宇陀万六","zip_code":"6332163"},{"name":"大宇陀宮奥","zip_code":"6332154"},{"name":"大宇陀守道","zip_code":"6332125"},{"name":"大宇陀山口","zip_code":"6332139"},{"name":"大宇陀和田","zip_code":"6332131"},{"name":"榛原赤瀬","zip_code":"6330207"},{"name":"榛原あかね台","zip_code":"6330256"},{"name":"榛原赤埴","zip_code":"6330213"},{"name":"榛原足立","zip_code":"6330231"},{"name":"榛原雨師","zip_code":"6330243"},{"name":"榛原池上","zip_code":"6330232"},{"name":"榛原石田","zip_code":"6330223"},{"name":"榛原内牧","zip_code":"6330215"},{"name":"榛原大貝","zip_code":"6330225"},{"name":"榛原戒場","zip_code":"6330201"},{"name":"榛原笠間","zip_code":"6330245"},{"name":"榛原上井足","zip_code":"6330222"},{"name":"榛原栗谷","zip_code":"6330228"},{"name":"榛原桜が丘","zip_code":"6330252"},{"name":"榛原篠楽","zip_code":"6330242"},{"name":"榛原澤","zip_code":"6330226"},{"name":"榛原三宮寺","zip_code":"6330227"},{"name":"榛原自明","zip_code":"6330217"},{"name":"榛原下井足","zip_code":"6330241"},{"name":"榛原高井","zip_code":"6330212"},{"name":"榛原高塚","zip_code":"6330234"},{"name":"榛原高萩台","zip_code":"6330254"},{"name":"榛原角柄","zip_code":"6330255"},{"name":"榛原天満台西","zip_code":"6330206"},{"name":"榛原天満台東","zip_code":"6330205"},{"name":"榛原長峯","zip_code":"6330203"},{"name":"榛原荷阪","zip_code":"6330211"},{"name":"榛原額井","zip_code":"6330208"},{"name":"榛原萩乃里","zip_code":"6330221"},{"name":"榛原萩原","zip_code":"6330253"},{"name":"榛原榛見が丘","zip_code":"6330257"},{"name":"榛原ひのき坂","zip_code":"6330251"},{"name":"榛原檜牧","zip_code":"6330218"},{"name":"榛原比布","zip_code":"6330235"},{"name":"榛原福地","zip_code":"6330204"},{"name":"榛原福西","zip_code":"6330233"},{"name":"榛原母里","zip_code":"6330236"},{"name":"榛原諸木野","zip_code":"6330214"},{"name":"榛原安田","zip_code":"6330244"},{"name":"榛原八滝","zip_code":"6330216"},{"name":"榛原柳","zip_code":"6330246"},{"name":"榛原山路","zip_code":"6330224"},{"name":"榛原山辺三","zip_code":"6330202"},{"name":"室生","zip_code":"6330421"},{"name":"室生大野","zip_code":"6330315"},{"name":"室生小原","zip_code":"6320204"},{"name":"室生上笠間","zip_code":"6320202"},{"name":"室生黒岩","zip_code":"6330425"},{"name":"室生三本松","zip_code":"6330317"},{"name":"室生下笠間","zip_code":"6320201"},{"name":"室生下田口","zip_code":"6330422"},{"name":"室生染田","zip_code":"6320205"},{"name":"室生瀧谷","zip_code":"6330313"},{"name":"室生田口元上田口","zip_code":"6330424"},{"name":"室生田口元角川","zip_code":"6330423"},{"name":"室生多田","zip_code":"6320206"},{"name":"室生砥取","zip_code":"6330314"},{"name":"室生西谷","zip_code":"6330312"},{"name":"室生深野","zip_code":"6320203"},{"name":"室生向渕","zip_code":"6330316"},{"name":"室生無山","zip_code":"6320207"},{"name":"室生龍口","zip_code":"6330311"}]},{"name":"山辺郡山添村","divisions":[{"name":"岩屋","zip_code":"6302232"},{"name":"鵜山","zip_code":"6302355"},{"name":"大塩","zip_code":"6302212"},{"name":"大西","zip_code":"6302344"},{"name":"遅瀬","zip_code":"6302341"},{"name":"春日","zip_code":"6302343"},{"name":"片平","zip_code":"6302356"},{"name":"勝原","zip_code":"6302231"},{"name":"北野","zip_code":"6302211"},{"name":"切幡","zip_code":"6302234"},{"name":"桐山","zip_code":"6302205"},{"name":"葛尾","zip_code":"6302357"},{"name":"毛原","zip_code":"6302233"},{"name":"菅生","zip_code":"6302345"},{"name":"助命","zip_code":"6302224"},{"name":"中峰山","zip_code":"6302351"},{"name":"堂前","zip_code":"6302222"},{"name":"中之庄","zip_code":"6302352"},{"name":"西波多","zip_code":"6302346"},{"name":"広瀬","zip_code":"6302354"},{"name":"広代","zip_code":"6302342"},{"name":"伏拝","zip_code":"6302225"},{"name":"松尾","zip_code":"6302203"},{"name":"的野","zip_code":"6302202"},{"name":"三ケ谷","zip_code":"6302223"},{"name":"峰寺","zip_code":"6302201"},{"name":"箕輪","zip_code":"6302221"},{"name":"室津","zip_code":"6302204"},{"name":"吉田","zip_code":"6302353"}]},{"name":"生駒郡平群町","divisions":[{"name":"櫟原","zip_code":"6360944"},{"name":"春日丘","zip_code":"6360915"},{"name":"上庄","zip_code":"6360905"},{"name":"菊美台","zip_code":"6360906"},{"name":"北信貴ケ丘","zip_code":"6360913"},{"name":"久安寺","zip_code":"6360924"},{"name":"越木塚","zip_code":"6360925"},{"name":"信貴山","zip_code":"6360923"},{"name":"信貴畑","zip_code":"6360922"},{"name":"椣原","zip_code":"6360901"},{"name":"下垣内","zip_code":"6360933"},{"name":"白石畑","zip_code":"6360902"},{"name":"竜田川","zip_code":"6360912"},{"name":"椿井","zip_code":"6360911"},{"name":"椿台","zip_code":"6360943"},{"name":"梨本","zip_code":"6360931"},{"name":"鳴川","zip_code":"6360945"},{"name":"西宮","zip_code":"6360914"},{"name":"西向","zip_code":"6360942"},{"name":"初香台","zip_code":"6360934"},{"name":"光ケ丘","zip_code":"6360935"},{"name":"平等寺","zip_code":"6360903"},{"name":"福貴","zip_code":"6360936"},{"name":"福貴畑","zip_code":"6360937"},{"name":"椹原","zip_code":"6360921"},{"name":"三里","zip_code":"6360904"},{"name":"緑ケ丘","zip_code":"6360941"},{"name":"吉新","zip_code":"6360932"},{"name":"若井","zip_code":"6360916"},{"name":"若葉台","zip_code":"6360938"}]},{"name":"生駒郡三郷町","divisions":[{"name":"信貴ケ丘","zip_code":"6360813"},{"name":"信貴山東","zip_code":"6360831"},{"name":"信貴山西","zip_code":"6360832"},{"name":"信貴南畑","zip_code":"6360833"},{"name":"城山台","zip_code":"6360824"},{"name":"勢野","zip_code":"6360814"},{"name":"勢野北","zip_code":"6360815"},{"name":"勢野東","zip_code":"6360811"},{"name":"勢野西","zip_code":"6360812"},{"name":"立野","zip_code":"6360823"},{"name":"立野南","zip_code":"6360822"},{"name":"立野北","zip_code":"6360821"},{"name":"東信貴ケ丘","zip_code":"6360803"},{"name":"南畑","zip_code":"6360834"},{"name":"美松ケ丘東","zip_code":"6360805"},{"name":"美松ケ丘西","zip_code":"6360804"},{"name":"三室","zip_code":"6360802"},{"name":"夕陽ケ丘","zip_code":"6360801"}]},{"name":"生駒郡斑鳩町","divisions":[{"name":"阿波","zip_code":"6360122"},{"name":"五百井","zip_code":"6360124"},{"name":"稲葉西","zip_code":"6360144"},{"name":"稲葉車瀬","zip_code":"6360141"},{"name":"岡本","zip_code":"6360102"},{"name":"興留","zip_code":"6360123"},{"name":"興留東","zip_code":"6360121"},{"name":"幸前","zip_code":"6360103"},{"name":"小吉田","zip_code":"6360142"},{"name":"神南","zip_code":"6360143"},{"name":"高安","zip_code":"6360104"},{"name":"高安西","zip_code":"6360106"},{"name":"龍田","zip_code":"6360152"},{"name":"龍田西","zip_code":"6360154"},{"name":"龍田南","zip_code":"6360153"},{"name":"龍田北","zip_code":"6360151"},{"name":"東福寺","zip_code":"6360105"},{"name":"服部","zip_code":"6360131"},{"name":"法隆寺","zip_code":"6360116"},{"name":"法隆寺山内","zip_code":"6360115"},{"name":"法隆寺東","zip_code":"6360112"},{"name":"法隆寺西","zip_code":"6360114"},{"name":"法隆寺南","zip_code":"6360113"},{"name":"法隆寺北","zip_code":"6360111"},{"name":"三井","zip_code":"6360101"},{"name":"目安","zip_code":"6360132"},{"name":"目安北","zip_code":"6360133"}]},{"name":"生駒郡安堵町","divisions":[{"name":"岡崎","zip_code":"6391062"},{"name":"笠目","zip_code":"6391065"},{"name":"かしの木台","zip_code":"6391063"},{"name":"窪田","zip_code":"6391064"},{"name":"西安堵","zip_code":"6391066"},{"name":"東安堵","zip_code":"6391061"}]},{"name":"磯城郡川西町","divisions":[{"name":"梅戸","zip_code":"6360203"},{"name":"下永","zip_code":"6360201"},{"name":"唐院","zip_code":"6360204"},{"name":"吐田","zip_code":"6360206"},{"name":"保田","zip_code":"6360205"},{"name":"結崎","zip_code":"6360202"}]},{"name":"磯城郡三宅町","divisions":[{"name":"石見","zip_code":"6360212"},{"name":"小柳","zip_code":"6360216"},{"name":"上但馬","zip_code":"6360215"},{"name":"但馬","zip_code":"6360214"},{"name":"伴堂","zip_code":"6360213"},{"name":"屏風","zip_code":"6360217"},{"name":"三河","zip_code":"6360211"}]},{"name":"磯城郡田原本町","divisions":[{"name":"旭町","zip_code":"6360313"},{"name":"味間","zip_code":"6360245"},{"name":"味間町","zip_code":"6360329"},{"name":"市町","zip_code":"6360332"},{"name":"今里","zip_code":"6360224"},{"name":"伊与戸","zip_code":"6360243"},{"name":"魚町","zip_code":"6360331"},{"name":"戎通","zip_code":"6360314"},{"name":"多","zip_code":"6360345"},{"name":"大網","zip_code":"6360353"},{"name":"大木","zip_code":"6360242"},{"name":"鍵","zip_code":"6360223"},{"name":"郭内","zip_code":"6360322"},{"name":"笠形","zip_code":"6360244"},{"name":"金沢","zip_code":"6360232"},{"name":"唐古","zip_code":"6360226"},{"name":"祗園町","zip_code":"6360333"},{"name":"蔵堂","zip_code":"6360234"},{"name":"黒田","zip_code":"6360301"},{"name":"小阪","zip_code":"6360237"},{"name":"小室","zip_code":"6360339"},{"name":"金剛寺","zip_code":"6360352"},{"name":"材木町","zip_code":"6360328"},{"name":"幸町","zip_code":"6360315"},{"name":"堺町","zip_code":"6360327"},{"name":"阪手","zip_code":"6360247"},{"name":"佐味","zip_code":"6360355"},{"name":"十六面","zip_code":"6360304"},{"name":"新地","zip_code":"6360326"},{"name":"新町","zip_code":"6360312"},{"name":"為川南方","zip_code":"6360233"},{"name":"為川北方","zip_code":"6360231"},{"name":"大安寺","zip_code":"6360248"},{"name":"大門中","zip_code":"6360336"},{"name":"大門東","zip_code":"6360335"},{"name":"大門西","zip_code":"6360337"},{"name":"千代","zip_code":"6360246"},{"name":"茶町","zip_code":"6360338"},{"name":"殿町","zip_code":"6360317"},{"name":"富本","zip_code":"6360307"},{"name":"新木","zip_code":"6360347"},{"name":"西井上","zip_code":"6360236"},{"name":"西竹田","zip_code":"6360306"},{"name":"西代","zip_code":"6360225"},{"name":"根太口","zip_code":"6360323"},{"name":"秦庄","zip_code":"6360343"},{"name":"八田","zip_code":"6360221"},{"name":"東井上","zip_code":"6360235"},{"name":"平田","zip_code":"6360241"},{"name":"平野","zip_code":"6360305"},{"name":"法貴寺","zip_code":"6360222"},{"name":"保津","zip_code":"6360303"},{"name":"本町","zip_code":"6360334"},{"name":"松本","zip_code":"6360351"},{"name":"満田","zip_code":"6360354"},{"name":"三笠","zip_code":"6360342"},{"name":"南町","zip_code":"6360325"},{"name":"宮古","zip_code":"6360302"},{"name":"宮森","zip_code":"6360344"},{"name":"三輪町","zip_code":"6360324"},{"name":"室町","zip_code":"6360316"},{"name":"八尾","zip_code":"6360311"},{"name":"薬王寺","zip_code":"6360341"},{"name":"八幡町","zip_code":"6360321"},{"name":"矢部","zip_code":"6360346"}]},{"name":"宇陀郡曽爾村","divisions":[{"name":"伊賀見","zip_code":"6331201"},{"name":"今井","zip_code":"6331212"},{"name":"掛","zip_code":"6331215"},{"name":"葛","zip_code":"6331203"},{"name":"小長尾","zip_code":"6331213"},{"name":"塩井","zip_code":"6331211"},{"name":"太良路","zip_code":"6331202"},{"name":"長野","zip_code":"6331214"},{"name":"山粕","zip_code":"6331216"}]},{"name":"宇陀郡御杖村","divisions":[{"name":"神末","zip_code":"6331301"},{"name":"菅野","zip_code":"6331302"},{"name":"土屋原","zip_code":"6331303"},{"name":"桃俣","zip_code":"6331304"}]},{"name":"高市郡高取町","divisions":[{"name":"市尾","zip_code":"6350123"},{"name":"越智","zip_code":"6350144"},{"name":"上子島","zip_code":"6350104"},{"name":"上土佐","zip_code":"6350152"},{"name":"観覚寺","zip_code":"6350154"},{"name":"吉備","zip_code":"6350133"},{"name":"車木","zip_code":"6350143"},{"name":"佐田","zip_code":"6350131"},{"name":"薩摩","zip_code":"6350134"},{"name":"清水谷","zip_code":"6350103"},{"name":"下子島","zip_code":"6350151"},{"name":"下土佐","zip_code":"6350153"},{"name":"田井庄","zip_code":"6350135"},{"name":"高取","zip_code":"6350101"},{"name":"壺阪","zip_code":"6350102"},{"name":"寺崎","zip_code":"6350142"},{"name":"丹生谷","zip_code":"6350121"},{"name":"兵庫","zip_code":"6350136"},{"name":"藤井","zip_code":"6350112"},{"name":"羽内","zip_code":"6350113"},{"name":"松山","zip_code":"6350111"},{"name":"森","zip_code":"6350132"},{"name":"谷田","zip_code":"6350122"},{"name":"与楽","zip_code":"6350141"}]},{"name":"高市郡明日香村","divisions":[{"name":"飛鳥","zip_code":"6340103"},{"name":"阿部山","zip_code":"6340134"},{"name":"雷","zip_code":"6340108"},{"name":"稲渕","zip_code":"6340123"},{"name":"祝戸","zip_code":"6340121"},{"name":"尾曽","zip_code":"6340116"},{"name":"大根田","zip_code":"6340133"},{"name":"岡","zip_code":"6340111"},{"name":"奥山","zip_code":"6340102"},{"name":"小原","zip_code":"6340106"},{"name":"上","zip_code":"6340115"},{"name":"栢森","zip_code":"6340124"},{"name":"川原","zip_code":"6340141"},{"name":"栗原","zip_code":"6340132"},{"name":"越","zip_code":"6340138"},{"name":"小山","zip_code":"6340101"},{"name":"阪田","zip_code":"6340122"},{"name":"地ノ窪","zip_code":"6340136"},{"name":"島庄","zip_code":"6340112"},{"name":"上居","zip_code":"6340113"},{"name":"橘","zip_code":"6340142"},{"name":"立部","zip_code":"6340143"},{"name":"豊浦","zip_code":"6340107"},{"name":"入谷","zip_code":"6340125"},{"name":"野口","zip_code":"6340145"},{"name":"畑","zip_code":"6340118"},{"name":"東山","zip_code":"6340105"},{"name":"檜前","zip_code":"6340135"},{"name":"平田","zip_code":"6340144"},{"name":"冬野","zip_code":"6340117"},{"name":"細川","zip_code":"6340114"},{"name":"真弓","zip_code":"6340137"},{"name":"御園","zip_code":"6340131"},{"name":"八釣","zip_code":"6340104"}]},{"name":"北葛城郡上牧町","divisions":[{"name":"片岡台","zip_code":"6390201"},{"name":"葛城台","zip_code":"6390215"},{"name":"上牧","zip_code":"6390214"},{"name":"桜ケ丘","zip_code":"6390202"},{"name":"下牧","zip_code":"6390205"},{"name":"松里園","zip_code":"6390216"},{"name":"滝川台","zip_code":"6390211"},{"name":"友が丘","zip_code":"6390203"},{"name":"中筋出作","zip_code":"6390217"},{"name":"服部台","zip_code":"6390212"},{"name":"緑ケ丘","zip_code":"6390204"},{"name":"米山台","zip_code":"6390213"}]},{"name":"北葛城郡王寺町","divisions":[{"name":"王寺","zip_code":"6360002"},{"name":"葛下","zip_code":"6360011"},{"name":"久度","zip_code":"6360003"},{"name":"太子","zip_code":"6360023"},{"name":"畠田","zip_code":"6360021"},{"name":"藤井","zip_code":"6360014"},{"name":"舟戸","zip_code":"6360001"},{"name":"本町","zip_code":"6360012"},{"name":"南元町","zip_code":"6360015"},{"name":"明神","zip_code":"6360022"},{"name":"元町","zip_code":"6360013"}]},{"name":"北葛城郡広陵町","divisions":[{"name":"安部","zip_code":"6350825"},{"name":"馬見北","zip_code":"6350831"},{"name":"馬見中","zip_code":"6350832"},{"name":"馬見南","zip_code":"6350833"},{"name":"大塚","zip_code":"6350834"},{"name":"大野","zip_code":"6350803"},{"name":"大場","zip_code":"6350801"},{"name":"笠","zip_code":"6350821"},{"name":"萱野","zip_code":"6350805"},{"name":"百済","zip_code":"6350813"},{"name":"古寺","zip_code":"6350815"},{"name":"沢","zip_code":"6350804"},{"name":"寺戸","zip_code":"6350817"},{"name":"中","zip_code":"6350816"},{"name":"南郷","zip_code":"6350814"},{"name":"疋相","zip_code":"6350824"},{"name":"平尾","zip_code":"6350822"},{"name":"広瀬","zip_code":"6350812"},{"name":"弁財天","zip_code":"6350811"},{"name":"的場","zip_code":"6350802"},{"name":"みささぎ台","zip_code":"6350835"},{"name":"三吉","zip_code":"6350823"},{"name":"南","zip_code":"6350818"}]},{"name":"北葛城郡河合町","divisions":[{"name":"池部","zip_code":"6360053"},{"name":"泉台","zip_code":"6360091"},{"name":"彩りの杜","zip_code":"6360057"},{"name":"大輪田","zip_code":"6360093"},{"name":"川合","zip_code":"6360051"},{"name":"薬井","zip_code":"6360082"},{"name":"久美ケ丘","zip_code":"6360063"},{"name":"佐味田","zip_code":"6360062"},{"name":"城内","zip_code":"6360092"},{"name":"星和台","zip_code":"6360081"},{"name":"高塚台","zip_code":"6360071"},{"name":"長楽","zip_code":"6360052"},{"name":"中山台","zip_code":"6360072"},{"name":"穴闇","zip_code":"6360054"},{"name":"西穴闇","zip_code":"6360055"},{"name":"西山台","zip_code":"6360056"},{"name":"広瀬台","zip_code":"6360073"},{"name":"山坊","zip_code":"6360061"}]},{"name":"吉野郡吉野町","divisions":[{"name":"新子","zip_code":"6393433"},{"name":"飯貝","zip_code":"6393113"},{"name":"色生","zip_code":"6393323"},{"name":"樫尾","zip_code":"6393436"},{"name":"上市","zip_code":"6393111"},{"name":"河原屋","zip_code":"6393102"},{"name":"喜佐谷","zip_code":"6393442"},{"name":"国栖","zip_code":"6393434"},{"name":"窪垣内","zip_code":"6393432"},{"name":"香束","zip_code":"6393324"},{"name":"小名","zip_code":"6393322"},{"name":"佐々羅","zip_code":"6393107"},{"name":"左曽","zip_code":"6393117"},{"name":"入野","zip_code":"6393431"},{"name":"志賀","zip_code":"6393106"},{"name":"滝畑","zip_code":"6393106"},{"name":"立野","zip_code":"6393112"},{"name":"丹治","zip_code":"6393114"},{"name":"千股","zip_code":"6393105"},{"name":"津風呂","zip_code":"6393102"},{"name":"菜摘","zip_code":"6393446"},{"name":"楢井","zip_code":"6393445"},{"name":"西谷","zip_code":"6393108"},{"name":"橋屋","zip_code":"6393118"},{"name":"平尾","zip_code":"6393103"},{"name":"御園","zip_code":"6393444"},{"name":"三茶屋","zip_code":"6393321"},{"name":"三津","zip_code":"6393108"},{"name":"南大野","zip_code":"6393437"},{"name":"南国栖","zip_code":"6393435"},{"name":"峰寺","zip_code":"6393104"},{"name":"宮滝","zip_code":"6393443"},{"name":"六田","zip_code":"6393116"},{"name":"矢治","zip_code":"6393441"},{"name":"柳","zip_code":"6393325"},{"name":"山口","zip_code":"6393101"},{"name":"吉野山","zip_code":"6393115"}]},{"name":"吉野郡大淀町","divisions":[{"name":"芦原","zip_code":"6380801"},{"name":"今木","zip_code":"6380841"},{"name":"岩壺","zip_code":"6380851"},{"name":"大岩","zip_code":"6380842"},{"name":"北野","zip_code":"6393125"},{"name":"北六田","zip_code":"6393124"},{"name":"薬水","zip_code":"6380832"},{"name":"越部","zip_code":"6380803"},{"name":"佐名伝","zip_code":"6380831"},{"name":"下渕","zip_code":"6380821"},{"name":"土田","zip_code":"6380811"},{"name":"中増","zip_code":"6393122"},{"name":"西増","zip_code":"6393121"},{"name":"新野","zip_code":"6393126"},{"name":"馬佐","zip_code":"6393127"},{"name":"畑屋","zip_code":"6380802"},{"name":"桧垣本","zip_code":"6380812"},{"name":"比曽","zip_code":"6393128"},{"name":"福神","zip_code":"6380833"},{"name":"鉾立","zip_code":"6380843"},{"name":"増口","zip_code":"6393123"},{"name":"持尾","zip_code":"6380852"},{"name":"矢走","zip_code":"6380853"}]},{"name":"吉野郡下市町","divisions":[{"name":"新住","zip_code":"6380045"},{"name":"阿知賀","zip_code":"6380001"},{"name":"岩森","zip_code":"6380012"},{"name":"大峯","zip_code":"6380043"},{"name":"貝原","zip_code":"6380024"},{"name":"黒木","zip_code":"6380023"},{"name":"才谷","zip_code":"6380014"},{"name":"栄町","zip_code":"6380042"},{"name":"下市","zip_code":"6380041"},{"name":"小路","zip_code":"6380002"},{"name":"善城","zip_code":"6380003"},{"name":"立石","zip_code":"6380013"},{"name":"田中","zip_code":"6380044"},{"name":"谷","zip_code":"6380025"},{"name":"栃原","zip_code":"6380035"},{"name":"栃本","zip_code":"6380031"},{"name":"長谷","zip_code":"6380021"},{"name":"梨子堂","zip_code":"6380033"},{"name":"丹生","zip_code":"6380022"},{"name":"西山","zip_code":"6380026"},{"name":"原谷","zip_code":"6380032"},{"name":"広橋","zip_code":"6380015"},{"name":"平原","zip_code":"6380034"},{"name":"よ邑","zip_code":"6380011"}]},{"name":"吉野郡黒滝村","divisions":[{"name":"赤滝","zip_code":"6380211"},{"name":"粟飯谷","zip_code":"6380241"},{"name":"笠木","zip_code":"6380231"},{"name":"桂原","zip_code":"6380232"},{"name":"寺戸","zip_code":"6380251"},{"name":"堂原","zip_code":"6380243"},{"name":"鳥住","zip_code":"6380203"},{"name":"中戸","zip_code":"6380221"},{"name":"長瀬","zip_code":"6380233"},{"name":"槇尾","zip_code":"6380201"},{"name":"御吉野","zip_code":"6380242"},{"name":"脇川","zip_code":"6380202"}]},{"name":"吉野郡天川村","divisions":[{"name":"庵住","zip_code":"6380552"},{"name":"沖金","zip_code":"6380311"},{"name":"川合","zip_code":"6380301"},{"name":"北小原","zip_code":"6380313"},{"name":"北角","zip_code":"6380303"},{"name":"五色","zip_code":"6380314"},{"name":"籠山","zip_code":"6380551"},{"name":"沢谷","zip_code":"6380305"},{"name":"沢原","zip_code":"6380315"},{"name":"塩谷","zip_code":"6380564"},{"name":"塩野","zip_code":"6380563"},{"name":"滝尾","zip_code":"6380562"},{"name":"九尾","zip_code":"6380541"},{"name":"坪内","zip_code":"6380321"},{"name":"栃尾","zip_code":"6380542"},{"name":"洞川","zip_code":"6380431"},{"name":"中越","zip_code":"6380302"},{"name":"中谷","zip_code":"6380312"},{"name":"広瀬","zip_code":"6380561"},{"name":"南日裏","zip_code":"6380322"},{"name":"南角","zip_code":"6380304"},{"name":"山西","zip_code":"6380553"},{"name":"和田","zip_code":"6380543"}]},{"name":"吉野郡野迫川村","divisions":[{"name":"池津川","zip_code":"6480301"},{"name":"今井","zip_code":"6370421"},{"name":"上","zip_code":"6370425"},{"name":"北今西","zip_code":"6480307"},{"name":"北股","zip_code":"6480305"},{"name":"紫園","zip_code":"6480302"},{"name":"平","zip_code":"6480306"},{"name":"立里","zip_code":"6480304"},{"name":"中","zip_code":"6370424"},{"name":"中津川","zip_code":"6480303"},{"name":"桧股","zip_code":"6480308"},{"name":"平川","zip_code":"6370422"},{"name":"柞原","zip_code":"6370423"},{"name":"弓手原","zip_code":"6480309"}]},{"name":"吉野郡十津川村","divisions":[{"name":"旭","zip_code":"6371102"},{"name":"池穴","zip_code":"6371215"},{"name":"今西","zip_code":"6371664"},{"name":"五百瀬","zip_code":"6371224"},{"name":"上野地","zip_code":"6371103"},{"name":"宇宮原","zip_code":"6371107"},{"name":"内野","zip_code":"6371221"},{"name":"大野","zip_code":"6371331"},{"name":"小川","zip_code":"6371441"},{"name":"小原","zip_code":"6371333"},{"name":"折立","zip_code":"6371443"},{"name":"樫原","zip_code":"6371446"},{"name":"風屋","zip_code":"6371217"},{"name":"上葛川","zip_code":"6471584"},{"name":"上湯川","zip_code":"6371559"},{"name":"川津","zip_code":"6371216"},{"name":"桑畑","zip_code":"6371556"},{"name":"小井","zip_code":"6371336"},{"name":"神下","zip_code":"6471581"},{"name":"小坪瀬","zip_code":"6371667"},{"name":"込之上","zip_code":"6371445"},{"name":"小森","zip_code":"6371334"},{"name":"小山手","zip_code":"6371666"},{"name":"猿飼","zip_code":"6371555"},{"name":"重里","zip_code":"6371661"},{"name":"杉清","zip_code":"6371225"},{"name":"迫西川","zip_code":"6371668"},{"name":"高滝","zip_code":"6371442"},{"name":"滝川","zip_code":"6371211"},{"name":"竹筒","zip_code":"6471271"},{"name":"高津","zip_code":"6371104"},{"name":"谷垣内","zip_code":"6371552"},{"name":"谷瀬","zip_code":"6371106"},{"name":"玉置川","zip_code":"6471582"},{"name":"玉垣内","zip_code":"6371663"},{"name":"出谷","zip_code":"6371558"},{"name":"内原","zip_code":"6371212"},{"name":"永井","zip_code":"6371662"},{"name":"長殿","zip_code":"6371108"},{"name":"那知合","zip_code":"6371551"},{"name":"七色","zip_code":"6371557"},{"name":"西中","zip_code":"6371665"},{"name":"沼田原","zip_code":"6371101"},{"name":"野尻","zip_code":"6371213"},{"name":"林","zip_code":"6371105"},{"name":"東中","zip_code":"6471583"},{"name":"平谷","zip_code":"6371554"},{"name":"三浦","zip_code":"6371223"},{"name":"武蔵","zip_code":"6371332"},{"name":"山崎","zip_code":"6371214"},{"name":"山手","zip_code":"6371553"},{"name":"山手谷","zip_code":"6371444"},{"name":"山天","zip_code":"6371222"},{"name":"湯之原","zip_code":"6371335"}]},{"name":"吉野郡下北山村","divisions":[{"name":"池峰","zip_code":"6393804"},{"name":"浦向","zip_code":"6393802"},{"name":"上池原","zip_code":"6393805"},{"name":"上桑原","zip_code":"6393808"},{"name":"佐田","zip_code":"6393801"},{"name":"下池原","zip_code":"6393806"},{"name":"下桑原","zip_code":"6393807"},{"name":"前鬼","zip_code":"6393809"},{"name":"寺垣内","zip_code":"6393803"}]},{"name":"吉野郡上北山村","divisions":[{"name":"河合","zip_code":"6393701"},{"name":"小橡","zip_code":"6393702"},{"name":"白川","zip_code":"6393703"},{"name":"西原","zip_code":"6393704"},{"name":"東ノ川","zip_code":"6393705"}]},{"name":"吉野郡川上村","divisions":[{"name":"井光","zip_code":"6393623"},{"name":"井戸","zip_code":"6393622"},{"name":"東川","zip_code":"6393541"},{"name":"大迫","zip_code":"6393612"},{"name":"大滝","zip_code":"6393543"},{"name":"伯母谷","zip_code":"6393613"},{"name":"柏木","zip_code":"6393601"},{"name":"北塩谷","zip_code":"6393552"},{"name":"北和田","zip_code":"6393603"},{"name":"上多古","zip_code":"6393602"},{"name":"上谷","zip_code":"6393604"},{"name":"神之谷","zip_code":"6393635"},{"name":"迫","zip_code":"6393553"},{"name":"入之波","zip_code":"6393611"},{"name":"下多古","zip_code":"6393621"},{"name":"白川渡","zip_code":"6393631"},{"name":"白屋","zip_code":"6393555"},{"name":"瀬戸","zip_code":"6393634"},{"name":"枌尾","zip_code":"6393632"},{"name":"高原","zip_code":"6393554"},{"name":"高原土場","zip_code":"6393556"},{"name":"武木","zip_code":"6393622"},{"name":"寺尾","zip_code":"6393551"},{"name":"中奥","zip_code":"6393633"},{"name":"西河","zip_code":"6393542"},{"name":"人知","zip_code":"6393557"}]},{"name":"吉野郡東吉野村","divisions":[{"name":"伊豆尾","zip_code":"6332312"},{"name":"大又","zip_code":"6332444"},{"name":"小川","zip_code":"6332421"},{"name":"小","zip_code":"6332431"},{"name":"小栗栖","zip_code":"6332423"},{"name":"木津","zip_code":"6332311"},{"name":"木津川","zip_code":"6332432"},{"name":"杉谷","zip_code":"6332304"},{"name":"狭戸","zip_code":"6332441"},{"name":"滝野","zip_code":"6332301"},{"name":"谷尻","zip_code":"6332302"},{"name":"中黒","zip_code":"6332424"},{"name":"萩原","zip_code":"6332314"},{"name":"日裏","zip_code":"6332313"},{"name":"平野","zip_code":"6332303"},{"name":"大豆生","zip_code":"6332442"},{"name":"三尾","zip_code":"6332433"},{"name":"麦谷","zip_code":"6332443"},{"name":"鷲家","zip_code":"6332422"}]}]}