{"name":"和歌山県","cities":[{"name":"和歌山市","divisions":[{"name":"葵町","zip_code":"6408273"},{"name":"秋月","zip_code":"6408322"},{"name":"秋葉町","zip_code":"6410056"},{"name":"朝日","zip_code":"6400344"},{"name":"芦辺丁","zip_code":"6408134"},{"name":"小豆島","zip_code":"6496336"},{"name":"網屋町","zip_code":"6408238"},{"name":"有家","zip_code":"6408316"},{"name":"有田屋町","zip_code":"6408248"},{"name":"有田屋町西ノ丁","zip_code":"6408246"},{"name":"有田屋町南ノ丁","zip_code":"6408245"},{"name":"有本","zip_code":"6408390"},{"name":"新内","zip_code":"6408351"},{"name":"粟","zip_code":"6408462"},{"name":"石橋丁","zip_code":"6408201"},{"name":"磯の浦","zip_code":"6400114"},{"name":"板屋町","zip_code":"6408044"},{"name":"伊太祈曽","zip_code":"6400361"},{"name":"市小路","zip_code":"6408464"},{"name":"一番丁","zip_code":"6408146"},{"name":"五筋目","zip_code":"6408076"},{"name":"井戸","zip_code":"6400352"},{"name":"井ノ口","zip_code":"6496323"},{"name":"今福","zip_code":"6410044"},{"name":"岩橋","zip_code":"6408301"},{"name":"井辺","zip_code":"6408302"},{"name":"上野","zip_code":"6496316"},{"name":"上野町","zip_code":"6408242"},{"name":"植松丁","zip_code":"6408298"},{"name":"宇治鉄砲場","zip_code":"6408078"},{"name":"宇治袋町","zip_code":"6408039"},{"name":"宇治家裏","zip_code":"6408072"},{"name":"宇治薮下","zip_code":"6408071"},{"name":"宇須","zip_code":"6410043"},{"name":"宇田森","zip_code":"6496332"},{"name":"打越町","zip_code":"6410053"},{"name":"内原","zip_code":"6410013"},{"name":"梅原","zip_code":"6408452"},{"name":"上町","zip_code":"6408239"},{"name":"餌差町","zip_code":"6408335"},{"name":"江南","zip_code":"6400343"},{"name":"榎原","zip_code":"6408434"},{"name":"大川","zip_code":"6400101"},{"name":"大河内","zip_code":"6400316"},{"name":"大垣内","zip_code":"6496272"},{"name":"大谷","zip_code":"6408472"},{"name":"太田","zip_code":"6408323"},{"name":"岡円福院東ノ丁","zip_code":"6408361"},{"name":"岡円福院西ノ丁","zip_code":"6408364"},{"name":"岡織屋小路","zip_code":"6408362"},{"name":"岡北ノ丁","zip_code":"6408365"},{"name":"岡南ノ丁","zip_code":"6408363"},{"name":"岡山丁","zip_code":"6408145"},{"name":"奥須佐","zip_code":"6400362"},{"name":"小倉","zip_code":"6496261"},{"name":"尾崎丁","zip_code":"6408271"},{"name":"落合","zip_code":"6496308"},{"name":"男野芝丁","zip_code":"6408230"},{"name":"小野町","zip_code":"6408224"},{"name":"雄松町","zip_code":"6408124"},{"name":"嘉家作丁","zip_code":"6408073"},{"name":"駕町","zip_code":"6408293"},{"name":"片岡町","zip_code":"6408139"},{"name":"加太","zip_code":"6400103"},{"name":"徒町","zip_code":"6408243"},{"name":"金谷","zip_code":"6496274"},{"name":"加納","zip_code":"6408391"},{"name":"加納町","zip_code":"6408288"},{"name":"上黒谷","zip_code":"6496306"},{"name":"上三毛","zip_code":"6496262"},{"name":"川辺","zip_code":"6496312"},{"name":"梶取","zip_code":"6408411"},{"name":"北","zip_code":"6496334"},{"name":"北相生丁","zip_code":"6408253"},{"name":"北牛町","zip_code":"6408299"},{"name":"北桶屋町","zip_code":"6408020"},{"name":"北休賀町","zip_code":"6408103"},{"name":"北釘貫丁","zip_code":"6408062"},{"name":"北細工町","zip_code":"6408118"},{"name":"北坂ノ上丁","zip_code":"6408233"},{"name":"北新","zip_code":"6408002"},{"name":"北新戎ノ丁","zip_code":"6408017"},{"name":"北新桶屋町","zip_code":"6408015"},{"name":"北新金屋丁","zip_code":"6408012"},{"name":"北新七軒丁","zip_code":"6408001"},{"name":"北新中ノ丁","zip_code":"6408016"},{"name":"北新博労町","zip_code":"6408003"},{"name":"北新元金屋丁","zip_code":"6408011"},{"name":"北島","zip_code":"6408403"},{"name":"北甚五兵衛丁","zip_code":"6408291"},{"name":"北田辺丁","zip_code":"6408252"},{"name":"北大工町","zip_code":"6408031"},{"name":"北中間町","zip_code":"6408294"},{"name":"北出島","zip_code":"6408317"},{"name":"北土佐丁","zip_code":"6408296"},{"name":"北中島","zip_code":"6410008"},{"name":"北野","zip_code":"6496331"},{"name":"北ノ新地","zip_code":"6408355"},{"name":"北ノ新地裏田町","zip_code":"6408352"},{"name":"北ノ新地榎丁","zip_code":"6408353"},{"name":"北ノ新地上六軒丁","zip_code":"6408356"},{"name":"北ノ新地中六軒丁","zip_code":"6408357"},{"name":"北ノ新地下六軒丁","zip_code":"6408358"},{"name":"北ノ新地田町","zip_code":"6408359"},{"name":"北ノ新地東ノ丁","zip_code":"6408354"},{"name":"北ノ新地分銅丁","zip_code":"6408350"},{"name":"北別所","zip_code":"6496307"},{"name":"北町","zip_code":"6408038"},{"name":"北汀丁","zip_code":"6408231"},{"name":"狐島","zip_code":"6408412"},{"name":"木ノ本","zip_code":"6408453"},{"name":"木広町","zip_code":"6408328"},{"name":"紀三井寺","zip_code":"6410012"},{"name":"久右衛門丁","zip_code":"6408244"},{"name":"九番丁","zip_code":"6408155"},{"name":"吉礼","zip_code":"6400351"},{"name":"金龍寺丁","zip_code":"6408274"},{"name":"杭ノ瀬","zip_code":"6410001"},{"name":"九家ノ丁","zip_code":"6408055"},{"name":"楠右衛門小路","zip_code":"6408332"},{"name":"楠見中","zip_code":"6408463"},{"name":"楠本","zip_code":"6496313"},{"name":"口須佐","zip_code":"6400364"},{"name":"久保丁","zip_code":"6408225"},{"name":"蔵小路","zip_code":"6408333"},{"name":"栗栖","zip_code":"6408305"},{"name":"黒岩","zip_code":"6400311"},{"name":"黒田","zip_code":"6408341"},{"name":"黒谷","zip_code":"6400312"},{"name":"桑山","zip_code":"6400345"},{"name":"毛革屋丁","zip_code":"6408337"},{"name":"毛見","zip_code":"6410014"},{"name":"下町","zip_code":"6408220"},{"name":"源蔵馬場","zip_code":"6408075"},{"name":"神前","zip_code":"6408314"},{"name":"神波","zip_code":"6496315"},{"name":"小雑賀","zip_code":"6410007"},{"name":"小瀬田","zip_code":"6400323"},{"name":"五番丁","zip_code":"6408141"},{"name":"木挽丁","zip_code":"6408373"},{"name":"小人町","zip_code":"6408226"},{"name":"小人町南ノ丁","zip_code":"6408228"},{"name":"木枕","zip_code":"6400301"},{"name":"小松原","zip_code":"6408265"},{"name":"小松原通","zip_code":"6408269"},{"name":"米屋町","zip_code":"6408027"},{"name":"古屋","zip_code":"6408435"},{"name":"雑賀崎","zip_code":"6410062"},{"name":"雑賀町","zip_code":"6408108"},{"name":"雑賀道","zip_code":"6408121"},{"name":"雑賀屋町","zip_code":"6408249"},{"name":"雑賀屋町東ノ丁","zip_code":"6408241"},{"name":"材木丁","zip_code":"6408237"},{"name":"境原","zip_code":"6400313"},{"name":"栄谷","zip_code":"6408441"},{"name":"坂田","zip_code":"6410003"},{"name":"鷺ノ森","zip_code":"6408053"},{"name":"鷺ノ森片町","zip_code":"6408054"},{"name":"鷺ノ森新道","zip_code":"6408057"},{"name":"鷺ノ森堂前丁","zip_code":"6408052"},{"name":"鷺ノ森中ノ丁","zip_code":"6408058"},{"name":"鷺ノ森東ノ丁","zip_code":"6408051"},{"name":"鷺ノ森西ノ丁","zip_code":"6408056"},{"name":"鷺ノ森南ノ丁","zip_code":"6408047"},{"name":"鷺ノ森明神丁","zip_code":"6408059"},{"name":"作事丁","zip_code":"6408276"},{"name":"里","zip_code":"6496311"},{"name":"山東中","zip_code":"6400303"},{"name":"三番丁","zip_code":"6408142"},{"name":"塩ノ谷","zip_code":"6400306"},{"name":"汐見町","zip_code":"6408122"},{"name":"塩屋","zip_code":"6410054"},{"name":"七番丁","zip_code":"6408156"},{"name":"芝ノ丁","zip_code":"6408267"},{"name":"島","zip_code":"6496314"},{"name":"島崎町","zip_code":"6408125"},{"name":"島橋東ノ丁","zip_code":"6408413"},{"name":"島橋西ノ丁","zip_code":"6408414"},{"name":"島橋南ノ丁","zip_code":"6408415"},{"name":"島橋北ノ丁","zip_code":"6408416"},{"name":"下三毛","zip_code":"6496263"},{"name":"下和佐","zip_code":"6496325"},{"name":"新魚町","zip_code":"6408074"},{"name":"新雑賀町","zip_code":"6408101"},{"name":"新堺丁","zip_code":"6408377"},{"name":"新在家","zip_code":"6408345"},{"name":"新庄","zip_code":"6496264"},{"name":"新生町","zip_code":"6408325"},{"name":"新大工町","zip_code":"6408372"},{"name":"新通","zip_code":"6408111"},{"name":"新中島","zip_code":"6410002"},{"name":"新中通","zip_code":"6408376"},{"name":"新堀東","zip_code":"6410042"},{"name":"新八百屋丁","zip_code":"6408371"},{"name":"新和歌浦","zip_code":"6410023"},{"name":"十番丁","zip_code":"6408152"},{"name":"十一番丁","zip_code":"6408159"},{"name":"十二番丁","zip_code":"6408158"},{"name":"十三番丁","zip_code":"6408150"},{"name":"次郎丸","zip_code":"6408444"},{"name":"数寄屋丁","zip_code":"6408374"},{"name":"杉ノ馬場","zip_code":"6408212"},{"name":"鈴丸丁","zip_code":"6408378"},{"name":"頭陀寺","zip_code":"6400314"},{"name":"砂山南","zip_code":"6408272"},{"name":"住吉町","zip_code":"6408022"},{"name":"駿河町","zip_code":"6408034"},{"name":"関戸","zip_code":"6410035"},{"name":"専光寺門前丁","zip_code":"6408041"},{"name":"船場町","zip_code":"6408114"},{"name":"善明寺","zip_code":"6408471"},{"name":"相坂","zip_code":"6400341"},{"name":"園部","zip_code":"6408483"},{"name":"鷹匠町","zip_code":"6408135"},{"name":"滝畑","zip_code":"6496301"},{"name":"匠町","zip_code":"6408028"},{"name":"田尻","zip_code":"6410005"},{"name":"畳屋町","zip_code":"6408061"},{"name":"田中町","zip_code":"6408329"},{"name":"谷","zip_code":"6496305"},{"name":"谷町","zip_code":"6408133"},{"name":"田野","zip_code":"6410061"},{"name":"田屋","zip_code":"6496337"},{"name":"築港","zip_code":"6408287"},{"name":"茶屋ノ丁","zip_code":"6408263"},{"name":"茶屋町","zip_code":"6408334"},{"name":"つつじが丘","zip_code":"6400115"},{"name":"津秦","zip_code":"6408315"},{"name":"手平","zip_code":"6408319"},{"name":"手平出島","zip_code":"6408320"},{"name":"寺内","zip_code":"6408311"},{"name":"出口甲賀丁","zip_code":"6408282"},{"name":"出口新端ノ丁","zip_code":"6408285"},{"name":"出口中ノ丁","zip_code":"6408283"},{"name":"出口端ノ丁","zip_code":"6408284"},{"name":"出島","zip_code":"6408306"},{"name":"出水","zip_code":"6408321"},{"name":"伝法橋南ノ丁","zip_code":"6408204"},{"name":"道場町","zip_code":"6408229"},{"name":"土入","zip_code":"6408432"},{"name":"徳田木丁","zip_code":"6408206"},{"name":"土佐町","zip_code":"6408256"},{"name":"友田町","zip_code":"6408342"},{"name":"中","zip_code":"6408451"},{"name":"中島","zip_code":"6410006"},{"name":"中筋日延","zip_code":"6496304"},{"name":"中野","zip_code":"6408433"},{"name":"中之島","zip_code":"6408392"},{"name":"中ノ店中ノ丁","zip_code":"6408025"},{"name":"中ノ店南ノ丁","zip_code":"6408026"},{"name":"中ノ店北ノ丁","zip_code":"6408023"},{"name":"永山","zip_code":"6400302"},{"name":"七曲り","zip_code":"6408236"},{"name":"鍋屋町","zip_code":"6408009"},{"name":"鳴神","zip_code":"6408303"},{"name":"永穂","zip_code":"6496333"},{"name":"新高町","zip_code":"6410034"},{"name":"仁井辺","zip_code":"6400322"},{"name":"西","zip_code":"6408313"},{"name":"西鍛冶屋町","zip_code":"6408046"},{"name":"西河岸町","zip_code":"6408297"},{"name":"西釘貫丁","zip_code":"6408063"},{"name":"西蔵前丁","zip_code":"6408205"},{"name":"西小二里","zip_code":"6410031"},{"name":"西紺屋町","zip_code":"6408116"},{"name":"西坂ノ上丁","zip_code":"6408234"},{"name":"西田井","zip_code":"6496335"},{"name":"西高松","zip_code":"6410051"},{"name":"西大工町","zip_code":"6408037"},{"name":"西仲間町","zip_code":"6408014"},{"name":"西長町","zip_code":"6408290"},{"name":"西布経丁","zip_code":"6408211"},{"name":"西庄","zip_code":"6400112"},{"name":"西ノ店","zip_code":"6408042"},{"name":"西旅籠町","zip_code":"6408021"},{"name":"西浜","zip_code":"6410036"},{"name":"西汀丁","zip_code":"6408227"},{"name":"二番丁","zip_code":"6408143"},{"name":"新留丁","zip_code":"6408326"},{"name":"布引","zip_code":"6410015"},{"name":"祢宜","zip_code":"6496324"},{"name":"直川","zip_code":"6408481"},{"name":"納定","zip_code":"6408344"},{"name":"野崎","zip_code":"6408402"},{"name":"延時","zip_code":"6408443"},{"name":"橋丁","zip_code":"6408215"},{"name":"橋向丁","zip_code":"6408327"},{"name":"畑屋敷榎丁","zip_code":"6408382"},{"name":"畑屋敷円福院東ノ丁","zip_code":"6408383"},{"name":"畑屋敷円福院西ノ丁","zip_code":"6408385"},{"name":"畑屋敷雁木丁","zip_code":"6408386"},{"name":"畑屋敷葛屋丁","zip_code":"6408384"},{"name":"畑屋敷新道丁","zip_code":"6408397"},{"name":"畑屋敷千体仏丁","zip_code":"6408394"},{"name":"畑屋敷中ノ丁","zip_code":"6408395"},{"name":"畑屋敷端ノ丁","zip_code":"6408393"},{"name":"畑屋敷東ノ丁","zip_code":"6408381"},{"name":"畑屋敷西ノ丁","zip_code":"6408396"},{"name":"畑屋敷兵庫ノ丁","zip_code":"6408399"},{"name":"畑屋敷袋町","zip_code":"6408387"},{"name":"畑屋敷松ケ枝丁","zip_code":"6408398"},{"name":"八番丁","zip_code":"6408157"},{"name":"馬場","zip_code":"6400353"},{"name":"吐前","zip_code":"6496275"},{"name":"東鍛冶屋町","zip_code":"6408036"},{"name":"東釘貫丁","zip_code":"6408064"},{"name":"東蔵前丁","zip_code":"6408203"},{"name":"東小二里町","zip_code":"6410032"},{"name":"東紺屋町","zip_code":"6408115"},{"name":"東坂ノ上丁","zip_code":"6408247"},{"name":"東高松","zip_code":"6410052"},{"name":"東田中","zip_code":"6496273"},{"name":"東仲間町","zip_code":"6408013"},{"name":"東長町","zip_code":"6408235"},{"name":"東長町中ノ丁","zip_code":"6408266"},{"name":"東布経丁","zip_code":"6408066"},{"name":"東旅籠町","zip_code":"6408004"},{"name":"一筋目","zip_code":"6408067"},{"name":"日野","zip_code":"6400111"},{"name":"屏風丁","zip_code":"6408202"},{"name":"平井","zip_code":"6408442"},{"name":"平尾","zip_code":"6400304"},{"name":"平岡","zip_code":"6496303"},{"name":"広瀬通丁","zip_code":"6408113"},{"name":"広瀬中ノ丁","zip_code":"6408128"},{"name":"広原","zip_code":"6400333"},{"name":"広道","zip_code":"6408268"},{"name":"弘西","zip_code":"6496339"},{"name":"吹上","zip_code":"6408137"},{"name":"吹屋町","zip_code":"6408324"},{"name":"福島","zip_code":"6408401"},{"name":"福町","zip_code":"6408043"},{"name":"藤田","zip_code":"6496318"},{"name":"二筋目","zip_code":"6408068"},{"name":"府中","zip_code":"6496338"},{"name":"舟大工町","zip_code":"6408213"},{"name":"舟津町","zip_code":"6408255"},{"name":"船所","zip_code":"6408461"},{"name":"冬野","zip_code":"6400332"},{"name":"弁財天丁","zip_code":"6408131"},{"name":"坊主丁","zip_code":"6408375"},{"name":"卜半町","zip_code":"6408045"},{"name":"布施屋","zip_code":"6496321"},{"name":"堀止南ノ丁","zip_code":"6410041"},{"name":"堀止東","zip_code":"6408136"},{"name":"堀止西","zip_code":"6410045"},{"name":"本町","zip_code":"6408033"},{"name":"真砂丁","zip_code":"6408261"},{"name":"松江","zip_code":"6408421"},{"name":"松江中","zip_code":"6408423"},{"name":"松江東","zip_code":"6408422"},{"name":"松江西","zip_code":"6408424"},{"name":"松江北","zip_code":"6408425"},{"name":"松ケ丘","zip_code":"6410033"},{"name":"松島","zip_code":"6408304"},{"name":"松原","zip_code":"6400342"},{"name":"三葛","zip_code":"6410011"},{"name":"三木町台所町","zip_code":"6408153"},{"name":"三木町中ノ丁","zip_code":"6408106"},{"name":"三木町堀詰","zip_code":"6408107"},{"name":"三木町南ノ丁","zip_code":"6408105"},{"name":"三沢町","zip_code":"6408123"},{"name":"三筋目","zip_code":"6408069"},{"name":"美園町","zip_code":"6408331"},{"name":"満屋","zip_code":"6496271"},{"name":"湊","zip_code":"6408404"},{"name":"湊桶屋町","zip_code":"6408264"},{"name":"湊北町","zip_code":"6408223"},{"name":"湊紺屋町","zip_code":"6408221"},{"name":"湊御殿","zip_code":"6408286"},{"name":"湊通丁南","zip_code":"6408281"},{"name":"湊通丁北","zip_code":"6408262"},{"name":"湊本町","zip_code":"6408222"},{"name":"南相生丁","zip_code":"6408275"},{"name":"南牛町","zip_code":"6408295"},{"name":"南桶屋町","zip_code":"6408029"},{"name":"南片原","zip_code":"6408126"},{"name":"南休賀町","zip_code":"6408104"},{"name":"南雑賀町","zip_code":"6408102"},{"name":"南細工町","zip_code":"6408117"},{"name":"南材木丁","zip_code":"6408112"},{"name":"南甚五兵衛丁","zip_code":"6408292"},{"name":"南田辺丁","zip_code":"6408254"},{"name":"南大工町","zip_code":"6408032"},{"name":"南中間町","zip_code":"6408251"},{"name":"南出島","zip_code":"6408318"},{"name":"南畑","zip_code":"6400315"},{"name":"南汀丁","zip_code":"6408232"},{"name":"深山","zip_code":"6400102"},{"name":"明王寺","zip_code":"6400305"},{"name":"向","zip_code":"6408431"},{"name":"六筋目","zip_code":"6408077"},{"name":"六十谷","zip_code":"6408482"},{"name":"元寺町","zip_code":"6408024"},{"name":"元寺町東ノ丁","zip_code":"6408006"},{"name":"元寺町西ノ丁","zip_code":"6408007"},{"name":"元寺町南ノ丁","zip_code":"6408005"},{"name":"元寺町北ノ丁","zip_code":"6408008"},{"name":"元博労町","zip_code":"6408216"},{"name":"元町奉行丁","zip_code":"6408127"},{"name":"本脇","zip_code":"6400113"},{"name":"本渡","zip_code":"6400324"},{"name":"森小手穂","zip_code":"6408312"},{"name":"屋形町","zip_code":"6408151"},{"name":"薬勝寺","zip_code":"6400321"},{"name":"矢田","zip_code":"6400307"},{"name":"柳丁","zip_code":"6408336"},{"name":"薮ノ丁","zip_code":"6408138"},{"name":"山蔭丁","zip_code":"6408132"},{"name":"山口西","zip_code":"6496317"},{"name":"山吹丁","zip_code":"6408065"},{"name":"湯屋谷","zip_code":"6496302"},{"name":"吉里","zip_code":"6400363"},{"name":"吉田","zip_code":"6408343"},{"name":"吉原","zip_code":"6400331"},{"name":"四筋目","zip_code":"6408060"},{"name":"寄合町","zip_code":"6408214"},{"name":"万町","zip_code":"6408035"},{"name":"四番丁","zip_code":"6408144"},{"name":"六番丁","zip_code":"6408154"},{"name":"和歌浦中","zip_code":"6410025"},{"name":"和歌浦東","zip_code":"6410021"},{"name":"和歌浦西","zip_code":"6410024"},{"name":"和歌浦南","zip_code":"6410022"},{"name":"和歌川町","zip_code":"6410055"},{"name":"和歌町","zip_code":"6408119"},{"name":"和佐関戸","zip_code":"6496322"},{"name":"和佐中","zip_code":"6496326"},{"name":"和田","zip_code":"6410004"}]},{"name":"海南市","divisions":[{"name":"赤沼","zip_code":"6401163"},{"name":"且来","zip_code":"6420015"},{"name":"井田","zip_code":"6420021"},{"name":"海老谷","zip_code":"6401164"},{"name":"多田","zip_code":"6420013"},{"name":"大野中","zip_code":"6420022"},{"name":"岡田","zip_code":"6420012"},{"name":"沖野々","zip_code":"6401175"},{"name":"小野田","zip_code":"6420014"},{"name":"上谷","zip_code":"6401162"},{"name":"木津","zip_code":"6401174"},{"name":"北赤坂","zip_code":"6420016"},{"name":"九品寺","zip_code":"6401167"},{"name":"扱沢","zip_code":"6420027"},{"name":"黒江","zip_code":"6420011"},{"name":"阪井","zip_code":"6420024"},{"name":"重根","zip_code":"6420023"},{"name":"冷水","zip_code":"6420035"},{"name":"下津町青枝","zip_code":"6490147"},{"name":"下津町市坪","zip_code":"6490145"},{"name":"下津町梅田","zip_code":"6490132"},{"name":"下津町大窪","zip_code":"6490155"},{"name":"下津町大崎","zip_code":"6490112"},{"name":"下津町興","zip_code":"6490153"},{"name":"下津町小原","zip_code":"6490162"},{"name":"下津町笠畑","zip_code":"6490154"},{"name":"下津町方","zip_code":"6490111"},{"name":"下津町上","zip_code":"6490164"},{"name":"下津町鰈川","zip_code":"6490163"},{"name":"下津町橘本","zip_code":"6490144"},{"name":"下津町沓掛","zip_code":"6490146"},{"name":"下津町黒田","zip_code":"6490122"},{"name":"下津町小畑","zip_code":"6490161"},{"name":"下津町小松原","zip_code":"6490143"},{"name":"下津町小南","zip_code":"6490141"},{"name":"下津町塩津","zip_code":"6490131"},{"name":"下津町下","zip_code":"6490133"},{"name":"下津町下津","zip_code":"6490101"},{"name":"下津町曽根田","zip_code":"6490151"},{"name":"下津町中","zip_code":"6490142"},{"name":"下津町引尾","zip_code":"6490152"},{"name":"下津町丸田","zip_code":"6490121"},{"name":"下津町百垣内","zip_code":"6490156"},{"name":"下津町丁","zip_code":"6490123"},{"name":"下津野","zip_code":"6400443"},{"name":"高津","zip_code":"6400451"},{"name":"築地","zip_code":"6420031"},{"name":"次ケ谷","zip_code":"6401166"},{"name":"鳥居","zip_code":"6420033"},{"name":"名高","zip_code":"6420032"},{"name":"七山","zip_code":"6400441"},{"name":"野上新","zip_code":"6401161"},{"name":"野上中","zip_code":"6401171"},{"name":"野尻","zip_code":"6400453"},{"name":"幡川","zip_code":"6420028"},{"name":"馬場町","zip_code":"6420004"},{"name":"原野","zip_code":"6400442"},{"name":"日方","zip_code":"6420002"},{"name":"東畑","zip_code":"6420025"},{"name":"ひや水","zip_code":"6401165"},{"name":"藤白","zip_code":"6420034"},{"name":"船尾","zip_code":"6420001"},{"name":"別院","zip_code":"6400454"},{"name":"別所","zip_code":"6420026"},{"name":"溝ノ口","zip_code":"6401172"},{"name":"南赤坂","zip_code":"6420017"},{"name":"椋木","zip_code":"6401173"},{"name":"孟子","zip_code":"6400452"},{"name":"山崎町","zip_code":"6420003"},{"name":"山田","zip_code":"6420029"}]},{"name":"橋本市","divisions":[{"name":"赤塚","zip_code":"6480022"},{"name":"あやの台","zip_code":"6480019"},{"name":"市脇","zip_code":"6480073"},{"name":"上田","zip_code":"6480024"},{"name":"小原田","zip_code":"6480071"},{"name":"小峰台","zip_code":"6480005"},{"name":"柿の木坂","zip_code":"6480097"},{"name":"賢堂","zip_code":"6480037"},{"name":"柏原","zip_code":"6480084"},{"name":"学文路","zip_code":"6480043"},{"name":"岸上","zip_code":"6480085"},{"name":"北馬場","zip_code":"6480061"},{"name":"北宿","zip_code":"6480033"},{"name":"紀ノ光台","zip_code":"6480007"},{"name":"紀見","zip_code":"6480052"},{"name":"紀見ケ丘","zip_code":"6480092"},{"name":"慶賀野","zip_code":"6480093"},{"name":"恋野","zip_code":"6480021"},{"name":"高野口町応其","zip_code":"6497201"},{"name":"高野口町大野","zip_code":"6497207"},{"name":"高野口町小田","zip_code":"6497204"},{"name":"高野口町上中","zip_code":"6497212"},{"name":"高野口町九重","zip_code":"6497215"},{"name":"高野口町嵯峨谷","zip_code":"6497213"},{"name":"高野口町下中","zip_code":"6497211"},{"name":"高野口町竹尾","zip_code":"6497214"},{"name":"高野口町田原","zip_code":"6497216"},{"name":"高野口町名倉","zip_code":"6497205"},{"name":"高野口町名古曽","zip_code":"6497203"},{"name":"高野口町伏原","zip_code":"6497202"},{"name":"高野口町向島","zip_code":"6497206"},{"name":"光陽台","zip_code":"6480099"},{"name":"古佐田","zip_code":"6480065"},{"name":"神野々","zip_code":"6480086"},{"name":"胡麻生","zip_code":"6480066"},{"name":"境原","zip_code":"6480006"},{"name":"さつき台","zip_code":"6480075"},{"name":"清水","zip_code":"6480041"},{"name":"菖蒲谷","zip_code":"6480082"},{"name":"しらさぎ台","zip_code":"6480053"},{"name":"城山台","zip_code":"6480054"},{"name":"杉尾","zip_code":"6480001"},{"name":"須河","zip_code":"6480038"},{"name":"隅田町芋生","zip_code":"6480012"},{"name":"隅田町上兵庫","zip_code":"6480014"},{"name":"隅田町下兵庫","zip_code":"6480016"},{"name":"隅田町河瀬","zip_code":"6480015"},{"name":"隅田町霜草","zip_code":"6480004"},{"name":"隅田町垂井","zip_code":"6480018"},{"name":"隅田町中下","zip_code":"6480013"},{"name":"隅田町中島","zip_code":"6480017"},{"name":"隅田町平野","zip_code":"6480002"},{"name":"隅田町真土","zip_code":"6480011"},{"name":"隅田町山内","zip_code":"6480003"},{"name":"只野","zip_code":"6480031"},{"name":"谷奥深","zip_code":"6480032"},{"name":"妻","zip_code":"6480062"},{"name":"出塔","zip_code":"6480083"},{"name":"東家","zip_code":"6480072"},{"name":"中道","zip_code":"6480023"},{"name":"西畑","zip_code":"6480042"},{"name":"野","zip_code":"6480074"},{"name":"橋谷","zip_code":"6480095"},{"name":"橋本","zip_code":"6480064"},{"name":"柱本","zip_code":"6480091"},{"name":"原田","zip_code":"6480063"},{"name":"彦谷","zip_code":"6480035"},{"name":"細川","zip_code":"6480051"},{"name":"三石台","zip_code":"6480094"},{"name":"南馬場","zip_code":"6480044"},{"name":"南宿","zip_code":"6480034"},{"name":"みゆき台","zip_code":"6480088"},{"name":"御幸辻","zip_code":"6480096"},{"name":"向副","zip_code":"6480025"},{"name":"矢倉脇","zip_code":"6480098"},{"name":"山田","zip_code":"6480081"},{"name":"横座","zip_code":"6480036"},{"name":"吉原","zip_code":"6480087"}]},{"name":"有田市","divisions":[{"name":"糸我町中番","zip_code":"6490421"},{"name":"糸我町西","zip_code":"6490422"},{"name":"古江見","zip_code":"6490317"},{"name":"下中島","zip_code":"6490301"},{"name":"新堂","zip_code":"6490303"},{"name":"千田","zip_code":"6490313"},{"name":"辻堂","zip_code":"6490311"},{"name":"野","zip_code":"6490314"},{"name":"初島町里","zip_code":"6490307"},{"name":"初島町浜","zip_code":"6490306"},{"name":"星尾","zip_code":"6490312"},{"name":"港町","zip_code":"6490305"},{"name":"箕島","zip_code":"6490304"},{"name":"宮崎町","zip_code":"6490316"},{"name":"宮原町新町","zip_code":"6490434"},{"name":"宮原町須谷","zip_code":"6490433"},{"name":"宮原町滝","zip_code":"6490437"},{"name":"宮原町滝川原","zip_code":"6490435"},{"name":"宮原町道","zip_code":"6490436"},{"name":"宮原町畑","zip_code":"6490431"},{"name":"宮原町東","zip_code":"6490432"},{"name":"山田原","zip_code":"6490302"},{"name":"山地","zip_code":"6490315"}]},{"name":"御坊市","divisions":[{"name":"荊木","zip_code":"6440015"},{"name":"熊野","zip_code":"6440033"},{"name":"岩内","zip_code":"6440032"},{"name":"御坊","zip_code":"6440001"},{"name":"塩屋町南塩屋","zip_code":"6440024"},{"name":"塩屋町北塩屋","zip_code":"6440025"},{"name":"島","zip_code":"6440003"},{"name":"薗","zip_code":"6440002"},{"name":"名田町上野","zip_code":"6440022"},{"name":"名田町楠井","zip_code":"6440021"},{"name":"名田町野島","zip_code":"6440023"},{"name":"名屋","zip_code":"6440004"},{"name":"名屋町","zip_code":"6440005"},{"name":"野口","zip_code":"6440031"},{"name":"藤田町藤井","zip_code":"6491341"},{"name":"藤田町吉田","zip_code":"6491342"},{"name":"明神川","zip_code":"6440034"},{"name":"湯川町小松原","zip_code":"6440012"},{"name":"湯川町財部","zip_code":"6440011"},{"name":"湯川町富安","zip_code":"6440014"},{"name":"湯川町丸山","zip_code":"6440013"}]},{"name":"田辺市","divisions":[{"name":"秋津川","zip_code":"6460102"},{"name":"秋津町","zip_code":"6460005"},{"name":"あけぼの","zip_code":"6460021"},{"name":"朝日ヶ丘","zip_code":"6460027"},{"name":"鮎川","zip_code":"6461101"},{"name":"磯間","zip_code":"6460037"},{"name":"稲成町","zip_code":"6460051"},{"name":"今福町","zip_code":"6460043"},{"name":"熊野","zip_code":"6461321"},{"name":"上野","zip_code":"6460212"},{"name":"上の山","zip_code":"6460061"},{"name":"江川","zip_code":"6460054"},{"name":"扇ケ浜","zip_code":"6460034"},{"name":"学園","zip_code":"6460024"},{"name":"神島台","zip_code":"6460012"},{"name":"片町","zip_code":"6460045"},{"name":"上秋津","zip_code":"6460001"},{"name":"上芳養","zip_code":"6460101"},{"name":"上万呂","zip_code":"6460002"},{"name":"上三栖","zip_code":"6460214"},{"name":"上屋敷","zip_code":"6460036"},{"name":"北新町","zip_code":"6460041"},{"name":"九川","zip_code":"6461334"},{"name":"串","zip_code":"6461335"},{"name":"合川","zip_code":"6461338"},{"name":"小谷","zip_code":"6461325"},{"name":"五味","zip_code":"6461332"},{"name":"木守","zip_code":"6461331"},{"name":"紺屋町","zip_code":"6460047"},{"name":"栄町","zip_code":"6460048"},{"name":"下川上","zip_code":"6461212"},{"name":"下川下","zip_code":"6461213"},{"name":"下露","zip_code":"6461337"},{"name":"下万呂","zip_code":"6460004"},{"name":"下三栖","zip_code":"6460216"},{"name":"下屋敷町","zip_code":"6460032"},{"name":"城山台","zip_code":"6460217"},{"name":"新庄町","zip_code":"6460011"},{"name":"新万","zip_code":"6460014"},{"name":"新屋敷町","zip_code":"6460033"},{"name":"末広町","zip_code":"6460038"},{"name":"高雄","zip_code":"6460028"},{"name":"たきない町","zip_code":"6460015"},{"name":"竹ノ平","zip_code":"6461324"},{"name":"谷野口","zip_code":"6461336"},{"name":"天神崎","zip_code":"6460050"},{"name":"東陽","zip_code":"6460029"},{"name":"長瀬","zip_code":"6461339"},{"name":"中芳養","zip_code":"6460057"},{"name":"中辺路町石船","zip_code":"6461412"},{"name":"中辺路町内井川","zip_code":"6461439"},{"name":"中辺路町大内川","zip_code":"6461411"},{"name":"中辺路町大川","zip_code":"6461433"},{"name":"中辺路町川合","zip_code":"6461417"},{"name":"中辺路町熊野川","zip_code":"6461436"},{"name":"中辺路町栗栖川","zip_code":"6461421"},{"name":"中辺路町小皆","zip_code":"6461435"},{"name":"中辺路町小松原","zip_code":"6461431"},{"name":"中辺路町沢","zip_code":"6461437"},{"name":"中辺路町高原","zip_code":"6461416"},{"name":"中辺路町近露","zip_code":"6461402"},{"name":"中辺路町西谷","zip_code":"6461414"},{"name":"中辺路町温川","zip_code":"6461434"},{"name":"中辺路町野中","zip_code":"6461401"},{"name":"中辺路町福定","zip_code":"6461432"},{"name":"中辺路町北郡","zip_code":"6461413"},{"name":"中辺路町真砂","zip_code":"6461415"},{"name":"中辺路町水上","zip_code":"6461438"},{"name":"中万呂","zip_code":"6460003"},{"name":"中三栖","zip_code":"6460215"},{"name":"中屋敷町","zip_code":"6460035"},{"name":"長野","zip_code":"6460213"},{"name":"芳養町","zip_code":"6460056"},{"name":"芳養松原","zip_code":"6460063"},{"name":"東伏菟野","zip_code":"6461333"},{"name":"東山","zip_code":"6460022"},{"name":"平瀬","zip_code":"6461214"},{"name":"深谷","zip_code":"6461326"},{"name":"福路町","zip_code":"6460044"},{"name":"伏菟野","zip_code":"6460211"},{"name":"古尾","zip_code":"6460059"},{"name":"宝来町","zip_code":"6460026"},{"name":"本宮町一本松","zip_code":"6471742"},{"name":"本宮町請川","zip_code":"6471703"},{"name":"本宮町大居","zip_code":"6471741"},{"name":"本宮町大瀬","zip_code":"6471725"},{"name":"本宮町大津荷","zip_code":"6471702"},{"name":"本宮町上大野","zip_code":"6471716"},{"name":"本宮町上切原","zip_code":"6471751"},{"name":"本宮町川湯","zip_code":"6471717"},{"name":"本宮町切畑","zip_code":"6471752"},{"name":"本宮町久保野","zip_code":"6471736"},{"name":"本宮町小々森","zip_code":"6471722"},{"name":"本宮町小津荷","zip_code":"6471701"},{"name":"本宮町静川","zip_code":"6471714"},{"name":"本宮町下湯川","zip_code":"6471734"},{"name":"本宮町高山","zip_code":"6471705"},{"name":"本宮町田代","zip_code":"6471712"},{"name":"本宮町土河屋","zip_code":"6471753"},{"name":"本宮町野竹","zip_code":"6471724"},{"name":"本宮町東和田","zip_code":"6471715"},{"name":"本宮町檜葉","zip_code":"6471721"},{"name":"本宮町伏拝","zip_code":"6471743"},{"name":"本宮町武住","zip_code":"6471726"},{"name":"本宮町本宮","zip_code":"6471731"},{"name":"本宮町曲川","zip_code":"6471735"},{"name":"本宮町三越","zip_code":"6471744"},{"name":"本宮町皆瀬川","zip_code":"6471711"},{"name":"本宮町皆地","zip_code":"6471723"},{"name":"本宮町簑尾谷","zip_code":"6471713"},{"name":"本宮町耳打","zip_code":"6471704"},{"name":"本宮町湯峰","zip_code":"6471732"},{"name":"本宮町渡瀬","zip_code":"6471733"},{"name":"本町","zip_code":"6460046"},{"name":"神子浜","zip_code":"6460025"},{"name":"湊","zip_code":"6460031"},{"name":"南新町","zip_code":"6460042"},{"name":"南新万","zip_code":"6460013"},{"name":"向山","zip_code":"6461323"},{"name":"むつみ","zip_code":"6460052"},{"name":"明洋","zip_code":"6460062"},{"name":"目良","zip_code":"6460058"},{"name":"面川","zip_code":"6461322"},{"name":"元町","zip_code":"6460053"},{"name":"文里","zip_code":"6460023"},{"name":"龍神村小家","zip_code":"6450303"},{"name":"龍神村甲斐ノ川","zip_code":"6450302"},{"name":"龍神村小又川","zip_code":"6450521"},{"name":"龍神村殿原","zip_code":"6450413"},{"name":"龍神村西","zip_code":"6450415"},{"name":"龍神村丹生ノ川","zip_code":"6450412"},{"name":"龍神村東","zip_code":"6450414"},{"name":"龍神村広井原","zip_code":"6450523"},{"name":"龍神村福井","zip_code":"6450301"},{"name":"龍神村三ツ又","zip_code":"6450522"},{"name":"龍神村宮代","zip_code":"6450411"},{"name":"龍神村安井","zip_code":"6450416"},{"name":"龍神村柳瀬","zip_code":"6450417"},{"name":"龍神村湯ノ又","zip_code":"6450524"},{"name":"龍神村龍神","zip_code":"6450525"},{"name":"和田","zip_code":"6461211"}]},{"name":"新宮市","divisions":[{"name":"相筋","zip_code":"6470001"},{"name":"あけぼの","zip_code":"6470025"},{"name":"阿須賀","zip_code":"6470022"},{"name":"池田","zip_code":"6470021"},{"name":"伊佐田町","zip_code":"6470012"},{"name":"井の沢","zip_code":"6470045"},{"name":"磐盾","zip_code":"6470051"},{"name":"浮島","zip_code":"6470014"},{"name":"馬町","zip_code":"6470008"},{"name":"相賀","zip_code":"6471102"},{"name":"王子町","zip_code":"6470032"},{"name":"大橋通","zip_code":"6470004"},{"name":"春日","zip_code":"6470013"},{"name":"神倉","zip_code":"6470044"},{"name":"上本町","zip_code":"6470003"},{"name":"木ノ川","zip_code":"6470073"},{"name":"熊野川町相須","zip_code":"6471216"},{"name":"熊野川町赤木","zip_code":"6471214"},{"name":"熊野川町畝畑","zip_code":"6471207"},{"name":"熊野川町大山","zip_code":"6471203"},{"name":"熊野川町鎌塚","zip_code":"6471204"},{"name":"熊野川町上長井","zip_code":"6471201"},{"name":"熊野川町九重","zip_code":"6471233"},{"name":"熊野川町篠尾","zip_code":"6471223"},{"name":"熊野川町四滝","zip_code":"6471234"},{"name":"熊野川町嶋津","zip_code":"6471232"},{"name":"熊野川町滝本","zip_code":"6471205"},{"name":"熊野川町田長","zip_code":"6471212"},{"name":"熊野川町玉置口","zip_code":"6471231"},{"name":"熊野川町西","zip_code":"6471206"},{"name":"熊野川町西敷屋","zip_code":"6471221"},{"name":"熊野川町能城山本","zip_code":"6471213"},{"name":"熊野川町東","zip_code":"6471202"},{"name":"熊野川町東敷屋","zip_code":"6471222"},{"name":"熊野川町日足","zip_code":"6471211"},{"name":"熊野川町宮井","zip_code":"6471235"},{"name":"熊野川町椋井","zip_code":"6471215"},{"name":"熊野地","zip_code":"6470024"},{"name":"五新","zip_code":"6470053"},{"name":"佐野","zip_code":"6470071"},{"name":"清水元","zip_code":"6470033"},{"name":"下田","zip_code":"6470042"},{"name":"下本町","zip_code":"6470011"},{"name":"徐福","zip_code":"6470020"},{"name":"新宮","zip_code":"6470081"},{"name":"新町","zip_code":"6470019"},{"name":"高田","zip_code":"6471101"},{"name":"田鶴原町","zip_code":"6470031"},{"name":"谷王子町","zip_code":"6470016"},{"name":"千穂","zip_code":"6470015"},{"name":"仲之町","zip_code":"6470018"},{"name":"野田","zip_code":"6470041"},{"name":"橋本","zip_code":"6470052"},{"name":"蜂伏","zip_code":"6470072"},{"name":"船町","zip_code":"6470002"},{"name":"別当屋敷町","zip_code":"6470007"},{"name":"蓬莱","zip_code":"6470023"},{"name":"丸山","zip_code":"6470034"},{"name":"緑ケ丘","zip_code":"6470043"},{"name":"南檜杖","zip_code":"6470054"},{"name":"三輪崎","zip_code":"6470061"},{"name":"元鍛治町","zip_code":"6470005"},{"name":"薬師町","zip_code":"6470006"},{"name":"横町","zip_code":"6470017"}]},{"name":"紀の川市","divisions":[{"name":"赤尾","zip_code":"6496404"},{"name":"赤沼田","zip_code":"6496614"},{"name":"穴伏","zip_code":"6496611"},{"name":"荒見","zip_code":"6496561"},{"name":"池田新","zip_code":"6496407"},{"name":"井田","zip_code":"6496541"},{"name":"猪垣","zip_code":"6496511"},{"name":"上野","zip_code":"6496416"},{"name":"打田","zip_code":"6496414"},{"name":"馬宿","zip_code":"6496521"},{"name":"江川中","zip_code":"6496605"},{"name":"王子","zip_code":"6496624"},{"name":"麻生津中","zip_code":"6496615"},{"name":"尾崎","zip_code":"6496423"},{"name":"遠方","zip_code":"6496562"},{"name":"風市","zip_code":"6496563"},{"name":"勝神","zip_code":"6496564"},{"name":"上鞆渕","zip_code":"6496571"},{"name":"上丹生谷","zip_code":"6496522"},{"name":"貴志川町尼寺","zip_code":"6400403"},{"name":"貴志川町井ノ口","zip_code":"6400424"},{"name":"貴志川町上野山","zip_code":"6400412"},{"name":"貴志川町岸小野","zip_code":"6400422"},{"name":"貴志川町岸宮","zip_code":"6400405"},{"name":"貴志川町北","zip_code":"6400421"},{"name":"貴志川町北山","zip_code":"6400402"},{"name":"貴志川町国主","zip_code":"6400414"},{"name":"貴志川町神戸","zip_code":"6400413"},{"name":"貴志川町高尾","zip_code":"6400423"},{"name":"貴志川町鳥居","zip_code":"6400404"},{"name":"貴志川町長原","zip_code":"6400415"},{"name":"貴志川町長山","zip_code":"6400416"},{"name":"貴志川町西山","zip_code":"6400406"},{"name":"貴志川町前田","zip_code":"6400411"},{"name":"貴志川町丸栖","zip_code":"6400401"},{"name":"北大井","zip_code":"6496406"},{"name":"北志野","zip_code":"6496501"},{"name":"北勢田","zip_code":"6496402"},{"name":"北中","zip_code":"6496443"},{"name":"北長田","zip_code":"6496502"},{"name":"北涌","zip_code":"6496612"},{"name":"切畑","zip_code":"6496606"},{"name":"窪","zip_code":"6496415"},{"name":"久留壁","zip_code":"6496418"},{"name":"黒土","zip_code":"6496412"},{"name":"花野","zip_code":"6496422"},{"name":"上田井","zip_code":"6496551"},{"name":"粉河","zip_code":"6496531"},{"name":"重行","zip_code":"6496401"},{"name":"嶋","zip_code":"6496552"},{"name":"下井阪","zip_code":"6496426"},{"name":"下鞆渕","zip_code":"6496572"},{"name":"下丹生谷","zip_code":"6496523"},{"name":"後田","zip_code":"6496622"},{"name":"神通","zip_code":"6496451"},{"name":"神領","zip_code":"6496442"},{"name":"杉原","zip_code":"6496565"},{"name":"高野","zip_code":"6496161"},{"name":"竹房","zip_code":"6496413"},{"name":"田中馬場","zip_code":"6496421"},{"name":"東毛","zip_code":"6496512"},{"name":"豊田","zip_code":"6496445"},{"name":"中井阪","zip_code":"6496425"},{"name":"長田中","zip_code":"6496503"},{"name":"中津川","zip_code":"6496513"},{"name":"中鞆渕","zip_code":"6496573"},{"name":"中畑","zip_code":"6496452"},{"name":"中三谷","zip_code":"6496434"},{"name":"中山","zip_code":"6496532"},{"name":"名手市場","zip_code":"6496631"},{"name":"名手上","zip_code":"6496601"},{"name":"名手下","zip_code":"6496603"},{"name":"名手西野","zip_code":"6496621"},{"name":"西井阪","zip_code":"6496427"},{"name":"西大井","zip_code":"6496417"},{"name":"西川原","zip_code":"6496524"},{"name":"西野山","zip_code":"6496604"},{"name":"西三谷","zip_code":"6496433"},{"name":"西山田","zip_code":"6496447"},{"name":"西脇","zip_code":"6496616"},{"name":"野上","zip_code":"6496525"},{"name":"登尾","zip_code":"6496444"},{"name":"畑野上","zip_code":"6496424"},{"name":"東大井","zip_code":"6496405"},{"name":"東川原","zip_code":"6496526"},{"name":"東国分","zip_code":"6496428"},{"name":"東野","zip_code":"6496542"},{"name":"東三谷","zip_code":"6496435"},{"name":"東山田","zip_code":"6496441"},{"name":"平野","zip_code":"6496602"},{"name":"広野","zip_code":"6496411"},{"name":"枇杷谷","zip_code":"6496446"},{"name":"深田","zip_code":"6496553"},{"name":"藤井","zip_code":"6496514"},{"name":"藤崎","zip_code":"6496623"},{"name":"古和田","zip_code":"6496432"},{"name":"別所","zip_code":"6496554"},{"name":"松井","zip_code":"6496555"},{"name":"南志野","zip_code":"6496504"},{"name":"南勢田","zip_code":"6496403"},{"name":"南中","zip_code":"6496431"},{"name":"桃山町市場","zip_code":"6496124"},{"name":"桃山町大原","zip_code":"6496105"},{"name":"桃山町垣内","zip_code":"6401333"},{"name":"桃山町黒川","zip_code":"6496102"},{"name":"桃山町神田","zip_code":"6496123"},{"name":"桃山町善田","zip_code":"6496101"},{"name":"桃山町段","zip_code":"6496125"},{"name":"桃山町段新田","zip_code":"6496121"},{"name":"桃山町調月","zip_code":"6496112"},{"name":"桃山町中畑","zip_code":"6401332"},{"name":"桃山町野田原","zip_code":"6496103"},{"name":"桃山町峯","zip_code":"6401331"},{"name":"桃山町最上","zip_code":"6496111"},{"name":"桃山町元","zip_code":"6496122"},{"name":"桃山町脇谷","zip_code":"6496104"},{"name":"横谷","zip_code":"6496613"}]},{"name":"岩出市","divisions":[{"name":"相谷","zip_code":"6496257"},{"name":"赤垣内","zip_code":"6496242"},{"name":"尼ケ辻","zip_code":"6496207"},{"name":"安上","zip_code":"6496252"},{"name":"荊本","zip_code":"6496232"},{"name":"今中","zip_code":"6496204"},{"name":"今畑","zip_code":"6496208"},{"name":"大町","zip_code":"6496228"},{"name":"岡田","zip_code":"6496222"},{"name":"押川","zip_code":"6496201"},{"name":"金池","zip_code":"6496256"},{"name":"金屋","zip_code":"6496243"},{"name":"川尻","zip_code":"6496231"},{"name":"紀泉台","zip_code":"6496253"},{"name":"北大池","zip_code":"6496219"},{"name":"境谷","zip_code":"6496251"},{"name":"桜台","zip_code":"6496203"},{"name":"清水","zip_code":"6496227"},{"name":"新田広芝","zip_code":"6496212"},{"name":"曽屋","zip_code":"6496236"},{"name":"高瀬","zip_code":"6496234"},{"name":"高塚","zip_code":"6496223"},{"name":"中黒","zip_code":"6496248"},{"name":"中島","zip_code":"6496245"},{"name":"中迫","zip_code":"6496215"},{"name":"西安上","zip_code":"6496255"},{"name":"西国分","zip_code":"6496213"},{"name":"西野","zip_code":"6496235"},{"name":"根来","zip_code":"6496202"},{"name":"野上野","zip_code":"6496216"},{"name":"畑毛","zip_code":"6496244"},{"name":"波分","zip_code":"6496241"},{"name":"原","zip_code":"6496254"},{"name":"東坂本","zip_code":"6496211"},{"name":"備前","zip_code":"6496233"},{"name":"船戸","zip_code":"6496225"},{"name":"堀口","zip_code":"6496206"},{"name":"水栖","zip_code":"6496214"},{"name":"溝川","zip_code":"6496221"},{"name":"南大池","zip_code":"6496218"},{"name":"宮","zip_code":"6496226"},{"name":"森","zip_code":"6496205"},{"name":"山","zip_code":"6496258"},{"name":"山崎","zip_code":"6496224"},{"name":"山田","zip_code":"6496217"},{"name":"湯窪","zip_code":"6496248"},{"name":"吉田","zip_code":"6496246"}]},{"name":"海草郡紀美野町","divisions":[{"name":"赤木","zip_code":"6401213"},{"name":"上ケ井","zip_code":"6401231"},{"name":"井堰","zip_code":"6401207"},{"name":"今西","zip_code":"6401365"},{"name":"初生谷","zip_code":"6401202"},{"name":"梅本","zip_code":"6401113"},{"name":"円明寺","zip_code":"6401353"},{"name":"大角","zip_code":"6401222"},{"name":"奥佐々","zip_code":"6401115"},{"name":"勝谷","zip_code":"6401351"},{"name":"桂瀬","zip_code":"6401211"},{"name":"釜滝","zip_code":"6401255"},{"name":"鎌滝","zip_code":"6401215"},{"name":"北野","zip_code":"6401201"},{"name":"国木原","zip_code":"6401251"},{"name":"毛原上","zip_code":"6401472"},{"name":"毛原下","zip_code":"6401476"},{"name":"毛原中","zip_code":"6401474"},{"name":"毛原宮","zip_code":"6401473"},{"name":"神野市場","zip_code":"6401243"},{"name":"小西","zip_code":"6401475"},{"name":"坂本","zip_code":"6401112"},{"name":"柴目","zip_code":"6401102"},{"name":"下佐々","zip_code":"6401121"},{"name":"小畑","zip_code":"6401141"},{"name":"菅沢","zip_code":"6401364"},{"name":"田","zip_code":"6401363"},{"name":"高畑","zip_code":"6401212"},{"name":"滝ノ川","zip_code":"6401362"},{"name":"谷","zip_code":"6401352"},{"name":"津川","zip_code":"6401223"},{"name":"動木","zip_code":"6401131"},{"name":"中","zip_code":"6401361"},{"name":"中田","zip_code":"6401114"},{"name":"長谷","zip_code":"6401101"},{"name":"永谷","zip_code":"6401241"},{"name":"西野","zip_code":"6401252"},{"name":"野中","zip_code":"6401235"},{"name":"長谷宮","zip_code":"6401471"},{"name":"花野原","zip_code":"6401203"},{"name":"東野","zip_code":"6401253"},{"name":"樋下","zip_code":"6401242"},{"name":"福井","zip_code":"6401111"},{"name":"福田","zip_code":"6401244"},{"name":"真国宮","zip_code":"6401205"},{"name":"松ケ峰","zip_code":"6401366"},{"name":"松瀬","zip_code":"6401254"},{"name":"三尾川","zip_code":"6401221"},{"name":"南畑","zip_code":"6401233"},{"name":"蓑垣内","zip_code":"6401206"},{"name":"蓑津呂","zip_code":"6401204"},{"name":"明添","zip_code":"6401214"},{"name":"箕六","zip_code":"6401232"},{"name":"安井","zip_code":"6401234"},{"name":"四郷","zip_code":"6401354"},{"name":"吉野","zip_code":"6401103"}]},{"name":"伊都郡かつらぎ町","divisions":[{"name":"兄井","zip_code":"6497137"},{"name":"移","zip_code":"6497167"},{"name":"蛭子","zip_code":"6497172"},{"name":"大谷","zip_code":"6497173"},{"name":"大畑","zip_code":"6497111"},{"name":"大薮","zip_code":"6497171"},{"name":"柏木","zip_code":"6497123"},{"name":"笠田中","zip_code":"6497162"},{"name":"笠田東","zip_code":"6497161"},{"name":"上天野","zip_code":"6497141"},{"name":"教良寺","zip_code":"6497132"},{"name":"窪","zip_code":"6497164"},{"name":"神田","zip_code":"6497143"},{"name":"御所","zip_code":"6497153"},{"name":"佐野","zip_code":"6497174"},{"name":"志賀","zip_code":"6497144"},{"name":"島","zip_code":"6497155"},{"name":"下天野","zip_code":"6497142"},{"name":"新城","zip_code":"6401481"},{"name":"新田","zip_code":"6497122"},{"name":"背ノ山","zip_code":"6497165"},{"name":"平","zip_code":"6497104"},{"name":"高田","zip_code":"6497166"},{"name":"滝","zip_code":"6497102"},{"name":"丁ノ町","zip_code":"6497121"},{"name":"寺尾","zip_code":"6497136"},{"name":"中飯降","zip_code":"6497112"},{"name":"西飯降","zip_code":"6497114"},{"name":"西渋田","zip_code":"6497154"},{"name":"萩原","zip_code":"6497163"},{"name":"花園新子","zip_code":"6430614"},{"name":"花園池ノ窪","zip_code":"6430613"},{"name":"花園北寺","zip_code":"6430612"},{"name":"花園久木","zip_code":"6480201"},{"name":"花園中南","zip_code":"6480202"},{"name":"花園梁瀬","zip_code":"6430611"},{"name":"東渋田","zip_code":"6497151"},{"name":"東谷","zip_code":"6497101"},{"name":"日高","zip_code":"6497145"},{"name":"平沼田","zip_code":"6497135"},{"name":"広浦","zip_code":"6497175"},{"name":"広口","zip_code":"6497103"},{"name":"星川","zip_code":"6497152"},{"name":"星山","zip_code":"6497146"},{"name":"短野","zip_code":"6497115"},{"name":"三谷","zip_code":"6497133"},{"name":"宮本","zip_code":"6497134"},{"name":"妙寺","zip_code":"6497113"},{"name":"山崎","zip_code":"6497131"}]},{"name":"伊都郡九度山町","divisions":[{"name":"市平","zip_code":"6480131"},{"name":"笠木","zip_code":"6480142"},{"name":"河根","zip_code":"6480111"},{"name":"上古沢","zip_code":"6480143"},{"name":"北又","zip_code":"6480132"},{"name":"九度山","zip_code":"6480101"},{"name":"椎出","zip_code":"6480141"},{"name":"慈尊院","zip_code":"6480151"},{"name":"下古沢","zip_code":"6480145"},{"name":"中古沢","zip_code":"6480144"},{"name":"丹生川","zip_code":"6480121"},{"name":"入郷","zip_code":"6480161"},{"name":"東郷","zip_code":"6480133"}]},{"name":"伊都郡高野町","divisions":[{"name":"相ノ浦","zip_code":"6480241"},{"name":"大滝","zip_code":"6480231"},{"name":"樫原","zip_code":"6480227"},{"name":"上筒香","zip_code":"6480403"},{"name":"高野山","zip_code":"6480211"},{"name":"下筒香","zip_code":"6480405"},{"name":"杖ケ薮","zip_code":"6480225"},{"name":"中筒香","zip_code":"6480404"},{"name":"西ケ峰","zip_code":"6480221"},{"name":"西郷","zip_code":"6480261"},{"name":"西富貴","zip_code":"6480401"},{"name":"花坂","zip_code":"6480263"},{"name":"林","zip_code":"6480223"},{"name":"東富貴","zip_code":"6480402"},{"name":"東又","zip_code":"6480226"},{"name":"平原","zip_code":"6480224"},{"name":"細川","zip_code":"6480262"},{"name":"南","zip_code":"6480222"},{"name":"湯川","zip_code":"6480251"}]},{"name":"有田郡湯浅町","divisions":[{"name":"青木","zip_code":"6430002"},{"name":"栖原","zip_code":"6430005"},{"name":"田","zip_code":"6430006"},{"name":"別所","zip_code":"6430003"},{"name":"山田","zip_code":"6430001"},{"name":"湯浅","zip_code":"6430004"},{"name":"吉川","zip_code":"6430007"}]},{"name":"有田郡広川町","divisions":[{"name":"井関","zip_code":"6430055"},{"name":"上津木","zip_code":"6430052"},{"name":"上中野","zip_code":"6430064"},{"name":"唐尾","zip_code":"6430073"},{"name":"河瀬","zip_code":"6430053"},{"name":"下津木","zip_code":"6430051"},{"name":"殿","zip_code":"6430062"},{"name":"名島","zip_code":"6430066"},{"name":"西広","zip_code":"6430074"},{"name":"東中","zip_code":"6430065"},{"name":"広","zip_code":"6430071"},{"name":"前田","zip_code":"6430054"},{"name":"南金屋","zip_code":"6430063"},{"name":"柳瀬","zip_code":"6430061"},{"name":"山本","zip_code":"6430072"},{"name":"和田","zip_code":"6430075"}]},{"name":"有田郡有田川町","divisions":[{"name":"粟生","zip_code":"6430366"},{"name":"青田","zip_code":"6430136"},{"name":"畦田","zip_code":"6430129"},{"name":"有原","zip_code":"6430127"},{"name":"板尾","zip_code":"6430603"},{"name":"井谷","zip_code":"6430604"},{"name":"市場","zip_code":"6430144"},{"name":"出","zip_code":"6430851"},{"name":"糸川","zip_code":"6430165"},{"name":"糸野","zip_code":"6430174"},{"name":"井口","zip_code":"6430844"},{"name":"岩野河","zip_code":"6430312"},{"name":"宇井苔","zip_code":"6430164"},{"name":"植野","zip_code":"6430026"},{"name":"生石","zip_code":"6430131"},{"name":"大賀畑","zip_code":"6430847"},{"name":"大蔵","zip_code":"6430513"},{"name":"大薗","zip_code":"6430134"},{"name":"大谷","zip_code":"6430845"},{"name":"大西","zip_code":"6430135"},{"name":"小川","zip_code":"6430142"},{"name":"奥","zip_code":"6430022"},{"name":"押手","zip_code":"6430601"},{"name":"小島","zip_code":"6430034"},{"name":"尾中","zip_code":"6430852"},{"name":"尾上","zip_code":"6430133"},{"name":"小原","zip_code":"6430132"},{"name":"垣倉","zip_code":"6430812"},{"name":"賢","zip_code":"6430843"},{"name":"金屋","zip_code":"6430152"},{"name":"釜中","zip_code":"6430176"},{"name":"上中島","zip_code":"6430855"},{"name":"上六川","zip_code":"6430171"},{"name":"上湯川","zip_code":"6430551"},{"name":"川合","zip_code":"6430364"},{"name":"川口","zip_code":"6430313"},{"name":"歓喜寺","zip_code":"6430161"},{"name":"北野川","zip_code":"6430362"},{"name":"楠本","zip_code":"6430531"},{"name":"久野原","zip_code":"6430514"},{"name":"熊井","zip_code":"6430023"},{"name":"黒松","zip_code":"6430172"},{"name":"境川","zip_code":"6430544"},{"name":"清水","zip_code":"6430521"},{"name":"下津野","zip_code":"6430021"},{"name":"下六川","zip_code":"6430173"},{"name":"下湯川","zip_code":"6430522"},{"name":"庄","zip_code":"6430811"},{"name":"杉野原","zip_code":"6430602"},{"name":"角","zip_code":"6430853"},{"name":"修理川","zip_code":"6430163"},{"name":"瀬井","zip_code":"6430122"},{"name":"田口","zip_code":"6430846"},{"name":"田角","zip_code":"6430848"},{"name":"立石","zip_code":"6430314"},{"name":"谷","zip_code":"6430311"},{"name":"天満","zip_code":"6430032"},{"name":"遠井","zip_code":"6430533"},{"name":"徳田","zip_code":"6430801"},{"name":"中","zip_code":"6430123"},{"name":"中井原","zip_code":"6430153"},{"name":"長田","zip_code":"6430854"},{"name":"長谷","zip_code":"6430841"},{"name":"中野","zip_code":"6430143"},{"name":"中原","zip_code":"6430365"},{"name":"中峯","zip_code":"6430124"},{"name":"丹生","zip_code":"6430175"},{"name":"二沢","zip_code":"6430363"},{"name":"西ケ峯","zip_code":"6430128"},{"name":"西丹生図","zip_code":"6430813"},{"name":"沼田","zip_code":"6430125"},{"name":"沼","zip_code":"6430532"},{"name":"沼谷","zip_code":"6430605"},{"name":"野田","zip_code":"6430031"},{"name":"延坂","zip_code":"6430137"},{"name":"長谷川","zip_code":"6430151"},{"name":"土生","zip_code":"6430025"},{"name":"東大谷","zip_code":"6430541"},{"name":"東丹生図","zip_code":"6430803"},{"name":"彦ケ瀬","zip_code":"6430121"},{"name":"日物川","zip_code":"6430543"},{"name":"二川","zip_code":"6430542"},{"name":"船坂","zip_code":"6430842"},{"name":"伏羊","zip_code":"6430141"},{"name":"本堂","zip_code":"6430126"},{"name":"松原","zip_code":"6430162"},{"name":"水尻","zip_code":"6430024"},{"name":"三瀬川","zip_code":"6430361"},{"name":"三田","zip_code":"6430511"},{"name":"宮川","zip_code":"6430512"},{"name":"明王寺","zip_code":"6430033"},{"name":"室川","zip_code":"6430515"},{"name":"吉原","zip_code":"6430166"},{"name":"吉見","zip_code":"6430802"}]},{"name":"日高郡美浜町","divisions":[{"name":"田井","zip_code":"6440041"},{"name":"浜ノ瀬","zip_code":"6440042"},{"name":"三尾","zip_code":"6440045"},{"name":"吉原","zip_code":"6440043"},{"name":"和田","zip_code":"6440044"}]},{"name":"日高郡日高町","divisions":[{"name":"阿尾","zip_code":"6491232"},{"name":"池田","zip_code":"6491203"},{"name":"荊木","zip_code":"6491211"},{"name":"産湯","zip_code":"6491233"},{"name":"小池","zip_code":"6491222"},{"name":"小浦","zip_code":"6491223"},{"name":"小坂","zip_code":"6491231"},{"name":"小中","zip_code":"6491212"},{"name":"方杭","zip_code":"6491225"},{"name":"志賀","zip_code":"6491221"},{"name":"高家","zip_code":"6491213"},{"name":"津久野","zip_code":"6491224"},{"name":"萩原","zip_code":"6491202"},{"name":"原谷","zip_code":"6491201"},{"name":"比井","zip_code":"6491234"}]},{"name":"日高郡由良町","divisions":[{"name":"網代","zip_code":"6491112"},{"name":"阿戸","zip_code":"6491113"},{"name":"衣奈","zip_code":"6491132"},{"name":"江ノ駒","zip_code":"6491104"},{"name":"大引","zip_code":"6491123"},{"name":"神谷","zip_code":"6491122"},{"name":"小引","zip_code":"6491131"},{"name":"里","zip_code":"6491111"},{"name":"戸津井","zip_code":"6491134"},{"name":"中","zip_code":"6491102"},{"name":"畑","zip_code":"6491101"},{"name":"吹井","zip_code":"6491121"},{"name":"三尾川","zip_code":"6491133"},{"name":"門前","zip_code":"6491103"}]},{"name":"日高郡印南町","divisions":[{"name":"印南","zip_code":"6491534"},{"name":"印南原","zip_code":"6491532"},{"name":"皆瀬川","zip_code":"6440215"},{"name":"上洞","zip_code":"6440202"},{"name":"川又","zip_code":"6440201"},{"name":"小原","zip_code":"6440214"},{"name":"崎ノ原","zip_code":"6440216"},{"name":"島田","zip_code":"6491527"},{"name":"高串","zip_code":"6440211"},{"name":"立石","zip_code":"6491531"},{"name":"田ノ垣内","zip_code":"6440212"},{"name":"津井","zip_code":"6491535"},{"name":"西神ノ川","zip_code":"6440213"},{"name":"西ノ地","zip_code":"6491528"},{"name":"丹生","zip_code":"6440217"},{"name":"羽六","zip_code":"6491524"},{"name":"古井","zip_code":"6491522"},{"name":"古屋","zip_code":"6491525"},{"name":"樮川","zip_code":"6491523"},{"name":"松原","zip_code":"6440218"},{"name":"美里","zip_code":"6491521"},{"name":"南谷","zip_code":"6491536"},{"name":"宮ノ前","zip_code":"6491526"},{"name":"明神川","zip_code":"6491537"},{"name":"山口","zip_code":"6491533"}]},{"name":"日高郡みなべ町","divisions":[{"name":"市井川","zip_code":"6450208"},{"name":"晩稲","zip_code":"6450022"},{"name":"気佐藤","zip_code":"6450011"},{"name":"北道","zip_code":"6450006"},{"name":"清川","zip_code":"6450201"},{"name":"熊岡","zip_code":"6450023"},{"name":"熊瀬川","zip_code":"6450028"},{"name":"堺","zip_code":"6450003"},{"name":"芝","zip_code":"6450002"},{"name":"島之瀬","zip_code":"6450203"},{"name":"筋","zip_code":"6450025"},{"name":"高野","zip_code":"6450207"},{"name":"滝","zip_code":"6450205"},{"name":"谷口","zip_code":"6450026"},{"name":"土井","zip_code":"6450206"},{"name":"徳蔵","zip_code":"6450024"},{"name":"西岩代","zip_code":"6450014"},{"name":"西本庄","zip_code":"6450027"},{"name":"埴田","zip_code":"6450004"},{"name":"東岩代","zip_code":"6450013"},{"name":"東神野川","zip_code":"6450202"},{"name":"東本庄","zip_code":"6450021"},{"name":"東吉田","zip_code":"6450001"},{"name":"広野","zip_code":"6450204"},{"name":"南道","zip_code":"6450005"},{"name":"山内","zip_code":"6450012"}]},{"name":"日高郡日高川町","divisions":[{"name":"浅間","zip_code":"6441243"},{"name":"愛川","zip_code":"6441213"},{"name":"姉子","zip_code":"6441132"},{"name":"伊藤川","zip_code":"6491313"},{"name":"弥谷","zip_code":"6441211"},{"name":"初湯川","zip_code":"6441231"},{"name":"江川","zip_code":"6491442"},{"name":"老星","zip_code":"6441162"},{"name":"大又","zip_code":"6441163"},{"name":"皆瀬","zip_code":"6441212"},{"name":"鐘巻","zip_code":"6491331"},{"name":"上初湯川","zip_code":"6441214"},{"name":"上越方","zip_code":"6441244"},{"name":"上田原","zip_code":"6441141"},{"name":"川原河","zip_code":"6441201"},{"name":"串本","zip_code":"6441222"},{"name":"熊野川","zip_code":"6441242"},{"name":"玄子","zip_code":"6491315"},{"name":"小釜本","zip_code":"6441143"},{"name":"小熊","zip_code":"6491323"},{"name":"佐井","zip_code":"6441164"},{"name":"坂野川","zip_code":"6441161"},{"name":"山野","zip_code":"6491441"},{"name":"下田原","zip_code":"6441142"},{"name":"千津川","zip_code":"6491332"},{"name":"寒川","zip_code":"6441221"},{"name":"高津尾","zip_code":"6441122"},{"name":"高津尾川","zip_code":"6441123"},{"name":"滝頭","zip_code":"6441241"},{"name":"田尻","zip_code":"6441151"},{"name":"藤野川","zip_code":"6441101"},{"name":"中津川","zip_code":"6491325"},{"name":"西原","zip_code":"6441121"},{"name":"入野","zip_code":"6491321"},{"name":"早藤","zip_code":"6491314"},{"name":"土生","zip_code":"6491324"},{"name":"原日浦","zip_code":"6441133"},{"name":"平川","zip_code":"6491311"},{"name":"船津","zip_code":"6441111"},{"name":"蛇尾","zip_code":"6491316"},{"name":"松瀬","zip_code":"6491444"},{"name":"三佐","zip_code":"6441152"},{"name":"三十井川","zip_code":"6441131"},{"name":"三十木","zip_code":"6441134"},{"name":"三百瀬","zip_code":"6491312"},{"name":"若野","zip_code":"6491322"},{"name":"和佐","zip_code":"6491443"}]},{"name":"西牟婁郡白浜町","divisions":[{"name":"安居","zip_code":"6492532"},{"name":"安宅","zip_code":"6492524"},{"name":"市鹿野","zip_code":"6460301"},{"name":"内ノ川","zip_code":"6492322"},{"name":"宇津木","zip_code":"6492537"},{"name":"大","zip_code":"6460312"},{"name":"大瀬","zip_code":"6460303"},{"name":"大古","zip_code":"6492521"},{"name":"小房","zip_code":"6460311"},{"name":"堅田","zip_code":"6492201"},{"name":"北谷","zip_code":"6460305"},{"name":"口ケ谷","zip_code":"6492531"},{"name":"上露","zip_code":"6460302"},{"name":"小川","zip_code":"6492538"},{"name":"才野","zip_code":"6492334"},{"name":"栄","zip_code":"6492332"},{"name":"里谷","zip_code":"6460314"},{"name":"塩野","zip_code":"6492525"},{"name":"庄川","zip_code":"6492323"},{"name":"城","zip_code":"6492539"},{"name":"平","zip_code":"6492331"},{"name":"竹垣内","zip_code":"6460304"},{"name":"田野井","zip_code":"6492523"},{"name":"玉伝","zip_code":"6460313"},{"name":"十九渕","zip_code":"6492324"},{"name":"椿","zip_code":"6492326"},{"name":"寺山","zip_code":"6492534"},{"name":"富田","zip_code":"6492325"},{"name":"中","zip_code":"6492333"},{"name":"中嶋","zip_code":"6492533"},{"name":"日置","zip_code":"6492511"},{"name":"久木","zip_code":"6492536"},{"name":"保呂","zip_code":"6492321"},{"name":"向平","zip_code":"6492535"},{"name":"矢田","zip_code":"6492522"}]},{"name":"西牟婁郡上富田町","divisions":[{"name":"朝来","zip_code":"6492105"},{"name":"生馬","zip_code":"6492103"},{"name":"市ノ瀬","zip_code":"6492107"},{"name":"岩崎","zip_code":"6492104"},{"name":"岩田","zip_code":"6492102"},{"name":"岡","zip_code":"6492101"},{"name":"下鮎川","zip_code":"6492108"},{"name":"南紀の台","zip_code":"6492106"}]},{"name":"西牟婁郡すさみ町","divisions":[{"name":"江住","zip_code":"6493142"},{"name":"大鎌","zip_code":"6493151"},{"name":"大谷","zip_code":"6493153"},{"name":"大附","zip_code":"6492602"},{"name":"小河内","zip_code":"6492603"},{"name":"口和深","zip_code":"6492612"},{"name":"小附","zip_code":"6492601"},{"name":"里野","zip_code":"6493143"},{"name":"佐本追川","zip_code":"6493162"},{"name":"佐本中","zip_code":"6493161"},{"name":"佐本中野","zip_code":"6493165"},{"name":"佐本西栗垣内","zip_code":"6493163"},{"name":"佐本西野川","zip_code":"6493166"},{"name":"佐本根倉","zip_code":"6493168"},{"name":"佐本東栗垣内","zip_code":"6493164"},{"name":"佐本平野","zip_code":"6493167"},{"name":"佐本深谷","zip_code":"6493169"},{"name":"周参見","zip_code":"6492621"},{"name":"太間川","zip_code":"6492631"},{"name":"防己","zip_code":"6493152"},{"name":"見老津","zip_code":"6493141"},{"name":"矢野口","zip_code":"6492604"},{"name":"和深川","zip_code":"6492611"}]},{"name":"東牟婁郡那智勝浦町","divisions":[{"name":"朝日","zip_code":"6495332"},{"name":"井鹿","zip_code":"6495133"},{"name":"井関","zip_code":"6495303"},{"name":"市野々","zip_code":"6495302"},{"name":"市屋","zip_code":"6495339"},{"name":"宇久井","zip_code":"6495312"},{"name":"浦神","zip_code":"6495145"},{"name":"大野","zip_code":"6495461"},{"name":"樫原","zip_code":"6495466"},{"name":"勝浦","zip_code":"6495334"},{"name":"川関","zip_code":"6495304"},{"name":"北浜","zip_code":"6495333"},{"name":"狗子ノ川","zip_code":"6495313"},{"name":"口色川","zip_code":"6495451"},{"name":"熊瀬川","zip_code":"6495454"},{"name":"高津気","zip_code":"6495311"},{"name":"高遠井","zip_code":"6495135"},{"name":"小阪","zip_code":"6495452"},{"name":"小匠","zip_code":"6495137"},{"name":"粉白","zip_code":"6495144"},{"name":"坂足","zip_code":"6495465"},{"name":"下里","zip_code":"6495142"},{"name":"下和田","zip_code":"6495148"},{"name":"庄","zip_code":"6495147"},{"name":"高野","zip_code":"6495463"},{"name":"田垣内","zip_code":"6495462"},{"name":"築地","zip_code":"6495335"},{"name":"天満","zip_code":"6495331"},{"name":"中里","zip_code":"6495146"},{"name":"中ノ川","zip_code":"6495132"},{"name":"長井","zip_code":"6495136"},{"name":"那智山","zip_code":"6495301"},{"name":"二河","zip_code":"6495338"},{"name":"西中野川","zip_code":"6495131"},{"name":"橋ノ川","zip_code":"6495337"},{"name":"浜ノ宮","zip_code":"6495314"},{"name":"直柱","zip_code":"6495464"},{"name":"南大居","zip_code":"6495134"},{"name":"南平野","zip_code":"6495453"},{"name":"八尺鏡野","zip_code":"6495143"},{"name":"湯川","zip_code":"6495336"}]},{"name":"東牟婁郡太地町","divisions":[{"name":"太地","zip_code":"6495371"},{"name":"森浦","zip_code":"6495172"}]},{"name":"東牟婁郡古座川町","divisions":[{"name":"相瀬","zip_code":"6494235"},{"name":"池野山","zip_code":"6494103"},{"name":"一雨","zip_code":"6494232"},{"name":"洞尾","zip_code":"6494453"},{"name":"宇津木","zip_code":"6494105"},{"name":"宇筒井","zip_code":"6494214"},{"name":"潤野","zip_code":"6494225"},{"name":"大川","zip_code":"6494451"},{"name":"大桑","zip_code":"6494215"},{"name":"大柳","zip_code":"6494227"},{"name":"樫山","zip_code":"6494101"},{"name":"川口","zip_code":"6494223"},{"name":"楠","zip_code":"6494102"},{"name":"蔵土","zip_code":"6494452"},{"name":"小川","zip_code":"6494216"},{"name":"小森川","zip_code":"6494211"},{"name":"佐田","zip_code":"6494442"},{"name":"下露","zip_code":"6494562"},{"name":"添野川","zip_code":"6494441"},{"name":"高池","zip_code":"6494104"},{"name":"高瀬","zip_code":"6494224"},{"name":"田川","zip_code":"6494212"},{"name":"立合","zip_code":"6494233"},{"name":"立合川","zip_code":"6494236"},{"name":"月野瀬","zip_code":"6494106"},{"name":"鶴川","zip_code":"6494231"},{"name":"中崎","zip_code":"6494221"},{"name":"長追","zip_code":"6494444"},{"name":"南平","zip_code":"6494454"},{"name":"成川","zip_code":"6494565"},{"name":"西赤木","zip_code":"6494213"},{"name":"西川","zip_code":"6494561"},{"name":"直見","zip_code":"6494222"},{"name":"平井","zip_code":"6494563"},{"name":"松根","zip_code":"6494564"},{"name":"真砂","zip_code":"6494443"},{"name":"三尾川","zip_code":"6494455"},{"name":"峰","zip_code":"6494234"},{"name":"明神","zip_code":"6494226"},{"name":"山手","zip_code":"6494217"}]},{"name":"東牟婁郡北山村","divisions":[{"name":"大沼","zip_code":"6471603"},{"name":"小松","zip_code":"6471605"},{"name":"下尾井","zip_code":"6471604"},{"name":"竹原","zip_code":"6471602"},{"name":"七色","zip_code":"6471601"}]},{"name":"東牟婁郡串本町","divisions":[{"name":"有田","zip_code":"6493514"},{"name":"有田上","zip_code":"6493518"},{"name":"伊串","zip_code":"6494124"},{"name":"出雲","zip_code":"6493501"},{"name":"上野山","zip_code":"6494114"},{"name":"江田","zip_code":"6493521"},{"name":"大島","zip_code":"6493633"},{"name":"樫野","zip_code":"6493631"},{"name":"上田原","zip_code":"6494111"},{"name":"鬮野川","zip_code":"6493511"},{"name":"串本","zip_code":"6493503"},{"name":"古座","zip_code":"6494115"},{"name":"神野川","zip_code":"6494123"},{"name":"里川","zip_code":"6493524"},{"name":"佐部","zip_code":"6494117"},{"name":"サンゴ台","zip_code":"6493510"},{"name":"潮岬","zip_code":"6493502"},{"name":"須江","zip_code":"6493632"},{"name":"高富","zip_code":"6493513"},{"name":"田子","zip_code":"6493522"},{"name":"田並","zip_code":"6493515"},{"name":"田並上","zip_code":"6493516"},{"name":"田原","zip_code":"6494112"},{"name":"津荷","zip_code":"6494113"},{"name":"中湊","zip_code":"6494116"},{"name":"二色","zip_code":"6493512"},{"name":"西向","zip_code":"6494122"},{"name":"吐生","zip_code":"6493517"},{"name":"姫","zip_code":"6494125"},{"name":"姫川","zip_code":"6494126"},{"name":"古田","zip_code":"6494121"},{"name":"和深","zip_code":"6493523"}]}]}