{"name":"鳥取県","cities":[{"name":"鳥取市","divisions":[{"name":"相生町","zip_code":"6800805"},{"name":"青葉町","zip_code":"6800802"},{"name":"青谷町青谷","zip_code":"6890501"},{"name":"青谷町井手","zip_code":"6890535"},{"name":"青谷町大坪","zip_code":"6890518"},{"name":"青谷町奥崎","zip_code":"6890519"},{"name":"青谷町小畑","zip_code":"6890516"},{"name":"青谷町紙屋","zip_code":"6890526"},{"name":"青谷町亀尻","zip_code":"6890522"},{"name":"青谷町河原","zip_code":"6890515"},{"name":"青谷町北河原","zip_code":"6890532"},{"name":"青谷町絹見","zip_code":"6890533"},{"name":"青谷町楠根","zip_code":"6890527"},{"name":"青谷町蔵内","zip_code":"6890513"},{"name":"青谷町桑原","zip_code":"6890529"},{"name":"青谷町栄町","zip_code":"6890537"},{"name":"青谷町澄水","zip_code":"6890528"},{"name":"青谷町田原谷","zip_code":"6890525"},{"name":"青谷町露谷","zip_code":"6890521"},{"name":"青谷町長和瀬","zip_code":"6890536"},{"name":"青谷町鳴滝","zip_code":"6890531"},{"name":"青谷町八葉寺","zip_code":"6890524"},{"name":"青谷町早牛","zip_code":"6890517"},{"name":"青谷町山田","zip_code":"6890523"},{"name":"青谷町山根","zip_code":"6890514"},{"name":"青谷町養郷","zip_code":"6890512"},{"name":"青谷町吉川","zip_code":"6890534"},{"name":"青谷町善田","zip_code":"6890511"},{"name":"秋里","zip_code":"6800902"},{"name":"赤子田","zip_code":"6801146"},{"name":"朝月","zip_code":"6801166"},{"name":"有富","zip_code":"6801176"},{"name":"猪子","zip_code":"6801164"},{"name":"今町","zip_code":"6800822"},{"name":"岩倉","zip_code":"6800081"},{"name":"岩坪","zip_code":"6801157"},{"name":"岩吉","zip_code":"6800931"},{"name":"上原","zip_code":"6801422"},{"name":"上町","zip_code":"6800015"},{"name":"内海中","zip_code":"6890205"},{"name":"永楽温泉町","zip_code":"6800834"},{"name":"江崎町","zip_code":"6800013"},{"name":"江津","zip_code":"6800901"},{"name":"戎町","zip_code":"6800055"},{"name":"円護寺","zip_code":"6800005"},{"name":"円通寺","zip_code":"6801144"},{"name":"扇町","zip_code":"6800846"},{"name":"大榎町","zip_code":"6800043"},{"name":"大杙","zip_code":"6800851"},{"name":"大塚","zip_code":"6801415"},{"name":"大畑","zip_code":"6801437"},{"name":"晩稲","zip_code":"6800904"},{"name":"桶屋町","zip_code":"6800054"},{"name":"尾崎","zip_code":"6801427"},{"name":"面影","zip_code":"6800855"},{"name":"御弓町","zip_code":"6800044"},{"name":"海蔵寺","zip_code":"6891117"},{"name":"覚寺","zip_code":"6800003"},{"name":"掛出町","zip_code":"6800041"},{"name":"紙子谷","zip_code":"6891115"},{"name":"鍛冶町","zip_code":"6800052"},{"name":"片原","zip_code":"6800023"},{"name":"桂木","zip_code":"6891104"},{"name":"桂見","zip_code":"6801417"},{"name":"香取","zip_code":"6891114"},{"name":"金沢","zip_code":"6801439"},{"name":"叶","zip_code":"6800874"},{"name":"上味野","zip_code":"6801167"},{"name":"上魚町","zip_code":"6800047"},{"name":"上砂見","zip_code":"6801156"},{"name":"上段","zip_code":"6801421"},{"name":"賀露町","zip_code":"6800905"},{"name":"賀露町北","zip_code":"6800907"},{"name":"賀露町西","zip_code":"6800908"},{"name":"賀露町南","zip_code":"6800909"},{"name":"川端","zip_code":"6800036"},{"name":"河原町鮎ケ丘","zip_code":"6801208"},{"name":"河原町稲常","zip_code":"6801203"},{"name":"河原町今在家","zip_code":"6801205"},{"name":"河原町牛戸","zip_code":"6801225"},{"name":"河原町小倉","zip_code":"6801245"},{"name":"河原町小河内","zip_code":"6801253"},{"name":"河原町小畑","zip_code":"6801232"},{"name":"河原町片山","zip_code":"6801204"},{"name":"河原町釜口","zip_code":"6801216"},{"name":"河原町河原","zip_code":"6801251"},{"name":"河原町神馬","zip_code":"6801254"},{"name":"河原町北村","zip_code":"6801234"},{"name":"河原町郷原","zip_code":"6801207"},{"name":"河原町佐貫","zip_code":"6801243"},{"name":"河原町高福","zip_code":"6801213"},{"name":"河原町谷一木","zip_code":"6801242"},{"name":"河原町天神原","zip_code":"6801223"},{"name":"河原町徳吉","zip_code":"6801212"},{"name":"河原町中井","zip_code":"6801224"},{"name":"河原町長瀬","zip_code":"6801241"},{"name":"河原町曳田","zip_code":"6801222"},{"name":"河原町袋河原","zip_code":"6801201"},{"name":"河原町布袋","zip_code":"6801202"},{"name":"河原町本鹿","zip_code":"6801252"},{"name":"河原町水根","zip_code":"6801244"},{"name":"河原町三谷","zip_code":"6801206"},{"name":"河原町山上","zip_code":"6801246"},{"name":"河原町山手","zip_code":"6801211"},{"name":"河原町湯谷","zip_code":"6801231"},{"name":"河原町弓河内","zip_code":"6801233"},{"name":"河原町八日市","zip_code":"6801214"},{"name":"河原町渡一木","zip_code":"6801221"},{"name":"河原町和奈見","zip_code":"6801215"},{"name":"瓦町","zip_code":"6800821"},{"name":"北園","zip_code":"6800004"},{"name":"北村","zip_code":"6801172"},{"name":"行徳","zip_code":"6800824"},{"name":"国安","zip_code":"6801132"},{"name":"雲山","zip_code":"6800862"},{"name":"蔵田","zip_code":"6801141"},{"name":"栗谷町","zip_code":"6800012"},{"name":"気高町飯里","zip_code":"6890343"},{"name":"気高町会下","zip_code":"6890355"},{"name":"気高町奥沢見","zip_code":"6890211"},{"name":"気高町下石","zip_code":"6890341"},{"name":"気高町勝見","zip_code":"6890332"},{"name":"気高町上光","zip_code":"6890214"},{"name":"気高町上原","zip_code":"6890344"},{"name":"気高町北浜","zip_code":"6890334"},{"name":"気高町郡家","zip_code":"6890353"},{"name":"気高町酒津","zip_code":"6890217"},{"name":"気高町重高","zip_code":"6890224"},{"name":"気高町下坂本","zip_code":"6890221"},{"name":"気高町下原","zip_code":"6890356"},{"name":"気高町下光元","zip_code":"6890213"},{"name":"気高町宿","zip_code":"6890226"},{"name":"気高町新町","zip_code":"6890333"},{"name":"気高町高江","zip_code":"6890352"},{"name":"気高町常松","zip_code":"6890212"},{"name":"気高町土居","zip_code":"6890225"},{"name":"気高町殿","zip_code":"6890342"},{"name":"気高町冨吉","zip_code":"6890215"},{"name":"気高町日光","zip_code":"6890222"},{"name":"気高町二本木","zip_code":"6890223"},{"name":"気高町浜村","zip_code":"6890331"},{"name":"気高町宝木","zip_code":"6890216"},{"name":"気高町睦逢","zip_code":"6890354"},{"name":"気高町八束水","zip_code":"6890357"},{"name":"気高町山宮","zip_code":"6890345"},{"name":"気高町八幡","zip_code":"6890351"},{"name":"玄好町","zip_code":"6800024"},{"name":"源太","zip_code":"6801133"},{"name":"越路","zip_code":"6891124"},{"name":"河内","zip_code":"6801425"},{"name":"興南町","zip_code":"6800844"},{"name":"高路","zip_code":"6801177"},{"name":"国府町麻生","zip_code":"6800142"},{"name":"国府町雨滝","zip_code":"6800201"},{"name":"国府町荒舟","zip_code":"6800216"},{"name":"国府町糸谷","zip_code":"6800136"},{"name":"国府町稲葉丘","zip_code":"6808062"},{"name":"国府町石井谷","zip_code":"6800202"},{"name":"国府町大石","zip_code":"6800203"},{"name":"国府町岡益","zip_code":"6800144"},{"name":"国府町奥谷","zip_code":"6808063"},{"name":"国府町上荒舟","zip_code":"6800214"},{"name":"国府町上上地","zip_code":"6800213"},{"name":"国府町神護","zip_code":"6800221"},{"name":"国府町木原","zip_code":"6800208"},{"name":"国府町神垣","zip_code":"6800132"},{"name":"国府町国分寺","zip_code":"6800155"},{"name":"国府町三代寺","zip_code":"6800154"},{"name":"国府町拾石","zip_code":"6800205"},{"name":"国府町下木原","zip_code":"6800207"},{"name":"国府町新通り","zip_code":"6808066"},{"name":"国府町新町","zip_code":"6808065"},{"name":"国府町菅野","zip_code":"6800211"},{"name":"国府町清水","zip_code":"6800134"},{"name":"国府町高岡","zip_code":"6800131"},{"name":"国府町谷","zip_code":"6800135"},{"name":"国府町玉鉾","zip_code":"6800143"},{"name":"国府町中郷","zip_code":"6800156"},{"name":"国府町庁","zip_code":"6800152"},{"name":"国府町栃本","zip_code":"6800206"},{"name":"国府町殿","zip_code":"6800222"},{"name":"国府町中河原","zip_code":"6800223"},{"name":"国府町楠城","zip_code":"6800204"},{"name":"国府町新井","zip_code":"6800226"},{"name":"国府町広西","zip_code":"6800145"},{"name":"国府町分上","zip_code":"6808064"},{"name":"国府町法花寺","zip_code":"6800153"},{"name":"国府町町屋","zip_code":"6800146"},{"name":"国府町松尾","zip_code":"6800224"},{"name":"国府町美歎","zip_code":"6800141"},{"name":"国府町宮下","zip_code":"6800151"},{"name":"国府町山崎","zip_code":"6800215"},{"name":"国府町山根","zip_code":"6800133"},{"name":"国府町吉野","zip_code":"6800225"},{"name":"国府町上地","zip_code":"6800212"},{"name":"古郡家","zip_code":"6891125"},{"name":"小西谷","zip_code":"6800073"},{"name":"小沢見","zip_code":"6890207"},{"name":"五反田町","zip_code":"6800932"},{"name":"寿町","zip_code":"6800813"},{"name":"湖山町","zip_code":"6800946"},{"name":"湖山町東","zip_code":"6800942"},{"name":"湖山町西","zip_code":"6800947"},{"name":"湖山町南","zip_code":"6800945"},{"name":"湖山町北","zip_code":"6800941"},{"name":"材木町","zip_code":"6800021"},{"name":"幸町","zip_code":"6800823"},{"name":"栄町","zip_code":"6800831"},{"name":"桜谷","zip_code":"6800853"},{"name":"佐治町大井","zip_code":"6891304"},{"name":"佐治町尾際","zip_code":"6891324"},{"name":"佐治町葛谷","zip_code":"6891301"},{"name":"佐治町加瀬木","zip_code":"6891313"},{"name":"佐治町加茂","zip_code":"6891314"},{"name":"佐治町刈地","zip_code":"6891303"},{"name":"佐治町河本","zip_code":"6891321"},{"name":"佐治町小原","zip_code":"6891302"},{"name":"佐治町高山","zip_code":"6891312"},{"name":"佐治町つく谷","zip_code":"6891322"},{"name":"佐治町津無","zip_code":"6891307"},{"name":"佐治町津野","zip_code":"6891311"},{"name":"佐治町栃原","zip_code":"6891326"},{"name":"佐治町中","zip_code":"6891325"},{"name":"佐治町畑","zip_code":"6891315"},{"name":"佐治町福園","zip_code":"6891316"},{"name":"佐治町古市","zip_code":"6891306"},{"name":"佐治町森坪","zip_code":"6891305"},{"name":"佐治町余戸","zip_code":"6891323"},{"name":"里仁","zip_code":"6800935"},{"name":"鹿野町今市","zip_code":"6890425"},{"name":"鹿野町岡木","zip_code":"6890422"},{"name":"鹿野町乙亥正","zip_code":"6890421"},{"name":"鹿野町河内","zip_code":"6890412"},{"name":"鹿野町小別所","zip_code":"6890413"},{"name":"鹿野町鹿野","zip_code":"6890405"},{"name":"鹿野町鷲峯","zip_code":"6890411"},{"name":"鹿野町末用","zip_code":"6890403"},{"name":"鹿野町寺内","zip_code":"6890426"},{"name":"鹿野町閉野","zip_code":"6890402"},{"name":"鹿野町中園","zip_code":"6890423"},{"name":"鹿野町広木","zip_code":"6890401"},{"name":"鹿野町水谷","zip_code":"6890404"},{"name":"鹿野町宮方","zip_code":"6890424"},{"name":"倭文","zip_code":"6801151"},{"name":"篠坂","zip_code":"6801174"},{"name":"嶋","zip_code":"6801411"},{"name":"下味野","zip_code":"6801165"},{"name":"下砂見","zip_code":"6801154"},{"name":"下段","zip_code":"6801414"},{"name":"商栄町","zip_code":"6800912"},{"name":"生山","zip_code":"6891103"},{"name":"尚徳町","zip_code":"6800017"},{"name":"菖蒲","zip_code":"6800922"},{"name":"正蓮寺","zip_code":"6800854"},{"name":"職人町","zip_code":"6800056"},{"name":"新","zip_code":"6800861"},{"name":"新品治町","zip_code":"6800812"},{"name":"新町","zip_code":"6800035"},{"name":"末広温泉町","zip_code":"6800833"},{"name":"杉崎","zip_code":"6891101"},{"name":"数津","zip_code":"6800875"},{"name":"瀬田蔵","zip_code":"6801435"},{"name":"双六原","zip_code":"6801432"},{"name":"大桷","zip_code":"6801418"},{"name":"大覚寺","zip_code":"6800863"},{"name":"高住","zip_code":"6801416"},{"name":"大工町頭","zip_code":"6800045"},{"name":"滝山","zip_code":"6800072"},{"name":"竹生","zip_code":"6801162"},{"name":"田島","zip_code":"6800804"},{"name":"立川町","zip_code":"6800061"},{"name":"玉津","zip_code":"6801152"},{"name":"足山","zip_code":"6800943"},{"name":"茶町","zip_code":"6800032"},{"name":"千代水","zip_code":"6800911"},{"name":"津ノ井","zip_code":"6891102"},{"name":"寺町","zip_code":"6800053"},{"name":"田園町","zip_code":"6800803"},{"name":"天神町","zip_code":"6800847"},{"name":"徳尾","zip_code":"6800934"},{"name":"徳吉","zip_code":"6800933"},{"name":"富安","zip_code":"6800845"},{"name":"中大路","zip_code":"6891106"},{"name":"中砂見","zip_code":"6801155"},{"name":"中町","zip_code":"6800016"},{"name":"中村","zip_code":"6801175"},{"name":"長柄","zip_code":"6801436"},{"name":"南栄町","zip_code":"6891121"},{"name":"二階町","zip_code":"6800033"},{"name":"西今在家","zip_code":"6801173"},{"name":"西円通寺","zip_code":"6801145"},{"name":"西大路","zip_code":"6891107"},{"name":"西品治","zip_code":"6800811"},{"name":"西町","zip_code":"6800022"},{"name":"祢宜谷","zip_code":"6891113"},{"name":"野坂","zip_code":"6801413"},{"name":"野寺","zip_code":"6800924"},{"name":"白兎","zip_code":"6890206"},{"name":"橋本","zip_code":"6801142"},{"name":"長谷","zip_code":"6801153"},{"name":"八坂","zip_code":"6801143"},{"name":"服部","zip_code":"6800923"},{"name":"馬場","zip_code":"6801131"},{"name":"馬場町","zip_code":"6800014"},{"name":"浜坂","zip_code":"6800001"},{"name":"浜坂東","zip_code":"6800002"},{"name":"東今在家","zip_code":"6800852"},{"name":"東大路","zip_code":"6891105"},{"name":"東品治町","zip_code":"6800835"},{"name":"東町","zip_code":"6800011"},{"name":"久末","zip_code":"6891123"},{"name":"広岡","zip_code":"6891116"},{"name":"福井","zip_code":"6801438"},{"name":"福部町海士","zip_code":"6890106"},{"name":"福部町岩戸","zip_code":"6890101"},{"name":"福部町久志羅","zip_code":"6808021"},{"name":"福部町蔵見","zip_code":"6890112"},{"name":"福部町栗谷","zip_code":"6890111"},{"name":"福部町左近","zip_code":"6808022"},{"name":"福部町高江","zip_code":"6890103"},{"name":"福部町中","zip_code":"6890116"},{"name":"福部町南田","zip_code":"6890117"},{"name":"福部町細川","zip_code":"6890102"},{"name":"福部町八重原","zip_code":"6890115"},{"name":"福部町箭渓","zip_code":"6890104"},{"name":"福部町湯山","zip_code":"6890105"},{"name":"伏野","zip_code":"6890201"},{"name":"布勢","zip_code":"6800944"},{"name":"船木","zip_code":"6891122"},{"name":"古市","zip_code":"6800865"},{"name":"古海","zip_code":"6800921"},{"name":"卯垣","zip_code":"6800074"},{"name":"庖丁人町","zip_code":"6800042"},{"name":"細見","zip_code":"6801426"},{"name":"洞谷","zip_code":"6801434"},{"name":"本町","zip_code":"6800031"},{"name":"槇原","zip_code":"6801424"},{"name":"松上","zip_code":"6801423"},{"name":"松並町","zip_code":"6800801"},{"name":"松原","zip_code":"6801444"},{"name":"的場","zip_code":"6800873"},{"name":"丸山町","zip_code":"6800006"},{"name":"御熊","zip_code":"6890204"},{"name":"三津","zip_code":"6890203"},{"name":"緑ケ丘","zip_code":"6800915"},{"name":"港町","zip_code":"6800906"},{"name":"南隈","zip_code":"6800903"},{"name":"南町","zip_code":"6800814"},{"name":"南安長","zip_code":"6800914"},{"name":"南吉方","zip_code":"6800843"},{"name":"美萩野","zip_code":"6890202"},{"name":"宮谷","zip_code":"6801412"},{"name":"宮長","zip_code":"6800872"},{"name":"三山口","zip_code":"6801428"},{"name":"妙徳寺","zip_code":"6801431"},{"name":"美和","zip_code":"6891126"},{"name":"向国安","zip_code":"6801161"},{"name":"用瀬町赤波","zip_code":"6891215"},{"name":"用瀬町旭ケ丘","zip_code":"6891214"},{"name":"用瀬町安蔵","zip_code":"6891227"},{"name":"用瀬町家奥","zip_code":"6891222"},{"name":"用瀬町江波","zip_code":"6891229"},{"name":"用瀬町金屋","zip_code":"6891223"},{"name":"用瀬町川中","zip_code":"6891226"},{"name":"用瀬町樟原","zip_code":"6891224"},{"name":"用瀬町鷹狩","zip_code":"6891213"},{"name":"用瀬町古用瀬","zip_code":"6891221"},{"name":"用瀬町別府","zip_code":"6891211"},{"name":"用瀬町美成","zip_code":"6891212"},{"name":"用瀬町宮原","zip_code":"6891225"},{"name":"用瀬町用瀬","zip_code":"6891201"},{"name":"用瀬町屋住","zip_code":"6891228"},{"name":"元魚町","zip_code":"6800034"},{"name":"元大工町","zip_code":"6800046"},{"name":"本高","zip_code":"6801171"},{"name":"元町","zip_code":"6800037"},{"name":"百谷","zip_code":"6800071"},{"name":"薬師町","zip_code":"6800806"},{"name":"安長","zip_code":"6800913"},{"name":"矢矯","zip_code":"6801433"},{"name":"山城町","zip_code":"6800008"},{"name":"弥生町","zip_code":"6800832"},{"name":"湯所町","zip_code":"6800007"},{"name":"横枕","zip_code":"6801163"},{"name":"吉岡温泉町","zip_code":"6801442"},{"name":"吉方","zip_code":"6800842"},{"name":"吉方温泉","zip_code":"6800841"},{"name":"吉方町","zip_code":"6800062"},{"name":"良田","zip_code":"6801441"},{"name":"吉成","zip_code":"6800864"},{"name":"吉成南町","zip_code":"6800871"},{"name":"六反田","zip_code":"6801443"},{"name":"若桜町","zip_code":"6800051"},{"name":"若葉台南","zip_code":"6891112"},{"name":"若葉台北","zip_code":"6891111"}]},{"name":"米子市","divisions":[{"name":"青木","zip_code":"6830252"},{"name":"赤井手","zip_code":"6893515"},{"name":"朝日町","zip_code":"6830813"},{"name":"愛宕町","zip_code":"6830046"},{"name":"安倍","zip_code":"6830846"},{"name":"石井","zip_code":"6830021"},{"name":"泉","zip_code":"6893512"},{"name":"一部","zip_code":"6893533"},{"name":"今在家","zip_code":"6893542"},{"name":"岩倉町","zip_code":"6830833"},{"name":"陰田町","zip_code":"6830027"},{"name":"内町","zip_code":"6830834"},{"name":"浦津","zip_code":"6893544"},{"name":"榎原","zip_code":"6830257"},{"name":"大崎","zip_code":"6830104"},{"name":"大篠津町","zip_code":"6830101"},{"name":"大谷町","zip_code":"6830045"},{"name":"大袋","zip_code":"6830256"},{"name":"岡成","zip_code":"6893513"},{"name":"奥谷","zip_code":"6830016"},{"name":"尾高","zip_code":"6893514"},{"name":"尾高町","zip_code":"6830814"},{"name":"皆生","zip_code":"6830003"},{"name":"皆生温泉","zip_code":"6830001"},{"name":"皆生新田","zip_code":"6830002"},{"name":"角盤町","zip_code":"6830812"},{"name":"兼久","zip_code":"6830251"},{"name":"上安曇","zip_code":"6830255"},{"name":"上後藤","zip_code":"6830841"},{"name":"上新印","zip_code":"6893532"},{"name":"上福原","zip_code":"6830004"},{"name":"加茂町","zip_code":"6830823"},{"name":"蚊屋","zip_code":"6893543"},{"name":"河岡","zip_code":"6893521"},{"name":"河崎","zip_code":"6830852"},{"name":"勝田町","zip_code":"6830051"},{"name":"観音寺","zip_code":"6830007"},{"name":"観音寺新町","zip_code":"6830009"},{"name":"祇園町","zip_code":"6830047"},{"name":"義方町","zip_code":"6830844"},{"name":"錦海町","zip_code":"6830825"},{"name":"日下","zip_code":"6893522"},{"name":"車尾","zip_code":"6830006"},{"name":"車尾南","zip_code":"6830008"},{"name":"熊党","zip_code":"6893546"},{"name":"久米町","zip_code":"6830824"},{"name":"糀町","zip_code":"6830054"},{"name":"紺屋町","zip_code":"6830062"},{"name":"古豊千","zip_code":"6893537"},{"name":"三本松","zip_code":"6830842"},{"name":"塩町","zip_code":"6830042"},{"name":"下安曇","zip_code":"6830253"},{"name":"下新印","zip_code":"6893531"},{"name":"下郷","zip_code":"6893511"},{"name":"昭和町","zip_code":"6830037"},{"name":"新開","zip_code":"6830801"},{"name":"末広町","zip_code":"6830043"},{"name":"諏訪","zip_code":"6830013"},{"name":"石州府","zip_code":"6893524"},{"name":"大工町","zip_code":"6830044"},{"name":"高島","zip_code":"6893536"},{"name":"立町","zip_code":"6830832"},{"name":"茶町","zip_code":"6830041"},{"name":"寺町","zip_code":"6830831"},{"name":"天神町","zip_code":"6830821"},{"name":"道笑町","zip_code":"6830064"},{"name":"富益町","zip_code":"6830103"},{"name":"中島","zip_code":"6830005"},{"name":"中町","zip_code":"6830822"},{"name":"永江","zip_code":"6830014"},{"name":"長砂町","zip_code":"6830033"},{"name":"奈喜良","zip_code":"6830022"},{"name":"灘町","zip_code":"6830835"},{"name":"新山","zip_code":"6830026"},{"name":"錦町","zip_code":"6830811"},{"name":"西倉吉町","zip_code":"6830816"},{"name":"西町","zip_code":"6830826"},{"name":"西福原","zip_code":"6830805"},{"name":"二本木","zip_code":"6893541"},{"name":"博労町","zip_code":"6830052"},{"name":"橋本","zip_code":"6830023"},{"name":"旗ケ崎","zip_code":"6830845"},{"name":"花園町","zip_code":"6830836"},{"name":"東倉吉町","zip_code":"6830815"},{"name":"東町","zip_code":"6830067"},{"name":"東福原","zip_code":"6830802"},{"name":"東山町","zip_code":"6830031"},{"name":"東八幡","zip_code":"6893535"},{"name":"彦名新田","zip_code":"6830855"},{"name":"彦名町","zip_code":"6830854"},{"name":"日ノ出町","zip_code":"6830803"},{"name":"日野町","zip_code":"6830066"},{"name":"日原","zip_code":"6830015"},{"name":"福市","zip_code":"6830011"},{"name":"福万","zip_code":"6893523"},{"name":"冨士見町","zip_code":"6830055"},{"name":"古市","zip_code":"6830025"},{"name":"別所","zip_code":"6830254"},{"name":"法勝寺町","zip_code":"6830063"},{"name":"万能町","zip_code":"6830065"},{"name":"水浜","zip_code":"6893534"},{"name":"三旗町","zip_code":"6830843"},{"name":"美吉","zip_code":"6830034"},{"name":"宗像","zip_code":"6830017"},{"name":"明治町","zip_code":"6830053"},{"name":"目久美町","zip_code":"6830035"},{"name":"弥生町","zip_code":"6830036"},{"name":"八幡","zip_code":"6830012"},{"name":"陽田町","zip_code":"6830032"},{"name":"吉岡","zip_code":"6893545"},{"name":"吉谷","zip_code":"6830024"},{"name":"葭津","zip_code":"6830105"},{"name":"四日市町","zip_code":"6830061"},{"name":"淀江町稲吉","zip_code":"6893412"},{"name":"淀江町今津","zip_code":"6893401"},{"name":"淀江町小波","zip_code":"6893423"},{"name":"淀江町佐陀","zip_code":"6893425"},{"name":"淀江町高井谷","zip_code":"6893418"},{"name":"淀江町富繁","zip_code":"6893415"},{"name":"淀江町中西尾","zip_code":"6893417"},{"name":"淀江町中間","zip_code":"6893424"},{"name":"淀江町西尾原","zip_code":"6893414"},{"name":"淀江町西原","zip_code":"6893403"},{"name":"淀江町平岡","zip_code":"6893422"},{"name":"淀江町福井","zip_code":"6893416"},{"name":"淀江町福岡","zip_code":"6893411"},{"name":"淀江町福頼","zip_code":"6893421"},{"name":"淀江町本宮","zip_code":"6893413"},{"name":"淀江町淀江","zip_code":"6893402"},{"name":"米原","zip_code":"6830804"},{"name":"夜見町","zip_code":"6830851"},{"name":"流通町","zip_code":"6893547"},{"name":"両三柳","zip_code":"6830853"},{"name":"和田町","zip_code":"6830102"}]},{"name":"倉吉市","divisions":[{"name":"葵町","zip_code":"6820822"},{"name":"上井","zip_code":"6820021"},{"name":"上井町","zip_code":"6820022"},{"name":"旭田町","zip_code":"6820871"},{"name":"穴窪","zip_code":"6820001"},{"name":"穴沢","zip_code":"6820901"},{"name":"伊木","zip_code":"6820024"},{"name":"生田","zip_code":"6820855"},{"name":"石塚","zip_code":"6820933"},{"name":"井手畑","zip_code":"6820006"},{"name":"今在家","zip_code":"6820641"},{"name":"巌城","zip_code":"6820801"},{"name":"岩倉","zip_code":"6820842"},{"name":"魚町","zip_code":"6820821"},{"name":"上灘町","zip_code":"6820811"},{"name":"越中町","zip_code":"6820865"},{"name":"円谷町","zip_code":"6820813"},{"name":"大河内","zip_code":"6820623"},{"name":"大沢","zip_code":"6820947"},{"name":"大立","zip_code":"6820632"},{"name":"大谷","zip_code":"6820941"},{"name":"大谷茶屋","zip_code":"6820948"},{"name":"大塚","zip_code":"6820011"},{"name":"大平町","zip_code":"6820042"},{"name":"大宮","zip_code":"6820841"},{"name":"岡","zip_code":"6820645"},{"name":"小鴨","zip_code":"6820931"},{"name":"尾田","zip_code":"6820607"},{"name":"大原","zip_code":"6820034"},{"name":"尾原","zip_code":"6820904"},{"name":"海田東町","zip_code":"6820014"},{"name":"海田西町","zip_code":"6820016"},{"name":"海田南町","zip_code":"6820015"},{"name":"鍛冶町","zip_code":"6820864"},{"name":"上神","zip_code":"6820902"},{"name":"忰谷","zip_code":"6820621"},{"name":"金森町","zip_code":"6820875"},{"name":"河北町","zip_code":"6820041"},{"name":"上大立","zip_code":"6820631"},{"name":"上福田","zip_code":"6820642"},{"name":"上古川","zip_code":"6820934"},{"name":"上余戸","zip_code":"6820032"},{"name":"上米積","zip_code":"6820602"},{"name":"鴨川町","zip_code":"6820923"},{"name":"鴨河内","zip_code":"6820846"},{"name":"河来見","zip_code":"6820633"},{"name":"河原町","zip_code":"6820924"},{"name":"北野","zip_code":"6820857"},{"name":"北面","zip_code":"6820903"},{"name":"蔵内","zip_code":"6820932"},{"name":"栗尾","zip_code":"6820033"},{"name":"黒見","zip_code":"6820945"},{"name":"国府","zip_code":"6820942"},{"name":"広栄町","zip_code":"6820035"},{"name":"荒神町","zip_code":"6820883"},{"name":"国分寺","zip_code":"6820943"},{"name":"越殿町","zip_code":"6820867"},{"name":"小田","zip_code":"6820044"},{"name":"小田東","zip_code":"6820045"},{"name":"幸町","zip_code":"6820807"},{"name":"堺町","zip_code":"6820885"},{"name":"桜","zip_code":"6820634"},{"name":"沢谷","zip_code":"6820606"},{"name":"志津","zip_code":"6820613"},{"name":"下大江","zip_code":"6820837"},{"name":"下田中町","zip_code":"6820812"},{"name":"下福田","zip_code":"6820643"},{"name":"下古川","zip_code":"6820005"},{"name":"下余戸","zip_code":"6820031"},{"name":"下米積","zip_code":"6820601"},{"name":"秋喜","zip_code":"6820925"},{"name":"秋喜西町","zip_code":"6820926"},{"name":"昭和町","zip_code":"6820806"},{"name":"新田","zip_code":"6820003"},{"name":"新町","zip_code":"6820861"},{"name":"新陽町","zip_code":"6820815"},{"name":"鋤","zip_code":"6820952"},{"name":"杉野","zip_code":"6820611"},{"name":"菅原","zip_code":"6820843"},{"name":"住吉町","zip_code":"6820817"},{"name":"清谷","zip_code":"6820012"},{"name":"清谷町","zip_code":"6820017"},{"name":"関金町安歩","zip_code":"6820401"},{"name":"関金町今西","zip_code":"6820421"},{"name":"関金町大鳥居","zip_code":"6820402"},{"name":"関金町小泉","zip_code":"6820433"},{"name":"関金町郡家","zip_code":"6820413"},{"name":"関金町関金宿","zip_code":"6820411"},{"name":"関金町泰久寺","zip_code":"6820404"},{"name":"関金町野添","zip_code":"6820434"},{"name":"関金町福原","zip_code":"6820432"},{"name":"関金町堀","zip_code":"6820422"},{"name":"関金町松河原","zip_code":"6820403"},{"name":"関金町明高","zip_code":"6820423"},{"name":"関金町山口","zip_code":"6820412"},{"name":"関金町米富","zip_code":"6820431"},{"name":"瀬崎町","zip_code":"6820863"},{"name":"大正町","zip_code":"6820886"},{"name":"駄経寺町","zip_code":"6820816"},{"name":"立見","zip_code":"6820626"},{"name":"谷","zip_code":"6820954"},{"name":"津原","zip_code":"6820951"},{"name":"寺谷","zip_code":"6820911"},{"name":"天神町","zip_code":"6820043"},{"name":"研屋町","zip_code":"6820884"},{"name":"富海","zip_code":"6820832"},{"name":"中江","zip_code":"6820002"},{"name":"中河原","zip_code":"6820856"},{"name":"中野","zip_code":"6820612"},{"name":"仲ノ町","zip_code":"6820824"},{"name":"長坂新町","zip_code":"6820836"},{"name":"長坂町","zip_code":"6820835"},{"name":"長谷","zip_code":"6820622"},{"name":"西岩倉町","zip_code":"6820874"},{"name":"西倉吉町","zip_code":"6820851"},{"name":"西仲町","zip_code":"6820825"},{"name":"西福守町","zip_code":"6820921"},{"name":"西町","zip_code":"6820862"},{"name":"虹ケ丘町","zip_code":"6820036"},{"name":"八幡町","zip_code":"6820831"},{"name":"服部","zip_code":"6820635"},{"name":"半坂","zip_code":"6820953"},{"name":"馬場町","zip_code":"6820914"},{"name":"般若","zip_code":"6820624"},{"name":"東巌城町","zip_code":"6820802"},{"name":"東岩倉町","zip_code":"6820873"},{"name":"東鴨","zip_code":"6820834"},{"name":"東鴨新町","zip_code":"6820833"},{"name":"東昭和町","zip_code":"6820804"},{"name":"東仲町","zip_code":"6820826"},{"name":"東町","zip_code":"6820823"},{"name":"広瀬","zip_code":"6820844"},{"name":"広瀬町","zip_code":"6820866"},{"name":"福積","zip_code":"6820644"},{"name":"福富","zip_code":"6820605"},{"name":"福庭","zip_code":"6820013"},{"name":"福庭町","zip_code":"6820018"},{"name":"福光","zip_code":"6820944"},{"name":"福本","zip_code":"6820604"},{"name":"福守町","zip_code":"6820922"},{"name":"福山","zip_code":"6820847"},{"name":"福吉町","zip_code":"6820872"},{"name":"不入岡","zip_code":"6820915"},{"name":"古川沢","zip_code":"6820004"},{"name":"別所","zip_code":"6820905"},{"name":"丸山町","zip_code":"6820852"},{"name":"三江","zip_code":"6820603"},{"name":"みどり町","zip_code":"6820854"},{"name":"湊町","zip_code":"6820882"},{"name":"南昭和町","zip_code":"6820805"},{"name":"耳","zip_code":"6820845"},{"name":"宮川町","zip_code":"6820881"},{"name":"見日町","zip_code":"6820803"},{"name":"明治町","zip_code":"6820887"},{"name":"椋波","zip_code":"6820625"},{"name":"森","zip_code":"6820615"},{"name":"八屋","zip_code":"6820025"},{"name":"山根","zip_code":"6820023"},{"name":"横田","zip_code":"6820946"},{"name":"余戸谷町","zip_code":"6820853"},{"name":"米田町","zip_code":"6820814"},{"name":"和田","zip_code":"6820912"},{"name":"和田東町","zip_code":"6820913"}]},{"name":"境港市","divisions":[{"name":"相生町","zip_code":"6840011"},{"name":"上道町","zip_code":"6840033"},{"name":"朝日町","zip_code":"6840013"},{"name":"栄町","zip_code":"6840006"},{"name":"京町","zip_code":"6840023"},{"name":"幸神町","zip_code":"6840056"},{"name":"小篠津町","zip_code":"6840053"},{"name":"佐斐神町","zip_code":"6840055"},{"name":"財ノ木町","zip_code":"6840054"},{"name":"三軒屋町","zip_code":"6840064"},{"name":"潮見町","zip_code":"6840074"},{"name":"東雲町","zip_code":"6840015"},{"name":"芝町","zip_code":"6840066"},{"name":"清水町","zip_code":"6840001"},{"name":"昭和町","zip_code":"6840034"},{"name":"末広町","zip_code":"6840026"},{"name":"誠道町","zip_code":"6840063"},{"name":"大正町","zip_code":"6840004"},{"name":"高松町","zip_code":"6840045"},{"name":"竹内団地","zip_code":"6840046"},{"name":"竹内町","zip_code":"6840043"},{"name":"外江町","zip_code":"6840071"},{"name":"中海干拓地","zip_code":"6840073"},{"name":"中野町","zip_code":"6840041"},{"name":"中町","zip_code":"6840012"},{"name":"新屋町","zip_code":"6840051"},{"name":"西工業団地","zip_code":"6840075"},{"name":"入船町","zip_code":"6840014"},{"name":"蓮池町","zip_code":"6840062"},{"name":"花町","zip_code":"6840016"},{"name":"馬場崎町","zip_code":"6840021"},{"name":"浜ノ町","zip_code":"6840003"},{"name":"東本町","zip_code":"6840027"},{"name":"日ノ出町","zip_code":"6840024"},{"name":"福定町","zip_code":"6840042"},{"name":"本町","zip_code":"6840025"},{"name":"松ケ枝町","zip_code":"6840005"},{"name":"岬町","zip_code":"6840017"},{"name":"湊町","zip_code":"6840031"},{"name":"美保町","zip_code":"6840044"},{"name":"麦垣町","zip_code":"6840052"},{"name":"明治町","zip_code":"6840022"},{"name":"元町","zip_code":"6840032"},{"name":"森岡町","zip_code":"6840065"},{"name":"弥生町","zip_code":"6840002"},{"name":"夕日ケ丘","zip_code":"6840076"},{"name":"米川町","zip_code":"6840061"},{"name":"渡町","zip_code":"6840072"}]},{"name":"岩美郡岩美町","divisions":[{"name":"相谷","zip_code":"6810002"},{"name":"相山","zip_code":"6810036"},{"name":"網代","zip_code":"6810074"},{"name":"洗井","zip_code":"6810032"},{"name":"荒金","zip_code":"6810055"},{"name":"池谷","zip_code":"6810047"},{"name":"岩井","zip_code":"6810024"},{"name":"岩常","zip_code":"6810052"},{"name":"岩本","zip_code":"6810072"},{"name":"院内","zip_code":"6810054"},{"name":"宇治","zip_code":"6810025"},{"name":"浦富","zip_code":"6810003"},{"name":"延興寺","zip_code":"6810046"},{"name":"大坂","zip_code":"6810043"},{"name":"太田","zip_code":"6810063"},{"name":"大谷","zip_code":"6810073"},{"name":"大羽尾","zip_code":"6810014"},{"name":"小田","zip_code":"6810042"},{"name":"恩志","zip_code":"6810062"},{"name":"蒲生","zip_code":"6810031"},{"name":"唐川","zip_code":"6810045"},{"name":"河崎","zip_code":"6810051"},{"name":"銀山","zip_code":"6810034"},{"name":"陸上","zip_code":"6810011"},{"name":"黒谷","zip_code":"6810041"},{"name":"小羽尾","zip_code":"6810013"},{"name":"白地","zip_code":"6810022"},{"name":"高住","zip_code":"6810053"},{"name":"高山","zip_code":"6810061"},{"name":"田後","zip_code":"6810071"},{"name":"田河内","zip_code":"6810012"},{"name":"長郷","zip_code":"6810056"},{"name":"外邑","zip_code":"6810044"},{"name":"鳥越","zip_code":"6810033"},{"name":"長谷","zip_code":"6810021"},{"name":"新井","zip_code":"6810065"},{"name":"馬場","zip_code":"6810035"},{"name":"本庄","zip_code":"6810064"},{"name":"牧谷","zip_code":"6810001"},{"name":"真名","zip_code":"6810023"}]},{"name":"八頭郡若桜町","divisions":[{"name":"赤松","zip_code":"6800713"},{"name":"浅井","zip_code":"6800722"},{"name":"糸白見","zip_code":"6800743"},{"name":"岩屋堂","zip_code":"6800731"},{"name":"大炊","zip_code":"6800741"},{"name":"大野","zip_code":"6800733"},{"name":"落折","zip_code":"6800735"},{"name":"小船","zip_code":"6800734"},{"name":"岸野","zip_code":"6800742"},{"name":"来見野","zip_code":"6800714"},{"name":"香田","zip_code":"6800723"},{"name":"須澄","zip_code":"6800745"},{"name":"高野","zip_code":"6800712"},{"name":"つく米","zip_code":"6800728"},{"name":"中原","zip_code":"6800732"},{"name":"長砂","zip_code":"6800724"},{"name":"根安","zip_code":"6800744"},{"name":"淵見","zip_code":"6800726"},{"name":"三倉","zip_code":"6800711"},{"name":"茗荷谷","zip_code":"6800727"},{"name":"諸鹿","zip_code":"6800715"},{"name":"屋堂羅","zip_code":"6800721"},{"name":"湯原","zip_code":"6800725"},{"name":"吉川","zip_code":"6800746"},{"name":"若桜","zip_code":"6800701"}]},{"name":"八頭郡智頭町","divisions":[{"name":"芦津","zip_code":"6891412"},{"name":"市瀬","zip_code":"6891401"},{"name":"岩神","zip_code":"6891404"},{"name":"宇波","zip_code":"6891465"},{"name":"大背","zip_code":"6891451"},{"name":"大内","zip_code":"6891421"},{"name":"大屋","zip_code":"6891442"},{"name":"大呂","zip_code":"6891413"},{"name":"奥本","zip_code":"6891452"},{"name":"尾見","zip_code":"6891422"},{"name":"木原","zip_code":"6891436"},{"name":"口宇波","zip_code":"6891464"},{"name":"口波多","zip_code":"6891467"},{"name":"慶所","zip_code":"6891441"},{"name":"毛谷","zip_code":"6891416"},{"name":"河津原","zip_code":"6891454"},{"name":"郷原","zip_code":"6891415"},{"name":"駒帰","zip_code":"6891424"},{"name":"坂原","zip_code":"6891461"},{"name":"篠坂","zip_code":"6891417"},{"name":"惣地","zip_code":"6891468"},{"name":"智頭","zip_code":"6891402"},{"name":"中田","zip_code":"6891462"},{"name":"中原","zip_code":"6891423"},{"name":"新見","zip_code":"6891463"},{"name":"西宇塚","zip_code":"6891455"},{"name":"西谷","zip_code":"6891426"},{"name":"西野","zip_code":"6891414"},{"name":"野原","zip_code":"6891444"},{"name":"波多","zip_code":"6891466"},{"name":"埴師","zip_code":"6891433"},{"name":"早瀬","zip_code":"6891445"},{"name":"東宇塚","zip_code":"6891453"},{"name":"福原","zip_code":"6891425"},{"name":"穂見","zip_code":"6891432"},{"name":"真鹿野","zip_code":"6891443"},{"name":"三田","zip_code":"6891437"},{"name":"南方","zip_code":"6891403"},{"name":"三吉","zip_code":"6891434"},{"name":"八河谷","zip_code":"6891411"},{"name":"山根","zip_code":"6891431"},{"name":"横田","zip_code":"6891435"}]},{"name":"八頭郡八頭町","divisions":[{"name":"明辺","zip_code":"6800302"},{"name":"麻生","zip_code":"6800305"},{"name":"池田","zip_code":"6800452"},{"name":"井古","zip_code":"6800425"},{"name":"石田百井","zip_code":"6800454"},{"name":"市谷","zip_code":"6800442"},{"name":"市場","zip_code":"6800311"},{"name":"稲荷","zip_code":"6800424"},{"name":"岩淵","zip_code":"6800537"},{"name":"延命寺","zip_code":"6800434"},{"name":"大江","zip_code":"6800416"},{"name":"大坪","zip_code":"6800435"},{"name":"奥谷","zip_code":"6800427"},{"name":"奥野","zip_code":"6800543"},{"name":"落岩","zip_code":"6800303"},{"name":"下坂","zip_code":"6800426"},{"name":"皆原","zip_code":"6800533"},{"name":"柿原","zip_code":"6800545"},{"name":"覚王寺","zip_code":"6800312"},{"name":"鍛冶屋","zip_code":"6800534"},{"name":"門尾","zip_code":"6800422"},{"name":"上津黒","zip_code":"6800313"},{"name":"上野","zip_code":"6800401"},{"name":"上峰寺","zip_code":"6800432"},{"name":"北山","zip_code":"6800601"},{"name":"日下部","zip_code":"6800526"},{"name":"国中","zip_code":"6800457"},{"name":"久能寺","zip_code":"6800451"},{"name":"郡家殿","zip_code":"6800443"},{"name":"郡家","zip_code":"6800461"},{"name":"小別府","zip_code":"6800523"},{"name":"才代","zip_code":"6800531"},{"name":"坂田","zip_code":"6800473"},{"name":"桜ヶ丘","zip_code":"6800527"},{"name":"佐崎","zip_code":"6800544"},{"name":"篠波","zip_code":"6800316"},{"name":"塩上","zip_code":"6800413"},{"name":"重枝","zip_code":"6800606"},{"name":"志子部","zip_code":"6800407"},{"name":"志谷","zip_code":"6800612"},{"name":"島","zip_code":"6800605"},{"name":"下門尾","zip_code":"6800421"},{"name":"下津黒","zip_code":"6800314"},{"name":"下野","zip_code":"6800415"},{"name":"下濃","zip_code":"6800472"},{"name":"下峰寺","zip_code":"6800431"},{"name":"新興寺","zip_code":"6800522"},{"name":"清徳","zip_code":"6800541"},{"name":"大門","zip_code":"6800445"},{"name":"徳丸","zip_code":"6800607"},{"name":"富枝","zip_code":"6800611"},{"name":"中","zip_code":"6800614"},{"name":"西谷","zip_code":"6800408"},{"name":"西御門","zip_code":"6800441"},{"name":"野町","zip_code":"6800306"},{"name":"橋本","zip_code":"6800414"},{"name":"土師百井","zip_code":"6800455"},{"name":"花","zip_code":"6800444"},{"name":"花原","zip_code":"6800437"},{"name":"隼福","zip_code":"6800402"},{"name":"隼郡家","zip_code":"6800405"},{"name":"稗谷","zip_code":"6800613"},{"name":"東","zip_code":"6800532"},{"name":"日田","zip_code":"6800603"},{"name":"姫路","zip_code":"6800301"},{"name":"福井","zip_code":"6800403"},{"name":"福地","zip_code":"6800307"},{"name":"福本","zip_code":"6800462"},{"name":"船岡","zip_code":"6800471"},{"name":"船岡殿","zip_code":"6800411"},{"name":"別府","zip_code":"6800315"},{"name":"堀越","zip_code":"6800423"},{"name":"万代寺","zip_code":"6800453"},{"name":"三浦","zip_code":"6800536"},{"name":"見槻","zip_code":"6800406"},{"name":"見槻中","zip_code":"6800404"},{"name":"水口","zip_code":"6800412"},{"name":"南","zip_code":"6800604"},{"name":"宮谷","zip_code":"6800463"},{"name":"三山口","zip_code":"6800535"},{"name":"茂田","zip_code":"6800524"},{"name":"茂谷","zip_code":"6800542"},{"name":"安井宿","zip_code":"6800521"},{"name":"山路","zip_code":"6800436"},{"name":"山志谷","zip_code":"6800304"},{"name":"山田","zip_code":"6800438"},{"name":"山上","zip_code":"6800433"},{"name":"用呂","zip_code":"6800602"},{"name":"横田","zip_code":"6800525"},{"name":"米岡","zip_code":"6800456"},{"name":"破岩","zip_code":"6800474"}]},{"name":"東伯郡三朝町","divisions":[{"name":"赤松","zip_code":"6820172"},{"name":"穴鴨","zip_code":"6820303"},{"name":"今泉","zip_code":"6820151"},{"name":"大柿","zip_code":"6820177"},{"name":"大瀬","zip_code":"6820121"},{"name":"大谷","zip_code":"6820315"},{"name":"小河内","zip_code":"6820157"},{"name":"恩地","zip_code":"6820173"},{"name":"柿谷","zip_code":"6820161"},{"name":"片柴","zip_code":"6820135"},{"name":"加谷","zip_code":"6820302"},{"name":"鎌田","zip_code":"6820154"},{"name":"上西谷","zip_code":"6820313"},{"name":"神倉","zip_code":"6820142"},{"name":"木地山","zip_code":"6820301"},{"name":"久原","zip_code":"6820375"},{"name":"恋谷","zip_code":"6820123"},{"name":"坂本","zip_code":"6820136"},{"name":"桜ケ丘","zip_code":"6820133"},{"name":"下谷","zip_code":"6820156"},{"name":"下西谷","zip_code":"6820312"},{"name":"下畑","zip_code":"6820316"},{"name":"助谷","zip_code":"6820176"},{"name":"砂原","zip_code":"6820124"},{"name":"曹源寺","zip_code":"6820374"},{"name":"高橋","zip_code":"6820146"},{"name":"田代","zip_code":"6820314"},{"name":"俵原","zip_code":"6820131"},{"name":"笏賀","zip_code":"6820158"},{"name":"天神","zip_code":"6820153"},{"name":"徳本","zip_code":"6820125"},{"name":"中津","zip_code":"6820141"},{"name":"鉛山","zip_code":"6820162"},{"name":"西尾","zip_code":"6820145"},{"name":"西小鹿","zip_code":"6820144"},{"name":"東小鹿","zip_code":"6820143"},{"name":"福田","zip_code":"6820159"},{"name":"福本","zip_code":"6820317"},{"name":"福山","zip_code":"6820311"},{"name":"福吉","zip_code":"6820163"},{"name":"牧","zip_code":"6820178"},{"name":"三朝","zip_code":"6820123"},{"name":"三徳","zip_code":"6820132"},{"name":"本泉","zip_code":"6820152"},{"name":"森","zip_code":"6820153"},{"name":"山田","zip_code":"6820122"},{"name":"湯谷","zip_code":"6820171"},{"name":"横手","zip_code":"6820125"},{"name":"吉尾","zip_code":"6820155"},{"name":"吉田","zip_code":"6820133"},{"name":"余戸","zip_code":"6820134"},{"name":"若宮","zip_code":"6820151"}]},{"name":"東伯郡湯梨浜町","divisions":[{"name":"赤池","zip_code":"6820714"},{"name":"麻畑","zip_code":"6890721"},{"name":"旭","zip_code":"6890713"},{"name":"石脇","zip_code":"6890602"},{"name":"羽衣石","zip_code":"6890733"},{"name":"宇谷","zip_code":"6890607"},{"name":"宇野","zip_code":"6820701"},{"name":"漆原","zip_code":"6890702"},{"name":"小鹿谷","zip_code":"6890729"},{"name":"方面","zip_code":"6890724"},{"name":"門田","zip_code":"6890736"},{"name":"上浅津","zip_code":"6820712"},{"name":"上橋津","zip_code":"6820703"},{"name":"川上","zip_code":"6890722"},{"name":"北福","zip_code":"6890701"},{"name":"国信","zip_code":"6890726"},{"name":"小浜","zip_code":"6890603"},{"name":"佐美","zip_code":"6890735"},{"name":"下浅津","zip_code":"6820711"},{"name":"白石","zip_code":"6890704"},{"name":"園","zip_code":"6890605"},{"name":"高辻","zip_code":"6890723"},{"name":"田後","zip_code":"6820721"},{"name":"田畑","zip_code":"6890727"},{"name":"中興寺","zip_code":"6890712"},{"name":"筒地","zip_code":"6890604"},{"name":"泊","zip_code":"6890601"},{"name":"長江","zip_code":"6890737"},{"name":"長和田","zip_code":"6890732"},{"name":"野方","zip_code":"6890705"},{"name":"野花","zip_code":"6890731"},{"name":"橋津","zip_code":"6820702"},{"name":"埴見","zip_code":"6890734"},{"name":"原","zip_code":"6890606"},{"name":"はわい温泉","zip_code":"6820715"},{"name":"はわい長瀬","zip_code":"6820722"},{"name":"引地","zip_code":"6890715"},{"name":"久留","zip_code":"6820723"},{"name":"久見","zip_code":"6890728"},{"name":"藤津","zip_code":"6890706"},{"name":"別所","zip_code":"6890725"},{"name":"方地","zip_code":"6890703"},{"name":"松崎","zip_code":"6890711"},{"name":"水下","zip_code":"6820724"},{"name":"光吉","zip_code":"6820713"},{"name":"南谷","zip_code":"6820704"},{"name":"宮内","zip_code":"6890707"},{"name":"龍島","zip_code":"6890714"}]},{"name":"東伯郡琴浦町","divisions":[{"name":"赤碕","zip_code":"6892501"},{"name":"出上","zip_code":"6892511"},{"name":"梅田","zip_code":"6892543"},{"name":"浦安","zip_code":"6892352"},{"name":"大杉","zip_code":"6892344"},{"name":"逢束","zip_code":"6892304"},{"name":"大父","zip_code":"6892524"},{"name":"尾張","zip_code":"6892535"},{"name":"笠見","zip_code":"6892306"},{"name":"勝田","zip_code":"6892512"},{"name":"金屋","zip_code":"6892312"},{"name":"上伊勢","zip_code":"6892315"},{"name":"公文","zip_code":"6892342"},{"name":"倉坂","zip_code":"6892341"},{"name":"釛","zip_code":"6892355"},{"name":"佐崎","zip_code":"6892531"},{"name":"三本杉","zip_code":"6892334"},{"name":"下伊勢","zip_code":"6892316"},{"name":"下大江","zip_code":"6892314"},{"name":"杉地","zip_code":"6892331"},{"name":"杉下","zip_code":"6892313"},{"name":"太一垣","zip_code":"6892532"},{"name":"高岡","zip_code":"6892523"},{"name":"竹内","zip_code":"6892521"},{"name":"田越","zip_code":"6892356"},{"name":"槻下","zip_code":"6892305"},{"name":"徳万","zip_code":"6892303"},{"name":"中尾","zip_code":"6892311"},{"name":"中津原","zip_code":"6892335"},{"name":"中村","zip_code":"6892533"},{"name":"西宮","zip_code":"6892513"},{"name":"野井倉","zip_code":"6892336"},{"name":"野田","zip_code":"6892346"},{"name":"箆津","zip_code":"6892544"},{"name":"八反田","zip_code":"6892322"},{"name":"福永","zip_code":"6892345"},{"name":"古長","zip_code":"6892332"},{"name":"別所","zip_code":"6892502"},{"name":"別宮","zip_code":"6892333"},{"name":"保","zip_code":"6892351"},{"name":"法万","zip_code":"6892325"},{"name":"松谷","zip_code":"6892503"},{"name":"丸尾","zip_code":"6892302"},{"name":"光","zip_code":"6892534"},{"name":"光好","zip_code":"6892326"},{"name":"三保","zip_code":"6892353"},{"name":"宮木","zip_code":"6892522"},{"name":"宮場","zip_code":"6892323"},{"name":"美好","zip_code":"6892354"},{"name":"森藤","zip_code":"6892321"},{"name":"矢下","zip_code":"6892324"},{"name":"八橋","zip_code":"6892301"},{"name":"山川","zip_code":"6892525"},{"name":"山田","zip_code":"6892343"},{"name":"八幡","zip_code":"6892541"},{"name":"湯坂","zip_code":"6892542"}]},{"name":"東伯郡北栄町","divisions":[{"name":"岩坪","zip_code":"6892216"},{"name":"江北","zip_code":"6892101"},{"name":"大島","zip_code":"6892206"},{"name":"大谷","zip_code":"6892223"},{"name":"上種","zip_code":"6892213"},{"name":"亀谷","zip_code":"6892211"},{"name":"北尾","zip_code":"6892114"},{"name":"国坂","zip_code":"6892102"},{"name":"下種","zip_code":"6892212"},{"name":"下神","zip_code":"6892105"},{"name":"瀬戸","zip_code":"6892205"},{"name":"田井","zip_code":"6892103"},{"name":"妻波","zip_code":"6892224"},{"name":"西園","zip_code":"6892201"},{"name":"西高尾","zip_code":"6892215"},{"name":"西穂波","zip_code":"6892207"},{"name":"土下","zip_code":"6892111"},{"name":"原","zip_code":"6892203"},{"name":"東園","zip_code":"6892202"},{"name":"東高尾","zip_code":"6892214"},{"name":"北条島","zip_code":"6892112"},{"name":"穂波","zip_code":"6892204"},{"name":"曲","zip_code":"6892115"},{"name":"松神","zip_code":"6892106"},{"name":"六尾","zip_code":"6892208"},{"name":"弓原","zip_code":"6892104"},{"name":"由良宿","zip_code":"6892221"},{"name":"米里","zip_code":"6892113"}]},{"name":"西伯郡日吉津村","divisions":[{"name":"今吉","zip_code":"6893551"},{"name":"富吉","zip_code":"6893552"},{"name":"日吉津","zip_code":"6893553"}]},{"name":"西伯郡大山町","divisions":[{"name":"赤坂","zip_code":"6893111"},{"name":"赤松","zip_code":"6893319"},{"name":"稲光","zip_code":"6893334"},{"name":"今在家","zip_code":"6893314"},{"name":"石井垣","zip_code":"6893102"},{"name":"上野","zip_code":"6893302"},{"name":"上市","zip_code":"6893124"},{"name":"大塚","zip_code":"6893226"},{"name":"岡","zip_code":"6893121"},{"name":"押平","zip_code":"6893225"},{"name":"加茂","zip_code":"6893214"},{"name":"神原","zip_code":"6893305"},{"name":"清原","zip_code":"6893308"},{"name":"国信","zip_code":"6893309"},{"name":"倉谷","zip_code":"6893202"},{"name":"小竹","zip_code":"6893203"},{"name":"古御堂","zip_code":"6893222"},{"name":"栄田","zip_code":"6893115"},{"name":"佐摩","zip_code":"6893313"},{"name":"塩津","zip_code":"6893122"},{"name":"下市","zip_code":"6893125"},{"name":"下甲","zip_code":"6893112"},{"name":"荘田","zip_code":"6893323"},{"name":"上万","zip_code":"6893335"},{"name":"末長","zip_code":"6893332"},{"name":"末吉","zip_code":"6893331"},{"name":"住吉","zip_code":"6893123"},{"name":"退休寺","zip_code":"6893133"},{"name":"大山","zip_code":"6893318"},{"name":"高田","zip_code":"6893224"},{"name":"高橋","zip_code":"6893134"},{"name":"鈑戸","zip_code":"6893317"},{"name":"田中","zip_code":"6893114"},{"name":"茶畑","zip_code":"6893223"},{"name":"潮音寺","zip_code":"6893101"},{"name":"束積","zip_code":"6893105"},{"name":"唐王","zip_code":"6893333"},{"name":"所子","zip_code":"6893303"},{"name":"殿河内","zip_code":"6893135"},{"name":"富岡","zip_code":"6893325"},{"name":"富長","zip_code":"6893221"},{"name":"豊成","zip_code":"6893201"},{"name":"豊房","zip_code":"6893316"},{"name":"長田","zip_code":"6893322"},{"name":"中高","zip_code":"6893306"},{"name":"長野","zip_code":"6893136"},{"name":"名和","zip_code":"6893212"},{"name":"西坪","zip_code":"6893205"},{"name":"野田","zip_code":"6893307"},{"name":"羽田井","zip_code":"6893106"},{"name":"東坪","zip_code":"6893204"},{"name":"樋口","zip_code":"6893103"},{"name":"平","zip_code":"6893321"},{"name":"平木","zip_code":"6893304"},{"name":"平田","zip_code":"6893336"},{"name":"福尾","zip_code":"6893301"},{"name":"坊領","zip_code":"6893312"},{"name":"前","zip_code":"6893315"},{"name":"松河原","zip_code":"6893132"},{"name":"御来屋","zip_code":"6893211"},{"name":"御崎","zip_code":"6893113"},{"name":"宮内","zip_code":"6893311"},{"name":"妻木","zip_code":"6893324"},{"name":"門前","zip_code":"6893213"},{"name":"八重","zip_code":"6893104"},{"name":"保田","zip_code":"6893327"},{"name":"安原","zip_code":"6893326"}]},{"name":"西伯郡南部町","divisions":[{"name":"阿賀","zip_code":"6830322"},{"name":"浅井","zip_code":"6830227"},{"name":"朝金","zip_code":"6830216"},{"name":"池野","zip_code":"6830218"},{"name":"市山","zip_code":"6830222"},{"name":"井上","zip_code":"6830223"},{"name":"猪小路","zip_code":"6830367"},{"name":"大木屋","zip_code":"6830345"},{"name":"荻名","zip_code":"6830215"},{"name":"落合","zip_code":"6830337"},{"name":"掛相","zip_code":"6830331"},{"name":"金田","zip_code":"6830224"},{"name":"上中谷","zip_code":"6830344"},{"name":"鴨部","zip_code":"6830341"},{"name":"北方","zip_code":"6830361"},{"name":"絹屋","zip_code":"6830364"},{"name":"伐株","zip_code":"6830356"},{"name":"境","zip_code":"6830311"},{"name":"清水川","zip_code":"6830321"},{"name":"下中谷","zip_code":"6830343"},{"name":"高姫","zip_code":"6830226"},{"name":"武信","zip_code":"6830354"},{"name":"田住","zip_code":"6830214"},{"name":"鶴田","zip_code":"6830217"},{"name":"寺内","zip_code":"6830202"},{"name":"天万","zip_code":"6830201"},{"name":"道河内","zip_code":"6830355"},{"name":"東上","zip_code":"6830334"},{"name":"徳長","zip_code":"6830353"},{"name":"中","zip_code":"6830335"},{"name":"鍋倉","zip_code":"6830365"},{"name":"西","zip_code":"6830363"},{"name":"西原","zip_code":"6830213"},{"name":"西町","zip_code":"6830302"},{"name":"能竹","zip_code":"6830342"},{"name":"馬佐良","zip_code":"6830332"},{"name":"馬場","zip_code":"6830352"},{"name":"原","zip_code":"6830362"},{"name":"東町","zip_code":"6830301"},{"name":"福里","zip_code":"6830204"},{"name":"福成","zip_code":"6830312"},{"name":"福頼","zip_code":"6830336"},{"name":"法勝寺","zip_code":"6830351"},{"name":"円山","zip_code":"6830211"},{"name":"御内谷","zip_code":"6830225"},{"name":"三崎","zip_code":"6830203"},{"name":"宮前","zip_code":"6830221"},{"name":"諸木","zip_code":"6830212"},{"name":"八金","zip_code":"6830333"},{"name":"倭","zip_code":"6830323"},{"name":"与一谷","zip_code":"6830366"}]},{"name":"西伯郡伯耆町","divisions":[{"name":"岩立","zip_code":"6894214"},{"name":"岩屋谷","zip_code":"6894123"},{"name":"上野","zip_code":"6894212"},{"name":"宇代","zip_code":"6894207"},{"name":"遠藤","zip_code":"6894134"},{"name":"大内","zip_code":"6894215"},{"name":"大江","zip_code":"6894211"},{"name":"大倉","zip_code":"6894205"},{"name":"大坂","zip_code":"6894226"},{"name":"大滝","zip_code":"6894222"},{"name":"大殿","zip_code":"6894121"},{"name":"大原","zip_code":"6894102"},{"name":"押口","zip_code":"6894135"},{"name":"小野","zip_code":"6894113"},{"name":"金屋谷","zip_code":"6894213"},{"name":"上細見","zip_code":"6894112"},{"name":"岸本","zip_code":"6894132"},{"name":"貴住","zip_code":"6894203"},{"name":"清原","zip_code":"6894111"},{"name":"久古","zip_code":"6894105"},{"name":"口別所","zip_code":"6894106"},{"name":"小林","zip_code":"6894101"},{"name":"小町","zip_code":"6894115"},{"name":"坂長","zip_code":"6894122"},{"name":"三部","zip_code":"6894246"},{"name":"荘","zip_code":"6894243"},{"name":"白水","zip_code":"6894225"},{"name":"須村","zip_code":"6894107"},{"name":"添谷","zip_code":"6894217"},{"name":"立岩","zip_code":"6894114"},{"name":"谷川","zip_code":"6894204"},{"name":"父原","zip_code":"6894244"},{"name":"栃原","zip_code":"6894223"},{"name":"富江","zip_code":"6894221"},{"name":"中祖","zip_code":"6894241"},{"name":"長山","zip_code":"6894202"},{"name":"二部","zip_code":"6894233"},{"name":"根雨原","zip_code":"6894224"},{"name":"畑池","zip_code":"6894234"},{"name":"番原","zip_code":"6894104"},{"name":"福居","zip_code":"6894237"},{"name":"福岡","zip_code":"6894235"},{"name":"福岡原","zip_code":"6894136"},{"name":"福兼","zip_code":"6894216"},{"name":"福島","zip_code":"6894232"},{"name":"福吉","zip_code":"6894245"},{"name":"船越","zip_code":"6894231"},{"name":"古市","zip_code":"6894242"},{"name":"真野","zip_code":"6894103"},{"name":"丸山","zip_code":"6894108"},{"name":"溝口","zip_code":"6894201"},{"name":"宮原","zip_code":"6894206"},{"name":"焼杉","zip_code":"6894236"},{"name":"吉定","zip_code":"6894131"},{"name":"吉長","zip_code":"6894133"}]},{"name":"日野郡日南町","divisions":[{"name":"阿毘縁","zip_code":"6895551"},{"name":"印賀","zip_code":"6895531"},{"name":"折渡","zip_code":"6895534"},{"name":"笠木","zip_code":"6895543"},{"name":"霞","zip_code":"6895212"},{"name":"神戸上","zip_code":"6895662"},{"name":"上石見","zip_code":"6895663"},{"name":"上萩山","zip_code":"6895223"},{"name":"神福","zip_code":"6895672"},{"name":"河上","zip_code":"6895221"},{"name":"佐木谷","zip_code":"6895541"},{"name":"下阿毘縁","zip_code":"6895552"},{"name":"下石見","zip_code":"6895665"},{"name":"生山","zip_code":"6895211"},{"name":"菅沢","zip_code":"6895532"},{"name":"宝谷","zip_code":"6895533"},{"name":"多里","zip_code":"6895224"},{"name":"茶屋","zip_code":"6895544"},{"name":"豊栄","zip_code":"6895673"},{"name":"中石見","zip_code":"6895664"},{"name":"新屋","zip_code":"6895225"},{"name":"萩原","zip_code":"6895222"},{"name":"花口","zip_code":"6895661"},{"name":"福寿実","zip_code":"6895545"},{"name":"福塚","zip_code":"6895671"},{"name":"福万来","zip_code":"6895542"},{"name":"丸山","zip_code":"6895213"},{"name":"三栄","zip_code":"6895214"},{"name":"宮内","zip_code":"6895216"},{"name":"三吉","zip_code":"6895666"},{"name":"矢戸","zip_code":"6895215"},{"name":"湯河","zip_code":"6895226"}]},{"name":"日野郡日野町","divisions":[{"name":"秋縄","zip_code":"6894515"},{"name":"板井原","zip_code":"6894513"},{"name":"榎市","zip_code":"6894523"},{"name":"小河内","zip_code":"6895136"},{"name":"貝原","zip_code":"6894501"},{"name":"門谷","zip_code":"6894516"},{"name":"上菅","zip_code":"6895137"},{"name":"金持","zip_code":"6894512"},{"name":"久住","zip_code":"6895132"},{"name":"黒坂","zip_code":"6895131"},{"name":"高尾","zip_code":"6894511"},{"name":"小原","zip_code":"6894525"},{"name":"下榎","zip_code":"6894526"},{"name":"下黒坂","zip_code":"6895133"},{"name":"下菅","zip_code":"6895134"},{"name":"津地","zip_code":"6894521"},{"name":"中菅","zip_code":"6895135"},{"name":"濁谷","zip_code":"6894517"},{"name":"根雨","zip_code":"6894503"},{"name":"野田","zip_code":"6894504"},{"name":"福長","zip_code":"6895137"},{"name":"舟場","zip_code":"6894505"},{"name":"別所","zip_code":"6894524"},{"name":"本郷","zip_code":"6894522"},{"name":"三谷","zip_code":"6894502"},{"name":"三土","zip_code":"6894514"},{"name":"安原","zip_code":"6894527"}]},{"name":"日野郡江府町","divisions":[{"name":"江尾","zip_code":"6894401"},{"name":"大河原","zip_code":"6894434"},{"name":"貝田","zip_code":"6894435"},{"name":"柿原","zip_code":"6894432"},{"name":"久連","zip_code":"6894403"},{"name":"小江尾","zip_code":"6894402"},{"name":"下蚊屋","zip_code":"6894425"},{"name":"佐川","zip_code":"6894431"},{"name":"下安井","zip_code":"6894412"},{"name":"洲河崎","zip_code":"6894413"},{"name":"杉谷","zip_code":"6894422"},{"name":"助沢","zip_code":"6894426"},{"name":"俣野","zip_code":"6894414"},{"name":"御机","zip_code":"6894424"},{"name":"宮市","zip_code":"6894421"},{"name":"美用","zip_code":"6894423"},{"name":"武庫","zip_code":"6894411"},{"name":"吉原","zip_code":"6894433"}]}]}