{"name":"島根県","cities":[{"name":"松江市","divisions":[{"name":"秋鹿町","zip_code":"6900261"},{"name":"青葉台","zip_code":"6900022"},{"name":"上乃木","zip_code":"6900015"},{"name":"朝酌町","zip_code":"6900834"},{"name":"朝日町","zip_code":"6900003"},{"name":"意宇町","zip_code":"6900027"},{"name":"石橋町","zip_code":"6900881"},{"name":"伊勢宮町","zip_code":"6900006"},{"name":"一の谷町","zip_code":"6900034"},{"name":"魚町","zip_code":"6900062"},{"name":"うぐいす台","zip_code":"6900869"},{"name":"打出町","zip_code":"6900131"},{"name":"内中原町","zip_code":"6900873"},{"name":"邑生町","zip_code":"6901115"},{"name":"大井町","zip_code":"6900832"},{"name":"大垣町","zip_code":"6900263"},{"name":"大草町","zip_code":"6900032"},{"name":"大野町","zip_code":"6900264"},{"name":"大庭町","zip_code":"6900033"},{"name":"大海崎町","zip_code":"6900831"},{"name":"岡本町","zip_code":"6900262"},{"name":"奥谷町","zip_code":"6900872"},{"name":"御手船場町","zip_code":"6900007"},{"name":"魚瀬町","zip_code":"6900266"},{"name":"苧町","zip_code":"6900848"},{"name":"学園","zip_code":"6900825"},{"name":"学園南","zip_code":"6900826"},{"name":"鹿島町恵曇","zip_code":"6900322"},{"name":"鹿島町片句","zip_code":"6900324"},{"name":"鹿島町上講武","zip_code":"6900801"},{"name":"鹿島町北講武","zip_code":"6900804"},{"name":"鹿島町古浦","zip_code":"6900333"},{"name":"鹿島町佐陀本郷","zip_code":"6900332"},{"name":"鹿島町佐陀宮内","zip_code":"6900331"},{"name":"鹿島町武代","zip_code":"6900321"},{"name":"鹿島町手結","zip_code":"6900323"},{"name":"鹿島町御津","zip_code":"6900411"},{"name":"鹿島町南講武","zip_code":"6900802"},{"name":"鹿島町名分","zip_code":"6900803"},{"name":"春日町","zip_code":"6900877"},{"name":"片原町","zip_code":"6900847"},{"name":"上宇部尾町","zip_code":"6901104"},{"name":"上大野町","zip_code":"6900265"},{"name":"上佐陀町","zip_code":"6900867"},{"name":"上東川津町","zip_code":"6900821"},{"name":"上本庄町","zip_code":"6901102"},{"name":"川原町","zip_code":"6900812"},{"name":"北田町","zip_code":"6900883"},{"name":"北堀町","zip_code":"6900888"},{"name":"国屋町","zip_code":"6900859"},{"name":"黒田町","zip_code":"6900876"},{"name":"古志町","zip_code":"6900121"},{"name":"古志原","zip_code":"6900012"},{"name":"古志原町","zip_code":"6900013"},{"name":"古曽志町","zip_code":"6900151"},{"name":"薦津町","zip_code":"6900856"},{"name":"雑賀町","zip_code":"6900056"},{"name":"幸町","zip_code":"6900041"},{"name":"栄町","zip_code":"6900042"},{"name":"坂本町","zip_code":"6900813"},{"name":"佐草町","zip_code":"6900035"},{"name":"島根町大芦","zip_code":"6900402"},{"name":"島根町加賀","zip_code":"6900401"},{"name":"島根町多古","zip_code":"6901213"},{"name":"島根町野井","zip_code":"6901211"},{"name":"島根町野波","zip_code":"6901212"},{"name":"下佐陀町","zip_code":"6900866"},{"name":"下東川津町","zip_code":"6900822"},{"name":"荘成町","zip_code":"6900141"},{"name":"淞北台","zip_code":"6900868"},{"name":"白潟本町","zip_code":"6900061"},{"name":"新雑賀町","zip_code":"6900054"},{"name":"宍道町伊志見","zip_code":"6990407"},{"name":"宍道町上来待","zip_code":"6990405"},{"name":"宍道町佐々布","zip_code":"6990406"},{"name":"宍道町昭和","zip_code":"6990408"},{"name":"宍道町宍道","zip_code":"6990401"},{"name":"宍道町西来待","zip_code":"6990403"},{"name":"宍道町白石","zip_code":"6990402"},{"name":"宍道町東来待","zip_code":"6990404"},{"name":"新庄町","zip_code":"6901103"},{"name":"新町","zip_code":"6900057"},{"name":"末次町","zip_code":"6900846"},{"name":"末次本町","zip_code":"6900843"},{"name":"菅田町","zip_code":"6900824"},{"name":"砂子町","zip_code":"6900878"},{"name":"袖師町","zip_code":"6900049"},{"name":"外中原町","zip_code":"6900875"},{"name":"大正町","zip_code":"6900002"},{"name":"大輪町","zip_code":"6900882"},{"name":"手角町","zip_code":"6901113"},{"name":"竪町","zip_code":"6900052"},{"name":"玉湯町大谷","zip_code":"6990205"},{"name":"玉湯町玉造","zip_code":"6990201"},{"name":"玉湯町林","zip_code":"6990204"},{"name":"玉湯町布志名","zip_code":"6990203"},{"name":"玉湯町湯町","zip_code":"6990202"},{"name":"田和山町","zip_code":"6900058"},{"name":"竹矢町","zip_code":"6900023"},{"name":"千鳥町","zip_code":"6900852"},{"name":"津田町","zip_code":"6900055"},{"name":"寺町","zip_code":"6900063"},{"name":"天神町","zip_code":"6900064"},{"name":"堂形町","zip_code":"6900851"},{"name":"殿町","zip_code":"6900887"},{"name":"中原町","zip_code":"6900874"},{"name":"長海町","zip_code":"6901112"},{"name":"灘町","zip_code":"6900065"},{"name":"南平台","zip_code":"6900854"},{"name":"西生馬町","zip_code":"6900865"},{"name":"西忌部町","zip_code":"6900037"},{"name":"西尾町","zip_code":"6900835"},{"name":"西川津町","zip_code":"6900823"},{"name":"西谷町","zip_code":"6900142"},{"name":"西茶町","zip_code":"6900845"},{"name":"西津田","zip_code":"6900017"},{"name":"西長江町","zip_code":"6900132"},{"name":"西浜佐陀町","zip_code":"6900122"},{"name":"西法吉町","zip_code":"6900860"},{"name":"西持田町","zip_code":"6900815"},{"name":"西嫁島","zip_code":"6900048"},{"name":"乃木福富町","zip_code":"6900046"},{"name":"乃白町","zip_code":"6900045"},{"name":"野原町","zip_code":"6901114"},{"name":"八軒屋町","zip_code":"6900004"},{"name":"浜佐田町","zip_code":"6900855"},{"name":"浜乃木","zip_code":"6900044"},{"name":"東朝日町","zip_code":"6900001"},{"name":"東生馬町","zip_code":"6900864"},{"name":"東出雲町出雲郷","zip_code":"6990108"},{"name":"東出雲町意宇南","zip_code":"6990111"},{"name":"東出雲町意宇東","zip_code":"6990112"},{"name":"東出雲町今宮","zip_code":"6990107"},{"name":"東出雲町揖屋","zip_code":"6990101"},{"name":"東出雲町内馬","zip_code":"6990105"},{"name":"東出雲町春日","zip_code":"6990106"},{"name":"東出雲町上意東","zip_code":"6990103"},{"name":"東出雲町下意東","zip_code":"6990102"},{"name":"東出雲町須田","zip_code":"6990104"},{"name":"東出雲町錦新町","zip_code":"6990110"},{"name":"東出雲町錦浜","zip_code":"6990109"},{"name":"東忌部町","zip_code":"6900036"},{"name":"東奥谷町","zip_code":"6900871"},{"name":"東茶町","zip_code":"6900844"},{"name":"東津田町","zip_code":"6900011"},{"name":"東長江町","zip_code":"6900133"},{"name":"東本町","zip_code":"6900842"},{"name":"東持田町","zip_code":"6900814"},{"name":"比津が丘","zip_code":"6900862"},{"name":"比津町","zip_code":"6900863"},{"name":"福富町","zip_code":"6900833"},{"name":"福原町","zip_code":"6900811"},{"name":"富士見町","zip_code":"6900026"},{"name":"平成町","zip_code":"6900038"},{"name":"北陵町","zip_code":"6900816"},{"name":"法吉町","zip_code":"6900861"},{"name":"母衣町","zip_code":"6900886"},{"name":"本郷町","zip_code":"6900053"},{"name":"本庄町","zip_code":"6901101"},{"name":"馬潟町","zip_code":"6900024"},{"name":"枕木町","zip_code":"6901111"},{"name":"松尾町","zip_code":"6900043"},{"name":"南田町","zip_code":"6900884"},{"name":"美保関町笠浦","zip_code":"6901223"},{"name":"美保関町片江","zip_code":"6901315"},{"name":"美保関町北浦","zip_code":"6901221"},{"name":"美保関町雲津","zip_code":"6901502"},{"name":"美保関町七類","zip_code":"6901311"},{"name":"美保関町下宇部尾","zip_code":"6901313"},{"name":"美保関町菅浦","zip_code":"6901314"},{"name":"美保関町千酌","zip_code":"6901222"},{"name":"美保関町福浦","zip_code":"6901504"},{"name":"美保関町美保関","zip_code":"6901501"},{"name":"美保関町森山","zip_code":"6901505"},{"name":"美保関町諸喰","zip_code":"6901503"},{"name":"向島町","zip_code":"6900841"},{"name":"八雲台","zip_code":"6900014"},{"name":"八雲町熊野","zip_code":"6902104"},{"name":"八雲町西岩坂","zip_code":"6902103"},{"name":"八雲町東岩坂","zip_code":"6902102"},{"name":"八雲町日吉","zip_code":"6902101"},{"name":"八雲町平原","zip_code":"6902105"},{"name":"矢田町","zip_code":"6900021"},{"name":"八束町江島","zip_code":"6901401"},{"name":"八束町遅江","zip_code":"6901403"},{"name":"八束町亀尻","zip_code":"6901408"},{"name":"八束町寺津","zip_code":"6901407"},{"name":"八束町入江","zip_code":"6901405"},{"name":"八束町波入","zip_code":"6901404"},{"name":"八束町二子","zip_code":"6901406"},{"name":"八束町馬渡","zip_code":"6901402"},{"name":"山代町","zip_code":"6900031"},{"name":"八幡町","zip_code":"6900025"},{"name":"横浜町","zip_code":"6900051"},{"name":"米子町","zip_code":"6900885"},{"name":"嫁島町","zip_code":"6900047"},{"name":"和多見町","zip_code":"6900005"}]},{"name":"浜田市","divisions":[{"name":"相生町","zip_code":"6970034"},{"name":"浅井町","zip_code":"6970022"},{"name":"旭町市木","zip_code":"6970514"},{"name":"旭町今市","zip_code":"6970425"},{"name":"旭町木田","zip_code":"6970427"},{"name":"旭町来尾","zip_code":"6970512"},{"name":"旭町坂本","zip_code":"6970513"},{"name":"旭町重富","zip_code":"6970423"},{"name":"旭町都川","zip_code":"6970511"},{"name":"旭町本郷","zip_code":"6970422"},{"name":"旭町丸原","zip_code":"6970426"},{"name":"旭町山ノ内","zip_code":"6970421"},{"name":"旭町和田","zip_code":"6970424"},{"name":"朝日町","zip_code":"6970033"},{"name":"熱田町","zip_code":"6970062"},{"name":"櫟田原町","zip_code":"6971334"},{"name":"井野町","zip_code":"6971335"},{"name":"牛市町","zip_code":"6970032"},{"name":"後野町","zip_code":"6970011"},{"name":"内田町","zip_code":"6970064"},{"name":"宇津井町","zip_code":"6970312"},{"name":"宇野町","zip_code":"6950102"},{"name":"生湯町","zip_code":"6970002"},{"name":"蛭子町","zip_code":"6970044"},{"name":"大金町","zip_code":"6950103"},{"name":"大辻町","zip_code":"6970053"},{"name":"折居町","zip_code":"6971338"},{"name":"笠柄町","zip_code":"6970061"},{"name":"片庭町","zip_code":"6970041"},{"name":"金城町今福","zip_code":"6970302"},{"name":"金城町入野","zip_code":"6970305"},{"name":"金城町宇津井","zip_code":"6970304"},{"name":"金城町追原","zip_code":"6970301"},{"name":"金城町小国","zip_code":"6970213"},{"name":"金城町上来原","zip_code":"6970122"},{"name":"金城町久佐","zip_code":"6970303"},{"name":"金城町七条","zip_code":"6970123"},{"name":"金城町下来原","zip_code":"6970121"},{"name":"金城町長田","zip_code":"6970212"},{"name":"金城町波佐","zip_code":"6970211"},{"name":"上府町","zip_code":"6970005"},{"name":"京町","zip_code":"6970045"},{"name":"久代町","zip_code":"6970004"},{"name":"黒川町","zip_code":"6970024"},{"name":"高佐町","zip_code":"6970007"},{"name":"河内町","zip_code":"6970012"},{"name":"国分町","zip_code":"6970003"},{"name":"紺屋町","zip_code":"6970031"},{"name":"栄町","zip_code":"6970043"},{"name":"佐野町","zip_code":"6970311"},{"name":"三階町","zip_code":"6970013"},{"name":"清水町","zip_code":"6970047"},{"name":"下有福町","zip_code":"6950101"},{"name":"下府町","zip_code":"6970006"},{"name":"真光町","zip_code":"6970046"},{"name":"新町","zip_code":"6970037"},{"name":"杉戸町","zip_code":"6970035"},{"name":"周布町","zip_code":"6971321"},{"name":"瀬戸ケ島町","zip_code":"6970051"},{"name":"瀬戸見町","zip_code":"6970057"},{"name":"高田町","zip_code":"6970054"},{"name":"竹迫町","zip_code":"6970015"},{"name":"田橋町","zip_code":"6971332"},{"name":"田町","zip_code":"6970026"},{"name":"治和町","zip_code":"6971326"},{"name":"津摩町","zip_code":"6971327"},{"name":"天満町","zip_code":"6970036"},{"name":"外ノ浦町","zip_code":"6970001"},{"name":"殿町","zip_code":"6970027"},{"name":"内村町","zip_code":"6970065"},{"name":"長沢町","zip_code":"6970023"},{"name":"長浜町","zip_code":"6970063"},{"name":"長見町","zip_code":"6970014"},{"name":"鍋石町","zip_code":"6971333"},{"name":"錦町","zip_code":"6970042"},{"name":"西村町","zip_code":"6971337"},{"name":"野原町","zip_code":"6970016"},{"name":"原井町","zip_code":"6970017"},{"name":"原町","zip_code":"6970056"},{"name":"日脚町","zip_code":"6971322"},{"name":"琵琶町","zip_code":"6970025"},{"name":"穂出町","zip_code":"6971324"},{"name":"松原町","zip_code":"6970021"},{"name":"三隅町芦谷","zip_code":"6993302"},{"name":"三隅町井川","zip_code":"6993215"},{"name":"三隅町井野","zip_code":"6993301"},{"name":"三隅町岡見","zip_code":"6993226"},{"name":"三隅町折居","zip_code":"6993222"},{"name":"三隅町上古和","zip_code":"6993216"},{"name":"三隅町黒沢","zip_code":"6993217"},{"name":"三隅町河内","zip_code":"6993213"},{"name":"三隅町西河内","zip_code":"6993223"},{"name":"三隅町下古和","zip_code":"6993215"},{"name":"三隅町東平原","zip_code":"6993221"},{"name":"三隅町古市場","zip_code":"6993225"},{"name":"三隅町三隅","zip_code":"6993211"},{"name":"三隅町湊浦","zip_code":"6993224"},{"name":"三隅町向野田","zip_code":"6993212"},{"name":"三隅町室谷","zip_code":"6993303"},{"name":"三隅町矢原","zip_code":"6993214"},{"name":"港町","zip_code":"6970052"},{"name":"元浜町","zip_code":"6970055"},{"name":"弥栄町稲代","zip_code":"6971215"},{"name":"弥栄町大坪","zip_code":"6971214"},{"name":"弥栄町小坂","zip_code":"6971202"},{"name":"弥栄町門田","zip_code":"6971204"},{"name":"弥栄町木都賀","zip_code":"6971122"},{"name":"弥栄町高内","zip_code":"6971203"},{"name":"弥栄町田野原","zip_code":"6971123"},{"name":"弥栄町栃木","zip_code":"6971201"},{"name":"弥栄町長安本郷","zip_code":"6971211"},{"name":"弥栄町野坂","zip_code":"6971121"},{"name":"弥栄町程原","zip_code":"6971213"},{"name":"弥栄町三里","zip_code":"6971212"},{"name":"横山町","zip_code":"6971336"},{"name":"吉地町","zip_code":"6971325"}]},{"name":"出雲市","divisions":[{"name":"朝山町","zip_code":"6930213"},{"name":"芦渡町","zip_code":"6930035"},{"name":"荒茅町","zip_code":"6930044"},{"name":"医大南町","zip_code":"6930027"},{"name":"稲岡町","zip_code":"6930071"},{"name":"猪目町","zip_code":"6910024"},{"name":"今市町","zip_code":"6930001"},{"name":"今市町北本町","zip_code":"6930002"},{"name":"今市町南本町","zip_code":"6930003"},{"name":"十六島町","zip_code":"6910042"},{"name":"宇那手町","zip_code":"6930105"},{"name":"駅北町","zip_code":"6930007"},{"name":"駅南町","zip_code":"6930008"},{"name":"枝大津町","zip_code":"6930017"},{"name":"江田町","zip_code":"6930056"},{"name":"塩冶有原町","zip_code":"6930023"},{"name":"塩冶神前","zip_code":"6930024"},{"name":"塩冶善行町","zip_code":"6930028"},{"name":"塩冶町","zip_code":"6930021"},{"name":"塩冶町南町","zip_code":"6930025"},{"name":"塩冶原町","zip_code":"6930026"},{"name":"大島町","zip_code":"6990821"},{"name":"大津朝倉","zip_code":"6930015"},{"name":"大塚町","zip_code":"6930063"},{"name":"大津新崎町","zip_code":"6930012"},{"name":"大津町","zip_code":"6930011"},{"name":"岡田町","zip_code":"6910063"},{"name":"荻杼町","zip_code":"6930013"},{"name":"奥宇賀町","zip_code":"6910021"},{"name":"乙立町","zip_code":"6930216"},{"name":"小山町","zip_code":"6930051"},{"name":"釜浦町","zip_code":"6910043"},{"name":"上塩冶町","zip_code":"6930022"},{"name":"上岡田町","zip_code":"6910064"},{"name":"上島町","zip_code":"6930101"},{"name":"唐川町","zip_code":"6910023"},{"name":"河下町","zip_code":"6910025"},{"name":"神門町","zip_code":"6930034"},{"name":"日下町","zip_code":"6930072"},{"name":"久多見町","zip_code":"6910034"},{"name":"口宇賀町","zip_code":"6910014"},{"name":"国富町","zip_code":"6910011"},{"name":"小伊津町","zip_code":"6910052"},{"name":"小境町","zip_code":"6910074"},{"name":"古志町","zip_code":"6930031"},{"name":"小津町","zip_code":"6910041"},{"name":"湖陵町板津","zip_code":"6990817"},{"name":"湖陵町大池","zip_code":"6990816"},{"name":"湖陵町差海","zip_code":"6990811"},{"name":"湖陵町三部","zip_code":"6990813"},{"name":"湖陵町常楽寺","zip_code":"6990814"},{"name":"湖陵町二部","zip_code":"6990812"},{"name":"湖陵町畑村","zip_code":"6990815"},{"name":"西郷町","zip_code":"6910015"},{"name":"坂浦町","zip_code":"6910051"},{"name":"佐田町朝原","zip_code":"6930501"},{"name":"佐田町大呂","zip_code":"6930504"},{"name":"佐田町上橋波","zip_code":"6930526"},{"name":"佐田町毛津","zip_code":"6930521"},{"name":"佐田町佐津目","zip_code":"6930523"},{"name":"佐田町下橋波","zip_code":"6930525"},{"name":"佐田町須佐","zip_code":"6930503"},{"name":"佐田町高津屋","zip_code":"6930524"},{"name":"佐田町反辺","zip_code":"6930506"},{"name":"佐田町原田","zip_code":"6930502"},{"name":"佐田町東村","zip_code":"6930512"},{"name":"佐田町一窪田","zip_code":"6930522"},{"name":"佐田町八幡原","zip_code":"6930511"},{"name":"佐田町吉野","zip_code":"6930505"},{"name":"里方町","zip_code":"6930064"},{"name":"塩津町","zip_code":"6910044"},{"name":"島村町","zip_code":"6910004"},{"name":"下古志町","zip_code":"6930032"},{"name":"下横町","zip_code":"6930046"},{"name":"白枝町","zip_code":"6930006"},{"name":"神西沖町","zip_code":"6990822"},{"name":"神西新町","zip_code":"6990825"},{"name":"外園町","zip_code":"6930042"},{"name":"園町","zip_code":"6910076"},{"name":"大社町鵜峠","zip_code":"6990762"},{"name":"大社町宇龍","zip_code":"6990764"},{"name":"大社町北荒木","zip_code":"6990722"},{"name":"大社町杵築北","zip_code":"6990702"},{"name":"大社町杵築西","zip_code":"6990751"},{"name":"大社町杵築東","zip_code":"6990701"},{"name":"大社町杵築南","zip_code":"6990711"},{"name":"大社町鷺浦","zip_code":"6990761"},{"name":"大社町修理免","zip_code":"6990721"},{"name":"大社町中荒木","zip_code":"6990741"},{"name":"大社町入南","zip_code":"6990732"},{"name":"大社町菱根","zip_code":"6990733"},{"name":"大社町日御碕","zip_code":"6990763"},{"name":"大社町遙堪","zip_code":"6990731"},{"name":"高岡町","zip_code":"6930066"},{"name":"高松町","zip_code":"6930053"},{"name":"多伎町奥田儀","zip_code":"6990905"},{"name":"多伎町小田","zip_code":"6990903"},{"name":"多伎町神原","zip_code":"6990906"},{"name":"多伎町口田儀","zip_code":"6990904"},{"name":"多伎町久村","zip_code":"6990901"},{"name":"多伎町多岐","zip_code":"6990902"},{"name":"多久谷町","zip_code":"6910062"},{"name":"多久町","zip_code":"6910061"},{"name":"武志町","zip_code":"6930014"},{"name":"知井宮町","zip_code":"6930033"},{"name":"地合町","zip_code":"6910071"},{"name":"築山新町","zip_code":"6930029"},{"name":"常松町","zip_code":"6930057"},{"name":"天神町","zip_code":"6930005"},{"name":"東郷町","zip_code":"6910065"},{"name":"東福町","zip_code":"6910031"},{"name":"所原町","zip_code":"6930214"},{"name":"中野町","zip_code":"6930062"},{"name":"中野美保北","zip_code":"6930081"},{"name":"中野美保南","zip_code":"6930082"},{"name":"長浜町","zip_code":"6930043"},{"name":"灘分町","zip_code":"6910003"},{"name":"西神西町","zip_code":"6990824"},{"name":"西新町","zip_code":"6930037"},{"name":"西園町","zip_code":"6930041"},{"name":"西代町","zip_code":"6910012"},{"name":"西谷町","zip_code":"6930102"},{"name":"西林木町","zip_code":"6930073"},{"name":"西平田町","zip_code":"6910002"},{"name":"野石谷町","zip_code":"6910066"},{"name":"野郷町","zip_code":"6910072"},{"name":"野尻町","zip_code":"6930103"},{"name":"浜町","zip_code":"6930054"},{"name":"稗原町","zip_code":"6930104"},{"name":"東神西町","zip_code":"6990823"},{"name":"東園町","zip_code":"6930045"},{"name":"東林木町","zip_code":"6930074"},{"name":"斐川町併川","zip_code":"6990615"},{"name":"斐川町阿宮","zip_code":"6990611"},{"name":"斐川町今在家","zip_code":"6990644"},{"name":"斐川町沖洲","zip_code":"6990551"},{"name":"斐川町学頭","zip_code":"6990501"},{"name":"斐川町上庄原","zip_code":"6990505"},{"name":"斐川町上直江","zip_code":"6990624"},{"name":"斐川町神庭","zip_code":"6990503"},{"name":"斐川町神氷","zip_code":"6990613"},{"name":"斐川町求院","zip_code":"6990614"},{"name":"斐川町黒目","zip_code":"6990553"},{"name":"斐川町坂田","zip_code":"6990555"},{"name":"斐川町三分市","zip_code":"6990554"},{"name":"斐川町出西","zip_code":"6990612"},{"name":"斐川町荘原","zip_code":"6990502"},{"name":"斐川町富村","zip_code":"6990621"},{"name":"斐川町鳥井","zip_code":"6990623"},{"name":"斐川町直江","zip_code":"6990631"},{"name":"斐川町中洲","zip_code":"6990552"},{"name":"斐川町名島","zip_code":"6990622"},{"name":"斐川町原鹿","zip_code":"6990643"},{"name":"斐川町福富","zip_code":"6990642"},{"name":"斐川町三絡","zip_code":"6990504"},{"name":"斐川町美南","zip_code":"6990641"},{"name":"姫原","zip_code":"6930068"},{"name":"姫原町","zip_code":"6930061"},{"name":"平田町","zip_code":"6910001"},{"name":"平野町","zip_code":"6930065"},{"name":"船津町","zip_code":"6930106"},{"name":"平成町","zip_code":"6930036"},{"name":"別所町","zip_code":"6910022"},{"name":"本庄町","zip_code":"6910032"},{"name":"馬木北町","zip_code":"6930211"},{"name":"馬木町","zip_code":"6930212"},{"name":"松寄下町","zip_code":"6930052"},{"name":"万田町","zip_code":"6910033"},{"name":"美談町","zip_code":"6910013"},{"name":"三津町","zip_code":"6910053"},{"name":"美保町","zip_code":"6910045"},{"name":"見々久町","zip_code":"6930215"},{"name":"八島町","zip_code":"6930055"},{"name":"矢野町","zip_code":"6930058"},{"name":"矢尾町","zip_code":"6930067"},{"name":"美野町","zip_code":"6910073"},{"name":"鹿園寺町","zip_code":"6910075"},{"name":"渡橋町","zip_code":"6930004"}]},{"name":"益田市","divisions":[{"name":"赤雁町","zip_code":"6993672"},{"name":"赤城町","zip_code":"6980034"},{"name":"あけぼの東町","zip_code":"6980027"},{"name":"あけぼの西町","zip_code":"6980025"},{"name":"あけぼの本町","zip_code":"6980026"},{"name":"愛栄町","zip_code":"6982253"},{"name":"有明町","zip_code":"6980022"},{"name":"有田町","zip_code":"6993765"},{"name":"飯田町","zip_code":"6980037"},{"name":"飯浦町","zip_code":"6993761"},{"name":"市原町","zip_code":"6982142"},{"name":"猪木谷町","zip_code":"6995123"},{"name":"岩倉町","zip_code":"6980014"},{"name":"内田町","zip_code":"6980051"},{"name":"馬谷町","zip_code":"6980413"},{"name":"梅月町","zip_code":"6995127"},{"name":"駅前町","zip_code":"6980024"},{"name":"大草町","zip_code":"6993674"},{"name":"大谷町","zip_code":"6980012"},{"name":"乙子町","zip_code":"6993675"},{"name":"乙吉町","zip_code":"6980003"},{"name":"柏原町","zip_code":"6982252"},{"name":"桂平町","zip_code":"6982254"},{"name":"金山町","zip_code":"6993501"},{"name":"上黒谷町","zip_code":"6982255"},{"name":"川登町","zip_code":"6982145"},{"name":"神田町","zip_code":"6995133"},{"name":"喜阿弥町","zip_code":"6993764"},{"name":"木部町","zip_code":"6993502"},{"name":"久々茂町","zip_code":"6980013"},{"name":"久城町","zip_code":"6980001"},{"name":"黒周町","zip_code":"6982251"},{"name":"小浜町","zip_code":"6993762"},{"name":"幸町","zip_code":"6980021"},{"name":"栄町","zip_code":"6980035"},{"name":"下種町","zip_code":"6993503"},{"name":"下波田町","zip_code":"6980414"},{"name":"下本郷町","zip_code":"6980002"},{"name":"昭和町","zip_code":"6980007"},{"name":"白岩町","zip_code":"6995125"},{"name":"白上町","zip_code":"6982141"},{"name":"須子町","zip_code":"6980036"},{"name":"薄原町","zip_code":"6995124"},{"name":"隅村町","zip_code":"6995126"},{"name":"染羽町","zip_code":"6980011"},{"name":"高津","zip_code":"6980041"},{"name":"高津町","zip_code":"6980041"},{"name":"多田町","zip_code":"6980031"},{"name":"種村町","zip_code":"6993504"},{"name":"津田町","zip_code":"6993671"},{"name":"土田町","zip_code":"6993505"},{"name":"土井町","zip_code":"6980016"},{"name":"遠田町","zip_code":"6993676"},{"name":"常盤町","zip_code":"6980023"},{"name":"戸田町","zip_code":"6993763"},{"name":"栃山町","zip_code":"6980015"},{"name":"中垣内町","zip_code":"6982146"},{"name":"中須町","zip_code":"6980044"},{"name":"中島町","zip_code":"6980043"},{"name":"中吉田町","zip_code":"6980042"},{"name":"長沢町","zip_code":"6980412"},{"name":"七尾町","zip_code":"6980017"},{"name":"西平原町","zip_code":"6993506"},{"name":"波田町","zip_code":"6980411"},{"name":"東町","zip_code":"6980004"},{"name":"匹見町石谷","zip_code":"6981223"},{"name":"匹見町落合","zip_code":"6981213"},{"name":"匹見町紙祖","zip_code":"6981212"},{"name":"匹見町澄川","zip_code":"6981221"},{"name":"匹見町匹見","zip_code":"6981211"},{"name":"匹見町広瀬","zip_code":"6981222"},{"name":"匹見町道川","zip_code":"6981201"},{"name":"左ケ山町","zip_code":"6995121"},{"name":"本俣賀町","zip_code":"6995122"},{"name":"本町","zip_code":"6980005"},{"name":"水分町","zip_code":"6980032"},{"name":"美都町朝倉","zip_code":"6980213"},{"name":"美都町板井川","zip_code":"6980201"},{"name":"美都町宇津川","zip_code":"6980202"},{"name":"美都町久原","zip_code":"6980206"},{"name":"美都町小原","zip_code":"6980211"},{"name":"美都町笹倉","zip_code":"6980214"},{"name":"美都町仙道","zip_code":"6980212"},{"name":"美都町都茂","zip_code":"6980203"},{"name":"美都町丸茂","zip_code":"6980207"},{"name":"美都町三谷","zip_code":"6980205"},{"name":"美都町山本","zip_code":"6980204"},{"name":"美濃地町","zip_code":"6993766"},{"name":"三宅町","zip_code":"6980006"},{"name":"向横田町","zip_code":"6995134"},{"name":"虫追町","zip_code":"6982144"},{"name":"元町","zip_code":"6980033"},{"name":"安富町","zip_code":"6995131"},{"name":"山折町","zip_code":"6993673"},{"name":"横田町","zip_code":"6995132"}]},{"name":"大田市","divisions":[{"name":"朝山町朝倉","zip_code":"6992213"},{"name":"朝山町仙山","zip_code":"6992212"},{"name":"五十猛町","zip_code":"6940035"},{"name":"大代町大家","zip_code":"6940433"},{"name":"大代町新屋","zip_code":"6940432"},{"name":"大田町大田","zip_code":"6940064"},{"name":"大田町野城","zip_code":"6940062"},{"name":"大田町吉永","zip_code":"6940063"},{"name":"大森町","zip_code":"6940305"},{"name":"大屋町大国","zip_code":"6940033"},{"name":"大屋町大屋","zip_code":"6940034"},{"name":"大屋町鬼村","zip_code":"6940032"},{"name":"川合町忍原","zip_code":"6940012"},{"name":"川合町川合","zip_code":"6940011"},{"name":"川合町吉永","zip_code":"6940013"},{"name":"久手町刺鹿","zip_code":"6940052"},{"name":"久手町波根西","zip_code":"6940051"},{"name":"久利町市原","zip_code":"6940022"},{"name":"久利町久利","zip_code":"6940024"},{"name":"久利町佐摩","zip_code":"6940023"},{"name":"久利町松代","zip_code":"6940025"},{"name":"久利町行恒","zip_code":"6940021"},{"name":"三瓶町池田","zip_code":"6940223"},{"name":"三瓶町上山","zip_code":"6940221"},{"name":"三瓶町小屋原","zip_code":"6940224"},{"name":"三瓶町志学","zip_code":"6940222"},{"name":"三瓶町多根","zip_code":"6940003"},{"name":"三瓶町野城","zip_code":"6940004"},{"name":"静間町","zip_code":"6940031"},{"name":"祖式町","zip_code":"6940431"},{"name":"富山町神原","zip_code":"6992214"},{"name":"富山町才坂","zip_code":"6992215"},{"name":"富山町山中","zip_code":"6940061"},{"name":"鳥井町鳥井","zip_code":"6940054"},{"name":"鳥井町鳥越","zip_code":"6940053"},{"name":"長久町稲用","zip_code":"6940042"},{"name":"長久町土江","zip_code":"6940044"},{"name":"長久町長久","zip_code":"6940041"},{"name":"長久町延里","zip_code":"6940043"},{"name":"仁摩町天河内","zip_code":"6992305"},{"name":"仁摩町大国","zip_code":"6992303"},{"name":"仁摩町宅野","zip_code":"6992302"},{"name":"仁摩町仁万","zip_code":"6992301"},{"name":"仁摩町馬路","zip_code":"6992304"},{"name":"波根町","zip_code":"6992211"},{"name":"水上町荻原","zip_code":"6940301"},{"name":"水上町白坏","zip_code":"6940303"},{"name":"水上町福原","zip_code":"6940302"},{"name":"水上町三久須","zip_code":"6940304"},{"name":"山口町佐津目","zip_code":"6940001"},{"name":"山口町山口","zip_code":"6940002"},{"name":"温泉津町井田","zip_code":"6992507"},{"name":"温泉津町今浦","zip_code":"6992515"},{"name":"温泉津町太田","zip_code":"6992505"},{"name":"温泉津町荻村","zip_code":"6992504"},{"name":"温泉津町上村","zip_code":"6992513"},{"name":"温泉津町小浜","zip_code":"6992511"},{"name":"温泉津町西田","zip_code":"6992503"},{"name":"温泉津町飯原","zip_code":"6992512"},{"name":"温泉津町福田","zip_code":"6992506"},{"name":"温泉津町福光","zip_code":"6992514"},{"name":"温泉津町湯里","zip_code":"6992502"},{"name":"温泉津町温泉津","zip_code":"6992501"},{"name":"温泉津町吉浦","zip_code":"6992516"}]},{"name":"安来市","divisions":[{"name":"赤江町","zip_code":"6920001"},{"name":"赤崎町","zip_code":"6920052"},{"name":"荒島町","zip_code":"6920007"},{"name":"飯梨町","zip_code":"6920066"},{"name":"飯生町","zip_code":"6920055"},{"name":"今津町","zip_code":"6920015"},{"name":"岩舟町","zip_code":"6920065"},{"name":"植田町","zip_code":"6920063"},{"name":"宇賀荘町","zip_code":"6920034"},{"name":"恵乃島町","zip_code":"6920057"},{"name":"大塚町","zip_code":"6920042"},{"name":"折坂町","zip_code":"6920046"},{"name":"柿谷町","zip_code":"6920045"},{"name":"門生町","zip_code":"6920027"},{"name":"上坂田町","zip_code":"6920002"},{"name":"上吉田町","zip_code":"6920043"},{"name":"亀島町","zip_code":"6920071"},{"name":"神庭町","zip_code":"6920075"},{"name":"吉佐町","zip_code":"6920026"},{"name":"清井町","zip_code":"6920056"},{"name":"清瀬町","zip_code":"6920035"},{"name":"清水町","zip_code":"6920033"},{"name":"切川町","zip_code":"6920051"},{"name":"久白町","zip_code":"6920004"},{"name":"九重町","zip_code":"6920032"},{"name":"黒井田町","zip_code":"6920023"},{"name":"佐久保町","zip_code":"6920031"},{"name":"実松町","zip_code":"6920062"},{"name":"沢町","zip_code":"6920053"},{"name":"汐手が丘","zip_code":"6920028"},{"name":"島田町","zip_code":"6920024"},{"name":"下坂田町","zip_code":"6920017"},{"name":"下吉田町","zip_code":"6920044"},{"name":"新十神町","zip_code":"6920021"},{"name":"早田町","zip_code":"6920047"},{"name":"田頼町","zip_code":"6920067"},{"name":"月坂町","zip_code":"6920013"},{"name":"利弘町","zip_code":"6920054"},{"name":"鳥木町","zip_code":"6920041"},{"name":"中海町","zip_code":"6920074"},{"name":"中津町","zip_code":"6920061"},{"name":"西赤江町","zip_code":"6920003"},{"name":"西荒島町","zip_code":"6920006"},{"name":"西恵乃島町","zip_code":"6920058"},{"name":"西松井町","zip_code":"6920077"},{"name":"野方町","zip_code":"6920036"},{"name":"能義町","zip_code":"6920072"},{"name":"伯太町赤屋","zip_code":"6920321"},{"name":"伯太町井尻","zip_code":"6920213"},{"name":"伯太町上小竹","zip_code":"6920322"},{"name":"伯太町上十年畑","zip_code":"6920325"},{"name":"伯太町草野","zip_code":"6920324"},{"name":"伯太町下小竹","zip_code":"6920323"},{"name":"伯太町下十年畑","zip_code":"6920326"},{"name":"伯太町須山福冨","zip_code":"6920214"},{"name":"伯太町高江寸次","zip_code":"6920215"},{"name":"伯太町峠之内","zip_code":"6920218"},{"name":"伯太町西母里","zip_code":"6920212"},{"name":"伯太町東母里","zip_code":"6920207"},{"name":"伯太町日次","zip_code":"6920216"},{"name":"伯太町未明","zip_code":"6920203"},{"name":"伯太町母里","zip_code":"6920211"},{"name":"伯太町安田","zip_code":"6920206"},{"name":"伯太町安田関","zip_code":"6920202"},{"name":"伯太町安田中","zip_code":"6920205"},{"name":"伯太町安田宮内","zip_code":"6920204"},{"name":"伯太町安田山形","zip_code":"6920201"},{"name":"伯太町横屋","zip_code":"6920217"},{"name":"飯島町","zip_code":"6920014"},{"name":"東赤江町","zip_code":"6920016"},{"name":"日白町","zip_code":"6920005"},{"name":"広瀬町石原","zip_code":"6920401"},{"name":"広瀬町宇波","zip_code":"6920622"},{"name":"広瀬町奥田原","zip_code":"6920625"},{"name":"広瀬町祖父谷","zip_code":"6920405"},{"name":"広瀬町梶福留","zip_code":"6920732"},{"name":"広瀬町上山佐","zip_code":"6920413"},{"name":"広瀬町下山佐","zip_code":"6920412"},{"name":"広瀬町菅原","zip_code":"6920411"},{"name":"広瀬町富田","zip_code":"6920403"},{"name":"広瀬町西谷","zip_code":"6920624"},{"name":"広瀬町西比田","zip_code":"6920731"},{"name":"広瀬町東比田","zip_code":"6920733"},{"name":"広瀬町広瀬","zip_code":"6920404"},{"name":"広瀬町布部","zip_code":"6920623"},{"name":"広瀬町町帳","zip_code":"6920402"},{"name":"古川町","zip_code":"6920064"},{"name":"穂日島町","zip_code":"6920025"},{"name":"南十神町","zip_code":"6920022"},{"name":"宮内町","zip_code":"6920012"},{"name":"安来町","zip_code":"6920011"},{"name":"矢田町","zip_code":"6920073"},{"name":"吉岡町","zip_code":"6920037"}]},{"name":"江津市","divisions":[{"name":"浅利町","zip_code":"6950002"},{"name":"跡市町","zip_code":"6950152"},{"name":"有福温泉町","zip_code":"6950156"},{"name":"有福温泉町本明","zip_code":"6950155"},{"name":"井沢町","zip_code":"6950154"},{"name":"後地町","zip_code":"6992841"},{"name":"敬川町","zip_code":"6993162"},{"name":"嘉久志町","zip_code":"6950016"},{"name":"金田町","zip_code":"6950012"},{"name":"川平町平田","zip_code":"6950014"},{"name":"川平町南川上","zip_code":"6950013"},{"name":"黒松町","zip_code":"6992831"},{"name":"江津町","zip_code":"6950011"},{"name":"桜江町市山","zip_code":"6994221"},{"name":"桜江町今田","zip_code":"6994222"},{"name":"桜江町後山","zip_code":"6994223"},{"name":"桜江町江尾","zip_code":"6994224"},{"name":"桜江町大貫","zip_code":"6994504"},{"name":"桜江町小田","zip_code":"6994225"},{"name":"桜江町川越","zip_code":"6994502"},{"name":"桜江町川戸","zip_code":"6994226"},{"name":"桜江町坂本","zip_code":"6994505"},{"name":"桜江町鹿賀","zip_code":"6994501"},{"name":"桜江町田津","zip_code":"6994503"},{"name":"桜江町谷住郷","zip_code":"6994111"},{"name":"桜江町長谷","zip_code":"6994431"},{"name":"桜江町八戸","zip_code":"6994432"},{"name":"島の星町","zip_code":"6950015"},{"name":"清見町","zip_code":"6950153"},{"name":"千田町","zip_code":"6950151"},{"name":"都治町","zip_code":"6992842"},{"name":"都野津町","zip_code":"6950021"},{"name":"二宮町神村","zip_code":"6950023"},{"name":"二宮町神主","zip_code":"6950024"},{"name":"二宮町羽代","zip_code":"6950022"},{"name":"波子町","zip_code":"6993161"},{"name":"波積町本郷","zip_code":"6992833"},{"name":"波積町南","zip_code":"6992834"},{"name":"波積町北","zip_code":"6992832"},{"name":"松川町市村","zip_code":"6950004"},{"name":"松川町太田","zip_code":"6950007"},{"name":"松川町上河戸","zip_code":"6992837"},{"name":"松川町下河戸","zip_code":"6950003"},{"name":"松川町上津井","zip_code":"6992835"},{"name":"松川町長良","zip_code":"6950005"},{"name":"松川町畑田","zip_code":"6992836"},{"name":"松川町八神","zip_code":"6950006"},{"name":"和木町","zip_code":"6950017"},{"name":"渡津町","zip_code":"6950001"}]},{"name":"雲南市","divisions":[{"name":"掛合町穴見","zip_code":"6902704"},{"name":"掛合町入間","zip_code":"6902702"},{"name":"掛合町掛合","zip_code":"6902701"},{"name":"掛合町多根","zip_code":"6902706"},{"name":"掛合町波多","zip_code":"6902703"},{"name":"掛合町松笠","zip_code":"6902705"},{"name":"加茂町猪尾","zip_code":"6991114"},{"name":"加茂町岩倉","zip_code":"6991115"},{"name":"加茂町宇治","zip_code":"6991105"},{"name":"加茂町大崎","zip_code":"6991125"},{"name":"加茂町大竹","zip_code":"6991123"},{"name":"加茂町加茂中","zip_code":"6991106"},{"name":"加茂町神原","zip_code":"6991121"},{"name":"加茂町新宮","zip_code":"6991112"},{"name":"加茂町砂子原","zip_code":"6991111"},{"name":"加茂町大西","zip_code":"6991101"},{"name":"加茂町立原","zip_code":"6991102"},{"name":"加茂町近松","zip_code":"6991103"},{"name":"加茂町延野","zip_code":"6991124"},{"name":"加茂町東谷","zip_code":"6991113"},{"name":"加茂町三代","zip_code":"6991122"},{"name":"加茂町南加茂","zip_code":"6991104"},{"name":"木次町宇谷","zip_code":"6991321"},{"name":"木次町上熊谷","zip_code":"6991331"},{"name":"木次町木次","zip_code":"6991332"},{"name":"木次町北原","zip_code":"6991401"},{"name":"木次町里方","zip_code":"6991311"},{"name":"木次町下熊谷","zip_code":"6991333"},{"name":"木次町寺領","zip_code":"6991322"},{"name":"木次町新市","zip_code":"6991334"},{"name":"木次町西日登","zip_code":"6991324"},{"name":"木次町東日登","zip_code":"6991323"},{"name":"木次町平田","zip_code":"6991342"},{"name":"木次町山方","zip_code":"6991312"},{"name":"木次町湯村","zip_code":"6991343"},{"name":"大東町飯田","zip_code":"6991221"},{"name":"大東町遠所","zip_code":"6991231"},{"name":"大東町大ケ谷","zip_code":"6991213"},{"name":"大東町岡村","zip_code":"6991221"},{"name":"大東町小河内","zip_code":"6991201"},{"name":"大東町金成","zip_code":"6991261"},{"name":"大東町上久野","zip_code":"6991211"},{"name":"大東町上佐世","zip_code":"6991214"},{"name":"大東町刈畑","zip_code":"6991202"},{"name":"大東町川井","zip_code":"6991222"},{"name":"大東町北村","zip_code":"6991203"},{"name":"大東町薦澤","zip_code":"6991204"},{"name":"大東町山王寺","zip_code":"6991241"},{"name":"大東町塩田","zip_code":"6991262"},{"name":"大東町篠淵","zip_code":"6991263"},{"name":"大東町下阿用","zip_code":"6991223"},{"name":"大東町下久野","zip_code":"6991212"},{"name":"大東町下佐世","zip_code":"6991215"},{"name":"大東町新庄","zip_code":"6991251"},{"name":"大東町須賀","zip_code":"6991205"},{"name":"大東町清田","zip_code":"6991264"},{"name":"大東町大東","zip_code":"6991251"},{"name":"大東町大東下分","zip_code":"6991242"},{"name":"大東町田中","zip_code":"6991252"},{"name":"大東町中湯石","zip_code":"6991253"},{"name":"大東町西阿用","zip_code":"6991216"},{"name":"大東町仁和寺","zip_code":"6991232"},{"name":"大東町畑鵯","zip_code":"6991243"},{"name":"大東町幡屋","zip_code":"6991233"},{"name":"大東町東阿用","zip_code":"6991224"},{"name":"大東町前原","zip_code":"6991234"},{"name":"大東町南村","zip_code":"6991206"},{"name":"大東町山田","zip_code":"6991244"},{"name":"大東町養賀","zip_code":"6991245"},{"name":"三刀屋町粟谷","zip_code":"6902513"},{"name":"三刀屋町伊萱","zip_code":"6902401"},{"name":"三刀屋町乙加宮","zip_code":"6902634"},{"name":"三刀屋町上熊谷","zip_code":"6902511"},{"name":"三刀屋町給下","zip_code":"6902402"},{"name":"三刀屋町神代","zip_code":"6902521"},{"name":"三刀屋町古城","zip_code":"6902405"},{"name":"三刀屋町坂本","zip_code":"6902525"},{"name":"三刀屋町里坊","zip_code":"6902632"},{"name":"三刀屋町下熊谷","zip_code":"6902403"},{"name":"三刀屋町須所","zip_code":"6902524"},{"name":"三刀屋町高窪","zip_code":"6902406"},{"name":"三刀屋町多久和","zip_code":"6902512"},{"name":"三刀屋町殿河内","zip_code":"6902633"},{"name":"三刀屋町中野","zip_code":"6902523"},{"name":"三刀屋町根波別所","zip_code":"6902631"},{"name":"三刀屋町三刀屋","zip_code":"6902404"},{"name":"三刀屋町六重","zip_code":"6902522"},{"name":"吉田町上山","zip_code":"6902311"},{"name":"吉田町川手","zip_code":"6902314"},{"name":"吉田町曽木","zip_code":"6902312"},{"name":"吉田町深野","zip_code":"6902313"},{"name":"吉田町民谷","zip_code":"6902802"},{"name":"吉田町吉田","zip_code":"6902801"}]},{"name":"仁多郡奥出雲町","divisions":[{"name":"稲原","zip_code":"6991821"},{"name":"大谷","zip_code":"6991812"},{"name":"大馬木","zip_code":"6991941"},{"name":"大呂","zip_code":"6991802"},{"name":"上阿井","zip_code":"6991621"},{"name":"上三所","zip_code":"6991431"},{"name":"亀嵩","zip_code":"6991701"},{"name":"鴨倉","zip_code":"6991515"},{"name":"河内","zip_code":"6991514"},{"name":"郡","zip_code":"6991702"},{"name":"小馬木","zip_code":"6991942"},{"name":"佐白","zip_code":"6991434"},{"name":"下阿井","zip_code":"6991517"},{"name":"下横田","zip_code":"6991822"},{"name":"高尾","zip_code":"6991512"},{"name":"高田","zip_code":"6991703"},{"name":"竹崎","zip_code":"6991801"},{"name":"中村","zip_code":"6991831"},{"name":"馬馳","zip_code":"6991432"},{"name":"三沢","zip_code":"6991513"},{"name":"三所","zip_code":"6991516"},{"name":"三成","zip_code":"6991511"},{"name":"八川","zip_code":"6991811"},{"name":"八代","zip_code":"6991433"},{"name":"横田","zip_code":"6991832"}]},{"name":"飯石郡飯南町","divisions":[{"name":"赤名","zip_code":"6903511"},{"name":"井戸谷","zip_code":"6903514"},{"name":"小田","zip_code":"6903403"},{"name":"上赤名","zip_code":"6903512"},{"name":"上来島","zip_code":"6903405"},{"name":"佐見","zip_code":"6903204"},{"name":"塩谷","zip_code":"6903515"},{"name":"獅子","zip_code":"6903311"},{"name":"志津見","zip_code":"6903313"},{"name":"下赤名","zip_code":"6903513"},{"name":"下来島","zip_code":"6903402"},{"name":"都加賀","zip_code":"6903203"},{"name":"角井","zip_code":"6903314"},{"name":"頓原","zip_code":"6903207"},{"name":"長谷","zip_code":"6903205"},{"name":"野萱","zip_code":"6903401"},{"name":"八神","zip_code":"6903312"},{"name":"畑田","zip_code":"6903516"},{"name":"花栗","zip_code":"6903206"},{"name":"真木","zip_code":"6903404"}]},{"name":"邑智郡川本町","divisions":[{"name":"因原","zip_code":"6960003"},{"name":"川内","zip_code":"6960011"},{"name":"川下","zip_code":"6960004"},{"name":"川本","zip_code":"6960001"},{"name":"北佐木","zip_code":"6961221"},{"name":"久座仁","zip_code":"6960006"},{"name":"小谷","zip_code":"6960012"},{"name":"田窪","zip_code":"6961226"},{"name":"多田","zip_code":"6960007"},{"name":"谷戸","zip_code":"6960005"},{"name":"都賀行","zip_code":"6960002"},{"name":"馬野原","zip_code":"6960013"},{"name":"南佐木","zip_code":"6961225"},{"name":"三原","zip_code":"6961224"},{"name":"三俣","zip_code":"6961223"},{"name":"湯谷","zip_code":"6961222"}]},{"name":"邑智郡美郷町","divisions":[{"name":"明塚","zip_code":"6994624"},{"name":"吾郷","zip_code":"6994627"},{"name":"石原","zip_code":"6994715"},{"name":"潮村","zip_code":"6960701"},{"name":"内田","zip_code":"6961136"},{"name":"奥山","zip_code":"6994631"},{"name":"乙原","zip_code":"6994626"},{"name":"粕渕","zip_code":"6994621"},{"name":"片山","zip_code":"6994714"},{"name":"櫨谷","zip_code":"6961137"},{"name":"上川戸","zip_code":"6994702"},{"name":"上野","zip_code":"6960702"},{"name":"亀村","zip_code":"6994707"},{"name":"京覧原","zip_code":"6961141"},{"name":"久喜原","zip_code":"6961142"},{"name":"久保","zip_code":"6994622"},{"name":"熊見","zip_code":"6994703"},{"name":"九日市","zip_code":"6994712"},{"name":"小谷","zip_code":"6961144"},{"name":"小林","zip_code":"6961133"},{"name":"小松地","zip_code":"6961135"},{"name":"酒谷","zip_code":"6994713"},{"name":"信喜","zip_code":"6994704"},{"name":"志君","zip_code":"6961132"},{"name":"地頭所","zip_code":"6961143"},{"name":"惣森","zip_code":"6961134"},{"name":"高畑","zip_code":"6994632"},{"name":"高山","zip_code":"6994605"},{"name":"滝原","zip_code":"6994706"},{"name":"千原","zip_code":"6994711"},{"name":"都賀西","zip_code":"6960703"},{"name":"都賀本郷","zip_code":"6960704"},{"name":"都賀行","zip_code":"6960705"},{"name":"長藤","zip_code":"6960706"},{"name":"野井","zip_code":"6994623"},{"name":"浜原","zip_code":"6994701"},{"name":"比敷","zip_code":"6960712"},{"name":"別府","zip_code":"6961131"},{"name":"港","zip_code":"6961145"},{"name":"宮内","zip_code":"6960711"},{"name":"村之郷","zip_code":"6960713"},{"name":"簗瀬","zip_code":"6994625"},{"name":"湯抱","zip_code":"6994633"}]},{"name":"邑智郡邑南町","divisions":[{"name":"阿須那","zip_code":"6960501"},{"name":"出羽","zip_code":"6960312"},{"name":"市木","zip_code":"6970631"},{"name":"井原","zip_code":"6960101"},{"name":"今井","zip_code":"6960504"},{"name":"岩屋","zip_code":"6960314"},{"name":"上田","zip_code":"6960601"},{"name":"宇都井","zip_code":"6960503"},{"name":"大林","zip_code":"6960315"},{"name":"上亀谷","zip_code":"6960224"},{"name":"上口羽","zip_code":"6960602"},{"name":"上田所","zip_code":"6960225"},{"name":"上原","zip_code":"6960405"},{"name":"木須田","zip_code":"6960502"},{"name":"久喜","zip_code":"6960316"},{"name":"高水","zip_code":"6960131"},{"name":"下亀谷","zip_code":"6960223"},{"name":"下口羽","zip_code":"6960603"},{"name":"下田所","zip_code":"6960222"},{"name":"高見","zip_code":"6960406"},{"name":"戸河内","zip_code":"6960505"},{"name":"中野","zip_code":"6960102"},{"name":"原村","zip_code":"6960404"},{"name":"日貫","zip_code":"6994311"},{"name":"日和","zip_code":"6960104"},{"name":"伏谷","zip_code":"6960402"},{"name":"布施","zip_code":"6960401"},{"name":"鱒渕","zip_code":"6960221"},{"name":"三日市","zip_code":"6960311"},{"name":"八色石","zip_code":"6960407"},{"name":"矢上","zip_code":"6960103"},{"name":"山田","zip_code":"6960313"},{"name":"雪田","zip_code":"6960506"},{"name":"淀原","zip_code":"6960317"},{"name":"和田","zip_code":"6960403"}]},{"name":"鹿足郡津和野町","divisions":[{"name":"青原","zip_code":"6995211"},{"name":"商人","zip_code":"6995201"},{"name":"池村","zip_code":"6995216"},{"name":"後田","zip_code":"6995605"},{"name":"河村","zip_code":"6995212"},{"name":"耕田","zip_code":"6995607"},{"name":"笹山","zip_code":"6995603"},{"name":"左鐙","zip_code":"6995202"},{"name":"須川","zip_code":"6995204"},{"name":"相撲ケ原","zip_code":"6995203"},{"name":"添谷","zip_code":"6995213"},{"name":"高峯","zip_code":"6995614"},{"name":"瀧谷","zip_code":"6995205"},{"name":"瀧元","zip_code":"6995206"},{"name":"直地","zip_code":"6995602"},{"name":"田二穂","zip_code":"6995617"},{"name":"溪村","zip_code":"6995214"},{"name":"寺田","zip_code":"6995606"},{"name":"冨田","zip_code":"6995215"},{"name":"豊稼","zip_code":"6995632"},{"name":"内美","zip_code":"6995621"},{"name":"中川","zip_code":"6995634"},{"name":"中座","zip_code":"6995612"},{"name":"中曽野","zip_code":"6995636"},{"name":"中山","zip_code":"6995631"},{"name":"長福","zip_code":"6995633"},{"name":"名賀","zip_code":"6995615"},{"name":"日原","zip_code":"6995221"},{"name":"吹野","zip_code":"6995637"},{"name":"部栄","zip_code":"6995616"},{"name":"枕瀬","zip_code":"6995207"},{"name":"町田","zip_code":"6995611"},{"name":"邑輝","zip_code":"6995622"},{"name":"森村","zip_code":"6995604"},{"name":"柳村","zip_code":"6995217"},{"name":"山下","zip_code":"6995635"},{"name":"鷲原","zip_code":"6995613"}]},{"name":"鹿足郡吉賀町","divisions":[{"name":"朝倉","zip_code":"6995523"},{"name":"有飯","zip_code":"6995506"},{"name":"柿木村大野原","zip_code":"6995306"},{"name":"柿木村柿木","zip_code":"6995301"},{"name":"柿木村椛谷","zip_code":"6995303"},{"name":"柿木村木部谷","zip_code":"6995307"},{"name":"柿木村下須","zip_code":"6995305"},{"name":"柿木村白谷","zip_code":"6995304"},{"name":"柿木村福川","zip_code":"6995302"},{"name":"上高尻","zip_code":"6995501"},{"name":"蔵木","zip_code":"6995504"},{"name":"九郎原","zip_code":"6995505"},{"name":"幸地","zip_code":"6995515"},{"name":"真田","zip_code":"6995521"},{"name":"沢田","zip_code":"6995516"},{"name":"注連川","zip_code":"6995517"},{"name":"下高尻","zip_code":"6995507"},{"name":"立河内","zip_code":"6995514"},{"name":"立戸","zip_code":"6995511"},{"name":"蓼野","zip_code":"6995524"},{"name":"田野原","zip_code":"6995502"},{"name":"七日市","zip_code":"6995522"},{"name":"抜月","zip_code":"6995525"},{"name":"樋口","zip_code":"6995503"},{"name":"広石","zip_code":"6995512"},{"name":"六日市","zip_code":"6995513"}]},{"name":"隠岐郡海士町","divisions":[{"name":"海士","zip_code":"6840403"},{"name":"宇受賀","zip_code":"6840401"},{"name":"崎","zip_code":"6840413"},{"name":"知々井","zip_code":"6840411"},{"name":"豊田","zip_code":"6840402"},{"name":"福井","zip_code":"6840404"},{"name":"御波","zip_code":"6840412"}]},{"name":"隠岐郡西ノ島町","divisions":[{"name":"宇賀","zip_code":"6840301"},{"name":"浦郷","zip_code":"6840211"},{"name":"別府","zip_code":"6840302"},{"name":"美田","zip_code":"6840303"}]},{"name":"隠岐郡知夫村","divisions":[{"name":"薄毛","zip_code":"6840104"},{"name":"古海","zip_code":"6840107"},{"name":"大江","zip_code":"6840101"},{"name":"来居","zip_code":"6840106"},{"name":"郡","zip_code":"6840102"},{"name":"多沢","zip_code":"6840103"},{"name":"仁夫","zip_code":"6840105"}]},{"name":"隠岐郡隠岐の島町","divisions":[{"name":"有木","zip_code":"6850006"},{"name":"飯田","zip_code":"6850004"},{"name":"飯美","zip_code":"6850411"},{"name":"池田","zip_code":"6850007"},{"name":"伊後","zip_code":"6850431"},{"name":"犬来","zip_code":"6850003"},{"name":"今津","zip_code":"6850022"},{"name":"卯敷","zip_code":"6850413"},{"name":"大久","zip_code":"6850001"},{"name":"釜","zip_code":"6850002"},{"name":"上西","zip_code":"6850026"},{"name":"加茂","zip_code":"6850024"},{"name":"元屋","zip_code":"6850435"},{"name":"北方","zip_code":"6850301"},{"name":"久見","zip_code":"6850305"},{"name":"蔵田","zip_code":"6850101"},{"name":"小路","zip_code":"6850312"},{"name":"郡","zip_code":"6850311"},{"name":"栄町","zip_code":"6850011"},{"name":"下西","zip_code":"6850017"},{"name":"城北町","zip_code":"6850016"},{"name":"代","zip_code":"6850304"},{"name":"蛸木","zip_code":"6850106"},{"name":"津戸","zip_code":"6850105"},{"name":"都万","zip_code":"6850104"},{"name":"東郷","zip_code":"6850005"},{"name":"中町","zip_code":"6850013"},{"name":"中村","zip_code":"6850434"},{"name":"那久","zip_code":"6850103"},{"name":"那久路","zip_code":"6850313"},{"name":"苗代田","zip_code":"6850302"},{"name":"西田","zip_code":"6850023"},{"name":"西町","zip_code":"6850014"},{"name":"西村","zip_code":"6850432"},{"name":"原田","zip_code":"6850027"},{"name":"東町","zip_code":"6850012"},{"name":"布施","zip_code":"6850412"},{"name":"平","zip_code":"6850025"},{"name":"岬町","zip_code":"6850021"},{"name":"湊","zip_code":"6850433"},{"name":"港町","zip_code":"6850015"},{"name":"南方","zip_code":"6850303"},{"name":"山田","zip_code":"6850314"},{"name":"油井","zip_code":"6850102"}]}]}