{"name":"岡山県","cities":[{"name":"岡山市北区","divisions":[{"name":"葵町","zip_code":"7000045"},{"name":"青江","zip_code":"7000941"},{"name":"旭本町","zip_code":"7000865"},{"name":"旭町","zip_code":"7000864"},{"name":"足守","zip_code":"7011463"},{"name":"天瀬","zip_code":"7000833"},{"name":"天瀬南町","zip_code":"7000834"},{"name":"粟井","zip_code":"7011461"},{"name":"石関町","zip_code":"7000813"},{"name":"石妻","zip_code":"7011527"},{"name":"伊島北町","zip_code":"7000017"},{"name":"伊島町","zip_code":"7000016"},{"name":"出石町","zip_code":"7000812"},{"name":"いずみ町","zip_code":"7000012"},{"name":"一宮","zip_code":"7011211"},{"name":"一宮山崎","zip_code":"7011203"},{"name":"伊福町","zip_code":"7000013"},{"name":"今","zip_code":"7000975"},{"name":"今岡","zip_code":"7011204"},{"name":"今保","zip_code":"7010145"},{"name":"今村","zip_code":"7000974"},{"name":"岩井","zip_code":"7000046"},{"name":"岩井宮裏","zip_code":"7000041"},{"name":"岩田町","zip_code":"7000022"},{"name":"内山下","zip_code":"7000824"},{"name":"駅前町","zip_code":"7000023"},{"name":"駅元町","zip_code":"7000024"},{"name":"絵図町","zip_code":"7000028"},{"name":"大井","zip_code":"7011462"},{"name":"大内田","zip_code":"7010165"},{"name":"大窪","zip_code":"7011223"},{"name":"大崎","zip_code":"7011336"},{"name":"大元","zip_code":"7000924"},{"name":"大元駅前","zip_code":"7000923"},{"name":"大元上町","zip_code":"7000925"},{"name":"岡町","zip_code":"7000867"},{"name":"奥田","zip_code":"7000933"},{"name":"奥田西町","zip_code":"7000931"},{"name":"奥田本町","zip_code":"7000932"},{"name":"奥田南町","zip_code":"7000934"},{"name":"尾上","zip_code":"7011212"},{"name":"御舟入町","zip_code":"7000844"},{"name":"表町","zip_code":"7000822"},{"name":"栢谷","zip_code":"7011144"},{"name":"学南町","zip_code":"7000011"},{"name":"掛畑","zip_code":"7011601"},{"name":"春日町","zip_code":"7000905"},{"name":"金山寺","zip_code":"7012151"},{"name":"上高田","zip_code":"7011525"},{"name":"上土田","zip_code":"7011465"},{"name":"上中野","zip_code":"7000972"},{"name":"加茂","zip_code":"7011342"},{"name":"辛川市場","zip_code":"7011214"},{"name":"川入","zip_code":"7010161"},{"name":"河原","zip_code":"7011605"},{"name":"関西町","zip_code":"7000047"},{"name":"神田町","zip_code":"7000935"},{"name":"祇園","zip_code":"7038207"},{"name":"北方","zip_code":"7000803"},{"name":"北長瀬","zip_code":"7000963"},{"name":"北長瀬表町","zip_code":"7000962"},{"name":"北長瀬本町","zip_code":"7000961"},{"name":"吉備津","zip_code":"7011341"},{"name":"京橋町","zip_code":"7000831"},{"name":"京橋南町","zip_code":"7000832"},{"name":"京町","zip_code":"7000838"},{"name":"京山","zip_code":"7000015"},{"name":"久米","zip_code":"7010144"},{"name":"桑田町","zip_code":"7000984"},{"name":"厚生町","zip_code":"7000985"},{"name":"岡南町","zip_code":"7000866"},{"name":"首部","zip_code":"7011201"},{"name":"高野尻","zip_code":"7012152"},{"name":"後楽園","zip_code":"7038257"},{"name":"国体町","zip_code":"7000021"},{"name":"苔山","zip_code":"7011604"},{"name":"寿町","zip_code":"7000025"},{"name":"小山","zip_code":"7011352"},{"name":"幸町","zip_code":"7000903"},{"name":"佐山","zip_code":"7011205"},{"name":"鹿田町","zip_code":"7000914"},{"name":"鹿田本町","zip_code":"7000915"},{"name":"島田本町","zip_code":"7000033"},{"name":"下足守","zip_code":"7011464"},{"name":"下石井","zip_code":"7000907"},{"name":"下伊福","zip_code":"7000052"},{"name":"下伊福上町","zip_code":"7000051"},{"name":"下伊福西町","zip_code":"7000054"},{"name":"下伊福本町","zip_code":"7000053"},{"name":"下内田町","zip_code":"7000846"},{"name":"下高田","zip_code":"7011524"},{"name":"下土田","zip_code":"7011356"},{"name":"下中野","zip_code":"7000973"},{"name":"下牧","zip_code":"7012143"},{"name":"宿","zip_code":"7000001"},{"name":"宿本町","zip_code":"7000002"},{"name":"庄田","zip_code":"7011603"},{"name":"昭和町","zip_code":"7000032"},{"name":"白石","zip_code":"7010143"},{"name":"白石西新町","zip_code":"7010142"},{"name":"白石東新町","zip_code":"7010141"},{"name":"新庄上","zip_code":"7011345"},{"name":"新庄下","zip_code":"7011344"},{"name":"新道","zip_code":"7000863"},{"name":"新屋敷町","zip_code":"7000986"},{"name":"菅野","zip_code":"7011141"},{"name":"杉谷","zip_code":"7011522"},{"name":"清輝橋","zip_code":"7000861"},{"name":"清輝本町","zip_code":"7000862"},{"name":"清心町","zip_code":"7000027"},{"name":"船頭町","zip_code":"7000842"},{"name":"惣爪","zip_code":"7011343"},{"name":"大安寺中町","zip_code":"7000062"},{"name":"大安寺西町","zip_code":"7000061"},{"name":"大安寺東町","zip_code":"7000063"},{"name":"大安寺南町","zip_code":"7000064"},{"name":"大学町","zip_code":"7000906"},{"name":"大供","zip_code":"7000913"},{"name":"大供表町","zip_code":"7000912"},{"name":"大供本町","zip_code":"7000911"},{"name":"高塚","zip_code":"7011354"},{"name":"高野","zip_code":"7011142"},{"name":"高松","zip_code":"7011335"},{"name":"高松稲荷","zip_code":"7011331"},{"name":"高松田中","zip_code":"7011355"},{"name":"高松原古才","zip_code":"7011334"},{"name":"高柳西町","zip_code":"7000035"},{"name":"高柳東町","zip_code":"7000034"},{"name":"建部町市場","zip_code":"7093131"},{"name":"建部町大田","zip_code":"7093121"},{"name":"建部町小倉","zip_code":"7093124"},{"name":"建部町川口","zip_code":"7093112"},{"name":"建部町桜","zip_code":"7093134"},{"name":"建部町三明寺","zip_code":"7093105"},{"name":"建部町品田","zip_code":"7093141"},{"name":"建部町下神目","zip_code":"7093113"},{"name":"建部町建部上","zip_code":"7093142"},{"name":"建部町田地子","zip_code":"7093145"},{"name":"建部町鶴田","zip_code":"7093101"},{"name":"建部町角石畝","zip_code":"7093103"},{"name":"建部町角石谷","zip_code":"7093104"},{"name":"建部町富沢","zip_code":"7093144"},{"name":"建部町中田","zip_code":"7093132"},{"name":"建部町西原","zip_code":"7093133"},{"name":"建部町土師方","zip_code":"7093123"},{"name":"建部町福渡","zip_code":"7093111"},{"name":"建部町豊楽寺","zip_code":"7093114"},{"name":"建部町宮地","zip_code":"7093143"},{"name":"建部町吉田","zip_code":"7093122"},{"name":"建部町和田南","zip_code":"7093102"},{"name":"立田","zip_code":"7011333"},{"name":"辰巳","zip_code":"7000976"},{"name":"田中","zip_code":"7000951"},{"name":"谷万成","zip_code":"7000071"},{"name":"田原","zip_code":"7011132"},{"name":"玉柏","zip_code":"7012142"},{"name":"田益","zip_code":"7011154"},{"name":"田町","zip_code":"7000825"},{"name":"中央町","zip_code":"7000836"},{"name":"津倉町","zip_code":"7000014"},{"name":"津島京町","zip_code":"7000087"},{"name":"津島桑の木町","zip_code":"7000084"},{"name":"津島笹が瀬","zip_code":"7000088"},{"name":"津島中","zip_code":"7000082"},{"name":"津島新野","zip_code":"7000083"},{"name":"津島西坂","zip_code":"7000086"},{"name":"津島東","zip_code":"7000081"},{"name":"津島福居","zip_code":"7000080"},{"name":"津島本町","zip_code":"7000089"},{"name":"津島南","zip_code":"7000085"},{"name":"津高","zip_code":"7011152"},{"name":"津高台","zip_code":"7011151"},{"name":"津寺","zip_code":"7011346"},{"name":"天神町","zip_code":"7000814"},{"name":"問屋町","zip_code":"7000977"},{"name":"十日市中町","zip_code":"7000855"},{"name":"十日市西町","zip_code":"7000856"},{"name":"十日市東町","zip_code":"7000854"},{"name":"磨屋町","zip_code":"7000826"},{"name":"富田","zip_code":"7000936"},{"name":"富原","zip_code":"7011153"},{"name":"富町","zip_code":"7000031"},{"name":"富吉","zip_code":"7011133"},{"name":"富田町","zip_code":"7000816"},{"name":"中井町","zip_code":"7000804"},{"name":"中山下","zip_code":"7000821"},{"name":"中島田町","zip_code":"7000982"},{"name":"中仙道","zip_code":"7000964"},{"name":"中撫川","zip_code":"7010163"},{"name":"長野","zip_code":"7011224"},{"name":"中原","zip_code":"7012155"},{"name":"中牧","zip_code":"7012144"},{"name":"撫川","zip_code":"7010164"},{"name":"七日市西町","zip_code":"7000851"},{"name":"七日市東町","zip_code":"7000852"},{"name":"楢津","zip_code":"7011202"},{"name":"西市","zip_code":"7000953"},{"name":"西辛川","zip_code":"7011213"},{"name":"錦町","zip_code":"7000902"},{"name":"西崎","zip_code":"7000055"},{"name":"西崎本町","zip_code":"7000056"},{"name":"西島田町","zip_code":"7000981"},{"name":"西長瀬","zip_code":"7000965"},{"name":"西之町","zip_code":"7000916"},{"name":"西野山町","zip_code":"7000067"},{"name":"西花尻","zip_code":"7010136"},{"name":"西古松","zip_code":"7000927"},{"name":"西古松西町","zip_code":"7000926"},{"name":"西山内","zip_code":"7011612"},{"name":"日応寺","zip_code":"7011131"},{"name":"庭瀬","zip_code":"7010153"},{"name":"納所","zip_code":"7010162"},{"name":"野田","zip_code":"7000971"},{"name":"野田屋町","zip_code":"7000815"},{"name":"野殿西町","zip_code":"7000066"},{"name":"野殿東町","zip_code":"7000065"},{"name":"延友","zip_code":"7010152"},{"name":"芳賀","zip_code":"7011221"},{"name":"畑鮎","zip_code":"7012153"},{"name":"花尻","zip_code":"7010134"},{"name":"花尻あかね町","zip_code":"7010133"},{"name":"花尻ききょう町","zip_code":"7010132"},{"name":"花尻みどり町","zip_code":"7010131"},{"name":"原","zip_code":"7012154"},{"name":"蕃山町","zip_code":"7000818"},{"name":"半田町","zip_code":"7000003"},{"name":"番町","zip_code":"7000811"},{"name":"東島田町","zip_code":"7000983"},{"name":"東中央町","zip_code":"7000835"},{"name":"東野山町","zip_code":"7000068"},{"name":"東花尻","zip_code":"7010135"},{"name":"東古松","zip_code":"7000921"},{"name":"東古松南町","zip_code":"7000922"},{"name":"東山内","zip_code":"7011611"},{"name":"日近","zip_code":"7011521"},{"name":"日吉町","zip_code":"7000966"},{"name":"平田","zip_code":"7000952"},{"name":"平野","zip_code":"7010151"},{"name":"平山","zip_code":"7011332"},{"name":"広瀬町","zip_code":"7000806"},{"name":"福崎","zip_code":"7011357"},{"name":"福谷","zip_code":"7011225"},{"name":"二日市町","zip_code":"7000843"},{"name":"舟橋町","zip_code":"7000841"},{"name":"兵団","zip_code":"7000805"},{"name":"平和町","zip_code":"7000827"},{"name":"法界院","zip_code":"7000004"},{"name":"奉還町","zip_code":"7000026"},{"name":"本町","zip_code":"7000901"},{"name":"間倉","zip_code":"7011613"},{"name":"松尾","zip_code":"7011222"},{"name":"真星","zip_code":"7011602"},{"name":"丸の内","zip_code":"7000823"},{"name":"万成西町","zip_code":"7000073"},{"name":"万成東町","zip_code":"7000072"},{"name":"三門中町","zip_code":"7000043"},{"name":"三門西町","zip_code":"7000044"},{"name":"三門東町","zip_code":"7000042"},{"name":"御津石上","zip_code":"7092101"},{"name":"御津伊田","zip_code":"7092105"},{"name":"御津宇甘","zip_code":"7092125"},{"name":"御津宇垣","zip_code":"7092121"},{"name":"御津鹿瀬","zip_code":"7092131"},{"name":"御津勝尾","zip_code":"7092126"},{"name":"御津金川","zip_code":"7092133"},{"name":"御津川高","zip_code":"7092111"},{"name":"御津北野","zip_code":"7092115"},{"name":"御津草生","zip_code":"7092132"},{"name":"御津国ケ原","zip_code":"7092112"},{"name":"御津河内","zip_code":"7092123"},{"name":"御津虎倉","zip_code":"7092137"},{"name":"御津紙工","zip_code":"7092136"},{"name":"御津下田","zip_code":"7092134"},{"name":"御津新庄","zip_code":"7092106"},{"name":"御津高津","zip_code":"7092124"},{"name":"御津中泉","zip_code":"7092135"},{"name":"御津中畑","zip_code":"7092102"},{"name":"御津中牧","zip_code":"7092114"},{"name":"御津中山","zip_code":"7092116"},{"name":"御津野々口","zip_code":"7092117"},{"name":"御津平岡西","zip_code":"7092104"},{"name":"御津矢知","zip_code":"7092103"},{"name":"御津矢原","zip_code":"7092107"},{"name":"御津吉尾","zip_code":"7092122"},{"name":"御津芳谷","zip_code":"7092113"},{"name":"三手","zip_code":"7011353"},{"name":"三和","zip_code":"7011134"},{"name":"南方","zip_code":"7000807"},{"name":"南中央町","zip_code":"7000837"},{"name":"三野","zip_code":"7000802"},{"name":"三野本町","zip_code":"7000801"},{"name":"牟佐","zip_code":"7012141"},{"name":"門前","zip_code":"7011351"},{"name":"矢坂西町","zip_code":"7000076"},{"name":"矢坂東町","zip_code":"7000074"},{"name":"矢坂本町","zip_code":"7000075"},{"name":"柳町","zip_code":"7000904"},{"name":"山科町","zip_code":"7000847"},{"name":"大和町","zip_code":"7000808"},{"name":"山上","zip_code":"7011526"},{"name":"弓之町","zip_code":"7000817"},{"name":"横井上","zip_code":"7011145"},{"name":"横尾","zip_code":"7011226"},{"name":"吉","zip_code":"7011523"},{"name":"吉宗","zip_code":"7011143"},{"name":"理大町","zip_code":"7000005"},{"name":"和井元","zip_code":"7011337"}]},{"name":"岡山市中区","divisions":[{"name":"赤坂本町","zip_code":"7038288"},{"name":"赤坂南新町","zip_code":"7038283"},{"name":"赤坂台","zip_code":"7038287"},{"name":"赤田","zip_code":"7038231"},{"name":"網浜","zip_code":"7038284"},{"name":"今在家","zip_code":"7038208"},{"name":"今谷","zip_code":"7038226"},{"name":"江崎","zip_code":"7028005"},{"name":"江並","zip_code":"7028004"},{"name":"沖元","zip_code":"7028001"},{"name":"奥市","zip_code":"7038272"},{"name":"乙多見","zip_code":"7038228"},{"name":"御成町","zip_code":"7038277"},{"name":"雄町","zip_code":"7038204"},{"name":"門田文化町","zip_code":"7038273"},{"name":"門田本町","zip_code":"7038274"},{"name":"門田屋敷","zip_code":"7038275"},{"name":"門田屋敷本町","zip_code":"7038276"},{"name":"兼基","zip_code":"7038227"},{"name":"祇園","zip_code":"7038207"},{"name":"旭東町","zip_code":"7038286"},{"name":"国富","zip_code":"7038236"},{"name":"倉田","zip_code":"7038265"},{"name":"倉富","zip_code":"7038264"},{"name":"倉益","zip_code":"7038263"},{"name":"桑野","zip_code":"7028002"},{"name":"神下","zip_code":"7038225"},{"name":"国府市場","zip_code":"7038203"},{"name":"小橋町","zip_code":"7038293"},{"name":"さい","zip_code":"7038248"},{"name":"さい東町","zip_code":"7038247"},{"name":"さくら住座","zip_code":"7038296"},{"name":"桜橋","zip_code":"7038285"},{"name":"沢田","zip_code":"7038234"},{"name":"四御神","zip_code":"7038201"},{"name":"清水","zip_code":"7038243"},{"name":"下","zip_code":"7038222"},{"name":"賞田","zip_code":"7038206"},{"name":"新京橋","zip_code":"7038294"},{"name":"新築港","zip_code":"7028003"},{"name":"住吉町","zip_code":"7038238"},{"name":"関","zip_code":"7038232"},{"name":"高島","zip_code":"7038242"},{"name":"高島新屋敷","zip_code":"7038241"},{"name":"高屋","zip_code":"7038233"},{"name":"竹田","zip_code":"7038251"},{"name":"中納言町","zip_code":"7038292"},{"name":"土田","zip_code":"7038217"},{"name":"徳吉町","zip_code":"7038291"},{"name":"中井","zip_code":"7038205"},{"name":"長岡","zip_code":"7038221"},{"name":"中島","zip_code":"7038252"},{"name":"長利","zip_code":"7038223"},{"name":"西川原","zip_code":"7038258"},{"name":"西中島町","zip_code":"7038298"},{"name":"浜","zip_code":"7038256"},{"name":"原尾島","zip_code":"7038235"},{"name":"東川原","zip_code":"7038255"},{"name":"東中島町","zip_code":"7038297"},{"name":"東山","zip_code":"7038281"},{"name":"平井","zip_code":"7038282"},{"name":"福泊","zip_code":"7038262"},{"name":"藤崎","zip_code":"7028006"},{"name":"藤原","zip_code":"7038245"},{"name":"藤原西町","zip_code":"7038244"},{"name":"藤原光町","zip_code":"7038246"},{"name":"古京町","zip_code":"7038278"},{"name":"円山","zip_code":"7038271"},{"name":"湊","zip_code":"7038266"},{"name":"御幸町","zip_code":"7038295"},{"name":"海吉","zip_code":"7038261"},{"name":"森下町","zip_code":"7038237"},{"name":"八幡","zip_code":"7038254"},{"name":"八幡東町","zip_code":"7038253"},{"name":"山崎","zip_code":"7038267"},{"name":"湯迫","zip_code":"7038202"},{"name":"米田","zip_code":"7038224"}]},{"name":"岡山市東区","divisions":[{"name":"浅川","zip_code":"7090605"},{"name":"浅越","zip_code":"7048181"},{"name":"犬島","zip_code":"7048153"},{"name":"内ケ原","zip_code":"7090612"},{"name":"浦間","zip_code":"7090607"},{"name":"大多羅町","zip_code":"7048172"},{"name":"邑久郷","zip_code":"7048132"},{"name":"乙子","zip_code":"7048137"},{"name":"可知","zip_code":"7048173"},{"name":"金岡西町","zip_code":"7048193"},{"name":"金岡東町","zip_code":"7048194"},{"name":"金田","zip_code":"7048196"},{"name":"上阿知","zip_code":"7048142"},{"name":"神崎町","zip_code":"7048138"},{"name":"北幸田","zip_code":"7048134"},{"name":"君津","zip_code":"7048166"},{"name":"久々井","zip_code":"7048154"},{"name":"草ケ部","zip_code":"7090635"},{"name":"九蟠","zip_code":"7048161"},{"name":"久保","zip_code":"7048102"},{"name":"鉄","zip_code":"7038214"},{"name":"幸地崎町","zip_code":"7048149"},{"name":"光津","zip_code":"7048164"},{"name":"河本町","zip_code":"7048103"},{"name":"古都宿","zip_code":"7038212"},{"name":"古都南方","zip_code":"7038215"},{"name":"才崎","zip_code":"7090615"},{"name":"西大寺","zip_code":"7048113"},{"name":"西大寺射越","zip_code":"7048121"},{"name":"西大寺一宮","zip_code":"7048144"},{"name":"西大寺金岡","zip_code":"7048195"},{"name":"西大寺上","zip_code":"7048112"},{"name":"西大寺川口","zip_code":"7048125"},{"name":"西大寺北","zip_code":"7048111"},{"name":"西大寺五明","zip_code":"7048124"},{"name":"西大寺新","zip_code":"7048127"},{"name":"西大寺新地","zip_code":"7048122"},{"name":"西大寺中","zip_code":"7048116"},{"name":"西大寺中野","zip_code":"7048191"},{"name":"西大寺中野本町","zip_code":"7048192"},{"name":"西大寺浜","zip_code":"7048126"},{"name":"西大寺東","zip_code":"7048114"},{"name":"西大寺松崎","zip_code":"7048183"},{"name":"西大寺南","zip_code":"7048117"},{"name":"西大寺門前","zip_code":"7048123"},{"name":"西隆寺","zip_code":"7048101"},{"name":"宍甘","zip_code":"7038216"},{"name":"下阿知","zip_code":"7048141"},{"name":"宿毛","zip_code":"7048133"},{"name":"上道北方","zip_code":"7090625"},{"name":"城東台西","zip_code":"7090624"},{"name":"城東台東","zip_code":"7090622"},{"name":"城東台南","zip_code":"7090623"},{"name":"水門町","zip_code":"7048148"},{"name":"砂場","zip_code":"7090634"},{"name":"西祖","zip_code":"7090603"},{"name":"瀬戸町旭ヶ丘","zip_code":"7090853"},{"name":"瀬戸町江尻","zip_code":"7090854"},{"name":"瀬戸町大内","zip_code":"7090851"},{"name":"瀬戸町沖","zip_code":"7090855"},{"name":"瀬戸町鍛冶屋","zip_code":"7090845"},{"name":"瀬戸町肩脊","zip_code":"7090852"},{"name":"瀬戸町観音寺","zip_code":"7090863"},{"name":"瀬戸町菊山","zip_code":"7090865"},{"name":"瀬戸町光明谷","zip_code":"7090876"},{"name":"瀬戸町坂根","zip_code":"7090873"},{"name":"瀬戸町笹岡","zip_code":"7090862"},{"name":"瀬戸町塩納","zip_code":"7090871"},{"name":"瀬戸町下","zip_code":"7090856"},{"name":"瀬戸町宿奥","zip_code":"7090864"},{"name":"瀬戸町瀬戸","zip_code":"7090861"},{"name":"瀬戸町宗堂","zip_code":"7090872"},{"name":"瀬戸町大井","zip_code":"7090846"},{"name":"瀬戸町寺地","zip_code":"7090875"},{"name":"瀬戸町二日市","zip_code":"7090842"},{"name":"瀬戸町万富","zip_code":"7090841"},{"name":"瀬戸町南方","zip_code":"7090844"},{"name":"瀬戸町森末","zip_code":"7090874"},{"name":"瀬戸町弓削","zip_code":"7090843"},{"name":"千手","zip_code":"7048143"},{"name":"竹原","zip_code":"7090614"},{"name":"谷尻","zip_code":"7090636"},{"name":"寺山","zip_code":"7090604"},{"name":"富崎","zip_code":"7048104"},{"name":"豊田","zip_code":"7048162"},{"name":"中尾","zip_code":"7090626"},{"name":"中川町","zip_code":"7048176"},{"name":"長沼","zip_code":"7048131"},{"name":"楢原","zip_code":"7090611"},{"name":"西片岡","zip_code":"7048155"},{"name":"西幸西","zip_code":"7048136"},{"name":"西庄","zip_code":"7048106"},{"name":"西平島","zip_code":"7090633"},{"name":"沼","zip_code":"7090621"},{"name":"東片岡","zip_code":"7048151"},{"name":"東幸西","zip_code":"7048135"},{"name":"東幸崎","zip_code":"7048145"},{"name":"東平島","zip_code":"7090631"},{"name":"一日市","zip_code":"7090602"},{"name":"広谷","zip_code":"7048182"},{"name":"福治","zip_code":"7048107"},{"name":"藤井","zip_code":"7038213"},{"name":"富士見町","zip_code":"7048184"},{"name":"宝伝","zip_code":"7048152"},{"name":"正儀","zip_code":"7048147"},{"name":"政津","zip_code":"7048165"},{"name":"升田","zip_code":"7048163"},{"name":"益野町","zip_code":"7048175"},{"name":"松新町","zip_code":"7048174"},{"name":"南古都","zip_code":"7090632"},{"name":"南水門町","zip_code":"7048146"},{"name":"向州","zip_code":"7048115"},{"name":"目黒町","zip_code":"7048171"},{"name":"百枝月","zip_code":"7090613"},{"name":"矢井","zip_code":"7090606"},{"name":"矢津","zip_code":"7038211"},{"name":"吉井","zip_code":"7090601"},{"name":"吉原","zip_code":"7048105"}]},{"name":"岡山市南区","divisions":[{"name":"青江","zip_code":"7000941"},{"name":"飽浦","zip_code":"7028013"},{"name":"あけぼの町","zip_code":"7028057"},{"name":"阿津","zip_code":"7028015"},{"name":"泉田","zip_code":"7000944"},{"name":"植松","zip_code":"7100151"},{"name":"内尾","zip_code":"7010212"},{"name":"浦安西町","zip_code":"7028025"},{"name":"浦安本町","zip_code":"7028026"},{"name":"浦安南町","zip_code":"7028024"},{"name":"大福","zip_code":"7010204"},{"name":"奥迫川","zip_code":"7091212"},{"name":"海岸通","zip_code":"7028045"},{"name":"片岡","zip_code":"7091215"},{"name":"川張","zip_code":"7091214"},{"name":"北浦","zip_code":"7028012"},{"name":"北七区","zip_code":"7091201"},{"name":"郡","zip_code":"7028011"},{"name":"小串","zip_code":"7028016"},{"name":"古新田","zip_code":"7010203"},{"name":"市場","zip_code":"7028052"},{"name":"下中野","zip_code":"7000973"},{"name":"新福","zip_code":"7000943"},{"name":"新保","zip_code":"7000945"},{"name":"洲崎","zip_code":"7028042"},{"name":"妹尾","zip_code":"7010205"},{"name":"妹尾崎","zip_code":"7010201"},{"name":"宗津","zip_code":"7091216"},{"name":"曽根","zip_code":"7010214"},{"name":"立川町","zip_code":"7028046"},{"name":"築港栄町","zip_code":"7028053"},{"name":"築港新町","zip_code":"7028056"},{"name":"築港ひかり町","zip_code":"7028054"},{"name":"築港緑町","zip_code":"7028055"},{"name":"築港元町","zip_code":"7028051"},{"name":"千鳥町","zip_code":"7028037"},{"name":"当新田","zip_code":"7000956"},{"name":"富浜町","zip_code":"7028041"},{"name":"豊成","zip_code":"7000942"},{"name":"豊浜町","zip_code":"7000853"},{"name":"中畦","zip_code":"7010213"},{"name":"並木町","zip_code":"7028058"},{"name":"南輝","zip_code":"7028023"},{"name":"西市","zip_code":"7000953"},{"name":"西畦","zip_code":"7010215"},{"name":"西紅陽台","zip_code":"7091203"},{"name":"西高崎","zip_code":"7091204"},{"name":"西七区","zip_code":"7091202"},{"name":"迫川","zip_code":"7091211"},{"name":"浜野","zip_code":"7000845"},{"name":"東畦","zip_code":"7010211"},{"name":"彦崎","zip_code":"7091213"},{"name":"平福","zip_code":"7028043"},{"name":"福島","zip_code":"7028044"},{"name":"福田","zip_code":"7028021"},{"name":"福富中","zip_code":"7028032"},{"name":"福富西","zip_code":"7028031"},{"name":"福富東","zip_code":"7028033"},{"name":"福成","zip_code":"7028022"},{"name":"福浜町","zip_code":"7028035"},{"name":"福浜西町","zip_code":"7028034"},{"name":"福吉町","zip_code":"7028048"},{"name":"藤田","zip_code":"7010221"},{"name":"松浜町","zip_code":"7028038"},{"name":"万倍","zip_code":"7000955"},{"name":"箕島","zip_code":"7010206"},{"name":"三浜町","zip_code":"7028036"},{"name":"宮浦","zip_code":"7028014"},{"name":"山田","zip_code":"7010202"},{"name":"米倉","zip_code":"7000954"},{"name":"若葉町","zip_code":"7028047"}]},{"name":"倉敷市","divisions":[{"name":"青江","zip_code":"7100064"},{"name":"浅原","zip_code":"7100007"},{"name":"阿知","zip_code":"7100055"},{"name":"天城台","zip_code":"7100131"},{"name":"有城","zip_code":"7100031"},{"name":"生坂","zip_code":"7100002"},{"name":"五日市","zip_code":"7100041"},{"name":"稲荷町","zip_code":"7100822"},{"name":"石見町","zip_code":"7100814"},{"name":"潮通","zip_code":"7128054"},{"name":"浦田","zip_code":"7100843"},{"name":"老松町","zip_code":"7100826"},{"name":"大内","zip_code":"7100817"},{"name":"大島","zip_code":"7100047"},{"name":"大畠","zip_code":"7110924"},{"name":"沖","zip_code":"7100836"},{"name":"沖新町","zip_code":"7100837"},{"name":"尾原","zip_code":"7100144"},{"name":"帯高","zip_code":"7100023"},{"name":"加須山","zip_code":"7100026"},{"name":"片島町","zip_code":"7100805"},{"name":"上富井","zip_code":"7100846"},{"name":"亀島","zip_code":"7128013"},{"name":"亀山","zip_code":"7100024"},{"name":"川入","zip_code":"7100811"},{"name":"川西町","zip_code":"7100821"},{"name":"神田","zip_code":"7128061"},{"name":"北畝","zip_code":"7128032"},{"name":"北浜町","zip_code":"7100812"},{"name":"木見","zip_code":"7100143"},{"name":"串田","zip_code":"7100141"},{"name":"倉敷ハイツ","zip_code":"7100025"},{"name":"栗坂","zip_code":"7010113"},{"name":"黒石","zip_code":"7100035"},{"name":"黒崎","zip_code":"7100014"},{"name":"児島赤崎","zip_code":"7110931"},{"name":"児島味野","zip_code":"7110913"},{"name":"児島味野上","zip_code":"7110917"},{"name":"児島味野城山","zip_code":"7110916"},{"name":"児島味野城","zip_code":"7110914"},{"name":"児島味野山田町","zip_code":"7110915"},{"name":"児島阿津","zip_code":"7110923"},{"name":"児島宇野津","zip_code":"7110935"},{"name":"児島駅前","zip_code":"7110921"},{"name":"児島小川","zip_code":"7110911"},{"name":"児島小川町","zip_code":"7110912"},{"name":"児島上の町","zip_code":"7110907"},{"name":"児島下の町","zip_code":"7110906"},{"name":"児島通生","zip_code":"7110933"},{"name":"児島唐琴","zip_code":"7110904"},{"name":"児島唐琴町","zip_code":"7110905"},{"name":"児島塩生","zip_code":"7110934"},{"name":"児島白尾","zip_code":"7110902"},{"name":"児島田の口","zip_code":"7110903"},{"name":"児島稗田町","zip_code":"7110937"},{"name":"児島元浜町","zip_code":"7110922"},{"name":"児島柳田町","zip_code":"7110936"},{"name":"児島由加","zip_code":"7110901"},{"name":"寿町","zip_code":"7100813"},{"name":"菰池","zip_code":"7110932"},{"name":"幸町","zip_code":"7100051"},{"name":"酒津","zip_code":"7100801"},{"name":"笹沖","zip_code":"7100834"},{"name":"四十瀬","zip_code":"7100835"},{"name":"下庄","zip_code":"7010112"},{"name":"下津井","zip_code":"7110927"},{"name":"下津井田之浦","zip_code":"7110925"},{"name":"下津井吹上","zip_code":"7110926"},{"name":"庄新町","zip_code":"7010102"},{"name":"上東","zip_code":"7010111"},{"name":"昭和","zip_code":"7100057"},{"name":"新倉敷駅前","zip_code":"7100253"},{"name":"新田","zip_code":"7100038"},{"name":"祐安","zip_code":"7100006"},{"name":"曽原","zip_code":"7100146"},{"name":"高須賀","zip_code":"7100021"},{"name":"田ノ上","zip_code":"7100831"},{"name":"田ノ上新町","zip_code":"7100832"},{"name":"玉島","zip_code":"7138102"},{"name":"玉島阿賀崎","zip_code":"7138121"},{"name":"玉島上成","zip_code":"7138101"},{"name":"玉島乙島","zip_code":"7138103"},{"name":"玉島柏島","zip_code":"7138123"},{"name":"玉島柏台","zip_code":"7138124"},{"name":"玉島黒崎","zip_code":"7138126"},{"name":"玉島黒崎新町","zip_code":"7138127"},{"name":"玉島陶","zip_code":"7138112"},{"name":"玉島中央町","zip_code":"7138122"},{"name":"玉島爪崎","zip_code":"7100252"},{"name":"玉島富","zip_code":"7138116"},{"name":"玉島長尾","zip_code":"7100251"},{"name":"玉島服部","zip_code":"7138111"},{"name":"玉島道口","zip_code":"7138115"},{"name":"玉島道越","zip_code":"7138114"},{"name":"玉島八島","zip_code":"7138113"},{"name":"玉島勇崎","zip_code":"7138125"},{"name":"茶屋町","zip_code":"7101101"},{"name":"茶屋町早沖","zip_code":"7101102"},{"name":"中央","zip_code":"7100046"},{"name":"粒浦","zip_code":"7100036"},{"name":"粒江","zip_code":"7100034"},{"name":"粒江団地","zip_code":"7100033"},{"name":"連島","zip_code":"7128012"},{"name":"連島中央","zip_code":"7128014"},{"name":"連島町亀島新田","zip_code":"7128002"},{"name":"連島町連島","zip_code":"7128011"},{"name":"連島町鶴新田","zip_code":"7128006"},{"name":"連島町西之浦","zip_code":"7128001"},{"name":"連島町矢柄","zip_code":"7128015"},{"name":"鶴形","zip_code":"7100056"},{"name":"鶴の浦","zip_code":"7128007"},{"name":"徳芳","zip_code":"7100011"},{"name":"鳥羽","zip_code":"7100012"},{"name":"中帯江","zip_code":"7100013"},{"name":"中島","zip_code":"7100803"},{"name":"中庄","zip_code":"7100016"},{"name":"中庄団地","zip_code":"7100015"},{"name":"中畝","zip_code":"7128051"},{"name":"西阿知町","zip_code":"7100807"},{"name":"西阿知町新田","zip_code":"7100804"},{"name":"西阿知町西原","zip_code":"7100806"},{"name":"西尾","zip_code":"7010103"},{"name":"西岡","zip_code":"7100005"},{"name":"西坂","zip_code":"7100004"},{"name":"西田","zip_code":"7100027"},{"name":"西富井","zip_code":"7100845"},{"name":"西中新田","zip_code":"7100833"},{"name":"白楽町","zip_code":"7100824"},{"name":"羽島","zip_code":"7100043"},{"name":"八王寺町","zip_code":"7100816"},{"name":"八軒屋","zip_code":"7100037"},{"name":"浜ノ茶屋","zip_code":"7100061"},{"name":"浜町","zip_code":"7100062"},{"name":"林","zip_code":"7100142"},{"name":"早高","zip_code":"7100022"},{"name":"東粒浦","zip_code":"7100032"},{"name":"東塚","zip_code":"7128044"},{"name":"東富井","zip_code":"7100847"},{"name":"東町","zip_code":"7100053"},{"name":"日ノ出町","zip_code":"7100063"},{"name":"日畑","zip_code":"7010101"},{"name":"日吉町","zip_code":"7100815"},{"name":"平田","zip_code":"7100003"},{"name":"広江","zip_code":"7128043"},{"name":"福井","zip_code":"7100844"},{"name":"福江","zip_code":"7100145"},{"name":"福島","zip_code":"7100048"},{"name":"福田町浦田","zip_code":"7128031"},{"name":"福田町古新田","zip_code":"7128046"},{"name":"福田町東塚","zip_code":"7128045"},{"name":"福田町広江","zip_code":"7128042"},{"name":"福田町福田","zip_code":"7128041"},{"name":"藤戸町天城","zip_code":"7100132"},{"name":"藤戸町藤戸","zip_code":"7100133"},{"name":"二子","zip_code":"7010115"},{"name":"二日市","zip_code":"7100042"},{"name":"船穂町船穂","zip_code":"7100261"},{"name":"船穂町水江","zip_code":"7100262"},{"name":"船穂町柳井原","zip_code":"7100263"},{"name":"船倉町","zip_code":"7100045"},{"name":"堀南","zip_code":"7100841"},{"name":"本町","zip_code":"7100054"},{"name":"松江","zip_code":"7128052"},{"name":"松島","zip_code":"7010114"},{"name":"真備町有井","zip_code":"7101306"},{"name":"真備町市場","zip_code":"7101305"},{"name":"真備町岡田","zip_code":"7101311"},{"name":"真備町尾崎","zip_code":"7101304"},{"name":"真備町上二万","zip_code":"7101315"},{"name":"真備町川辺","zip_code":"7101313"},{"name":"真備町下二万","zip_code":"7101314"},{"name":"真備町妹","zip_code":"7101303"},{"name":"真備町辻田","zip_code":"7101312"},{"name":"真備町服部","zip_code":"7101302"},{"name":"真備町箭田","zip_code":"7101301"},{"name":"水江","zip_code":"7100802"},{"name":"水島相生町","zip_code":"7128039"},{"name":"水島青葉町","zip_code":"7128064"},{"name":"水島海岸通","zip_code":"7128071"},{"name":"水島川崎通","zip_code":"7128074"},{"name":"水島高砂町","zip_code":"7128066"},{"name":"水島中通","zip_code":"7128072"},{"name":"水島西通","zip_code":"7128073"},{"name":"水島東川町","zip_code":"7128021"},{"name":"水島東寿町","zip_code":"7128037"},{"name":"水島西寿町","zip_code":"7128038"},{"name":"水島東栄町","zip_code":"7128033"},{"name":"水島西栄町","zip_code":"7128034"},{"name":"水島東千鳥町","zip_code":"7128057"},{"name":"水島西千鳥町","zip_code":"7128065"},{"name":"水島東常盤町","zip_code":"7128058"},{"name":"水島西常盤町","zip_code":"7128059"},{"name":"水島東弥生町","zip_code":"7128035"},{"name":"水島西弥生町","zip_code":"7128036"},{"name":"水島福崎町","zip_code":"7128056"},{"name":"水島南春日町","zip_code":"7128025"},{"name":"水島北春日町","zip_code":"7128024"},{"name":"水島南亀島町","zip_code":"7128004"},{"name":"水島北亀島町","zip_code":"7128005"},{"name":"水島南幸町","zip_code":"7128063"},{"name":"水島北幸町","zip_code":"7128062"},{"name":"水島南瑞穂町","zip_code":"7128026"},{"name":"水島北瑞穂町","zip_code":"7128027"},{"name":"水島南緑町","zip_code":"7128023"},{"name":"水島北緑町","zip_code":"7128022"},{"name":"水島明神町","zip_code":"7128003"},{"name":"三田","zip_code":"7100001"},{"name":"南畝","zip_code":"7128055"},{"name":"南町","zip_code":"7100823"},{"name":"宮前","zip_code":"7100065"},{"name":"美和","zip_code":"7100052"},{"name":"向山","zip_code":"7100044"},{"name":"安江","zip_code":"7100825"},{"name":"矢部","zip_code":"7010105"},{"name":"山地","zip_code":"7010104"},{"name":"吉岡","zip_code":"7100842"},{"name":"呼松","zip_code":"7128053"},{"name":"呼松町","zip_code":"7128053"}]},{"name":"津山市","divisions":[{"name":"阿波","zip_code":"7093951"},{"name":"綾部","zip_code":"7081104"},{"name":"池ケ原","zip_code":"7080852"},{"name":"一色","zip_code":"7094615"},{"name":"一宮","zip_code":"7080815"},{"name":"市場","zip_code":"7081206"},{"name":"一方","zip_code":"7080883"},{"name":"井口","zip_code":"7080885"},{"name":"院庄","zip_code":"7080014"},{"name":"上之町","zip_code":"7080831"},{"name":"瓜生原","zip_code":"7080844"},{"name":"大岩","zip_code":"7081202"},{"name":"大篠","zip_code":"7080802"},{"name":"大谷","zip_code":"7080882"},{"name":"大田","zip_code":"7080806"},{"name":"大手町","zip_code":"7080023"},{"name":"大吉","zip_code":"7081203"},{"name":"奥津川","zip_code":"7081201"},{"name":"桶屋町","zip_code":"7080066"},{"name":"小桁","zip_code":"7080863"},{"name":"押入","zip_code":"7081126"},{"name":"押渕","zip_code":"7080865"},{"name":"小田中","zip_code":"7080006"},{"name":"小原","zip_code":"7080001"},{"name":"鍛治町","zip_code":"7080077"},{"name":"勝部","zip_code":"7080804"},{"name":"勝間田町","zip_code":"7080835"},{"name":"金井","zip_code":"7080855"},{"name":"金屋","zip_code":"7080864"},{"name":"上河原","zip_code":"7080002"},{"name":"上紺屋町","zip_code":"7080076"},{"name":"上高倉","zip_code":"7081121"},{"name":"上田邑","zip_code":"7080011"},{"name":"上野田","zip_code":"7081214"},{"name":"上村","zip_code":"7081224"},{"name":"上横野","zip_code":"7080801"},{"name":"加茂町青柳","zip_code":"7093915"},{"name":"加茂町宇野","zip_code":"7093907"},{"name":"加茂町小渕","zip_code":"7093924"},{"name":"加茂町河井","zip_code":"7093912"},{"name":"加茂町公郷","zip_code":"7093921"},{"name":"加茂町倉見","zip_code":"7093901"},{"name":"加茂町黒木","zip_code":"7093902"},{"name":"加茂町桑原","zip_code":"7093923"},{"name":"加茂町小中原","zip_code":"7093906"},{"name":"加茂町斉野谷","zip_code":"7093904"},{"name":"加茂町山下","zip_code":"7093913"},{"name":"加茂町下津川","zip_code":"7093922"},{"name":"加茂町塔中","zip_code":"7093905"},{"name":"加茂町知和","zip_code":"7093914"},{"name":"加茂町百々","zip_code":"7093935"},{"name":"加茂町戸賀","zip_code":"7093903"},{"name":"加茂町中原","zip_code":"7093931"},{"name":"加茂町楢井","zip_code":"7093934"},{"name":"加茂町成安","zip_code":"7093932"},{"name":"加茂町原口","zip_code":"7093908"},{"name":"加茂町物見","zip_code":"7093911"},{"name":"加茂町行重","zip_code":"7093933"},{"name":"茅町","zip_code":"7080043"},{"name":"川崎","zip_code":"7080841"},{"name":"河辺","zip_code":"7080842"},{"name":"河原町","zip_code":"7080033"},{"name":"北園町","zip_code":"7080003"},{"name":"北町","zip_code":"7080021"},{"name":"京町","zip_code":"7080062"},{"name":"草加部","zip_code":"7081117"},{"name":"くめ","zip_code":"7094612"},{"name":"久米川南","zip_code":"7094614"},{"name":"桑上","zip_code":"7094624"},{"name":"桑下","zip_code":"7094623"},{"name":"神代","zip_code":"7094621"},{"name":"荒神山","zip_code":"7080866"},{"name":"河面","zip_code":"7081115"},{"name":"国分寺","zip_code":"7080843"},{"name":"小性町","zip_code":"7080063"},{"name":"細工町","zip_code":"7080053"},{"name":"材木町","zip_code":"7080031"},{"name":"堺町","zip_code":"7080064"},{"name":"坂上","zip_code":"7081223"},{"name":"里公文","zip_code":"7094625"},{"name":"里公文上","zip_code":"7094626"},{"name":"皿","zip_code":"7080873"},{"name":"山下","zip_code":"7080022"},{"name":"志戸部","zip_code":"7080825"},{"name":"紫保井","zip_code":"7080805"},{"name":"下紺屋町","zip_code":"7080071"},{"name":"下高倉東","zip_code":"7081122"},{"name":"下高倉西","zip_code":"7081123"},{"name":"下田邑","zip_code":"7080012"},{"name":"下野田","zip_code":"7081213"},{"name":"下横野","zip_code":"7080807"},{"name":"城代町","zip_code":"7080005"},{"name":"昭和町","zip_code":"7080886"},{"name":"新魚町","zip_code":"7080065"},{"name":"新茅町","zip_code":"7080042"},{"name":"神戸","zip_code":"7080015"},{"name":"新職人町","zip_code":"7080067"},{"name":"杉宮","zip_code":"7081215"},{"name":"船頭町","zip_code":"7080034"},{"name":"総社","zip_code":"7080007"},{"name":"高尾","zip_code":"7080876"},{"name":"高野本郷","zip_code":"7081125"},{"name":"高野山西","zip_code":"7081124"},{"name":"種","zip_code":"7080874"},{"name":"田熊","zip_code":"7081113"},{"name":"田町","zip_code":"7080052"},{"name":"近長","zip_code":"7081112"},{"name":"椿高下","zip_code":"7080051"},{"name":"坪井上","zip_code":"7094605"},{"name":"坪井下","zip_code":"7094604"},{"name":"坪井町","zip_code":"7080075"},{"name":"津山口","zip_code":"7080884"},{"name":"鉄砲町","zip_code":"7080041"},{"name":"堂尾","zip_code":"7080853"},{"name":"戸川町","zip_code":"7080037"},{"name":"戸島","zip_code":"7080016"},{"name":"戸脇","zip_code":"7094622"},{"name":"中北上","zip_code":"7094606"},{"name":"中北下","zip_code":"7094603"},{"name":"中島","zip_code":"7080871"},{"name":"中之町","zip_code":"7080834"},{"name":"中原","zip_code":"7080854"},{"name":"中村","zip_code":"7081216"},{"name":"楢","zip_code":"7081111"},{"name":"新田","zip_code":"7080851"},{"name":"新野東","zip_code":"7081205"},{"name":"新野山形","zip_code":"7081226"},{"name":"二階町","zip_code":"7080024"},{"name":"西今町","zip_code":"7080046"},{"name":"西上","zip_code":"7081221"},{"name":"西下","zip_code":"7081225"},{"name":"西新町","zip_code":"7080833"},{"name":"西田辺","zip_code":"7080811"},{"name":"西寺町","zip_code":"7080045"},{"name":"西中","zip_code":"7081222"},{"name":"西吉田","zip_code":"7080856"},{"name":"二宮","zip_code":"7080013"},{"name":"日本原","zip_code":"7081204"},{"name":"沼","zip_code":"7080824"},{"name":"野介代","zip_code":"7080821"},{"name":"野村","zip_code":"7081116"},{"name":"林田","zip_code":"7080822"},{"name":"林田町","zip_code":"7080836"},{"name":"橋本町","zip_code":"7080837"},{"name":"原","zip_code":"7081211"},{"name":"日上","zip_code":"7080845"},{"name":"東一宮","zip_code":"7080814"},{"name":"東新町","zip_code":"7080832"},{"name":"東田辺","zip_code":"7080812"},{"name":"平福","zip_code":"7080872"},{"name":"吹屋町","zip_code":"7080035"},{"name":"福井","zip_code":"7081114"},{"name":"福田","zip_code":"7080875"},{"name":"福田下","zip_code":"7094631"},{"name":"福力","zip_code":"7080857"},{"name":"福渡町","zip_code":"7080074"},{"name":"伏見町","zip_code":"7080032"},{"name":"堀坂","zip_code":"7081103"},{"name":"本町","zip_code":"7080073"},{"name":"三浦","zip_code":"7081101"},{"name":"南方中","zip_code":"7094616"},{"name":"南新座","zip_code":"7080036"},{"name":"南町","zip_code":"7080881"},{"name":"美濃町","zip_code":"7080072"},{"name":"宮尾","zip_code":"7094613"},{"name":"宮部上","zip_code":"7094601"},{"name":"宮部下","zip_code":"7094602"},{"name":"宮脇町","zip_code":"7080047"},{"name":"妙原","zip_code":"7081102"},{"name":"元魚町","zip_code":"7080061"},{"name":"籾保","zip_code":"7080803"},{"name":"八出","zip_code":"7080861"},{"name":"八社","zip_code":"7094632"},{"name":"安井","zip_code":"7081212"},{"name":"安岡町","zip_code":"7080044"},{"name":"山方","zip_code":"7080813"},{"name":"山北","zip_code":"7080004"},{"name":"弥生町","zip_code":"7080823"},{"name":"油木上","zip_code":"7094633"},{"name":"油木北","zip_code":"7094635"},{"name":"油木下","zip_code":"7094634"},{"name":"横山","zip_code":"7080862"},{"name":"吉見","zip_code":"7081105"},{"name":"領家","zip_code":"7094611"}]},{"name":"玉野市","divisions":[{"name":"石島","zip_code":"7060306"},{"name":"宇藤木","zip_code":"7060133"},{"name":"宇野","zip_code":"7060011"},{"name":"大薮","zip_code":"7060317"},{"name":"奥玉","zip_code":"7060013"},{"name":"御崎","zip_code":"7060024"},{"name":"梶岡","zip_code":"7060311"},{"name":"上山坂","zip_code":"7060303"},{"name":"北方","zip_code":"7060301"},{"name":"後閑","zip_code":"7060315"},{"name":"小島地","zip_code":"7060144"},{"name":"渋川","zip_code":"7060028"},{"name":"下山坂","zip_code":"7060302"},{"name":"田井","zip_code":"7060001"},{"name":"滝","zip_code":"7060153"},{"name":"玉","zip_code":"7060012"},{"name":"玉原","zip_code":"7060014"},{"name":"築港","zip_code":"7060002"},{"name":"槌ケ原","zip_code":"7060141"},{"name":"永井","zip_code":"7060152"},{"name":"長尾","zip_code":"7060151"},{"name":"西田井地","zip_code":"7060313"},{"name":"沼","zip_code":"7060316"},{"name":"迫間","zip_code":"7060142"},{"name":"八浜町大崎","zip_code":"7060224"},{"name":"八浜町波知","zip_code":"7060223"},{"name":"八浜町八浜","zip_code":"7060221"},{"name":"八浜町見石","zip_code":"7060222"},{"name":"羽根崎町","zip_code":"7060026"},{"name":"番田","zip_code":"7060304"},{"name":"東紅陽台","zip_code":"7060131"},{"name":"東田井地","zip_code":"7060312"},{"name":"東高崎","zip_code":"7060134"},{"name":"東七区","zip_code":"7060226"},{"name":"東野崎","zip_code":"7060314"},{"name":"日比","zip_code":"7060027"},{"name":"広岡","zip_code":"7060154"},{"name":"深井町","zip_code":"7060023"},{"name":"南七区","zip_code":"7060225"},{"name":"明神町","zip_code":"7060025"},{"name":"向日比","zip_code":"7060022"},{"name":"胸上","zip_code":"7060305"},{"name":"木目","zip_code":"7060143"},{"name":"用吉","zip_code":"7060132"},{"name":"山田","zip_code":"7060314"},{"name":"和田","zip_code":"7060021"}]},{"name":"笠岡市","divisions":[{"name":"相生","zip_code":"7140014"},{"name":"旭が丘","zip_code":"7140056"},{"name":"有田","zip_code":"7140075"},{"name":"一番町","zip_code":"7140082"},{"name":"今立","zip_code":"7140022"},{"name":"入江","zip_code":"7140041"},{"name":"絵師","zip_code":"7140091"},{"name":"生江浜","zip_code":"7140055"},{"name":"大井南","zip_code":"7140013"},{"name":"大げ","zip_code":"7140061"},{"name":"大河","zip_code":"7140073"},{"name":"大島中","zip_code":"7140033"},{"name":"尾坂","zip_code":"7140003"},{"name":"押撫","zip_code":"7140076"},{"name":"小平井","zip_code":"7140012"},{"name":"笠岡","zip_code":"7140081"},{"name":"春日台","zip_code":"7140025"},{"name":"金浦","zip_code":"7140057"},{"name":"カブト中央町","zip_code":"7140052"},{"name":"カブト東町","zip_code":"7140051"},{"name":"カブト西町","zip_code":"7140053"},{"name":"カブト南町","zip_code":"7140046"},{"name":"北木島町","zip_code":"7140301"},{"name":"九番町","zip_code":"7140096"},{"name":"鋼管町","zip_code":"7140063"},{"name":"甲弩","zip_code":"7140002"},{"name":"神島","zip_code":"7140044"},{"name":"神島外浦","zip_code":"7140034"},{"name":"五番町","zip_code":"7140086"},{"name":"三番町","zip_code":"7140084"},{"name":"篠坂","zip_code":"7140077"},{"name":"白石島","zip_code":"7140036"},{"name":"城見台","zip_code":"7140065"},{"name":"新賀","zip_code":"7140005"},{"name":"新横島","zip_code":"7140093"},{"name":"十番町","zip_code":"7140097"},{"name":"十一番町","zip_code":"7140098"},{"name":"関戸","zip_code":"7140004"},{"name":"園井","zip_code":"7140021"},{"name":"高島","zip_code":"7140035"},{"name":"拓海町","zip_code":"7140047"},{"name":"中央町","zip_code":"7140088"},{"name":"富岡","zip_code":"7140092"},{"name":"七番町","zip_code":"7140094"},{"name":"西大島","zip_code":"7140032"},{"name":"西大島新田","zip_code":"7140031"},{"name":"西大戸","zip_code":"7140072"},{"name":"西茂平","zip_code":"7140064"},{"name":"二番町","zip_code":"7140083"},{"name":"入田","zip_code":"7140078"},{"name":"走出","zip_code":"7140001"},{"name":"八番町","zip_code":"7140095"},{"name":"東大戸","zip_code":"7140071"},{"name":"飛島","zip_code":"7140302"},{"name":"広浜","zip_code":"7140023"},{"name":"平成町","zip_code":"7140054"},{"name":"馬飼","zip_code":"7140024"},{"name":"真鍋島","zip_code":"7140037"},{"name":"緑町","zip_code":"7140048"},{"name":"港町","zip_code":"7140045"},{"name":"みの越","zip_code":"7140006"},{"name":"美の浜","zip_code":"7140042"},{"name":"六島","zip_code":"7140038"},{"name":"用之江","zip_code":"7140066"},{"name":"茂平","zip_code":"7140062"},{"name":"山口","zip_code":"7140007"},{"name":"横島","zip_code":"7140043"},{"name":"吉田","zip_code":"7140011"},{"name":"吉浜","zip_code":"7140074"},{"name":"四番町","zip_code":"7140085"},{"name":"六番町","zip_code":"7140087"}]},{"name":"井原市","divisions":[{"name":"青野町","zip_code":"7150012"},{"name":"井原町","zip_code":"7150019"},{"name":"岩倉町","zip_code":"7150016"},{"name":"大江町","zip_code":"7150023"},{"name":"上出部町","zip_code":"7150021"},{"name":"上出部町四季が丘","zip_code":"7150026"},{"name":"上稲木町","zip_code":"7150018"},{"name":"北山町","zip_code":"7150013"},{"name":"木之子町","zip_code":"7150004"},{"name":"神代町","zip_code":"7150002"},{"name":"笹賀町","zip_code":"7150025"},{"name":"下出部町","zip_code":"7150022"},{"name":"下稲木町","zip_code":"7150017"},{"name":"高屋町","zip_code":"7150024"},{"name":"七日市町","zip_code":"7150014"},{"name":"西江原町","zip_code":"7150006"},{"name":"西方町","zip_code":"7150015"},{"name":"野上町","zip_code":"7150001"},{"name":"稗原町","zip_code":"7150011"},{"name":"東江原町","zip_code":"7150003"},{"name":"美星町宇戸","zip_code":"7141405"},{"name":"美星町烏頭","zip_code":"7141404"},{"name":"美星町宇戸谷","zip_code":"7141402"},{"name":"美星町大倉","zip_code":"7141411"},{"name":"美星町上高末","zip_code":"7141403"},{"name":"美星町黒木","zip_code":"7141414"},{"name":"美星町黒忠","zip_code":"7141407"},{"name":"美星町西水砂","zip_code":"7141413"},{"name":"美星町東水砂","zip_code":"7141412"},{"name":"美星町星田","zip_code":"7141415"},{"name":"美星町三山","zip_code":"7141406"},{"name":"美星町明治","zip_code":"7141401"},{"name":"門田町","zip_code":"7150005"},{"name":"芳井町池谷","zip_code":"7142125"},{"name":"芳井町井山","zip_code":"7142124"},{"name":"芳井町宇戸川","zip_code":"7142103"},{"name":"芳井町梶江","zip_code":"7142101"},{"name":"芳井町片塚","zip_code":"7142123"},{"name":"芳井町上鴫","zip_code":"7142232"},{"name":"芳井町川相","zip_code":"7142114"},{"name":"芳井町佐屋","zip_code":"7142121"},{"name":"芳井町下鴫","zip_code":"7142231"},{"name":"芳井町種","zip_code":"7142122"},{"name":"芳井町天神山","zip_code":"7142113"},{"name":"芳井町西三原","zip_code":"7142234"},{"name":"芳井町花滝","zip_code":"7142104"},{"name":"芳井町東三原","zip_code":"7142341"},{"name":"芳井町簗瀬","zip_code":"7142112"},{"name":"芳井町山村","zip_code":"7142233"},{"name":"芳井町与井","zip_code":"7142102"},{"name":"芳井町吉井","zip_code":"7142111"}]},{"name":"総社市","divisions":[{"name":"赤浜","zip_code":"7191121"},{"name":"井尻野","zip_code":"7191154"},{"name":"泉","zip_code":"7191106"},{"name":"井手","zip_code":"7191125"},{"name":"宇山","zip_code":"7191315"},{"name":"駅前","zip_code":"7191136"},{"name":"岡谷","zip_code":"7191162"},{"name":"奥坂","zip_code":"7191101"},{"name":"刑部","zip_code":"7191116"},{"name":"影","zip_code":"7191322"},{"name":"金井戸","zip_code":"7191114"},{"name":"上林","zip_code":"7191123"},{"name":"上原","zip_code":"7191143"},{"name":"北溝手","zip_code":"7191117"},{"name":"清音柿木","zip_code":"7191176"},{"name":"清音上中島","zip_code":"7191175"},{"name":"清音軽部","zip_code":"7191172"},{"name":"清音黒田","zip_code":"7191173"},{"name":"清音古地","zip_code":"7191174"},{"name":"清音三因","zip_code":"7191171"},{"name":"久代","zip_code":"7101201"},{"name":"窪木","zip_code":"7191112"},{"name":"久米","zip_code":"7191104"},{"name":"黒尾","zip_code":"7191105"},{"name":"槁","zip_code":"7191313"},{"name":"小寺","zip_code":"7191155"},{"name":"宍粟","zip_code":"7191153"},{"name":"下倉","zip_code":"7191321"},{"name":"地頭片山","zip_code":"7191163"},{"name":"下林","zip_code":"7191122"},{"name":"下原","zip_code":"7191145"},{"name":"宿","zip_code":"7191161"},{"name":"新本","zip_code":"7101203"},{"name":"総社","zip_code":"7191126"},{"name":"種井","zip_code":"7191312"},{"name":"中央","zip_code":"7191131"},{"name":"富原","zip_code":"7191144"},{"name":"中尾","zip_code":"7191323"},{"name":"中原","zip_code":"7191133"},{"name":"長良","zip_code":"7191111"},{"name":"西阿曽","zip_code":"7191103"},{"name":"西郡","zip_code":"7191164"},{"name":"西坂台","zip_code":"7191165"},{"name":"延原","zip_code":"7191314"},{"name":"秦","zip_code":"7191142"},{"name":"原","zip_code":"7191324"},{"name":"東阿曽","zip_code":"7191102"},{"name":"日羽","zip_code":"7191316"},{"name":"福井","zip_code":"7191115"},{"name":"福谷","zip_code":"7191141"},{"name":"真壁","zip_code":"7191134"},{"name":"槇谷","zip_code":"7191151"},{"name":"三須","zip_code":"7191124"},{"name":"溝口","zip_code":"7191135"},{"name":"美袋","zip_code":"7191311"},{"name":"南溝手","zip_code":"7191113"},{"name":"見延","zip_code":"7191152"},{"name":"三輪","zip_code":"7191132"},{"name":"門田","zip_code":"7191156"},{"name":"八代","zip_code":"7191146"},{"name":"山田","zip_code":"7101202"}]},{"name":"高梁市","divisions":[{"name":"間之町","zip_code":"7160009"},{"name":"旭町","zip_code":"7160039"},{"name":"伊賀町","zip_code":"7160018"},{"name":"石火矢町","zip_code":"7160015"},{"name":"有漢町有漢","zip_code":"7161321"},{"name":"有漢町上有漢","zip_code":"7161322"},{"name":"宇治町穴田","zip_code":"7192233"},{"name":"宇治町宇治","zip_code":"7192232"},{"name":"宇治町遠原","zip_code":"7192231"},{"name":"宇治町本郷","zip_code":"7192234"},{"name":"内山下","zip_code":"7160004"},{"name":"奥万田町","zip_code":"7160007"},{"name":"落合町阿部","zip_code":"7160061"},{"name":"落合町福地","zip_code":"7160064"},{"name":"落合町近似","zip_code":"7160062"},{"name":"落合町原田","zip_code":"7160063"},{"name":"御前町","zip_code":"7160017"},{"name":"柿木町","zip_code":"7160028"},{"name":"鍜冶町","zip_code":"7160023"},{"name":"片原町","zip_code":"7160013"},{"name":"上谷町","zip_code":"7160041"},{"name":"川上町大原","zip_code":"7160222"},{"name":"川上町上大竹","zip_code":"7160211"},{"name":"川上町高山","zip_code":"7160223"},{"name":"川上町高山市","zip_code":"7160221"},{"name":"川上町地頭","zip_code":"7160201"},{"name":"川上町下大竹","zip_code":"7160212"},{"name":"川上町臘数","zip_code":"7160205"},{"name":"川上町七地","zip_code":"7160202"},{"name":"川上町仁賀","zip_code":"7160207"},{"name":"川上町三沢","zip_code":"7160203"},{"name":"川上町吉木","zip_code":"7160206"},{"name":"川上町領家","zip_code":"7160204"},{"name":"川端町","zip_code":"7160005"},{"name":"川面町","zip_code":"7192121"},{"name":"甲賀町","zip_code":"7160026"},{"name":"荒神町","zip_code":"7160025"},{"name":"小高下町","zip_code":"7160006"},{"name":"巨瀬町","zip_code":"7161311"},{"name":"栄町","zip_code":"7160035"},{"name":"下谷町","zip_code":"7160042"},{"name":"下町","zip_code":"7160022"},{"name":"新町","zip_code":"7160012"},{"name":"高倉町飯部","zip_code":"7192123"},{"name":"高倉町大瀬八長","zip_code":"7160003"},{"name":"高倉町田井","zip_code":"7192122"},{"name":"玉川町下切","zip_code":"7160053"},{"name":"玉川町玉","zip_code":"7160052"},{"name":"玉川町増原","zip_code":"7160054"},{"name":"大工町","zip_code":"7160024"},{"name":"段町","zip_code":"7160047"},{"name":"中間町","zip_code":"7160021"},{"name":"津川町今津","zip_code":"7160002"},{"name":"津川町八川","zip_code":"7160001"},{"name":"鉄砲町","zip_code":"7160031"},{"name":"寺町","zip_code":"7160019"},{"name":"中井町津々","zip_code":"7192401"},{"name":"中井町西方","zip_code":"7192402"},{"name":"中之町","zip_code":"7160014"},{"name":"中原町","zip_code":"7160045"},{"name":"成羽町相坂","zip_code":"7160333"},{"name":"成羽町長地","zip_code":"7160334"},{"name":"成羽町上日名","zip_code":"7160102"},{"name":"成羽町小泉","zip_code":"7160332"},{"name":"成羽町坂本","zip_code":"7192343"},{"name":"成羽町佐々木","zip_code":"7160113"},{"name":"成羽町下原","zip_code":"7160111"},{"name":"成羽町下日名","zip_code":"7160101"},{"name":"成羽町中野","zip_code":"7192342"},{"name":"成羽町成羽","zip_code":"7160121"},{"name":"成羽町羽根","zip_code":"7160331"},{"name":"成羽町羽山","zip_code":"7160122"},{"name":"成羽町吹屋","zip_code":"7192341"},{"name":"成羽町布寄","zip_code":"7160335"},{"name":"成羽町星原","zip_code":"7160112"},{"name":"浜町","zip_code":"7160038"},{"name":"原田南町","zip_code":"7160044"},{"name":"原田北町","zip_code":"7160043"},{"name":"東町","zip_code":"7160034"},{"name":"備中町志藤用瀬","zip_code":"7160301"},{"name":"備中町長屋","zip_code":"7160303"},{"name":"備中町西山","zip_code":"7160323"},{"name":"備中町西油野","zip_code":"7160322"},{"name":"備中町東油野","zip_code":"7160321"},{"name":"備中町平川","zip_code":"7160311"},{"name":"備中町布賀","zip_code":"7160304"},{"name":"備中町布瀬","zip_code":"7160302"},{"name":"本町","zip_code":"7160011"},{"name":"正宗町","zip_code":"7160037"},{"name":"松原町大津寄","zip_code":"7160065"},{"name":"松原町神原","zip_code":"7160068"},{"name":"松原町春木","zip_code":"7160067"},{"name":"松原町松岡","zip_code":"7160066"},{"name":"松原通","zip_code":"7160036"},{"name":"松山","zip_code":"7160051"},{"name":"南町","zip_code":"7160033"},{"name":"向町","zip_code":"7160029"},{"name":"八幡町","zip_code":"7160027"},{"name":"弓之町","zip_code":"7160032"},{"name":"横町","zip_code":"7160046"},{"name":"頼久寺町","zip_code":"7160016"},{"name":"和田町","zip_code":"7160008"}]},{"name":"新見市","divisions":[{"name":"足立","zip_code":"7180006"},{"name":"井倉","zip_code":"7192551"},{"name":"石蟹","zip_code":"7180015"},{"name":"大佐大井野","zip_code":"7193501"},{"name":"大佐小阪部","zip_code":"7193503"},{"name":"大佐上刑部","zip_code":"7193502"},{"name":"大佐小南","zip_code":"7193507"},{"name":"大佐田治部","zip_code":"7193506"},{"name":"大佐永富","zip_code":"7193504"},{"name":"大佐布瀬","zip_code":"7193505"},{"name":"金谷","zip_code":"7180016"},{"name":"上市","zip_code":"7180005"},{"name":"上熊谷","zip_code":"7180001"},{"name":"唐松","zip_code":"7180012"},{"name":"草間","zip_code":"7192732"},{"name":"坂本","zip_code":"7180007"},{"name":"下熊谷","zip_code":"7180002"},{"name":"正田","zip_code":"7180013"},{"name":"神郷釜村","zip_code":"7192801"},{"name":"神郷下神代","zip_code":"7193611"},{"name":"神郷高瀬","zip_code":"7192802"},{"name":"神郷油野","zip_code":"7193612"},{"name":"菅生","zip_code":"7180211"},{"name":"高尾","zip_code":"7180003"},{"name":"足見","zip_code":"7192642"},{"name":"千屋","zip_code":"7180101"},{"name":"千屋井原","zip_code":"7180103"},{"name":"千屋実","zip_code":"7180102"},{"name":"千屋花見","zip_code":"7180104"},{"name":"土橋","zip_code":"7192731"},{"name":"哲西町大竹","zip_code":"7193811"},{"name":"哲西町大野部","zip_code":"7193814"},{"name":"哲西町上神代","zip_code":"7193702"},{"name":"哲西町畑木","zip_code":"7193812"},{"name":"哲西町八鳥","zip_code":"7193813"},{"name":"哲西町矢田","zip_code":"7193701"},{"name":"哲多町老栄","zip_code":"7180307"},{"name":"哲多町大野","zip_code":"7180313"},{"name":"哲多町荻尾","zip_code":"7180305"},{"name":"哲多町蚊家","zip_code":"7180311"},{"name":"哲多町田淵","zip_code":"7180312"},{"name":"哲多町成松","zip_code":"7180304"},{"name":"哲多町花木","zip_code":"7180302"},{"name":"哲多町本郷","zip_code":"7180303"},{"name":"哲多町宮河内","zip_code":"7180301"},{"name":"哲多町矢戸","zip_code":"7180306"},{"name":"豊永赤馬","zip_code":"7192721"},{"name":"豊永宇山","zip_code":"7192723"},{"name":"豊永佐伏","zip_code":"7192722"},{"name":"長屋","zip_code":"7180014"},{"name":"新見","zip_code":"7180011"},{"name":"西方","zip_code":"7180017"},{"name":"法曽","zip_code":"7192552"},{"name":"馬塚","zip_code":"7180004"}]},{"name":"備前市","divisions":[{"name":"麻宇那","zip_code":"7050032"},{"name":"伊里中","zip_code":"7050023"},{"name":"伊部","zip_code":"7050001"},{"name":"浦伊部","zip_code":"7050002"},{"name":"大内","zip_code":"7050003"},{"name":"香登本","zip_code":"7050012"},{"name":"香登西","zip_code":"7050011"},{"name":"木谷","zip_code":"7050035"},{"name":"久々井","zip_code":"7050024"},{"name":"坂根","zip_code":"7050016"},{"name":"佐山","zip_code":"7050026"},{"name":"蕃山","zip_code":"7050031"},{"name":"閑谷","zip_code":"7050036"},{"name":"新庄","zip_code":"7050014"},{"name":"鶴海","zip_code":"7050025"},{"name":"友延","zip_code":"7050034"},{"name":"西片上","zip_code":"7050021"},{"name":"野谷","zip_code":"7050131"},{"name":"畠田","zip_code":"7050015"},{"name":"東片上","zip_code":"7050022"},{"name":"日生町大多府","zip_code":"7013203"},{"name":"日生町寒河","zip_code":"7013202"},{"name":"日生町寺山","zip_code":"7013201"},{"name":"日生町日生","zip_code":"7013204"},{"name":"福田","zip_code":"7050013"},{"name":"穂浪","zip_code":"7050033"},{"name":"三石","zip_code":"7050132"},{"name":"八木山","zip_code":"7050133"},{"name":"吉永町今崎","zip_code":"7090213"},{"name":"吉永町岩崎","zip_code":"7090226"},{"name":"吉永町加賀美","zip_code":"7090301"},{"name":"吉永町金谷","zip_code":"7090221"},{"name":"吉永町神根本","zip_code":"7090212"},{"name":"吉永町笹目","zip_code":"7090304"},{"name":"吉永町高田","zip_code":"7090211"},{"name":"吉永町多麻","zip_code":"7090302"},{"name":"吉永町都留岐","zip_code":"7090303"},{"name":"吉永町福満","zip_code":"7090222"},{"name":"吉永町三股","zip_code":"7090225"},{"name":"吉永町南方","zip_code":"7090223"},{"name":"吉永町吉永中","zip_code":"7090224"},{"name":"吉永町和意谷","zip_code":"7090214"}]},{"name":"瀬戸内市","divisions":[{"name":"牛窓町牛窓","zip_code":"7014302"},{"name":"牛窓町鹿忍","zip_code":"7014303"},{"name":"牛窓町千手","zip_code":"7014304"},{"name":"牛窓町長浜","zip_code":"7014301"},{"name":"邑久町大窪","zip_code":"7014231"},{"name":"邑久町大富","zip_code":"7014234"},{"name":"邑久町尾張","zip_code":"7014221"},{"name":"邑久町上笠加","zip_code":"7014252"},{"name":"邑久町上山田","zip_code":"7014215"},{"name":"邑久町北池","zip_code":"7014251"},{"name":"邑久町北島","zip_code":"7014232"},{"name":"邑久町下笠加","zip_code":"7014247"},{"name":"邑久町下山田","zip_code":"7014216"},{"name":"邑久町庄田","zip_code":"7014211"},{"name":"邑久町尻海","zip_code":"7014212"},{"name":"邑久町宗三","zip_code":"7014243"},{"name":"邑久町豊原","zip_code":"7014223"},{"name":"邑久町豊安","zip_code":"7014222"},{"name":"邑久町東谷","zip_code":"7014224"},{"name":"邑久町福谷","zip_code":"7014502"},{"name":"邑久町福中","zip_code":"7014244"},{"name":"邑久町福元","zip_code":"7014241"},{"name":"邑久町福山","zip_code":"7014245"},{"name":"邑久町本庄","zip_code":"7014214"},{"name":"邑久町豆田","zip_code":"7014254"},{"name":"邑久町箕輪","zip_code":"7014253"},{"name":"邑久町向山","zip_code":"7014233"},{"name":"邑久町虫明","zip_code":"7014501"},{"name":"邑久町百田","zip_code":"7014248"},{"name":"邑久町山田庄","zip_code":"7014246"},{"name":"邑久町山手","zip_code":"7014213"},{"name":"長船町飯井","zip_code":"7014261"},{"name":"長船町磯上","zip_code":"7014273"},{"name":"長船町牛文","zip_code":"7014274"},{"name":"長船町長船","zip_code":"7014271"},{"name":"長船町西須恵","zip_code":"7014263"},{"name":"長船町土師","zip_code":"7014264"},{"name":"長船町服部","zip_code":"7014276"},{"name":"長船町東須恵","zip_code":"7014262"},{"name":"長船町福岡","zip_code":"7014265"},{"name":"長船町福里","zip_code":"7014275"},{"name":"長船町八日市","zip_code":"7014272"}]},{"name":"赤磐市","divisions":[{"name":"合田","zip_code":"7012443"},{"name":"石","zip_code":"7012514"},{"name":"石上","zip_code":"7012445"},{"name":"五日市","zip_code":"7090831"},{"name":"稲蒔","zip_code":"7012511"},{"name":"今井","zip_code":"7012213"},{"name":"岩田","zip_code":"7090822"},{"name":"円光寺","zip_code":"7090711"},{"name":"大苅田","zip_code":"7012221"},{"name":"大屋","zip_code":"7012205"},{"name":"岡","zip_code":"7090702"},{"name":"小鎌","zip_code":"7012446"},{"name":"奥吉原","zip_code":"7090713"},{"name":"小瀬木","zip_code":"7090717"},{"name":"尾谷","zip_code":"7090806"},{"name":"可真上","zip_code":"7090733"},{"name":"可真下","zip_code":"7090732"},{"name":"上市","zip_code":"7090817"},{"name":"上仁保","zip_code":"7090837"},{"name":"鴨前","zip_code":"7090834"},{"name":"河田原","zip_code":"7090719"},{"name":"河原屋","zip_code":"7012501"},{"name":"北佐古田","zip_code":"7012211"},{"name":"草生","zip_code":"7012502"},{"name":"熊崎","zip_code":"7090833"},{"name":"暮田","zip_code":"7012512"},{"name":"黒沢","zip_code":"7012522"},{"name":"黒本","zip_code":"7012521"},{"name":"光木","zip_code":"7012515"},{"name":"神田","zip_code":"7090801"},{"name":"河本","zip_code":"7090821"},{"name":"小原","zip_code":"7012201"},{"name":"是里","zip_code":"7012525"},{"name":"斎富","zip_code":"7090813"},{"name":"坂辺","zip_code":"7012202"},{"name":"桜が丘西","zip_code":"7090802"},{"name":"桜が丘東","zip_code":"7090721"},{"name":"佐古","zip_code":"7090706"},{"name":"沢原","zip_code":"7090704"},{"name":"山陽","zip_code":"7090827"},{"name":"塩木","zip_code":"7012432"},{"name":"下市","zip_code":"7090816"},{"name":"下仁保","zip_code":"7090836"},{"name":"酌田","zip_code":"7090701"},{"name":"石蓮寺","zip_code":"7090731"},{"name":"正崎","zip_code":"7090832"},{"name":"周匝","zip_code":"7012503"},{"name":"勢力","zip_code":"7090715"},{"name":"千躰","zip_code":"7090714"},{"name":"惣分","zip_code":"7012203"},{"name":"多賀","zip_code":"7012216"},{"name":"高屋","zip_code":"7090811"},{"name":"滝山","zip_code":"7012524"},{"name":"立川","zip_code":"7090815"},{"name":"津崎","zip_code":"7090807"},{"name":"釣井","zip_code":"7090718"},{"name":"斗有","zip_code":"7090838"},{"name":"徳富","zip_code":"7090716"},{"name":"戸津野","zip_code":"7012431"},{"name":"殿谷","zip_code":"7090703"},{"name":"長尾","zip_code":"7090823"},{"name":"中島","zip_code":"7090803"},{"name":"中勢実","zip_code":"7012437"},{"name":"中畑","zip_code":"7012444"},{"name":"中山","zip_code":"7012523"},{"name":"西軽部","zip_code":"7012215"},{"name":"西窪田","zip_code":"7012224"},{"name":"西勢実","zip_code":"7012441"},{"name":"西中","zip_code":"7090835"},{"name":"仁堀中","zip_code":"7012435"},{"name":"仁堀西","zip_code":"7012436"},{"name":"仁堀東","zip_code":"7012434"},{"name":"沼田","zip_code":"7090812"},{"name":"野間","zip_code":"7090735"},{"name":"稗田","zip_code":"7090736"},{"name":"東軽部","zip_code":"7012214"},{"name":"東窪田","zip_code":"7012223"},{"name":"日古木","zip_code":"7090804"},{"name":"平山","zip_code":"7012433"},{"name":"広戸","zip_code":"7012442"},{"name":"福田","zip_code":"7012504"},{"name":"二井","zip_code":"7090805"},{"name":"穂崎","zip_code":"7090824"},{"name":"町苅田","zip_code":"7012222"},{"name":"松木","zip_code":"7090705"},{"name":"馬屋","zip_code":"7090825"},{"name":"南方","zip_code":"7090814"},{"name":"南佐古田","zip_code":"7012212"},{"name":"弥上","zip_code":"7090734"},{"name":"八島田","zip_code":"7012513"},{"name":"山口","zip_code":"7012225"},{"name":"山手","zip_code":"7012204"},{"name":"由津里","zip_code":"7012226"},{"name":"吉原","zip_code":"7090712"},{"name":"和田","zip_code":"7090826"}]},{"name":"真庭市","divisions":[{"name":"赤野","zip_code":"7193101"},{"name":"阿口","zip_code":"7161431"},{"name":"荒田","zip_code":"7170026"},{"name":"粟谷","zip_code":"7170421"},{"name":"一色","zip_code":"7193151"},{"name":"禾津","zip_code":"7170413"},{"name":"岩井畝","zip_code":"7170745"},{"name":"岩井谷","zip_code":"7170744"},{"name":"上山","zip_code":"7193131"},{"name":"後谷","zip_code":"7170742"},{"name":"後谷畝","zip_code":"7170025"},{"name":"江川","zip_code":"7170023"},{"name":"大庭","zip_code":"7193102"},{"name":"岡","zip_code":"7170015"},{"name":"落合垂水","zip_code":"7193144"},{"name":"開田","zip_code":"7193111"},{"name":"影","zip_code":"7193112"},{"name":"樫西","zip_code":"7193211"},{"name":"樫東","zip_code":"7193223"},{"name":"鹿田","zip_code":"7193152"},{"name":"勝山","zip_code":"7170013"},{"name":"鉄山","zip_code":"7170101"},{"name":"上","zip_code":"7170746"},{"name":"上呰部","zip_code":"7161432"},{"name":"上市瀬","zip_code":"7193141"},{"name":"上河内","zip_code":"7193121"},{"name":"上中津井","zip_code":"7161422"},{"name":"上水田","zip_code":"7161411"},{"name":"神庭","zip_code":"7170004"},{"name":"木山","zip_code":"7193142"},{"name":"釘貫小川","zip_code":"7170414"},{"name":"草加部","zip_code":"7193205"},{"name":"久世","zip_code":"7193201"},{"name":"組","zip_code":"7170006"},{"name":"栗原","zip_code":"7193153"},{"name":"黒杭","zip_code":"7170423"},{"name":"黒田","zip_code":"7170102"},{"name":"神","zip_code":"7193206"},{"name":"神代","zip_code":"7170027"},{"name":"五反","zip_code":"7193228"},{"name":"古見","zip_code":"7193103"},{"name":"五名","zip_code":"7161401"},{"name":"古呂々尾中","zip_code":"7170736"},{"name":"佐引","zip_code":"7193154"},{"name":"三田","zip_code":"7170022"},{"name":"柴原","zip_code":"7170014"},{"name":"下呰部","zip_code":"7161433"},{"name":"下市瀬","zip_code":"7193143"},{"name":"下岩","zip_code":"7170735"},{"name":"下方","zip_code":"7193155"},{"name":"下河内","zip_code":"7193122"},{"name":"下中津井","zip_code":"7161421"},{"name":"下見","zip_code":"7193123"},{"name":"下湯原","zip_code":"7170403"},{"name":"菅谷","zip_code":"7170002"},{"name":"杉山","zip_code":"7193113"},{"name":"清谷","zip_code":"7170737"},{"name":"関","zip_code":"7193156"},{"name":"惣","zip_code":"7193204"},{"name":"台金屋","zip_code":"7193227"},{"name":"高田山上","zip_code":"7170732"},{"name":"高屋","zip_code":"7193114"},{"name":"田口","zip_code":"7170103"},{"name":"竹原","zip_code":"7170003"},{"name":"多田","zip_code":"7193213"},{"name":"種","zip_code":"7170424"},{"name":"田羽根","zip_code":"7170401"},{"name":"田原","zip_code":"7193104"},{"name":"田原山上","zip_code":"7193132"},{"name":"旦土","zip_code":"7193133"},{"name":"月田","zip_code":"7170024"},{"name":"月田本","zip_code":"7170743"},{"name":"都喜足","zip_code":"7170415"},{"name":"富尾","zip_code":"7193203"},{"name":"豊栄","zip_code":"7170406"},{"name":"中","zip_code":"7193115"},{"name":"中河内","zip_code":"7193124"},{"name":"中島","zip_code":"7193202"},{"name":"中原","zip_code":"7193225"},{"name":"仲間","zip_code":"7170416"},{"name":"鍋屋","zip_code":"7193214"},{"name":"西河内","zip_code":"7193145"},{"name":"西原","zip_code":"7193105"},{"name":"野","zip_code":"7170734"},{"name":"野川","zip_code":"7193106"},{"name":"野原","zip_code":"7193134"},{"name":"延風","zip_code":"7170104"},{"name":"久見","zip_code":"7170405"},{"name":"小童谷","zip_code":"7170425"},{"name":"日名","zip_code":"7193116"},{"name":"日野上","zip_code":"7193146"},{"name":"平松","zip_code":"7193107"},{"name":"蒜山上徳山","zip_code":"7170612"},{"name":"蒜山上長田","zip_code":"7170505"},{"name":"蒜山上福田","zip_code":"7170602"},{"name":"蒜山下和","zip_code":"7170513"},{"name":"蒜山下徳山","zip_code":"7170613"},{"name":"蒜山下長田","zip_code":"7170506"},{"name":"蒜山下福田","zip_code":"7170504"},{"name":"蒜山下見","zip_code":"7170507"},{"name":"蒜山富掛田","zip_code":"7170502"},{"name":"蒜山富山根","zip_code":"7170503"},{"name":"蒜山中福田","zip_code":"7170501"},{"name":"蒜山西茅部","zip_code":"7170604"},{"name":"蒜山初和","zip_code":"7170511"},{"name":"蒜山東茅部","zip_code":"7170603"},{"name":"蒜山別所","zip_code":"7170515"},{"name":"蒜山本茅部","zip_code":"7170611"},{"name":"蒜山真加子","zip_code":"7170512"},{"name":"蒜山湯船","zip_code":"7170601"},{"name":"蒜山吉田","zip_code":"7170514"},{"name":"福田","zip_code":"7193117"},{"name":"福谷","zip_code":"7170021"},{"name":"藤森","zip_code":"7170422"},{"name":"別所","zip_code":"7193157"},{"name":"法界寺","zip_code":"7193125"},{"name":"星山","zip_code":"7170001"},{"name":"本郷","zip_code":"7170007"},{"name":"本庄","zip_code":"7170412"},{"name":"舞高","zip_code":"7193135"},{"name":"真賀","zip_code":"7170017"},{"name":"曲り","zip_code":"7170731"},{"name":"正吉","zip_code":"7170016"},{"name":"見明戸","zip_code":"7170411"},{"name":"見尾","zip_code":"7170011"},{"name":"美甘","zip_code":"7170105"},{"name":"三阪","zip_code":"7193212"},{"name":"三崎","zip_code":"7193226"},{"name":"三世七原","zip_code":"7170426"},{"name":"宮地","zip_code":"7161403"},{"name":"向津矢","zip_code":"7193126"},{"name":"目木","zip_code":"7193224"},{"name":"社","zip_code":"7170404"},{"name":"山久世","zip_code":"7170012"},{"name":"山田","zip_code":"7161402"},{"name":"湯原温泉","zip_code":"7170402"},{"name":"横部","zip_code":"7170005"},{"name":"吉","zip_code":"7193136"},{"name":"余野上","zip_code":"7193221"},{"name":"余野下","zip_code":"7193222"},{"name":"若代","zip_code":"7170741"},{"name":"若代畝","zip_code":"7170733"}]},{"name":"美作市","divisions":[{"name":"英田青野","zip_code":"7012623"},{"name":"青木","zip_code":"7070065"},{"name":"赤田","zip_code":"7070432"},{"name":"芦河内","zip_code":"7094232"},{"name":"安蘇","zip_code":"7070053"},{"name":"粟井中","zip_code":"7094205"},{"name":"粟野","zip_code":"7070437"},{"name":"井口","zip_code":"7012606"},{"name":"位田","zip_code":"7070052"},{"name":"稲穂","zip_code":"7070051"},{"name":"猪臥","zip_code":"7070034"},{"name":"今岡","zip_code":"7070416"},{"name":"岩辺","zip_code":"7094222"},{"name":"岩見田","zip_code":"7070054"},{"name":"上山","zip_code":"7012614"},{"name":"後山","zip_code":"7070401"},{"name":"右手","zip_code":"7070204"},{"name":"江ノ原","zip_code":"7070411"},{"name":"江見","zip_code":"7094234"},{"name":"江見吉田","zip_code":"7094227"},{"name":"大井が丘","zip_code":"7070005"},{"name":"大内谷","zip_code":"7094223"},{"name":"太田","zip_code":"7070404"},{"name":"大原","zip_code":"7070033"},{"name":"大町","zip_code":"7070124"},{"name":"奥","zip_code":"7012605"},{"name":"奥大谷","zip_code":"7070067"},{"name":"尾谷","zip_code":"7012601"},{"name":"小野","zip_code":"7094203"},{"name":"小ノ谷","zip_code":"7094215"},{"name":"小畑","zip_code":"7070132"},{"name":"小原田","zip_code":"7070423"},{"name":"小房","zip_code":"7094201"},{"name":"海田","zip_code":"7070044"},{"name":"柿ケ原","zip_code":"7094253"},{"name":"梶並","zip_code":"7070201"},{"name":"梶原","zip_code":"7094202"},{"name":"桂坪","zip_code":"7070426"},{"name":"金原","zip_code":"7070055"},{"name":"上福原","zip_code":"7094246"},{"name":"上相","zip_code":"7070001"},{"name":"川上","zip_code":"7070421"},{"name":"川北","zip_code":"7094236"},{"name":"川戸","zip_code":"7070436"},{"name":"川東","zip_code":"7070407"},{"name":"北","zip_code":"7012611"},{"name":"北坂","zip_code":"7070063"},{"name":"北原","zip_code":"7070036"},{"name":"北山","zip_code":"7070014"},{"name":"久賀","zip_code":"7070111"},{"name":"朽木","zip_code":"7070042"},{"name":"国貞","zip_code":"7094255"},{"name":"楮","zip_code":"7070202"},{"name":"河内","zip_code":"7070131"},{"name":"巨勢","zip_code":"7070045"},{"name":"五名","zip_code":"7094211"},{"name":"栄町","zip_code":"7070025"},{"name":"鷺巣","zip_code":"7094204"},{"name":"笹岡","zip_code":"7070422"},{"name":"沢田","zip_code":"7070435"},{"name":"下大谷","zip_code":"7070066"},{"name":"下香山","zip_code":"7070016"},{"name":"下庄町","zip_code":"7070425"},{"name":"下町","zip_code":"7070417"},{"name":"下山","zip_code":"7012621"},{"name":"城田","zip_code":"7012625"},{"name":"白水","zip_code":"7094251"},{"name":"杉原","zip_code":"7070133"},{"name":"鈴家","zip_code":"7094256"},{"name":"角南","zip_code":"7094252"},{"name":"瀬戸","zip_code":"7094221"},{"name":"田井","zip_code":"7070431"},{"name":"大聖寺","zip_code":"7094213"},{"name":"滝","zip_code":"7070427"},{"name":"滝宮","zip_code":"7012612"},{"name":"竹田","zip_code":"7094245"},{"name":"立石","zip_code":"7070433"},{"name":"田殿","zip_code":"7070012"},{"name":"田渕","zip_code":"7094257"},{"name":"田原","zip_code":"7094242"},{"name":"土居","zip_code":"7094244"},{"name":"殿所","zip_code":"7070064"},{"name":"友野","zip_code":"7070037"},{"name":"豊国原","zip_code":"7070015"},{"name":"豊野","zip_code":"7094224"},{"name":"鳥渕","zip_code":"7012622"},{"name":"長内","zip_code":"7070056"},{"name":"中尾","zip_code":"7070002"},{"name":"中川","zip_code":"7012615"},{"name":"中河内","zip_code":"7012624"},{"name":"中谷","zip_code":"7070402"},{"name":"中町","zip_code":"7070413"},{"name":"中山","zip_code":"7070061"},{"name":"鯰","zip_code":"7094226"},{"name":"楢原上","zip_code":"7070022"},{"name":"楢原下","zip_code":"7070024"},{"name":"楢原中","zip_code":"7070021"},{"name":"南海","zip_code":"7094231"},{"name":"西町","zip_code":"7070414"},{"name":"入田","zip_code":"7070004"},{"name":"野形","zip_code":"7070424"},{"name":"野原","zip_code":"7070405"},{"name":"則平","zip_code":"7070057"},{"name":"長谷内","zip_code":"7070121"},{"name":"林野","zip_code":"7070041"},{"name":"原","zip_code":"7094235"},{"name":"東青野","zip_code":"7070403"},{"name":"東谷上","zip_code":"7070205"},{"name":"東谷下","zip_code":"7070206"},{"name":"東吉田","zip_code":"7070406"},{"name":"日指","zip_code":"7094241"},{"name":"平田","zip_code":"7070035"},{"name":"平福","zip_code":"7070023"},{"name":"福本","zip_code":"7012604"},{"name":"藤生","zip_code":"7094233"},{"name":"古町","zip_code":"7070412"},{"name":"馬形","zip_code":"7070122"},{"name":"真加部","zip_code":"7070113"},{"name":"真神","zip_code":"7012602"},{"name":"松脇","zip_code":"7094225"},{"name":"真殿","zip_code":"7070203"},{"name":"豆田","zip_code":"7094214"},{"name":"万善","zip_code":"7094254"},{"name":"海内","zip_code":"7070043"},{"name":"三倉田","zip_code":"7070046"},{"name":"南","zip_code":"7012616"},{"name":"壬生","zip_code":"7070434"},{"name":"三保原","zip_code":"7012603"},{"name":"宮原","zip_code":"7094212"},{"name":"宮本","zip_code":"7070415"},{"name":"明見","zip_code":"7070003"},{"name":"宗掛","zip_code":"7070123"},{"name":"矢田","zip_code":"7070134"},{"name":"山口","zip_code":"7070031"},{"name":"山城","zip_code":"7094247"},{"name":"山手","zip_code":"7094216"},{"name":"山外野","zip_code":"7070032"},{"name":"湯郷","zip_code":"7070062"},{"name":"横尾","zip_code":"7012613"},{"name":"吉","zip_code":"7070013"},{"name":"余野","zip_code":"7070112"},{"name":"蓮花寺","zip_code":"7094243"},{"name":"和田","zip_code":"7070011"}]},{"name":"浅口市","divisions":[{"name":"鴨方町鴨方","zip_code":"7190243"},{"name":"鴨方町小坂西","zip_code":"7190231"},{"name":"鴨方町小坂東","zip_code":"7190241"},{"name":"鴨方町地頭上","zip_code":"7190233"},{"name":"鴨方町鳩ケ丘","zip_code":"7190253"},{"name":"鴨方町深田","zip_code":"7190244"},{"name":"鴨方町本庄","zip_code":"7190232"},{"name":"鴨方町益坂","zip_code":"7190234"},{"name":"鴨方町みどりケ丘","zip_code":"7190242"},{"name":"鴨方町六条院中","zip_code":"7190252"},{"name":"鴨方町六条院西","zip_code":"7190251"},{"name":"鴨方町六条院東","zip_code":"7190254"},{"name":"金光町占見","zip_code":"7190105"},{"name":"金光町占見新田","zip_code":"7190104"},{"name":"金光町大谷","zip_code":"7190111"},{"name":"金光町上竹","zip_code":"7190221"},{"name":"金光町佐方","zip_code":"7190113"},{"name":"金光町地頭下","zip_code":"7190106"},{"name":"金光町下竹","zip_code":"7190102"},{"name":"金光町須恵","zip_code":"7190112"},{"name":"金光町八重","zip_code":"7190103"},{"name":"寄島町","zip_code":"7140101"}]},{"name":"和気郡和気町","divisions":[{"name":"泉","zip_code":"7090413"},{"name":"岩戸","zip_code":"7090513"},{"name":"宇生","zip_code":"7090525"},{"name":"大田原","zip_code":"7090414"},{"name":"大中山","zip_code":"7090432"},{"name":"奥塩田","zip_code":"7090501"},{"name":"加三方","zip_code":"7090522"},{"name":"北山方","zip_code":"7090504"},{"name":"衣笠","zip_code":"7090441"},{"name":"木倉","zip_code":"7090404"},{"name":"小坂","zip_code":"7090523"},{"name":"佐伯","zip_code":"7090514"},{"name":"塩田","zip_code":"7090506"},{"name":"清水","zip_code":"7090431"},{"name":"尺所","zip_code":"7090422"},{"name":"田賀","zip_code":"7090524"},{"name":"田土","zip_code":"7090512"},{"name":"田原上","zip_code":"7090463"},{"name":"田原下","zip_code":"7090464"},{"name":"父井原","zip_code":"7090521"},{"name":"津瀬","zip_code":"7090516"},{"name":"苦木","zip_code":"7090505"},{"name":"原","zip_code":"7090461"},{"name":"日笠上","zip_code":"7090402"},{"name":"日笠下","zip_code":"7090403"},{"name":"日室","zip_code":"7090421"},{"name":"福富","zip_code":"7090442"},{"name":"藤野","zip_code":"7090412"},{"name":"保曽","zip_code":"7090401"},{"name":"本","zip_code":"7090462"},{"name":"益原","zip_code":"7090452"},{"name":"丸山","zip_code":"7090502"},{"name":"南山方","zip_code":"7090503"},{"name":"矢田","zip_code":"7090511"},{"name":"矢田部","zip_code":"7090526"},{"name":"吉田","zip_code":"7090411"},{"name":"米沢","zip_code":"7090515"},{"name":"和気","zip_code":"7090451"}]},{"name":"都窪郡早島町","divisions":[{"name":"早島","zip_code":"7010304"},{"name":"前潟","zip_code":"7010303"},{"name":"矢尾","zip_code":"7010301"},{"name":"若宮","zip_code":"7010302"}]},{"name":"浅口郡里庄町","divisions":[{"name":"里見","zip_code":"7190301"},{"name":"新庄","zip_code":"7190302"},{"name":"新庄グリーンクレスト","zip_code":"7190304"},{"name":"浜中","zip_code":"7190303"}]},{"name":"小田郡矢掛町","divisions":[{"name":"浅海","zip_code":"7141225"},{"name":"宇角","zip_code":"7141205"},{"name":"内田","zip_code":"7141206"},{"name":"宇内","zip_code":"7141221"},{"name":"江良","zip_code":"7141226"},{"name":"小田","zip_code":"7141227"},{"name":"小林","zip_code":"7141202"},{"name":"上高末","zip_code":"7141203"},{"name":"里山田","zip_code":"7141213"},{"name":"下高末","zip_code":"7141204"},{"name":"中","zip_code":"7141215"},{"name":"西川面","zip_code":"7141222"},{"name":"東川面","zip_code":"7141223"},{"name":"東三成","zip_code":"7141211"},{"name":"南山田","zip_code":"7141214"},{"name":"本堀","zip_code":"7141224"},{"name":"矢掛","zip_code":"7141201"},{"name":"横谷","zip_code":"7141212"}]},{"name":"真庭郡新庄村","divisions":[]},{"name":"苫田郡鏡野町","divisions":[{"name":"井坂","zip_code":"7080421"},{"name":"市場","zip_code":"7080315"},{"name":"入","zip_code":"7080351"},{"name":"岩屋","zip_code":"7080302"},{"name":"円宗寺","zip_code":"7080321"},{"name":"大","zip_code":"7080704"},{"name":"大町","zip_code":"7080303"},{"name":"沖","zip_code":"7080322"},{"name":"奥津","zip_code":"7080503"},{"name":"奥津川西","zip_code":"7080504"},{"name":"小座","zip_code":"7080363"},{"name":"女原","zip_code":"7080423"},{"name":"香々美","zip_code":"7080312"},{"name":"上齋原","zip_code":"7080601"},{"name":"上森原","zip_code":"7080361"},{"name":"楠","zip_code":"7080705"},{"name":"久田上原","zip_code":"7080432"},{"name":"久田下原","zip_code":"7080433"},{"name":"公保田","zip_code":"7080313"},{"name":"黒木","zip_code":"7080435"},{"name":"河内","zip_code":"7080431"},{"name":"河本","zip_code":"7080343"},{"name":"越畑","zip_code":"7080301"},{"name":"真経","zip_code":"7080304"},{"name":"沢田","zip_code":"7080314"},{"name":"至孝農","zip_code":"7080427"},{"name":"下斎原","zip_code":"7080501"},{"name":"下原","zip_code":"7080341"},{"name":"下森原","zip_code":"7080364"},{"name":"杉","zip_code":"7080424"},{"name":"瀬戸","zip_code":"7080325"},{"name":"高山","zip_code":"7080345"},{"name":"薪森原","zip_code":"7080342"},{"name":"竹田","zip_code":"7080324"},{"name":"塚谷","zip_code":"7080365"},{"name":"貞永寺","zip_code":"7080362"},{"name":"寺元","zip_code":"7080323"},{"name":"寺和田","zip_code":"7080311"},{"name":"土居","zip_code":"7080317"},{"name":"富仲間","zip_code":"7080703"},{"name":"富西谷","zip_code":"7080701"},{"name":"富東谷","zip_code":"7080702"},{"name":"中谷","zip_code":"7080353"},{"name":"長藤","zip_code":"7080502"},{"name":"西屋","zip_code":"7080426"},{"name":"布原","zip_code":"7080331"},{"name":"箱","zip_code":"7080425"},{"name":"羽出","zip_code":"7080511"},{"name":"羽出西谷","zip_code":"7080512"},{"name":"馬場","zip_code":"7080366"},{"name":"土生","zip_code":"7080434"},{"name":"原","zip_code":"7080344"},{"name":"古川","zip_code":"7080333"},{"name":"真加部","zip_code":"7080335"},{"name":"宗枝","zip_code":"7080334"},{"name":"百谷","zip_code":"7080305"},{"name":"山城","zip_code":"7080352"},{"name":"養野","zip_code":"7080422"},{"name":"吉原","zip_code":"7080332"},{"name":"和田","zip_code":"7080316"}]},{"name":"勝田郡勝央町","divisions":[{"name":"石生","zip_code":"7094307"},{"name":"植月中","zip_code":"7094335"},{"name":"植月東","zip_code":"7094332"},{"name":"植月北","zip_code":"7094331"},{"name":"岡","zip_code":"7094311"},{"name":"小矢田","zip_code":"7094313"},{"name":"勝間田","zip_code":"7094316"},{"name":"上香山","zip_code":"7094304"},{"name":"河原","zip_code":"7094302"},{"name":"黒坂","zip_code":"7094323"},{"name":"黒土","zip_code":"7094312"},{"name":"下町川","zip_code":"7094301"},{"name":"曽井","zip_code":"7094305"},{"name":"田井","zip_code":"7094333"},{"name":"太平台","zip_code":"7094321"},{"name":"平","zip_code":"7094334"},{"name":"為本","zip_code":"7094324"},{"name":"豊久田","zip_code":"7094303"},{"name":"畑屋","zip_code":"7094315"},{"name":"東吉田","zip_code":"7094314"},{"name":"福吉","zip_code":"7094322"},{"name":"美野","zip_code":"7094306"}]},{"name":"勝田郡奈義町","divisions":[{"name":"荒内西","zip_code":"7081314"},{"name":"小坂","zip_code":"7081302"},{"name":"柿","zip_code":"7081312"},{"name":"上町川","zip_code":"7081326"},{"name":"行方","zip_code":"7081305"},{"name":"高円","zip_code":"7081307"},{"name":"関本","zip_code":"7081304"},{"name":"滝本","zip_code":"7081325"},{"name":"豊沢","zip_code":"7081323"},{"name":"中島東","zip_code":"7081313"},{"name":"中島西","zip_code":"7081315"},{"name":"成松","zip_code":"7081322"},{"name":"西原","zip_code":"7081306"},{"name":"久常","zip_code":"7081311"},{"name":"広岡","zip_code":"7081324"},{"name":"馬桑","zip_code":"7081301"},{"name":"皆木","zip_code":"7081303"},{"name":"宮内","zip_code":"7081321"}]},{"name":"英田郡西粟倉村","divisions":[{"name":"筏津","zip_code":"7070505"},{"name":"大茅","zip_code":"7070501"},{"name":"影石","zip_code":"7070503"},{"name":"坂根","zip_code":"7070502"},{"name":"知社","zip_code":"7070506"},{"name":"長尾","zip_code":"7070504"}]},{"name":"久米郡久米南町","divisions":[{"name":"上神目","zip_code":"7093626"},{"name":"上二ケ","zip_code":"7093615"},{"name":"上籾","zip_code":"7093621"},{"name":"上弓削","zip_code":"7093612"},{"name":"北庄","zip_code":"7093601"},{"name":"京尾","zip_code":"7093634"},{"name":"神目中","zip_code":"7093627"},{"name":"里方","zip_code":"7093602"},{"name":"塩之内","zip_code":"7093605"},{"name":"下二ケ","zip_code":"7093617"},{"name":"下籾","zip_code":"7093624"},{"name":"下弓削","zip_code":"7093614"},{"name":"峠","zip_code":"7093633"},{"name":"中籾","zip_code":"7093623"},{"name":"西山寺","zip_code":"7093613"},{"name":"羽出木","zip_code":"7093606"},{"name":"仏教寺","zip_code":"7093622"},{"name":"別所","zip_code":"7093625"},{"name":"全間","zip_code":"7093616"},{"name":"松","zip_code":"7093611"},{"name":"南庄","zip_code":"7093604"},{"name":"南畑","zip_code":"7093635"},{"name":"宮地","zip_code":"7093631"},{"name":"安ケ乢","zip_code":"7093636"},{"name":"山手","zip_code":"7093632"},{"name":"山ノ城","zip_code":"7093603"}]},{"name":"久米郡美咲町","divisions":[{"name":"上口","zip_code":"7093411"},{"name":"打穴上","zip_code":"7093705"},{"name":"打穴北","zip_code":"7093706"},{"name":"打穴里","zip_code":"7093704"},{"name":"打穴下","zip_code":"7093702"},{"name":"打穴中","zip_code":"7093703"},{"name":"打穴西","zip_code":"7093707"},{"name":"上間","zip_code":"7081506"},{"name":"江与味","zip_code":"7093415"},{"name":"王子","zip_code":"7081525"},{"name":"大垪和西","zip_code":"7093726"},{"name":"大垪和東","zip_code":"7093722"},{"name":"小原","zip_code":"7093714"},{"name":"書副","zip_code":"7081543"},{"name":"金堀","zip_code":"7093712"},{"name":"北","zip_code":"7093401"},{"name":"吉ケ原","zip_code":"7081523"},{"name":"栗子","zip_code":"7081531"},{"name":"高下","zip_code":"7081526"},{"name":"小瀬","zip_code":"7081532"},{"name":"小山","zip_code":"7093412"},{"name":"越尾","zip_code":"7093711"},{"name":"西幸","zip_code":"7093715"},{"name":"境","zip_code":"7093723"},{"name":"定宗","zip_code":"7081536"},{"name":"里","zip_code":"7093403"},{"name":"塩気","zip_code":"7081503"},{"name":"重藤","zip_code":"7081505"},{"name":"下谷","zip_code":"7081515"},{"name":"新城","zip_code":"7093713"},{"name":"周佐","zip_code":"7081544"},{"name":"惣田","zip_code":"7081522"},{"name":"大戸上","zip_code":"7081545"},{"name":"大戸下","zip_code":"7081546"},{"name":"高城","zip_code":"7081535"},{"name":"角石祖母","zip_code":"7093724"},{"name":"塚角","zip_code":"7081541"},{"name":"百々","zip_code":"7081507"},{"name":"栃原","zip_code":"7093413"},{"name":"中","zip_code":"7093407"},{"name":"中垪和","zip_code":"7093417"},{"name":"西","zip_code":"7093405"},{"name":"西川","zip_code":"7093404"},{"name":"西川上","zip_code":"7093406"},{"name":"錦織","zip_code":"7093701"},{"name":"西垪和","zip_code":"7093414"},{"name":"八神","zip_code":"7081547"},{"name":"羽仁","zip_code":"7081542"},{"name":"原田","zip_code":"7093717"},{"name":"東垪和","zip_code":"7093416"},{"name":"久木","zip_code":"7081533"},{"name":"藤田上","zip_code":"7081514"},{"name":"藤田下","zip_code":"7081513"},{"name":"藤原","zip_code":"7081534"},{"name":"松尾","zip_code":"7081512"},{"name":"南","zip_code":"7093402"},{"name":"宮山","zip_code":"7081502"},{"name":"安井","zip_code":"7081501"},{"name":"休石","zip_code":"7081521"},{"name":"柵原","zip_code":"7081527"},{"name":"飯岡","zip_code":"7081524"},{"name":"行信","zip_code":"7081511"},{"name":"吉留","zip_code":"7081504"},{"name":"頼元","zip_code":"7093716"},{"name":"両山寺","zip_code":"7093721"},{"name":"連石","zip_code":"7081516"},{"name":"和田北","zip_code":"7093725"}]},{"name":"加賀郡吉備中央町","divisions":[{"name":"粟井谷","zip_code":"7092672"},{"name":"案田","zip_code":"7092403"},{"name":"井原","zip_code":"7092552"},{"name":"上田西","zip_code":"7092413"},{"name":"上田東","zip_code":"7092411"},{"name":"上野","zip_code":"7092344"},{"name":"円城","zip_code":"7092412"},{"name":"大木","zip_code":"7092663"},{"name":"尾原","zip_code":"7092673"},{"name":"上加茂","zip_code":"7092341"},{"name":"上竹","zip_code":"7161131"},{"name":"加茂市場","zip_code":"7092333"},{"name":"神瀬","zip_code":"7092401"},{"name":"北","zip_code":"7161551"},{"name":"黒土","zip_code":"7161102"},{"name":"黒山","zip_code":"7161242"},{"name":"小森","zip_code":"7092404"},{"name":"笹目","zip_code":"7092674"},{"name":"下加茂","zip_code":"7092331"},{"name":"下土井","zip_code":"7092551"},{"name":"杉谷","zip_code":"7092671"},{"name":"岨谷","zip_code":"7161552"},{"name":"高富","zip_code":"7092402"},{"name":"高谷","zip_code":"7092332"},{"name":"竹荘","zip_code":"7161122"},{"name":"竹部","zip_code":"7092343"},{"name":"田土","zip_code":"7161111"},{"name":"富永","zip_code":"7092553"},{"name":"豊岡上","zip_code":"7092664"},{"name":"豊岡下","zip_code":"7092661"},{"name":"豊野","zip_code":"7161101"},{"name":"西","zip_code":"7161554"},{"name":"納地","zip_code":"7161121"},{"name":"平岡","zip_code":"7092345"},{"name":"広面","zip_code":"7092342"},{"name":"福沢","zip_code":"7092675"},{"name":"細田","zip_code":"7092421"},{"name":"溝部","zip_code":"7092676"},{"name":"三谷","zip_code":"7092662"},{"name":"三納谷","zip_code":"7092422"},{"name":"美原","zip_code":"7092334"},{"name":"宮地","zip_code":"7161553"},{"name":"湯山","zip_code":"7161112"},{"name":"吉川","zip_code":"7161241"},{"name":"和田","zip_code":"7092554"}]}]}