{"name":"広島県","cities":[{"name":"広島市中区","divisions":[{"name":"榎町","zip_code":"7300851"},{"name":"江波沖町","zip_code":"7300837"},{"name":"江波栄町","zip_code":"7300836"},{"name":"江波二本松","zip_code":"7300834"},{"name":"江波本町","zip_code":"7300833"},{"name":"江波東","zip_code":"7300832"},{"name":"江波西","zip_code":"7300831"},{"name":"江波南","zip_code":"7300835"},{"name":"胡町","zip_code":"7300021"},{"name":"大手町","zip_code":"7300051"},{"name":"加古町","zip_code":"7300812"},{"name":"銀山町","zip_code":"7300022"},{"name":"上幟町","zip_code":"7300014"},{"name":"上八丁堀","zip_code":"7300012"},{"name":"紙屋町","zip_code":"7300031"},{"name":"河原町","zip_code":"7300856"},{"name":"小網町","zip_code":"7300855"},{"name":"光南","zip_code":"7300825"},{"name":"国泰寺町","zip_code":"7300042"},{"name":"小町","zip_code":"7300041"},{"name":"堺町","zip_code":"7300853"},{"name":"昭和町","zip_code":"7300046"},{"name":"新天地","zip_code":"7300034"},{"name":"住吉町","zip_code":"7300813"},{"name":"千田町","zip_code":"7300052"},{"name":"宝町","zip_code":"7300044"},{"name":"竹屋町","zip_code":"7300048"},{"name":"立町","zip_code":"7300032"},{"name":"田中町","zip_code":"7300026"},{"name":"鶴見町","zip_code":"7300045"},{"name":"鉄砲町","zip_code":"7300017"},{"name":"寺町","zip_code":"7300801"},{"name":"十日市町","zip_code":"7300805"},{"name":"土橋町","zip_code":"7300854"},{"name":"中島町","zip_code":"7300811"},{"name":"中町","zip_code":"7300037"},{"name":"流川町","zip_code":"7300028"},{"name":"西川口町","zip_code":"7300846"},{"name":"西十日市町","zip_code":"7300806"},{"name":"西白島町","zip_code":"7300005"},{"name":"西平塚町","zip_code":"7300024"},{"name":"猫屋町","zip_code":"7300852"},{"name":"幟町","zip_code":"7300016"},{"name":"白島北町","zip_code":"7300001"},{"name":"白島九軒町","zip_code":"7300003"},{"name":"白島中町","zip_code":"7300002"},{"name":"羽衣町","zip_code":"7300814"},{"name":"橋本町","zip_code":"7300015"},{"name":"八丁堀","zip_code":"7300013"},{"name":"東千田町","zip_code":"7300053"},{"name":"東白島町","zip_code":"7300004"},{"name":"東平塚町","zip_code":"7300025"},{"name":"平野町","zip_code":"7300047"},{"name":"広瀬北町","zip_code":"7300803"},{"name":"広瀬町","zip_code":"7300804"},{"name":"袋町","zip_code":"7300036"},{"name":"富士見町","zip_code":"7300043"},{"name":"舟入川口町","zip_code":"7300845"},{"name":"舟入幸町","zip_code":"7300844"},{"name":"舟入中町","zip_code":"7300842"},{"name":"舟入本町","zip_code":"7300843"},{"name":"舟入南","zip_code":"7300847"},{"name":"舟入町","zip_code":"7300841"},{"name":"堀川町","zip_code":"7300033"},{"name":"本川町","zip_code":"7300802"},{"name":"本通","zip_code":"7300035"},{"name":"三川町","zip_code":"7300029"},{"name":"南千田東町","zip_code":"7300054"},{"name":"南千田西町","zip_code":"7300055"},{"name":"南竹屋町","zip_code":"7300049"},{"name":"南吉島","zip_code":"7300826"},{"name":"基町","zip_code":"7300011"},{"name":"薬研堀","zip_code":"7300027"},{"name":"弥生町","zip_code":"7300023"},{"name":"吉島新町","zip_code":"7300824"},{"name":"吉島東","zip_code":"7300822"},{"name":"吉島西","zip_code":"7300823"},{"name":"吉島町","zip_code":"7300821"}]},{"name":"広島市東区","divisions":[{"name":"曙","zip_code":"7320045"},{"name":"愛宕町","zip_code":"7320054"},{"name":"牛田旭","zip_code":"7320067"},{"name":"牛田新町","zip_code":"7320068"},{"name":"牛田中","zip_code":"7320065"},{"name":"牛田本町","zip_code":"7320066"},{"name":"牛田早稲田","zip_code":"7320062"},{"name":"牛田東","zip_code":"7320063"},{"name":"牛田南","zip_code":"7320064"},{"name":"牛田山","zip_code":"7320061"},{"name":"馬木","zip_code":"7320031"},{"name":"馬木町","zip_code":"7320035"},{"name":"尾長東","zip_code":"7320046"},{"name":"尾長西","zip_code":"7320047"},{"name":"尾長町","zip_code":"7320049"},{"name":"上大須賀町","zip_code":"7320056"},{"name":"上温品","zip_code":"7320032"},{"name":"中山鏡が丘","zip_code":"7320022"},{"name":"中山上","zip_code":"7320027"},{"name":"中山北町","zip_code":"7320028"},{"name":"中山新町","zip_code":"7320021"},{"name":"中山中町","zip_code":"7320026"},{"name":"中山東","zip_code":"7320023"},{"name":"中山西","zip_code":"7320025"},{"name":"中山南","zip_code":"7320024"},{"name":"温品","zip_code":"7320033"},{"name":"温品町","zip_code":"7320034"},{"name":"光が丘","zip_code":"7320051"},{"name":"光町","zip_code":"7320052"},{"name":"東蟹屋町","zip_code":"7320055"},{"name":"東山町","zip_code":"7320043"},{"name":"福田","zip_code":"7320029"},{"name":"福田町","zip_code":"7320036"},{"name":"二葉の里","zip_code":"7320057"},{"name":"戸坂出江","zip_code":"7320016"},{"name":"戸坂大上","zip_code":"7320014"},{"name":"戸坂数甲","zip_code":"7320017"},{"name":"戸坂くるめ木","zip_code":"7320008"},{"name":"戸坂桜上町","zip_code":"7320007"},{"name":"戸坂桜東町","zip_code":"7320005"},{"name":"戸坂桜西町","zip_code":"7320006"},{"name":"戸坂城山町","zip_code":"7320015"},{"name":"戸坂新町","zip_code":"7320012"},{"name":"戸坂千足","zip_code":"7320009"},{"name":"戸坂惣田","zip_code":"7320001"},{"name":"戸坂長尾台","zip_code":"7320018"},{"name":"戸坂中町","zip_code":"7320003"},{"name":"戸坂山崎町","zip_code":"7320004"},{"name":"戸坂山根","zip_code":"7320002"},{"name":"戸坂南","zip_code":"7320013"},{"name":"戸坂町","zip_code":"7320011"},{"name":"矢賀","zip_code":"7320042"},{"name":"矢賀新町","zip_code":"7320044"},{"name":"矢賀町","zip_code":"7320041"},{"name":"山根町","zip_code":"7320048"},{"name":"若草町","zip_code":"7320053"}]},{"name":"広島市南区","divisions":[{"name":"青崎","zip_code":"7340053"},{"name":"旭","zip_code":"7340036"},{"name":"稲荷町","zip_code":"7320827"},{"name":"宇品海岸","zip_code":"7340011"},{"name":"宇品神田","zip_code":"7340004"},{"name":"宇品御幸","zip_code":"7340015"},{"name":"宇品東","zip_code":"7340003"},{"name":"宇品西","zip_code":"7340014"},{"name":"宇品町","zip_code":"7340016"},{"name":"猿猴橋町","zip_code":"7320823"},{"name":"黄金山町","zip_code":"7340041"},{"name":"大須賀町","zip_code":"7320821"},{"name":"大州","zip_code":"7320802"},{"name":"霞","zip_code":"7340037"},{"name":"上東雲町","zip_code":"7340021"},{"name":"北大河町","zip_code":"7340042"},{"name":"京橋町","zip_code":"7320828"},{"name":"金屋町","zip_code":"7320825"},{"name":"楠那町","zip_code":"7340032"},{"name":"小磯町","zip_code":"7340064"},{"name":"荒神町","zip_code":"7320807"},{"name":"東雲","zip_code":"7340022"},{"name":"東雲本町","zip_code":"7340023"},{"name":"丹那新町","zip_code":"7340033"},{"name":"丹那町","zip_code":"7340034"},{"name":"段原","zip_code":"7320811"},{"name":"段原日出","zip_code":"7320818"},{"name":"段原日出町","zip_code":"7320812"},{"name":"段原南","zip_code":"7320814"},{"name":"段原山崎","zip_code":"7320819"},{"name":"段原山崎町","zip_code":"7320813"},{"name":"月見町","zip_code":"7340054"},{"name":"出汐","zip_code":"7340001"},{"name":"出島","zip_code":"7340013"},{"name":"西旭町","zip_code":"7340002"},{"name":"西霞町","zip_code":"7340044"},{"name":"西蟹屋","zip_code":"7320804"},{"name":"西荒神町","zip_code":"7320806"},{"name":"西本浦町","zip_code":"7340045"},{"name":"西翠町","zip_code":"7340006"},{"name":"似島町","zip_code":"7340017"},{"name":"仁保","zip_code":"7340026"},{"name":"仁保沖町","zip_code":"7340057"},{"name":"仁保新町","zip_code":"7340024"},{"name":"仁保南","zip_code":"7340027"},{"name":"日宇那町","zip_code":"7340031"},{"name":"東青崎町","zip_code":"7340051"},{"name":"東駅町","zip_code":"7320801"},{"name":"東霞町","zip_code":"7340046"},{"name":"東荒神町","zip_code":"7320805"},{"name":"東本浦町","zip_code":"7340025"},{"name":"比治山公園","zip_code":"7320815"},{"name":"比治山本町","zip_code":"7320816"},{"name":"比治山町","zip_code":"7320817"},{"name":"堀越","zip_code":"7340052"},{"name":"本浦町","zip_code":"7340047"},{"name":"松川町","zip_code":"7320826"},{"name":"松原町","zip_code":"7320822"},{"name":"的場町","zip_code":"7320824"},{"name":"翠","zip_code":"7340005"},{"name":"南大河町","zip_code":"7340043"},{"name":"南蟹屋","zip_code":"7320803"},{"name":"皆実町","zip_code":"7340007"},{"name":"向洋大原町","zip_code":"7340063"},{"name":"向洋沖町","zip_code":"7340056"},{"name":"向洋新町","zip_code":"7340055"},{"name":"向洋中町","zip_code":"7340061"},{"name":"向洋本町","zip_code":"7340062"},{"name":"元宇品町","zip_code":"7340012"},{"name":"山城町","zip_code":"7340035"}]},{"name":"広島市西区","divisions":[{"name":"井口町","zip_code":"7330845"},{"name":"井口","zip_code":"7330842"},{"name":"井口鈴が台","zip_code":"7330843"},{"name":"井口明神","zip_code":"7330841"},{"name":"井口台","zip_code":"7330844"},{"name":"打越町","zip_code":"7330004"},{"name":"扇","zip_code":"7330831"},{"name":"大芝","zip_code":"7330001"},{"name":"大宮","zip_code":"7330007"},{"name":"小河内町","zip_code":"7330025"},{"name":"上天満町","zip_code":"7330021"},{"name":"観音新町","zip_code":"7330036"},{"name":"観音本町","zip_code":"7330033"},{"name":"観音町","zip_code":"7330031"},{"name":"草津梅が台","zip_code":"7330864"},{"name":"草津新町","zip_code":"7330834"},{"name":"草津浜町","zip_code":"7330862"},{"name":"草津本町","zip_code":"7330865"},{"name":"草津東","zip_code":"7330861"},{"name":"草津南","zip_code":"7330863"},{"name":"草津港","zip_code":"7330832"},{"name":"楠木町","zip_code":"7330002"},{"name":"己斐上","zip_code":"7330815"},{"name":"己斐大迫","zip_code":"7330816"},{"name":"己斐中","zip_code":"7330813"},{"name":"己斐西町","zip_code":"7330814"},{"name":"己斐本町","zip_code":"7330812"},{"name":"己斐東","zip_code":"7330811"},{"name":"庚午中","zip_code":"7330822"},{"name":"庚午南","zip_code":"7330823"},{"name":"庚午北","zip_code":"7330821"},{"name":"商工センター","zip_code":"7330833"},{"name":"新庄町","zip_code":"7330801"},{"name":"鈴が峰町","zip_code":"7330852"},{"name":"高須","zip_code":"7330871"},{"name":"高須台","zip_code":"7330876"},{"name":"田方","zip_code":"7330851"},{"name":"天満町","zip_code":"7330022"},{"name":"中広町","zip_code":"7330012"},{"name":"西観音町","zip_code":"7330037"},{"name":"東観音町","zip_code":"7330032"},{"name":"福島町","zip_code":"7330024"},{"name":"古江上","zip_code":"7330875"},{"name":"古江新町","zip_code":"7330873"},{"name":"古江東町","zip_code":"7330872"},{"name":"古江西町","zip_code":"7330874"},{"name":"古田台","zip_code":"7330877"},{"name":"三篠北町","zip_code":"7330006"},{"name":"三篠町","zip_code":"7330003"},{"name":"三滝本町","zip_code":"7330802"},{"name":"三滝町","zip_code":"7330005"},{"name":"三滝山","zip_code":"7330805"},{"name":"南観音","zip_code":"7330035"},{"name":"南観音町","zip_code":"7330034"},{"name":"都町","zip_code":"7330023"},{"name":"山田新町","zip_code":"7330853"},{"name":"山田町","zip_code":"7330854"},{"name":"山手町","zip_code":"7330804"},{"name":"横川新町","zip_code":"7330013"},{"name":"横川町","zip_code":"7330011"},{"name":"竜王町","zip_code":"7330803"}]},{"name":"広島市安佐南区","divisions":[{"name":"相田","zip_code":"7310141"},{"name":"大塚東","zip_code":"7313166"},{"name":"大塚西","zip_code":"7313167"},{"name":"大町","zip_code":"7310126"},{"name":"大町東","zip_code":"7310124"},{"name":"大町西","zip_code":"7310125"},{"name":"上安","zip_code":"7310154"},{"name":"上安町","zip_code":"7310154"},{"name":"川内","zip_code":"7310102"},{"name":"祇園","zip_code":"7310138"},{"name":"高取南","zip_code":"7310142"},{"name":"高取南町","zip_code":"7310142"},{"name":"高取北","zip_code":"7310144"},{"name":"長楽寺","zip_code":"7310143"},{"name":"長楽寺町","zip_code":"7310143"},{"name":"伴北","zip_code":"7313163"},{"name":"伴西","zip_code":"7313169"},{"name":"伴東","zip_code":"7313164"},{"name":"伴南","zip_code":"7313168"},{"name":"中須","zip_code":"7310121"},{"name":"中筋","zip_code":"7310122"},{"name":"長束","zip_code":"7310135"},{"name":"長束西","zip_code":"7310136"},{"name":"西原","zip_code":"7310113"},{"name":"沼田町阿戸","zip_code":"7313271"},{"name":"沼田町大塚","zip_code":"7313162"},{"name":"沼田町伴","zip_code":"7313161"},{"name":"沼田町吉山","zip_code":"7313272"},{"name":"東野","zip_code":"7310111"},{"name":"東原","zip_code":"7310112"},{"name":"毘沙門台","zip_code":"7310152"},{"name":"毘沙門台東","zip_code":"7310151"},{"name":"古市","zip_code":"7310123"},{"name":"緑井","zip_code":"7310103"},{"name":"八木","zip_code":"7310101"},{"name":"八木町","zip_code":"7310101"},{"name":"安東","zip_code":"7310153"},{"name":"山本","zip_code":"7310137"},{"name":"山本新町","zip_code":"7310139"},{"name":"山本町","zip_code":"7310137"}]},{"name":"広島市安佐北区","divisions":[{"name":"安佐町飯室","zip_code":"7311142"},{"name":"安佐町後山","zip_code":"7313352"},{"name":"安佐町小河内","zip_code":"7311171"},{"name":"安佐町くすの木台","zip_code":"7313363"},{"name":"安佐町久地","zip_code":"7313362"},{"name":"安佐町毛木","zip_code":"7313351"},{"name":"安佐町鈴張","zip_code":"7311141"},{"name":"安佐町筒瀬","zip_code":"7313354"},{"name":"安佐町動物園","zip_code":"7313355"},{"name":"安佐町宮野","zip_code":"7313353"},{"name":"あさひが丘","zip_code":"7313361"},{"name":"大林","zip_code":"7310201"},{"name":"大林町","zip_code":"7310202"},{"name":"小河原町","zip_code":"7391754"},{"name":"落合","zip_code":"7391731"},{"name":"落合南","zip_code":"7391732"},{"name":"落合南町","zip_code":"7391732"},{"name":"可部","zip_code":"7310221"},{"name":"可部町綾ケ谷","zip_code":"7310236"},{"name":"可部町今井田","zip_code":"7310234"},{"name":"可部町上原","zip_code":"7310225"},{"name":"可部町勝木","zip_code":"7310235"},{"name":"可部町上町屋","zip_code":"7310216"},{"name":"可部町下町屋","zip_code":"7310217"},{"name":"可部町桐原","zip_code":"7310214"},{"name":"可部町中島","zip_code":"7310224"},{"name":"可部町南原","zip_code":"7310215"},{"name":"可部東","zip_code":"7310222"},{"name":"可部南","zip_code":"7310223"},{"name":"上深川町","zip_code":"7391752"},{"name":"亀崎","zip_code":"7391742"},{"name":"亀山","zip_code":"7310231"},{"name":"亀山西","zip_code":"7310233"},{"name":"亀山南","zip_code":"7310232"},{"name":"狩留家町","zip_code":"7391753"},{"name":"口田","zip_code":"7391734"},{"name":"口田町","zip_code":"7391734"},{"name":"口田南","zip_code":"7391733"},{"name":"口田南町","zip_code":"7391733"},{"name":"倉掛","zip_code":"7391743"},{"name":"白木町秋山","zip_code":"7391414"},{"name":"白木町有留","zip_code":"7391413"},{"name":"白木町市川","zip_code":"7391411"},{"name":"白木町井原","zip_code":"7391301"},{"name":"白木町小越","zip_code":"7391412"},{"name":"白木町古屋","zip_code":"7391302"},{"name":"白木町志路","zip_code":"7391303"},{"name":"白木町三田","zip_code":"7391521"},{"name":"深川","zip_code":"7391751"},{"name":"深川町","zip_code":"7391751"},{"name":"真亀","zip_code":"7391741"},{"name":"三入","zip_code":"7310211"},{"name":"三入東","zip_code":"7310212"},{"name":"三入南","zip_code":"7310213"}]},{"name":"広島市安芸区","divisions":[{"name":"阿戸町","zip_code":"7314231"},{"name":"上瀬野","zip_code":"7390301"},{"name":"上瀬野町","zip_code":"7390302"},{"name":"上瀬野南","zip_code":"7390303"},{"name":"瀬野","zip_code":"7390311"},{"name":"瀬野町","zip_code":"7390312"},{"name":"瀬野南町","zip_code":"7390315"},{"name":"瀬野西","zip_code":"7390313"},{"name":"瀬野南","zip_code":"7390314"},{"name":"中野","zip_code":"7390321"},{"name":"中野町","zip_code":"7390322"},{"name":"中野東町","zip_code":"7390324"},{"name":"中野東","zip_code":"7390323"},{"name":"畑賀","zip_code":"7360088"},{"name":"畑賀町","zip_code":"7360089"},{"name":"船越","zip_code":"7360081"},{"name":"船越南","zip_code":"7360082"},{"name":"矢野新町","zip_code":"7360084"},{"name":"矢野町","zip_code":"7360087"},{"name":"矢野東","zip_code":"7360083"},{"name":"矢野西","zip_code":"7360085"},{"name":"矢野南","zip_code":"7360086"}]},{"name":"広島市佐伯区","divisions":[{"name":"旭園","zip_code":"7315133"},{"name":"石内上","zip_code":"7315107"},{"name":"石内北","zip_code":"7315109"},{"name":"石内南","zip_code":"7315108"},{"name":"五日市","zip_code":"7315127"},{"name":"五日市駅前","zip_code":"7315125"},{"name":"五日市港","zip_code":"7315161"},{"name":"五日市中央","zip_code":"7315128"},{"name":"五日市町石内","zip_code":"7315102"},{"name":"五日市町上小深川","zip_code":"7315104"},{"name":"五日市町下小深川","zip_code":"7315105"},{"name":"五日市町上河内","zip_code":"7315151"},{"name":"五日市町下河内","zip_code":"7315152"},{"name":"五日市町昭和台","zip_code":"7315123"},{"name":"五日市町寺田","zip_code":"7315116"},{"name":"五日市町中地","zip_code":"7315115"},{"name":"五日市町美鈴園","zip_code":"7315121"},{"name":"五日市町皆賀","zip_code":"7315122"},{"name":"海老園","zip_code":"7315135"},{"name":"海老山町","zip_code":"7315134"},{"name":"海老山南","zip_code":"7315138"},{"name":"観音台","zip_code":"7315157"},{"name":"倉重","zip_code":"7315156"},{"name":"河内南","zip_code":"7315153"},{"name":"五月が丘","zip_code":"7315101"},{"name":"城山","zip_code":"7315155"},{"name":"新宮苑","zip_code":"7315126"},{"name":"杉並台","zip_code":"7380514"},{"name":"隅の浜","zip_code":"7315145"},{"name":"千同","zip_code":"7315141"},{"name":"坪井","zip_code":"7315142"},{"name":"坪井町","zip_code":"7315142"},{"name":"藤垂園","zip_code":"7315131"},{"name":"利松","zip_code":"7315106"},{"name":"藤の木","zip_code":"7315103"},{"name":"三筋","zip_code":"7315144"},{"name":"美鈴が丘緑","zip_code":"7315113"},{"name":"美鈴が丘東","zip_code":"7315111"},{"name":"美鈴が丘西","zip_code":"7315114"},{"name":"美鈴が丘南","zip_code":"7315112"},{"name":"皆賀","zip_code":"7315124"},{"name":"美の里","zip_code":"7315137"},{"name":"三宅","zip_code":"7315143"},{"name":"三宅町","zip_code":"7315143"},{"name":"薬師が丘","zip_code":"7315154"},{"name":"屋代","zip_code":"7315146"},{"name":"屋代町","zip_code":"7315147"},{"name":"八幡","zip_code":"7315116"},{"name":"八幡が丘","zip_code":"7315117"},{"name":"八幡東","zip_code":"7315115"},{"name":"湯来町下","zip_code":"7380603"},{"name":"湯来町白砂","zip_code":"7380512"},{"name":"湯来町菅沢","zip_code":"7380513"},{"name":"湯来町多田","zip_code":"7380721"},{"name":"湯来町葛原","zip_code":"7380511"},{"name":"湯来町伏谷","zip_code":"7380513"},{"name":"湯来町麦谷","zip_code":"7380602"},{"name":"湯来町和田","zip_code":"7380601"},{"name":"吉見園","zip_code":"7315132"},{"name":"楽々園","zip_code":"7315136"}]},{"name":"呉市","divisions":[{"name":"青山町","zip_code":"7370023"},{"name":"阿賀中央","zip_code":"7370003"},{"name":"阿賀南","zip_code":"7370004"},{"name":"阿賀北","zip_code":"7370001"},{"name":"阿賀町","zip_code":"7370005"},{"name":"朝日町","zip_code":"7370056"},{"name":"吾妻","zip_code":"7370076"},{"name":"内神町","zip_code":"7370804"},{"name":"畝原町","zip_code":"7370061"},{"name":"梅木町","zip_code":"7370872"},{"name":"江原町","zip_code":"7370807"},{"name":"大山町","zip_code":"7370878"},{"name":"押込","zip_code":"7370915"},{"name":"押込西平町","zip_code":"7370914"},{"name":"音戸町有清","zip_code":"7371212"},{"name":"音戸町鰯浜","zip_code":"7371203"},{"name":"音戸町北隠渡","zip_code":"7371204"},{"name":"音戸町先奥","zip_code":"7371213"},{"name":"音戸町高須","zip_code":"7371206"},{"name":"音戸町田原","zip_code":"7371216"},{"name":"音戸町坪井","zip_code":"7371201"},{"name":"音戸町渡子","zip_code":"7371217"},{"name":"音戸町畑","zip_code":"7371211"},{"name":"音戸町波多見","zip_code":"7371207"},{"name":"音戸町早瀬","zip_code":"7371215"},{"name":"音戸町引地","zip_code":"7371202"},{"name":"音戸町藤脇","zip_code":"7371214"},{"name":"音戸町南隠渡","zip_code":"7371205"},{"name":"海岸","zip_code":"7370823"},{"name":"蒲刈町大浦","zip_code":"7370402"},{"name":"蒲刈町田戸","zip_code":"7370403"},{"name":"蒲刈町宮盛","zip_code":"7370401"},{"name":"蒲刈町向","zip_code":"7370311"},{"name":"上内神町","zip_code":"7370808"},{"name":"上長迫町","zip_code":"7370031"},{"name":"上二河町","zip_code":"7370817"},{"name":"上畑町","zip_code":"7370071"},{"name":"上平原町","zip_code":"7370079"},{"name":"上山田町","zip_code":"7370054"},{"name":"狩留賀町","zip_code":"7370862"},{"name":"川尻町板休","zip_code":"7372631"},{"name":"川尻町岩戸","zip_code":"7372634"},{"name":"川尻町後懸","zip_code":"7372637"},{"name":"川尻町大原","zip_code":"7372614"},{"name":"川尻町沖田","zip_code":"7372633"},{"name":"川尻町上畑","zip_code":"7372632"},{"name":"川尻町久筋","zip_code":"7372606"},{"name":"川尻町久俊","zip_code":"7372605"},{"name":"川尻町小仁方","zip_code":"7372604"},{"name":"川尻町小畑","zip_code":"7372617"},{"name":"川尻町小用","zip_code":"7372608"},{"name":"川尻町才野谷","zip_code":"7372636"},{"name":"川尻町真光地","zip_code":"7372615"},{"name":"川尻町西","zip_code":"7372603"},{"name":"川尻町野呂山","zip_code":"7372609"},{"name":"川尻町原山","zip_code":"7372601"},{"name":"川尻町東","zip_code":"7372607"},{"name":"川尻町水落","zip_code":"7372616"},{"name":"川尻町森","zip_code":"7372602"},{"name":"川尻町柳迫","zip_code":"7372635"},{"name":"神原町","zip_code":"7370026"},{"name":"北塩屋町","zip_code":"7370836"},{"name":"倉橋町","zip_code":"7371377"},{"name":"警固屋","zip_code":"7370012"},{"name":"郷原野路の里","zip_code":"7370163"},{"name":"郷原学びの丘","zip_code":"7370162"},{"name":"郷原町","zip_code":"7370161"},{"name":"郷町","zip_code":"7370803"},{"name":"幸町","zip_code":"7370028"},{"name":"三条","zip_code":"7370821"},{"name":"三和町","zip_code":"7370021"},{"name":"汐見町","zip_code":"7370873"},{"name":"清水","zip_code":"7370022"},{"name":"下蒲刈町大地蔵","zip_code":"7370302"},{"name":"下蒲刈町三之瀬","zip_code":"7370301"},{"name":"下蒲刈町下島","zip_code":"7370303"},{"name":"下山田町","zip_code":"7370055"},{"name":"昭和町","zip_code":"7370027"},{"name":"新宮町","zip_code":"7370835"},{"name":"神山","zip_code":"7370923"},{"name":"瀬戸見町","zip_code":"7370834"},{"name":"荘山田村","zip_code":"7370815"},{"name":"宝町","zip_code":"7370029"},{"name":"中央","zip_code":"7370051"},{"name":"築地町","zip_code":"7370822"},{"name":"坪ノ内町","zip_code":"7370014"},{"name":"寺本町","zip_code":"7370033"},{"name":"天応大浜","zip_code":"7370875"},{"name":"天応塩谷町","zip_code":"7370881"},{"name":"天応伝十原町","zip_code":"7370884"},{"name":"天応西条","zip_code":"7370883"},{"name":"天応東久保","zip_code":"7370882"},{"name":"天応福浦町","zip_code":"7370885"},{"name":"天応南町","zip_code":"7370874"},{"name":"天応宮町","zip_code":"7370876"},{"name":"栃原町","zip_code":"7370922"},{"name":"豊浜町斎島","zip_code":"7340103"},{"name":"豊浜町大浜","zip_code":"7340102"},{"name":"豊浜町豊島","zip_code":"7340101"},{"name":"苗代町","zip_code":"7370921"},{"name":"中通","zip_code":"7370046"},{"name":"長迫町","zip_code":"7370035"},{"name":"長谷町","zip_code":"7370871"},{"name":"長ノ木町","zip_code":"7370053"},{"name":"仁方大歳町","zip_code":"7370153"},{"name":"仁方桟橋通","zip_code":"7370154"},{"name":"仁方中筋町","zip_code":"7370151"},{"name":"仁方西神町","zip_code":"7370145"},{"name":"仁方錦町","zip_code":"7370155"},{"name":"仁方本町","zip_code":"7370152"},{"name":"仁方皆実町","zip_code":"7370156"},{"name":"仁方宮上町","zip_code":"7370146"},{"name":"仁方町","zip_code":"7372609"},{"name":"二河峡町","zip_code":"7370816"},{"name":"二河町","zip_code":"7370818"},{"name":"西愛宕町","zip_code":"7370827"},{"name":"西片山町","zip_code":"7370806"},{"name":"西川原石町","zip_code":"7370825"},{"name":"西塩屋町","zip_code":"7370838"},{"name":"西鹿田","zip_code":"7370074"},{"name":"西惣付町","zip_code":"7370062"},{"name":"西辰川","zip_code":"7370809"},{"name":"西谷町","zip_code":"7370064"},{"name":"西中央","zip_code":"7370811"},{"name":"西畑町","zip_code":"7370075"},{"name":"西三津田町","zip_code":"7370812"},{"name":"野呂山","zip_code":"7372609"},{"name":"晴海町","zip_code":"7370833"},{"name":"光町","zip_code":"7370831"},{"name":"東愛宕町","zip_code":"7370828"},{"name":"東片山町","zip_code":"7370805"},{"name":"東川原石町","zip_code":"7370824"},{"name":"東塩屋町","zip_code":"7370837"},{"name":"東鹿田町","zip_code":"7370073"},{"name":"東惣付町","zip_code":"7370063"},{"name":"東辰川町","zip_code":"7370801"},{"name":"東中央","zip_code":"7370052"},{"name":"東畑","zip_code":"7370072"},{"name":"東三津田町","zip_code":"7370813"},{"name":"平原町","zip_code":"7370078"},{"name":"広石内","zip_code":"7370101"},{"name":"広駅前","zip_code":"7370142"},{"name":"広黄幡町","zip_code":"7370138"},{"name":"広大新開","zip_code":"7370141"},{"name":"広大広","zip_code":"7370111"},{"name":"広杭本町","zip_code":"7370122"},{"name":"広古新開","zip_code":"7370112"},{"name":"広小坪","zip_code":"7370137"},{"name":"広塩焼","zip_code":"7370103"},{"name":"広白石","zip_code":"7370143"},{"name":"広白岳","zip_code":"7370144"},{"name":"広末広","zip_code":"7370133"},{"name":"広多賀谷","zip_code":"7370134"},{"name":"広津久茂町","zip_code":"7370135"},{"name":"広徳丸町","zip_code":"7370102"},{"name":"広中迫町","zip_code":"7370105"},{"name":"広中新開","zip_code":"7370124"},{"name":"広中町","zip_code":"7370131"},{"name":"広長浜","zip_code":"7370136"},{"name":"広名田","zip_code":"7370132"},{"name":"広文化町","zip_code":"7370114"},{"name":"広弁天橋町","zip_code":"7370107"},{"name":"広本町","zip_code":"7370125"},{"name":"広町","zip_code":"7372609"},{"name":"広町田","zip_code":"7370104"},{"name":"広三芦","zip_code":"7370106"},{"name":"広横路","zip_code":"7370113"},{"name":"広吉松","zip_code":"7370121"},{"name":"広両谷","zip_code":"7370123"},{"name":"伏原","zip_code":"7370077"},{"name":"船見町","zip_code":"7370015"},{"name":"望地町","zip_code":"7370065"},{"name":"本通","zip_code":"7370045"},{"name":"本町","zip_code":"7370032"},{"name":"的場","zip_code":"7370013"},{"name":"溝路町","zip_code":"7370034"},{"name":"南辰川町","zip_code":"7370802"},{"name":"見晴","zip_code":"7370011"},{"name":"宮原","zip_code":"7370024"},{"name":"室瀬町","zip_code":"7370025"},{"name":"焼山","zip_code":"7370904"},{"name":"焼山泉ケ丘","zip_code":"7370913"},{"name":"焼山此原町","zip_code":"7370902"},{"name":"焼山桜ケ丘","zip_code":"7370933"},{"name":"焼山中央","zip_code":"7370935"},{"name":"焼山ひばりケ丘町","zip_code":"7370901"},{"name":"焼山本庄","zip_code":"7370912"},{"name":"焼山政畝","zip_code":"7370934"},{"name":"焼山松ケ丘","zip_code":"7370932"},{"name":"焼山三ツ石町","zip_code":"7370931"},{"name":"焼山宮ケ迫","zip_code":"7370908"},{"name":"焼山東","zip_code":"7370936"},{"name":"焼山西","zip_code":"7370903"},{"name":"焼山南","zip_code":"7370924"},{"name":"焼山北","zip_code":"7370911"},{"name":"焼山町","zip_code":"7370906"},{"name":"安浦町赤向坂","zip_code":"7372511"},{"name":"安浦町安登","zip_code":"7372503"},{"name":"安浦町安登西","zip_code":"7372512"},{"name":"安浦町安登東","zip_code":"7372513"},{"name":"安浦町内海","zip_code":"7372507"},{"name":"安浦町内海北","zip_code":"7372518"},{"name":"安浦町内海南","zip_code":"7372519"},{"name":"安浦町内平","zip_code":"7372505"},{"name":"安浦町女子畑","zip_code":"7372501"},{"name":"安浦町下垣内","zip_code":"7372509"},{"name":"安浦町中央","zip_code":"7372516"},{"name":"安浦町中央北","zip_code":"7372515"},{"name":"安浦町中央ハイツ","zip_code":"7372514"},{"name":"安浦町中切","zip_code":"7372609"},{"name":"安浦町中畑","zip_code":"7372609"},{"name":"安浦町野呂山","zip_code":"7372609"},{"name":"安浦町原畑","zip_code":"7372506"},{"name":"安浦町水尻","zip_code":"7372517"},{"name":"安浦町三津口","zip_code":"7372502"},{"name":"八幡町","zip_code":"7370044"},{"name":"山手","zip_code":"7370814"},{"name":"弥生町","zip_code":"7370877"},{"name":"豊町大長","zip_code":"7340301"},{"name":"豊町沖友","zip_code":"7340303"},{"name":"豊町久比","zip_code":"7340304"},{"name":"豊町御手洗","zip_code":"7340302"},{"name":"吉浦池ノ浦町","zip_code":"7370844"},{"name":"吉浦岩神町","zip_code":"7370865"},{"name":"吉浦上城町","zip_code":"7370867"},{"name":"吉浦新出町","zip_code":"7370851"},{"name":"吉浦新町","zip_code":"7370845"},{"name":"吉浦神賀町","zip_code":"7370841"},{"name":"吉浦潭鼓町","zip_code":"7370843"},{"name":"吉浦中町","zip_code":"7370853"},{"name":"吉浦西城町","zip_code":"7370864"},{"name":"吉浦東本町","zip_code":"7370852"},{"name":"吉浦東町","zip_code":"7370842"},{"name":"吉浦本町","zip_code":"7370861"},{"name":"吉浦松葉町","zip_code":"7370866"},{"name":"吉浦宮花町","zip_code":"7370863"},{"name":"吉浦町","zip_code":"7370846"},{"name":"両城","zip_code":"7370826"},{"name":"若葉町","zip_code":"7370832"},{"name":"和庄","zip_code":"7370041"},{"name":"和庄登町","zip_code":"7370043"},{"name":"和庄本町","zip_code":"7370042"}]},{"name":"竹原市","divisions":[{"name":"小梨町","zip_code":"7250011"},{"name":"塩町","zip_code":"7250025"},{"name":"下野町","zip_code":"7250012"},{"name":"新庄町","zip_code":"7250003"},{"name":"高崎町","zip_code":"7292313"},{"name":"竹原町","zip_code":"7250021"},{"name":"忠海町","zip_code":"7292311"},{"name":"忠海床浦","zip_code":"7292314"},{"name":"忠海長浜","zip_code":"7292315"},{"name":"忠海中町","zip_code":"7292316"},{"name":"忠海東町","zip_code":"7292317"},{"name":"田ノ浦","zip_code":"7250023"},{"name":"田万里町","zip_code":"7250001"},{"name":"中央","zip_code":"7250026"},{"name":"仁賀町","zip_code":"7250005"},{"name":"西野町","zip_code":"7250002"},{"name":"東野町","zip_code":"7250004"},{"name":"福田町","zip_code":"7292312"},{"name":"本町","zip_code":"7250022"},{"name":"港町","zip_code":"7250024"},{"name":"吉名町","zip_code":"7250013"}]},{"name":"三原市","divisions":[{"name":"青葉台","zip_code":"7230047"},{"name":"旭町","zip_code":"7230012"},{"name":"糸崎","zip_code":"7290324"},{"name":"糸崎南","zip_code":"7290329"},{"name":"円一町","zip_code":"7230015"},{"name":"大畑町","zip_code":"7230066"},{"name":"沖浦町","zip_code":"7230033"},{"name":"奥野山町","zip_code":"7290322"},{"name":"小坂町","zip_code":"7230131"},{"name":"貝野町","zip_code":"7230043"},{"name":"学園町","zip_code":"7230053"},{"name":"木原","zip_code":"7290321"},{"name":"木原町","zip_code":"7290321"},{"name":"久井町莇原","zip_code":"7221301"},{"name":"久井町泉","zip_code":"7221411"},{"name":"久井町江木","zip_code":"7221304"},{"name":"久井町小林","zip_code":"7221417"},{"name":"久井町坂井原","zip_code":"7221414"},{"name":"久井町下津","zip_code":"7221303"},{"name":"久井町土取","zip_code":"7221415"},{"name":"久井町羽倉","zip_code":"7221413"},{"name":"久井町山中野","zip_code":"7221416"},{"name":"久井町吉田","zip_code":"7221302"},{"name":"久井町和草","zip_code":"7221412"},{"name":"小泉町","zip_code":"7292361"},{"name":"古浜","zip_code":"7230013"},{"name":"駒ケ原町","zip_code":"7230006"},{"name":"幸崎久和喜","zip_code":"7292251"},{"name":"幸崎能地","zip_code":"7292252"},{"name":"幸崎渡瀬","zip_code":"7292253"},{"name":"幸崎町久和喜","zip_code":"7292251"},{"name":"幸崎町能地","zip_code":"7292252"},{"name":"幸崎町渡瀬","zip_code":"7292253"},{"name":"鷺浦町須波","zip_code":"7230021"},{"name":"鷺浦町向田野浦","zip_code":"7230022"},{"name":"桜山町","zip_code":"7230005"},{"name":"下北方","zip_code":"7290414"},{"name":"城町","zip_code":"7230014"},{"name":"新倉","zip_code":"7230134"},{"name":"新倉町","zip_code":"7230134"},{"name":"須波","zip_code":"7230031"},{"name":"須波町","zip_code":"7230031"},{"name":"須波西","zip_code":"7230032"},{"name":"須波西町","zip_code":"7230032"},{"name":"須波ハイツ","zip_code":"7230035"},{"name":"宗郷","zip_code":"7230044"},{"name":"大和町姥ケ原","zip_code":"7291212"},{"name":"大和町大具","zip_code":"7291323"},{"name":"大和町大草","zip_code":"7291211"},{"name":"大和町上草井","zip_code":"7291332"},{"name":"大和町上徳良","zip_code":"7291405"},{"name":"大和町蔵宗","zip_code":"7291401"},{"name":"大和町篠","zip_code":"7291402"},{"name":"大和町下草井","zip_code":"7291333"},{"name":"大和町下徳良","zip_code":"7291406"},{"name":"大和町萩原","zip_code":"7291403"},{"name":"大和町箱川","zip_code":"7291322"},{"name":"大和町平坂","zip_code":"7291213"},{"name":"大和町福田","zip_code":"7291404"},{"name":"大和町椋梨","zip_code":"7291331"},{"name":"大和町和木","zip_code":"7291321"},{"name":"高坂町真良","zip_code":"7290472"},{"name":"高坂町許山","zip_code":"7290471"},{"name":"田野浦","zip_code":"7230045"},{"name":"中之町","zip_code":"7230003"},{"name":"中之町南","zip_code":"7230002"},{"name":"中之町北","zip_code":"7230007"},{"name":"長谷","zip_code":"7230132"},{"name":"長谷町","zip_code":"7230132"},{"name":"西野","zip_code":"7230065"},{"name":"西町","zip_code":"7230063"},{"name":"西宮","zip_code":"7230064"},{"name":"沼田","zip_code":"7230133"},{"name":"沼田町","zip_code":"7230133"},{"name":"沼田西町小原","zip_code":"7290473"},{"name":"沼田西町惣定","zip_code":"7290474"},{"name":"沼田西町松江","zip_code":"7290475"},{"name":"沼田東町片島","zip_code":"7230145"},{"name":"沼田東町釜山","zip_code":"7230143"},{"name":"沼田東町七宝","zip_code":"7230148"},{"name":"沼田東町末広","zip_code":"7230144"},{"name":"沼田東町末光","zip_code":"7230142"},{"name":"沼田東町納所","zip_code":"7230146"},{"name":"沼田東町本市","zip_code":"7230147"},{"name":"沼田東町両名","zip_code":"7230141"},{"name":"登町","zip_code":"7230034"},{"name":"鉢ケ峰町","zip_code":"7290323"},{"name":"東町","zip_code":"7230011"},{"name":"深町","zip_code":"7230001"},{"name":"本郷北","zip_code":"7290418"},{"name":"本郷南","zip_code":"7290417"},{"name":"本郷町上北方","zip_code":"7290415"},{"name":"本郷町下北方","zip_code":"7290414"},{"name":"本郷町善入寺","zip_code":"7290416"},{"name":"本郷町船木","zip_code":"7221401"},{"name":"本郷町本郷","zip_code":"7290412"},{"name":"本郷町南方","zip_code":"7290413"},{"name":"本町","zip_code":"7230062"},{"name":"港町","zip_code":"7230017"},{"name":"皆実","zip_code":"7230052"},{"name":"南方","zip_code":"7290419"},{"name":"宮浦","zip_code":"7230051"},{"name":"宮沖","zip_code":"7230016"},{"name":"明神","zip_code":"7230046"},{"name":"館町","zip_code":"7230004"},{"name":"八坂町","zip_code":"7230061"},{"name":"八幡町垣内","zip_code":"7221501"},{"name":"八幡町篝","zip_code":"7221511"},{"name":"八幡町野串","zip_code":"7221512"},{"name":"八幡町本庄","zip_code":"7221516"},{"name":"八幡町美生","zip_code":"7221515"},{"name":"八幡町宮内","zip_code":"7221513"},{"name":"八幡町屋中","zip_code":"7221514"},{"name":"頼兼","zip_code":"7230054"},{"name":"和田沖町","zip_code":"7230042"},{"name":"和田","zip_code":"7230041"}]},{"name":"尾道市","divisions":[{"name":"因島大浜町","zip_code":"7222101"},{"name":"因島鏡浦町","zip_code":"7222212"},{"name":"因島重井町","zip_code":"7222102"},{"name":"因島洲江町","zip_code":"7222431"},{"name":"因島田熊町","zip_code":"7222324"},{"name":"因島外浦町","zip_code":"7222213"},{"name":"因島中庄町","zip_code":"7222211"},{"name":"因島土生町","zip_code":"7222323"},{"name":"因島原町","zip_code":"7222432"},{"name":"因島三庄町","zip_code":"7222322"},{"name":"因島椋浦町","zip_code":"7222321"},{"name":"浦崎町","zip_code":"7200551"},{"name":"沖側町","zip_code":"7220006"},{"name":"尾崎町","zip_code":"7220053"},{"name":"尾崎本町","zip_code":"7220054"},{"name":"神田町","zip_code":"7220016"},{"name":"木ノ庄町市原","zip_code":"7220233"},{"name":"木ノ庄町木梨","zip_code":"7220234"},{"name":"木ノ庄町木梨山方","zip_code":"7220235"},{"name":"木ノ庄町木門田","zip_code":"7220232"},{"name":"木ノ庄町畑","zip_code":"7220231"},{"name":"久保","zip_code":"7220045"},{"name":"久保町","zip_code":"7220042"},{"name":"栗原東","zip_code":"7220025"},{"name":"栗原西","zip_code":"7220026"},{"name":"栗原町","zip_code":"7220022"},{"name":"古浜町","zip_code":"7220002"},{"name":"桜町","zip_code":"7220011"},{"name":"三軒家町","zip_code":"7220031"},{"name":"山波町","zip_code":"7220052"},{"name":"潮見町","zip_code":"7220012"},{"name":"正徳町","zip_code":"7220004"},{"name":"新高山","zip_code":"7220055"},{"name":"新浜","zip_code":"7220014"},{"name":"瀬戸田町荻","zip_code":"7222403"},{"name":"瀬戸田町高根","zip_code":"7222412"},{"name":"瀬戸田町沢","zip_code":"7222413"},{"name":"瀬戸田町鹿田原","zip_code":"7222414"},{"name":"瀬戸田町瀬戸田","zip_code":"7222411"},{"name":"瀬戸田町垂水","zip_code":"7222404"},{"name":"瀬戸田町中野","zip_code":"7222415"},{"name":"瀬戸田町林","zip_code":"7222416"},{"name":"瀬戸田町福田","zip_code":"7222405"},{"name":"瀬戸田町御寺","zip_code":"7222401"},{"name":"瀬戸田町宮原","zip_code":"7222402"},{"name":"瀬戸田町名荷","zip_code":"7222417"},{"name":"高須町","zip_code":"7290141"},{"name":"長者原","zip_code":"7220221"},{"name":"土堂","zip_code":"7220035"},{"name":"手崎町","zip_code":"7220001"},{"name":"天満町","zip_code":"7220038"},{"name":"十四日町","zip_code":"7220047"},{"name":"十四日元町","zip_code":"7220034"},{"name":"長江","zip_code":"7220046"},{"name":"西久保町","zip_code":"7220044"},{"name":"西御所町","zip_code":"7220037"},{"name":"西土堂町","zip_code":"7220032"},{"name":"西則末町","zip_code":"7220024"},{"name":"西藤町","zip_code":"7290142"},{"name":"原田町小原","zip_code":"7220201"},{"name":"原田町梶山田","zip_code":"7220202"},{"name":"東尾道","zip_code":"7220051"},{"name":"東久保町","zip_code":"7220043"},{"name":"東御所町","zip_code":"7220036"},{"name":"東土堂町","zip_code":"7220033"},{"name":"東則末町","zip_code":"7220023"},{"name":"東元町","zip_code":"7220003"},{"name":"久山田町","zip_code":"7220021"},{"name":"日比崎町","zip_code":"7220013"},{"name":"平原","zip_code":"7220018"},{"name":"福地町","zip_code":"7220005"},{"name":"防地町","zip_code":"7220041"},{"name":"御調町綾目","zip_code":"7220354"},{"name":"御調町市","zip_code":"7220311"},{"name":"御調町今田","zip_code":"7221564"},{"name":"御調町岩根","zip_code":"7220326"},{"name":"御調町植野","zip_code":"7221563"},{"name":"御調町江田","zip_code":"7220336"},{"name":"御調町大田","zip_code":"7220342"},{"name":"御調町大原","zip_code":"7220351"},{"name":"御調町大町","zip_code":"7220314"},{"name":"御調町大山田","zip_code":"7220403"},{"name":"御調町貝ケ原","zip_code":"7220312"},{"name":"御調町釜窪","zip_code":"7220315"},{"name":"御調町神","zip_code":"7220341"},{"name":"御調町国守","zip_code":"7220335"},{"name":"御調町公文","zip_code":"7220352"},{"name":"御調町三郎丸","zip_code":"7220322"},{"name":"御調町下山田","zip_code":"7220402"},{"name":"御調町菅","zip_code":"7220334"},{"name":"御調町千堂","zip_code":"7220401"},{"name":"御調町大蔵","zip_code":"7220323"},{"name":"御調町大塔","zip_code":"7220333"},{"name":"御調町高尾","zip_code":"7220353"},{"name":"御調町津蟹","zip_code":"7221562"},{"name":"御調町徳永","zip_code":"7220345"},{"name":"御調町中原","zip_code":"7220325"},{"name":"御調町仁野","zip_code":"7220331"},{"name":"御調町野間","zip_code":"7221565"},{"name":"御調町白太","zip_code":"7220324"},{"name":"御調町花尻","zip_code":"7220316"},{"name":"御調町平","zip_code":"7220313"},{"name":"御調町平木","zip_code":"7220332"},{"name":"御調町福井","zip_code":"7221561"},{"name":"御調町本","zip_code":"7220321"},{"name":"御調町丸河南","zip_code":"7220343"},{"name":"御調町丸門田","zip_code":"7220344"},{"name":"御調町山岡","zip_code":"7220355"},{"name":"美ノ郷町猪子迫","zip_code":"7220214"},{"name":"美ノ郷町白江","zip_code":"7220213"},{"name":"美ノ郷町中野","zip_code":"7220211"},{"name":"美ノ郷町本郷","zip_code":"7220212"},{"name":"美ノ郷町三成","zip_code":"7220215"},{"name":"向島町","zip_code":"7220073"},{"name":"向島町岩子島","zip_code":"7220072"},{"name":"向島町立花","zip_code":"7220071"},{"name":"向東町","zip_code":"7220062"},{"name":"百島町","zip_code":"7220061"},{"name":"門田町","zip_code":"7220017"},{"name":"吉浦町","zip_code":"7220015"},{"name":"吉和町","zip_code":"7220008"},{"name":"吉和西元町","zip_code":"7220007"}]},{"name":"福山市","divisions":[{"name":"青葉台","zip_code":"7210911"},{"name":"赤坂町赤坂","zip_code":"7200843"},{"name":"赤坂町早戸","zip_code":"7200844"},{"name":"曙町","zip_code":"7210952"},{"name":"旭町","zip_code":"7200033"},{"name":"芦田町上有地","zip_code":"7201261"},{"name":"芦田町下有地","zip_code":"7201262"},{"name":"芦田町柞磨","zip_code":"7201263"},{"name":"芦田町向陽台","zip_code":"7201265"},{"name":"芦田町福田","zip_code":"7200845"},{"name":"伊勢丘","zip_code":"7210915"},{"name":"一文字町","zip_code":"7210953"},{"name":"今津町","zip_code":"7290111"},{"name":"今町","zip_code":"7200046"},{"name":"入船町","zip_code":"7200801"},{"name":"内海町","zip_code":"7222641"},{"name":"内海町イ","zip_code":"7222631"},{"name":"内海町ロ","zip_code":"7222632"},{"name":"内海町ハ","zip_code":"7222633"},{"name":"駅家町雨木","zip_code":"7202525"},{"name":"駅家町今岡","zip_code":"7201145"},{"name":"駅家町江良","zip_code":"7201141"},{"name":"駅家町大橋","zip_code":"7201146"},{"name":"駅家町上山守","zip_code":"7201142"},{"name":"駅家町下山守","zip_code":"7201143"},{"name":"駅家町倉光","zip_code":"7201132"},{"name":"駅家町助元","zip_code":"7202524"},{"name":"駅家町近田","zip_code":"7201133"},{"name":"駅家町中島","zip_code":"7201134"},{"name":"駅家町新山","zip_code":"7202523"},{"name":"駅家町服部永谷","zip_code":"7202522"},{"name":"駅家町服部本郷","zip_code":"7202521"},{"name":"駅家町法成寺","zip_code":"7202413"},{"name":"駅家町坊寺","zip_code":"7201144"},{"name":"駅家町万能倉","zip_code":"7201131"},{"name":"駅家町向永谷","zip_code":"7201147"},{"name":"駅家町弥生ケ丘","zip_code":"7201135"},{"name":"胡町","zip_code":"7200055"},{"name":"王子町","zip_code":"7210965"},{"name":"大谷台","zip_code":"7210914"},{"name":"沖野上町","zip_code":"7200825"},{"name":"卸町","zip_code":"7210954"},{"name":"笠岡町","zip_code":"7200044"},{"name":"神島町","zip_code":"7200091"},{"name":"春日池","zip_code":"7210917"},{"name":"春日台","zip_code":"7210916"},{"name":"春日町","zip_code":"7210907"},{"name":"春日町宇山","zip_code":"7210901"},{"name":"春日町浦上","zip_code":"7210902"},{"name":"春日町吉田","zip_code":"7210908"},{"name":"霞町","zip_code":"7200812"},{"name":"金江町金見","zip_code":"7200541"},{"name":"金江町藁江","zip_code":"7200542"},{"name":"神村町","zip_code":"7290112"},{"name":"加茂町芦原","zip_code":"7202417"},{"name":"加茂町粟根","zip_code":"7202416"},{"name":"加茂町上加茂","zip_code":"7202419"},{"name":"加茂町北山","zip_code":"7202415"},{"name":"加茂町下加茂","zip_code":"7202412"},{"name":"加茂町中野","zip_code":"7202418"},{"name":"加茂町八軒屋","zip_code":"7202410"},{"name":"加茂町百谷","zip_code":"7202414"},{"name":"川口町","zip_code":"7200822"},{"name":"神辺町旭丘","zip_code":"7202113"},{"name":"神辺町上御領","zip_code":"7202111"},{"name":"神辺町上竹田","zip_code":"7202114"},{"name":"神辺町川北","zip_code":"7202123"},{"name":"神辺町川南","zip_code":"7202124"},{"name":"神辺町下御領","zip_code":"7202117"},{"name":"神辺町下竹田","zip_code":"7202115"},{"name":"神辺町十九軒屋","zip_code":"7202106"},{"name":"神辺町十三軒屋","zip_code":"7202105"},{"name":"神辺町新十九","zip_code":"7202108"},{"name":"神辺町新徳田","zip_code":"7202125"},{"name":"神辺町新道上","zip_code":"7202107"},{"name":"神辺町新湯野","zip_code":"7202122"},{"name":"神辺町徳田","zip_code":"7202126"},{"name":"神辺町西中条","zip_code":"7202103"},{"name":"神辺町箱田","zip_code":"7202127"},{"name":"神辺町東中条","zip_code":"7202102"},{"name":"神辺町平野","zip_code":"7202116"},{"name":"神辺町三谷","zip_code":"7202101"},{"name":"神辺町道上","zip_code":"7202104"},{"name":"神辺町八尋","zip_code":"7202112"},{"name":"神辺町湯野","zip_code":"7202121"},{"name":"北本庄","zip_code":"7200074"},{"name":"北美台","zip_code":"7200023"},{"name":"北吉津町","zip_code":"7200073"},{"name":"木之庄町","zip_code":"7200082"},{"name":"草戸町","zip_code":"7200831"},{"name":"熊野町","zip_code":"7200411"},{"name":"鋼管町","zip_code":"7210931"},{"name":"光南町","zip_code":"7200814"},{"name":"郷分町","zip_code":"7200093"},{"name":"向陽町","zip_code":"7200081"},{"name":"蔵王町","zip_code":"7210971"},{"name":"桜馬場町","zip_code":"7200051"},{"name":"佐波町","zip_code":"7200835"},{"name":"三之丸町","zip_code":"7200066"},{"name":"地吹町","zip_code":"7200816"},{"name":"清水ケ丘","zip_code":"7200025"},{"name":"城興ケ丘","zip_code":"7210929"},{"name":"昭和町","zip_code":"7200808"},{"name":"城見町","zip_code":"7200054"},{"name":"新市町金丸","zip_code":"7293111"},{"name":"新市町上安井","zip_code":"7293106"},{"name":"新市町相方","zip_code":"7293102"},{"name":"新市町下安井","zip_code":"7293105"},{"name":"新市町新市","zip_code":"7293103"},{"name":"新市町常","zip_code":"7293107"},{"name":"新市町戸手","zip_code":"7293101"},{"name":"新市町藤尾","zip_code":"7293112"},{"name":"新市町宮内","zip_code":"7293104"},{"name":"新涯町","zip_code":"7210955"},{"name":"新浜町","zip_code":"7210951"},{"name":"住吉町","zip_code":"7200809"},{"name":"瀬戸町山北","zip_code":"7200838"},{"name":"瀬戸町地頭分","zip_code":"7200837"},{"name":"瀬戸町長和","zip_code":"7200836"},{"name":"千田町","zip_code":"7200017"},{"name":"千田町坂田","zip_code":"7200015"},{"name":"千田町千田","zip_code":"7200013"},{"name":"千田町薮路","zip_code":"7200014"},{"name":"千田町坂田北","zip_code":"7200016"},{"name":"高西町","zip_code":"7290106"},{"name":"高西町川尻","zip_code":"7290101"},{"name":"高西町真田","zip_code":"7290102"},{"name":"高西町南","zip_code":"7290103"},{"name":"高美台","zip_code":"7200024"},{"name":"宝町","zip_code":"7200045"},{"name":"多治米町","zip_code":"7200824"},{"name":"田尻町","zip_code":"7200203"},{"name":"大黒町","zip_code":"7200053"},{"name":"大門町","zip_code":"7210926"},{"name":"大門町旭","zip_code":"7210924"},{"name":"大門町日之出丘","zip_code":"7210922"},{"name":"大門町坂里","zip_code":"7210925"},{"name":"大門町大門","zip_code":"7210921"},{"name":"大門町津之下","zip_code":"7210927"},{"name":"大門町野々浜","zip_code":"7210923"},{"name":"長者町","zip_code":"7200075"},{"name":"千代田町","zip_code":"7200823"},{"name":"津之郷町加屋","zip_code":"7200842"},{"name":"津之郷町津之郷","zip_code":"7200841"},{"name":"坪生町","zip_code":"7210903"},{"name":"坪生町南","zip_code":"7210904"},{"name":"手城町","zip_code":"7210966"},{"name":"寺町","zip_code":"7200041"},{"name":"道三町","zip_code":"7200813"},{"name":"東陽台","zip_code":"7210912"},{"name":"鞆町後地","zip_code":"7200202"},{"name":"鞆町鞆","zip_code":"7200201"},{"name":"奈良津町","zip_code":"7200022"},{"name":"西桜町","zip_code":"7200818"},{"name":"西新涯町","zip_code":"7210958"},{"name":"西深津町","zip_code":"7210975"},{"name":"西町","zip_code":"7200067"},{"name":"沼隈町上山南","zip_code":"7200401"},{"name":"沼隈町草深","zip_code":"7200311"},{"name":"沼隈町下山南","zip_code":"7200403"},{"name":"沼隈町常石","zip_code":"7200313"},{"name":"沼隈町中山南","zip_code":"7200402"},{"name":"沼隈町能登原","zip_code":"7200312"},{"name":"能島","zip_code":"7210906"},{"name":"野上町","zip_code":"7200815"},{"name":"延広町","zip_code":"7200064"},{"name":"走島町","zip_code":"7200204"},{"name":"花園町","zip_code":"7200803"},{"name":"東川口町","zip_code":"7200821"},{"name":"東桜町","zip_code":"7200065"},{"name":"東手城町","zip_code":"7210962"},{"name":"東深津町","zip_code":"7210974"},{"name":"東町","zip_code":"7200052"},{"name":"東明王台","zip_code":"7200839"},{"name":"東村町","zip_code":"7290251"},{"name":"東吉津町","zip_code":"7200071"},{"name":"引野町","zip_code":"7210942"},{"name":"引野町北","zip_code":"7210941"},{"name":"引野町東","zip_code":"7210944"},{"name":"引野町南","zip_code":"7210945"},{"name":"久松台","zip_code":"7200083"},{"name":"日吉台","zip_code":"7210972"},{"name":"伏見町","zip_code":"7200062"},{"name":"藤江町","zip_code":"7200543"},{"name":"船町","zip_code":"7200043"},{"name":"古野上町","zip_code":"7200817"},{"name":"平成台","zip_code":"7210943"},{"name":"本郷町","zip_code":"7290252"},{"name":"本庄町中","zip_code":"7200076"},{"name":"本町","zip_code":"7200056"},{"name":"幕山台","zip_code":"7210913"},{"name":"松永町","zip_code":"7290104"},{"name":"松浜町","zip_code":"7200802"},{"name":"丸之内","zip_code":"7200061"},{"name":"御門町","zip_code":"7200805"},{"name":"緑町","zip_code":"7200804"},{"name":"港町","zip_code":"7210964"},{"name":"南今津町","zip_code":"7290115"},{"name":"南蔵王町","zip_code":"7210973"},{"name":"南手城町","zip_code":"7210963"},{"name":"南本庄","zip_code":"7200077"},{"name":"南町","zip_code":"7200806"},{"name":"南松永町","zip_code":"7290105"},{"name":"箕沖町","zip_code":"7210956"},{"name":"箕島町","zip_code":"7210957"},{"name":"水呑町","zip_code":"7200832"},{"name":"水呑向丘","zip_code":"7200833"},{"name":"御船町","zip_code":"7200042"},{"name":"宮前町","zip_code":"7290113"},{"name":"御幸町上岩成","zip_code":"7200001"},{"name":"御幸町下岩成","zip_code":"7200002"},{"name":"御幸町中津原","zip_code":"7200004"},{"name":"御幸町森脇","zip_code":"7200003"},{"name":"明王台","zip_code":"7200834"},{"name":"明神町","zip_code":"7210961"},{"name":"三吉町","zip_code":"7200031"},{"name":"三吉町南","zip_code":"7200032"},{"name":"明治町","zip_code":"7200807"},{"name":"元町","zip_code":"7200063"},{"name":"紅葉町","zip_code":"7200811"},{"name":"柳津町","zip_code":"7290114"},{"name":"山手町","zip_code":"7200092"},{"name":"山野町矢川","zip_code":"7202601"},{"name":"山野町山野","zip_code":"7202602"},{"name":"横尾町","zip_code":"7200011"},{"name":"吉津町","zip_code":"7200072"},{"name":"緑陽町","zip_code":"7200021"},{"name":"若松町","zip_code":"7200034"}]},{"name":"府中市","divisions":[{"name":"阿字町","zip_code":"7293212"},{"name":"荒谷町","zip_code":"7260031"},{"name":"鵜飼町","zip_code":"7260002"},{"name":"上山町","zip_code":"7260034"},{"name":"小国町","zip_code":"7220432"},{"name":"河南町","zip_code":"7260025"},{"name":"河佐町","zip_code":"7293221"},{"name":"木野山町","zip_code":"7293211"},{"name":"久佐町","zip_code":"7293222"},{"name":"栗柄町","zip_code":"7260023"},{"name":"河面町","zip_code":"7260036"},{"name":"桜が丘","zip_code":"7260006"},{"name":"三郎丸町","zip_code":"7260026"},{"name":"篠根町","zip_code":"7260027"},{"name":"上下町有福","zip_code":"7293405"},{"name":"上下町井永","zip_code":"7293411"},{"name":"上下町岡屋","zip_code":"7293412"},{"name":"上下町小塚","zip_code":"7293401"},{"name":"上下町国留","zip_code":"7293422"},{"name":"上下町小堀","zip_code":"7293402"},{"name":"上下町佐倉","zip_code":"7293414"},{"name":"上下町階見","zip_code":"7293403"},{"name":"上下町上下","zip_code":"7293431"},{"name":"上下町深江","zip_code":"7293421"},{"name":"上下町二森","zip_code":"7293404"},{"name":"上下町松崎","zip_code":"7293424"},{"name":"上下町水永","zip_code":"7293413"},{"name":"上下町矢多田","zip_code":"7293415"},{"name":"上下町矢野","zip_code":"7293423"},{"name":"僧殿町","zip_code":"7260024"},{"name":"高木町","zip_code":"7260013"},{"name":"父石町","zip_code":"7260035"},{"name":"出口町","zip_code":"7260032"},{"name":"斗升町","zip_code":"7293201"},{"name":"中須町","zip_code":"7260012"},{"name":"土生町","zip_code":"7260021"},{"name":"広谷町","zip_code":"7260011"},{"name":"府川町","zip_code":"7260004"},{"name":"府中町","zip_code":"7260005"},{"name":"行縢町","zip_code":"7293202"},{"name":"目崎町","zip_code":"7260033"},{"name":"元町","zip_code":"7260003"},{"name":"本山町","zip_code":"7260001"},{"name":"諸毛町","zip_code":"7220431"},{"name":"用土町","zip_code":"7260022"}]},{"name":"三次市","divisions":[{"name":"青河町","zip_code":"7280024"},{"name":"秋町","zip_code":"7296335"},{"name":"穴笠町","zip_code":"7280004"},{"name":"有原町","zip_code":"7280625"},{"name":"粟屋町","zip_code":"7280025"},{"name":"石原町","zip_code":"7280623"},{"name":"糸井町","zip_code":"7296212"},{"name":"上田町","zip_code":"7280624"},{"name":"後山町","zip_code":"7280005"},{"name":"海渡町","zip_code":"7280622"},{"name":"江田川之内町","zip_code":"7296215"},{"name":"大田幸町","zip_code":"7296211"},{"name":"小文町","zip_code":"7280007"},{"name":"上川立町","zip_code":"7296334"},{"name":"上志和地町","zip_code":"7296332"},{"name":"吉舎町雲通","zip_code":"7294223"},{"name":"吉舎町海田原","zip_code":"7294205"},{"name":"吉舎町上安田","zip_code":"7294202"},{"name":"吉舎町吉舎","zip_code":"7294211"},{"name":"吉舎町吉舎川之内","zip_code":"7294226"},{"name":"吉舎町清綱","zip_code":"7294221"},{"name":"吉舎町敷地","zip_code":"7294207"},{"name":"吉舎町知和","zip_code":"7294201"},{"name":"吉舎町辻","zip_code":"7294224"},{"name":"吉舎町徳市","zip_code":"7294225"},{"name":"吉舎町檜","zip_code":"7294227"},{"name":"吉舎町丸田","zip_code":"7294222"},{"name":"吉舎町三玉","zip_code":"7294204"},{"name":"吉舎町矢井","zip_code":"7294206"},{"name":"吉舎町安田","zip_code":"7294203"},{"name":"吉舎町矢野地","zip_code":"7294208"},{"name":"木乗町","zip_code":"7296204"},{"name":"君田町石原","zip_code":"7280404"},{"name":"君田町泉吉田","zip_code":"7280405"},{"name":"君田町西入君","zip_code":"7280402"},{"name":"君田町東入君","zip_code":"7280401"},{"name":"君田町櫃田","zip_code":"7280406"},{"name":"君田町藤兼","zip_code":"7280403"},{"name":"君田町茂田","zip_code":"7280407"},{"name":"甲奴町有田","zip_code":"7294106"},{"name":"甲奴町宇賀","zip_code":"7294104"},{"name":"甲奴町梶田","zip_code":"7294105"},{"name":"甲奴町太郎丸","zip_code":"7294113"},{"name":"甲奴町西野","zip_code":"7294102"},{"name":"甲奴町抜湯","zip_code":"7294112"},{"name":"甲奴町小童","zip_code":"7294103"},{"name":"甲奴町福田","zip_code":"7294111"},{"name":"甲奴町本郷","zip_code":"7294101"},{"name":"小田幸町","zip_code":"7296216"},{"name":"作木町伊賀和志","zip_code":"7280111"},{"name":"作木町大津","zip_code":"7280115"},{"name":"作木町大畠","zip_code":"7280121"},{"name":"作木町大山","zip_code":"7280132"},{"name":"作木町岡三渕","zip_code":"7280101"},{"name":"作木町上作木","zip_code":"7280123"},{"name":"作木町香淀","zip_code":"7280131"},{"name":"作木町下作木","zip_code":"7280124"},{"name":"作木町西野","zip_code":"7280122"},{"name":"作木町光守","zip_code":"7280125"},{"name":"作木町森山中","zip_code":"7280114"},{"name":"作木町森山西","zip_code":"7280112"},{"name":"作木町森山東","zip_code":"7280113"},{"name":"作木町門田","zip_code":"7280133"},{"name":"塩町","zip_code":"7296205"},{"name":"志幸町","zip_code":"7296203"},{"name":"四拾貫町","zip_code":"7280016"},{"name":"下川立町","zip_code":"7296333"},{"name":"下志和地町","zip_code":"7296331"},{"name":"高杉町","zip_code":"7296214"},{"name":"十日市中","zip_code":"7280012"},{"name":"十日市東","zip_code":"7280013"},{"name":"十日市西","zip_code":"7280011"},{"name":"十日市南","zip_code":"7280014"},{"name":"十日市町","zip_code":"7280015"},{"name":"西河内町","zip_code":"7280002"},{"name":"西酒屋町","zip_code":"7280022"},{"name":"畠敷町","zip_code":"7280006"},{"name":"東河内町","zip_code":"7280003"},{"name":"東酒屋町","zip_code":"7280023"},{"name":"日下町","zip_code":"7280026"},{"name":"布野町上布野","zip_code":"7280201"},{"name":"布野町下布野","zip_code":"7280202"},{"name":"布野町戸河内","zip_code":"7280203"},{"name":"布野町横谷","zip_code":"7280211"},{"name":"南畑敷町","zip_code":"7280017"},{"name":"三原町","zip_code":"7280027"},{"name":"三次町","zip_code":"7280021"},{"name":"三良坂町岡田","zip_code":"7294306"},{"name":"三良坂町皆瀬","zip_code":"7294307"},{"name":"三良坂町田利","zip_code":"7294308"},{"name":"三良坂町長田","zip_code":"7294305"},{"name":"三良坂町仁賀","zip_code":"7294302"},{"name":"三良坂町灰塚","zip_code":"7294303"},{"name":"三良坂町光清","zip_code":"7294301"},{"name":"三良坂町三良坂","zip_code":"7294304"},{"name":"三若町","zip_code":"7280621"},{"name":"三和町有原","zip_code":"7296613"},{"name":"三和町飯田","zip_code":"7296701"},{"name":"三和町上板木","zip_code":"7296615"},{"name":"三和町上壱","zip_code":"7296701"},{"name":"三和町敷名","zip_code":"7296612"},{"name":"三和町下板木","zip_code":"7296612"},{"name":"三和町大力谷","zip_code":"7296616"},{"name":"三和町羽出庭","zip_code":"7296614"},{"name":"三和町福田","zip_code":"7296611"},{"name":"向江田町","zip_code":"7296202"},{"name":"廻神町","zip_code":"7296213"},{"name":"山家町","zip_code":"7280001"},{"name":"和知町","zip_code":"7296201"}]},{"name":"庄原市","divisions":[{"name":"板橋町","zip_code":"7270014"},{"name":"市町","zip_code":"7270025"},{"name":"上谷町","zip_code":"7270624"},{"name":"大久保町","zip_code":"7270001"},{"name":"尾引町","zip_code":"7296143"},{"name":"小用町","zip_code":"7295812"},{"name":"掛田町","zip_code":"7270026"},{"name":"上原町","zip_code":"7270022"},{"name":"川北町","zip_code":"7270203"},{"name":"川手町","zip_code":"7270005"},{"name":"川西町","zip_code":"7295813"},{"name":"木戸町","zip_code":"7296134"},{"name":"口和町大月","zip_code":"7280503"},{"name":"口和町金田","zip_code":"7270112"},{"name":"口和町竹地谷","zip_code":"7280504"},{"name":"口和町常定","zip_code":"7270113"},{"name":"口和町永田","zip_code":"7270114"},{"name":"口和町宮内","zip_code":"7280501"},{"name":"口和町向泉","zip_code":"7280502"},{"name":"口和町湯木","zip_code":"7270111"},{"name":"高茂町","zip_code":"7296142"},{"name":"是松町","zip_code":"7270003"},{"name":"西城町入江","zip_code":"7295733"},{"name":"西城町大佐","zip_code":"7295722"},{"name":"西城町大屋","zip_code":"7295744"},{"name":"西城町熊野","zip_code":"7295603"},{"name":"西城町栗","zip_code":"7295732"},{"name":"西城町高尾","zip_code":"7295612"},{"name":"西城町西城","zip_code":"7295731"},{"name":"西城町中迫","zip_code":"7295743"},{"name":"西城町中野","zip_code":"7295742"},{"name":"西城町八鳥","zip_code":"7295613"},{"name":"西城町小鳥原","zip_code":"7295601"},{"name":"西城町平子","zip_code":"7295723"},{"name":"西城町福山","zip_code":"7295745"},{"name":"西城町三坂","zip_code":"7295611"},{"name":"西城町油木","zip_code":"7295602"},{"name":"実留町","zip_code":"7270015"},{"name":"春田町","zip_code":"7270621"},{"name":"新庄町","zip_code":"7270004"},{"name":"総領町稲草","zip_code":"7293721"},{"name":"総領町上領家","zip_code":"7293712"},{"name":"総領町亀谷","zip_code":"7293702"},{"name":"総領町木屋","zip_code":"7293722"},{"name":"総領町黒目","zip_code":"7293701"},{"name":"総領町五箇","zip_code":"7293711"},{"name":"総領町下領家","zip_code":"7293703"},{"name":"総領町中領家","zip_code":"7293713"},{"name":"高門町","zip_code":"7270002"},{"name":"高野町上里原","zip_code":"7270425"},{"name":"高野町岡大内","zip_code":"7270403"},{"name":"高野町奥門田","zip_code":"7270422"},{"name":"高野町上湯川","zip_code":"7270411"},{"name":"高野町高暮","zip_code":"7270424"},{"name":"高野町下湯川","zip_code":"7270412"},{"name":"高野町下門田","zip_code":"7270423"},{"name":"高野町新市","zip_code":"7270402"},{"name":"高野町中門田","zip_code":"7270421"},{"name":"高野町南","zip_code":"7270413"},{"name":"高野町和南原","zip_code":"7270401"},{"name":"高町","zip_code":"7295811"},{"name":"田原町","zip_code":"7270024"},{"name":"東城町粟田","zip_code":"7295127"},{"name":"東城町受原","zip_code":"7295128"},{"name":"東城町内堀","zip_code":"7295502"},{"name":"東城町小串","zip_code":"7295504"},{"name":"東城町小奴可","zip_code":"7295501"},{"name":"東城町加谷","zip_code":"7295506"},{"name":"東城町川鳥","zip_code":"7295454"},{"name":"東城町川西","zip_code":"7295125"},{"name":"東城町川東","zip_code":"7295121"},{"name":"東城町久代","zip_code":"7295122"},{"name":"東城町塩原","zip_code":"7295505"},{"name":"東城町新福代","zip_code":"7295112"},{"name":"東城町新免","zip_code":"7295131"},{"name":"東城町菅","zip_code":"7295452"},{"name":"東城町帝釈宇山","zip_code":"7295241"},{"name":"東城町帝釈始終","zip_code":"7295243"},{"name":"東城町帝釈未渡","zip_code":"7295244"},{"name":"東城町帝釈山中","zip_code":"7295242"},{"name":"東城町田黒","zip_code":"7295451"},{"name":"東城町竹森","zip_code":"7295126"},{"name":"東城町千鳥","zip_code":"7295503"},{"name":"東城町戸宇","zip_code":"7295123"},{"name":"東城町東城","zip_code":"7295124"},{"name":"東城町福代","zip_code":"7295111"},{"name":"東城町三坂","zip_code":"7295132"},{"name":"東城町森","zip_code":"7295456"},{"name":"東城町保田","zip_code":"7295455"},{"name":"戸郷町","zip_code":"7270017"},{"name":"殿垣内町","zip_code":"7296133"},{"name":"永末町","zip_code":"7270008"},{"name":"中本町","zip_code":"7270012"},{"name":"七塚町","zip_code":"7270023"},{"name":"濁川町","zip_code":"7270202"},{"name":"西本町","zip_code":"7270013"},{"name":"東本町","zip_code":"7270011"},{"name":"一木町","zip_code":"7270016"},{"name":"比和町古頃","zip_code":"7270302"},{"name":"比和町木屋原","zip_code":"7270312"},{"name":"比和町比和","zip_code":"7270301"},{"name":"比和町三河内","zip_code":"7270311"},{"name":"比和町森脇","zip_code":"7270321"},{"name":"平和町","zip_code":"7296144"},{"name":"本郷町","zip_code":"7296132"},{"name":"本町","zip_code":"7270006"},{"name":"本村町","zip_code":"7270623"},{"name":"水越町","zip_code":"7296141"},{"name":"三日市町","zip_code":"7270021"},{"name":"峰田町","zip_code":"7270622"},{"name":"宮内町","zip_code":"7270007"},{"name":"門田町","zip_code":"7270201"},{"name":"山内町","zip_code":"7296131"}]},{"name":"大竹市","divisions":[{"name":"阿多田","zip_code":"7390607"},{"name":"安条","zip_code":"7390634"},{"name":"後飯谷","zip_code":"7390637"},{"name":"小方","zip_code":"7390623"},{"name":"小方ケ丘","zip_code":"7390628"},{"name":"小方町小方","zip_code":"7390627"},{"name":"小方町黒川","zip_code":"7390654"},{"name":"穂仁原","zip_code":"7390632"},{"name":"北栄","zip_code":"7390604"},{"name":"玖波","zip_code":"7390651"},{"name":"玖波町","zip_code":"7390656"},{"name":"栗谷町後原","zip_code":"7390644"},{"name":"栗谷町大栗林","zip_code":"7390646"},{"name":"栗谷町奥谷尻","zip_code":"7390642"},{"name":"栗谷町小栗林","zip_code":"7390645"},{"name":"栗谷町谷和","zip_code":"7390643"},{"name":"栗谷町広原","zip_code":"7390641"},{"name":"黒川","zip_code":"7390653"},{"name":"木野","zip_code":"7390616"},{"name":"白石","zip_code":"7390614"},{"name":"新町","zip_code":"7390611"},{"name":"立戸","zip_code":"7390605"},{"name":"西栄","zip_code":"7390603"},{"name":"八丁","zip_code":"7390635"},{"name":"晴海","zip_code":"7390622"},{"name":"東栄","zip_code":"7390601"},{"name":"比作","zip_code":"7390633"},{"name":"防鹿","zip_code":"7390631"},{"name":"本町","zip_code":"7390613"},{"name":"前飯谷","zip_code":"7390636"},{"name":"松ケ原町","zip_code":"7390657"},{"name":"御園","zip_code":"7390624"},{"name":"御園台","zip_code":"7390625"},{"name":"三ツ石町","zip_code":"7390626"},{"name":"港町","zip_code":"7390621"},{"name":"南栄","zip_code":"7390602"},{"name":"御幸町","zip_code":"7390606"},{"name":"明治新開","zip_code":"7390652"},{"name":"元町","zip_code":"7390615"},{"name":"油見","zip_code":"7390612"},{"name":"湯舟町","zip_code":"7390655"}]},{"name":"東広島市","divisions":[{"name":"安芸津町大田","zip_code":"7392404"},{"name":"安芸津町風早","zip_code":"7392403"},{"name":"安芸津町木谷","zip_code":"7392401"},{"name":"安芸津町小松原","zip_code":"7392405"},{"name":"安芸津町三津","zip_code":"7392402"},{"name":"鏡山","zip_code":"7390046"},{"name":"鏡山北","zip_code":"7390045"},{"name":"黒瀬学園台","zip_code":"7392631"},{"name":"黒瀬春日野","zip_code":"7392615"},{"name":"黒瀬切田が丘","zip_code":"7392619"},{"name":"黒瀬桜が丘","zip_code":"7392618"},{"name":"黒瀬楢原北","zip_code":"7392627"},{"name":"黒瀬楢原西","zip_code":"7392629"},{"name":"黒瀬楢原東","zip_code":"7392628"},{"name":"黒瀬松ケ丘","zip_code":"7392614"},{"name":"黒瀬町市飯田","zip_code":"7392626"},{"name":"黒瀬町大多田","zip_code":"7392611"},{"name":"黒瀬町小多田","zip_code":"7392501"},{"name":"黒瀬町兼沢","zip_code":"7392731"},{"name":"黒瀬町兼広","zip_code":"7392616"},{"name":"黒瀬町上保田","zip_code":"7392625"},{"name":"黒瀬町川角","zip_code":"7392623"},{"name":"黒瀬町切田","zip_code":"7392617"},{"name":"黒瀬町国近","zip_code":"7392502"},{"name":"黒瀬町菅田","zip_code":"7392624"},{"name":"黒瀬町津江","zip_code":"7392732"},{"name":"黒瀬町楢原","zip_code":"7392613"},{"name":"黒瀬町乃美尾","zip_code":"7392622"},{"name":"黒瀬町丸山","zip_code":"7392612"},{"name":"黒瀬町南方","zip_code":"7392503"},{"name":"黒瀬町宗近柳国","zip_code":"7392504"},{"name":"河内町宇山","zip_code":"7392206"},{"name":"河内町小田","zip_code":"7392207"},{"name":"河内町上河内","zip_code":"7392203"},{"name":"河内町河戸","zip_code":"7392204"},{"name":"河内町下河内","zip_code":"7392202"},{"name":"河内町戸野","zip_code":"7392205"},{"name":"河内町中河内","zip_code":"7392201"},{"name":"河内町入野","zip_code":"7392208"},{"name":"河内臨空団地","zip_code":"7392211"},{"name":"西条朝日町","zip_code":"7390012"},{"name":"西条大坪町","zip_code":"7390005"},{"name":"西条岡町","zip_code":"7390016"},{"name":"西条上市町","zip_code":"7390006"},{"name":"西条御条町","zip_code":"7390013"},{"name":"西条栄町","zip_code":"7390015"},{"name":"西条下見","zip_code":"7390047"},{"name":"西条昭和町","zip_code":"7390014"},{"name":"西条末広町","zip_code":"7390004"},{"name":"西条中央","zip_code":"7390025"},{"name":"西条土与丸","zip_code":"7390007"},{"name":"西条西本町","zip_code":"7390043"},{"name":"西条東北町","zip_code":"7390048"},{"name":"西条本町","zip_code":"7390011"},{"name":"西条吉行東","zip_code":"7390008"},{"name":"西条町馬木","zip_code":"7390033"},{"name":"西条町大沢","zip_code":"7390034"},{"name":"西条町上三永","zip_code":"7390022"},{"name":"西条町郷曽","zip_code":"7390035"},{"name":"西条町西条","zip_code":"7390001"},{"name":"西条町西条東","zip_code":"7390042"},{"name":"西条町寺家","zip_code":"7390041"},{"name":"西条町下見","zip_code":"7390044"},{"name":"西条町下三永","zip_code":"7390023"},{"name":"西条町助実","zip_code":"7390021"},{"name":"西条町田口","zip_code":"7390036"},{"name":"西条町土与丸","zip_code":"7390003"},{"name":"西条町福本","zip_code":"7390031"},{"name":"西条町御薗宇","zip_code":"7390024"},{"name":"西条町森近","zip_code":"7390032"},{"name":"西条町吉行","zip_code":"7390002"},{"name":"志和流通","zip_code":"7390263"},{"name":"志和町内","zip_code":"7390261"},{"name":"志和町奥屋","zip_code":"7390266"},{"name":"志和町冠","zip_code":"7390265"},{"name":"志和町七条椛坂","zip_code":"7390264"},{"name":"志和町志和西","zip_code":"7390268"},{"name":"志和町志和東","zip_code":"7390262"},{"name":"志和町志和堀","zip_code":"7390269"},{"name":"志和町別府","zip_code":"7390267"},{"name":"高屋うめの辺","zip_code":"7392116"},{"name":"高屋高美が丘","zip_code":"7392115"},{"name":"高屋台","zip_code":"7392117"},{"name":"高屋町稲木","zip_code":"7392106"},{"name":"高屋町大畠","zip_code":"7392104"},{"name":"高屋町杵原","zip_code":"7392102"},{"name":"高屋町郷","zip_code":"7392124"},{"name":"高屋町小谷","zip_code":"7392121"},{"name":"高屋町貞重","zip_code":"7392112"},{"name":"高屋町重兼","zip_code":"7392122"},{"name":"高屋町白市","zip_code":"7392114"},{"name":"高屋町造賀","zip_code":"7392101"},{"name":"高屋町高屋東","zip_code":"7392113"},{"name":"高屋町高屋堀","zip_code":"7392111"},{"name":"高屋町中島","zip_code":"7392125"},{"name":"高屋町檜山","zip_code":"7392105"},{"name":"高屋町溝口","zip_code":"7392123"},{"name":"高屋町宮領","zip_code":"7392103"},{"name":"田口研究団地","zip_code":"7390038"},{"name":"豊栄町安宿","zip_code":"7392316"},{"name":"豊栄町飯田","zip_code":"7392314"},{"name":"豊栄町鍛冶屋","zip_code":"7392317"},{"name":"豊栄町清武","zip_code":"7392313"},{"name":"豊栄町能良","zip_code":"7392318"},{"name":"豊栄町乃美","zip_code":"7392311"},{"name":"豊栄町別府","zip_code":"7392312"},{"name":"豊栄町吉原","zip_code":"7392315"},{"name":"西大沢","zip_code":"7390037"},{"name":"入野中山台","zip_code":"7392209"},{"name":"八本松飯田","zip_code":"7390146"},{"name":"八本松西","zip_code":"7390147"},{"name":"八本松東","zip_code":"7390142"},{"name":"八本松南","zip_code":"7390144"},{"name":"八本松町飯田","zip_code":"7390141"},{"name":"八本松町篠","zip_code":"7390131"},{"name":"八本松町正力","zip_code":"7390132"},{"name":"八本松町原","zip_code":"7390151"},{"name":"八本松町宗吉","zip_code":"7390145"},{"name":"八本松町吉川","zip_code":"7390152"},{"name":"八本松町米満","zip_code":"7390133"},{"name":"福富町上竹仁","zip_code":"7392301"},{"name":"福富町上戸野","zip_code":"7392304"},{"name":"福富町久芳","zip_code":"7392303"},{"name":"福富町下竹仁","zip_code":"7392302"},{"name":"三永","zip_code":"7390026"},{"name":"吉川工業団地","zip_code":"7390153"}]},{"name":"廿日市市","divisions":[{"name":"浅原","zip_code":"7380223"},{"name":"阿品","zip_code":"7380054"},{"name":"阿品台","zip_code":"7380053"},{"name":"阿品台北","zip_code":"7380051"},{"name":"阿品台西","zip_code":"7380055"},{"name":"阿品台東","zip_code":"7380052"},{"name":"阿品台山の手","zip_code":"7380056"},{"name":"飯山","zip_code":"7380226"},{"name":"梅原","zip_code":"7390442"},{"name":"駅前","zip_code":"7380011"},{"name":"大野嵐谷","zip_code":"7390664"},{"name":"大野筏津","zip_code":"7390478"},{"name":"大野池田","zip_code":"7390479"},{"name":"大野猪ノウツ","zip_code":"7390667"},{"name":"大野小田ノ口","zip_code":"7390463"},{"name":"大野垣ノ浦","zip_code":"7390456"},{"name":"大野賀撫津","zip_code":"7390423"},{"name":"大野上更地","zip_code":"7390407"},{"name":"大野鴉ケ岡","zip_code":"7380281"},{"name":"大野経小屋","zip_code":"7390661"},{"name":"大野郷","zip_code":"7390461"},{"name":"大野小山","zip_code":"7390446"},{"name":"大野四十八坂","zip_code":"7390459"},{"name":"大野下更地","zip_code":"7390403"},{"name":"大野下灘","zip_code":"7390457"},{"name":"大野十郎原","zip_code":"7390404"},{"name":"大野陣場","zip_code":"7390462"},{"name":"大野早時","zip_code":"7390422"},{"name":"大野鯛ノ原","zip_code":"7390408"},{"name":"大野高畑","zip_code":"7390475"},{"name":"大野高見","zip_code":"7390476"},{"name":"大野滝ノ下","zip_code":"7390466"},{"name":"大野棚田","zip_code":"7390472"},{"name":"大野田屋","zip_code":"7390473"},{"name":"大野中央","zip_code":"7390437"},{"name":"大野土井","zip_code":"7390474"},{"name":"大野戸石川","zip_code":"7390405"},{"name":"大野中津岡","zip_code":"7390467"},{"name":"大野中山","zip_code":"7390406"},{"name":"大野鳴川","zip_code":"7390458"},{"name":"大野奴メリ谷","zip_code":"7390663"},{"name":"大野別府","zip_code":"7390471"},{"name":"大野水口","zip_code":"7390477"},{"name":"大野水ノ越","zip_code":"7390464"},{"name":"大野横撫","zip_code":"7390665"},{"name":"大野渡ノ瀬","zip_code":"7380282"},{"name":"大野","zip_code":"7390434"},{"name":"大野原","zip_code":"7390441"},{"name":"大東","zip_code":"7380006"},{"name":"沖塩屋","zip_code":"7390443"},{"name":"可愛","zip_code":"7380016"},{"name":"上の浜","zip_code":"7390432"},{"name":"上平良","zip_code":"7380026"},{"name":"河津原","zip_code":"7380204"},{"name":"串戸","zip_code":"7380033"},{"name":"玖島","zip_code":"7380205"},{"name":"栗栖","zip_code":"7380224"},{"name":"佐方","zip_code":"7380001"},{"name":"佐方本町","zip_code":"7380003"},{"name":"桜尾","zip_code":"7380004"},{"name":"桜尾本町","zip_code":"7380005"},{"name":"山陽園","zip_code":"7380002"},{"name":"塩屋","zip_code":"7390445"},{"name":"四季が丘","zip_code":"7380036"},{"name":"四季が丘上","zip_code":"7380038"},{"name":"地御前","zip_code":"7380042"},{"name":"地御前北","zip_code":"7380043"},{"name":"下の浜","zip_code":"7390433"},{"name":"下平良","zip_code":"7380023"},{"name":"城内","zip_code":"7380007"},{"name":"新宮","zip_code":"7380024"},{"name":"須賀","zip_code":"7380017"},{"name":"住吉","zip_code":"7380014"},{"name":"対厳山","zip_code":"7390402"},{"name":"津田","zip_code":"7380222"},{"name":"天神","zip_code":"7380012"},{"name":"峠","zip_code":"7380202"},{"name":"友田","zip_code":"7380203"},{"name":"永原","zip_code":"7380201"},{"name":"中道","zip_code":"7380225"},{"name":"廿日市","zip_code":"7380013"},{"name":"八坂","zip_code":"7390455"},{"name":"林が原","zip_code":"7390444"},{"name":"原","zip_code":"7380031"},{"name":"深江","zip_code":"7390421"},{"name":"福面","zip_code":"7390401"},{"name":"平良","zip_code":"7380025"},{"name":"平良山手","zip_code":"7380027"},{"name":"本町","zip_code":"7380015"},{"name":"前空","zip_code":"7390424"},{"name":"丸石","zip_code":"7390452"},{"name":"峰高","zip_code":"7380032"},{"name":"宮内","zip_code":"7380034"},{"name":"宮内工業団地","zip_code":"7380039"},{"name":"宮島口","zip_code":"7390411"},{"name":"宮島口上","zip_code":"7390413"},{"name":"宮島口西","zip_code":"7390412"},{"name":"宮島口東","zip_code":"7390414"},{"name":"宮島町","zip_code":"7390541"},{"name":"宮園","zip_code":"7380035"},{"name":"宮園上","zip_code":"7380037"},{"name":"宮浜温泉","zip_code":"7390454"},{"name":"虫所山","zip_code":"7380221"},{"name":"木材港北","zip_code":"7380021"},{"name":"木材港南","zip_code":"7380022"},{"name":"物見西","zip_code":"7390425"},{"name":"物見東","zip_code":"7390426"},{"name":"陽光台","zip_code":"7380060"},{"name":"吉和","zip_code":"7380301"},{"name":"六本松","zip_code":"7380041"}]},{"name":"安芸高田市","divisions":[{"name":"甲田町浅塚","zip_code":"7391106"},{"name":"甲田町上小原","zip_code":"7391102"},{"name":"甲田町上甲立","zip_code":"7391104"},{"name":"甲田町下小原","zip_code":"7391103"},{"name":"甲田町下甲立","zip_code":"7391105"},{"name":"甲田町糘地","zip_code":"7391107"},{"name":"甲田町高田原","zip_code":"7391101"},{"name":"甲田町深瀬","zip_code":"7391108"},{"name":"高宮町川根","zip_code":"7391801"},{"name":"高宮町来女木","zip_code":"7391806"},{"name":"高宮町佐々部","zip_code":"7391802"},{"name":"高宮町羽佐竹","zip_code":"7391807"},{"name":"高宮町原田","zip_code":"7391805"},{"name":"高宮町船木","zip_code":"7391803"},{"name":"高宮町房後","zip_code":"7391804"},{"name":"美土里町生田","zip_code":"7310703"},{"name":"美土里町北","zip_code":"7310701"},{"name":"美土里町桑田","zip_code":"7310702"},{"name":"美土里町本郷","zip_code":"7310612"},{"name":"美土里町横田","zip_code":"7310611"},{"name":"向原町有留","zip_code":"7391204"},{"name":"向原町坂","zip_code":"7391201"},{"name":"向原町戸島","zip_code":"7391202"},{"name":"向原町長田","zip_code":"7391203"},{"name":"向原町保垣","zip_code":"7391205"},{"name":"八千代町勝田","zip_code":"7310302"},{"name":"八千代町上根","zip_code":"7310305"},{"name":"八千代町佐々井","zip_code":"7310303"},{"name":"八千代町下根","zip_code":"7310304"},{"name":"八千代町土師","zip_code":"7310301"},{"name":"八千代町向山","zip_code":"7310306"},{"name":"吉田町相合","zip_code":"7310542"},{"name":"吉田町小山","zip_code":"7310512"},{"name":"吉田町桂","zip_code":"7310534"},{"name":"吉田町上入江","zip_code":"7310532"},{"name":"吉田町川本","zip_code":"7310524"},{"name":"吉田町国司","zip_code":"7310502"},{"name":"吉田町高野","zip_code":"7310535"},{"name":"吉田町下入江","zip_code":"7310531"},{"name":"吉田町常楽寺","zip_code":"7310522"},{"name":"吉田町竹原","zip_code":"7310511"},{"name":"吉田町多治比","zip_code":"7310544"},{"name":"吉田町中馬","zip_code":"7310525"},{"name":"吉田町常友","zip_code":"7310521"},{"name":"吉田町長屋","zip_code":"7310533"},{"name":"吉田町西浦","zip_code":"7310543"},{"name":"吉田町福原","zip_code":"7310513"},{"name":"吉田町山手","zip_code":"7310523"},{"name":"吉田町山部","zip_code":"7310541"},{"name":"吉田町吉田","zip_code":"7310501"}]},{"name":"江田島市","divisions":[{"name":"江田島町秋月","zip_code":"7372131"},{"name":"江田島町大須","zip_code":"7372113"},{"name":"江田島町大原特借宿舎","zip_code":"7372125"},{"name":"江田島町切串","zip_code":"7372111"},{"name":"江田島町江南","zip_code":"7372132"},{"name":"江田島町幸之浦","zip_code":"7372112"},{"name":"江田島町国有無番地","zip_code":"7372123"},{"name":"江田島町小用","zip_code":"7372121"},{"name":"江田島町中央","zip_code":"7372122"},{"name":"江田島町津久茂","zip_code":"7372126"},{"name":"江田島町宮ノ原","zip_code":"7372124"},{"name":"江田島町鷲部","zip_code":"7372133"},{"name":"大柿町大君","zip_code":"7372212"},{"name":"大柿町大原","zip_code":"7372213"},{"name":"大柿町小古江","zip_code":"7372215"},{"name":"大柿町柿浦","zip_code":"7372211"},{"name":"大柿町飛渡瀬","zip_code":"7372101"},{"name":"大柿町深江","zip_code":"7372214"},{"name":"沖美町岡大王","zip_code":"7372311"},{"name":"沖美町高祖","zip_code":"7372315"},{"name":"沖美町是長","zip_code":"7372313"},{"name":"沖美町畑","zip_code":"7372312"},{"name":"沖美町美能","zip_code":"7372314"},{"name":"沖美町三吉","zip_code":"7372316"},{"name":"能美町鹿川","zip_code":"7372302"},{"name":"能美町高田","zip_code":"7372303"},{"name":"能美町中町","zip_code":"7372301"}]},{"name":"安芸郡府中町","divisions":[{"name":"青崎中","zip_code":"7350016"},{"name":"青崎東","zip_code":"7350015"},{"name":"青崎南","zip_code":"7350017"},{"name":"石井城","zip_code":"7350007"},{"name":"大須","zip_code":"7350021"},{"name":"大通","zip_code":"7350022"},{"name":"鹿籠","zip_code":"7350025"},{"name":"桜ケ丘","zip_code":"7350001"},{"name":"清水ケ丘","zip_code":"7350002"},{"name":"城ケ丘","zip_code":"7350009"},{"name":"新地","zip_code":"7350028"},{"name":"瀬戸ハイム","zip_code":"7350011"},{"name":"千代","zip_code":"7350027"},{"name":"鶴江","zip_code":"7350008"},{"name":"浜田","zip_code":"7350013"},{"name":"浜田本町","zip_code":"7350023"},{"name":"本町","zip_code":"7350006"},{"name":"みくまり","zip_code":"7350003"},{"name":"緑ケ丘","zip_code":"7350024"},{"name":"宮の町","zip_code":"7350005"},{"name":"茂陰","zip_code":"7350029"},{"name":"桃山","zip_code":"7350026"},{"name":"柳ケ丘","zip_code":"7350014"},{"name":"八幡","zip_code":"7350012"},{"name":"山田","zip_code":"7350004"}]},{"name":"安芸郡海田町","divisions":[{"name":"曙町","zip_code":"7360031"},{"name":"石原","zip_code":"7360004"},{"name":"稲葉","zip_code":"7360012"},{"name":"稲荷町","zip_code":"7360067"},{"name":"畝","zip_code":"7360005"},{"name":"大立町","zip_code":"7360025"},{"name":"蟹原","zip_code":"7360022"},{"name":"上市","zip_code":"7360061"},{"name":"国信","zip_code":"7360002"},{"name":"窪町","zip_code":"7360046"},{"name":"寿町","zip_code":"7360053"},{"name":"幸町","zip_code":"7360026"},{"name":"栄町","zip_code":"7360043"},{"name":"昭和中町","zip_code":"7360064"},{"name":"昭和町","zip_code":"7360062"},{"name":"新町","zip_code":"7360068"},{"name":"砂走","zip_code":"7360001"},{"name":"曽田","zip_code":"7360003"},{"name":"大正町","zip_code":"7360041"},{"name":"月見町","zip_code":"7360034"},{"name":"つくも町","zip_code":"7360051"},{"name":"寺迫","zip_code":"7360011"},{"name":"中店","zip_code":"7360066"},{"name":"成本","zip_code":"7360021"},{"name":"西浜","zip_code":"7360024"},{"name":"西明神町","zip_code":"7360054"},{"name":"浜角","zip_code":"7360023"},{"name":"東","zip_code":"7360013"},{"name":"東海田","zip_code":"7360071"},{"name":"東昭和町","zip_code":"7360063"},{"name":"日の出町","zip_code":"7360035"},{"name":"堀川町","zip_code":"7360045"},{"name":"三迫","zip_code":"7360014"},{"name":"南幸町","zip_code":"7360032"},{"name":"南昭和町","zip_code":"7360065"},{"name":"南大正町","zip_code":"7360042"},{"name":"南つくも町","zip_code":"7360052"},{"name":"南堀川町","zip_code":"7360044"},{"name":"南本町","zip_code":"7360033"},{"name":"南明神町","zip_code":"7360055"},{"name":"明神町","zip_code":"7360056"}]},{"name":"安芸郡熊野町","divisions":[{"name":"石神","zip_code":"7314225"},{"name":"柿迫","zip_code":"7314228"},{"name":"川角","zip_code":"7314223"},{"name":"神田","zip_code":"7314224"},{"name":"貴船","zip_code":"7314227"},{"name":"呉地","zip_code":"7314222"},{"name":"城之堀","zip_code":"7314215"},{"name":"新宮","zip_code":"7314211"},{"name":"出来庭","zip_code":"7314221"},{"name":"中溝","zip_code":"7314214"},{"name":"萩原","zip_code":"7314213"},{"name":"初神","zip_code":"7314212"},{"name":"東山","zip_code":"7314226"},{"name":"平谷","zip_code":"7314229"}]},{"name":"安芸郡坂町","divisions":[{"name":"植田","zip_code":"7314321"},{"name":"北新地","zip_code":"7314311"},{"name":"小屋浦","zip_code":"7314331"},{"name":"坂東","zip_code":"7314313"},{"name":"坂西","zip_code":"7314314"},{"name":"鯛尾","zip_code":"7314325"},{"name":"平成ケ浜","zip_code":"7314312"},{"name":"横浜中央","zip_code":"7314323"},{"name":"横浜西","zip_code":"7314324"},{"name":"横浜東","zip_code":"7314322"}]},{"name":"山県郡安芸太田町","divisions":[{"name":"遊谷","zip_code":"7313812"},{"name":"穴","zip_code":"7313411"},{"name":"板ケ谷","zip_code":"7313833"},{"name":"猪山","zip_code":"7313551"},{"name":"打梨","zip_code":"7313844"},{"name":"加計","zip_code":"7313501"},{"name":"梶ノ木","zip_code":"7313832"},{"name":"上筒賀","zip_code":"7313701"},{"name":"上殿","zip_code":"7313664"},{"name":"川手","zip_code":"7313831"},{"name":"観音","zip_code":"7313503"},{"name":"小板","zip_code":"7313835"},{"name":"下筒賀","zip_code":"7313621"},{"name":"下殿河内","zip_code":"7313622"},{"name":"寺領","zip_code":"7313824"},{"name":"柴木","zip_code":"7313813"},{"name":"田吹","zip_code":"7313842"},{"name":"津浪","zip_code":"7313502"},{"name":"坪野","zip_code":"7313412"},{"name":"土居","zip_code":"7313821"},{"name":"戸河内","zip_code":"7313810"},{"name":"中筒賀","zip_code":"7313702"},{"name":"那須","zip_code":"7313845"},{"name":"平見谷","zip_code":"7313552"},{"name":"松原","zip_code":"7313834"},{"name":"横川","zip_code":"7313801"},{"name":"吉和郷","zip_code":"7313843"}]},{"name":"山県郡北広島町","divisions":[{"name":"阿坂","zip_code":"7311222"},{"name":"有田","zip_code":"7311533"},{"name":"有間","zip_code":"7311503"},{"name":"筏津","zip_code":"7312106"},{"name":"石井谷","zip_code":"7311525"},{"name":"板村","zip_code":"7312321"},{"name":"今田","zip_code":"7311535"},{"name":"今吉田","zip_code":"7311221"},{"name":"岩戸","zip_code":"7312102"},{"name":"後有田","zip_code":"7311534"},{"name":"雲耕","zip_code":"7312442"},{"name":"移原","zip_code":"7312206"},{"name":"大朝","zip_code":"7312104"},{"name":"大暮","zip_code":"7312204"},{"name":"大塚","zip_code":"7312107"},{"name":"大利原","zip_code":"7312315"},{"name":"大元","zip_code":"7312437"},{"name":"奥中原","zip_code":"7312324"},{"name":"奥原","zip_code":"7312312"},{"name":"海応寺","zip_code":"7311703"},{"name":"上石","zip_code":"7311702"},{"name":"苅屋形","zip_code":"7312317"},{"name":"川井","zip_code":"7311513"},{"name":"川小田","zip_code":"7312323"},{"name":"川戸","zip_code":"7311501"},{"name":"川西","zip_code":"7311516"},{"name":"川東","zip_code":"7311512"},{"name":"木次","zip_code":"7311524"},{"name":"草安","zip_code":"7312313"},{"name":"蔵迫","zip_code":"7311502"},{"name":"荒神原","zip_code":"7312431"},{"name":"小原","zip_code":"7312203"},{"name":"古保利","zip_code":"7311532"},{"name":"才乙","zip_code":"7312314"},{"name":"志路原","zip_code":"7311701"},{"name":"下石","zip_code":"7311704"},{"name":"新氏神","zip_code":"7311514"},{"name":"新郷","zip_code":"7311522"},{"name":"新庄","zip_code":"7312103"},{"name":"惣森","zip_code":"7311511"},{"name":"空城","zip_code":"7312435"},{"name":"高野","zip_code":"7312201"},{"name":"田原","zip_code":"7312105"},{"name":"都志見","zip_code":"7311712"},{"name":"土橋","zip_code":"7312311"},{"name":"寺原","zip_code":"7311504"},{"name":"戸谷","zip_code":"7311711"},{"name":"長笹","zip_code":"7311713"},{"name":"中祖","zip_code":"7312432"},{"name":"中原","zip_code":"7311706"},{"name":"中山","zip_code":"7311506"},{"name":"南門原","zip_code":"7312316"},{"name":"西宗","zip_code":"7311705"},{"name":"西八幡原","zip_code":"7312552"},{"name":"橋山","zip_code":"7312434"},{"name":"春木","zip_code":"7311531"},{"name":"東八幡原","zip_code":"7312551"},{"name":"細見","zip_code":"7313561"},{"name":"本地","zip_code":"7311526"},{"name":"政所","zip_code":"7312436"},{"name":"溝口","zip_code":"7312202"},{"name":"南方","zip_code":"7311523"},{"name":"壬生","zip_code":"7311515"},{"name":"宮迫","zip_code":"7312101"},{"name":"宮地","zip_code":"7312441"},{"name":"舞綱","zip_code":"7311505"},{"name":"丁保余原","zip_code":"7311521"},{"name":"吉木","zip_code":"7311714"},{"name":"吉見坂","zip_code":"7312433"},{"name":"米沢","zip_code":"7312205"}]},{"name":"豊田郡大崎上島町","divisions":[{"name":"明石","zip_code":"7250403"},{"name":"大串","zip_code":"7250303"},{"name":"沖浦","zip_code":"7250402"},{"name":"木江","zip_code":"7250401"},{"name":"中野","zip_code":"7250301"},{"name":"原田","zip_code":"7250302"},{"name":"東野","zip_code":"7250231"}]},{"name":"世羅郡世羅町","divisions":[{"name":"青近","zip_code":"7293306"},{"name":"青水","zip_code":"7221627"},{"name":"青山","zip_code":"7221116"},{"name":"赤屋","zip_code":"7293304"},{"name":"伊尾","zip_code":"7293307"},{"name":"井折","zip_code":"7221113"},{"name":"宇津戸","zip_code":"7220411"},{"name":"小国","zip_code":"7221701"},{"name":"小世良","zip_code":"7221122"},{"name":"小谷","zip_code":"7293301"},{"name":"上津田","zip_code":"7296714"},{"name":"賀茂","zip_code":"7221626"},{"name":"川尻","zip_code":"7293302"},{"name":"京丸","zip_code":"7221204"},{"name":"黒川","zip_code":"7296711"},{"name":"黒渕","zip_code":"7221732"},{"name":"甲山","zip_code":"7221123"},{"name":"三郎丸","zip_code":"7221117"},{"name":"重永","zip_code":"7221625"},{"name":"下津田","zip_code":"7296715"},{"name":"津口","zip_code":"7221731"},{"name":"寺町","zip_code":"7221111"},{"name":"田打","zip_code":"7221624"},{"name":"徳市","zip_code":"7221203"},{"name":"戸張","zip_code":"7221201"},{"name":"中","zip_code":"7296713"},{"name":"長田","zip_code":"7296716"},{"name":"中原","zip_code":"7221623"},{"name":"西上原","zip_code":"7221121"},{"name":"西神崎","zip_code":"7221115"},{"name":"東上原","zip_code":"7293303"},{"name":"東神崎","zip_code":"7221114"},{"name":"別迫","zip_code":"7293305"},{"name":"堀越","zip_code":"7221622"},{"name":"本郷","zip_code":"7221112"},{"name":"安田","zip_code":"7221202"},{"name":"山中福田","zip_code":"7221702"},{"name":"吉原","zip_code":"7296712"}]},{"name":"神石郡神石高原町","divisions":[{"name":"相渡","zip_code":"7293601"},{"name":"阿下","zip_code":"7201521"},{"name":"有木","zip_code":"7201701"},{"name":"井関","zip_code":"7201602"},{"name":"上野","zip_code":"7201624"},{"name":"大矢","zip_code":"7201601"},{"name":"小野","zip_code":"7201901"},{"name":"上","zip_code":"7201525"},{"name":"上豊松","zip_code":"7201702"},{"name":"亀石","zip_code":"7201523"},{"name":"木津和","zip_code":"7201416"},{"name":"草木","zip_code":"7293512"},{"name":"桑木","zip_code":"7201414"},{"name":"小畠","zip_code":"7201522"},{"name":"坂瀬川","zip_code":"7201604"},{"name":"笹尾","zip_code":"7201703"},{"name":"階見","zip_code":"7201415"},{"name":"下豊松","zip_code":"7201704"},{"name":"新免","zip_code":"7201902"},{"name":"李","zip_code":"7201621"},{"name":"高蓋","zip_code":"7201410"},{"name":"高光","zip_code":"7293511"},{"name":"田頭","zip_code":"7293514"},{"name":"近田","zip_code":"7201622"},{"name":"父木野","zip_code":"7201413"},{"name":"常光","zip_code":"7201524"},{"name":"時安","zip_code":"7201603"},{"name":"中平","zip_code":"7201705"},{"name":"永野","zip_code":"7293602"},{"name":"花済","zip_code":"7201623"},{"name":"福永","zip_code":"7293515"},{"name":"古川","zip_code":"7293516"},{"name":"牧","zip_code":"7293513"},{"name":"光末","zip_code":"7201412"},{"name":"光信","zip_code":"7201411"},{"name":"安田","zip_code":"7201811"},{"name":"油木","zip_code":"7201812"}]}]}