{"name":"山口県","cities":[{"name":"下関市","divisions":[{"name":"赤池町","zip_code":"7520902"},{"name":"垢田","zip_code":"7510846"},{"name":"垢田町","zip_code":"7510841"},{"name":"赤間町","zip_code":"7500007"},{"name":"秋根","zip_code":"7510871"},{"name":"秋根上町","zip_code":"7510878"},{"name":"秋根新町","zip_code":"7510874"},{"name":"秋根東町","zip_code":"7510877"},{"name":"秋根西町","zip_code":"7510873"},{"name":"秋根南町","zip_code":"7510872"},{"name":"秋根北町","zip_code":"7510876"},{"name":"秋根本町","zip_code":"7510875"},{"name":"阿弥陀寺町","zip_code":"7500003"},{"name":"綾羅木","zip_code":"7510866"},{"name":"綾羅木新町","zip_code":"7510865"},{"name":"綾羅木本町","zip_code":"7510849"},{"name":"綾羅木南町","zip_code":"7510848"},{"name":"有冨","zip_code":"7510868"},{"name":"あるかぽーと","zip_code":"7500036"},{"name":"生野町","zip_code":"7510832"},{"name":"伊倉","zip_code":"7510862"},{"name":"伊倉新町","zip_code":"7510869"},{"name":"伊倉東町","zip_code":"7510861"},{"name":"伊倉本町","zip_code":"7510863"},{"name":"伊倉町","zip_code":"7510864"},{"name":"伊崎町","zip_code":"7500065"},{"name":"石神町","zip_code":"7510825"},{"name":"石原","zip_code":"7510886"},{"name":"井田","zip_code":"7510881"},{"name":"一の宮卸本町","zip_code":"7510817"},{"name":"一の宮学園町","zip_code":"7510807"},{"name":"一の宮住吉","zip_code":"7510805"},{"name":"一の宮東町","zip_code":"7510809"},{"name":"一の宮本町","zip_code":"7510808"},{"name":"一の宮町","zip_code":"7510806"},{"name":"今浦町","zip_code":"7500064"},{"name":"入江町","zip_code":"7500013"},{"name":"上条町","zip_code":"7500027"},{"name":"植田","zip_code":"7500251"},{"name":"後田町","zip_code":"7510826"},{"name":"内日上","zip_code":"7500252"},{"name":"内日下","zip_code":"7500253"},{"name":"宇津井","zip_code":"7501111"},{"name":"宇部","zip_code":"7520923"},{"name":"王喜宇津井","zip_code":"7501115"},{"name":"王喜本町","zip_code":"7501114"},{"name":"王司上町","zip_code":"7520916"},{"name":"王司川端","zip_code":"7520912"},{"name":"王司神田","zip_code":"7520911"},{"name":"王司本町","zip_code":"7520915"},{"name":"王司南町","zip_code":"7520924"},{"name":"阿内","zip_code":"7501171"},{"name":"大坪本町","zip_code":"7500051"},{"name":"小月市原町","zip_code":"7501147"},{"name":"小月駅前","zip_code":"7501143"},{"name":"小月京泊","zip_code":"7501134"},{"name":"小月公園町","zip_code":"7501146"},{"name":"小月小島","zip_code":"7501136"},{"name":"小月幸町","zip_code":"7501141"},{"name":"小月杉迫","zip_code":"7501145"},{"name":"小月高雄町","zip_code":"7501133"},{"name":"小月茶屋","zip_code":"7501144"},{"name":"小月町","zip_code":"7501131"},{"name":"小月西の台","zip_code":"7501135"},{"name":"小月本町","zip_code":"7501142"},{"name":"小月南町","zip_code":"7501137"},{"name":"小月宮の町","zip_code":"7501132"},{"name":"小野","zip_code":"7510887"},{"name":"卸新町","zip_code":"7510818"},{"name":"梶栗町","zip_code":"7596614"},{"name":"春日町","zip_code":"7500031"},{"name":"員光","zip_code":"7520904"},{"name":"員光町","zip_code":"7520903"},{"name":"形山","zip_code":"7510884"},{"name":"形山町","zip_code":"7510888"},{"name":"形山みどり町","zip_code":"7510885"},{"name":"上新地町","zip_code":"7500061"},{"name":"上田中町","zip_code":"7500009"},{"name":"亀浜町","zip_code":"7520925"},{"name":"蒲生野","zip_code":"7596602"},{"name":"唐戸町","zip_code":"7500005"},{"name":"川中本町","zip_code":"7510859"},{"name":"川中豊町","zip_code":"7510853"},{"name":"関西町","zip_code":"7500032"},{"name":"関西本町","zip_code":"7500022"},{"name":"神田","zip_code":"7520907"},{"name":"神田町","zip_code":"7500044"},{"name":"観音崎町","zip_code":"7500012"},{"name":"菊川町上大野","zip_code":"7500311"},{"name":"菊川町上岡枝","zip_code":"7500321"},{"name":"菊川町上田部","zip_code":"7500314"},{"name":"菊川町上保木","zip_code":"7500307"},{"name":"菊川町貴飯","zip_code":"7500325"},{"name":"菊川町轡井","zip_code":"7500305"},{"name":"菊川町久野","zip_code":"7500324"},{"name":"菊川町下大野","zip_code":"7500312"},{"name":"菊川町下岡枝","zip_code":"7500317"},{"name":"菊川町下保木","zip_code":"7500306"},{"name":"菊川町田部","zip_code":"7500313"},{"name":"菊川町七見","zip_code":"7500315"},{"name":"菊川町楢崎","zip_code":"7500322"},{"name":"菊川町西中山","zip_code":"7500301"},{"name":"菊川町日新","zip_code":"7500323"},{"name":"菊川町東中山","zip_code":"7500302"},{"name":"菊川町道市","zip_code":"7500304"},{"name":"菊川町樅ノ木","zip_code":"7500303"},{"name":"菊川町吉賀","zip_code":"7500316"},{"name":"貴船町","zip_code":"7510823"},{"name":"清末","zip_code":"7501151"},{"name":"清末東町","zip_code":"7501156"},{"name":"清末鞍馬","zip_code":"7501153"},{"name":"清末五毛","zip_code":"7501162"},{"name":"清末陣屋","zip_code":"7501152"},{"name":"清末千房","zip_code":"7501163"},{"name":"清末大門","zip_code":"7501164"},{"name":"清末中町","zip_code":"7501155"},{"name":"清末西町","zip_code":"7501161"},{"name":"清末本町","zip_code":"7501154"},{"name":"楠乃","zip_code":"7510804"},{"name":"熊野町","zip_code":"7510852"},{"name":"熊野西町","zip_code":"7510851"},{"name":"向洋町","zip_code":"7500041"},{"name":"木屋川本町","zip_code":"7501112"},{"name":"木屋川南町","zip_code":"7501113"},{"name":"金比羅町","zip_code":"7500058"},{"name":"才川","zip_code":"7520921"},{"name":"幸町","zip_code":"7500001"},{"name":"栄町","zip_code":"7500049"},{"name":"桜山町","zip_code":"7500035"},{"name":"笹山町","zip_code":"7500024"},{"name":"汐入町","zip_code":"7500059"},{"name":"勝谷","zip_code":"7510801"},{"name":"勝谷新町","zip_code":"7510802"},{"name":"白崎","zip_code":"7501116"},{"name":"新垢田東町","zip_code":"7510843"},{"name":"新垢田西町","zip_code":"7510844"},{"name":"新垢田南町","zip_code":"7510842"},{"name":"新垢田北町","zip_code":"7510845"},{"name":"新地町","zip_code":"7500063"},{"name":"新地西町","zip_code":"7500062"},{"name":"新椋野","zip_code":"7510820"},{"name":"筋川町","zip_code":"7500057"},{"name":"筋ケ浜町","zip_code":"7500056"},{"name":"大平町","zip_code":"7500053"},{"name":"高畑","zip_code":"7520991"},{"name":"宝町","zip_code":"7510822"},{"name":"田倉","zip_code":"7510883"},{"name":"田倉御殿町","zip_code":"7510882"},{"name":"竹崎町","zip_code":"7500025"},{"name":"武久町","zip_code":"7510833"},{"name":"武久西原台","zip_code":"7510819"},{"name":"田中町","zip_code":"7500008"},{"name":"大学町","zip_code":"7510831"},{"name":"壇之浦町","zip_code":"7510814"},{"name":"千鳥ケ丘町","zip_code":"7520922"},{"name":"千鳥浜町","zip_code":"7520914"},{"name":"中央町","zip_code":"7500042"},{"name":"長府安養寺","zip_code":"7520962"},{"name":"長府印内町","zip_code":"7520957"},{"name":"長府江下町","zip_code":"7520952"},{"name":"長府逢坂町","zip_code":"7520971"},{"name":"長府扇町","zip_code":"7520927"},{"name":"長府金屋町","zip_code":"7520959"},{"name":"長府金屋浜町","zip_code":"7520958"},{"name":"長府亀の甲","zip_code":"7520966"},{"name":"長府川端","zip_code":"7520979"},{"name":"長府黒門町","zip_code":"7520980"},{"name":"長府黒門東町","zip_code":"7520986"},{"name":"長府黒門南町","zip_code":"7520989"},{"name":"長府古城町","zip_code":"7520954"},{"name":"長府紺屋町","zip_code":"7520968"},{"name":"長府才川","zip_code":"7520928"},{"name":"長府侍町","zip_code":"7520978"},{"name":"長府四王司町","zip_code":"7520942"},{"name":"長府新四王司町","zip_code":"7520941"},{"name":"長府新松原町","zip_code":"7520982"},{"name":"長府惣社町","zip_code":"7520970"},{"name":"長府外浦町","zip_code":"7520985"},{"name":"長府高場町","zip_code":"7520994"},{"name":"長府珠の浦町","zip_code":"7520961"},{"name":"長府豊浦町","zip_code":"7520945"},{"name":"長府土居の内町","zip_code":"7520974"},{"name":"長府中尾町","zip_code":"7520946"},{"name":"長府中土居北町","zip_code":"7520963"},{"name":"長府中土居本町","zip_code":"7520964"},{"name":"長府中之町","zip_code":"7520973"},{"name":"長府中浜町","zip_code":"7520975"},{"name":"長府中六波町","zip_code":"7520944"},{"name":"長府野久留米町","zip_code":"7520992"},{"name":"長府羽衣町","zip_code":"7520987"},{"name":"長府羽衣南町","zip_code":"7520988"},{"name":"長府浜浦町","zip_code":"7520993"},{"name":"長府浜浦西町","zip_code":"7520998"},{"name":"長府浜浦南町","zip_code":"7520995"},{"name":"長府東侍町","zip_code":"7520977"},{"name":"長府日の出町","zip_code":"7520951"},{"name":"長府古江小路町","zip_code":"7520972"},{"name":"長府豊城町","zip_code":"7520943"},{"name":"長府前八幡町","zip_code":"7520956"},{"name":"長府松小田中町","zip_code":"7520935"},{"name":"長府松小田東町","zip_code":"7520934"},{"name":"長府松小田西町","zip_code":"7520937"},{"name":"長府松小田南町","zip_code":"7520936"},{"name":"長府松小田北町","zip_code":"7520932"},{"name":"長府松小田本町","zip_code":"7520933"},{"name":"長府松原町","zip_code":"7520983"},{"name":"長府満珠新町","zip_code":"7520948"},{"name":"長府満珠町","zip_code":"7520947"},{"name":"長府三島町","zip_code":"7520965"},{"name":"長府港町","zip_code":"7520953"},{"name":"長府南之町","zip_code":"7520976"},{"name":"長府宮崎町","zip_code":"7520984"},{"name":"長府宮の内町","zip_code":"7520967"},{"name":"長府向田町","zip_code":"7520996"},{"name":"長府八幡町","zip_code":"7520955"},{"name":"富任町","zip_code":"7596613"},{"name":"豊浦町厚母郷","zip_code":"7596314"},{"name":"豊浦町宇賀","zip_code":"7596303"},{"name":"豊浦町川棚","zip_code":"7596301"},{"name":"豊浦町黒井","zip_code":"7596312"},{"name":"豊浦町小串","zip_code":"7596302"},{"name":"豊浦町豊洋台","zip_code":"7596313"},{"name":"豊浦町豊洋台新町","zip_code":"7596313"},{"name":"豊浦町室津上","zip_code":"7596315"},{"name":"豊浦町室津下","zip_code":"7596316"},{"name":"豊浦町吉永","zip_code":"7596311"},{"name":"豊浦町涌田後地","zip_code":"7596317"},{"name":"豊浦村","zip_code":"7520981"},{"name":"豊田町阿座上","zip_code":"7500451"},{"name":"豊田町荒木","zip_code":"7500404"},{"name":"豊田町一ノ俣","zip_code":"7500403"},{"name":"豊田町稲見","zip_code":"7500412"},{"name":"豊田町稲光","zip_code":"7500442"},{"name":"豊田町今出","zip_code":"7500431"},{"name":"豊田町浮石","zip_code":"7500415"},{"name":"豊田町宇内","zip_code":"7500411"},{"name":"豊田町江良","zip_code":"7500452"},{"name":"豊田町大河内","zip_code":"7500433"},{"name":"豊田町城戸","zip_code":"7500455"},{"name":"豊田町金道","zip_code":"7500413"},{"name":"豊田町佐野","zip_code":"7500402"},{"name":"豊田町地吉","zip_code":"7500432"},{"name":"豊田町鷹子","zip_code":"7500416"},{"name":"豊田町高山","zip_code":"7500446"},{"name":"豊田町手洗","zip_code":"7500453"},{"name":"豊田町殿居","zip_code":"7500401"},{"name":"豊田町殿敷","zip_code":"7500421"},{"name":"豊田町中村","zip_code":"7500441"},{"name":"豊田町楢原","zip_code":"7500422"},{"name":"豊田町西市","zip_code":"7500423"},{"name":"豊田町西長野","zip_code":"7500454"},{"name":"豊田町庭田","zip_code":"7500425"},{"name":"豊田町萩原","zip_code":"7500444"},{"name":"豊田町東長野","zip_code":"7500445"},{"name":"豊田町日野","zip_code":"7500443"},{"name":"豊田町杢路子","zip_code":"7500405"},{"name":"豊田町八道","zip_code":"7500414"},{"name":"豊田町矢田","zip_code":"7500424"},{"name":"中之町","zip_code":"7500004"},{"name":"長崎新町","zip_code":"7500023"},{"name":"長崎中央町","zip_code":"7500021"},{"name":"長崎本町","zip_code":"7500028"},{"name":"長崎町","zip_code":"7500029"},{"name":"永田郷","zip_code":"7596534"},{"name":"永田本町","zip_code":"7596533"},{"name":"長門町","zip_code":"7500026"},{"name":"南部町","zip_code":"7500006"},{"name":"西入江町","zip_code":"7500015"},{"name":"西大坪町","zip_code":"7500054"},{"name":"西神田町","zip_code":"7500034"},{"name":"西観音町","zip_code":"7520905"},{"name":"乃木浜","zip_code":"7520913"},{"name":"延行","zip_code":"7510867"},{"name":"幡生本町","zip_code":"7510827"},{"name":"幡生宮の下町","zip_code":"7510829"},{"name":"幡生町","zip_code":"7510828"},{"name":"岬之町","zip_code":"7500014"},{"name":"羽山町","zip_code":"7500046"},{"name":"稗田中町","zip_code":"7510856"},{"name":"稗田西町","zip_code":"7510855"},{"name":"稗田南町","zip_code":"7510854"},{"name":"稗田北町","zip_code":"7510857"},{"name":"稗田町","zip_code":"7510858"},{"name":"東神田町","zip_code":"7500043"},{"name":"東観音町","zip_code":"7520906"},{"name":"東勝谷","zip_code":"7510879"},{"name":"東向山町","zip_code":"7500048"},{"name":"東大和町","zip_code":"7500066"},{"name":"彦島海士郷町","zip_code":"7500071"},{"name":"彦島江の浦町","zip_code":"7500075"},{"name":"彦島老の山公園","zip_code":"7500073"},{"name":"彦島老町","zip_code":"7500072"},{"name":"彦島桜ケ丘町","zip_code":"7500083"},{"name":"彦島迫町","zip_code":"7500092"},{"name":"彦島塩浜町","zip_code":"7500086"},{"name":"彦島杉田町","zip_code":"7500078"},{"name":"彦島角倉町","zip_code":"7500081"},{"name":"彦島竹ノ子島町","zip_code":"7500094"},{"name":"彦島田の首町","zip_code":"7500085"},{"name":"彦島弟子待町","zip_code":"7500076"},{"name":"彦島弟子待東町","zip_code":"7500077"},{"name":"彦島西山町","zip_code":"7500093"},{"name":"彦島福浦町","zip_code":"7500087"},{"name":"彦島本村町","zip_code":"7500074"},{"name":"彦島緑町","zip_code":"7500091"},{"name":"彦島向井町","zip_code":"7500084"},{"name":"彦島山中町","zip_code":"7500082"},{"name":"福江","zip_code":"7596601"},{"name":"藤ケ谷町","zip_code":"7510811"},{"name":"藤附町","zip_code":"7500052"},{"name":"豊前田町","zip_code":"7500018"},{"name":"蓋井島","zip_code":"7596542"},{"name":"古屋町","zip_code":"7510847"},{"name":"豊北町阿川","zip_code":"7595241"},{"name":"豊北町粟野","zip_code":"7595101"},{"name":"豊北町神田","zip_code":"7595331"},{"name":"豊北町神田上","zip_code":"7595513"},{"name":"豊北町北宇賀","zip_code":"7595513"},{"name":"豊北町滝部","zip_code":"7595511"},{"name":"豊北町田耕","zip_code":"7595512"},{"name":"豊北町角島","zip_code":"7595332"},{"name":"豊北町矢玉","zip_code":"7596122"},{"name":"細江新町","zip_code":"7500017"},{"name":"細江町","zip_code":"7500016"},{"name":"本町","zip_code":"7510815"},{"name":"前勝谷町","zip_code":"7510803"},{"name":"前田","zip_code":"7520997"},{"name":"松小田","zip_code":"7520931"},{"name":"松屋","zip_code":"7501121"},{"name":"松屋上町","zip_code":"7501122"},{"name":"松屋東町","zip_code":"7501123"},{"name":"松屋本町","zip_code":"7501124"},{"name":"丸山町","zip_code":"7500019"},{"name":"三河町","zip_code":"7510821"},{"name":"南大坪町","zip_code":"7500055"},{"name":"みもすそ川町","zip_code":"7510813"},{"name":"宮田町","zip_code":"7500002"},{"name":"向山町","zip_code":"7500047"},{"name":"椋野上町","zip_code":"7510812"},{"name":"椋野町","zip_code":"7510816"},{"name":"六連島","zip_code":"7500095"},{"name":"名池町","zip_code":"7500011"},{"name":"元町","zip_code":"7500045"},{"name":"安岡駅前","zip_code":"7596612"},{"name":"安岡町","zip_code":"7596603"},{"name":"安岡本町","zip_code":"7596611"},{"name":"山田","zip_code":"7520901"},{"name":"山手町","zip_code":"7500033"},{"name":"大和町","zip_code":"7500067"},{"name":"山の口町","zip_code":"7510824"},{"name":"山の田中央町","zip_code":"7510837"},{"name":"山の田東町","zip_code":"7510834"},{"name":"山の田西町","zip_code":"7510836"},{"name":"山の田南町","zip_code":"7510835"},{"name":"山の田北町","zip_code":"7510839"},{"name":"山の田本町","zip_code":"7510838"},{"name":"ゆめタウン","zip_code":"7520926"},{"name":"横野町","zip_code":"7596604"},{"name":"吉田","zip_code":"7501101"},{"name":"吉田地方","zip_code":"7501102"},{"name":"吉見上","zip_code":"7596524"},{"name":"吉見下","zip_code":"7596523"},{"name":"吉見古宿町","zip_code":"7596521"},{"name":"吉見里町","zip_code":"7596525"},{"name":"吉見新町","zip_code":"7596532"},{"name":"吉見本町","zip_code":"7596531"},{"name":"吉見竜王町","zip_code":"7596522"},{"name":"吉母","zip_code":"7596541"}]},{"name":"宇部市","divisions":[{"name":"相生町","zip_code":"7550043"},{"name":"上条","zip_code":"7550801"},{"name":"朝日町","zip_code":"7550041"},{"name":"芦河内","zip_code":"7570211"},{"name":"あすとぴあ","zip_code":"7550152"},{"name":"荒瀬","zip_code":"7590131"},{"name":"櫟原","zip_code":"7541314"},{"name":"居能町","zip_code":"7550055"},{"name":"今富","zip_code":"7570212"},{"name":"今村北","zip_code":"7550155"},{"name":"今村南","zip_code":"7550154"},{"name":"岩鼻町","zip_code":"7550810"},{"name":"上町","zip_code":"7550051"},{"name":"棯小野","zip_code":"7541312"},{"name":"鵜の島町","zip_code":"7550062"},{"name":"瓜生野","zip_code":"7590135"},{"name":"大小路","zip_code":"7550076"},{"name":"沖宇部","zip_code":"7550001"},{"name":"沖ノ旦","zip_code":"7590202"},{"name":"奥万倉","zip_code":"7570213"},{"name":"小野","zip_code":"7541311"},{"name":"恩田町","zip_code":"7550023"},{"name":"海南町","zip_code":"7550038"},{"name":"上宇部","zip_code":"7550091"},{"name":"上野中町","zip_code":"7550092"},{"name":"神原町","zip_code":"7550022"},{"name":"亀浦","zip_code":"7550002"},{"name":"川上","zip_code":"7550084"},{"name":"川添","zip_code":"7550074"},{"name":"北小羽山町","zip_code":"7550081"},{"name":"北琴芝","zip_code":"7550036"},{"name":"北迫新町","zip_code":"7550093"},{"name":"北条","zip_code":"7550802"},{"name":"木田","zip_code":"7590136"},{"name":"際波","zip_code":"7590207"},{"name":"草江","zip_code":"7550004"},{"name":"車地","zip_code":"7590133"},{"name":"厚南北","zip_code":"7590209"},{"name":"小串","zip_code":"7550067"},{"name":"五十目山町","zip_code":"7550005"},{"name":"琴崎町","zip_code":"7550075"},{"name":"琴芝町","zip_code":"7550033"},{"name":"寿町","zip_code":"7550032"},{"name":"小松原町","zip_code":"7550066"},{"name":"幸町","zip_code":"7550012"},{"name":"笹山町","zip_code":"7550015"},{"name":"芝中町","zip_code":"7550017"},{"name":"島","zip_code":"7550047"},{"name":"下条","zip_code":"7550048"},{"name":"昭和町","zip_code":"7550011"},{"name":"新天町","zip_code":"7550029"},{"name":"新町","zip_code":"7550044"},{"name":"末信","zip_code":"7590123"},{"name":"末広町","zip_code":"7550014"},{"name":"助田町","zip_code":"7550054"},{"name":"棚井","zip_code":"7590121"},{"name":"中央町","zip_code":"7550045"},{"name":"常藤町","zip_code":"7550021"},{"name":"妻崎開作","zip_code":"7590204"},{"name":"寺の前町","zip_code":"7550078"},{"name":"常盤台","zip_code":"7550097"},{"name":"常盤町","zip_code":"7550031"},{"name":"床波","zip_code":"7550153"},{"name":"中宇部","zip_code":"7550086"},{"name":"中尾","zip_code":"7550073"},{"name":"中野開作","zip_code":"7590203"},{"name":"中村","zip_code":"7550072"},{"name":"中山","zip_code":"7550058"},{"name":"鍋倉町","zip_code":"7550064"},{"name":"西宇部北","zip_code":"7590211"},{"name":"西宇部南","zip_code":"7590208"},{"name":"西沖の山","zip_code":"7590205"},{"name":"西梶返","zip_code":"7550037"},{"name":"錦町","zip_code":"7550018"},{"name":"西吉部","zip_code":"7570402"},{"name":"西岐波","zip_code":"7550151"},{"name":"西小串","zip_code":"7550049"},{"name":"西琴芝","zip_code":"7550035"},{"name":"西中町","zip_code":"7550053"},{"name":"西平原","zip_code":"7550808"},{"name":"西本町","zip_code":"7550052"},{"name":"西万倉","zip_code":"7570214"},{"name":"如意寺","zip_code":"7541315"},{"name":"沼","zip_code":"7550085"},{"name":"野中","zip_code":"7550025"},{"name":"野原","zip_code":"7550024"},{"name":"則貞","zip_code":"7550003"},{"name":"八王子町","zip_code":"7550007"},{"name":"浜田","zip_code":"7550806"},{"name":"浜町","zip_code":"7550065"},{"name":"東小羽山町","zip_code":"7550082"},{"name":"東梶返","zip_code":"7550039"},{"name":"東吉部","zip_code":"7570401"},{"name":"東岐波","zip_code":"7550241"},{"name":"東小串","zip_code":"7550068"},{"name":"東琴芝","zip_code":"7550034"},{"name":"東芝中町","zip_code":"7550016"},{"name":"東新川町","zip_code":"7550019"},{"name":"東須恵","zip_code":"7590206"},{"name":"東平原","zip_code":"7550807"},{"name":"東藤曲","zip_code":"7550803"},{"name":"東本町","zip_code":"7550028"},{"name":"東万倉","zip_code":"7570215"},{"name":"東見初町","zip_code":"7550009"},{"name":"開","zip_code":"7550096"},{"name":"ひらき台","zip_code":"7550094"},{"name":"広瀬","zip_code":"7590124"},{"name":"藤河内","zip_code":"7541313"},{"name":"藤曲","zip_code":"7550057"},{"name":"船木","zip_code":"7570216"},{"name":"風呂ケ迫町","zip_code":"7550095"},{"name":"文京台","zip_code":"7550805"},{"name":"文京町","zip_code":"7550056"},{"name":"松崎町","zip_code":"7550809"},{"name":"松島町","zip_code":"7550042"},{"name":"松山町","zip_code":"7550026"},{"name":"岬町","zip_code":"7550006"},{"name":"港町","zip_code":"7550027"},{"name":"南小羽山町","zip_code":"7550083"},{"name":"南小串","zip_code":"7550046"},{"name":"南中山町","zip_code":"7550804"},{"name":"南浜町","zip_code":"7550063"},{"name":"宮地町","zip_code":"7550071"},{"name":"明神町","zip_code":"7550008"},{"name":"明治町","zip_code":"7550013"},{"name":"矢矯","zip_code":"7570217"},{"name":"山門","zip_code":"7550077"},{"name":"山中","zip_code":"7590132"},{"name":"山の手町","zip_code":"7590201"},{"name":"吉見","zip_code":"7590122"},{"name":"善和","zip_code":"7590134"},{"name":"若松町","zip_code":"7550061"}]},{"name":"山口市","divisions":[{"name":"秋穂西","zip_code":"7541102"},{"name":"秋穂東","zip_code":"7541101"},{"name":"秋穂二島","zip_code":"7540893"},{"name":"葵","zip_code":"7530821"},{"name":"青葉台","zip_code":"7530012"},{"name":"赤妻町","zip_code":"7530067"},{"name":"朝倉町","zip_code":"7530061"},{"name":"朝田","zip_code":"7530871"},{"name":"朝田流通センター","zip_code":"7530872"},{"name":"旭通り","zip_code":"7530051"},{"name":"阿知須","zip_code":"7541277"},{"name":"阿東生雲中","zip_code":"7591342"},{"name":"阿東生雲西分","zip_code":"7591341"},{"name":"阿東生雲東分","zip_code":"7591231"},{"name":"阿東嘉年上","zip_code":"7591601"},{"name":"阿東嘉年下","zip_code":"7591602"},{"name":"阿東篠目","zip_code":"7591232"},{"name":"阿東地福上","zip_code":"7591421"},{"name":"阿東地福下","zip_code":"7591422"},{"name":"阿東蔵目喜","zip_code":"7591343"},{"name":"阿東徳佐上","zip_code":"7591511"},{"name":"阿東徳佐下","zip_code":"7591513"},{"name":"阿東徳佐中","zip_code":"7591512"},{"name":"石観音町","zip_code":"7530038"},{"name":"維新公園","zip_code":"7530815"},{"name":"泉町","zip_code":"7530066"},{"name":"糸米","zip_code":"7530079"},{"name":"今井町","zip_code":"7530055"},{"name":"後河原","zip_code":"7530083"},{"name":"駅通り","zip_code":"7530048"},{"name":"江崎","zip_code":"7540896"},{"name":"江良","zip_code":"7530017"},{"name":"円政寺","zip_code":"7530036"},{"name":"円政寺町","zip_code":"7530036"},{"name":"大市町","zip_code":"7530033"},{"name":"大内長野","zip_code":"7530211"},{"name":"大内御堀","zip_code":"7530214"},{"name":"大内矢田","zip_code":"7530215"},{"name":"大手町","zip_code":"7530072"},{"name":"大殿大路","zip_code":"7530093"},{"name":"荻町","zip_code":"7530062"},{"name":"小郡維新町","zip_code":"7540029"},{"name":"小郡円座西町","zip_code":"7540008"},{"name":"小郡円座東町","zip_code":"7540007"},{"name":"小郡大江町","zip_code":"7540015"},{"name":"小郡尾崎町","zip_code":"7540006"},{"name":"小郡金堀町","zip_code":"7540004"},{"name":"小郡上郷","zip_code":"7540001"},{"name":"小郡上郷流通センター","zip_code":"7530872"},{"name":"小郡給領町","zip_code":"7540028"},{"name":"小郡黄金町","zip_code":"7540021"},{"name":"小郡栄町","zip_code":"7540026"},{"name":"小郡三軒屋町","zip_code":"7540027"},{"name":"小郡下郷","zip_code":"7540002"},{"name":"小郡新町","zip_code":"7540031"},{"name":"小郡高砂町","zip_code":"7540014"},{"name":"小郡花園町","zip_code":"7540022"},{"name":"小郡光が丘","zip_code":"7540033"},{"name":"小郡平砂町","zip_code":"7540025"},{"name":"小郡船倉町","zip_code":"7540012"},{"name":"小郡平成町","zip_code":"7540020"},{"name":"小郡前田町","zip_code":"7540023"},{"name":"小郡真名","zip_code":"7540003"},{"name":"小郡緑町","zip_code":"7540013"},{"name":"小郡御幸町","zip_code":"7540011"},{"name":"小郡みらい町","zip_code":"7540032"},{"name":"小郡山手上町","zip_code":"7540005"},{"name":"小郡若草町","zip_code":"7540024"},{"name":"折本","zip_code":"7530022"},{"name":"嘉川","zip_code":"7540897"},{"name":"春日町","zip_code":"7530073"},{"name":"金古曽町","zip_code":"7530024"},{"name":"上宇野令","zip_code":"7530091"},{"name":"上小鯖","zip_code":"7530213"},{"name":"上竪小路","zip_code":"7530035"},{"name":"上天花町","zip_code":"7530891"},{"name":"亀山町","zip_code":"7530089"},{"name":"神田町","zip_code":"7530064"},{"name":"木町","zip_code":"7530095"},{"name":"楠木町","zip_code":"7530065"},{"name":"久保小路","zip_code":"7530084"},{"name":"熊野町","zip_code":"7530077"},{"name":"黒川","zip_code":"7530851"},{"name":"香山町","zip_code":"7530081"},{"name":"黄金町","zip_code":"7530045"},{"name":"米屋町","zip_code":"7530087"},{"name":"幸町","zip_code":"7530826"},{"name":"桜畠","zip_code":"7530021"},{"name":"佐山","zip_code":"7540894"},{"name":"三の宮","zip_code":"7530023"},{"name":"三和町","zip_code":"7530052"},{"name":"芝崎町","zip_code":"7530025"},{"name":"下市町","zip_code":"7530058"},{"name":"下小鯖","zip_code":"7530212"},{"name":"下竪小路","zip_code":"7530034"},{"name":"諸願小路","zip_code":"7530084"},{"name":"白石","zip_code":"7530070"},{"name":"新馬場","zip_code":"7530085"},{"name":"陶","zip_code":"7540891"},{"name":"鋳銭司","zip_code":"7471221"},{"name":"周布町","zip_code":"7530822"},{"name":"銭湯小路","zip_code":"7530084"},{"name":"泉都町","zip_code":"7530076"},{"name":"惣太夫町","zip_code":"7530042"},{"name":"宝町","zip_code":"7530812"},{"name":"滝町","zip_code":"7530071"},{"name":"中央","zip_code":"7530074"},{"name":"天花","zip_code":"7530091"},{"name":"道場門前","zip_code":"7530047"},{"name":"道祖町","zip_code":"7530037"},{"name":"堂の前町","zip_code":"7530032"},{"name":"徳地伊賀地","zip_code":"7470232"},{"name":"徳地小古祖","zip_code":"7470234"},{"name":"徳地上村","zip_code":"7470523"},{"name":"徳地岸見","zip_code":"7470233"},{"name":"徳地串","zip_code":"7470612"},{"name":"徳地鯖河内","zip_code":"7470611"},{"name":"徳地島地","zip_code":"7470522"},{"name":"徳地野谷","zip_code":"7470401"},{"name":"徳地引谷","zip_code":"7470341"},{"name":"徳地深谷","zip_code":"7470235"},{"name":"徳地藤木","zip_code":"7470524"},{"name":"徳地船路","zip_code":"7470342"},{"name":"徳地堀","zip_code":"7470231"},{"name":"徳地三谷","zip_code":"7470343"},{"name":"徳地八坂","zip_code":"7470344"},{"name":"徳地山畑","zip_code":"7470521"},{"name":"徳地柚木","zip_code":"7470402"},{"name":"富田原町","zip_code":"7530054"},{"name":"中市町","zip_code":"7530086"},{"name":"中尾","zip_code":"7530801"},{"name":"中河原","zip_code":"7530088"},{"name":"中河原町","zip_code":"7530088"},{"name":"中園町","zip_code":"7530075"},{"name":"名田島","zip_code":"7540892"},{"name":"七尾台","zip_code":"7530018"},{"name":"錦町","zip_code":"7530068"},{"name":"仁保上郷","zip_code":"7530301"},{"name":"仁保下郷","zip_code":"7530303"},{"name":"仁保中郷","zip_code":"7530302"},{"name":"野田","zip_code":"7530094"},{"name":"東山","zip_code":"7530041"},{"name":"平井","zip_code":"7530831"},{"name":"平野","zip_code":"7530015"},{"name":"深溝","zip_code":"7540895"},{"name":"古熊","zip_code":"7530031"},{"name":"穂積町","zip_code":"7530824"},{"name":"本町","zip_code":"7530046"},{"name":"前町","zip_code":"7530057"},{"name":"松美町","zip_code":"7530053"},{"name":"水の上町","zip_code":"7530082"},{"name":"緑ヶ丘","zip_code":"7530016"},{"name":"緑町","zip_code":"7530078"},{"name":"宮島町","zip_code":"7530043"},{"name":"宮野上","zip_code":"7530001"},{"name":"宮野下","zip_code":"7530011"},{"name":"元町","zip_code":"7530063"},{"name":"矢原","zip_code":"7530861"},{"name":"矢原町","zip_code":"7530825"},{"name":"山口県流通センター","zip_code":"7530872"},{"name":"八幡馬場","zip_code":"7530092"},{"name":"湯田温泉","zip_code":"7530056"},{"name":"吉敷","zip_code":"7530811"},{"name":"吉敷赤田","zip_code":"7530817"},{"name":"吉敷上東","zip_code":"7530818"},{"name":"吉敷佐畑","zip_code":"7530816"},{"name":"吉敷下東","zip_code":"7530814"},{"name":"吉敷中東","zip_code":"7530813"},{"name":"吉田","zip_code":"7530841"},{"name":"若宮町","zip_code":"7530823"},{"name":"鰐石町","zip_code":"7530044"}]},{"name":"萩市","divisions":[{"name":"相島","zip_code":"7580001"},{"name":"明木","zip_code":"7540411"},{"name":"油屋町","zip_code":"7580051"},{"name":"今魚店町","zip_code":"7580052"},{"name":"今古萩町","zip_code":"7580021"},{"name":"江崎","zip_code":"7593113"},{"name":"恵美須町","zip_code":"7580033"},{"name":"江向","zip_code":"7580041"},{"name":"大井","zip_code":"7593611"},{"name":"大島","zip_code":"7580003"},{"name":"御許町","zip_code":"7580042"},{"name":"片俣","zip_code":"7580301"},{"name":"上小川西分","zip_code":"7593201"},{"name":"上小川東分","zip_code":"7593202"},{"name":"上五間町","zip_code":"7580043"},{"name":"上田万","zip_code":"7593111"},{"name":"唐樋町","zip_code":"7580044"},{"name":"川上","zip_code":"7580141"},{"name":"川島","zip_code":"7580031"},{"name":"瓦町","zip_code":"7580071"},{"name":"北片河町","zip_code":"7580053"},{"name":"北古萩町","zip_code":"7580032"},{"name":"吉部上","zip_code":"7580304"},{"name":"吉部下","zip_code":"7580305"},{"name":"熊谷町","zip_code":"7580034"},{"name":"黒川","zip_code":"7580213"},{"name":"河添","zip_code":"7580073"},{"name":"呉服町","zip_code":"7580072"},{"name":"米屋町","zip_code":"7580045"},{"name":"細工町","zip_code":"7580035"},{"name":"佐々並","zip_code":"7530101"},{"name":"三見","zip_code":"7593721"},{"name":"塩屋町","zip_code":"7580036"},{"name":"紫福","zip_code":"7580501"},{"name":"下小川","zip_code":"7593204"},{"name":"下五間町","zip_code":"7580043"},{"name":"下田万","zip_code":"7593112"},{"name":"須佐","zip_code":"7593411"},{"name":"鈴野川","zip_code":"7593303"},{"name":"高佐上","zip_code":"7580302"},{"name":"高佐下","zip_code":"7580303"},{"name":"樽屋町","zip_code":"7580054"},{"name":"椿東","zip_code":"7580011"},{"name":"椿","zip_code":"7580061"},{"name":"津守町","zip_code":"7580037"},{"name":"中小川","zip_code":"7593203"},{"name":"西田町","zip_code":"7580046"},{"name":"橋本町","zip_code":"7580062"},{"name":"浜崎新町","zip_code":"7580023"},{"name":"浜崎町","zip_code":"7580022"},{"name":"春若町","zip_code":"7580055"},{"name":"東田町","zip_code":"7580047"},{"name":"東浜崎町","zip_code":"7580024"},{"name":"肥島","zip_code":"7580004"},{"name":"土原","zip_code":"7580025"},{"name":"櫃島","zip_code":"7580002"},{"name":"平安古町","zip_code":"7580074"},{"name":"福井上","zip_code":"7580211"},{"name":"福井下","zip_code":"7580212"},{"name":"古魚店町","zip_code":"7580056"},{"name":"古萩町","zip_code":"7580026"},{"name":"堀内","zip_code":"7580057"},{"name":"見島","zip_code":"7580701"},{"name":"南片河町","zip_code":"7580076"},{"name":"南古萩町","zip_code":"7580077"},{"name":"弥富上","zip_code":"7593301"},{"name":"弥富下","zip_code":"7593302"},{"name":"山田","zip_code":"7580063"},{"name":"吉田町","zip_code":"7580027"}]},{"name":"防府市","divisions":[{"name":"伊佐江","zip_code":"7470846"},{"name":"伊佐江町","zip_code":"7470847"},{"name":"石が口","zip_code":"7470806"},{"name":"泉町","zip_code":"7470051"},{"name":"今市町","zip_code":"7470042"},{"name":"鋳物師町","zip_code":"7470812"},{"name":"岩畠","zip_code":"7470001"},{"name":"植松","zip_code":"7470836"},{"name":"駅南町","zip_code":"7470801"},{"name":"江泊","zip_code":"7470014"},{"name":"戎町","zip_code":"7470036"},{"name":"大崎","zip_code":"7470065"},{"name":"岡村町","zip_code":"7470803"},{"name":"沖今宿","zip_code":"7470013"},{"name":"奥畑","zip_code":"7470101"},{"name":"お茶屋町","zip_code":"7470819"},{"name":"開出","zip_code":"7470052"},{"name":"開出西町","zip_code":"7470054"},{"name":"開出本町","zip_code":"7470053"},{"name":"勝間","zip_code":"7470822"},{"name":"鐘紡町","zip_code":"7470823"},{"name":"華浦","zip_code":"7470816"},{"name":"上天神町","zip_code":"7470033"},{"name":"上右田","zip_code":"7470062"},{"name":"岸津","zip_code":"7470011"},{"name":"協和町","zip_code":"7470815"},{"name":"切畑","zip_code":"7471231"},{"name":"車塚町","zip_code":"7470811"},{"name":"桑山","zip_code":"7470808"},{"name":"警固町","zip_code":"7470821"},{"name":"国衙","zip_code":"7470024"},{"name":"国分寺町","zip_code":"7470021"},{"name":"古祖原","zip_code":"7470056"},{"name":"寿町","zip_code":"7470809"},{"name":"栄町","zip_code":"7470035"},{"name":"佐野","zip_code":"7470067"},{"name":"佐波","zip_code":"7470044"},{"name":"敷山町","zip_code":"7470006"},{"name":"清水町","zip_code":"7470842"},{"name":"下右田","zip_code":"7470063"},{"name":"新築地町","zip_code":"7470824"},{"name":"新田","zip_code":"7470825"},{"name":"新橋町","zip_code":"7470047"},{"name":"自由ケ丘","zip_code":"7470066"},{"name":"自力町","zip_code":"7470817"},{"name":"酢貝","zip_code":"7470002"},{"name":"鈴屋","zip_code":"7470105"},{"name":"迫戸町","zip_code":"7470031"},{"name":"千日","zip_code":"7470046"},{"name":"惣社町","zip_code":"7470022"},{"name":"桑南","zip_code":"7470807"},{"name":"台道","zip_code":"7471232"},{"name":"高井","zip_code":"7470064"},{"name":"高倉","zip_code":"7470045"},{"name":"田島","zip_code":"7470834"},{"name":"多々良","zip_code":"7470023"},{"name":"中央町","zip_code":"7470802"},{"name":"天神","zip_code":"7470034"},{"name":"富海","zip_code":"7471111"},{"name":"中泉町","zip_code":"7470055"},{"name":"中西","zip_code":"7470005"},{"name":"中山","zip_code":"7470107"},{"name":"奈美","zip_code":"7470106"},{"name":"仁井令","zip_code":"7470845"},{"name":"仁井令町","zip_code":"7470841"},{"name":"西仁井令","zip_code":"7470849"},{"name":"西浦","zip_code":"7470835"},{"name":"野島","zip_code":"7470832"},{"name":"八王子","zip_code":"7470037"},{"name":"華城中央","zip_code":"7470848"},{"name":"華園町","zip_code":"7470844"},{"name":"浜方","zip_code":"7470833"},{"name":"東佐波令","zip_code":"7470061"},{"name":"東仁井令町","zip_code":"7470843"},{"name":"東松崎町","zip_code":"7470028"},{"name":"東三田尻","zip_code":"7470813"},{"name":"久兼","zip_code":"7470102"},{"name":"平和町","zip_code":"7470043"},{"name":"松崎町","zip_code":"7470029"},{"name":"松原町","zip_code":"7470804"},{"name":"真尾","zip_code":"7470104"},{"name":"鞠生町","zip_code":"7470805"},{"name":"三田尻","zip_code":"7470814"},{"name":"三田尻本町","zip_code":"7470818"},{"name":"緑町","zip_code":"7470026"},{"name":"南松崎町","zip_code":"7470027"},{"name":"宮市町","zip_code":"7470032"},{"name":"美和町","zip_code":"7470025"},{"name":"向島","zip_code":"7470831"},{"name":"牟礼","zip_code":"7470004"},{"name":"牟礼今宿","zip_code":"7470012"},{"name":"牟礼柳","zip_code":"7470003"},{"name":"本橋町","zip_code":"7470041"},{"name":"和字","zip_code":"7470103"}]},{"name":"下松市","divisions":[{"name":"青柳","zip_code":"7440004"},{"name":"生野屋","zip_code":"7440031"},{"name":"生野屋西","zip_code":"7440032"},{"name":"生野屋南","zip_code":"7440033"},{"name":"駅南","zip_code":"7440007"},{"name":"大手町","zip_code":"7440015"},{"name":"大藤谷","zip_code":"7440272"},{"name":"笠戸島","zip_code":"7440001"},{"name":"清瀬町","zip_code":"7440071"},{"name":"切山","zip_code":"7440042"},{"name":"楠木町","zip_code":"7440029"},{"name":"下谷","zip_code":"7440271"},{"name":"来巻","zip_code":"7440051"},{"name":"河内","zip_code":"7440061"},{"name":"琴平町","zip_code":"7440003"},{"name":"栄町","zip_code":"7440013"},{"name":"桜町","zip_code":"7440019"},{"name":"潮音町","zip_code":"7440074"},{"name":"昭和町","zip_code":"7440062"},{"name":"新川","zip_code":"7440008"},{"name":"末武上","zip_code":"7440024"},{"name":"末武下","zip_code":"7440022"},{"name":"末武中","zip_code":"7440023"},{"name":"瀬戸","zip_code":"7440273"},{"name":"中央町","zip_code":"7440025"},{"name":"藤光町","zip_code":"7440028"},{"name":"東陽","zip_code":"7440043"},{"name":"東和","zip_code":"7440053"},{"name":"中市","zip_code":"7440014"},{"name":"中須南","zip_code":"7440275"},{"name":"西豊井","zip_code":"7440011"},{"name":"西柳","zip_code":"7440018"},{"name":"温見","zip_code":"7440274"},{"name":"望町","zip_code":"7440072"},{"name":"旗岡","zip_code":"7440006"},{"name":"東豊井","zip_code":"7440002"},{"name":"東柳","zip_code":"7440017"},{"name":"平田","zip_code":"7440021"},{"name":"古川町","zip_code":"7440005"},{"name":"北斗町","zip_code":"7440012"},{"name":"星が丘","zip_code":"7440065"},{"name":"美里町","zip_code":"7440073"},{"name":"瑞穂町","zip_code":"7440075"},{"name":"南花岡","zip_code":"7440027"},{"name":"桃山町","zip_code":"7440052"},{"name":"山田","zip_code":"7440041"},{"name":"米川","zip_code":"7440276"},{"name":"若宮町","zip_code":"7440063"}]},{"name":"岩国市","divisions":[{"name":"相ノ谷","zip_code":"7400304"},{"name":"旭町","zip_code":"7400024"},{"name":"阿品","zip_code":"7410094"},{"name":"愛宕町","zip_code":"7400037"},{"name":"飯田町","zip_code":"7400003"},{"name":"伊房","zip_code":"7400324"},{"name":"今津町","zip_code":"7400017"},{"name":"入野","zip_code":"7400321"},{"name":"岩国","zip_code":"7410062"},{"name":"上田","zip_code":"7400317"},{"name":"牛野谷町","zip_code":"7410071"},{"name":"青木町","zip_code":"7400042"},{"name":"大谷","zip_code":"7410084"},{"name":"大山","zip_code":"7400323"},{"name":"小瀬","zip_code":"7410091"},{"name":"尾津町","zip_code":"7400032"},{"name":"桂町","zip_code":"7400013"},{"name":"叶木","zip_code":"7410075"},{"name":"川口町","zip_code":"7400015"},{"name":"川下町","zip_code":"7400023"},{"name":"瓦谷","zip_code":"7400311"},{"name":"川西","zip_code":"7410082"},{"name":"杭名","zip_code":"7400303"},{"name":"玖珂町","zip_code":"7420332"},{"name":"楠町","zip_code":"7400028"},{"name":"車町","zip_code":"7400026"},{"name":"黒磯町","zip_code":"7400041"},{"name":"下","zip_code":"7400302"},{"name":"守内","zip_code":"7400312"},{"name":"周東町明見谷","zip_code":"7420411"},{"name":"周東町獺越","zip_code":"7420422"},{"name":"周東町上久原","zip_code":"7420413"},{"name":"周東町上須通","zip_code":"7420426"},{"name":"周東町川上","zip_code":"7420412"},{"name":"周東町差川","zip_code":"7420424"},{"name":"周東町三瀬川","zip_code":"7420421"},{"name":"周東町下久原","zip_code":"7420417"},{"name":"周東町下須通","zip_code":"7420423"},{"name":"周東町祖生","zip_code":"7420301"},{"name":"周東町田尻","zip_code":"7420414"},{"name":"周東町中山","zip_code":"7420415"},{"name":"周東町西長野","zip_code":"7420425"},{"name":"周東町樋余地","zip_code":"7420427"},{"name":"周東町用田","zip_code":"7420416"},{"name":"装束町","zip_code":"7400001"},{"name":"昭和町","zip_code":"7400004"},{"name":"新港町","zip_code":"7400002"},{"name":"砂山町","zip_code":"7400019"},{"name":"角","zip_code":"7400327"},{"name":"関戸","zip_code":"7410063"},{"name":"竹安","zip_code":"7400325"},{"name":"多田","zip_code":"7410092"},{"name":"立石町","zip_code":"7400011"},{"name":"田原","zip_code":"7410093"},{"name":"近延","zip_code":"7400315"},{"name":"通津","zip_code":"7400044"},{"name":"寺山","zip_code":"7400314"},{"name":"天尾","zip_code":"7400306"},{"name":"中津町","zip_code":"7400027"},{"name":"長野","zip_code":"7400045"},{"name":"灘町","zip_code":"7400033"},{"name":"錦町宇佐","zip_code":"7400901"},{"name":"錦町宇佐郷","zip_code":"7400904"},{"name":"錦町大野","zip_code":"7400721"},{"name":"錦町大原","zip_code":"7400903"},{"name":"錦町須川","zip_code":"7400811"},{"name":"錦町中ノ瀬","zip_code":"7400722"},{"name":"錦町野谷","zip_code":"7400725"},{"name":"錦町広瀬","zip_code":"7400724"},{"name":"錦町深川","zip_code":"7400812"},{"name":"錦町府谷","zip_code":"7400723"},{"name":"錦見","zip_code":"7410061"},{"name":"柱島","zip_code":"7400051"},{"name":"柱野","zip_code":"7410073"},{"name":"廿木","zip_code":"7400322"},{"name":"土生","zip_code":"7400326"},{"name":"日の出町","zip_code":"7400014"},{"name":"平田","zip_code":"7410072"},{"name":"藤生町","zip_code":"7400036"},{"name":"二鹿","zip_code":"7400305"},{"name":"保木","zip_code":"7400313"},{"name":"保津町","zip_code":"7400043"},{"name":"本郷町宇塚","zip_code":"7400604"},{"name":"本郷町西黒沢","zip_code":"7400605"},{"name":"本郷町波野","zip_code":"7400603"},{"name":"本郷町本郷","zip_code":"7400602"},{"name":"本郷町本谷","zip_code":"7400601"},{"name":"麻里布町","zip_code":"7400018"},{"name":"三笠町","zip_code":"7400016"},{"name":"美川町小川","zip_code":"7400501"},{"name":"美川町四馬神","zip_code":"7400502"},{"name":"美川町添谷","zip_code":"7400503"},{"name":"美川町南桑","zip_code":"7400504"},{"name":"美川町根笠","zip_code":"7400505"},{"name":"御庄","zip_code":"7410083"},{"name":"三角町","zip_code":"7400025"},{"name":"海土路町","zip_code":"7400035"},{"name":"南岩国町","zip_code":"7400034"},{"name":"美和町阿賀","zip_code":"7401241"},{"name":"美和町秋掛","zip_code":"7401201"},{"name":"美和町生見","zip_code":"7401231"},{"name":"美和町大根川","zip_code":"7401217"},{"name":"美和町釜ケ原","zip_code":"7401211"},{"name":"美和町上駄床","zip_code":"7401221"},{"name":"美和町岸根","zip_code":"7401213"},{"name":"美和町北中山","zip_code":"7401202"},{"name":"美和町黒沢","zip_code":"7401212"},{"name":"美和町佐坂","zip_code":"7401224"},{"name":"美和町渋前","zip_code":"7401225"},{"name":"美和町下畑","zip_code":"7401242"},{"name":"美和町瀬戸ノ内","zip_code":"7401219"},{"name":"美和町田ノ口","zip_code":"7401222"},{"name":"美和町中垣内","zip_code":"7401218"},{"name":"美和町長谷","zip_code":"7401215"},{"name":"美和町滑","zip_code":"7401223"},{"name":"美和町西畑","zip_code":"7401232"},{"name":"美和町日宛","zip_code":"7401216"},{"name":"美和町百合谷","zip_code":"7401214"},{"name":"室の木町","zip_code":"7400021"},{"name":"持国","zip_code":"7410085"},{"name":"元町","zip_code":"7400012"},{"name":"門前町","zip_code":"7400031"},{"name":"山手町","zip_code":"7400022"},{"name":"由宇町北","zip_code":"7401455"},{"name":"由宇町神東","zip_code":"7401432"},{"name":"由宇町千鳥ケ丘","zip_code":"7401441"},{"name":"由宇町中央","zip_code":"7401428"},{"name":"由宇町西","zip_code":"7401454"},{"name":"由宇町港","zip_code":"7401424"},{"name":"由宇町南","zip_code":"7401451"},{"name":"由宇町南沖","zip_code":"7401425"},{"name":"由宇町由宇崎","zip_code":"7401426"},{"name":"由宇町","zip_code":"7401431"},{"name":"行波","zip_code":"7400301"},{"name":"行正","zip_code":"7400316"},{"name":"横山","zip_code":"7410081"},{"name":"六呂師","zip_code":"7410074"}]},{"name":"光市","divisions":[{"name":"浅江","zip_code":"7430021"},{"name":"岩狩","zip_code":"7430051"},{"name":"岩田","zip_code":"7430103"},{"name":"岩田立野","zip_code":"7430104"},{"name":"牛島","zip_code":"7430003"},{"name":"上島田","zip_code":"7430065"},{"name":"木園","zip_code":"7430046"},{"name":"協和町","zip_code":"7430043"},{"name":"小周防","zip_code":"7430061"},{"name":"塩田","zip_code":"7430101"},{"name":"島田","zip_code":"7430063"},{"name":"千坊台","zip_code":"7430012"},{"name":"宝町","zip_code":"7430042"},{"name":"立野","zip_code":"7430062"},{"name":"中央","zip_code":"7430013"},{"name":"束荷","zip_code":"7430105"},{"name":"中島田","zip_code":"7430064"},{"name":"中村町","zip_code":"7430048"},{"name":"虹ケ丘","zip_code":"7430031"},{"name":"虹ケ浜","zip_code":"7430022"},{"name":"花園","zip_code":"7430047"},{"name":"光ケ丘","zip_code":"7430023"},{"name":"丸山町","zip_code":"7430041"},{"name":"三井","zip_code":"7430052"},{"name":"光井","zip_code":"7430011"},{"name":"宮ノ下町","zip_code":"7430045"},{"name":"三輪","zip_code":"7430102"},{"name":"室積","zip_code":"7430007"},{"name":"室積市延","zip_code":"7430004"},{"name":"室積浦","zip_code":"7430002"},{"name":"室積大町","zip_code":"7430072"},{"name":"室積沖田","zip_code":"7430075"},{"name":"室積新開","zip_code":"7430071"},{"name":"室積神田","zip_code":"7430006"},{"name":"室積中央町","zip_code":"7430008"},{"name":"室積西ノ庄","zip_code":"7430074"},{"name":"室積東ノ庄","zip_code":"7430005"},{"name":"室積正木","zip_code":"7430073"},{"name":"室積松原","zip_code":"7430009"},{"name":"室積村","zip_code":"7430001"},{"name":"和田町","zip_code":"7430044"}]},{"name":"長門市","divisions":[{"name":"通","zip_code":"7594107"},{"name":"渋木","zip_code":"7594104"},{"name":"仙崎","zip_code":"7594106"},{"name":"俵山","zip_code":"7594211"},{"name":"西深川","zip_code":"7594102"},{"name":"東深川","zip_code":"7594101"},{"name":"深川湯本","zip_code":"7594103"},{"name":"日置上","zip_code":"7594401"},{"name":"日置蔵小田","zip_code":"7594405"},{"name":"日置下","zip_code":"7594403"},{"name":"日置中","zip_code":"7594402"},{"name":"日置野田","zip_code":"7594404"},{"name":"真木","zip_code":"7594105"},{"name":"三隅上","zip_code":"7593801"},{"name":"三隅下","zip_code":"7593803"},{"name":"三隅中","zip_code":"7593802"},{"name":"油谷伊上","zip_code":"7594505"},{"name":"油谷後畑","zip_code":"7594711"},{"name":"油谷角山","zip_code":"7594713"},{"name":"油谷川尻","zip_code":"7594621"},{"name":"油谷河原","zip_code":"7594504"},{"name":"油谷蔵小田","zip_code":"7594501"},{"name":"油谷新別名","zip_code":"7594503"},{"name":"油谷津黄","zip_code":"7594712"},{"name":"油谷久富","zip_code":"7594502"},{"name":"油谷向津具上","zip_code":"7594622"},{"name":"油谷向津具下","zip_code":"7594623"}]},{"name":"柳井市","divisions":[{"name":"旭ケ丘","zip_code":"7421351"},{"name":"阿月","zip_code":"7421353"},{"name":"伊陸","zip_code":"7420201"},{"name":"伊保庄","zip_code":"7421352"},{"name":"駅南","zip_code":"7420036"},{"name":"大畠","zip_code":"7490102"},{"name":"片野西","zip_code":"7420003"},{"name":"北浜","zip_code":"7420012"},{"name":"神代","zip_code":"7490101"},{"name":"古開作","zip_code":"7420032"},{"name":"新市","zip_code":"7420009"},{"name":"新市沖","zip_code":"7420011"},{"name":"新市北","zip_code":"7420008"},{"name":"新市南","zip_code":"7420010"},{"name":"新庄","zip_code":"7420033"},{"name":"新天地","zip_code":"7420006"},{"name":"中央","zip_code":"7420035"},{"name":"天神","zip_code":"7420005"},{"name":"遠崎","zip_code":"7490103"},{"name":"土手町","zip_code":"7420004"},{"name":"ニュータウン南町","zip_code":"7420024"},{"name":"東土手","zip_code":"7420007"},{"name":"日積","zip_code":"7420111"},{"name":"姫田","zip_code":"7420001"},{"name":"平郡","zip_code":"7420041"},{"name":"南浜","zip_code":"7420023"},{"name":"南町","zip_code":"7420031"},{"name":"柳井","zip_code":"7420021"},{"name":"柳井津","zip_code":"7420022"},{"name":"山根","zip_code":"7420002"},{"name":"余田","zip_code":"7420034"}]},{"name":"美祢市","divisions":[{"name":"伊佐町伊佐","zip_code":"7592222"},{"name":"伊佐町奥万倉","zip_code":"7592223"},{"name":"伊佐町河原","zip_code":"7592221"},{"name":"伊佐町堀越","zip_code":"7592131"},{"name":"大嶺町奥分","zip_code":"7592214"},{"name":"大嶺町東分","zip_code":"7592212"},{"name":"大嶺町西分","zip_code":"7592213"},{"name":"大嶺町北分","zip_code":"7592211"},{"name":"於福町上","zip_code":"7592301"},{"name":"於福町下","zip_code":"7592302"},{"name":"秋芳町青景","zip_code":"7540602"},{"name":"秋芳町秋吉","zip_code":"7540511"},{"name":"秋芳町岩永下郷","zip_code":"7540513"},{"name":"秋芳町岩永本郷","zip_code":"7540512"},{"name":"秋芳町嘉万","zip_code":"7540601"},{"name":"秋芳町別府","zip_code":"7540603"},{"name":"秋芳町","zip_code":"7540514"},{"name":"豊田前町麻生上","zip_code":"7500601"},{"name":"豊田前町麻生下","zip_code":"7500602"},{"name":"豊田前町今山","zip_code":"7500603"},{"name":"豊田前町嶽","zip_code":"7500606"},{"name":"豊田前町古烏帽子","zip_code":"7500605"},{"name":"豊田前町保々","zip_code":"7500604"},{"name":"西厚保町原","zip_code":"7592152"},{"name":"西厚保町本郷","zip_code":"7592151"},{"name":"東厚保町川東","zip_code":"7592142"},{"name":"東厚保町山中","zip_code":"7592141"},{"name":"美東町赤","zip_code":"7540302"},{"name":"美東町綾木","zip_code":"7540212"},{"name":"美東町絵堂","zip_code":"7540301"},{"name":"美東町大田","zip_code":"7540211"},{"name":"美東町小野","zip_code":"7540123"},{"name":"美東町長田","zip_code":"7540121"},{"name":"美東町長登","zip_code":"7540213"},{"name":"美東町真名","zip_code":"7540122"},{"name":"美東町","zip_code":"7540214"}]},{"name":"周南市","divisions":[{"name":"相生町","zip_code":"7450055"},{"name":"青山町","zip_code":"7450842"},{"name":"秋月","zip_code":"7450825"},{"name":"曙町","zip_code":"7450821"},{"name":"莇地","zip_code":"7450124"},{"name":"飯島町","zip_code":"7450014"},{"name":"泉原町","zip_code":"7450833"},{"name":"一ノ井手","zip_code":"7450882"},{"name":"一番町","zip_code":"7450872"},{"name":"今宿町","zip_code":"7450074"},{"name":"今住町","zip_code":"7450063"},{"name":"入船町","zip_code":"7450047"},{"name":"馬神","zip_code":"7460105"},{"name":"馬屋","zip_code":"7450887"},{"name":"梅園町","zip_code":"7450076"},{"name":"浦山","zip_code":"7450856"},{"name":"浦山開作","zip_code":"7450857"},{"name":"江口","zip_code":"7450862"},{"name":"江の宮町","zip_code":"7450826"},{"name":"戎町","zip_code":"7450041"},{"name":"扇町","zip_code":"7450832"},{"name":"大内町","zip_code":"7450824"},{"name":"大河内","zip_code":"7450651"},{"name":"大潮","zip_code":"7450301"},{"name":"大島","zip_code":"7450803"},{"name":"大津島","zip_code":"7450057"},{"name":"大道理","zip_code":"7450242"},{"name":"大向","zip_code":"7450241"},{"name":"岡田町","zip_code":"7450066"},{"name":"小川屋町","zip_code":"7460027"},{"name":"沖見町","zip_code":"7450051"},{"name":"奥関屋","zip_code":"7450611"},{"name":"桶川町","zip_code":"7460013"},{"name":"小畑","zip_code":"7460083"},{"name":"御姫町","zip_code":"7460051"},{"name":"御弓町","zip_code":"7450871"},{"name":"温田","zip_code":"7460036"},{"name":"開成町","zip_code":"7460006"},{"name":"かせ河原町","zip_code":"7460055"},{"name":"勝間ヶ丘","zip_code":"7450615"},{"name":"勝間原","zip_code":"7450617"},{"name":"鹿野上","zip_code":"7450302"},{"name":"鹿野下","zip_code":"7450304"},{"name":"鹿野中","zip_code":"7450303"},{"name":"上迫町","zip_code":"7460065"},{"name":"上遠石町","zip_code":"7450817"},{"name":"花陽","zip_code":"7450858"},{"name":"川上","zip_code":"7450855"},{"name":"川崎","zip_code":"7460001"},{"name":"川手","zip_code":"7460009"},{"name":"川端町","zip_code":"7450012"},{"name":"河東町","zip_code":"7450845"},{"name":"川曲","zip_code":"7450852"},{"name":"岐山通り","zip_code":"7450071"},{"name":"北山","zip_code":"7450864"},{"name":"岐南町","zip_code":"7450007"},{"name":"銀座","zip_code":"7450032"},{"name":"銀南街","zip_code":"7450031"},{"name":"櫛ケ浜","zip_code":"7450805"},{"name":"楠木","zip_code":"7450831"},{"name":"熊毛中央町","zip_code":"7450663"},{"name":"久米","zip_code":"7450801"},{"name":"栗屋","zip_code":"7450802"},{"name":"黒岩町","zip_code":"7450886"},{"name":"慶万町","zip_code":"7450836"},{"name":"古泉","zip_code":"7460024"},{"name":"公園区","zip_code":"7450874"},{"name":"糀町","zip_code":"7450027"},{"name":"孝田町","zip_code":"7450822"},{"name":"河内町","zip_code":"7460032"},{"name":"幸の台","zip_code":"7450878"},{"name":"鼓海","zip_code":"7450814"},{"name":"御所尾原","zip_code":"7450614"},{"name":"児玉町","zip_code":"7450005"},{"name":"小松原","zip_code":"7450641"},{"name":"権現町","zip_code":"7450046"},{"name":"栄谷","zip_code":"7450883"},{"name":"栄町","zip_code":"7450037"},{"name":"坂根町","zip_code":"7460031"},{"name":"桜木","zip_code":"7450806"},{"name":"桜馬場通り","zip_code":"7450011"},{"name":"幸ケ丘","zip_code":"7450652"},{"name":"五月町","zip_code":"7450811"},{"name":"皿山町","zip_code":"7460061"},{"name":"三番町","zip_code":"7450003"},{"name":"椎木町","zip_code":"7460008"},{"name":"四熊","zip_code":"7460081"},{"name":"清水","zip_code":"7460015"},{"name":"清水町","zip_code":"7450834"},{"name":"下上","zip_code":"7460082"},{"name":"社地町","zip_code":"7460041"},{"name":"自由ケ丘","zip_code":"7450654"},{"name":"周陽","zip_code":"7450823"},{"name":"城ケ丘","zip_code":"7450807"},{"name":"上村","zip_code":"7450853"},{"name":"鐘楼町","zip_code":"7450061"},{"name":"昭和通り","zip_code":"7450013"},{"name":"新宮町","zip_code":"7450843"},{"name":"新宿通","zip_code":"7450056"},{"name":"新清光台","zip_code":"7450643"},{"name":"新地","zip_code":"7450861"},{"name":"新地町","zip_code":"7460045"},{"name":"新堤町","zip_code":"7460033"},{"name":"新田","zip_code":"7460043"},{"name":"新堀","zip_code":"7450867"},{"name":"新町","zip_code":"7450017"},{"name":"粭島","zip_code":"7450804"},{"name":"須々万奥","zip_code":"7450121"},{"name":"須々万本郷","zip_code":"7450122"},{"name":"須万","zip_code":"7450401"},{"name":"住崎町","zip_code":"7450026"},{"name":"住吉町","zip_code":"7450064"},{"name":"巣山","zip_code":"7470621"},{"name":"清光台町","zip_code":"7450653"},{"name":"清尾","zip_code":"7450623"},{"name":"瀬戸見町","zip_code":"7450827"},{"name":"大神","zip_code":"7460018"},{"name":"垰","zip_code":"7460103"},{"name":"高尾団地","zip_code":"7450885"},{"name":"高瀬","zip_code":"7460101"},{"name":"高水原","zip_code":"7450662"},{"name":"竹島町","zip_code":"7460007"},{"name":"築港町","zip_code":"7450025"},{"name":"中央町","zip_code":"7460016"},{"name":"千代田町","zip_code":"7450044"},{"name":"月丘町","zip_code":"7450062"},{"name":"辻町","zip_code":"7450001"},{"name":"鶴見台","zip_code":"7450632"},{"name":"土井","zip_code":"7460011"},{"name":"遠石","zip_code":"7450816"},{"name":"道源町","zip_code":"7460003"},{"name":"徳山","zip_code":"7450123"},{"name":"徳山港町","zip_code":"7450045"},{"name":"富田","zip_code":"7460034"},{"name":"中金剛山","zip_code":"7450876"},{"name":"中須北","zip_code":"7450511"},{"name":"中須南","zip_code":"7450512"},{"name":"長田町","zip_code":"7460054"},{"name":"中畷町","zip_code":"7460052"},{"name":"中野","zip_code":"7450854"},{"name":"長穂","zip_code":"7450125"},{"name":"中村","zip_code":"7450642"},{"name":"渚町","zip_code":"7460005"},{"name":"那智町","zip_code":"7450023"},{"name":"夏切","zip_code":"7460102"},{"name":"西金剛山","zip_code":"7450875"},{"name":"西千代田町","zip_code":"7460002"},{"name":"西桝町","zip_code":"7460044"},{"name":"西松原","zip_code":"7450054"},{"name":"二ノ井手","zip_code":"7450884"},{"name":"二番町","zip_code":"7450002"},{"name":"野上町","zip_code":"7450042"},{"name":"野村","zip_code":"7460022"},{"name":"野村南町","zip_code":"7460023"},{"name":"羽島","zip_code":"7460056"},{"name":"橋本町","zip_code":"7450022"},{"name":"蓮ケ浴","zip_code":"7450865"},{"name":"初音町","zip_code":"7450052"},{"name":"花園町","zip_code":"7460021"},{"name":"花畠町","zip_code":"7450006"},{"name":"浜田","zip_code":"7460026"},{"name":"速玉町","zip_code":"7450844"},{"name":"原","zip_code":"7450621"},{"name":"原宿町","zip_code":"7450065"},{"name":"晴海町","zip_code":"7450024"},{"name":"東金剛山","zip_code":"7450877"},{"name":"東辻","zip_code":"7450881"},{"name":"東山町","zip_code":"7450846"},{"name":"樋口","zip_code":"7450622"},{"name":"土越","zip_code":"7450866"},{"name":"日地町","zip_code":"7460035"},{"name":"平野","zip_code":"7460029"},{"name":"平原町","zip_code":"7450808"},{"name":"福川","zip_code":"7460038"},{"name":"福川中市町","zip_code":"7460062"},{"name":"福川南町","zip_code":"7460042"},{"name":"藤ヶ台","zip_code":"7450618"},{"name":"古市","zip_code":"7460025"},{"name":"古川町","zip_code":"7460014"},{"name":"平和通り","zip_code":"7450015"},{"name":"戸田","zip_code":"7451131"},{"name":"本陣町","zip_code":"7460063"},{"name":"本町","zip_code":"7450036"},{"name":"舞車町","zip_code":"7450835"},{"name":"松保町","zip_code":"7450847"},{"name":"政所","zip_code":"7460012"},{"name":"丸山町","zip_code":"7460037"},{"name":"御影町","zip_code":"7450053"},{"name":"三笹町","zip_code":"7460004"},{"name":"三田川","zip_code":"7450873"},{"name":"金峰","zip_code":"7450402"},{"name":"緑ケ丘","zip_code":"7450616"},{"name":"緑町","zip_code":"7450075"},{"name":"港町","zip_code":"7460028"},{"name":"南浦山町","zip_code":"7450868"},{"name":"みなみ銀座","zip_code":"7450033"},{"name":"都町","zip_code":"7450043"},{"name":"宮の前","zip_code":"7460017"},{"name":"宮前町","zip_code":"7450815"},{"name":"御山町","zip_code":"7450863"},{"name":"御幸通り","zip_code":"7450034"},{"name":"室尾","zip_code":"7460053"},{"name":"毛利町","zip_code":"7450004"},{"name":"夜市","zip_code":"7460084"},{"name":"八代","zip_code":"7450501"},{"name":"安田","zip_code":"7450631"},{"name":"柳町","zip_code":"7450021"},{"name":"弥生町","zip_code":"7450072"},{"name":"有楽町","zip_code":"7450035"},{"name":"由加町","zip_code":"7450813"},{"name":"譲羽","zip_code":"7450837"},{"name":"湯野","zip_code":"7451132"},{"name":"夢ケ丘","zip_code":"7450613"},{"name":"横浜町","zip_code":"7450812"},{"name":"米光","zip_code":"7460104"},{"name":"呼坂","zip_code":"7450612"},{"name":"呼坂本町","zip_code":"7450661"},{"name":"代々木通り","zip_code":"7450073"},{"name":"臨海町","zip_code":"7460019"},{"name":"若草町","zip_code":"7450841"},{"name":"若宮町","zip_code":"7450016"},{"name":"若山","zip_code":"7460064"}]},{"name":"山陽小野田市","divisions":[{"name":"青葉台","zip_code":"7560030"},{"name":"赤崎","zip_code":"7560841"},{"name":"厚狭","zip_code":"7570001"},{"name":"あさひが丘","zip_code":"7560871"},{"name":"旭町","zip_code":"7560808"},{"name":"有帆","zip_code":"7560038"},{"name":"有帆上町","zip_code":"7560009"},{"name":"有帆新町","zip_code":"7560003"},{"name":"石井手","zip_code":"7560063"},{"name":"稲荷町","zip_code":"7560811"},{"name":"上の台","zip_code":"7560863"},{"name":"後潟上","zip_code":"7560049"},{"name":"後潟下","zip_code":"7560048"},{"name":"えびす町","zip_code":"7560855"},{"name":"烏帽子岩","zip_code":"7560025"},{"name":"烏帽子岩団地","zip_code":"7560026"},{"name":"烏帽子岩前","zip_code":"7560027"},{"name":"大須恵","zip_code":"7560873"},{"name":"大塚","zip_code":"7560042"},{"name":"大塚団地","zip_code":"7560036"},{"name":"大浜","zip_code":"7560866"},{"name":"奥若山","zip_code":"7560852"},{"name":"小野田","zip_code":"7560817"},{"name":"小野山","zip_code":"7560812"},{"name":"柿の木坂","zip_code":"7560067"},{"name":"片山","zip_code":"7560013"},{"name":"角石","zip_code":"7560012"},{"name":"叶松","zip_code":"7560854"},{"name":"上木屋","zip_code":"7560056"},{"name":"上の郷","zip_code":"7560041"},{"name":"神帆町","zip_code":"7560086"},{"name":"亀の甲","zip_code":"7560075"},{"name":"鴨庄","zip_code":"7570005"},{"name":"刈屋上条","zip_code":"7560843"},{"name":"刈屋中村","zip_code":"7560842"},{"name":"刈屋西条","zip_code":"7560848"},{"name":"杵築","zip_code":"7560051"},{"name":"北栄町","zip_code":"7560801"},{"name":"北真土郷","zip_code":"7560007"},{"name":"北竜王町","zip_code":"7560833"},{"name":"北若山","zip_code":"7560822"},{"name":"木戸大鼻","zip_code":"7560844"},{"name":"木戸新町","zip_code":"7560846"},{"name":"木戸中ノ町","zip_code":"7560845"},{"name":"共和台","zip_code":"7560011"},{"name":"共和町","zip_code":"7560028"},{"name":"くし山","zip_code":"7560080"},{"name":"郷","zip_code":"7560044"},{"name":"高栄","zip_code":"7560815"},{"name":"郡","zip_code":"7570002"},{"name":"小松尾","zip_code":"7560037"},{"name":"栄町","zip_code":"7560802"},{"name":"桜","zip_code":"7570006"},{"name":"桜が丘","zip_code":"7560851"},{"name":"笹尾西","zip_code":"7560888"},{"name":"笹尾東","zip_code":"7560881"},{"name":"下木屋","zip_code":"7560053"},{"name":"自由ケ丘","zip_code":"7560805"},{"name":"市立病院","zip_code":"7560094"},{"name":"新有帆町","zip_code":"7560010"},{"name":"新沖","zip_code":"7560847"},{"name":"新生","zip_code":"7560092"},{"name":"心和園","zip_code":"7560823"},{"name":"須恵","zip_code":"7560836"},{"name":"須恵西","zip_code":"7560862"},{"name":"須恵東","zip_code":"7560889"},{"name":"須田ノ木","zip_code":"7560882"},{"name":"住吉本町","zip_code":"7560813"},{"name":"セメント町","zip_code":"7560835"},{"name":"大学通","zip_code":"7560884"},{"name":"大休","zip_code":"7560001"},{"name":"大休団地","zip_code":"7560008"},{"name":"高須","zip_code":"7560087"},{"name":"高千帆","zip_code":"7560060"},{"name":"高畑","zip_code":"7560021"},{"name":"高浜","zip_code":"7560047"},{"name":"田の尻","zip_code":"7560865"},{"name":"旦西","zip_code":"7560055"},{"name":"旦東","zip_code":"7560054"},{"name":"千崎","zip_code":"7560039"},{"name":"千崎西","zip_code":"7560022"},{"name":"千崎東","zip_code":"7560023"},{"name":"中央","zip_code":"7560824"},{"name":"長寿園","zip_code":"7560804"},{"name":"千代町","zip_code":"7560814"},{"name":"津布田","zip_code":"7570011"},{"name":"中川","zip_code":"7560806"},{"name":"中里","zip_code":"7560004"},{"name":"中村","zip_code":"7560005"},{"name":"夏目","zip_code":"7560886"},{"name":"南平台","zip_code":"7560016"},{"name":"西沖","zip_code":"7560885"},{"name":"西が迫","zip_code":"7560864"},{"name":"西住吉町","zip_code":"7560816"},{"name":"西高泊","zip_code":"7560057"},{"name":"西の郷","zip_code":"7560046"},{"name":"日産","zip_code":"7560093"},{"name":"仁保の上","zip_code":"7560017"},{"name":"野来見","zip_code":"7560853"},{"name":"萩森","zip_code":"7560024"},{"name":"波瀬","zip_code":"7560861"},{"name":"埴生","zip_code":"7570012"},{"name":"浜","zip_code":"7560043"},{"name":"浜河内","zip_code":"7560872"},{"name":"浜田町","zip_code":"7560052"},{"name":"東須恵","zip_code":"7560879"},{"name":"東須田の木","zip_code":"7560883"},{"name":"東住吉町","zip_code":"7560825"},{"name":"東高泊","zip_code":"7560088"},{"name":"東町","zip_code":"7560018"},{"name":"彼岸田","zip_code":"7560014"},{"name":"ひがんだ団地","zip_code":"7560015"},{"name":"日の出","zip_code":"7560091"},{"name":"平生町","zip_code":"7560032"},{"name":"平原","zip_code":"7560035"},{"name":"福田","zip_code":"7570013"},{"name":"船越","zip_code":"7560029"},{"name":"古開作","zip_code":"7560856"},{"name":"古開作団地","zip_code":"7560857"},{"name":"平成町","zip_code":"7560837"},{"name":"平和町","zip_code":"7560031"},{"name":"松角","zip_code":"7560887"},{"name":"松浜","zip_code":"7560877"},{"name":"松浜団地","zip_code":"7560878"},{"name":"丸河内","zip_code":"7560821"},{"name":"緑が丘","zip_code":"7560034"},{"name":"港町","zip_code":"7560834"},{"name":"南高泊","zip_code":"7560045"},{"name":"南中川町","zip_code":"7560803"},{"name":"南真土郷","zip_code":"7560019"},{"name":"南松浜","zip_code":"7560875"},{"name":"南竜王町","zip_code":"7560832"},{"name":"南若山","zip_code":"7560831"},{"name":"目出","zip_code":"7560076"},{"name":"目出湖畔町","zip_code":"7560074"},{"name":"目出幸町","zip_code":"7560073"},{"name":"目出新町","zip_code":"7560077"},{"name":"目出文化町","zip_code":"7560071"},{"name":"目出緑町","zip_code":"7560072"},{"name":"本山団地","zip_code":"7560876"},{"name":"本山町","zip_code":"7560874"},{"name":"山川","zip_code":"7570004"},{"name":"山野井","zip_code":"7570003"},{"name":"横土手","zip_code":"7560809"},{"name":"硫酸町","zip_code":"7560807"},{"name":"労災病院","zip_code":"7560095"},{"name":"若草町","zip_code":"7560033"}]},{"name":"大島郡周防大島町","divisions":[{"name":"秋","zip_code":"7422807"},{"name":"出井","zip_code":"7422712"},{"name":"伊保田","zip_code":"7422601"},{"name":"浮島","zip_code":"7422801"},{"name":"内入","zip_code":"7422515"},{"name":"沖家室島","zip_code":"7422922"},{"name":"笠佐島","zip_code":"7422108"},{"name":"片添","zip_code":"7422511"},{"name":"家房","zip_code":"7422711"},{"name":"久賀","zip_code":"7422301"},{"name":"神浦","zip_code":"7422514"},{"name":"小泊","zip_code":"7422517"},{"name":"小松","zip_code":"7422106"},{"name":"小松開作","zip_code":"7422105"},{"name":"地家室","zip_code":"7422923"},{"name":"志佐","zip_code":"7422104"},{"name":"津海木","zip_code":"7422713"},{"name":"土居","zip_code":"7422803"},{"name":"外入","zip_code":"7422924"},{"name":"西安下庄","zip_code":"7422806"},{"name":"西方","zip_code":"7422921"},{"name":"西三蒲","zip_code":"7422101"},{"name":"西屋代","zip_code":"7422103"},{"name":"東安下庄","zip_code":"7422805"},{"name":"東三蒲","zip_code":"7422102"},{"name":"東屋代","zip_code":"7422107"},{"name":"日前","zip_code":"7422804"},{"name":"日見","zip_code":"7422716"},{"name":"平野","zip_code":"7422512"},{"name":"戸田","zip_code":"7422714"},{"name":"椋野","zip_code":"7422302"},{"name":"森","zip_code":"7422513"},{"name":"油宇","zip_code":"7422602"},{"name":"油良","zip_code":"7422802"},{"name":"横見","zip_code":"7422715"},{"name":"和佐","zip_code":"7422518"},{"name":"和田","zip_code":"7422516"}]},{"name":"玖珂郡和木町","divisions":[{"name":"関ケ浜","zip_code":"7400063"},{"name":"瀬田","zip_code":"7400062"},{"name":"和木","zip_code":"7400061"}]},{"name":"熊毛郡上関町","divisions":[{"name":"祝島","zip_code":"7421401"},{"name":"長島","zip_code":"7421402"},{"name":"室津","zip_code":"7421403"},{"name":"八島","zip_code":"7421404"}]},{"name":"熊毛郡田布施町","divisions":[{"name":"馬島","zip_code":"7421516"},{"name":"大波野","zip_code":"7421501"},{"name":"麻郷","zip_code":"7421513"},{"name":"麻郷奥","zip_code":"7421512"},{"name":"麻郷団地","zip_code":"7421513"},{"name":"上田布施","zip_code":"7421515"},{"name":"川西","zip_code":"7421504"},{"name":"下田布施","zip_code":"7421511"},{"name":"宿井","zip_code":"7421503"},{"name":"中央南","zip_code":"7421517"},{"name":"波野","zip_code":"7421502"},{"name":"別府","zip_code":"7421514"}]},{"name":"熊毛郡平生町","divisions":[{"name":"宇佐木","zip_code":"7421104"},{"name":"大野南","zip_code":"7421106"},{"name":"大野北","zip_code":"7421105"},{"name":"尾国","zip_code":"7421113"},{"name":"小郡","zip_code":"7421112"},{"name":"佐賀","zip_code":"7421111"},{"name":"佐合島","zip_code":"7421114"},{"name":"曽根","zip_code":"7421107"},{"name":"竪ケ浜","zip_code":"7421103"},{"name":"平生町","zip_code":"7421101"},{"name":"平生村","zip_code":"7421102"}]},{"name":"阿武郡阿武町","divisions":[{"name":"宇田","zip_code":"7593501"},{"name":"宇生賀","zip_code":"7580613"},{"name":"木与","zip_code":"7593621"},{"name":"惣郷","zip_code":"7593502"},{"name":"奈古","zip_code":"7593622"},{"name":"福田上","zip_code":"7580612"},{"name":"福田下","zip_code":"7580611"}]}]}