{"name":"徳島県","cities":[{"name":"徳島市","divisions":[{"name":"藍場町","zip_code":"7700835"},{"name":"秋田町","zip_code":"7700934"},{"name":"鮎喰町","zip_code":"7700046"},{"name":"安宅","zip_code":"7700863"},{"name":"飯谷町","zip_code":"7714265"},{"name":"伊賀町","zip_code":"7700926"},{"name":"一宮町","zip_code":"7793132"},{"name":"一番町","zip_code":"7700833"},{"name":"伊月町","zip_code":"7700935"},{"name":"応神町応神産業団地","zip_code":"7711156"},{"name":"応神町中原","zip_code":"7711152"},{"name":"応神町東貞方","zip_code":"7711154"},{"name":"応神町西貞方","zip_code":"7711155"},{"name":"応神町古川","zip_code":"7711151"},{"name":"応神町吉成","zip_code":"7711153"},{"name":"大谷町","zip_code":"7708031"},{"name":"大原町","zip_code":"7730070"},{"name":"大松町","zip_code":"7708022"},{"name":"大道","zip_code":"7700923"},{"name":"沖浜","zip_code":"7708052"},{"name":"沖浜町","zip_code":"7708051"},{"name":"沖浜東","zip_code":"7708053"},{"name":"籠屋町","zip_code":"7700914"},{"name":"春日","zip_code":"7700002"},{"name":"春日町","zip_code":"7700001"},{"name":"方上町","zip_code":"7708033"},{"name":"かちどき橋","zip_code":"7700939"},{"name":"勝占町","zip_code":"7708023"},{"name":"金沢","zip_code":"7700871"},{"name":"上助任町","zip_code":"7700801"},{"name":"上八万町西山","zip_code":"7708041"},{"name":"上八万町","zip_code":"7708040"},{"name":"上吉野町","zip_code":"7700803"},{"name":"加茂名町","zip_code":"7700048"},{"name":"川内町","zip_code":"7710101"},{"name":"北沖洲","zip_code":"7700872"},{"name":"北佐古一番町","zip_code":"7700011"},{"name":"北佐古二番町","zip_code":"7700012"},{"name":"北島田町","zip_code":"7700051"},{"name":"北常三島町","zip_code":"7700812"},{"name":"北田宮","zip_code":"7700003"},{"name":"北出来島町","zip_code":"7700821"},{"name":"北前川町","zip_code":"7700806"},{"name":"北矢三町","zip_code":"7700006"},{"name":"北山町","zip_code":"7708032"},{"name":"銀座","zip_code":"7700916"},{"name":"蔵本町","zip_code":"7700042"},{"name":"蔵本元町","zip_code":"7700041"},{"name":"国府町池尻","zip_code":"7793116"},{"name":"国府町井戸","zip_code":"7793118"},{"name":"国府町延命","zip_code":"7793128"},{"name":"国府町川原田","zip_code":"7793113"},{"name":"国府町観音寺","zip_code":"7793123"},{"name":"国府町府中","zip_code":"7793122"},{"name":"国府町桜間","zip_code":"7793114"},{"name":"国府町佐野塚","zip_code":"7793101"},{"name":"国府町敷地","zip_code":"7793115"},{"name":"国府町芝原","zip_code":"7793112"},{"name":"国府町中","zip_code":"7793124"},{"name":"国府町西矢野","zip_code":"7793127"},{"name":"国府町花園","zip_code":"7793106"},{"name":"国府町早淵","zip_code":"7793125"},{"name":"国府町日開","zip_code":"7793117"},{"name":"国府町東黒田","zip_code":"7793103"},{"name":"国府町西黒田","zip_code":"7793102"},{"name":"国府町南岩延","zip_code":"7793120"},{"name":"国府町北岩延","zip_code":"7793119"},{"name":"国府町東高輪","zip_code":"7793105"},{"name":"国府町西高輪","zip_code":"7793104"},{"name":"国府町矢野","zip_code":"7793126"},{"name":"国府町竜王","zip_code":"7793111"},{"name":"国府町和田","zip_code":"7793121"},{"name":"紺屋町","zip_code":"7700918"},{"name":"雑賀町","zip_code":"7708021"},{"name":"幸町","zip_code":"7700847"},{"name":"栄町","zip_code":"7700921"},{"name":"佐古一番町","zip_code":"7700021"},{"name":"佐古二番町","zip_code":"7700022"},{"name":"佐古三番町","zip_code":"7700023"},{"name":"佐古四番町","zip_code":"7700024"},{"name":"佐古五番町","zip_code":"7700025"},{"name":"佐古六番町","zip_code":"7700026"},{"name":"佐古七番町","zip_code":"7700027"},{"name":"佐古八番町","zip_code":"7700028"},{"name":"佐古山町","zip_code":"7700039"},{"name":"三軒屋町","zip_code":"7708025"},{"name":"渋野町","zip_code":"7714267"},{"name":"下助任町","zip_code":"7700805"},{"name":"下町","zip_code":"7793131"},{"name":"城東町","zip_code":"7700862"},{"name":"城南町","zip_code":"7708064"},{"name":"庄町","zip_code":"7700044"},{"name":"丈六町","zip_code":"7714263"},{"name":"昭和町","zip_code":"7700942"},{"name":"新内町","zip_code":"7700845"},{"name":"新蔵町","zip_code":"7700855"},{"name":"新浜町","zip_code":"7708006"},{"name":"新浜本町","zip_code":"7708007"},{"name":"新町橋","zip_code":"7700904"},{"name":"新南福島","zip_code":"7700867"},{"name":"末広","zip_code":"7700866"},{"name":"助任橋","zip_code":"7700815"},{"name":"助任本町","zip_code":"7700816"},{"name":"住吉","zip_code":"7700861"},{"name":"勢見町","zip_code":"7700927"},{"name":"鷹匠町","zip_code":"7700922"},{"name":"多家良町","zip_code":"7714264"},{"name":"中央通","zip_code":"7700936"},{"name":"津田海岸町","zip_code":"7708001"},{"name":"津田西町","zip_code":"7708004"},{"name":"津田浜之町","zip_code":"7708005"},{"name":"津田本町","zip_code":"7708003"},{"name":"津田町","zip_code":"7708002"},{"name":"出来島本町","zip_code":"7700823"},{"name":"寺島本町東","zip_code":"7700832"},{"name":"寺島本町西","zip_code":"7700831"},{"name":"寺町","zip_code":"7700909"},{"name":"問屋町","zip_code":"7708056"},{"name":"通町","zip_code":"7700842"},{"name":"徳島町","zip_code":"7700852"},{"name":"徳島町城内","zip_code":"7700851"},{"name":"徳島本町","zip_code":"7700854"},{"name":"富田浜","zip_code":"7700931"},{"name":"富田橋","zip_code":"7700937"},{"name":"富田町","zip_code":"7700915"},{"name":"中島田町","zip_code":"7700052"},{"name":"中昭和町","zip_code":"7700943"},{"name":"中常三島町","zip_code":"7700813"},{"name":"中洲町","zip_code":"7700856"},{"name":"中通町","zip_code":"7700844"},{"name":"中徳島町","zip_code":"7700853"},{"name":"仲之町","zip_code":"7700932"},{"name":"中前川町","zip_code":"7700807"},{"name":"中吉野町","zip_code":"7700804"},{"name":"二軒屋町","zip_code":"7700928"},{"name":"西新浜町","zip_code":"7708008"},{"name":"西新町","zip_code":"7700902"},{"name":"西須賀町","zip_code":"7708024"},{"name":"西船場町","zip_code":"7700901"},{"name":"西大工町","zip_code":"7700903"},{"name":"西富田町","zip_code":"7700929"},{"name":"西二軒屋町","zip_code":"7708061"},{"name":"西山手町","zip_code":"7700907"},{"name":"入田町","zip_code":"7793133"},{"name":"幟町","zip_code":"7700924"},{"name":"八多町","zip_code":"7714266"},{"name":"八万町","zip_code":"7708076"},{"name":"万代町","zip_code":"7700941"},{"name":"東沖洲","zip_code":"7700873"},{"name":"東新町","zip_code":"7700912"},{"name":"東船場町","zip_code":"7700911"},{"name":"東大工町","zip_code":"7700905"},{"name":"東出来島町","zip_code":"7700822"},{"name":"東山手町","zip_code":"7700906"},{"name":"東吉野町","zip_code":"7700811"},{"name":"眉山町","zip_code":"7700908"},{"name":"福島","zip_code":"7700868"},{"name":"不動東町","zip_code":"7700062"},{"name":"不動西町","zip_code":"7700064"},{"name":"不動北町","zip_code":"7700061"},{"name":"不動本町","zip_code":"7700063"},{"name":"南内町","zip_code":"7700846"},{"name":"南沖洲","zip_code":"7700874"},{"name":"南蔵本町","zip_code":"7700043"},{"name":"南佐古一番町","zip_code":"7700031"},{"name":"南佐古二番町","zip_code":"7700032"},{"name":"南佐古三番町","zip_code":"7700033"},{"name":"南佐古四番町","zip_code":"7700034"},{"name":"南佐古五番町","zip_code":"7700035"},{"name":"南佐古六番町","zip_code":"7700036"},{"name":"南佐古七番町","zip_code":"7700037"},{"name":"南佐古八番町","zip_code":"7700038"},{"name":"南島田町","zip_code":"7700053"},{"name":"南庄町","zip_code":"7700045"},{"name":"南昭和町","zip_code":"7700944"},{"name":"南新町","zip_code":"7700913"},{"name":"南常三島町","zip_code":"7700814"},{"name":"南末広町","zip_code":"7700865"},{"name":"南田宮","zip_code":"7700004"},{"name":"南出来島町","zip_code":"7700824"},{"name":"南仲之町","zip_code":"7700933"},{"name":"南二軒屋町","zip_code":"7708063"},{"name":"南前川町","zip_code":"7700808"},{"name":"南矢三町","zip_code":"7700005"},{"name":"明神町","zip_code":"7700938"},{"name":"名東町","zip_code":"7700047"},{"name":"元町","zip_code":"7700834"},{"name":"八百屋町","zip_code":"7700841"},{"name":"山城町","zip_code":"7708055"},{"name":"山城西","zip_code":"7708054"},{"name":"大和町","zip_code":"7700864"},{"name":"弓町","zip_code":"7700925"},{"name":"吉野本町","zip_code":"7700802"},{"name":"両国橋","zip_code":"7700917"},{"name":"両国本町","zip_code":"7700843"},{"name":"論田町","zip_code":"7708011"}]},{"name":"鳴門市","divisions":[{"name":"大麻町池谷","zip_code":"7790303"},{"name":"大麻町市場","zip_code":"7790315"},{"name":"大麻町牛屋島","zip_code":"7790311"},{"name":"大麻町大谷","zip_code":"7790302"},{"name":"大麻町川崎","zip_code":"7790223"},{"name":"大麻町高畑","zip_code":"7790305"},{"name":"大麻町津慈","zip_code":"7790224"},{"name":"大麻町中馬詰","zip_code":"7790313"},{"name":"大麻町西馬詰","zip_code":"7790314"},{"name":"大麻町萩原","zip_code":"7790221"},{"name":"大麻町板東","zip_code":"7790234"},{"name":"大麻町東馬詰","zip_code":"7790312"},{"name":"大麻町檜","zip_code":"7790225"},{"name":"大麻町姫田","zip_code":"7790301"},{"name":"大麻町松村","zip_code":"7790304"},{"name":"大麻町三俣","zip_code":"7790222"},{"name":"大津町大代","zip_code":"7720041"},{"name":"大津町木津野","zip_code":"7720031"},{"name":"大津町大幸","zip_code":"7720044"},{"name":"大津町段関","zip_code":"7720043"},{"name":"大津町徳長","zip_code":"7720034"},{"name":"大津町長江","zip_code":"7720033"},{"name":"大津町備前島","zip_code":"7720042"},{"name":"大津町矢倉","zip_code":"7720035"},{"name":"大津町吉永","zip_code":"7720032"},{"name":"北灘町粟田","zip_code":"7710372"},{"name":"北灘町大浦","zip_code":"7710373"},{"name":"北灘町大須","zip_code":"7710377"},{"name":"北灘町折野","zip_code":"7710376"},{"name":"北灘町櫛木","zip_code":"7710371"},{"name":"北灘町碁浦","zip_code":"7710378"},{"name":"北灘町宿毛谷","zip_code":"7710374"},{"name":"北灘町鳥ケ丸","zip_code":"7710375"},{"name":"里浦町粟津","zip_code":"7720022"},{"name":"里浦町里浦","zip_code":"7720021"},{"name":"瀬戸町明神","zip_code":"7720060"},{"name":"瀬戸町北泊","zip_code":"7710362"},{"name":"瀬戸町大島田","zip_code":"7710367"},{"name":"瀬戸町中島田","zip_code":"7710366"},{"name":"瀬戸町小島田","zip_code":"7710365"},{"name":"瀬戸町堂浦","zip_code":"7710361"},{"name":"瀬戸町湊谷","zip_code":"7710363"},{"name":"瀬戸町撫佐","zip_code":"7710369"},{"name":"瀬戸町室","zip_code":"7710368"},{"name":"鳴門町高島","zip_code":"7720051"},{"name":"鳴門町土佐泊浦","zip_code":"7720053"},{"name":"鳴門町三ツ石","zip_code":"7720052"},{"name":"撫養町大桑島","zip_code":"7720011"},{"name":"撫養町小桑島","zip_code":"7720012"},{"name":"撫養町岡崎","zip_code":"7720013"},{"name":"撫養町木津","zip_code":"7720004"},{"name":"撫養町黒崎","zip_code":"7720001"},{"name":"撫養町斎田","zip_code":"7720002"},{"name":"撫養町立岩","zip_code":"7720017"},{"name":"撫養町林崎","zip_code":"7720016"},{"name":"撫養町弁財天","zip_code":"7720014"},{"name":"撫養町南浜","zip_code":"7720003"},{"name":"撫養町北浜","zip_code":"7720015"}]},{"name":"小松島市","divisions":[{"name":"間新田町","zip_code":"7730024"},{"name":"赤石町","zip_code":"7730021"},{"name":"江田町","zip_code":"7730014"},{"name":"大林町","zip_code":"7730022"},{"name":"金磯町","zip_code":"7730007"},{"name":"神田瀬町","zip_code":"7730002"},{"name":"櫛淵町","zip_code":"7730018"},{"name":"小松島町","zip_code":"7730001"},{"name":"坂野町","zip_code":"7730023"},{"name":"芝生町","zip_code":"7730009"},{"name":"田浦町","zip_code":"7730012"},{"name":"立江町","zip_code":"7730017"},{"name":"田野町","zip_code":"7730008"},{"name":"中田町","zip_code":"7730015"},{"name":"豊浦町","zip_code":"7730019"},{"name":"中郷町","zip_code":"7730016"},{"name":"新居見町","zip_code":"7730011"},{"name":"日開野町","zip_code":"7730010"},{"name":"堀川町","zip_code":"7730004"},{"name":"前原町","zip_code":"7730013"},{"name":"松島町","zip_code":"7730003"},{"name":"南小松島町","zip_code":"7730005"},{"name":"横須町","zip_code":"7730006"},{"name":"和田島町","zip_code":"7730031"},{"name":"和田津開町","zip_code":"7730020"}]},{"name":"阿南市","divisions":[{"name":"阿瀬比町","zip_code":"7791404"},{"name":"新野町","zip_code":"7791510"},{"name":"伊島町","zip_code":"7741760"},{"name":"内原町","zip_code":"7791401"},{"name":"大井町","zip_code":"7715177"},{"name":"大潟町","zip_code":"7740022"},{"name":"大田井町","zip_code":"7715176"},{"name":"学原町","zip_code":"7740014"},{"name":"上大野町","zip_code":"7740049"},{"name":"上中町","zip_code":"7740044"},{"name":"加茂町","zip_code":"7715173"},{"name":"楠根町","zip_code":"7715170"},{"name":"熊谷町","zip_code":"7715171"},{"name":"黒津地町","zip_code":"7740006"},{"name":"桑野町","zip_code":"7791402"},{"name":"才見町","zip_code":"7740015"},{"name":"西路見町","zip_code":"7740009"},{"name":"十八女町","zip_code":"7715178"},{"name":"下大野町","zip_code":"7740047"},{"name":"水井町","zip_code":"7715174"},{"name":"住吉町","zip_code":"7740041"},{"name":"宝田町","zip_code":"7740045"},{"name":"橘町","zip_code":"7791631"},{"name":"辰巳町","zip_code":"7740001"},{"name":"津乃峰町","zip_code":"7740021"},{"name":"椿町","zip_code":"7791750"},{"name":"椿泊町","zip_code":"7791740"},{"name":"出来町","zip_code":"7740007"},{"name":"富岡町","zip_code":"7740030"},{"name":"豊益町","zip_code":"7740002"},{"name":"長生町","zip_code":"7740046"},{"name":"中大野町","zip_code":"7740048"},{"name":"那賀川町赤池","zip_code":"7791242"},{"name":"那賀川町今津浦","zip_code":"7791114"},{"name":"那賀川町色ケ島","zip_code":"7791112"},{"name":"那賀川町江野島","zip_code":"7791111"},{"name":"那賀川町上福井","zip_code":"7791243"},{"name":"那賀川町苅屋","zip_code":"7791235"},{"name":"那賀川町北中島","zip_code":"7791246"},{"name":"那賀川町黒地","zip_code":"7791121"},{"name":"那賀川町小延","zip_code":"7791116"},{"name":"那賀川町敷地","zip_code":"7791115"},{"name":"那賀川町島尻","zip_code":"7791117"},{"name":"那賀川町大京原","zip_code":"7791233"},{"name":"那賀川町工地","zip_code":"7791236"},{"name":"那賀川町手島","zip_code":"7791123"},{"name":"那賀川町中島","zip_code":"7791245"},{"name":"那賀川町西原","zip_code":"7791232"},{"name":"那賀川町原","zip_code":"7791231"},{"name":"那賀川町日向","zip_code":"7791119"},{"name":"那賀川町古津","zip_code":"7791234"},{"name":"那賀川町芳崎","zip_code":"7791113"},{"name":"那賀川町三栗","zip_code":"7791241"},{"name":"那賀川町みどり台","zip_code":"7791244"},{"name":"那賀川町八幡","zip_code":"7791122"},{"name":"那賀川町豊香野","zip_code":"7791118"},{"name":"中林町","zip_code":"7740016"},{"name":"七見町","zip_code":"7740012"},{"name":"羽ノ浦町岩脇","zip_code":"7791107"},{"name":"羽ノ浦町春日野","zip_code":"7791103"},{"name":"羽ノ浦町古毛","zip_code":"7791109"},{"name":"羽ノ浦町中庄","zip_code":"7791101"},{"name":"羽ノ浦町西春日野","zip_code":"7791104"},{"name":"羽ノ浦町古庄","zip_code":"7791105"},{"name":"羽ノ浦町宮倉","zip_code":"7791102"},{"name":"羽ノ浦町明見","zip_code":"7791108"},{"name":"原ケ崎町","zip_code":"7740008"},{"name":"畭町","zip_code":"7740003"},{"name":"日開野町","zip_code":"7740013"},{"name":"深瀬町","zip_code":"7715179"},{"name":"福井町","zip_code":"7791620"},{"name":"福村町","zip_code":"7740004"},{"name":"細野町","zip_code":"7715175"},{"name":"見能林町","zip_code":"7740017"},{"name":"向原町","zip_code":"7740005"},{"name":"柳島町","zip_code":"7740043"},{"name":"山口町","zip_code":"7791403"},{"name":"横見町","zip_code":"7740042"},{"name":"吉井町","zip_code":"7715172"},{"name":"領家町","zip_code":"7740011"}]},{"name":"吉野川市","divisions":[{"name":"鴨島町粟島","zip_code":"7760015"},{"name":"鴨島町飯尾","zip_code":"7760033"},{"name":"鴨島町牛島","zip_code":"7760001"},{"name":"鴨島町内原","zip_code":"7760003"},{"name":"鴨島町麻植塚","zip_code":"7760002"},{"name":"鴨島町上浦","zip_code":"7760037"},{"name":"鴨島町鴨島","zip_code":"7760010"},{"name":"鴨島町鴨島甲","zip_code":"7760011"},{"name":"鴨島町鴨島乙","zip_code":"7760012"},{"name":"鴨島町喜来","zip_code":"7760005"},{"name":"鴨島町喜来甲","zip_code":"7760006"},{"name":"鴨島町喜来乙","zip_code":"7760007"},{"name":"鴨島町呉郷団地","zip_code":"7760034"},{"name":"鴨島町山路","zip_code":"7760036"},{"name":"鴨島町敷地","zip_code":"7760031"},{"name":"鴨島町上下島","zip_code":"7760013"},{"name":"鴨島町知恵島","zip_code":"7760014"},{"name":"鴨島町中島","zip_code":"7760004"},{"name":"鴨島町西麻植","zip_code":"7760020"},{"name":"鴨島町樋山地","zip_code":"7760032"},{"name":"鴨島町森藤","zip_code":"7760035"},{"name":"川島町学","zip_code":"7793306"},{"name":"川島町川島","zip_code":"7793301"},{"name":"川島町桑村","zip_code":"7793303"},{"name":"川島町児島","zip_code":"7793305"},{"name":"川島町三ツ島","zip_code":"7793307"},{"name":"川島町宮島","zip_code":"7793304"},{"name":"川島町山田","zip_code":"7793302"},{"name":"美郷愛後","zip_code":"7793501"},{"name":"美郷穴地","zip_code":"7793501"},{"name":"美郷一野山","zip_code":"7793501"},{"name":"美郷恵美子","zip_code":"7793505"},{"name":"美郷大神","zip_code":"7793501"},{"name":"美郷大岸","zip_code":"7793502"},{"name":"美郷大佐古","zip_code":"7793502"},{"name":"美郷大鹿","zip_code":"7793505"},{"name":"美郷大野","zip_code":"7793505"},{"name":"美郷大平","zip_code":"7793501"},{"name":"美郷奥分","zip_code":"7793502"},{"name":"美郷奥丸","zip_code":"7793505"},{"name":"美郷柿谷","zip_code":"7793501"},{"name":"美郷樫平","zip_code":"7793502"},{"name":"美郷上谷","zip_code":"7793505"},{"name":"美郷川俣","zip_code":"7793503"},{"name":"美郷川向","zip_code":"7793502"},{"name":"美郷岸宗","zip_code":"7793502"},{"name":"美郷倉羅","zip_code":"7793501"},{"name":"美郷栗木","zip_code":"7793505"},{"name":"美郷来見坂","zip_code":"7793505"},{"name":"美郷暮石","zip_code":"7793505"},{"name":"美郷毛無","zip_code":"7793504"},{"name":"美郷古井","zip_code":"7793501"},{"name":"美郷小竹","zip_code":"7793502"},{"name":"美郷古土地","zip_code":"7793505"},{"name":"美郷木屋浦","zip_code":"7793505"},{"name":"美郷山王","zip_code":"7793505"},{"name":"美郷重野尾","zip_code":"7793501"},{"name":"美郷品野","zip_code":"7793503"},{"name":"美郷下浦","zip_code":"7793501"},{"name":"美郷下城戸","zip_code":"7793501"},{"name":"美郷下畠","zip_code":"7793502"},{"name":"美郷下林","zip_code":"7793502"},{"name":"美郷上戸峯","zip_code":"7793501"},{"name":"美郷菅草","zip_code":"7793505"},{"name":"美郷平","zip_code":"7793501"},{"name":"美郷高野尾","zip_code":"7793503"},{"name":"美郷滝ケ山","zip_code":"7793501"},{"name":"美郷竹屋敷","zip_code":"7793502"},{"name":"美郷田平","zip_code":"7793501"},{"name":"美郷立石","zip_code":"7793502"},{"name":"美郷谷向","zip_code":"7793502"},{"name":"美郷月野","zip_code":"7793505"},{"name":"美郷照尾","zip_code":"7793501"},{"name":"美郷土井ノ奥","zip_code":"7793504"},{"name":"美郷峠","zip_code":"7793504"},{"name":"美郷栩谷","zip_code":"7793505"},{"name":"美郷殿河","zip_code":"7793505"},{"name":"美郷土用地","zip_code":"7793505"},{"name":"美郷中筋","zip_code":"7793503"},{"name":"美郷中谷","zip_code":"7793505"},{"name":"美郷中畠","zip_code":"7793502"},{"name":"美郷中分","zip_code":"7793502"},{"name":"美郷中村中筋","zip_code":"7793502"},{"name":"美郷西條","zip_code":"7793502"},{"name":"美郷西谷","zip_code":"7793502"},{"name":"美郷西畠","zip_code":"7793502"},{"name":"美郷西槇山","zip_code":"7793502"},{"name":"美郷刷石","zip_code":"7793504"},{"name":"美郷花地","zip_code":"7793505"},{"name":"美郷張","zip_code":"7793501"},{"name":"美郷張峯","zip_code":"7793501"},{"name":"美郷日浦","zip_code":"7793502"},{"name":"美郷東","zip_code":"7793502"},{"name":"美郷東條","zip_code":"7793502"},{"name":"美郷東槇山","zip_code":"7793502"},{"name":"美郷東山峠","zip_code":"7793505"},{"name":"美郷槇山","zip_code":"7793502"},{"name":"美郷松尾","zip_code":"7793502"},{"name":"美郷丸山","zip_code":"7793505"},{"name":"美郷宮倉","zip_code":"7793501"},{"name":"美郷宗田","zip_code":"7793501"},{"name":"美郷矢ノ丸","zip_code":"7793502"},{"name":"美郷湯下","zip_code":"7793505"},{"name":"美郷湯殿","zip_code":"7793503"},{"name":"山川町青木","zip_code":"7793407"},{"name":"山川町赤岩","zip_code":"7793407"},{"name":"山川町赤刎","zip_code":"7793405"},{"name":"山川町朝日","zip_code":"7793407"},{"name":"山川町安楽寺","zip_code":"7793407"},{"name":"山川町石堂","zip_code":"7793401"},{"name":"山川町伊端穂","zip_code":"7793405"},{"name":"山川町市久保","zip_code":"7793404"},{"name":"山川町一里塚","zip_code":"7793404"},{"name":"山川町井上","zip_code":"7793405"},{"name":"山川町井傍","zip_code":"7793405"},{"name":"山川町忌部","zip_code":"7793402"},{"name":"山川町忌部山","zip_code":"7793402"},{"name":"山川町岩戸","zip_code":"7793402"},{"name":"山川町牛ノ子尾","zip_code":"7793405"},{"name":"山川町浦山","zip_code":"7793407"},{"name":"山川町恵下","zip_code":"7793401"},{"name":"山川町榎谷","zip_code":"7793406"},{"name":"山川町大内","zip_code":"7793406"},{"name":"山川町大須賀","zip_code":"7793404"},{"name":"山川町大塚","zip_code":"7793404"},{"name":"山川町大藤谷","zip_code":"7793405"},{"name":"山川町大峰","zip_code":"7793405"},{"name":"山川町大室","zip_code":"7793405"},{"name":"山川町麻掛","zip_code":"7793404"},{"name":"山川町翁喜台","zip_code":"7793401"},{"name":"山川町奥川田","zip_code":"7793406"},{"name":"山川町奥野井","zip_code":"7793406"},{"name":"山川町奥原","zip_code":"7793405"},{"name":"山川町皆瀬","zip_code":"7793406"},{"name":"山川町槻原","zip_code":"7793404"},{"name":"山川町柿木谷","zip_code":"7793405"},{"name":"山川町楮本","zip_code":"7793405"},{"name":"山川町春日","zip_code":"7793403"},{"name":"山川町片岸","zip_code":"7793405"},{"name":"山川町川田","zip_code":"7793404"},{"name":"山川町川田市","zip_code":"7793404"},{"name":"山川町川田天神","zip_code":"7793404"},{"name":"山川町川田八幡","zip_code":"7793405"},{"name":"山川町川東","zip_code":"7793401"},{"name":"山川町祗園","zip_code":"7793407"},{"name":"山川町北島","zip_code":"7793404"},{"name":"山川町北須賀","zip_code":"7793403"},{"name":"山川町木戸口","zip_code":"7793405"},{"name":"山川町楠根地","zip_code":"7793406"},{"name":"山川町雲宮","zip_code":"7793402"},{"name":"山川町黒岩","zip_code":"7793405"},{"name":"山川町桑内","zip_code":"7793406"},{"name":"山川町桑ノ峰","zip_code":"7793405"},{"name":"山川町高頭","zip_code":"7793405"},{"name":"山川町御饌免","zip_code":"7793405"},{"name":"山川町御旅館","zip_code":"7793405"},{"name":"山川町権現谷","zip_code":"7793405"},{"name":"山川町境谷","zip_code":"7793407"},{"name":"山川町坂口","zip_code":"7793405"},{"name":"山川町坂田","zip_code":"7793407"},{"name":"山川町貞田","zip_code":"7793405"},{"name":"山川町小路","zip_code":"7793405"},{"name":"山川町新田谷","zip_code":"7793407"},{"name":"山川町季邦","zip_code":"7793407"},{"name":"山川町住吉","zip_code":"7793401"},{"name":"山川町諏訪","zip_code":"7793403"},{"name":"山川町瀬津","zip_code":"7793405"},{"name":"山川町建石","zip_code":"7793401"},{"name":"山川町田ノ浦","zip_code":"7793405"},{"name":"山川町塚穴","zip_code":"7793405"},{"name":"山川町土仏西向","zip_code":"7793405"},{"name":"山川町鼓山","zip_code":"7793404"},{"name":"山川町津由谷","zip_code":"7793407"},{"name":"山川町堤外","zip_code":"7793403"},{"name":"山川町堤内","zip_code":"7793402"},{"name":"山川町天神","zip_code":"7793402"},{"name":"山川町天神佐古","zip_code":"7793405"},{"name":"山川町天王原","zip_code":"7793405"},{"name":"山川町土橋","zip_code":"7793405"},{"name":"山川町土橋ノ上","zip_code":"7793405"},{"name":"山川町中須賀","zip_code":"7793402"},{"name":"山川町中ノ郷","zip_code":"7793405"},{"name":"山川町流","zip_code":"7793402"},{"name":"山川町鍋倉","zip_code":"7793405"},{"name":"山川町西久保","zip_code":"7793402"},{"name":"山川町西ノ原","zip_code":"7793407"},{"name":"山川町西野峰","zip_code":"7793406"},{"name":"山川町西麓","zip_code":"7793402"},{"name":"山川町野宮谷","zip_code":"7793405"},{"name":"山川町旗見","zip_code":"7793407"},{"name":"山川町八ケ久保","zip_code":"7793405"},{"name":"山川町八幡","zip_code":"7793403"},{"name":"山川町榛木原","zip_code":"7793405"},{"name":"山川町東麓","zip_code":"7793402"},{"name":"山川町東麦原","zip_code":"7793407"},{"name":"山川町引地","zip_code":"7793404"},{"name":"山川町久宗","zip_code":"7793406"},{"name":"山川町日知利子","zip_code":"7793404"},{"name":"山川町一ツ石","zip_code":"7793405"},{"name":"山川町平山","zip_code":"7793405"},{"name":"山川町日鷲谷","zip_code":"7793405"},{"name":"山川町藤生","zip_code":"7793404"},{"name":"山川町舟戸","zip_code":"7793404"},{"name":"山川町古城","zip_code":"7793407"},{"name":"山川町前川","zip_code":"7793403"},{"name":"山川町町","zip_code":"7793401"},{"name":"山川町馬見尾","zip_code":"7793406"},{"name":"山川町丸山","zip_code":"7793407"},{"name":"山川町三島","zip_code":"7793403"},{"name":"山川町宮北","zip_code":"7793402"},{"name":"山川町宮地","zip_code":"7793407"},{"name":"山川町宮島","zip_code":"7793402"},{"name":"山川町宮谷","zip_code":"7793405"},{"name":"山川町迎坂","zip_code":"7793407"},{"name":"山川町麦原","zip_code":"7793407"},{"name":"山川町向坂","zip_code":"7793407"},{"name":"山川町村雲","zip_code":"7793405"},{"name":"山川町茂草","zip_code":"7793405"},{"name":"山川町矢落","zip_code":"7793405"},{"name":"山川町山路","zip_code":"7793402"},{"name":"山川町山ノ神","zip_code":"7793407"},{"name":"山川町木綿麻山","zip_code":"7793405"},{"name":"山川町湯立","zip_code":"7793404"},{"name":"山川町横走","zip_code":"7793407"},{"name":"山川町若宮","zip_code":"7793403"}]},{"name":"阿波市","divisions":[{"name":"阿波町赤坂","zip_code":"7711705"},{"name":"阿波町医王寺","zip_code":"7711705"},{"name":"阿波町伊沢市","zip_code":"7711701"},{"name":"阿波町伊沢田","zip_code":"7711703"},{"name":"阿波町伊沢谷東縁","zip_code":"7711704"},{"name":"阿波町伊勢","zip_code":"7711702"},{"name":"阿波町井出口","zip_code":"7711702"},{"name":"阿波町糸下","zip_code":"7711704"},{"name":"阿波町稲荷","zip_code":"7711702"},{"name":"阿波町芋場","zip_code":"7711704"},{"name":"阿波町居屋敷","zip_code":"7711705"},{"name":"阿波町岩津","zip_code":"7711706"},{"name":"阿波町植桜","zip_code":"7711706"},{"name":"阿波町梅川内","zip_code":"7711705"},{"name":"阿波町梅ノ木原","zip_code":"7711704"},{"name":"阿波町梅ノ東","zip_code":"7711704"},{"name":"阿波町王地","zip_code":"7711701"},{"name":"阿波町王子川","zip_code":"7711705"},{"name":"阿波町王地南","zip_code":"7711701"},{"name":"阿波町大久保","zip_code":"7711702"},{"name":"阿波町大坪","zip_code":"7711701"},{"name":"阿波町大原","zip_code":"7711701"},{"name":"阿波町大道北","zip_code":"7711703"},{"name":"阿波町大道南","zip_code":"7711701"},{"name":"阿波町岡地","zip_code":"7711703"},{"name":"阿波町小倉","zip_code":"7711704"},{"name":"阿波町乙岩津","zip_code":"7711706"},{"name":"阿波町柏谷左右","zip_code":"7711702"},{"name":"阿波町勝命","zip_code":"7711701"},{"name":"阿波町勝命北","zip_code":"7711701"},{"name":"阿波町亀底","zip_code":"7711704"},{"name":"阿波町川久保","zip_code":"7711705"},{"name":"阿波町川添","zip_code":"7711702"},{"name":"阿波町北岡","zip_code":"7711706"},{"name":"阿波町北久保","zip_code":"7711704"},{"name":"阿波町北五味知","zip_code":"7711704"},{"name":"阿波町北柴生","zip_code":"7711703"},{"name":"阿波町北整理","zip_code":"7711705"},{"name":"阿波町北西谷","zip_code":"7711706"},{"name":"阿波町北ノ名","zip_code":"7711702"},{"name":"阿波町北原","zip_code":"7711703"},{"name":"阿波町北正広","zip_code":"7711704"},{"name":"阿波町北山","zip_code":"7711705"},{"name":"阿波町庚申原","zip_code":"7711701"},{"name":"阿波町五明","zip_code":"7711705"},{"name":"阿波町桜ノ岡","zip_code":"7711705"},{"name":"阿波町寒風","zip_code":"7711705"},{"name":"阿波町山王","zip_code":"7711702"},{"name":"阿波町三本柳","zip_code":"7711706"},{"name":"阿波町四歩一","zip_code":"7711702"},{"name":"阿波町下喜来","zip_code":"7711701"},{"name":"阿波町下喜来南","zip_code":"7711701"},{"name":"阿波町下原","zip_code":"7711702"},{"name":"阿波町十善地","zip_code":"7711705"},{"name":"阿波町新開","zip_code":"7711701"},{"name":"阿波町真福寺","zip_code":"7711703"},{"name":"阿波町清原","zip_code":"7711701"},{"name":"阿波町善地","zip_code":"7711705"},{"name":"阿波町大次郎","zip_code":"7711702"},{"name":"阿波町高垣","zip_code":"7711705"},{"name":"阿波町立割","zip_code":"7711704"},{"name":"阿波町谷口","zip_code":"7711702"},{"name":"阿波町谷島","zip_code":"7711701"},{"name":"阿波町谷島北","zip_code":"7711701"},{"name":"阿波町綱懸","zip_code":"7711703"},{"name":"阿波町寺サコ","zip_code":"7711702"},{"name":"阿波町天西山","zip_code":"7711702"},{"name":"阿波町東条","zip_code":"7711703"},{"name":"阿波町栩ケ窪","zip_code":"7711705"},{"name":"阿波町中川原","zip_code":"7711706"},{"name":"阿波町中坪","zip_code":"7711706"},{"name":"阿波町中長峰","zip_code":"7711706"},{"name":"阿波町中原","zip_code":"7711703"},{"name":"阿波町西柴生","zip_code":"7711703"},{"name":"阿波町西島","zip_code":"7711706"},{"name":"阿波町西清原","zip_code":"7711701"},{"name":"阿波町西整理","zip_code":"7711706"},{"name":"阿波町西長峰","zip_code":"7711706"},{"name":"阿波町西ノ岡","zip_code":"7711702"},{"name":"阿波町西林","zip_code":"7711706"},{"name":"阿波町西原","zip_code":"7711703"},{"name":"阿波町西正広","zip_code":"7711704"},{"name":"阿波町野神","zip_code":"7711702"},{"name":"阿波町八丁原","zip_code":"7711704"},{"name":"阿波町馬場","zip_code":"7711705"},{"name":"阿波町東川原","zip_code":"7711706"},{"name":"阿波町東柴生","zip_code":"7711703"},{"name":"阿波町東島","zip_code":"7711706"},{"name":"阿波町東整理","zip_code":"7711706"},{"name":"阿波町東長峰","zip_code":"7711706"},{"name":"阿波町東原","zip_code":"7711703"},{"name":"阿波町東正広","zip_code":"7711704"},{"name":"阿波町東村","zip_code":"7711706"},{"name":"阿波町引地","zip_code":"7711704"},{"name":"阿波町久原","zip_code":"7711702"},{"name":"阿波町日吉谷","zip_code":"7711705"},{"name":"阿波町広野","zip_code":"7711704"},{"name":"阿波町平川原北","zip_code":"7711701"},{"name":"阿波町平川原南","zip_code":"7711701"},{"name":"阿波町本町","zip_code":"7711702"},{"name":"阿波町本安","zip_code":"7711702"},{"name":"阿波町前島","zip_code":"7711703"},{"name":"阿波町真重","zip_code":"7711704"},{"name":"阿波町松川内","zip_code":"7711705"},{"name":"阿波町丸山","zip_code":"7711703"},{"name":"阿波町南川原","zip_code":"7711706"},{"name":"阿波町南五味知","zip_code":"7711704"},{"name":"阿波町南柴生","zip_code":"7711703"},{"name":"阿波町南整理","zip_code":"7711706"},{"name":"阿波町南谷島","zip_code":"7711701"},{"name":"阿波町南西谷","zip_code":"7711706"},{"name":"阿波町元町","zip_code":"7711704"},{"name":"阿波町森沢","zip_code":"7711702"},{"name":"阿波町安政","zip_code":"7711702"},{"name":"阿波町山尻","zip_code":"7711702"},{"name":"阿波町山ノ神","zip_code":"7711704"},{"name":"阿波町早田","zip_code":"7711702"},{"name":"市場町市場","zip_code":"7711602"},{"name":"市場町伊月","zip_code":"7711626"},{"name":"市場町犬墓","zip_code":"7711714"},{"name":"市場町大影","zip_code":"7711615"},{"name":"市場町大野島","zip_code":"7711627"},{"name":"市場町大俣","zip_code":"7711613"},{"name":"市場町尾開","zip_code":"7711621"},{"name":"市場町香美","zip_code":"7711611"},{"name":"市場町上喜来","zip_code":"7711612"},{"name":"市場町切幡","zip_code":"7711623"},{"name":"市場町興崎","zip_code":"7711622"},{"name":"市場町日開谷","zip_code":"7711616"},{"name":"市場町山野上","zip_code":"7711624"},{"name":"市場町八幡","zip_code":"7711625"},{"name":"土成町秋月","zip_code":"7711501"},{"name":"土成町浦池","zip_code":"7711503"},{"name":"土成町郡","zip_code":"7711505"},{"name":"土成町高尾","zip_code":"7711509"},{"name":"土成町土成","zip_code":"7711506"},{"name":"土成町成当","zip_code":"7711504"},{"name":"土成町水田","zip_code":"7711502"},{"name":"土成町宮川内","zip_code":"7711508"},{"name":"土成町吉田","zip_code":"7711507"},{"name":"吉野町柿原","zip_code":"7711401"},{"name":"吉野町五条","zip_code":"7711403"},{"name":"吉野町西条","zip_code":"7711402"}]},{"name":"美馬市","divisions":[{"name":"穴吹町穴吹","zip_code":"7770005"},{"name":"穴吹町口山","zip_code":"7770006"},{"name":"穴吹町古宮","zip_code":"7770007"},{"name":"穴吹町三島","zip_code":"7770004"},{"name":"木屋平","zip_code":"7770302"},{"name":"美馬町","zip_code":"7712107"},{"name":"脇町猪尻","zip_code":"7793604"},{"name":"脇町岩倉","zip_code":"7793620"},{"name":"脇町上ノ原","zip_code":"7793620"},{"name":"脇町馬木","zip_code":"7793620"},{"name":"脇町脇町","zip_code":"7793610"},{"name":"脇町川原町","zip_code":"7793620"},{"name":"脇町木ノ内","zip_code":"7793620"},{"name":"脇町新町","zip_code":"7793620"},{"name":"脇町助松","zip_code":"7793620"},{"name":"脇町田上","zip_code":"7793620"},{"name":"脇町野村","zip_code":"7793620"},{"name":"脇町別所","zip_code":"7793620"},{"name":"脇町","zip_code":"7793633"}]},{"name":"三好市","divisions":[{"name":"井川町旭町","zip_code":"7794801"},{"name":"井川町井内西","zip_code":"7794805"},{"name":"井川町井内東","zip_code":"7794804"},{"name":"井川町井関","zip_code":"7794802"},{"name":"井川町大佐古","zip_code":"7794801"},{"name":"井川町岡野前","zip_code":"7794802"},{"name":"井川町片山","zip_code":"7794801"},{"name":"井川町御領田","zip_code":"7794802"},{"name":"井川町才長谷","zip_code":"7794801"},{"name":"井川町里川","zip_code":"7794807"},{"name":"井川町島","zip_code":"7794803"},{"name":"井川町新町","zip_code":"7794801"},{"name":"井川町タクミ田","zip_code":"7794803"},{"name":"井川町田中","zip_code":"7794803"},{"name":"井川町辻","zip_code":"7794801"},{"name":"井川町中岡","zip_code":"7794803"},{"name":"井川町仲ノ町","zip_code":"7794801"},{"name":"井川町中村西","zip_code":"7794803"},{"name":"井川町中村東","zip_code":"7794803"},{"name":"井川町中村南","zip_code":"7794803"},{"name":"井川町流堂","zip_code":"7794802"},{"name":"井川町西井川","zip_code":"7794806"},{"name":"井川町野津後","zip_code":"7794802"},{"name":"井川町野津後流","zip_code":"7794803"},{"name":"井川町八幡","zip_code":"7794803"},{"name":"井川町浜西","zip_code":"7794801"},{"name":"井川町浜東","zip_code":"7794801"},{"name":"井川町本町","zip_code":"7794801"},{"name":"井川町向坂","zip_code":"7794802"},{"name":"井川町吉岡","zip_code":"7794803"},{"name":"池田町イケミナミ","zip_code":"7780012"},{"name":"池田町イタノ","zip_code":"7780014"},{"name":"池田町ウエノ","zip_code":"7780001"},{"name":"池田町ウエマツ","zip_code":"7780010"},{"name":"池田町馬路","zip_code":"7785252"},{"name":"池田町大利","zip_code":"7795164"},{"name":"池田町川崎","zip_code":"7795166"},{"name":"池田町クヤウジ","zip_code":"7780008"},{"name":"池田町佐野","zip_code":"7785253"},{"name":"池田町サラダ","zip_code":"7780003"},{"name":"池田町漆川","zip_code":"7795162"},{"name":"池田町シマ","zip_code":"7780005"},{"name":"池田町州津","zip_code":"7780020"},{"name":"池田町シンマチ","zip_code":"7780004"},{"name":"池田町シンヤマ","zip_code":"7780013"},{"name":"池田町トウゲ","zip_code":"7780006"},{"name":"池田町中津川","zip_code":"7795163"},{"name":"池田町中西","zip_code":"7795161"},{"name":"池田町西山","zip_code":"7780031"},{"name":"池田町白地","zip_code":"7785251"},{"name":"池田町ハヤシ","zip_code":"7780011"},{"name":"池田町マチ","zip_code":"7780002"},{"name":"池田町松尾","zip_code":"7780165"},{"name":"池田町ヤサン","zip_code":"7780009"},{"name":"池田町ヤマダ","zip_code":"7780007"},{"name":"西祖谷山村吾橋","zip_code":"7780104"},{"name":"西祖谷山村有瀬","zip_code":"7780103"},{"name":"西祖谷山村一宇","zip_code":"7780101"},{"name":"西祖谷山村今久保","zip_code":"7780102"},{"name":"西祖谷山村後山","zip_code":"7780105"},{"name":"西祖谷山村後山西","zip_code":"7780105"},{"name":"西祖谷山村後山向","zip_code":"7780105"},{"name":"西祖谷山村榎","zip_code":"7780104"},{"name":"西祖谷山村尾井ノ内","zip_code":"7780101"},{"name":"西祖谷山村小祖谷","zip_code":"7795172"},{"name":"西祖谷山村上吾橋","zip_code":"7780104"},{"name":"西祖谷山村閑定","zip_code":"7780102"},{"name":"西祖谷山村坂瀬","zip_code":"7795173"},{"name":"西祖谷山村重末","zip_code":"7780101"},{"name":"西祖谷山村下吾橋","zip_code":"7780104"},{"name":"西祖谷山村下名","zip_code":"7795171"},{"name":"西祖谷山村善徳","zip_code":"7780102"},{"name":"西祖谷山村田ノ内","zip_code":"7780101"},{"name":"西祖谷山村土日浦","zip_code":"7780104"},{"name":"西祖谷山村徳善","zip_code":"7780105"},{"name":"西祖谷山村徳善北","zip_code":"7780105"},{"name":"西祖谷山村徳善西","zip_code":"7780105"},{"name":"西祖谷山村戸ノ谷","zip_code":"7780101"},{"name":"西祖谷山村中尾","zip_code":"7780102"},{"name":"西祖谷山村西岡","zip_code":"7780105"},{"name":"西祖谷山村眠谷","zip_code":"7780101"},{"name":"西祖谷山村東西岡","zip_code":"7780105"},{"name":"西祖谷山村東山","zip_code":"7780104"},{"name":"西祖谷山村南山","zip_code":"7780104"},{"name":"西祖谷山村冥地","zip_code":"7780101"},{"name":"東祖谷阿佐","zip_code":"7780205"},{"name":"東祖谷今井","zip_code":"7780206"},{"name":"東祖谷大枝","zip_code":"7780204"},{"name":"東祖谷大西","zip_code":"7780204"},{"name":"東祖谷小川","zip_code":"7780205"},{"name":"東祖谷奥の井","zip_code":"7780203"},{"name":"東祖谷小島","zip_code":"7780206"},{"name":"東祖谷落合","zip_code":"7780202"},{"name":"東祖谷樫尾","zip_code":"7780205"},{"name":"東祖谷釜ケ谷","zip_code":"7780203"},{"name":"東祖谷京上","zip_code":"7780204"},{"name":"東祖谷九鬼","zip_code":"7780203"},{"name":"東祖谷久保","zip_code":"7780202"},{"name":"東祖谷栗枝渡","zip_code":"7780203"},{"name":"東祖谷古味","zip_code":"7780205"},{"name":"東祖谷佐野","zip_code":"7780206"},{"name":"東祖谷下瀬","zip_code":"7780203"},{"name":"東祖谷菅生","zip_code":"7780201"},{"name":"東祖谷高野","zip_code":"7780206"},{"name":"東祖谷釣井","zip_code":"7780206"},{"name":"東祖谷中上","zip_code":"7780203"},{"name":"東祖谷新居屋","zip_code":"7780205"},{"name":"東祖谷西山","zip_code":"7780203"},{"name":"東祖谷林","zip_code":"7780203"},{"name":"東祖谷見ノ越","zip_code":"7780201"},{"name":"東祖谷麦生土","zip_code":"7780205"},{"name":"東祖谷元井","zip_code":"7780205"},{"name":"東祖谷若林","zip_code":"7780204"},{"name":"東祖谷和田","zip_code":"7780206"},{"name":"三野町加茂野宮","zip_code":"7712302"},{"name":"三野町芝生","zip_code":"7712304"},{"name":"三野町清水","zip_code":"7712301"},{"name":"三野町勢力","zip_code":"7712303"},{"name":"三野町太刀野","zip_code":"7712305"},{"name":"三野町太刀野山","zip_code":"7712306"},{"name":"山城町相川","zip_code":"7795307"},{"name":"山城町赤谷","zip_code":"7795336"},{"name":"山城町粟山","zip_code":"7795328"},{"name":"山城町岩戸","zip_code":"7795314"},{"name":"山城町大川持","zip_code":"7795304"},{"name":"山城町大谷","zip_code":"7795342"},{"name":"山城町大月","zip_code":"7795347"},{"name":"山城町大野","zip_code":"7795333"},{"name":"山城町小川谷","zip_code":"7795332"},{"name":"山城町尾又","zip_code":"7795327"},{"name":"山城町上名","zip_code":"7795452"},{"name":"山城町川口","zip_code":"7795305"},{"name":"山城町国政","zip_code":"7795321"},{"name":"山城町黒川","zip_code":"7795313"},{"name":"山城町佐連","zip_code":"7785254"},{"name":"山城町重実","zip_code":"7795422"},{"name":"山城町柴川","zip_code":"7795343"},{"name":"山城町下川","zip_code":"7795303"},{"name":"山城町下名","zip_code":"7795453"},{"name":"山城町白川","zip_code":"7795324"},{"name":"山城町末貞","zip_code":"7795316"},{"name":"山城町瀬貝","zip_code":"7795345"},{"name":"山城町平野","zip_code":"7795337"},{"name":"山城町寺野","zip_code":"7795306"},{"name":"山城町中野","zip_code":"7795323"},{"name":"山城町中ノ瀬","zip_code":"7795311"},{"name":"山城町西宇","zip_code":"7795451"},{"name":"山城町信正","zip_code":"7795334"},{"name":"山城町八千坊","zip_code":"7795312"},{"name":"山城町引地","zip_code":"7795315"},{"name":"山城町仏子","zip_code":"7795326"},{"name":"山城町政友","zip_code":"7795344"},{"name":"山城町光兼","zip_code":"7795325"},{"name":"山城町茂地","zip_code":"7795331"},{"name":"山城町大和川","zip_code":"7795301"},{"name":"山城町頼広","zip_code":"7795335"},{"name":"山城町若山","zip_code":"7795302"},{"name":"山城町脇","zip_code":"7795346"}]},{"name":"勝浦郡勝浦町","divisions":[{"name":"生名","zip_code":"7714303"},{"name":"坂本","zip_code":"7714308"},{"name":"棚野","zip_code":"7714306"},{"name":"中角","zip_code":"7714302"},{"name":"沼江","zip_code":"7714301"},{"name":"久国","zip_code":"7714305"},{"name":"星谷","zip_code":"7714304"},{"name":"三渓","zip_code":"7714307"}]},{"name":"勝浦郡上勝町","divisions":[{"name":"旭","zip_code":"7714502"},{"name":"生実","zip_code":"7714503"},{"name":"福原","zip_code":"7714501"},{"name":"傍示","zip_code":"7714504"},{"name":"正木","zip_code":"7714505"}]},{"name":"名東郡佐那河内村","divisions":[{"name":"上","zip_code":"7714102"},{"name":"下","zip_code":"7714101"}]},{"name":"名西郡石井町","divisions":[{"name":"藍畑","zip_code":"7793213"},{"name":"石井","zip_code":"7793233"},{"name":"浦庄","zip_code":"7793245"},{"name":"高川原","zip_code":"7793226"},{"name":"高原","zip_code":"7793206"}]},{"name":"名西郡神山町","divisions":[{"name":"阿野","zip_code":"7713202"},{"name":"鬼籠野","zip_code":"7713203"},{"name":"上分","zip_code":"7713422"},{"name":"下分","zip_code":"7713421"},{"name":"神領","zip_code":"7713311"}]},{"name":"那賀郡那賀町","divisions":[{"name":"阿井","zip_code":"7715207"},{"name":"鮎川","zip_code":"7715403"},{"name":"相名","zip_code":"7715323"},{"name":"朝生","zip_code":"7715401"},{"name":"阿津江","zip_code":"7716101"},{"name":"出羽","zip_code":"7716103"},{"name":"井ノ谷","zip_code":"7715324"},{"name":"入野","zip_code":"7715405"},{"name":"岩倉","zip_code":"7716118"},{"name":"請ノ谷","zip_code":"7715328"},{"name":"牛輪","zip_code":"7715404"},{"name":"臼ケ谷","zip_code":"7715504"},{"name":"内山","zip_code":"7715326"},{"name":"馬路","zip_code":"7715321"},{"name":"榎谷","zip_code":"7715320"},{"name":"大久保","zip_code":"7715410"},{"name":"大戸","zip_code":"7715516"},{"name":"大殿","zip_code":"7716322"},{"name":"小畠","zip_code":"7716115"},{"name":"音谷","zip_code":"7715501"},{"name":"雄","zip_code":"7715407"},{"name":"海川","zip_code":"7716328"},{"name":"蔭谷","zip_code":"7715413"},{"name":"掛盤","zip_code":"7716107"},{"name":"川成","zip_code":"7716117"},{"name":"川俣","zip_code":"7715515"},{"name":"木頭","zip_code":"7716105"},{"name":"木頭出原","zip_code":"7716402"},{"name":"木頭折宇","zip_code":"7716511"},{"name":"木頭北川","zip_code":"7716512"},{"name":"木頭助","zip_code":"7716401"},{"name":"木頭西宇","zip_code":"7716405"},{"name":"木頭南宇","zip_code":"7716404"},{"name":"木頭和無田","zip_code":"7716403"},{"name":"木頭名","zip_code":"7716102"},{"name":"小泉","zip_code":"7716111"},{"name":"御所谷","zip_code":"7716324"},{"name":"小仁宇","zip_code":"7715209"},{"name":"小計","zip_code":"7715512"},{"name":"小浜","zip_code":"7715503"},{"name":"坂州","zip_code":"7716106"},{"name":"桜谷","zip_code":"7715502"},{"name":"沢谷","zip_code":"7716114"},{"name":"丈ケ谷","zip_code":"7716325"},{"name":"菖蒲","zip_code":"7715507"},{"name":"白石","zip_code":"7716323"},{"name":"高野","zip_code":"7716112"},{"name":"竹ケ谷","zip_code":"7715329"},{"name":"谷内","zip_code":"7715322"},{"name":"寺内","zip_code":"7716113"},{"name":"当山","zip_code":"7716104"},{"name":"土佐","zip_code":"7715202"},{"name":"長安","zip_code":"7715505"},{"name":"中山","zip_code":"7715204"},{"name":"成瀬","zip_code":"7716327"},{"name":"仁宇","zip_code":"7715208"},{"name":"西納","zip_code":"7715327"},{"name":"延野","zip_code":"7715406"},{"name":"拝宮","zip_code":"7715518"},{"name":"鉢","zip_code":"7715409"},{"name":"花瀬","zip_code":"7715532"},{"name":"日浦","zip_code":"7715531"},{"name":"東尾","zip_code":"7715508"},{"name":"桧曽根","zip_code":"7715506"},{"name":"日真","zip_code":"7715517"},{"name":"平谷","zip_code":"7716321"},{"name":"平野","zip_code":"7715325"},{"name":"深森","zip_code":"7715514"},{"name":"府殿","zip_code":"7716326"},{"name":"古屋","zip_code":"7715513"},{"name":"朴野","zip_code":"7715412"},{"name":"水崎","zip_code":"7715511"},{"name":"百合","zip_code":"7715206"},{"name":"百合谷","zip_code":"7715205"},{"name":"簗ノ上","zip_code":"7715402"},{"name":"横石","zip_code":"7715411"},{"name":"横谷","zip_code":"7716116"},{"name":"吉野","zip_code":"7715408"},{"name":"和食","zip_code":"7715201"},{"name":"和食郷","zip_code":"7715203"}]},{"name":"海部郡牟岐町","divisions":[{"name":"内妻","zip_code":"7750007"},{"name":"川長","zip_code":"7750004"},{"name":"河内","zip_code":"7750001"},{"name":"橘","zip_code":"7750002"},{"name":"中村","zip_code":"7750006"},{"name":"灘","zip_code":"7750005"},{"name":"辺川","zip_code":"7750003"},{"name":"牟岐浦","zip_code":"7750013"}]},{"name":"海部郡美波町","divisions":[{"name":"赤松","zip_code":"7792301"},{"name":"阿部","zip_code":"7792106"},{"name":"伊座利","zip_code":"7792107"},{"name":"恵比須浜","zip_code":"7792303"},{"name":"奥河内","zip_code":"7792305"},{"name":"木岐","zip_code":"7792108"},{"name":"北河内","zip_code":"7792302"},{"name":"志和岐","zip_code":"7792105"},{"name":"田井","zip_code":"7792109"},{"name":"西河内","zip_code":"7792306"},{"name":"西の地","zip_code":"7792103"},{"name":"西由岐","zip_code":"7792101"},{"name":"東由岐","zip_code":"7792104"},{"name":"日和佐浦","zip_code":"7792304"},{"name":"港町","zip_code":"7792102"},{"name":"山河内","zip_code":"7792307"}]},{"name":"海部郡海陽町","divisions":[{"name":"相川","zip_code":"7750415"},{"name":"浅川","zip_code":"7750101"},{"name":"大井","zip_code":"7750310"},{"name":"大里","zip_code":"7750203"},{"name":"小川","zip_code":"7750412"},{"name":"奥浦","zip_code":"7750302"},{"name":"尾崎","zip_code":"7750504"},{"name":"角坂","zip_code":"7750506"},{"name":"久尾","zip_code":"7750511"},{"name":"芥附","zip_code":"7750505"},{"name":"櫛川","zip_code":"7750306"},{"name":"久保","zip_code":"7750502"},{"name":"神野","zip_code":"7750413"},{"name":"小谷","zip_code":"7750508"},{"name":"塩深","zip_code":"7750509"},{"name":"宍喰浦","zip_code":"7750513"},{"name":"芝","zip_code":"7750307"},{"name":"四方原","zip_code":"7750202"},{"name":"熟田","zip_code":"7750206"},{"name":"高園","zip_code":"7750303"},{"name":"多良","zip_code":"7750204"},{"name":"富田","zip_code":"7750309"},{"name":"鞆浦","zip_code":"7750301"},{"name":"中山","zip_code":"7750305"},{"name":"野江","zip_code":"7750304"},{"name":"日比原","zip_code":"7750503"},{"name":"平井","zip_code":"7750411"},{"name":"広岡","zip_code":"7750507"},{"name":"船津","zip_code":"7750510"},{"name":"吉田","zip_code":"7750308"},{"name":"吉野","zip_code":"7750205"},{"name":"若松","zip_code":"7750414"}]},{"name":"板野郡松茂町","divisions":[{"name":"笹木野","zip_code":"7710219"},{"name":"住吉","zip_code":"7710218"},{"name":"豊岡","zip_code":"7710215"},{"name":"豊中","zip_code":"7710217"},{"name":"豊久","zip_code":"7710213"},{"name":"中喜来","zip_code":"7710212"},{"name":"長岸","zip_code":"7710211"},{"name":"長原","zip_code":"7710216"},{"name":"広島","zip_code":"7710220"},{"name":"満穂","zip_code":"7710214"}]},{"name":"板野郡北島町","divisions":[{"name":"江尻","zip_code":"7710205"},{"name":"北村","zip_code":"7710201"},{"name":"新喜来","zip_code":"7710207"},{"name":"鯛浜","zip_code":"7710204"},{"name":"高房","zip_code":"7710206"},{"name":"太郎八須","zip_code":"7710202"},{"name":"中村","zip_code":"7710203"}]},{"name":"板野郡藍住町","divisions":[{"name":"奥野","zip_code":"7711202"},{"name":"乙瀬","zip_code":"7711240"},{"name":"笠木","zip_code":"7711262"},{"name":"勝瑞","zip_code":"7711271"},{"name":"住吉","zip_code":"7711267"},{"name":"徳命","zip_code":"7711212"},{"name":"富吉","zip_code":"7711232"},{"name":"東中富","zip_code":"7711224"},{"name":"矢上","zip_code":"7711253"}]},{"name":"板野郡板野町","divisions":[{"name":"犬伏","zip_code":"7790108"},{"name":"大坂","zip_code":"7790101"},{"name":"大寺","zip_code":"7790106"},{"name":"川端","zip_code":"7790103"},{"name":"黒谷","zip_code":"7790113"},{"name":"下庄","zip_code":"7790118"},{"name":"唐園","zip_code":"7790116"},{"name":"中久保","zip_code":"7790117"},{"name":"那東","zip_code":"7790111"},{"name":"西中富","zip_code":"7790119"},{"name":"吹田","zip_code":"7790104"},{"name":"古城","zip_code":"7790107"},{"name":"松谷","zip_code":"7790112"},{"name":"矢武","zip_code":"7790115"},{"name":"羅漢","zip_code":"7790114"}]},{"name":"板野郡上板町","divisions":[{"name":"泉谷","zip_code":"7711310"},{"name":"鍛冶屋原","zip_code":"7711301"},{"name":"上六條","zip_code":"7711345"},{"name":"神宅","zip_code":"7711320"},{"name":"佐藤塚","zip_code":"7711342"},{"name":"椎本","zip_code":"7711343"},{"name":"七條","zip_code":"7711302"},{"name":"下六條","zip_code":"7711344"},{"name":"瀬部","zip_code":"7711350"},{"name":"第十新田","zip_code":"7711341"},{"name":"高磯","zip_code":"7711346"},{"name":"高瀬","zip_code":"7711347"},{"name":"西分","zip_code":"7711330"},{"name":"引野","zip_code":"7711311"}]},{"name":"美馬郡つるぎ町","divisions":[{"name":"一宇","zip_code":"7794302"},{"name":"貞光","zip_code":"7794101"},{"name":"半田","zip_code":"7794404"}]},{"name":"三好郡東みよし町","divisions":[{"name":"足代","zip_code":"7712502"},{"name":"加茂","zip_code":"7794701"},{"name":"毛田","zip_code":"7794707"},{"name":"中庄","zip_code":"7794704"},{"name":"西庄","zip_code":"7794702"},{"name":"東山","zip_code":"7712503"},{"name":"昼間","zip_code":"7712501"}]}]}