{"name":"香川県","cities":[{"name":"高松市","divisions":[{"name":"茜町","zip_code":"7600002"},{"name":"朝日新町","zip_code":"7600064"},{"name":"朝日町","zip_code":"7600065"},{"name":"庵治町","zip_code":"7610130"},{"name":"飯田町","zip_code":"7618033"},{"name":"生島町","zip_code":"7618002"},{"name":"井口町","zip_code":"7600038"},{"name":"池田町","zip_code":"7610444"},{"name":"一宮町","zip_code":"7618084"},{"name":"今里町","zip_code":"7600078"},{"name":"今新町","zip_code":"7600043"},{"name":"植松町","zip_code":"7618005"},{"name":"内町","zip_code":"7600034"},{"name":"円座町","zip_code":"7618044"},{"name":"扇町","zip_code":"7600013"},{"name":"太田上町","zip_code":"7618074"},{"name":"太田下町","zip_code":"7618073"},{"name":"岡本町","zip_code":"7618047"},{"name":"男木町","zip_code":"7600091"},{"name":"小村町","zip_code":"7610431"},{"name":"香川町浅野","zip_code":"7611703"},{"name":"香川町大野","zip_code":"7611701"},{"name":"香川町川内原","zip_code":"7611704"},{"name":"香川町川東上","zip_code":"7611706"},{"name":"香川町川東下","zip_code":"7611705"},{"name":"香川町寺井","zip_code":"7611702"},{"name":"香川町東谷","zip_code":"7611707"},{"name":"香川町安原下","zip_code":"7611708"},{"name":"鍛冶屋町","zip_code":"7600028"},{"name":"春日町","zip_code":"7610101"},{"name":"片原町","zip_code":"7600040"},{"name":"鹿角町","zip_code":"7618082"},{"name":"上天神町","zip_code":"7618056"},{"name":"上之町","zip_code":"7618064"},{"name":"上林町","zip_code":"7610302"},{"name":"上福岡町","zip_code":"7600077"},{"name":"紙町","zip_code":"7618055"},{"name":"亀井町","zip_code":"7600050"},{"name":"亀岡町","zip_code":"7600006"},{"name":"亀田町","zip_code":"7610323"},{"name":"亀田南町","zip_code":"7610432"},{"name":"川島東町","zip_code":"7610443"},{"name":"川島本町","zip_code":"7610442"},{"name":"川部町","zip_code":"7618046"},{"name":"瓦町","zip_code":"7600052"},{"name":"観光町","zip_code":"7600076"},{"name":"観光通","zip_code":"7600055"},{"name":"木太町","zip_code":"7600080"},{"name":"北浜町","zip_code":"7600031"},{"name":"鬼無町鬼無","zip_code":"7618026"},{"name":"鬼無町是竹","zip_code":"7618021"},{"name":"鬼無町佐藤","zip_code":"7618023"},{"name":"鬼無町佐料","zip_code":"7618022"},{"name":"鬼無町藤井","zip_code":"7618024"},{"name":"鬼無町山口","zip_code":"7618025"},{"name":"楠上町","zip_code":"7600075"},{"name":"香西東町","zip_code":"7618013"},{"name":"香西西町","zip_code":"7618015"},{"name":"香西南町","zip_code":"7618014"},{"name":"香西北町","zip_code":"7618011"},{"name":"香西本町","zip_code":"7618012"},{"name":"郷東町","zip_code":"7618031"},{"name":"香南町池内","zip_code":"7611405"},{"name":"香南町岡","zip_code":"7611401"},{"name":"香南町西庄","zip_code":"7611406"},{"name":"香南町由佐","zip_code":"7611402"},{"name":"香南町横井","zip_code":"7611404"},{"name":"香南町吉光","zip_code":"7611403"},{"name":"国分寺町柏原","zip_code":"7690105"},{"name":"国分寺町国分","zip_code":"7690102"},{"name":"国分寺町新名","zip_code":"7690104"},{"name":"国分寺町新居","zip_code":"7690101"},{"name":"国分寺町福家","zip_code":"7690103"},{"name":"寿町","zip_code":"7600023"},{"name":"御坊町","zip_code":"7600044"},{"name":"紺屋町","zip_code":"7600027"},{"name":"西宝町","zip_code":"7600004"},{"name":"幸町","zip_code":"7600016"},{"name":"桜町","zip_code":"7600074"},{"name":"三条町","zip_code":"7618072"},{"name":"サンポート","zip_code":"7600019"},{"name":"三名町","zip_code":"7618083"},{"name":"紫雲町","zip_code":"7600015"},{"name":"塩上町","zip_code":"7600062"},{"name":"塩江町上西乙","zip_code":"7611614"},{"name":"塩江町上西甲","zip_code":"7611613"},{"name":"塩江町安原上","zip_code":"7611611"},{"name":"塩江町安原上東","zip_code":"7611612"},{"name":"塩江町安原下","zip_code":"7611615"},{"name":"塩屋町","zip_code":"7600047"},{"name":"下田井町","zip_code":"7610313"},{"name":"出作町","zip_code":"7618077"},{"name":"城東町","zip_code":"7600036"},{"name":"昭和町","zip_code":"7600014"},{"name":"新北町","zip_code":"7600001"},{"name":"神在川窪町","zip_code":"7618003"},{"name":"新田町甲","zip_code":"7610102"},{"name":"新田町乙","zip_code":"7610103"},{"name":"末広町","zip_code":"7600060"},{"name":"菅沢町","zip_code":"7611616"},{"name":"瀬戸内町","zip_code":"7600012"},{"name":"十川東町","zip_code":"7610434"},{"name":"十川西町","zip_code":"7610433"},{"name":"高松町","zip_code":"7610104"},{"name":"多賀町","zip_code":"7600063"},{"name":"多肥上町","zip_code":"7618076"},{"name":"多肥下町","zip_code":"7618075"},{"name":"田町","zip_code":"7600053"},{"name":"玉藻町","zip_code":"7600030"},{"name":"田村町","zip_code":"7618057"},{"name":"亀水町","zip_code":"7618001"},{"name":"大工町","zip_code":"7600042"},{"name":"檀紙町","zip_code":"7618041"},{"name":"中央町","zip_code":"7600007"},{"name":"勅使町","zip_code":"7618058"},{"name":"築地町","zip_code":"7600061"},{"name":"鶴市町","zip_code":"7600093"},{"name":"鶴屋町","zip_code":"7600035"},{"name":"寺井町","zip_code":"7618085"},{"name":"天神前","zip_code":"7600018"},{"name":"通町","zip_code":"7600046"},{"name":"常磐町","zip_code":"7600054"},{"name":"磨屋町","zip_code":"7600026"},{"name":"中新町","zip_code":"7600056"},{"name":"中間町","zip_code":"7618043"},{"name":"中野町","zip_code":"7600008"},{"name":"中山町","zip_code":"7618004"},{"name":"成合町","zip_code":"7618081"},{"name":"西植田町","zip_code":"7610445"},{"name":"西内町","zip_code":"7600022"},{"name":"西春日町","zip_code":"7618051"},{"name":"錦町","zip_code":"7600020"},{"name":"西の丸町","zip_code":"7600021"},{"name":"西ハゼ町","zip_code":"7618053"},{"name":"西町","zip_code":"7600003"},{"name":"西山崎町","zip_code":"7618045"},{"name":"旅籠町","zip_code":"7600057"},{"name":"花園町","zip_code":"7600072"},{"name":"花ノ宮町","zip_code":"7618063"},{"name":"浜ノ町","zip_code":"7600011"},{"name":"林町","zip_code":"7610301"},{"name":"番町","zip_code":"7600017"},{"name":"東植田町","zip_code":"7610446"},{"name":"東田町","zip_code":"7600058"},{"name":"東ハゼ町","zip_code":"7618054"},{"name":"東浜町","zip_code":"7600037"},{"name":"東山崎町","zip_code":"7610312"},{"name":"百間町","zip_code":"7600041"},{"name":"兵庫町","zip_code":"7600024"},{"name":"福岡町","zip_code":"7600066"},{"name":"福田町","zip_code":"7600048"},{"name":"藤塚町","zip_code":"7600071"},{"name":"伏石町","zip_code":"7618071"},{"name":"古新町","zip_code":"7600025"},{"name":"古馬場町","zip_code":"7600045"},{"name":"仏生山町甲","zip_code":"7618078"},{"name":"仏生山町乙","zip_code":"7618079"},{"name":"本町","zip_code":"7600032"},{"name":"前田東町","zip_code":"7610322"},{"name":"前田西町","zip_code":"7610321"},{"name":"松島町","zip_code":"7600068"},{"name":"松並町","zip_code":"7618052"},{"name":"松縄町","zip_code":"7600079"},{"name":"松福町","zip_code":"7600067"},{"name":"丸亀町","zip_code":"7600029"},{"name":"丸の内","zip_code":"7600033"},{"name":"三谷町","zip_code":"7610450"},{"name":"南新町","zip_code":"7600051"},{"name":"峰山町","zip_code":"7600009"},{"name":"御厩町","zip_code":"7618042"},{"name":"宮脇町","zip_code":"7600005"},{"name":"牟礼町大町","zip_code":"7610122"},{"name":"牟礼町原","zip_code":"7610123"},{"name":"牟礼町牟礼","zip_code":"7610121"},{"name":"室新町","zip_code":"7618062"},{"name":"室町","zip_code":"7618061"},{"name":"女木町","zip_code":"7600092"},{"name":"元山町","zip_code":"7610311"},{"name":"八坂町","zip_code":"7600049"},{"name":"屋島中町","zip_code":"7610112"},{"name":"屋島東町","zip_code":"7610111"},{"name":"屋島西町","zip_code":"7610113"},{"name":"由良町","zip_code":"7610441"},{"name":"栗林町","zip_code":"7600073"},{"name":"六条町","zip_code":"7610303"}]},{"name":"丸亀市","divisions":[{"name":"綾歌町岡田上","zip_code":"7612401"},{"name":"綾歌町岡田下","zip_code":"7612402"},{"name":"綾歌町岡田東","zip_code":"7612404"},{"name":"綾歌町岡田西","zip_code":"7612403"},{"name":"綾歌町栗熊東","zip_code":"7612406"},{"name":"綾歌町栗熊西","zip_code":"7612405"},{"name":"綾歌町富熊","zip_code":"7612408"},{"name":"飯野町東二","zip_code":"7630084"},{"name":"飯野町東分","zip_code":"7630085"},{"name":"飯野町西分","zip_code":"7630086"},{"name":"一番丁","zip_code":"7630025"},{"name":"今津町","zip_code":"7630051"},{"name":"魚屋町","zip_code":"7630006"},{"name":"牛島","zip_code":"7630231"},{"name":"大手町","zip_code":"7630034"},{"name":"金倉町","zip_code":"7630053"},{"name":"葭町","zip_code":"7630003"},{"name":"川西町南","zip_code":"7630092"},{"name":"川西町北","zip_code":"7630091"},{"name":"瓦町","zip_code":"7630002"},{"name":"北平山町","zip_code":"7630015"},{"name":"柞原町","zip_code":"7630073"},{"name":"九番丁","zip_code":"7630029"},{"name":"郡家町","zip_code":"7630093"},{"name":"御供所町","zip_code":"7630014"},{"name":"米屋町","zip_code":"7630004"},{"name":"幸町","zip_code":"7630048"},{"name":"三条町","zip_code":"7630094"},{"name":"塩屋町","zip_code":"7630065"},{"name":"七番丁","zip_code":"7630027"},{"name":"十番丁","zip_code":"7630030"},{"name":"城東町","zip_code":"7630013"},{"name":"城南町","zip_code":"7630031"},{"name":"城西町","zip_code":"7630032"},{"name":"昭和町","zip_code":"7630061"},{"name":"塩飽町","zip_code":"7630024"},{"name":"新田町","zip_code":"7630055"},{"name":"新浜町","zip_code":"7630063"},{"name":"新町","zip_code":"7630045"},{"name":"宗古町","zip_code":"7630007"},{"name":"田村町","zip_code":"7630071"},{"name":"垂水町","zip_code":"7630095"},{"name":"津森町","zip_code":"7630052"},{"name":"手島町","zip_code":"7630111"},{"name":"天満町","zip_code":"7630066"},{"name":"通町","zip_code":"7630043"},{"name":"富屋町","zip_code":"7630021"},{"name":"土居町","zip_code":"7630012"},{"name":"土器町東","zip_code":"7630082"},{"name":"土器町西","zip_code":"7630081"},{"name":"土器町北","zip_code":"7630083"},{"name":"中津町","zip_code":"7630054"},{"name":"中府町","zip_code":"7630033"},{"name":"南条町","zip_code":"7630046"},{"name":"西平山町","zip_code":"7630041"},{"name":"西本町","zip_code":"7630047"},{"name":"八番丁","zip_code":"7630028"},{"name":"浜町","zip_code":"7630022"},{"name":"原田団地","zip_code":"7630075"},{"name":"原田町","zip_code":"7630074"},{"name":"飯山町上法軍寺","zip_code":"7620084"},{"name":"飯山町川原","zip_code":"7620082"},{"name":"飯山町真時","zip_code":"7620086"},{"name":"飯山町下法軍寺","zip_code":"7620083"},{"name":"飯山町西坂元","zip_code":"7620087"},{"name":"飯山町東小川","zip_code":"7620085"},{"name":"飯山町東坂元","zip_code":"7620081"},{"name":"広島町青木","zip_code":"7630105"},{"name":"広島町市井","zip_code":"7630106"},{"name":"広島町江の浦","zip_code":"7630102"},{"name":"広島町小手島","zip_code":"7630108"},{"name":"広島町釜の越","zip_code":"7630103"},{"name":"広島町甲路","zip_code":"7630104"},{"name":"広島町立石","zip_code":"7630101"},{"name":"広島町茂浦","zip_code":"7630107"},{"name":"福島町","zip_code":"7630044"},{"name":"富士見町","zip_code":"7630011"},{"name":"風袋町","zip_code":"7630001"},{"name":"蓬莱町","zip_code":"7630062"},{"name":"本島町生の浜","zip_code":"7630225"},{"name":"本島町大浦","zip_code":"7630228"},{"name":"本島町笠島","zip_code":"7630221"},{"name":"本島町甲生","zip_code":"7630222"},{"name":"本島町小阪","zip_code":"7630224"},{"name":"本島町尻浜","zip_code":"7630226"},{"name":"本島町泊","zip_code":"7630223"},{"name":"本島町福田","zip_code":"7630227"},{"name":"本町","zip_code":"7630023"},{"name":"前塩屋町","zip_code":"7630064"},{"name":"松屋町","zip_code":"7630005"},{"name":"港町","zip_code":"7630042"},{"name":"山北町","zip_code":"7630072"},{"name":"六番丁","zip_code":"7630026"}]},{"name":"坂出市","divisions":[{"name":"青葉町","zip_code":"7620037"},{"name":"旭町","zip_code":"7620006"},{"name":"池園町","zip_code":"7620035"},{"name":"入船町","zip_code":"7620002"},{"name":"岩黒","zip_code":"7620072"},{"name":"江尻町","zip_code":"7620011"},{"name":"王越町木沢","zip_code":"7620014"},{"name":"王越町乃生","zip_code":"7620013"},{"name":"青海町","zip_code":"7620016"},{"name":"大池町","zip_code":"7620027"},{"name":"大屋冨町","zip_code":"7620015"},{"name":"沖の浜","zip_code":"7620052"},{"name":"笠指町","zip_code":"7620038"},{"name":"加茂町甲","zip_code":"7620022"},{"name":"加茂町","zip_code":"7620023"},{"name":"川崎町","zip_code":"7620062"},{"name":"川津町","zip_code":"7620025"},{"name":"神谷町","zip_code":"7620018"},{"name":"京町","zip_code":"7620001"},{"name":"久米町","zip_code":"7620003"},{"name":"寿町","zip_code":"7620043"},{"name":"御供所町","zip_code":"7620051"},{"name":"駒止町","zip_code":"7620032"},{"name":"小山町","zip_code":"7620026"},{"name":"坂出町","zip_code":"7620061"},{"name":"沙弥島","zip_code":"7620066"},{"name":"昭和町","zip_code":"7620004"},{"name":"白金町","zip_code":"7620042"},{"name":"新浜町","zip_code":"7620047"},{"name":"瀬居町","zip_code":"7620067"},{"name":"高屋町","zip_code":"7620017"},{"name":"谷町","zip_code":"7620033"},{"name":"築港町","zip_code":"7620055"},{"name":"中央町","zip_code":"7620056"},{"name":"常盤町","zip_code":"7620058"},{"name":"西大浜南","zip_code":"7620054"},{"name":"西大浜北","zip_code":"7620053"},{"name":"西庄町","zip_code":"7620021"},{"name":"八幡町","zip_code":"7620041"},{"name":"花町","zip_code":"7620036"},{"name":"林田町","zip_code":"7620012"},{"name":"番の州公園","zip_code":"7620063"},{"name":"番の州町","zip_code":"7620064"},{"name":"番の州緑町","zip_code":"7620065"},{"name":"櫃石","zip_code":"7620073"},{"name":"福江町","zip_code":"7620034"},{"name":"富士見町","zip_code":"7620046"},{"name":"府中町","zip_code":"7620024"},{"name":"文京町","zip_code":"7620031"},{"name":"本町","zip_code":"7620044"},{"name":"宮下町","zip_code":"7620057"},{"name":"室町","zip_code":"7620007"},{"name":"元町","zip_code":"7620045"},{"name":"横津町","zip_code":"7620005"},{"name":"与島町","zip_code":"7620071"}]},{"name":"善通寺市","divisions":[{"name":"生野町","zip_code":"7650053"},{"name":"生野本町","zip_code":"7650014"},{"name":"稲木町","zip_code":"7650022"},{"name":"大麻町","zip_code":"7650052"},{"name":"上吉田町","zip_code":"7650011"},{"name":"木徳町","zip_code":"7650033"},{"name":"櫛梨町","zip_code":"7650051"},{"name":"金蔵寺町","zip_code":"7650031"},{"name":"下吉田町","zip_code":"7650021"},{"name":"善通寺町","zip_code":"7650003"},{"name":"仙遊町","zip_code":"7650001"},{"name":"中村町","zip_code":"7650072"},{"name":"原田町","zip_code":"7650032"},{"name":"碑殿町","zip_code":"7650062"},{"name":"弘田町","zip_code":"7650071"},{"name":"文京町","zip_code":"7650013"},{"name":"南町","zip_code":"7650002"},{"name":"与北町","zip_code":"7650040"},{"name":"吉原町","zip_code":"7650061"}]},{"name":"観音寺市","divisions":[{"name":"有明町","zip_code":"7680062"},{"name":"粟井町","zip_code":"7680052"},{"name":"池之尻町","zip_code":"7680031"},{"name":"伊吹町","zip_code":"7680071"},{"name":"植田町","zip_code":"7680012"},{"name":"大野原町青岡","zip_code":"7691617"},{"name":"大野原町有木","zip_code":"7691624"},{"name":"大野原町井関","zip_code":"7691621"},{"name":"大野原町内野々","zip_code":"7691622"},{"name":"大野原町海老済","zip_code":"7691625"},{"name":"大野原町大野原","zip_code":"7691611"},{"name":"大野原町田野々","zip_code":"7691623"},{"name":"大野原町中姫","zip_code":"7691612"},{"name":"大野原町萩原","zip_code":"7691614"},{"name":"大野原町花稲","zip_code":"7691613"},{"name":"大野原町福田原","zip_code":"7691616"},{"name":"大野原町丸井","zip_code":"7691615"},{"name":"観音寺町","zip_code":"7680060"},{"name":"木之郷町","zip_code":"7680051"},{"name":"柞田町","zip_code":"7680040"},{"name":"琴浪町","zip_code":"7680064"},{"name":"幸町","zip_code":"7680074"},{"name":"栄町","zip_code":"7680072"},{"name":"坂本町","zip_code":"7680067"},{"name":"三本松町","zip_code":"7680063"},{"name":"茂木町","zip_code":"7680069"},{"name":"茂西町","zip_code":"7680073"},{"name":"出作町","zip_code":"7680011"},{"name":"昭和町","zip_code":"7680066"},{"name":"新田町","zip_code":"7680033"},{"name":"瀬戸町","zip_code":"7680065"},{"name":"高屋町","zip_code":"7680002"},{"name":"天神町","zip_code":"7680068"},{"name":"豊浜町姫浜","zip_code":"7691601"},{"name":"豊浜町箕浦","zip_code":"7691604"},{"name":"豊浜町和田","zip_code":"7691603"},{"name":"豊浜町和田浜","zip_code":"7691602"},{"name":"中田井町","zip_code":"7680024"},{"name":"流岡町","zip_code":"7680014"},{"name":"西本町","zip_code":"7680075"},{"name":"原町","zip_code":"7680032"},{"name":"古川町","zip_code":"7680023"},{"name":"港町","zip_code":"7680076"},{"name":"南町","zip_code":"7680070"},{"name":"村黒町","zip_code":"7680013"},{"name":"室本町","zip_code":"7680001"},{"name":"本大町","zip_code":"7680022"},{"name":"八幡町","zip_code":"7680061"},{"name":"吉岡町","zip_code":"7680021"}]},{"name":"さぬき市","divisions":[{"name":"大川町田面","zip_code":"7610904"},{"name":"大川町富田中","zip_code":"7610902"},{"name":"大川町富田西","zip_code":"7610901"},{"name":"大川町富田東","zip_code":"7610903"},{"name":"大川町南川","zip_code":"7610905"},{"name":"小田","zip_code":"7692103"},{"name":"鴨部","zip_code":"7692104"},{"name":"鴨庄","zip_code":"7692102"},{"name":"寒川町石田西","zip_code":"7692322"},{"name":"寒川町石田東","zip_code":"7692321"},{"name":"寒川町神前","zip_code":"7692323"},{"name":"志度","zip_code":"7692101"},{"name":"昭和","zip_code":"7692304"},{"name":"末","zip_code":"7692105"},{"name":"造田","zip_code":"7692315"},{"name":"造田乙井","zip_code":"7692314"},{"name":"造田是弘","zip_code":"7692312"},{"name":"造田野間田","zip_code":"7692313"},{"name":"造田宮西","zip_code":"7692311"},{"name":"多和","zip_code":"7692306"},{"name":"津田町津田","zip_code":"7692401"},{"name":"津田町鶴羽","zip_code":"7692402"},{"name":"長尾西","zip_code":"7692302"},{"name":"長尾東","zip_code":"7692301"},{"name":"長尾名","zip_code":"7692303"},{"name":"前山","zip_code":"7692305"}]},{"name":"東かがわ市","divisions":[{"name":"伊座","zip_code":"7692703"},{"name":"馬篠","zip_code":"7692520"},{"name":"馬宿","zip_code":"7692902"},{"name":"小海","zip_code":"7692908"},{"name":"大谷","zip_code":"7692513"},{"name":"大内","zip_code":"7692521"},{"name":"落合","zip_code":"7692512"},{"name":"川東","zip_code":"7692602"},{"name":"川股","zip_code":"7692906"},{"name":"帰来","zip_code":"7692704"},{"name":"黒羽","zip_code":"7692905"},{"name":"小磯","zip_code":"7692511"},{"name":"小砂","zip_code":"7692519"},{"name":"五名","zip_code":"7692715"},{"name":"坂元","zip_code":"7692904"},{"name":"三本松","zip_code":"7692601"},{"name":"白鳥","zip_code":"7692705"},{"name":"土居","zip_code":"7692516"},{"name":"中筋","zip_code":"7692605"},{"name":"中山","zip_code":"7692518"},{"name":"西村","zip_code":"7692604"},{"name":"西山","zip_code":"7692712"},{"name":"入野山","zip_code":"7692714"},{"name":"東山","zip_code":"7692711"},{"name":"引田","zip_code":"7692901"},{"name":"町田","zip_code":"7692515"},{"name":"松崎","zip_code":"7692514"},{"name":"松原","zip_code":"7692702"},{"name":"水主","zip_code":"7692606"},{"name":"三殿","zip_code":"7692517"},{"name":"湊","zip_code":"7692701"},{"name":"南野","zip_code":"7692903"},{"name":"横内","zip_code":"7692603"},{"name":"吉田","zip_code":"7692907"},{"name":"与田山","zip_code":"7692713"}]},{"name":"三豊市","divisions":[{"name":"財田町財田上","zip_code":"7690401"},{"name":"財田町財田中","zip_code":"7690402"},{"name":"高瀬町上麻","zip_code":"7670014"},{"name":"高瀬町上勝間","zip_code":"7670012"},{"name":"高瀬町上高瀬","zip_code":"7670001"},{"name":"高瀬町佐股","zip_code":"7670021"},{"name":"高瀬町下麻","zip_code":"7670013"},{"name":"高瀬町下勝間","zip_code":"7670011"},{"name":"高瀬町新名","zip_code":"7670002"},{"name":"高瀬町羽方","zip_code":"7670022"},{"name":"高瀬町比地","zip_code":"7670004"},{"name":"高瀬町比地中","zip_code":"7670003"},{"name":"詫間町粟島","zip_code":"7691108"},{"name":"詫間町大浜","zip_code":"7691104"},{"name":"詫間町香田","zip_code":"7691103"},{"name":"詫間町志々島","zip_code":"7691109"},{"name":"詫間町詫間","zip_code":"7691101"},{"name":"詫間町積","zip_code":"7691105"},{"name":"詫間町生里","zip_code":"7691107"},{"name":"詫間町箱","zip_code":"7691106"},{"name":"詫間町松崎","zip_code":"7691102"},{"name":"豊中町岡本","zip_code":"7691507"},{"name":"豊中町笠田笠岡","zip_code":"7691502"},{"name":"豊中町笠田竹田","zip_code":"7691503"},{"name":"豊中町上高野","zip_code":"7691504"},{"name":"豊中町下高野","zip_code":"7691508"},{"name":"豊中町比地大","zip_code":"7691501"},{"name":"豊中町本山乙","zip_code":"7691505"},{"name":"豊中町本山甲","zip_code":"7691506"},{"name":"仁尾町家の浦","zip_code":"7691410"},{"name":"仁尾町仁尾乙","zip_code":"7691404"},{"name":"仁尾町仁尾己","zip_code":"7691401"},{"name":"仁尾町仁尾甲","zip_code":"7691408"},{"name":"仁尾町仁尾庚","zip_code":"7691405"},{"name":"仁尾町仁尾辛","zip_code":"7691406"},{"name":"仁尾町仁尾丁","zip_code":"7691407"},{"name":"仁尾町仁尾丙","zip_code":"7691403"},{"name":"仁尾町仁尾戊","zip_code":"7691402"},{"name":"三野町大見","zip_code":"7670031"},{"name":"三野町下高瀬","zip_code":"7670032"},{"name":"三野町吉津","zip_code":"7670033"},{"name":"山本町大野","zip_code":"7680102"},{"name":"山本町神田","zip_code":"7680104"},{"name":"山本町河内","zip_code":"7680105"},{"name":"山本町財田西","zip_code":"7680103"},{"name":"山本町辻","zip_code":"7680101"}]},{"name":"小豆郡土庄町","divisions":[{"name":"伊喜末","zip_code":"7614664"},{"name":"馬越","zip_code":"7614141"},{"name":"小江","zip_code":"7614132"},{"name":"大部","zip_code":"7614145"},{"name":"小海","zip_code":"7614144"},{"name":"笠滝","zip_code":"7614154"},{"name":"上庄","zip_code":"7614122"},{"name":"黒岩","zip_code":"7614152"},{"name":"小馬越","zip_code":"7614153"},{"name":"小部","zip_code":"7614146"},{"name":"滝宮","zip_code":"7614134"},{"name":"豊島家浦","zip_code":"7614661"},{"name":"豊島唐櫃","zip_code":"7614662"},{"name":"豊島甲生","zip_code":"7614663"},{"name":"長浜","zip_code":"7614133"},{"name":"肥土山","zip_code":"7614151"},{"name":"渕崎","zip_code":"7614121"},{"name":"見目","zip_code":"7614143"},{"name":"屋形崎","zip_code":"7614142"}]},{"name":"小豆郡小豆島町","divisions":[{"name":"当浜","zip_code":"7614403"},{"name":"池田","zip_code":"7614301"},{"name":"岩谷","zip_code":"7614404"},{"name":"馬木","zip_code":"7614426"},{"name":"片城","zip_code":"7614431"},{"name":"蒲野","zip_code":"7614307"},{"name":"蒲生","zip_code":"7614302"},{"name":"神懸通","zip_code":"7614433"},{"name":"木庄","zip_code":"7614412"},{"name":"草壁本町","zip_code":"7614432"},{"name":"神浦","zip_code":"7614308"},{"name":"坂手","zip_code":"7614425"},{"name":"橘","zip_code":"7614405"},{"name":"田浦","zip_code":"7614424"},{"name":"中山","zip_code":"7614155"},{"name":"西村","zip_code":"7614434"},{"name":"苗羽","zip_code":"7614421"},{"name":"福田","zip_code":"7614402"},{"name":"二面","zip_code":"7614305"},{"name":"古江","zip_code":"7614422"},{"name":"堀越","zip_code":"7614423"},{"name":"室生","zip_code":"7614304"},{"name":"安田","zip_code":"7614411"},{"name":"吉田","zip_code":"7614401"},{"name":"吉野","zip_code":"7614306"}]},{"name":"木田郡三木町","divisions":[{"name":"朝倉","zip_code":"7610614"},{"name":"池戸","zip_code":"7610701"},{"name":"井戸","zip_code":"7610823"},{"name":"井上","zip_code":"7610705"},{"name":"奥山","zip_code":"7610822"},{"name":"鹿庭","zip_code":"7610821"},{"name":"上高岡","zip_code":"7610613"},{"name":"小蓑","zip_code":"7610615"},{"name":"鹿伏","zip_code":"7610703"},{"name":"下高岡","zip_code":"7610704"},{"name":"田中","zip_code":"7610611"},{"name":"氷上","zip_code":"7610612"},{"name":"平木","zip_code":"7610702"}]},{"name":"香川郡直島町","divisions":[]},{"name":"綾歌郡宇多津町","divisions":[{"name":"岩屋","zip_code":"7690227"},{"name":"大橋","zip_code":"7690222"},{"name":"坂下","zip_code":"7690226"},{"name":"新開","zip_code":"7690223"},{"name":"新町","zip_code":"7690225"},{"name":"十楽寺","zip_code":"7690211"},{"name":"沼ノ池","zip_code":"7690212"},{"name":"浜一番丁","zip_code":"7690201"},{"name":"浜二番丁","zip_code":"7690202"},{"name":"浜三番丁","zip_code":"7690203"},{"name":"浜四番丁","zip_code":"7690204"},{"name":"浜五番丁","zip_code":"7690205"},{"name":"浜六番丁","zip_code":"7690206"},{"name":"浜七番丁","zip_code":"7690207"},{"name":"浜八番丁","zip_code":"7690208"},{"name":"浜九番丁","zip_code":"7690209"},{"name":"東分","zip_code":"7690213"},{"name":"平山","zip_code":"7690224"},{"name":"向山","zip_code":"7690228"},{"name":"吉田","zip_code":"7690221"}]},{"name":"綾歌郡綾川町","divisions":[{"name":"牛川","zip_code":"7612208"},{"name":"小野","zip_code":"7612307"},{"name":"萱原","zip_code":"7612304"},{"name":"北","zip_code":"7612306"},{"name":"陶","zip_code":"7612103"},{"name":"千疋","zip_code":"7612102"},{"name":"枌所西","zip_code":"7612202"},{"name":"枌所東","zip_code":"7612201"},{"name":"滝宮","zip_code":"7612305"},{"name":"西分","zip_code":"7612206"},{"name":"畑田","zip_code":"7612101"},{"name":"羽床上","zip_code":"7612207"},{"name":"羽床下","zip_code":"7612308"},{"name":"東分","zip_code":"7612205"},{"name":"山田上","zip_code":"7612203"},{"name":"山田下","zip_code":"7612204"}]},{"name":"仲多度郡琴平町","divisions":[{"name":"榎井","zip_code":"7660004"},{"name":"上櫛梨","zip_code":"7660006"},{"name":"琴平町","zip_code":"7660002"},{"name":"五條","zip_code":"7660003"},{"name":"下櫛梨","zip_code":"7660007"},{"name":"苗田","zip_code":"7660005"}]},{"name":"仲多度郡多度津町","divisions":[{"name":"青木","zip_code":"7640033"},{"name":"大通り","zip_code":"7640005"},{"name":"奥白方","zip_code":"7640035"},{"name":"葛原","zip_code":"7640028"},{"name":"家中","zip_code":"7640002"},{"name":"北鴨","zip_code":"7640022"},{"name":"京町","zip_code":"7640013"},{"name":"寿町","zip_code":"7640025"},{"name":"幸町","zip_code":"7640024"},{"name":"栄町","zip_code":"7640011"},{"name":"桜川","zip_code":"7640012"},{"name":"佐柳","zip_code":"7640040"},{"name":"庄","zip_code":"7640031"},{"name":"高見","zip_code":"7640050"},{"name":"道福寺","zip_code":"7640027"},{"name":"仲ノ町","zip_code":"7640004"},{"name":"西白方","zip_code":"7640037"},{"name":"西浜","zip_code":"7640015"},{"name":"西港町","zip_code":"7640017"},{"name":"東白方","zip_code":"7640038"},{"name":"東新町","zip_code":"7640001"},{"name":"東浜","zip_code":"7640016"},{"name":"東港町","zip_code":"7640018"},{"name":"日の出町","zip_code":"7640006"},{"name":"堀江","zip_code":"7640021"},{"name":"本通","zip_code":"7640014"},{"name":"三井","zip_code":"7640032"},{"name":"見立","zip_code":"7640036"},{"name":"南鴨","zip_code":"7640026"},{"name":"元町","zip_code":"7640003"},{"name":"山階","zip_code":"7640034"},{"name":"若葉町","zip_code":"7640023"}]},{"name":"仲多度郡まんのう町","divisions":[{"name":"生間","zip_code":"7690313"},{"name":"後山","zip_code":"7690315"},{"name":"追上","zip_code":"7690319"},{"name":"大口","zip_code":"7690316"},{"name":"買田","zip_code":"7690311"},{"name":"勝浦","zip_code":"7660204"},{"name":"川東","zip_code":"7660203"},{"name":"神野","zip_code":"7660024"},{"name":"岸上","zip_code":"7660026"},{"name":"公文","zip_code":"7660011"},{"name":"五條","zip_code":"7660027"},{"name":"佐文","zip_code":"7690301"},{"name":"塩入","zip_code":"7690302"},{"name":"四條","zip_code":"7660021"},{"name":"七箇","zip_code":"7690303"},{"name":"新目","zip_code":"7690317"},{"name":"炭所西","zip_code":"7660017"},{"name":"炭所東","zip_code":"7660016"},{"name":"造田","zip_code":"7660201"},{"name":"長尾","zip_code":"7660015"},{"name":"中通","zip_code":"7660202"},{"name":"西高篠","zip_code":"7660012"},{"name":"羽間","zip_code":"7660014"},{"name":"東高篠","zip_code":"7660013"},{"name":"帆山","zip_code":"7690314"},{"name":"真野","zip_code":"7660025"},{"name":"宮田","zip_code":"7690312"},{"name":"山脇","zip_code":"7690318"},{"name":"吉野","zip_code":"7660023"},{"name":"吉野下","zip_code":"7660022"}]}]}