{"name":"愛媛県","cities":[{"name":"松山市","divisions":[{"name":"愛光町","zip_code":"7900064"},{"name":"安居島","zip_code":"7992433"},{"name":"会津町","zip_code":"7918076"},{"name":"青波町","zip_code":"7910124"},{"name":"青葉台","zip_code":"7918019"},{"name":"浅海原","zip_code":"7992401"},{"name":"浅海本谷","zip_code":"7992402"},{"name":"朝日ケ丘","zip_code":"7918024"},{"name":"旭町","zip_code":"7900876"},{"name":"朝美","zip_code":"7918023"},{"name":"朝生田町","zip_code":"7900952"},{"name":"天山","zip_code":"7900951"},{"name":"天山町","zip_code":"7900951"},{"name":"粟井河原","zip_code":"7992463"},{"name":"安城寺町","zip_code":"7918006"},{"name":"居相","zip_code":"7900934"},{"name":"生石町","zip_code":"7900051"},{"name":"石手","zip_code":"7900852"},{"name":"石手白石","zip_code":"7900902"},{"name":"石風呂町","zip_code":"7918084"},{"name":"泉町","zip_code":"7900025"},{"name":"和泉南","zip_code":"7900941"},{"name":"磯河内","zip_code":"7992467"},{"name":"和泉北","zip_code":"7900038"},{"name":"市坪西町","zip_code":"7900948"},{"name":"市坪南","zip_code":"7900947"},{"name":"市坪北","zip_code":"7900946"},{"name":"一番町","zip_code":"7900001"},{"name":"井門町","zip_code":"7911114"},{"name":"猪木","zip_code":"7992416"},{"name":"今在家","zip_code":"7911106"},{"name":"今在家町","zip_code":"7911103"},{"name":"祝谷","zip_code":"7900833"},{"name":"祝谷東町","zip_code":"7900835"},{"name":"祝谷西町","zip_code":"7900832"},{"name":"祝谷町","zip_code":"7900834"},{"name":"岩崎町","zip_code":"7900854"},{"name":"院内","zip_code":"7992423"},{"name":"上野町","zip_code":"7911136"},{"name":"牛谷","zip_code":"7992446"},{"name":"内浜町","zip_code":"7918077"},{"name":"内宮町","zip_code":"7992654"},{"name":"馬木町","zip_code":"7992655"},{"name":"梅木町","zip_code":"7992643"},{"name":"梅田町","zip_code":"7918051"},{"name":"宇和間","zip_code":"7914506"},{"name":"永代町","zip_code":"7900022"},{"name":"枝松","zip_code":"7900962"},{"name":"恵原町","zip_code":"7911134"},{"name":"大井野町","zip_code":"7910134"},{"name":"大浦","zip_code":"7992408"},{"name":"大街道","zip_code":"7900004"},{"name":"大可賀","zip_code":"7918057"},{"name":"大手町","zip_code":"7900067"},{"name":"大西谷","zip_code":"7992458"},{"name":"大橋町","zip_code":"7911126"},{"name":"小川","zip_code":"7992468"},{"name":"尾儀原","zip_code":"7992418"},{"name":"小栗","zip_code":"7900036"},{"name":"小栗町","zip_code":"7900037"},{"name":"越智","zip_code":"7900933"},{"name":"小野町","zip_code":"7910241"},{"name":"小浜","zip_code":"7914502"},{"name":"小山田","zip_code":"7992410"},{"name":"恩地町","zip_code":"7992642"},{"name":"海岸通","zip_code":"7918058"},{"name":"春日町","zip_code":"7900024"},{"name":"上総町","zip_code":"7992644"},{"name":"片山","zip_code":"7992439"},{"name":"歩行町","zip_code":"7900801"},{"name":"勝岡町","zip_code":"7992661"},{"name":"勝山町","zip_code":"7900878"},{"name":"門田町","zip_code":"7918091"},{"name":"鹿峰","zip_code":"7992461"},{"name":"上伊台町","zip_code":"7910111"},{"name":"上市","zip_code":"7900853"},{"name":"上川原町","zip_code":"7911124"},{"name":"上高野町","zip_code":"7910103"},{"name":"上難波","zip_code":"7992405"},{"name":"上怒和","zip_code":"7914322"},{"name":"鴨川","zip_code":"7918004"},{"name":"鴨之池","zip_code":"7992466"},{"name":"萱町","zip_code":"7900813"},{"name":"河中町","zip_code":"7910132"},{"name":"川の郷町","zip_code":"7910129"},{"name":"河原町","zip_code":"7900013"},{"name":"神田町","zip_code":"7918063"},{"name":"祇園町","zip_code":"7900965"},{"name":"儀式","zip_code":"7992411"},{"name":"来住町","zip_code":"7911102"},{"name":"北井門","zip_code":"7911105"},{"name":"北梅本町","zip_code":"7910242"},{"name":"北久米町","zip_code":"7900923"},{"name":"北斎院町","zip_code":"7918031"},{"name":"北立花町","zip_code":"7900867"},{"name":"北土居","zip_code":"7911104"},{"name":"北藤原町","zip_code":"7900033"},{"name":"北持田町","zip_code":"7900873"},{"name":"北吉田町","zip_code":"7918041"},{"name":"衣山","zip_code":"7918025"},{"name":"客","zip_code":"7992454"},{"name":"木屋町","zip_code":"7900821"},{"name":"清住","zip_code":"7918055"},{"name":"喜与町","zip_code":"7900802"},{"name":"空港通","zip_code":"7900054"},{"name":"九川","zip_code":"7910150"},{"name":"久谷町","zip_code":"7911132"},{"name":"久保","zip_code":"7992462"},{"name":"久保田町","zip_code":"7918035"},{"name":"窪野町","zip_code":"7911131"},{"name":"熊田","zip_code":"7914507"},{"name":"久万ノ台","zip_code":"7918016"},{"name":"久米窪田町","zip_code":"7911101"},{"name":"桑原","zip_code":"7900911"},{"name":"河野高山","zip_code":"7992445"},{"name":"河野中須賀","zip_code":"7992438"},{"name":"河野別府","zip_code":"7992436"},{"name":"神浦","zip_code":"7914505"},{"name":"光洋台","zip_code":"7992469"},{"name":"小川谷","zip_code":"7992451"},{"name":"小坂","zip_code":"7900963"},{"name":"此花町","zip_code":"7900863"},{"name":"小村町","zip_code":"7911125"},{"name":"米野町","zip_code":"7910135"},{"name":"小屋町","zip_code":"7992645"},{"name":"権現町","zip_code":"7992653"},{"name":"才之原","zip_code":"7992417"},{"name":"桜ケ丘","zip_code":"7918072"},{"name":"桜谷町","zip_code":"7900838"},{"name":"佐古","zip_code":"7992447"},{"name":"猿川","zip_code":"7992415"},{"name":"猿川原","zip_code":"7992419"},{"name":"三町","zip_code":"7900914"},{"name":"三番町","zip_code":"7900003"},{"name":"食場町","zip_code":"7910104"},{"name":"志津川町","zip_code":"7918003"},{"name":"東雲町","zip_code":"7900803"},{"name":"清水町","zip_code":"7900823"},{"name":"下伊台町","zip_code":"7910112"},{"name":"下難波","zip_code":"7992407"},{"name":"宿野町","zip_code":"7910123"},{"name":"庄","zip_code":"7992404"},{"name":"正円寺","zip_code":"7900904"},{"name":"常光寺町","zip_code":"7900851"},{"name":"城山町","zip_code":"7992647"},{"name":"庄府","zip_code":"7992412"},{"name":"常保免","zip_code":"7992442"},{"name":"浄瑠璃町","zip_code":"7911133"},{"name":"昭和町","zip_code":"7900872"},{"name":"新石手","zip_code":"7900901"},{"name":"神次郎町","zip_code":"7992646"},{"name":"新立町","zip_code":"7900865"},{"name":"新浜町","zip_code":"7918083"},{"name":"末広町","zip_code":"7900023"},{"name":"末町","zip_code":"7910122"},{"name":"須賀町","zip_code":"7918052"},{"name":"杉立町","zip_code":"7910105"},{"name":"菅沢町","zip_code":"7992648"},{"name":"苞木","zip_code":"7992460"},{"name":"住吉","zip_code":"7918062"},{"name":"善応寺","zip_code":"7992443"},{"name":"太山寺町","zip_code":"7992662"},{"name":"高井町","zip_code":"7911111"},{"name":"高岡町","zip_code":"7918036"},{"name":"高木町","zip_code":"7918007"},{"name":"高砂町","zip_code":"7900822"},{"name":"高田","zip_code":"7992422"},{"name":"鷹子町","zip_code":"7900925"},{"name":"高野町","zip_code":"7910102"},{"name":"高浜町","zip_code":"7918081"},{"name":"高山町","zip_code":"7918079"},{"name":"滝本","zip_code":"7992416"},{"name":"拓川町","zip_code":"7900967"},{"name":"竹原","zip_code":"7900053"},{"name":"竹原町","zip_code":"7900052"},{"name":"立花","zip_code":"7900966"},{"name":"辰巳町","zip_code":"7918086"},{"name":"立岩米之野","zip_code":"7992413"},{"name":"立岩中村","zip_code":"7992414"},{"name":"谷町","zip_code":"7918002"},{"name":"玉谷町","zip_code":"7910126"},{"name":"樽味","zip_code":"7900905"},{"name":"千舟町","zip_code":"7900011"},{"name":"中央","zip_code":"7918015"},{"name":"束本","zip_code":"7900916"},{"name":"築山町","zip_code":"7900864"},{"name":"辻町","zip_code":"7900063"},{"name":"常竹","zip_code":"7992455"},{"name":"津吉町","zip_code":"7911122"},{"name":"津和地","zip_code":"7914324"},{"name":"出合","zip_code":"7900048"},{"name":"鉄砲町","zip_code":"7900827"},{"name":"土居田町","zip_code":"7900056"},{"name":"土居町","zip_code":"7911115"},{"name":"問屋町","zip_code":"7918018"},{"name":"道後一万","zip_code":"7900844"},{"name":"道後今市","zip_code":"7900845"},{"name":"道後北代","zip_code":"7900846"},{"name":"道後喜多町","zip_code":"7900848"},{"name":"道後公園","zip_code":"7900857"},{"name":"道後鷺谷町","zip_code":"7900836"},{"name":"道後多幸町","zip_code":"7900841"},{"name":"道後樋又","zip_code":"7900825"},{"name":"道後姫塚","zip_code":"7900858"},{"name":"道後緑台","zip_code":"7900847"},{"name":"道後湯月町","zip_code":"7900837"},{"name":"道後湯之町","zip_code":"7900842"},{"name":"土手内","zip_code":"7992432"},{"name":"道後町","zip_code":"7900843"},{"name":"土橋町","zip_code":"7900032"},{"name":"泊町","zip_code":"7918093"},{"name":"富久町","zip_code":"7918034"},{"name":"中一万町","zip_code":"7900804"},{"name":"中須賀","zip_code":"7918078"},{"name":"中野町","zip_code":"7911121"},{"name":"中村","zip_code":"7900964"},{"name":"永木町","zip_code":"7900866"},{"name":"長師","zip_code":"7914503"},{"name":"中島粟井","zip_code":"7914511"},{"name":"中島大浦","zip_code":"7914501"},{"name":"中通","zip_code":"7992406"},{"name":"中西内","zip_code":"7992426"},{"name":"中西外","zip_code":"7992425"},{"name":"夏目","zip_code":"7992437"},{"name":"西石井","zip_code":"7900931"},{"name":"西一万町","zip_code":"7900805"},{"name":"錦町","zip_code":"7900877"},{"name":"西谷","zip_code":"7992457"},{"name":"西長戸町","zip_code":"7918017"},{"name":"西野町","zip_code":"7911135"},{"name":"西垣生町","zip_code":"7918044"},{"name":"二番町","zip_code":"7900002"},{"name":"饒","zip_code":"7914509"},{"name":"野忽那","zip_code":"7914432"},{"name":"梅津寺町","zip_code":"7918082"},{"name":"萩原","zip_code":"7992403"},{"name":"白水台","zip_code":"7910113"},{"name":"畑寺","zip_code":"7900913"},{"name":"畑寺町","zip_code":"7900912"},{"name":"畑里","zip_code":"7914510"},{"name":"八反地","zip_code":"7992424"},{"name":"花園町","zip_code":"7900005"},{"name":"祓川","zip_code":"7918066"},{"name":"針田町","zip_code":"7900055"},{"name":"春美町","zip_code":"7918087"},{"name":"東石井","zip_code":"7900932"},{"name":"東一万町","zip_code":"7900871"},{"name":"東大栗町","zip_code":"7992649"},{"name":"東方町","zip_code":"7911123"},{"name":"東川町","zip_code":"7910133"},{"name":"東長戸","zip_code":"7918005"},{"name":"東野","zip_code":"7900903"},{"name":"東垣生町","zip_code":"7918043"},{"name":"東山町","zip_code":"7918074"},{"name":"日の出町","zip_code":"7900961"},{"name":"ひばりケ丘","zip_code":"7918075"},{"name":"姫原","zip_code":"7918012"},{"name":"平井町","zip_code":"7910243"},{"name":"平田町","zip_code":"7918001"},{"name":"平林","zip_code":"7992452"},{"name":"福音寺町","zip_code":"7900921"},{"name":"福角町","zip_code":"7992652"},{"name":"福見川町","zip_code":"7910128"},{"name":"藤野町","zip_code":"7910127"},{"name":"藤原","zip_code":"7900035"},{"name":"藤原町","zip_code":"7900034"},{"name":"二神","zip_code":"7914323"},{"name":"府中","zip_code":"7992435"},{"name":"船ケ谷町","zip_code":"7918073"},{"name":"麓","zip_code":"7992453"},{"name":"古川町","zip_code":"7900945"},{"name":"古川西","zip_code":"7900944"},{"name":"古川南","zip_code":"7900943"},{"name":"古川北","zip_code":"7900942"},{"name":"古三津","zip_code":"7918067"},{"name":"古三津町","zip_code":"7918067"},{"name":"文京町","zip_code":"7900826"},{"name":"平和通","zip_code":"7900807"},{"name":"別府町","zip_code":"7918056"},{"name":"北条","zip_code":"7992431"},{"name":"北条辻","zip_code":"7992430"},{"name":"保免上","zip_code":"7900041"},{"name":"保免中","zip_code":"7900042"},{"name":"保免西","zip_code":"7900043"},{"name":"星岡","zip_code":"7900922"},{"name":"星岡町","zip_code":"7900922"},{"name":"堀江町","zip_code":"7992651"},{"name":"堀之内","zip_code":"7900007"},{"name":"本谷","zip_code":"7992456"},{"name":"本町","zip_code":"7900811"},{"name":"正岡神田","zip_code":"7992421"},{"name":"松前町","zip_code":"7900812"},{"name":"真砂町","zip_code":"7900021"},{"name":"松江町","zip_code":"7918054"},{"name":"松末","zip_code":"7900915"},{"name":"松ノ木","zip_code":"7918071"},{"name":"丸之内","zip_code":"7900008"},{"name":"味酒町","zip_code":"7900814"},{"name":"美沢","zip_code":"7918022"},{"name":"三杉町","zip_code":"7918065"},{"name":"溝辺町","zip_code":"7910101"},{"name":"御宝町","zip_code":"7900875"},{"name":"三津","zip_code":"7918061"},{"name":"三津ふ頭","zip_code":"7918060"},{"name":"みどりケ丘","zip_code":"7918068"},{"name":"緑町","zip_code":"7900806"},{"name":"水泥町","zip_code":"7910244"},{"name":"水口町","zip_code":"7910131"},{"name":"湊町","zip_code":"7900012"},{"name":"港山町","zip_code":"7918085"},{"name":"南梅本町","zip_code":"7910245"},{"name":"南江戸","zip_code":"7900062"},{"name":"南江戸町","zip_code":"7900061"},{"name":"南久米町","zip_code":"7900924"},{"name":"南斎院町","zip_code":"7918032"},{"name":"南高井町","zip_code":"7911112"},{"name":"南土居町","zip_code":"7911116"},{"name":"南白水","zip_code":"7910114"},{"name":"南堀端町","zip_code":"7900006"},{"name":"南町","zip_code":"7900856"},{"name":"南持田町","zip_code":"7900874"},{"name":"南吉田町","zip_code":"7918042"},{"name":"宮内","zip_code":"7992441"},{"name":"宮田町","zip_code":"7900066"},{"name":"宮西","zip_code":"7900065"},{"name":"宮野","zip_code":"7914504"},{"name":"御幸","zip_code":"7900824"},{"name":"明神丘","zip_code":"7918027"},{"name":"睦月","zip_code":"7914431"},{"name":"室町","zip_code":"7900026"},{"name":"持田町","zip_code":"7900855"},{"name":"元怒和","zip_code":"7914321"},{"name":"元町","zip_code":"7918064"},{"name":"紅葉町","zip_code":"7900861"},{"name":"森松町","zip_code":"7911113"},{"name":"安岡","zip_code":"7992464"},{"name":"柳谷町","zip_code":"7992641"},{"name":"柳井町","zip_code":"7900014"},{"name":"柳原","zip_code":"7992434"},{"name":"山越","zip_code":"7918013"},{"name":"山越町","zip_code":"7918014"},{"name":"山田町","zip_code":"7900831"},{"name":"山西町","zip_code":"7918026"},{"name":"雄郡","zip_code":"7900031"},{"name":"湯の山","zip_code":"7910121"},{"name":"湯の山東","zip_code":"7910120"},{"name":"湯山柳","zip_code":"7910125"},{"name":"由良町","zip_code":"7918092"},{"name":"湯渡町","zip_code":"7900862"},{"name":"余戸中","zip_code":"7900045"},{"name":"余戸東","zip_code":"7900044"},{"name":"余戸西","zip_code":"7900046"},{"name":"余戸南","zip_code":"7900047"},{"name":"横谷","zip_code":"7992444"},{"name":"吉木","zip_code":"7914508"},{"name":"吉野町","zip_code":"7918069"},{"name":"吉藤","zip_code":"7918011"},{"name":"六軒家町","zip_code":"7918021"},{"name":"若草町","zip_code":"7900808"},{"name":"若葉町","zip_code":"7918053"},{"name":"和気町","zip_code":"7992656"},{"name":"和田","zip_code":"7992465"}]},{"name":"今治市","divisions":[{"name":"阿方","zip_code":"7940081"},{"name":"朝倉上","zip_code":"7991607"},{"name":"朝倉北","zip_code":"7991604"},{"name":"朝倉下","zip_code":"7991603"},{"name":"朝倉南乙","zip_code":"7991606"},{"name":"朝倉南甲","zip_code":"7991605"},{"name":"旭町","zip_code":"7940042"},{"name":"五十嵐","zip_code":"7940861"},{"name":"いこいの丘","zip_code":"7940085"},{"name":"石井町","zip_code":"7940006"},{"name":"石橋町","zip_code":"7940824"},{"name":"泉川町","zip_code":"7940057"},{"name":"今治村","zip_code":"7940014"},{"name":"内堀","zip_code":"7992116"},{"name":"馬越町","zip_code":"7940062"},{"name":"馬越二番耕地","zip_code":"7940061"},{"name":"馬島","zip_code":"7992123"},{"name":"枝堀町","zip_code":"7940035"},{"name":"恵美須町","zip_code":"7940031"},{"name":"延喜","zip_code":"7940084"},{"name":"大新田町","zip_code":"7940005"},{"name":"大西町大井浜","zip_code":"7992204"},{"name":"大西町九王","zip_code":"7992201"},{"name":"大西町紺原","zip_code":"7992202"},{"name":"大西町新町","zip_code":"7992203"},{"name":"大西町別府","zip_code":"7992209"},{"name":"大西町星浦","zip_code":"7992208"},{"name":"大西町宮脇","zip_code":"7992205"},{"name":"大西町山之内","zip_code":"7992207"},{"name":"大西町脇","zip_code":"7992206"},{"name":"大浜町","zip_code":"7940002"},{"name":"大三島町明日","zip_code":"7941303"},{"name":"大三島町台","zip_code":"7941305"},{"name":"大三島町浦戸","zip_code":"7941308"},{"name":"大三島町大見","zip_code":"7941302"},{"name":"大三島町口総","zip_code":"7941307"},{"name":"大三島町野々江","zip_code":"7941306"},{"name":"大三島町肥海","zip_code":"7941301"},{"name":"大三島町宮浦","zip_code":"7941304"},{"name":"大三島町宗方","zip_code":"7941309"},{"name":"風早町","zip_code":"7940017"},{"name":"片原町","zip_code":"7940013"},{"name":"片山","zip_code":"7940063"},{"name":"河南町","zip_code":"7940822"},{"name":"鐘場町","zip_code":"7940004"},{"name":"上浦町甘崎","zip_code":"7941403"},{"name":"上浦町井口","zip_code":"7941402"},{"name":"上浦町盛","zip_code":"7941401"},{"name":"上浦町瀬戸","zip_code":"7941404"},{"name":"上徳","zip_code":"7991511"},{"name":"唐子台東","zip_code":"7991531"},{"name":"唐子台西","zip_code":"7991532"},{"name":"神宮","zip_code":"7940074"},{"name":"祇園町","zip_code":"7940804"},{"name":"菊間町池原","zip_code":"7992304"},{"name":"菊間町川上","zip_code":"7992307"},{"name":"菊間町河之内","zip_code":"7992306"},{"name":"菊間町高田","zip_code":"7992309"},{"name":"菊間町佐方","zip_code":"7992301"},{"name":"菊間町種","zip_code":"7992302"},{"name":"菊間町田之尻","zip_code":"7992312"},{"name":"菊間町長坂","zip_code":"7992310"},{"name":"菊間町中川","zip_code":"7992308"},{"name":"菊間町西山","zip_code":"7992311"},{"name":"菊間町浜","zip_code":"7992303"},{"name":"菊間町松尾","zip_code":"7992305"},{"name":"北高下町","zip_code":"7940812"},{"name":"北鳥生町","zip_code":"7940803"},{"name":"北浜町","zip_code":"7940011"},{"name":"北日吉町","zip_code":"7940054"},{"name":"北宝来町","zip_code":"7940028"},{"name":"喜田村","zip_code":"7991502"},{"name":"衣干町","zip_code":"7940813"},{"name":"共栄町","zip_code":"7940024"},{"name":"蔵敷町","zip_code":"7940044"},{"name":"来島","zip_code":"7992122"},{"name":"鯉池町","zip_code":"7940059"},{"name":"小泉","zip_code":"7940064"},{"name":"郷新屋敷町","zip_code":"7940826"},{"name":"郷本町","zip_code":"7940823"},{"name":"郷六ケ内町","zip_code":"7940825"},{"name":"郷桜井","zip_code":"7991523"},{"name":"広紹寺町","zip_code":"7940805"},{"name":"高地町","zip_code":"7940051"},{"name":"小浦町","zip_code":"7992111"},{"name":"黄金町","zip_code":"7940037"},{"name":"国分","zip_code":"7991533"},{"name":"米屋町","zip_code":"7940021"},{"name":"古谷","zip_code":"7991601"},{"name":"栄町","zip_code":"7940023"},{"name":"桜井","zip_code":"7991522"},{"name":"桜井団地","zip_code":"7991534"},{"name":"地堀","zip_code":"7992117"},{"name":"しまなみの杜","zip_code":"7940086"},{"name":"しまなみヒルズ","zip_code":"7940087"},{"name":"末広町","zip_code":"7940038"},{"name":"砂場町","zip_code":"7940001"},{"name":"関前大下","zip_code":"7941103"},{"name":"関前岡村","zip_code":"7941101"},{"name":"関前小大下","zip_code":"7941102"},{"name":"蒼社町","zip_code":"7940058"},{"name":"杣田","zip_code":"7992114"},{"name":"大正町","zip_code":"7940025"},{"name":"高市","zip_code":"7991512"},{"name":"高橋","zip_code":"7940066"},{"name":"高部","zip_code":"7992113"},{"name":"宅間","zip_code":"7940083"},{"name":"立花町","zip_code":"7940821"},{"name":"玉川町大野","zip_code":"7940102"},{"name":"玉川町鬼原","zip_code":"7940117"},{"name":"玉川町葛谷","zip_code":"7940125"},{"name":"玉川町桂","zip_code":"7940107"},{"name":"玉川町木地","zip_code":"7940122"},{"name":"玉川町高野","zip_code":"7940115"},{"name":"玉川町小鴨部","zip_code":"7940112"},{"name":"玉川町三反地","zip_code":"7940101"},{"name":"玉川町摺木","zip_code":"7940104"},{"name":"玉川町長谷","zip_code":"7940109"},{"name":"玉川町中村","zip_code":"7940111"},{"name":"玉川町鍋地","zip_code":"7940106"},{"name":"玉川町鈍川","zip_code":"7940121"},{"name":"玉川町畑寺","zip_code":"7940116"},{"name":"玉川町別所","zip_code":"7940113"},{"name":"玉川町法界寺","zip_code":"7940103"},{"name":"玉川町御厩","zip_code":"7940108"},{"name":"玉川町八幡","zip_code":"7940114"},{"name":"玉川町與和木","zip_code":"7940105"},{"name":"玉川町龍岡上","zip_code":"7940124"},{"name":"玉川町龍岡下","zip_code":"7940123"},{"name":"旦","zip_code":"7991536"},{"name":"近見町","zip_code":"7940007"},{"name":"辻堂","zip_code":"7940827"},{"name":"土橋町","zip_code":"7940815"},{"name":"天保山町","zip_code":"7940032"},{"name":"通町","zip_code":"7940036"},{"name":"常盤町","zip_code":"7940015"},{"name":"徳重","zip_code":"7940863"},{"name":"富田新港","zip_code":"7991503"},{"name":"長沢","zip_code":"7991527"},{"name":"中寺","zip_code":"7940840"},{"name":"中浜町","zip_code":"7940016"},{"name":"中日吉町","zip_code":"7940055"},{"name":"中堀","zip_code":"7992115"},{"name":"波方町大浦","zip_code":"7992110"},{"name":"波方町岡","zip_code":"7992108"},{"name":"波方町小部","zip_code":"7992103"},{"name":"波方町郷","zip_code":"7992110"},{"name":"波方町波方","zip_code":"7992101"},{"name":"波方町西浦","zip_code":"7992107"},{"name":"波方町樋口","zip_code":"7992102"},{"name":"波方町馬刀潟","zip_code":"7992105"},{"name":"波方町宮崎","zip_code":"7992104"},{"name":"波方町森上","zip_code":"7992106"},{"name":"波方町養老","zip_code":"7992109"},{"name":"新谷","zip_code":"7940850"},{"name":"登畑","zip_code":"7991535"},{"name":"野間","zip_code":"7940082"},{"name":"拝志","zip_code":"7991504"},{"name":"伯方町有津","zip_code":"7942301"},{"name":"伯方町伊方","zip_code":"7942303"},{"name":"伯方町叶浦","zip_code":"7942302"},{"name":"伯方町北浦","zip_code":"7942304"},{"name":"伯方町木浦","zip_code":"7942305"},{"name":"波止浜","zip_code":"7992112"},{"name":"八町東","zip_code":"7940831"},{"name":"八町西","zip_code":"7940832"},{"name":"東鳥生町","zip_code":"7940801"},{"name":"東村","zip_code":"7991506"},{"name":"東村南","zip_code":"7991507"},{"name":"東門町","zip_code":"7940033"},{"name":"古国分","zip_code":"7991521"},{"name":"別宮町","zip_code":"7940026"},{"name":"別名","zip_code":"7940065"},{"name":"本町","zip_code":"7940018"},{"name":"孫兵衛作","zip_code":"7991526"},{"name":"町谷","zip_code":"7991514"},{"name":"松木","zip_code":"7991513"},{"name":"松本町","zip_code":"7940041"},{"name":"美須賀町","zip_code":"7940034"},{"name":"湊町","zip_code":"7940003"},{"name":"南高下町","zip_code":"7940811"},{"name":"南大門町","zip_code":"7940027"},{"name":"南鳥生町","zip_code":"7940802"},{"name":"南日吉町","zip_code":"7940056"},{"name":"南宝来町","zip_code":"7940043"},{"name":"美保町","zip_code":"7940012"},{"name":"宮ケ崎","zip_code":"7991537"},{"name":"宮窪町四阪島","zip_code":"7920080"},{"name":"宮窪町友浦","zip_code":"7942204"},{"name":"宮窪町早川","zip_code":"7942201"},{"name":"宮窪町宮窪","zip_code":"7942203"},{"name":"宮窪町余所国","zip_code":"7942202"},{"name":"宮下町","zip_code":"7940052"},{"name":"室屋町","zip_code":"7940022"},{"name":"矢田","zip_code":"7940073"},{"name":"山方町","zip_code":"7940053"},{"name":"山口","zip_code":"7991602"},{"name":"山路","zip_code":"7940072"},{"name":"山路町","zip_code":"7940071"},{"name":"湯ノ浦","zip_code":"7991525"},{"name":"横田町","zip_code":"7940814"},{"name":"吉海町幸新田","zip_code":"7942111"},{"name":"吉海町正味","zip_code":"7942117"},{"name":"吉海町田浦","zip_code":"7942101"},{"name":"吉海町津島","zip_code":"7942119"},{"name":"吉海町泊","zip_code":"7942102"},{"name":"吉海町名駒","zip_code":"7942116"},{"name":"吉海町仁江","zip_code":"7942104"},{"name":"吉海町福田","zip_code":"7942103"},{"name":"吉海町臥間","zip_code":"7942118"},{"name":"吉海町本庄","zip_code":"7942112"},{"name":"吉海町南浦","zip_code":"7942115"},{"name":"吉海町名","zip_code":"7942114"},{"name":"吉海町椋名","zip_code":"7942113"},{"name":"吉海町八幡","zip_code":"7942110"},{"name":"四村","zip_code":"7940862"}]},{"name":"宇和島市","divisions":[{"name":"曙町","zip_code":"7980030"},{"name":"朝日町","zip_code":"7980004"},{"name":"愛宕町","zip_code":"7980042"},{"name":"泉町","zip_code":"7980026"},{"name":"伊吹町","zip_code":"7980023"},{"name":"祝森","zip_code":"7980078"},{"name":"宇和津町","zip_code":"7980043"},{"name":"恵美須町","zip_code":"7980032"},{"name":"大浦","zip_code":"7980001"},{"name":"大宮町","zip_code":"7980039"},{"name":"御徒町","zip_code":"7980063"},{"name":"柿原","zip_code":"7980027"},{"name":"賀古町","zip_code":"7980053"},{"name":"川内","zip_code":"7980076"},{"name":"北新町","zip_code":"7980010"},{"name":"京町","zip_code":"7980052"},{"name":"小池","zip_code":"7980093"},{"name":"石応","zip_code":"7980091"},{"name":"御殿町","zip_code":"7980061"},{"name":"寿町","zip_code":"7980007"},{"name":"小浜","zip_code":"7980092"},{"name":"蒋渕","zip_code":"7980211"},{"name":"佐伯町","zip_code":"7980064"},{"name":"栄町港","zip_code":"7980031"},{"name":"坂下津","zip_code":"7980087"},{"name":"桜町","zip_code":"7980062"},{"name":"笹町","zip_code":"7980054"},{"name":"下波","zip_code":"7980104"},{"name":"白浜","zip_code":"7980090"},{"name":"神田川原","zip_code":"7980070"},{"name":"新田町","zip_code":"7980080"},{"name":"新町","zip_code":"7980035"},{"name":"須賀通","zip_code":"7980011"},{"name":"住吉町","zip_code":"7980003"},{"name":"大超寺奥","zip_code":"7980045"},{"name":"高串","zip_code":"7980020"},{"name":"中央町","zip_code":"7980040"},{"name":"築地町","zip_code":"7980005"},{"name":"津島町嵐","zip_code":"7983344"},{"name":"津島町岩淵","zip_code":"7983311"},{"name":"津島町岩松","zip_code":"7983301"},{"name":"津島町後","zip_code":"7983331"},{"name":"津島町浦知","zip_code":"7983342"},{"name":"津島町塩定","zip_code":"7983341"},{"name":"津島町大浦","zip_code":"7983337"},{"name":"津島町柿之浦","zip_code":"7983338"},{"name":"津島町上畑地","zip_code":"7983323"},{"name":"津島町北灘乙","zip_code":"7983362"},{"name":"津島町北灘甲","zip_code":"7983361"},{"name":"津島町北灘丙","zip_code":"7983363"},{"name":"津島町北灘丁","zip_code":"7983364"},{"name":"津島町山財","zip_code":"7983312"},{"name":"津島町下畑地乙","zip_code":"7983322"},{"name":"津島町下畑地","zip_code":"7983321"},{"name":"津島町須下","zip_code":"7983332"},{"name":"津島町曽根","zip_code":"7983356"},{"name":"津島町田颪","zip_code":"7983354"},{"name":"津島町高田","zip_code":"7983302"},{"name":"津島町竹ケ島","zip_code":"7983358"},{"name":"津島町田之浜","zip_code":"7983357"},{"name":"津島町近家","zip_code":"7983303"},{"name":"津島町坪井","zip_code":"7983352"},{"name":"津島町泥目水","zip_code":"7983353"},{"name":"津島町成","zip_code":"7983333"},{"name":"津島町鼡鳴","zip_code":"7983346"},{"name":"津島町針木","zip_code":"7983343"},{"name":"津島町平井","zip_code":"7983335"},{"name":"津島町曲烏","zip_code":"7983336"},{"name":"津島町槇川","zip_code":"7983272"},{"name":"津島町増穂","zip_code":"7983313"},{"name":"津島町御内","zip_code":"7983271"},{"name":"津島町弓立","zip_code":"7983351"},{"name":"津島町横浦","zip_code":"7983345"},{"name":"津島町漁家","zip_code":"7983334"},{"name":"津島町脇","zip_code":"7983355"},{"name":"鶴島町","zip_code":"7980033"},{"name":"天赦公園","zip_code":"7980065"},{"name":"天神町","zip_code":"7980036"},{"name":"戸島","zip_code":"7980212"},{"name":"中沢町","zip_code":"7980081"},{"name":"長堀","zip_code":"7980082"},{"name":"夏目町","zip_code":"7980083"},{"name":"並松","zip_code":"7980074"},{"name":"錦町","zip_code":"7980034"},{"name":"野川","zip_code":"7982146"},{"name":"蛤","zip_code":"7980098"},{"name":"日振島","zip_code":"7980099"},{"name":"百之浦","zip_code":"7980097"},{"name":"平浦","zip_code":"7980095"},{"name":"広小路","zip_code":"7980051"},{"name":"藤江","zip_code":"7980010"},{"name":"文京町","zip_code":"7980066"},{"name":"別当","zip_code":"7980086"},{"name":"弁天町","zip_code":"7980006"},{"name":"保手","zip_code":"7980088"},{"name":"堀端町","zip_code":"7980050"},{"name":"本九島","zip_code":"7980096"},{"name":"本町追手","zip_code":"7980041"},{"name":"桝形町","zip_code":"7980067"},{"name":"丸穂町","zip_code":"7980037"},{"name":"丸穂","zip_code":"7980038"},{"name":"丸之内","zip_code":"7980060"},{"name":"三浦東","zip_code":"7980101"},{"name":"三浦西","zip_code":"7980102"},{"name":"光満","zip_code":"7980021"},{"name":"三間町大内","zip_code":"7981136"},{"name":"三間町大藤","zip_code":"7981101"},{"name":"三間町音地","zip_code":"7981141"},{"name":"三間町金銅","zip_code":"7981134"},{"name":"三間町兼近","zip_code":"7981137"},{"name":"三間町川之内","zip_code":"7981121"},{"name":"三間町北増穂","zip_code":"7981111"},{"name":"三間町黒井地","zip_code":"7981116"},{"name":"三間町黒川","zip_code":"7981143"},{"name":"三間町小沢川","zip_code":"7981122"},{"name":"三間町古藤田","zip_code":"7981135"},{"name":"三間町是延","zip_code":"7981139"},{"name":"三間町是能","zip_code":"7981105"},{"name":"三間町則","zip_code":"7981102"},{"name":"三間町曽根","zip_code":"7981104"},{"name":"三間町田川","zip_code":"7981131"},{"name":"三間町土居垣内","zip_code":"7981138"},{"name":"三間町土居中","zip_code":"7981125"},{"name":"三間町戸雁","zip_code":"7981115"},{"name":"三間町中野中","zip_code":"7981133"},{"name":"三間町波岡","zip_code":"7981132"},{"name":"三間町成家","zip_code":"7981103"},{"name":"三間町迫目","zip_code":"7981113"},{"name":"三間町増田","zip_code":"7981124"},{"name":"三間町三間中間","zip_code":"7981142"},{"name":"三間町宮野下","zip_code":"7981112"},{"name":"三間町務田","zip_code":"7981114"},{"name":"三間町元宗","zip_code":"7981123"},{"name":"宮下","zip_code":"7980085"},{"name":"御幸町","zip_code":"7980013"},{"name":"妙典寺前","zip_code":"7980071"},{"name":"明倫町","zip_code":"7980068"},{"name":"元結掛","zip_code":"7980072"},{"name":"保田","zip_code":"7980077"},{"name":"山際","zip_code":"7980073"},{"name":"遊子","zip_code":"7980103"},{"name":"吉田町浅川","zip_code":"7993763"},{"name":"吉田町魚棚","zip_code":"7993704"},{"name":"吉田町裡町","zip_code":"7993706"},{"name":"吉田町沖村","zip_code":"7993751"},{"name":"吉田町奥浦","zip_code":"7993772"},{"name":"吉田町河内","zip_code":"7993752"},{"name":"吉田町北小路","zip_code":"7993701"},{"name":"吉田町白浦","zip_code":"7993741"},{"name":"吉田町立間","zip_code":"7993730"},{"name":"吉田町立間尻","zip_code":"7993710"},{"name":"吉田町知永","zip_code":"7993720"},{"name":"吉田町鶴間","zip_code":"7993707"},{"name":"吉田町南君","zip_code":"7993771"},{"name":"吉田町西小路","zip_code":"7993702"},{"name":"吉田町東小路","zip_code":"7993703"},{"name":"吉田町深浦","zip_code":"7993743"},{"name":"吉田町法花津","zip_code":"7993742"},{"name":"吉田町本町","zip_code":"7993705"},{"name":"寄松","zip_code":"7980084"},{"name":"蕨","zip_code":"7980094"},{"name":"和霊公園","zip_code":"7980014"},{"name":"和霊中町","zip_code":"7980016"},{"name":"和霊東町","zip_code":"7980017"},{"name":"和霊元町","zip_code":"7980015"},{"name":"和霊町","zip_code":"7980012"}]},{"name":"八幡浜市","divisions":[{"name":"朝汐橋","zip_code":"7960081"},{"name":"旭町","zip_code":"7960086"},{"name":"愛宕","zip_code":"7960056"},{"name":"穴井","zip_code":"7968054"},{"name":"駅前","zip_code":"7960022"},{"name":"江戸岡","zip_code":"7960031"},{"name":"海老崎","zip_code":"7960061"},{"name":"戎町","zip_code":"7960073"},{"name":"大島","zip_code":"7968060"},{"name":"大谷口","zip_code":"7968001"},{"name":"大平","zip_code":"7960004"},{"name":"沖新田","zip_code":"7960087"},{"name":"海望園","zip_code":"7960053"},{"name":"片山町","zip_code":"7960065"},{"name":"釜倉","zip_code":"7968036"},{"name":"川上町上泊","zip_code":"7968051"},{"name":"川上町川名津","zip_code":"7968050"},{"name":"川上町白石","zip_code":"7968052"},{"name":"川之内","zip_code":"7968025"},{"name":"北大黒町","zip_code":"7960082"},{"name":"北浜","zip_code":"7960048"},{"name":"木多町","zip_code":"7960011"},{"name":"喜多町","zip_code":"7960042"},{"name":"旧港","zip_code":"7960046"},{"name":"旧役場前通","zip_code":"7960077"},{"name":"国木","zip_code":"7968015"},{"name":"栗野浦","zip_code":"7968008"},{"name":"郷","zip_code":"7968020"},{"name":"合田","zip_code":"7968041"},{"name":"五反田","zip_code":"7968010"},{"name":"琴平町","zip_code":"7960054"},{"name":"裁判所通","zip_code":"7960041"},{"name":"幸町","zip_code":"7960051"},{"name":"産業通","zip_code":"7968004"},{"name":"舌間","zip_code":"7968040"},{"name":"下道","zip_code":"7960069"},{"name":"清水町","zip_code":"7960028"},{"name":"昭和通","zip_code":"7960037"},{"name":"白浜通","zip_code":"7960047"},{"name":"新栄町","zip_code":"7960062"},{"name":"新川","zip_code":"7960036"},{"name":"神宮通","zip_code":"7960024"},{"name":"神宮前","zip_code":"7960023"},{"name":"新町","zip_code":"7960071"},{"name":"新港","zip_code":"7960074"},{"name":"新和田町","zip_code":"7960014"},{"name":"須崎","zip_code":"7960035"},{"name":"船場通","zip_code":"7960064"},{"name":"大黒町","zip_code":"7960083"},{"name":"大正町","zip_code":"7960033"},{"name":"大門","zip_code":"7960055"},{"name":"高野地","zip_code":"7960005"},{"name":"谷","zip_code":"7968037"},{"name":"中央","zip_code":"7960067"},{"name":"中央マーケット","zip_code":"7960078"},{"name":"千代田町","zip_code":"7960076"},{"name":"天神通","zip_code":"7960085"},{"name":"中津川","zip_code":"7968030"},{"name":"仲之町","zip_code":"7960075"},{"name":"西近江屋町","zip_code":"7960044"},{"name":"西近江屋町浜通","zip_code":"7960045"},{"name":"花小路","zip_code":"7960029"},{"name":"浜田町","zip_code":"7960034"},{"name":"浜之町","zip_code":"7960068"},{"name":"東近江屋町","zip_code":"7960043"},{"name":"東新川","zip_code":"7960032"},{"name":"東矢野町","zip_code":"7960025"},{"name":"日土町","zip_code":"7960170"},{"name":"桧谷","zip_code":"7960021"},{"name":"広瀬","zip_code":"7968002"},{"name":"布喜川","zip_code":"7968039"},{"name":"古町","zip_code":"7968003"},{"name":"保内町磯崎","zip_code":"7960203"},{"name":"保内町川之石","zip_code":"7960201"},{"name":"保内町喜木","zip_code":"7960111"},{"name":"保内町喜木津","zip_code":"7960204"},{"name":"保内町須川","zip_code":"7960112"},{"name":"保内町広早","zip_code":"7960205"},{"name":"保内町宮内","zip_code":"7960202"},{"name":"本町","zip_code":"7960066"},{"name":"真網代","zip_code":"7968053"},{"name":"松蔭町","zip_code":"7960027"},{"name":"松柏","zip_code":"7960010"},{"name":"松本町","zip_code":"7960052"},{"name":"港町","zip_code":"7960072"},{"name":"南柏","zip_code":"7960012"},{"name":"南大黒町","zip_code":"7960084"},{"name":"向灘","zip_code":"7960001"},{"name":"元城団地","zip_code":"7968011"},{"name":"八代","zip_code":"7968006"},{"name":"矢野町","zip_code":"7968005"},{"name":"山越","zip_code":"7960013"},{"name":"横平","zip_code":"7968038"},{"name":"横町","zip_code":"7960063"},{"name":"若山","zip_code":"7968035"}]},{"name":"新居浜市","divisions":[{"name":"阿島乙","zip_code":"7920897"},{"name":"阿島","zip_code":"7920896"},{"name":"泉池町","zip_code":"7920013"},{"name":"泉宮町","zip_code":"7920021"},{"name":"磯浦町","zip_code":"7920002"},{"name":"一宮町","zip_code":"7920025"},{"name":"宇高町","zip_code":"7920866"},{"name":"上原","zip_code":"7920046"},{"name":"江口町","zip_code":"7920005"},{"name":"王子町","zip_code":"7920008"},{"name":"大江町","zip_code":"7920015"},{"name":"大島","zip_code":"7920891"},{"name":"大生院","zip_code":"7920060"},{"name":"御蔵町","zip_code":"7920047"},{"name":"落神町","zip_code":"7920883"},{"name":"金子丙","zip_code":"7920071"},{"name":"上泉町","zip_code":"7920824"},{"name":"観音原町","zip_code":"7920851"},{"name":"菊本町","zip_code":"7920801"},{"name":"喜光地町","zip_code":"7920826"},{"name":"岸の上町","zip_code":"7920815"},{"name":"北内町","zip_code":"7920842"},{"name":"北新町","zip_code":"7920004"},{"name":"清住町","zip_code":"7920885"},{"name":"楠崎","zip_code":"7920890"},{"name":"久保田町","zip_code":"7920026"},{"name":"黒島","zip_code":"7920892"},{"name":"神郷","zip_code":"7920884"},{"name":"河内町","zip_code":"7920006"},{"name":"光明寺","zip_code":"7920853"},{"name":"国領","zip_code":"7920854"},{"name":"寿町","zip_code":"7920822"},{"name":"郷","zip_code":"7920886"},{"name":"郷乙","zip_code":"7920895"},{"name":"西連寺町","zip_code":"7920831"},{"name":"坂井町","zip_code":"7920812"},{"name":"桜木町","zip_code":"7920865"},{"name":"沢津町","zip_code":"7920862"},{"name":"繁本町","zip_code":"7920023"},{"name":"七宝台町","zip_code":"7920855"},{"name":"東雲町","zip_code":"7920864"},{"name":"篠場町","zip_code":"7920836"},{"name":"清水町","zip_code":"7920861"},{"name":"下泉町","zip_code":"7920813"},{"name":"庄内町","zip_code":"7920811"},{"name":"城下町","zip_code":"7920814"},{"name":"新須賀町","zip_code":"7920802"},{"name":"新田町","zip_code":"7920003"},{"name":"角野","zip_code":"7920857"},{"name":"角野新田町","zip_code":"7920844"},{"name":"瀬戸町","zip_code":"7920821"},{"name":"惣開町","zip_code":"7920001"},{"name":"大永山","zip_code":"7920847"},{"name":"高木町","zip_code":"7920031"},{"name":"高田","zip_code":"7920887"},{"name":"高津町","zip_code":"7920867"},{"name":"滝の宮町","zip_code":"7920034"},{"name":"多喜浜","zip_code":"7920893"},{"name":"立川町","zip_code":"7920846"},{"name":"田所町","zip_code":"7920804"},{"name":"種子川町","zip_code":"7920845"},{"name":"種子川山","zip_code":"7920848"},{"name":"田の上","zip_code":"7920888"},{"name":"土橋","zip_code":"7920043"},{"name":"東田","zip_code":"7920852"},{"name":"徳常町","zip_code":"7920022"},{"name":"外山町","zip_code":"7920823"},{"name":"中須賀町","zip_code":"7920012"},{"name":"中筋町","zip_code":"7920841"},{"name":"中西町","zip_code":"7920834"},{"name":"中萩町","zip_code":"7920045"},{"name":"中村","zip_code":"7920044"},{"name":"中村松木","zip_code":"7920041"},{"name":"長岩町","zip_code":"7920874"},{"name":"新居浜乙","zip_code":"7920072"},{"name":"西泉町","zip_code":"7920832"},{"name":"西喜光地町","zip_code":"7920827"},{"name":"西の土居町","zip_code":"7920035"},{"name":"西原町","zip_code":"7920011"},{"name":"西町","zip_code":"7920014"},{"name":"荷内町","zip_code":"7920898"},{"name":"萩生","zip_code":"7920050"},{"name":"八幡","zip_code":"7920871"},{"name":"垣生","zip_code":"7920872"},{"name":"平形町","zip_code":"7920803"},{"name":"船木","zip_code":"7920856"},{"name":"別子山","zip_code":"7990650"},{"name":"星越町","zip_code":"7920009"},{"name":"星原町","zip_code":"7920825"},{"name":"本郷","zip_code":"7920042"},{"name":"前田町","zip_code":"7920007"},{"name":"政枝町","zip_code":"7920032"},{"name":"又野","zip_code":"7920882"},{"name":"松木町","zip_code":"7920829"},{"name":"松の木町","zip_code":"7920868"},{"name":"松原町","zip_code":"7920828"},{"name":"松神子","zip_code":"7920881"},{"name":"港町","zip_code":"7920016"},{"name":"南小松原町","zip_code":"7920863"},{"name":"宮西町","zip_code":"7920024"},{"name":"宮原町","zip_code":"7920833"},{"name":"八雲町","zip_code":"7920805"},{"name":"山田町","zip_code":"7920837"},{"name":"山根町","zip_code":"7920835"},{"name":"横水町","zip_code":"7920033"},{"name":"吉岡町","zip_code":"7920843"},{"name":"若水町","zip_code":"7920017"}]},{"name":"西条市","divisions":[{"name":"明理川","zip_code":"7991345"},{"name":"明屋敷","zip_code":"7930023"},{"name":"荒川","zip_code":"7930103"},{"name":"安知生","zip_code":"7930051"},{"name":"飯岡","zip_code":"7930010"},{"name":"石田","zip_code":"7991364"},{"name":"石延","zip_code":"7991335"},{"name":"市之川","zip_code":"7930037"},{"name":"今在家","zip_code":"7991362"},{"name":"円海寺","zip_code":"7991344"},{"name":"大新田","zip_code":"7991342"},{"name":"大野","zip_code":"7991312"},{"name":"大浜","zip_code":"7930016"},{"name":"大保木","zip_code":"7930211"},{"name":"大町","zip_code":"7930030"},{"name":"上市","zip_code":"7991336"},{"name":"河之内","zip_code":"7991314"},{"name":"河原津","zip_code":"7991303"},{"name":"河原津新田","zip_code":"7991304"},{"name":"神拝甲","zip_code":"7930041"},{"name":"神拝乙","zip_code":"7930021"},{"name":"喜多川","zip_code":"7930042"},{"name":"喜多台","zip_code":"7991343"},{"name":"楠","zip_code":"7991302"},{"name":"国安","zip_code":"7991322"},{"name":"黒瀬","zip_code":"7930212"},{"name":"黒谷","zip_code":"7991315"},{"name":"桑村","zip_code":"7991323"},{"name":"小松町明穂","zip_code":"7991107"},{"name":"小松町石鎚","zip_code":"7910562"},{"name":"小松町大郷","zip_code":"7991105"},{"name":"小松町大頭","zip_code":"7991106"},{"name":"小松町北川","zip_code":"7991103"},{"name":"小松町新屋敷","zip_code":"7991101"},{"name":"小松町南川","zip_code":"7991102"},{"name":"小松町妙口","zip_code":"7991104"},{"name":"小松町安井","zip_code":"7991108"},{"name":"栄町","zip_code":"7930025"},{"name":"坂元甲","zip_code":"7930067"},{"name":"実報寺","zip_code":"7991317"},{"name":"下島山甲","zip_code":"7930006"},{"name":"下島山乙","zip_code":"7930007"},{"name":"周布","zip_code":"7991371"},{"name":"新市","zip_code":"7991325"},{"name":"新田","zip_code":"7930028"},{"name":"新町","zip_code":"7991331"},{"name":"洲之内甲","zip_code":"7930053"},{"name":"千町","zip_code":"7930101"},{"name":"大師町","zip_code":"7930024"},{"name":"高田","zip_code":"7991324"},{"name":"玉津","zip_code":"7930001"},{"name":"玉之江","zip_code":"7991363"},{"name":"旦之上","zip_code":"7991313"},{"name":"丹原町明穂","zip_code":"7910533"},{"name":"丹原町池田","zip_code":"7910508"},{"name":"丹原町石経","zip_code":"7910532"},{"name":"丹原町今井","zip_code":"7910503"},{"name":"丹原町臼坂","zip_code":"7910537"},{"name":"丹原町川根","zip_code":"7910525"},{"name":"丹原町願連寺","zip_code":"7910502"},{"name":"丹原町北田野","zip_code":"7910523"},{"name":"丹原町楠窪","zip_code":"7910542"},{"name":"丹原町久妙寺","zip_code":"7910504"},{"name":"丹原町鞍瀬","zip_code":"7910541"},{"name":"丹原町来見","zip_code":"7910531"},{"name":"丹原町高知","zip_code":"7910507"},{"name":"丹原町古田","zip_code":"7910505"},{"name":"丹原町志川","zip_code":"7910535"},{"name":"丹原町関屋","zip_code":"7910527"},{"name":"丹原町高松","zip_code":"7910524"},{"name":"丹原町田滝","zip_code":"7910526"},{"name":"丹原町田野上方","zip_code":"7910522"},{"name":"丹原町丹原","zip_code":"7910510"},{"name":"丹原町千原","zip_code":"7910538"},{"name":"丹原町寺尾","zip_code":"7910534"},{"name":"丹原町徳能","zip_code":"7910506"},{"name":"丹原町徳能出作","zip_code":"7910501"},{"name":"丹原町長野","zip_code":"7910521"},{"name":"丹原町明河","zip_code":"7910543"},{"name":"丹原町湯谷口","zip_code":"7910536"},{"name":"朔日市","zip_code":"7930027"},{"name":"津越","zip_code":"7930057"},{"name":"禎瑞","zip_code":"7930061"},{"name":"天神","zip_code":"7930002"},{"name":"兎之山","zip_code":"7930213"},{"name":"中奥","zip_code":"7930214"},{"name":"中西","zip_code":"7930052"},{"name":"中野甲","zip_code":"7930054"},{"name":"中野乙","zip_code":"7930055"},{"name":"中野丙","zip_code":"7930056"},{"name":"楢木","zip_code":"7930065"},{"name":"西泉甲","zip_code":"7930063"},{"name":"西泉乙","zip_code":"7930064"},{"name":"西田甲","zip_code":"7930062"},{"name":"西之川","zip_code":"7930215"},{"name":"壬生川","zip_code":"7991341"},{"name":"野々市","zip_code":"7930066"},{"name":"早川","zip_code":"7930017"},{"name":"ひうち","zip_code":"7930003"},{"name":"東之川","zip_code":"7930216"},{"name":"東町","zip_code":"7930026"},{"name":"樋之口","zip_code":"7930043"},{"name":"氷見甲","zip_code":"7930071"},{"name":"氷見乙","zip_code":"7930072"},{"name":"氷見丙","zip_code":"7930073"},{"name":"氷見丁","zip_code":"7930074"},{"name":"氷見戊","zip_code":"7930075"},{"name":"広江","zip_code":"7991361"},{"name":"広岡","zip_code":"7991334"},{"name":"福成寺","zip_code":"7991316"},{"name":"福武甲","zip_code":"7930035"},{"name":"福武乙","zip_code":"7930036"},{"name":"藤之石","zip_code":"7930102"},{"name":"船屋甲","zip_code":"7930004"},{"name":"船屋乙","zip_code":"7930005"},{"name":"古川甲","zip_code":"7930044"},{"name":"古川乙","zip_code":"7930045"},{"name":"北条","zip_code":"7991354"},{"name":"保野","zip_code":"7930039"},{"name":"本町","zip_code":"7930022"},{"name":"丸野","zip_code":"7930038"},{"name":"三津屋","zip_code":"7991351"},{"name":"三津屋東","zip_code":"7991352"},{"name":"三津屋南","zip_code":"7991353"},{"name":"港","zip_code":"7930046"},{"name":"宮之内","zip_code":"7991311"},{"name":"明神木","zip_code":"7930034"},{"name":"三芳","zip_code":"7991301"},{"name":"安用","zip_code":"7991333"},{"name":"安用出作","zip_code":"7991332"},{"name":"吉田","zip_code":"7991372"}]},{"name":"大洲市","divisions":[{"name":"阿蔵","zip_code":"7950025"},{"name":"市木","zip_code":"7950062"},{"name":"稲積","zip_code":"7950007"},{"name":"梅川","zip_code":"7950003"},{"name":"宇和川","zip_code":"7950088"},{"name":"大洲","zip_code":"7950012"},{"name":"戒川甲","zip_code":"7993421"},{"name":"上須戒","zip_code":"7950032"},{"name":"河辺町植松","zip_code":"7971601"},{"name":"河辺町川上","zip_code":"7971607"},{"name":"河辺町川崎","zip_code":"7971604"},{"name":"河辺町河都","zip_code":"7971605"},{"name":"河辺町北平","zip_code":"7971608"},{"name":"河辺町三嶋","zip_code":"7971606"},{"name":"河辺町山鳥坂","zip_code":"7971602"},{"name":"河辺町横山","zip_code":"7971603"},{"name":"北裏","zip_code":"7950009"},{"name":"北只","zip_code":"7950001"},{"name":"喜多山","zip_code":"7950075"},{"name":"蔵川","zip_code":"7950089"},{"name":"黒木","zip_code":"7950008"},{"name":"恋木","zip_code":"7950074"},{"name":"五郎","zip_code":"7950051"},{"name":"柴乙","zip_code":"7993433"},{"name":"柴甲","zip_code":"7993432"},{"name":"白滝甲","zip_code":"7993431"},{"name":"菅田町宇津甲","zip_code":"7950084"},{"name":"菅田町宇津乙","zip_code":"7950085"},{"name":"菅田町大竹","zip_code":"7950083"},{"name":"菅田町菅田甲","zip_code":"7950081"},{"name":"菅田町菅田乙","zip_code":"7950082"},{"name":"高山","zip_code":"7950024"},{"name":"多田","zip_code":"7950031"},{"name":"田処","zip_code":"7950078"},{"name":"田口","zip_code":"7950063"},{"name":"手成","zip_code":"7950044"},{"name":"常磐町","zip_code":"7950053"},{"name":"徳森","zip_code":"7950061"},{"name":"豊茂乙","zip_code":"7993462"},{"name":"豊茂甲","zip_code":"7993461"},{"name":"豊茂丁","zip_code":"7993464"},{"name":"豊茂丙","zip_code":"7993463"},{"name":"長谷","zip_code":"7950004"},{"name":"長浜乙","zip_code":"7993402"},{"name":"長浜甲","zip_code":"7993401"},{"name":"長浜町青島","zip_code":"7993470"},{"name":"長浜町出海乙","zip_code":"7993456"},{"name":"長浜町出海甲","zip_code":"7993455"},{"name":"長浜町大越甲","zip_code":"7993422"},{"name":"長浜町沖浦乙","zip_code":"7993405"},{"name":"長浜町沖浦甲","zip_code":"7993404"},{"name":"長浜町沖浦丙","zip_code":"7993406"},{"name":"長浜町櫛生乙","zip_code":"7993453"},{"name":"長浜町櫛生甲","zip_code":"7993452"},{"name":"長浜町櫛生丙","zip_code":"7993454"},{"name":"長浜町黒田甲","zip_code":"7993407"},{"name":"長浜町今坊甲","zip_code":"7993411"},{"name":"長浜町下須戒甲","zip_code":"7993441"},{"name":"長浜町上老松甲","zip_code":"7993444"},{"name":"長浜町須沢丙","zip_code":"7993451"},{"name":"長浜町拓海","zip_code":"7993413"},{"name":"長浜町仁久甲","zip_code":"7993403"},{"name":"長浜町晴海","zip_code":"7993412"},{"name":"長浜町穂積甲","zip_code":"7993442"},{"name":"長浜町穂積乙","zip_code":"7993443"},{"name":"中村","zip_code":"7950054"},{"name":"成能","zip_code":"7950086"},{"name":"新谷甲","zip_code":"7950072"},{"name":"新谷乙","zip_code":"7950071"},{"name":"新谷町","zip_code":"7950073"},{"name":"西大洲","zip_code":"7950013"},{"name":"八多喜町","zip_code":"7950041"},{"name":"春賀","zip_code":"7950046"},{"name":"東宇山","zip_code":"7950045"},{"name":"東大洲","zip_code":"7950064"},{"name":"東若宮","zip_code":"7950065"},{"name":"肱川町宇和川","zip_code":"7971503"},{"name":"肱川町大谷","zip_code":"7971507"},{"name":"肱川町中居谷","zip_code":"7971501"},{"name":"肱川町中津","zip_code":"7971506"},{"name":"肱川町西","zip_code":"7971508"},{"name":"肱川町名荷谷","zip_code":"7971502"},{"name":"肱川町山鳥坂","zip_code":"7971504"},{"name":"肱川町予子林","zip_code":"7971505"},{"name":"平野町野田","zip_code":"7950021"},{"name":"平野町平地","zip_code":"7950023"},{"name":"藤縄","zip_code":"7950076"},{"name":"松尾","zip_code":"7950002"},{"name":"森山","zip_code":"7950087"},{"name":"野佐来","zip_code":"7950006"},{"name":"柳沢","zip_code":"7950077"},{"name":"柚木","zip_code":"7950011"},{"name":"横野","zip_code":"7950005"},{"name":"米津","zip_code":"7950042"},{"name":"若宮","zip_code":"7950052"}]},{"name":"伊予市","divisions":[{"name":"市場","zip_code":"7993122"},{"name":"稲荷","zip_code":"7993121"},{"name":"上野","zip_code":"7993103"},{"name":"鵜崎","zip_code":"7993136"},{"name":"大平","zip_code":"7993131"},{"name":"尾崎","zip_code":"7993127"},{"name":"上吾川","zip_code":"7993112"},{"name":"上唐川","zip_code":"7993134"},{"name":"上三谷","zip_code":"7993104"},{"name":"米湊","zip_code":"7993113"},{"name":"下吾川","zip_code":"7993111"},{"name":"下唐川","zip_code":"7993133"},{"name":"下三谷","zip_code":"7993105"},{"name":"中村","zip_code":"7993123"},{"name":"中山町出渕","zip_code":"7913203"},{"name":"中山町栗田","zip_code":"7913202"},{"name":"中山町佐礼谷","zip_code":"7913201"},{"name":"中山町中山","zip_code":"7913205"},{"name":"灘町","zip_code":"7993114"},{"name":"平岡","zip_code":"7993132"},{"name":"双海町大久保","zip_code":"7993311"},{"name":"双海町上灘","zip_code":"7993202"},{"name":"双海町串","zip_code":"7993313"},{"name":"双海町高野川","zip_code":"7993201"},{"name":"双海町高岸","zip_code":"7993207"},{"name":"本郡","zip_code":"7993126"},{"name":"三秋","zip_code":"7993124"},{"name":"三島町","zip_code":"7993128"},{"name":"湊町","zip_code":"7993115"},{"name":"宮下","zip_code":"7993102"},{"name":"森","zip_code":"7993125"},{"name":"八倉","zip_code":"7993101"},{"name":"両沢","zip_code":"7993135"}]},{"name":"四国中央市","divisions":[{"name":"金田町金川","zip_code":"7990123"},{"name":"金田町三角寺","zip_code":"7990124"},{"name":"金田町半田","zip_code":"7990122"},{"name":"上柏町","zip_code":"7990412"},{"name":"上分町","zip_code":"7990121"},{"name":"川滝町下山","zip_code":"7990127"},{"name":"川滝町領家","zip_code":"7990128"},{"name":"川之江町","zip_code":"7990101"},{"name":"川之江町長須","zip_code":"7990102"},{"name":"川之江町余木","zip_code":"7990103"},{"name":"金砂町小川山","zip_code":"7990641"},{"name":"金砂町平野山","zip_code":"7990642"},{"name":"金生町下分","zip_code":"7990111"},{"name":"金生町山田井","zip_code":"7990112"},{"name":"具定町","zip_code":"7990423"},{"name":"寒川町","zip_code":"7990431"},{"name":"柴生町","zip_code":"7990125"},{"name":"下柏町","zip_code":"7990411"},{"name":"下川町","zip_code":"7990126"},{"name":"新宮町馬立","zip_code":"7990301"},{"name":"新宮町上山","zip_code":"7990302"},{"name":"新宮町新宮","zip_code":"7990303"},{"name":"新宮町新瀬川","zip_code":"7990304"},{"name":"土居町入野","zip_code":"7990712"},{"name":"土居町上野","zip_code":"7990721"},{"name":"土居町浦山","zip_code":"7990713"},{"name":"土居町蕪崎","zip_code":"7990724"},{"name":"土居町北野","zip_code":"7990722"},{"name":"土居町小林","zip_code":"7990702"},{"name":"土居町津根","zip_code":"7990704"},{"name":"土居町天満","zip_code":"7990723"},{"name":"土居町土居","zip_code":"7990711"},{"name":"土居町中村","zip_code":"7990701"},{"name":"土居町野田","zip_code":"7990705"},{"name":"土居町畑野","zip_code":"7990714"},{"name":"土居町藤原","zip_code":"7990703"},{"name":"富郷町寒川山","zip_code":"7990643"},{"name":"富郷町津根山","zip_code":"7990645"},{"name":"富郷町豊坂","zip_code":"7990644"},{"name":"豊岡町五良野","zip_code":"7990434"},{"name":"豊岡町大町","zip_code":"7990432"},{"name":"豊岡町岡銅","zip_code":"7990436"},{"name":"豊岡町長田","zip_code":"7990435"},{"name":"豊岡町豊田","zip_code":"7990433"},{"name":"中曽根町","zip_code":"7990413"},{"name":"中之庄町","zip_code":"7990422"},{"name":"三島朝日","zip_code":"7990403"},{"name":"三島金子","zip_code":"7990421"},{"name":"三島紙屋町","zip_code":"7990402"},{"name":"三島中央","zip_code":"7990405"},{"name":"三島宮川","zip_code":"7990404"},{"name":"村松町","zip_code":"7990401"},{"name":"妻鳥町","zip_code":"7990113"}]},{"name":"西予市","divisions":[{"name":"明浜町狩浜","zip_code":"7970113"},{"name":"明浜町高山","zip_code":"7970201"},{"name":"明浜町田之浜","zip_code":"7970203"},{"name":"明浜町俵津","zip_code":"7970111"},{"name":"明浜町渡江","zip_code":"7970112"},{"name":"明浜町宮野浦","zip_code":"7970202"},{"name":"宇和町明間","zip_code":"7970010"},{"name":"宇和町明石","zip_code":"7970007"},{"name":"宇和町伊賀上","zip_code":"7970014"},{"name":"宇和町伊崎","zip_code":"7970004"},{"name":"宇和町稲生","zip_code":"7970013"},{"name":"宇和町伊延","zip_code":"7970034"},{"name":"宇和町岩木","zip_code":"7970026"},{"name":"宇和町卯之町","zip_code":"7970015"},{"name":"宇和町大江","zip_code":"7970043"},{"name":"宇和町岡山","zip_code":"7970033"},{"name":"宇和町小野田","zip_code":"7970022"},{"name":"宇和町小原","zip_code":"7970027"},{"name":"宇和町皆田","zip_code":"7970012"},{"name":"宇和町上松葉","zip_code":"7970046"},{"name":"宇和町加茂","zip_code":"7970044"},{"name":"宇和町河内","zip_code":"7970035"},{"name":"宇和町清沢","zip_code":"7970030"},{"name":"宇和町久保","zip_code":"7970036"},{"name":"宇和町窪","zip_code":"7970003"},{"name":"宇和町郷内","zip_code":"7970025"},{"name":"宇和町坂戸","zip_code":"7970045"},{"name":"宇和町さくら","zip_code":"7970008"},{"name":"宇和町下松葉","zip_code":"7970018"},{"name":"宇和町常定寺","zip_code":"7970005"},{"name":"宇和町新城","zip_code":"7970006"},{"name":"宇和町神領","zip_code":"7970016"},{"name":"宇和町瀬戸","zip_code":"7970042"},{"name":"宇和町田苗真土","zip_code":"7970032"},{"name":"宇和町田野中","zip_code":"7970001"},{"name":"宇和町永長","zip_code":"7970029"},{"name":"宇和町西山田","zip_code":"7970024"},{"name":"宇和町野田","zip_code":"7970021"},{"name":"宇和町信里","zip_code":"7970037"},{"name":"宇和町東多田","zip_code":"7970041"},{"name":"宇和町久枝","zip_code":"7970020"},{"name":"宇和町下川","zip_code":"7970011"},{"name":"宇和町ひまわり","zip_code":"7970017"},{"name":"宇和町平野","zip_code":"7970002"},{"name":"宇和町杢所","zip_code":"7970031"},{"name":"宇和町山田","zip_code":"7970023"},{"name":"宇和町れんげ","zip_code":"7970028"},{"name":"城川町魚成","zip_code":"7971716"},{"name":"城川町下相","zip_code":"7971717"},{"name":"城川町男河内","zip_code":"7971714"},{"name":"城川町嘉喜尾","zip_code":"7971713"},{"name":"城川町川津南","zip_code":"7971704"},{"name":"城川町窪野","zip_code":"7971703"},{"name":"城川町田穂","zip_code":"7971715"},{"name":"城川町高野子","zip_code":"7971705"},{"name":"城川町土居","zip_code":"7971701"},{"name":"城川町野井川","zip_code":"7971711"},{"name":"城川町古市","zip_code":"7971702"},{"name":"城川町遊子谷","zip_code":"7971712"},{"name":"野村町阿下","zip_code":"7971211"},{"name":"野村町旭","zip_code":"7971106"},{"name":"野村町大西","zip_code":"7971324"},{"name":"野村町大野ケ原","zip_code":"7971434"},{"name":"野村町片川","zip_code":"7971213"},{"name":"野村町釜川","zip_code":"7971323"},{"name":"野村町鎌田","zip_code":"7971326"},{"name":"野村町河西","zip_code":"7971104"},{"name":"野村町蔵良","zip_code":"7971216"},{"name":"野村町栗木","zip_code":"7971327"},{"name":"野村町小松","zip_code":"7971433"},{"name":"野村町坂石","zip_code":"7971322"},{"name":"野村町白髭","zip_code":"7971101"},{"name":"野村町四郎谷","zip_code":"7971103"},{"name":"野村町惣川","zip_code":"7971432"},{"name":"野村町高瀬","zip_code":"7971215"},{"name":"野村町鳥鹿野","zip_code":"7971107"},{"name":"野村町富野川","zip_code":"7971214"},{"name":"野村町長谷","zip_code":"7971105"},{"name":"野村町中通川","zip_code":"7971325"},{"name":"野村町西","zip_code":"7971328"},{"name":"野村町野村","zip_code":"7971212"},{"name":"野村町平野","zip_code":"7971217"},{"name":"野村町舟戸","zip_code":"7971431"},{"name":"野村町松渓","zip_code":"7971102"},{"name":"野村町予子林","zip_code":"7971321"},{"name":"三瓶町朝立","zip_code":"7960907"},{"name":"三瓶町安土","zip_code":"7960909"},{"name":"三瓶町有網代","zip_code":"7960910"},{"name":"三瓶町有太刀","zip_code":"7960911"},{"name":"三瓶町和泉","zip_code":"7960906"},{"name":"三瓶町蔵貫","zip_code":"7960913"},{"name":"三瓶町蔵貫浦","zip_code":"7960912"},{"name":"三瓶町鴫山","zip_code":"7960905"},{"name":"三瓶町下泊","zip_code":"7960915"},{"name":"三瓶町周木","zip_code":"7960901"},{"name":"三瓶町津布理","zip_code":"7960908"},{"name":"三瓶町長早","zip_code":"7960902"},{"name":"三瓶町二及","zip_code":"7960903"},{"name":"三瓶町垣生","zip_code":"7960904"},{"name":"三瓶町皆江","zip_code":"7960914"}]},{"name":"東温市","divisions":[{"name":"井内","zip_code":"7910315"},{"name":"上村","zip_code":"7910221"},{"name":"牛渕","zip_code":"7910213"},{"name":"上林","zip_code":"7910223"},{"name":"河之内","zip_code":"7910321"},{"name":"北方","zip_code":"7910303"},{"name":"北野田","zip_code":"7910215"},{"name":"志津川","zip_code":"7910204"},{"name":"下林","zip_code":"7910222"},{"name":"則之内甲","zip_code":"7910311"},{"name":"則之内乙","zip_code":"7910312"},{"name":"則之内丙","zip_code":"7910313"},{"name":"田窪","zip_code":"7910212"},{"name":"滑川","zip_code":"7910322"},{"name":"西岡","zip_code":"7910205"},{"name":"野田","zip_code":"7910216"},{"name":"樋口","zip_code":"7910202"},{"name":"松瀬川","zip_code":"7910314"},{"name":"南方","zip_code":"7910301"},{"name":"南野田","zip_code":"7910214"},{"name":"見奈良","zip_code":"7910211"},{"name":"明河","zip_code":"7910323"},{"name":"山之内","zip_code":"7910201"},{"name":"横河原","zip_code":"7910203"},{"name":"吉久","zip_code":"7910302"}]},{"name":"越智郡上島町","divisions":[{"name":"生名","zip_code":"7942550"},{"name":"岩城","zip_code":"7942410"},{"name":"魚島一番耕地","zip_code":"7942540"},{"name":"魚島二番耕地","zip_code":"7942541"},{"name":"魚島三番耕地","zip_code":"7942542"},{"name":"弓削太田","zip_code":"7942508"},{"name":"弓削大谷","zip_code":"7942513"},{"name":"弓削鎌田","zip_code":"7942510"},{"name":"弓削上弓削","zip_code":"7942503"},{"name":"弓削狩尾","zip_code":"7942512"},{"name":"弓削久司浦","zip_code":"7942501"},{"name":"弓削佐島","zip_code":"7942520"},{"name":"弓削沢津","zip_code":"7942502"},{"name":"弓削下弓削","zip_code":"7942506"},{"name":"弓削豊島","zip_code":"7942530"},{"name":"弓削土生","zip_code":"7942509"},{"name":"弓削引野","zip_code":"7942504"},{"name":"弓削日比","zip_code":"7942511"},{"name":"弓削百貫","zip_code":"7942503"},{"name":"弓削藤谷","zip_code":"7942507"},{"name":"弓削明神","zip_code":"7942505"}]},{"name":"上浮穴郡久万高原町","divisions":[{"name":"相の木","zip_code":"7911709"},{"name":"相の峰","zip_code":"7911705"},{"name":"有枝","zip_code":"7911505"},{"name":"入野","zip_code":"7911202"},{"name":"大川","zip_code":"7911504"},{"name":"大成","zip_code":"7911702"},{"name":"笠方","zip_code":"7911703"},{"name":"上黒岩","zip_code":"7911501"},{"name":"上野尻","zip_code":"7911206"},{"name":"上畑野川","zip_code":"7911211"},{"name":"久万","zip_code":"7911201"},{"name":"黒藤川","zip_code":"7911515"},{"name":"河の子","zip_code":"7911708"},{"name":"沢渡","zip_code":"7911514"},{"name":"仕出","zip_code":"7911513"},{"name":"渋草","zip_code":"7911701"},{"name":"下野尻","zip_code":"7911207"},{"name":"下畑野川","zip_code":"7911212"},{"name":"菅生","zip_code":"7911205"},{"name":"父野川","zip_code":"7911223"},{"name":"露峰","zip_code":"7911221"},{"name":"直瀬","zip_code":"7911213"},{"name":"中組","zip_code":"7911707"},{"name":"中黒岩","zip_code":"7911502"},{"name":"中津","zip_code":"7911803"},{"name":"七鳥","zip_code":"7911511"},{"name":"西谷","zip_code":"7911802"},{"name":"西明神","zip_code":"7911203"},{"name":"二名","zip_code":"7911222"},{"name":"東川","zip_code":"7911512"},{"name":"東明神","zip_code":"7911204"},{"name":"日野浦","zip_code":"7911503"},{"name":"本組","zip_code":"7911706"},{"name":"前組","zip_code":"7911704"},{"name":"柳井川","zip_code":"7911801"},{"name":"若山","zip_code":"7911710"}]},{"name":"伊予郡松前町","divisions":[{"name":"恵久美","zip_code":"7913141"},{"name":"大溝","zip_code":"7913153"},{"name":"上高柳","zip_code":"7913142"},{"name":"神崎","zip_code":"7913161"},{"name":"北川原","zip_code":"7913131"},{"name":"北黒田","zip_code":"7913102"},{"name":"出作","zip_code":"7913162"},{"name":"昌農内","zip_code":"7913133"},{"name":"大間","zip_code":"7913143"},{"name":"筒井","zip_code":"7913120"},{"name":"鶴吉","zip_code":"7913155"},{"name":"徳丸","zip_code":"7913163"},{"name":"中川原","zip_code":"7913164"},{"name":"永田","zip_code":"7913152"},{"name":"西古泉","zip_code":"7913134"},{"name":"西高柳","zip_code":"7913132"},{"name":"浜","zip_code":"7913110"},{"name":"東古泉","zip_code":"7913151"},{"name":"南黒田","zip_code":"7913101"},{"name":"横田","zip_code":"7913154"}]},{"name":"伊予郡砥部町","divisions":[{"name":"麻生","zip_code":"7912114"},{"name":"岩谷","zip_code":"7912142"},{"name":"岩谷口","zip_code":"7912141"},{"name":"鵜ノ崎","zip_code":"7912135"},{"name":"多居谷","zip_code":"7912206"},{"name":"大角蔵","zip_code":"7912126"},{"name":"大平","zip_code":"7912145"},{"name":"大南","zip_code":"7912132"},{"name":"上原町","zip_code":"7912117"},{"name":"川井","zip_code":"7912123"},{"name":"川登","zip_code":"7912143"},{"name":"北川毛","zip_code":"7912131"},{"name":"五本松","zip_code":"7912133"},{"name":"重光","zip_code":"7912112"},{"name":"拾町","zip_code":"7912113"},{"name":"千足","zip_code":"7912122"},{"name":"仙波","zip_code":"7912207"},{"name":"総津","zip_code":"7912205"},{"name":"高市","zip_code":"7912204"},{"name":"高尾田","zip_code":"7912103"},{"name":"田ノ浦","zip_code":"7912124"},{"name":"玉谷","zip_code":"7912202"},{"name":"外山","zip_code":"7912134"},{"name":"中野川","zip_code":"7912203"},{"name":"七折","zip_code":"7912125"},{"name":"原町","zip_code":"7912116"},{"name":"万年","zip_code":"7912144"},{"name":"満穂","zip_code":"7912201"},{"name":"宮内","zip_code":"7912121"},{"name":"三角","zip_code":"7912115"},{"name":"八倉","zip_code":"7912111"}]},{"name":"喜多郡内子町","divisions":[{"name":"五十崎","zip_code":"7950301"},{"name":"石畳","zip_code":"7913343"},{"name":"五百木","zip_code":"7913351"},{"name":"臼杵","zip_code":"7913514"},{"name":"内子","zip_code":"7913301"},{"name":"大久喜","zip_code":"7950302"},{"name":"大瀬","zip_code":"7913360"},{"name":"大瀬東","zip_code":"7913363"},{"name":"大瀬南","zip_code":"7913364"},{"name":"大瀬北","zip_code":"7913362"},{"name":"大瀬中央","zip_code":"7913361"},{"name":"大平","zip_code":"7913504"},{"name":"小田","zip_code":"7913501"},{"name":"小田深山","zip_code":"7913524"},{"name":"上川","zip_code":"7913523"},{"name":"上田渡","zip_code":"7913513"},{"name":"川中","zip_code":"7913321"},{"name":"河内","zip_code":"7913342"},{"name":"北表","zip_code":"7950307"},{"name":"重松","zip_code":"7950304"},{"name":"宿間","zip_code":"7950305"},{"name":"城廻","zip_code":"7913310"},{"name":"只海","zip_code":"7950309"},{"name":"立山","zip_code":"7913331"},{"name":"立石","zip_code":"7913505"},{"name":"知清","zip_code":"7913322"},{"name":"寺村","zip_code":"7913502"},{"name":"中川","zip_code":"7913522"},{"name":"中田渡","zip_code":"7913512"},{"name":"日野川","zip_code":"7913503"},{"name":"平岡","zip_code":"7950303"},{"name":"福岡","zip_code":"7950306"},{"name":"袋口","zip_code":"7913332"},{"name":"本川","zip_code":"7913521"},{"name":"南山","zip_code":"7913506"},{"name":"村前","zip_code":"7913352"},{"name":"山鳥坂","zip_code":"7950308"},{"name":"吉野川","zip_code":"7913511"},{"name":"論田","zip_code":"7913341"}]},{"name":"西宇和郡伊方町","divisions":[{"name":"足成","zip_code":"7960501"},{"name":"伊方越","zip_code":"7960304"},{"name":"井野浦","zip_code":"7960805"},{"name":"大江","zip_code":"7960503"},{"name":"大久","zip_code":"7960612"},{"name":"大佐田","zip_code":"7960804"},{"name":"大浜","zip_code":"7960308"},{"name":"釜木","zip_code":"7960815"},{"name":"亀浦","zip_code":"7960303"},{"name":"河内","zip_code":"7960305"},{"name":"川永田","zip_code":"7960312"},{"name":"川之浜","zip_code":"7960611"},{"name":"串","zip_code":"7960822"},{"name":"九町","zip_code":"7960421"},{"name":"神崎","zip_code":"7960613"},{"name":"高茂","zip_code":"7960615"},{"name":"小島","zip_code":"7960505"},{"name":"小中浦","zip_code":"7960302"},{"name":"佐田","zip_code":"7960803"},{"name":"塩成","zip_code":"7960506"},{"name":"志津","zip_code":"7960504"},{"name":"正野","zip_code":"7960823"},{"name":"高浦","zip_code":"7960802"},{"name":"田部","zip_code":"7960614"},{"name":"豊之浦","zip_code":"7960313"},{"name":"中浦","zip_code":"7960311"},{"name":"中之浜","zip_code":"7960307"},{"name":"名取","zip_code":"7960816"},{"name":"仁田之浜","zip_code":"7960306"},{"name":"平礒","zip_code":"7960814"},{"name":"二名津","zip_code":"7960813"},{"name":"二見","zip_code":"7960422"},{"name":"松","zip_code":"7960811"},{"name":"三崎","zip_code":"7960801"},{"name":"三机","zip_code":"7960502"},{"name":"湊浦","zip_code":"7960301"},{"name":"明神","zip_code":"7960812"},{"name":"与侈","zip_code":"7960821"}]},{"name":"北宇和郡松野町","divisions":[{"name":"奥野川","zip_code":"7982113"},{"name":"上家地","zip_code":"7982105"},{"name":"富岡","zip_code":"7982104"},{"name":"豊岡","zip_code":"7982103"},{"name":"延野々","zip_code":"7982102"},{"name":"松丸","zip_code":"7982101"},{"name":"目黒","zip_code":"7982106"},{"name":"吉野","zip_code":"7982111"},{"name":"蕨生","zip_code":"7982112"}]},{"name":"北宇和郡鬼北町","divisions":[{"name":"畔屋","zip_code":"7981375"},{"name":"生田","zip_code":"7981371"},{"name":"出目","zip_code":"7981332"},{"name":"岩谷","zip_code":"7981323"},{"name":"内深田","zip_code":"7981363"},{"name":"大宿","zip_code":"7981301"},{"name":"興野々","zip_code":"7981331"},{"name":"小倉","zip_code":"7981321"},{"name":"上大野","zip_code":"7981503"},{"name":"上鍵山","zip_code":"7981501"},{"name":"上川","zip_code":"7981322"},{"name":"川上","zip_code":"7981312"},{"name":"北川","zip_code":"7981354"},{"name":"清延","zip_code":"7981362"},{"name":"国遠","zip_code":"7981361"},{"name":"久保","zip_code":"7981314"},{"name":"小西野々","zip_code":"7981324"},{"name":"小松","zip_code":"7981311"},{"name":"沢松","zip_code":"7981367"},{"name":"芝","zip_code":"7981355"},{"name":"下大野","zip_code":"7981302"},{"name":"下鍵山","zip_code":"7981502"},{"name":"清水","zip_code":"7981373"},{"name":"近永","zip_code":"7981341"},{"name":"父野川上","zip_code":"7981505"},{"name":"父野川中","zip_code":"7981506"},{"name":"父野川下","zip_code":"7981507"},{"name":"永野市","zip_code":"7981333"},{"name":"中野川","zip_code":"7981356"},{"name":"奈良","zip_code":"7981352"},{"name":"成藤","zip_code":"7981374"},{"name":"西仲","zip_code":"7981365"},{"name":"西野々","zip_code":"7981372"},{"name":"延川","zip_code":"7981313"},{"name":"東仲","zip_code":"7981366"},{"name":"日向谷","zip_code":"7981504"},{"name":"広見","zip_code":"7981303"},{"name":"吉波","zip_code":"7981364"}]},{"name":"南宇和郡愛南町","divisions":[{"name":"赤水","zip_code":"7984123"},{"name":"網代","zip_code":"7983708"},{"name":"敦盛","zip_code":"7984345"},{"name":"家串","zip_code":"7983705"},{"name":"一本松","zip_code":"7984408"},{"name":"鯆越","zip_code":"7984351"},{"name":"岩水","zip_code":"7984344"},{"name":"内泊","zip_code":"7984206"},{"name":"上大道","zip_code":"7984407"},{"name":"大成川","zip_code":"7984214"},{"name":"大浜","zip_code":"7984347"},{"name":"垣内","zip_code":"7984343"},{"name":"柿ノ浦","zip_code":"7984346"},{"name":"樫月","zip_code":"7984204"},{"name":"鹿島","zip_code":"7984209"},{"name":"柏","zip_code":"7983701"},{"name":"柏崎","zip_code":"7983702"},{"name":"高茂","zip_code":"7984219"},{"name":"小浦","zip_code":"7984203"},{"name":"越田","zip_code":"7984201"},{"name":"小成川","zip_code":"7984215"},{"name":"小山","zip_code":"7984403"},{"name":"猿鳴","zip_code":"7984126"},{"name":"下久家","zip_code":"7984212"},{"name":"城辺甲","zip_code":"7984131"},{"name":"城辺乙","zip_code":"7984132"},{"name":"須ノ川","zip_code":"7983703"},{"name":"僧都","zip_code":"7984136"},{"name":"外泊","zip_code":"7984208"},{"name":"高畑","zip_code":"7984124"},{"name":"樽見","zip_code":"7984213"},{"name":"中浦","zip_code":"7984125"},{"name":"中玉","zip_code":"7984348"},{"name":"中泊","zip_code":"7984207"},{"name":"中川","zip_code":"7984404"},{"name":"魚神山","zip_code":"7983707"},{"name":"久家","zip_code":"7984211"},{"name":"久良","zip_code":"7984353"},{"name":"平碆","zip_code":"7983704"},{"name":"広見","zip_code":"7984406"},{"name":"深浦","zip_code":"7984342"},{"name":"福浦","zip_code":"7984216"},{"name":"船越","zip_code":"7984205"},{"name":"古月","zip_code":"7984352"},{"name":"防城成川","zip_code":"7984122"},{"name":"正木","zip_code":"7984401"},{"name":"増田","zip_code":"7984402"},{"name":"御荘菊川","zip_code":"7984101"},{"name":"御荘長洲","zip_code":"7984103"},{"name":"御荘長月","zip_code":"7984105"},{"name":"御荘平城","zip_code":"7984110"},{"name":"御荘平山","zip_code":"7984102"},{"name":"御荘深泥","zip_code":"7984121"},{"name":"御荘和口","zip_code":"7984104"},{"name":"満倉","zip_code":"7984405"},{"name":"緑甲","zip_code":"7984134"},{"name":"緑乙","zip_code":"7984133"},{"name":"緑丙","zip_code":"7984135"},{"name":"麦ケ浦","zip_code":"7984217"},{"name":"武者泊","zip_code":"7984218"},{"name":"油袋","zip_code":"7983706"},{"name":"弓立","zip_code":"7984202"},{"name":"蓮乗寺","zip_code":"7984341"},{"name":"脇本","zip_code":"7984349"}]}]}