{"name":"高知県","cities":[{"name":"高知市","divisions":[{"name":"相生町","zip_code":"7800054"},{"name":"青柳町","zip_code":"7800813"},{"name":"赤石町","zip_code":"7800936"},{"name":"曙町","zip_code":"7808072"},{"name":"朝倉甲","zip_code":"7808061"},{"name":"朝倉乙","zip_code":"7808062"},{"name":"朝倉丙","zip_code":"7808063"},{"name":"朝倉丁","zip_code":"7808064"},{"name":"朝倉戊","zip_code":"7808065"},{"name":"朝倉己","zip_code":"7808066"},{"name":"朝倉西町","zip_code":"7808077"},{"name":"朝倉東町","zip_code":"7808076"},{"name":"朝倉南町","zip_code":"7808075"},{"name":"朝倉横町","zip_code":"7808074"},{"name":"朝倉本町","zip_code":"7808073"},{"name":"旭駅前町","zip_code":"7800938"},{"name":"旭上町","zip_code":"7800943"},{"name":"旭天神町","zip_code":"7800955"},{"name":"旭町","zip_code":"7800935"},{"name":"薊野","zip_code":"7810010"},{"name":"薊野中町","zip_code":"7810013"},{"name":"薊野東町","zip_code":"7810012"},{"name":"薊野西町","zip_code":"7810015"},{"name":"薊野南町","zip_code":"7810014"},{"name":"薊野北町","zip_code":"7810011"},{"name":"愛宕町","zip_code":"7800051"},{"name":"愛宕山","zip_code":"7800025"},{"name":"愛宕山南町","zip_code":"7800027"},{"name":"井口町","zip_code":"7800921"},{"name":"池","zip_code":"7810111"},{"name":"石立町","zip_code":"7808038"},{"name":"和泉町","zip_code":"7800064"},{"name":"伊勢崎町","zip_code":"7800046"},{"name":"一宮","zip_code":"7818130"},{"name":"一宮しなね","zip_code":"7818131"},{"name":"一宮徳谷","zip_code":"7818133"},{"name":"一宮中町","zip_code":"7818134"},{"name":"一宮西町","zip_code":"7818136"},{"name":"一宮東町","zip_code":"7818132"},{"name":"一宮南町","zip_code":"7818135"},{"name":"稲荷町","zip_code":"7800814"},{"name":"入明町","zip_code":"7800041"},{"name":"岩ケ淵","zip_code":"7800948"},{"name":"鵜来巣","zip_code":"7808083"},{"name":"潮新町","zip_code":"7808008"},{"name":"宇津野","zip_code":"7800031"},{"name":"梅ノ辻","zip_code":"7808011"},{"name":"浦戸","zip_code":"7810262"},{"name":"永国寺町","zip_code":"7800844"},{"name":"駅前町","zip_code":"7800053"},{"name":"越前町","zip_code":"7800928"},{"name":"海老ノ丸","zip_code":"7800086"},{"name":"円行寺","zip_code":"7800974"},{"name":"追手筋","zip_code":"7800842"},{"name":"大川筋","zip_code":"7800052"},{"name":"大谷","zip_code":"7800947"},{"name":"大谷公園町","zip_code":"7808085"},{"name":"大津甲","zip_code":"7815102"},{"name":"大津乙","zip_code":"7815103"},{"name":"大原町","zip_code":"7808031"},{"name":"小倉町","zip_code":"7800801"},{"name":"小津町","zip_code":"7800915"},{"name":"帯屋町","zip_code":"7800841"},{"name":"加賀野井","zip_code":"7800032"},{"name":"鏡今井","zip_code":"7813104"},{"name":"鏡梅ノ木","zip_code":"7813124"},{"name":"鏡大河内","zip_code":"7813101"},{"name":"鏡大利","zip_code":"7813103"},{"name":"鏡柿ノ又","zip_code":"7813115"},{"name":"鏡葛山","zip_code":"7813123"},{"name":"鏡狩山","zip_code":"7813107"},{"name":"鏡草峰","zip_code":"7813105"},{"name":"鏡小浜","zip_code":"7813102"},{"name":"鏡小山","zip_code":"7813125"},{"name":"鏡去坂","zip_code":"7813112"},{"name":"鏡敷ノ山","zip_code":"7813114"},{"name":"鏡白岩","zip_code":"7813106"},{"name":"鏡竹奈路","zip_code":"7813113"},{"name":"鏡増原","zip_code":"7813122"},{"name":"鏡的渕","zip_code":"7813111"},{"name":"鏡横矢","zip_code":"7813121"},{"name":"鏡吉原","zip_code":"7813108"},{"name":"鏡川町","zip_code":"7800933"},{"name":"葛島","zip_code":"7818121"},{"name":"上本宮町","zip_code":"7800946"},{"name":"上町","zip_code":"7800901"},{"name":"鴨部","zip_code":"7808052"},{"name":"鴨部上町","zip_code":"7808051"},{"name":"鴨部高町","zip_code":"7808071"},{"name":"唐岩","zip_code":"7800994"},{"name":"北金田","zip_code":"7800073"},{"name":"北川添","zip_code":"7800081"},{"name":"北久保","zip_code":"7800088"},{"name":"北御座","zip_code":"7800083"},{"name":"北新田町","zip_code":"7808003"},{"name":"北秦泉寺","zip_code":"7800022"},{"name":"北高見町","zip_code":"7808028"},{"name":"北竹島町","zip_code":"7808019"},{"name":"北中山","zip_code":"7808026"},{"name":"北八反町","zip_code":"7800913"},{"name":"北端町","zip_code":"7800956"},{"name":"北本町","zip_code":"7800056"},{"name":"吸江","zip_code":"7818126"},{"name":"九反田","zip_code":"7800832"},{"name":"口細山","zip_code":"7800963"},{"name":"久礼野","zip_code":"7800001"},{"name":"介良甲","zip_code":"7815105"},{"name":"介良乙","zip_code":"7815106"},{"name":"介良丙","zip_code":"7815107"},{"name":"介良","zip_code":"7815104"},{"name":"小石木町","zip_code":"7808032"},{"name":"弘化台","zip_code":"7800811"},{"name":"幸崎","zip_code":"7808033"},{"name":"神田","zip_code":"7808040"},{"name":"河ノ瀬町","zip_code":"7808035"},{"name":"江陽町","zip_code":"7800055"},{"name":"五台山","zip_code":"7818125"},{"name":"寿町","zip_code":"7800043"},{"name":"幸町","zip_code":"7800045"},{"name":"菜園場町","zip_code":"7800823"},{"name":"堺町","zip_code":"7800834"},{"name":"栄田町","zip_code":"7800061"},{"name":"相模町","zip_code":"7800047"},{"name":"桜井町","zip_code":"7800821"},{"name":"桜馬場","zip_code":"7800929"},{"name":"佐々木町","zip_code":"7800954"},{"name":"三ノ丸","zip_code":"7800923"},{"name":"桟橋通","zip_code":"7808010"},{"name":"塩田町","zip_code":"7800065"},{"name":"潮見台","zip_code":"7815108"},{"name":"塩屋崎町","zip_code":"7808014"},{"name":"重倉","zip_code":"7800002"},{"name":"東雲町","zip_code":"7800805"},{"name":"柴巻","zip_code":"7800975"},{"name":"下島町","zip_code":"7800934"},{"name":"城北町","zip_code":"7800916"},{"name":"城山町","zip_code":"7808037"},{"name":"上里","zip_code":"7800996"},{"name":"昭和町","zip_code":"7800063"},{"name":"城見町","zip_code":"7800824"},{"name":"新田町","zip_code":"7808004"},{"name":"新本町","zip_code":"7800062"},{"name":"新屋敷","zip_code":"7800911"},{"name":"水源町","zip_code":"7800944"},{"name":"水通町","zip_code":"7800903"},{"name":"杉井流","zip_code":"7800072"},{"name":"瀬戸","zip_code":"7810250"},{"name":"瀬戸東町","zip_code":"7810252"},{"name":"瀬戸西町","zip_code":"7810251"},{"name":"瀬戸南町","zip_code":"7810253"},{"name":"宗安寺","zip_code":"7800991"},{"name":"大膳町","zip_code":"7800926"},{"name":"鷹匠町","zip_code":"7800862"},{"name":"高須","zip_code":"7818123"},{"name":"高須大島","zip_code":"7818111"},{"name":"高須大谷","zip_code":"7818112"},{"name":"高須新木","zip_code":"7818103"},{"name":"高須新町","zip_code":"7818122"},{"name":"高須砂地","zip_code":"7818101"},{"name":"高須絶海","zip_code":"7818113"},{"name":"高須西町","zip_code":"7818114"},{"name":"高須東町","zip_code":"7818105"},{"name":"高須本町","zip_code":"7818102"},{"name":"高そね","zip_code":"7800071"},{"name":"高見町","zip_code":"7808027"},{"name":"宝町","zip_code":"7800914"},{"name":"竹島町","zip_code":"7808018"},{"name":"種崎","zip_code":"7810113"},{"name":"玉水町","zip_code":"7800931"},{"name":"知寄町","zip_code":"7800806"},{"name":"塚ノ原","zip_code":"7800952"},{"name":"天神町","zip_code":"7808012"},{"name":"土居町","zip_code":"7808001"},{"name":"唐人町","zip_code":"7800864"},{"name":"十津","zip_code":"7810114"},{"name":"通町","zip_code":"7800904"},{"name":"土佐山","zip_code":"7813201"},{"name":"土佐山梶谷","zip_code":"7813212"},{"name":"土佐山桑尾","zip_code":"7813221"},{"name":"土佐山菖蒲","zip_code":"7813214"},{"name":"土佐山高川","zip_code":"7813211"},{"name":"土佐山都網","zip_code":"7813202"},{"name":"土佐山中切","zip_code":"7813223"},{"name":"土佐山西川","zip_code":"7813213"},{"name":"土佐山東川","zip_code":"7813222"},{"name":"土佐山弘瀬","zip_code":"7813203"},{"name":"鳥越","zip_code":"7800949"},{"name":"中久万","zip_code":"7800983"},{"name":"中秦泉寺","zip_code":"7800021"},{"name":"中水道","zip_code":"7800044"},{"name":"中須賀町","zip_code":"7800937"},{"name":"仲田町","zip_code":"7808007"},{"name":"中の島","zip_code":"7800831"},{"name":"中宝永町","zip_code":"7800817"},{"name":"中万々","zip_code":"7800972"},{"name":"長尾山町","zip_code":"7800953"},{"name":"長浜","zip_code":"7810270"},{"name":"長浜蒔絵台","zip_code":"7810245"},{"name":"長浜宮田","zip_code":"7810271"},{"name":"七ツ淵","zip_code":"7800003"},{"name":"行川","zip_code":"7800992"},{"name":"縄手町","zip_code":"7800932"},{"name":"仁井田","zip_code":"7810112"},{"name":"西久万","zip_code":"7800984"},{"name":"西秦泉寺","zip_code":"7800033"},{"name":"西塚ノ原","zip_code":"7800951"},{"name":"西町","zip_code":"7800925"},{"name":"廿代町","zip_code":"7800843"},{"name":"布師田","zip_code":"7815101"},{"name":"農人町","zip_code":"7800825"},{"name":"萩町","zip_code":"7808006"},{"name":"秦南町","zip_code":"7800026"},{"name":"八反町","zip_code":"7800912"},{"name":"孕東町","zip_code":"7808021"},{"name":"孕西町","zip_code":"7808022"},{"name":"針木北","zip_code":"7808087"},{"name":"針木西","zip_code":"7808090"},{"name":"針木東町","zip_code":"7808086"},{"name":"針木本町","zip_code":"7808088"},{"name":"針木南","zip_code":"7808089"},{"name":"針原","zip_code":"7800993"},{"name":"はりまや町","zip_code":"7800822"},{"name":"春野町秋山","zip_code":"7810321"},{"name":"春野町内ノ谷","zip_code":"7810313"},{"name":"春野町甲殿","zip_code":"7810322"},{"name":"春野町西畑","zip_code":"7810324"},{"name":"春野町西分","zip_code":"7810304"},{"name":"春野町西諸木","zip_code":"7810316"},{"name":"春野町仁ノ","zip_code":"7810323"},{"name":"春野町東諸木","zip_code":"7810315"},{"name":"春野町弘岡上","zip_code":"7810301"},{"name":"春野町弘岡下","zip_code":"7810303"},{"name":"春野町弘岡中","zip_code":"7810302"},{"name":"春野町平和","zip_code":"7810312"},{"name":"春野町南ケ丘","zip_code":"7810314"},{"name":"春野町森山","zip_code":"7810325"},{"name":"春野町芳原","zip_code":"7810311"},{"name":"東石立町","zip_code":"7808039"},{"name":"東久万","zip_code":"7800982"},{"name":"東城山町","zip_code":"7808036"},{"name":"東秦泉寺","zip_code":"7800023"},{"name":"尾立","zip_code":"7800962"},{"name":"比島町","zip_code":"7800066"},{"name":"筆山町","zip_code":"7808013"},{"name":"一ツ橋町","zip_code":"7800981"},{"name":"日の出町","zip_code":"7800804"},{"name":"百石町","zip_code":"7808015"},{"name":"深谷町","zip_code":"7808024"},{"name":"福井扇町","zip_code":"7800966"},{"name":"福井町","zip_code":"7800965"},{"name":"福井東町","zip_code":"7800967"},{"name":"札場","zip_code":"7800085"},{"name":"二葉町","zip_code":"7800815"},{"name":"平和町","zip_code":"7800922"},{"name":"宝永町","zip_code":"7800818"},{"name":"洞ケ島町","zip_code":"7800042"},{"name":"本宮町","zip_code":"7800945"},{"name":"本丁筋","zip_code":"7800902"},{"name":"本町","zip_code":"7800870"},{"name":"前里","zip_code":"7800024"},{"name":"槇山町","zip_code":"7808084"},{"name":"升形","zip_code":"7800861"},{"name":"万々","zip_code":"7800973"},{"name":"丸池町","zip_code":"7800802"},{"name":"丸ノ内","zip_code":"7800850"},{"name":"三園町","zip_code":"7800034"},{"name":"三谷","zip_code":"7800004"},{"name":"みづき","zip_code":"7800976"},{"name":"みづき山","zip_code":"7800977"},{"name":"南金田","zip_code":"7800074"},{"name":"南川添","zip_code":"7800082"},{"name":"南久保","zip_code":"7800087"},{"name":"南久万","zip_code":"7800985"},{"name":"南河ノ瀬町","zip_code":"7808034"},{"name":"南御座","zip_code":"7800084"},{"name":"南新田町","zip_code":"7808005"},{"name":"南竹島町","zip_code":"7808017"},{"name":"南中山","zip_code":"7808025"},{"name":"南ノ丸町","zip_code":"7808016"},{"name":"南はりまや町","zip_code":"7800833"},{"name":"南宝永町","zip_code":"7800816"},{"name":"南万々","zip_code":"7800971"},{"name":"南元町","zip_code":"7800942"},{"name":"御畳瀬","zip_code":"7810261"},{"name":"宮前町","zip_code":"7800924"},{"name":"元町","zip_code":"7800941"},{"name":"屋頭","zip_code":"7818124"},{"name":"役知町","zip_code":"7808002"},{"name":"山手町","zip_code":"7800957"},{"name":"山ノ端町","zip_code":"7800927"},{"name":"弥生町","zip_code":"7800803"},{"name":"横内","zip_code":"7800964"},{"name":"横浜","zip_code":"7810240"},{"name":"横浜新町","zip_code":"7810241"},{"name":"横浜西町","zip_code":"7810242"},{"name":"横浜東町","zip_code":"7810243"},{"name":"横浜南町","zip_code":"7810244"},{"name":"吉田町","zip_code":"7800048"},{"name":"与力町","zip_code":"7800863"},{"name":"領家","zip_code":"7800995"},{"name":"蓮台","zip_code":"7800961"},{"name":"六泉寺町","zip_code":"7808023"},{"name":"若草町","zip_code":"7808081"},{"name":"若草南町","zip_code":"7808082"},{"name":"若松町","zip_code":"7800812"}]},{"name":"室戸市","divisions":[{"name":"浮津","zip_code":"7817103"},{"name":"浮津一番町","zip_code":"7817104"},{"name":"浮津二番町","zip_code":"7817105"},{"name":"浮津三番町","zip_code":"7817106"},{"name":"吉良川町甲","zip_code":"7816832"},{"name":"吉良川町乙","zip_code":"7816831"},{"name":"吉良川町丙","zip_code":"7816833"},{"name":"佐喜浜町","zip_code":"7817220"},{"name":"羽根町甲","zip_code":"7816741"},{"name":"羽根町乙","zip_code":"7816742"},{"name":"室津","zip_code":"7817102"},{"name":"室戸岬町","zip_code":"7817101"},{"name":"元甲","zip_code":"7817107"},{"name":"元乙","zip_code":"7817108"},{"name":"領家","zip_code":"7817109"}]},{"name":"安芸市","divisions":[{"name":"赤野甲","zip_code":"7840033"},{"name":"赤野乙","zip_code":"7840034"},{"name":"安芸ノ川甲","zip_code":"7840057"},{"name":"安芸ノ川乙","zip_code":"7840058"},{"name":"穴内甲","zip_code":"7840031"},{"name":"穴内乙","zip_code":"7840032"},{"name":"伊尾木","zip_code":"7840045"},{"name":"井ノ口甲","zip_code":"7840051"},{"name":"井ノ口乙","zip_code":"7840052"},{"name":"植野","zip_code":"7840029"},{"name":"大井甲","zip_code":"7840274"},{"name":"大井乙","zip_code":"7840275"},{"name":"尾川甲","zip_code":"7840055"},{"name":"尾川乙","zip_code":"7840056"},{"name":"小谷","zip_code":"7840053"},{"name":"川北甲","zip_code":"7840043"},{"name":"川北乙","zip_code":"7840044"},{"name":"久世町","zip_code":"7840003"},{"name":"黒瀬","zip_code":"7840273"},{"name":"黒鳥","zip_code":"7840028"},{"name":"古井","zip_code":"7840276"},{"name":"寿町","zip_code":"7840007"},{"name":"幸町","zip_code":"7840021"},{"name":"桜ケ丘町","zip_code":"7840026"},{"name":"島","zip_code":"7840277"},{"name":"下山","zip_code":"7840046"},{"name":"庄之芝町","zip_code":"7840022"},{"name":"清和町","zip_code":"7840008"},{"name":"僧津","zip_code":"7840041"},{"name":"染井町","zip_code":"7840023"},{"name":"千歳町","zip_code":"7840024"},{"name":"津久茂町","zip_code":"7840025"},{"name":"土居","zip_code":"7840042"},{"name":"栃ノ木","zip_code":"7840054"},{"name":"奈比賀","zip_code":"7840271"},{"name":"西浜","zip_code":"7840020"},{"name":"入河内","zip_code":"7840272"},{"name":"畑山甲","zip_code":"7840061"},{"name":"畑山乙","zip_code":"7840062"},{"name":"畑山丙","zip_code":"7840063"},{"name":"花園町","zip_code":"7840002"},{"name":"東浜","zip_code":"7840010"},{"name":"日ノ出町","zip_code":"7840006"},{"name":"別役","zip_code":"7840278"},{"name":"宝永町","zip_code":"7840027"},{"name":"本町","zip_code":"7840004"},{"name":"舞川","zip_code":"7840064"},{"name":"港町","zip_code":"7840005"},{"name":"矢ノ丸","zip_code":"7840001"}]},{"name":"南国市","divisions":[{"name":"上倉","zip_code":"7830074"},{"name":"伊達野","zip_code":"7830008"},{"name":"稲生","zip_code":"7830084"},{"name":"植田","zip_code":"7830063"},{"name":"植野","zip_code":"7830061"},{"name":"駅前町","zip_code":"7830002"},{"name":"大改野","zip_code":"7830077"},{"name":"大そね甲","zip_code":"7830004"},{"name":"大そね乙","zip_code":"7830005"},{"name":"岡豊町江村","zip_code":"7830046"},{"name":"岡豊町笠ノ川","zip_code":"7830051"},{"name":"岡豊町蒲原","zip_code":"7830042"},{"name":"岡豊町小篭","zip_code":"7830048"},{"name":"岡豊町小蓮","zip_code":"7830043"},{"name":"岡豊町常通寺島","zip_code":"7830047"},{"name":"岡豊町定林寺","zip_code":"7830041"},{"name":"岡豊町滝本","zip_code":"7830040"},{"name":"岡豊町中島","zip_code":"7830049"},{"name":"岡豊町八幡","zip_code":"7830044"},{"name":"岡豊町吉田","zip_code":"7830045"},{"name":"片山","zip_code":"7830081"},{"name":"金地","zip_code":"7830035"},{"name":"包末","zip_code":"7830033"},{"name":"上末松","zip_code":"7830026"},{"name":"上野田","zip_code":"7830032"},{"name":"亀岩","zip_code":"7830071"},{"name":"久礼田","zip_code":"7830062"},{"name":"黒滝","zip_code":"7830076"},{"name":"桑ノ川","zip_code":"7830075"},{"name":"国分","zip_code":"7830053"},{"name":"小籠","zip_code":"7830022"},{"name":"後免町","zip_code":"7830011"},{"name":"才谷","zip_code":"7830068"},{"name":"幸町","zip_code":"7830013"},{"name":"里改田","zip_code":"7830082"},{"name":"三畠","zip_code":"7830027"},{"name":"宍崎","zip_code":"7830064"},{"name":"篠原","zip_code":"7830006"},{"name":"下島","zip_code":"7830095"},{"name":"下末松","zip_code":"7830025"},{"name":"下野田","zip_code":"7830031"},{"name":"白木谷","zip_code":"7830058"},{"name":"陣山","zip_code":"7830028"},{"name":"左右山","zip_code":"7830052"},{"name":"蔵福寺島","zip_code":"7830037"},{"name":"立田","zip_code":"7830091"},{"name":"田村","zip_code":"7830092"},{"name":"天行寺","zip_code":"7830067"},{"name":"十市","zip_code":"7830085"},{"name":"外山","zip_code":"7830065"},{"name":"中谷","zip_code":"7830073"},{"name":"中ノ川","zip_code":"7830078"},{"name":"成合","zip_code":"7830066"},{"name":"奈路","zip_code":"7830072"},{"name":"西野田町","zip_code":"7830003"},{"name":"西山","zip_code":"7830029"},{"name":"野中","zip_code":"7830021"},{"name":"廿枝","zip_code":"7830023"},{"name":"浜改田","zip_code":"7830083"},{"name":"比江","zip_code":"7830054"},{"name":"東崎","zip_code":"7830024"},{"name":"東山町","zip_code":"7830012"},{"name":"久枝","zip_code":"7830096"},{"name":"日吉町","zip_code":"7830001"},{"name":"福船","zip_code":"7830036"},{"name":"双葉台","zip_code":"7830055"},{"name":"蛍が丘","zip_code":"7830060"},{"name":"堀ノ内","zip_code":"7830034"},{"name":"前浜","zip_code":"7830094"},{"name":"緑ケ丘","zip_code":"7830086"},{"name":"明見","zip_code":"7830007"},{"name":"三和琴平","zip_code":"7830087"},{"name":"元町","zip_code":"7830014"},{"name":"物部","zip_code":"7830093"},{"name":"八京","zip_code":"7830057"},{"name":"領石","zip_code":"7830056"}]},{"name":"土佐市","divisions":[{"name":"浅井","zip_code":"7811136"},{"name":"家俊","zip_code":"7811134"},{"name":"出間","zip_code":"7811142"},{"name":"市野々","zip_code":"7811132"},{"name":"岩戸","zip_code":"7811141"},{"name":"宇佐町井尻","zip_code":"7811164"},{"name":"宇佐町渭浜","zip_code":"7811162"},{"name":"宇佐町宇佐","zip_code":"7811161"},{"name":"宇佐町福島","zip_code":"7811163"},{"name":"宇佐町竜","zip_code":"7811165"},{"name":"甲原","zip_code":"7811113"},{"name":"北地","zip_code":"7811111"},{"name":"積善寺","zip_code":"7811125"},{"name":"高岡町甲","zip_code":"7811101"},{"name":"高岡町乙","zip_code":"7811102"},{"name":"高岡町丙","zip_code":"7811103"},{"name":"高岡町丁","zip_code":"7811104"},{"name":"鷹ノ巣","zip_code":"7811133"},{"name":"太郎丸","zip_code":"7811135"},{"name":"塚地","zip_code":"7811153"},{"name":"中島","zip_code":"7811151"},{"name":"永野","zip_code":"7811131"},{"name":"新居","zip_code":"7811154"},{"name":"西鴨地","zip_code":"7811123"},{"name":"波介","zip_code":"7811143"},{"name":"蓮池","zip_code":"7811105"},{"name":"東鴨地","zip_code":"7811121"},{"name":"福田","zip_code":"7811112"},{"name":"本村","zip_code":"7811122"},{"name":"宮ノ内","zip_code":"7811124"},{"name":"用石","zip_code":"7811152"},{"name":"谷地","zip_code":"7811114"}]},{"name":"須崎市","divisions":[{"name":"吾井郷甲","zip_code":"7850047"},{"name":"吾井郷乙","zip_code":"7850044"},{"name":"青木町","zip_code":"7850004"},{"name":"赤崎町","zip_code":"7850037"},{"name":"安和","zip_code":"7850024"},{"name":"池ノ内","zip_code":"7850021"},{"name":"泉町","zip_code":"7850017"},{"name":"浦ノ内出見","zip_code":"7850165"},{"name":"浦ノ内今川内","zip_code":"7850173"},{"name":"浦ノ内下中山","zip_code":"7850174"},{"name":"浦ノ内塩間","zip_code":"7850166"},{"name":"浦ノ内須ノ浦","zip_code":"7850171"},{"name":"浦ノ内立目摺木","zip_code":"7850164"},{"name":"浦ノ内西分","zip_code":"7850161"},{"name":"浦ノ内灰方","zip_code":"7850167"},{"name":"浦ノ内東分","zip_code":"7850163"},{"name":"浦ノ内福良","zip_code":"7850172"},{"name":"大谷","zip_code":"7850055"},{"name":"多ノ郷甲","zip_code":"7850030"},{"name":"多ノ郷乙","zip_code":"7850054"},{"name":"大間東町","zip_code":"7850035"},{"name":"大間西町","zip_code":"7850033"},{"name":"大間本町","zip_code":"7850034"},{"name":"押岡","zip_code":"7850052"},{"name":"鍛冶町","zip_code":"7850010"},{"name":"上分甲","zip_code":"7850026"},{"name":"上分乙","zip_code":"7850027"},{"name":"上分丙","zip_code":"7850028"},{"name":"桐間西","zip_code":"7850059"},{"name":"桐間東","zip_code":"7850057"},{"name":"桐間南","zip_code":"7850058"},{"name":"久通","zip_code":"7850053"},{"name":"神田","zip_code":"7850051"},{"name":"幸町","zip_code":"7850015"},{"name":"栄町","zip_code":"7850016"},{"name":"潮田町","zip_code":"7850032"},{"name":"下郷","zip_code":"7850025"},{"name":"下分甲","zip_code":"7850022"},{"name":"下分乙","zip_code":"7850023"},{"name":"新町","zip_code":"7850003"},{"name":"須崎","zip_code":"7850018"},{"name":"桑田山甲","zip_code":"7850046"},{"name":"桑田山乙","zip_code":"7850045"},{"name":"土崎町","zip_code":"7850043"},{"name":"中町","zip_code":"7850008"},{"name":"西崎町","zip_code":"7850041"},{"name":"西糺町","zip_code":"7850012"},{"name":"西古市町","zip_code":"7850013"},{"name":"西町","zip_code":"7850009"},{"name":"野見","zip_code":"7850056"},{"name":"浜町","zip_code":"7850006"},{"name":"原町","zip_code":"7850001"},{"name":"東糺町","zip_code":"7850011"},{"name":"東古市町","zip_code":"7850005"},{"name":"緑町","zip_code":"7850036"},{"name":"港町","zip_code":"7850002"},{"name":"南古市町","zip_code":"7850007"},{"name":"妙見町","zip_code":"7850042"},{"name":"山手町","zip_code":"7850031"},{"name":"横町","zip_code":"7850014"}]},{"name":"宿毛市","divisions":[{"name":"池島","zip_code":"7880021"},{"name":"宇須々木","zip_code":"7880023"},{"name":"駅東町","zip_code":"7880009"},{"name":"駅前町","zip_code":"7880010"},{"name":"大島","zip_code":"7880014"},{"name":"大深浦","zip_code":"7880034"},{"name":"沖の島町鵜来島","zip_code":"7880679"},{"name":"沖の島町弘瀬","zip_code":"7880678"},{"name":"沖の島町母島","zip_code":"7880677"},{"name":"押ノ川","zip_code":"7880051"},{"name":"貝塚","zip_code":"7880031"},{"name":"片島","zip_code":"7880013"},{"name":"樺","zip_code":"7880024"},{"name":"草木薮","zip_code":"7880035"},{"name":"港南台","zip_code":"7880027"},{"name":"小筑紫町石原","zip_code":"7880272"},{"name":"小筑紫町伊与野","zip_code":"7880267"},{"name":"小筑紫町大海","zip_code":"7880266"},{"name":"小筑紫町小浦","zip_code":"7880262"},{"name":"小筑紫町小筑紫","zip_code":"7880271"},{"name":"小筑紫町栄喜","zip_code":"7880274"},{"name":"小筑紫町田ノ浦","zip_code":"7880261"},{"name":"小筑紫町都賀ノ川","zip_code":"7880268"},{"name":"小筑紫町内外ノ浦","zip_code":"7880263"},{"name":"小筑紫町福良","zip_code":"7880273"},{"name":"小筑紫町湊","zip_code":"7880265"},{"name":"小筑紫町呼崎","zip_code":"7880264"},{"name":"小深浦","zip_code":"7880033"},{"name":"幸町","zip_code":"7880003"},{"name":"坂ノ下","zip_code":"7880053"},{"name":"さくらが丘","zip_code":"7880054"},{"name":"桜町","zip_code":"7880006"},{"name":"四季の丘","zip_code":"7880030"},{"name":"自由ケ丘","zip_code":"7880026"},{"name":"新港","zip_code":"7880028"},{"name":"新田","zip_code":"7880011"},{"name":"高砂","zip_code":"7880012"},{"name":"中央","zip_code":"7880001"},{"name":"中角","zip_code":"7880039"},{"name":"長田町","zip_code":"7880004"},{"name":"西片島","zip_code":"7880015"},{"name":"錦","zip_code":"7880032"},{"name":"西町","zip_code":"7880025"},{"name":"二ノ宮","zip_code":"7880038"},{"name":"野地","zip_code":"7880036"},{"name":"萩原","zip_code":"7880005"},{"name":"橋上町出井","zip_code":"7880041"},{"name":"橋上町奥奈路","zip_code":"7880045"},{"name":"橋上町神有","zip_code":"7880044"},{"name":"橋上町京法","zip_code":"7880048"},{"name":"橋上町楠山","zip_code":"7880042"},{"name":"橋上町還住薮","zip_code":"7880049"},{"name":"橋上町坂本","zip_code":"7880043"},{"name":"橋上町橋上","zip_code":"7880046"},{"name":"橋上町平野","zip_code":"7880047"},{"name":"平田町黒川","zip_code":"7880781"},{"name":"平田町中山","zip_code":"7880782"},{"name":"平田町東平","zip_code":"7880786"},{"name":"平田町戸内","zip_code":"7880783"},{"name":"松田町","zip_code":"7880007"},{"name":"南沖須賀","zip_code":"7880002"},{"name":"藻津","zip_code":"7880022"},{"name":"山北","zip_code":"7880037"},{"name":"山奈町山田","zip_code":"7880784"},{"name":"山奈町芳奈","zip_code":"7880785"},{"name":"与市明","zip_code":"7880008"},{"name":"和田","zip_code":"7880052"}]},{"name":"土佐清水市","divisions":[{"name":"旭町","zip_code":"7870303"},{"name":"足摺岬","zip_code":"7870315"},{"name":"有永","zip_code":"7870556"},{"name":"市場町","zip_code":"7870327"},{"name":"以布利","zip_code":"7870302"},{"name":"上野","zip_code":"7870447"},{"name":"浦尻","zip_code":"7870310"},{"name":"越前町","zip_code":"7870331"},{"name":"戎町","zip_code":"7870328"},{"name":"大岐","zip_code":"7870301"},{"name":"大谷","zip_code":"7870314"},{"name":"大津","zip_code":"7870562"},{"name":"大浜","zip_code":"7870317"},{"name":"斧積","zip_code":"7870446"},{"name":"鍵掛","zip_code":"7870243"},{"name":"貝ノ川","zip_code":"7870561"},{"name":"加久見入沢町","zip_code":"7870334"},{"name":"加久見新町","zip_code":"7870335"},{"name":"加久見","zip_code":"7870338"},{"name":"片粕","zip_code":"7870560"},{"name":"窪津","zip_code":"7870312"},{"name":"久百々","zip_code":"7870244"},{"name":"グリーンハイツ","zip_code":"7870311"},{"name":"厚生町","zip_code":"7870308"},{"name":"小江町","zip_code":"7870322"},{"name":"寿町","zip_code":"7870323"},{"name":"幸町","zip_code":"7870306"},{"name":"栄町","zip_code":"7870325"},{"name":"汐見町","zip_code":"7870332"},{"name":"清水","zip_code":"7870320"},{"name":"下川口","zip_code":"7870559"},{"name":"下ノ加江","zip_code":"7870242"},{"name":"下益野","zip_code":"7870445"},{"name":"宗呂甲","zip_code":"7870563"},{"name":"宗呂乙","zip_code":"7870557"},{"name":"宗呂丙","zip_code":"7870558"},{"name":"竜串","zip_code":"7870452"},{"name":"立石","zip_code":"7870240"},{"name":"中央町","zip_code":"7870324"},{"name":"爪白","zip_code":"7870453"},{"name":"津呂","zip_code":"7870313"},{"name":"天神町","zip_code":"7870305"},{"name":"中浜","zip_code":"7870318"},{"name":"西町","zip_code":"7870333"},{"name":"布","zip_code":"7870241"},{"name":"浜町","zip_code":"7870321"},{"name":"本町","zip_code":"7870326"},{"name":"松尾","zip_code":"7870316"},{"name":"三崎","zip_code":"7870450"},{"name":"三崎浦","zip_code":"7870451"},{"name":"緑ケ丘","zip_code":"7870307"},{"name":"元町","zip_code":"7870304"},{"name":"養老","zip_code":"7870337"},{"name":"横道","zip_code":"7870339"}]},{"name":"四万十市","divisions":[{"name":"秋田","zip_code":"7870007"},{"name":"赤松町","zip_code":"7870052"},{"name":"麻生","zip_code":"7870006"},{"name":"荒川","zip_code":"7870668"},{"name":"有岡","zip_code":"7870771"},{"name":"伊才原","zip_code":"7871441"},{"name":"井沢","zip_code":"7870150"},{"name":"磯ノ川","zip_code":"7870773"},{"name":"板ノ川","zip_code":"7871103"},{"name":"岩田","zip_code":"7871107"},{"name":"鵜ノ江","zip_code":"7871226"},{"name":"右山","zip_code":"7870015"},{"name":"右山五月町","zip_code":"7870012"},{"name":"右山天神町","zip_code":"7870013"},{"name":"右山元町","zip_code":"7870011"},{"name":"駅前町","zip_code":"7870014"},{"name":"江ノ村","zip_code":"7870669"},{"name":"生ノ川","zip_code":"7870774"},{"name":"大西ノ川","zip_code":"7871557"},{"name":"大屋敷","zip_code":"7871553"},{"name":"大用","zip_code":"7871550"},{"name":"奥鴨川","zip_code":"7871101"},{"name":"片魚","zip_code":"7871552"},{"name":"勝間","zip_code":"7871223"},{"name":"上ノ土居","zip_code":"7870776"},{"name":"川登","zip_code":"7871220"},{"name":"九樹","zip_code":"7870775"},{"name":"楠","zip_code":"7871227"},{"name":"楠島","zip_code":"7870666"},{"name":"口鴨川","zip_code":"7871102"},{"name":"具同","zip_code":"7870019"},{"name":"具同田黒","zip_code":"7870051"},{"name":"国見","zip_code":"7870667"},{"name":"久保川","zip_code":"7871225"},{"name":"古津賀","zip_code":"7870010"},{"name":"小西ノ川","zip_code":"7871556"},{"name":"古尾","zip_code":"7871558"},{"name":"佐岡","zip_code":"7870009"},{"name":"坂本","zip_code":"7870156"},{"name":"佐田","zip_code":"7871106"},{"name":"実崎","zip_code":"7870158"},{"name":"敷地","zip_code":"7871108"},{"name":"下田","zip_code":"7870155"},{"name":"住次郎","zip_code":"7871551"},{"name":"常六","zip_code":"7871554"},{"name":"高瀬","zip_code":"7871228"},{"name":"竹島","zip_code":"7870151"},{"name":"竹屋敷","zip_code":"7871559"},{"name":"田出ノ川","zip_code":"7871229"},{"name":"田野川","zip_code":"7871109"},{"name":"手洗川","zip_code":"7871222"},{"name":"津蔵渕","zip_code":"7870161"},{"name":"角崎","zip_code":"7870016"},{"name":"利岡","zip_code":"7871105"},{"name":"中村愛宕町","zip_code":"7870026"},{"name":"中村一条通","zip_code":"7870025"},{"name":"中村岩崎町","zip_code":"7870036"},{"name":"中村大橋通","zip_code":"7870033"},{"name":"中村於東町","zip_code":"7870024"},{"name":"中村上小姓町","zip_code":"7870030"},{"name":"中村京町","zip_code":"7870021"},{"name":"中村小姓町","zip_code":"7870029"},{"name":"中村栄町","zip_code":"7870032"},{"name":"中村桜町","zip_code":"7870002"},{"name":"中村四万十町","zip_code":"7870037"},{"name":"中村新町","zip_code":"7870022"},{"name":"中村天神橋","zip_code":"7870027"},{"name":"中村百笑町","zip_code":"7870038"},{"name":"中村羽生小路","zip_code":"7870035"},{"name":"中村東下町","zip_code":"7870031"},{"name":"中村東町","zip_code":"7870023"},{"name":"中村本町","zip_code":"7870001"},{"name":"中村丸の内","zip_code":"7870004"},{"name":"中村山手通","zip_code":"7870028"},{"name":"中村弥生町","zip_code":"7870034"},{"name":"中村","zip_code":"7870005"},{"name":"名鹿","zip_code":"7870163"},{"name":"鍋島","zip_code":"7870152"},{"name":"西土佐岩間","zip_code":"7871321"},{"name":"西土佐江川","zip_code":"7871607"},{"name":"西土佐江川崎","zip_code":"7871601"},{"name":"西土佐大宮","zip_code":"7871615"},{"name":"西土佐奥屋内","zip_code":"7871326"},{"name":"西土佐茅生","zip_code":"7871322"},{"name":"西土佐玖木","zip_code":"7871325"},{"name":"西土佐口屋内","zip_code":"7871324"},{"name":"西土佐下家地","zip_code":"7871617"},{"name":"西土佐須崎","zip_code":"7871616"},{"name":"西土佐橘","zip_code":"7871611"},{"name":"西土佐津賀","zip_code":"7871613"},{"name":"西土佐津野川","zip_code":"7871612"},{"name":"西土佐中家地","zip_code":"7871618"},{"name":"西土佐長生","zip_code":"7871605"},{"name":"西土佐中半","zip_code":"7871323"},{"name":"西土佐西ケ方","zip_code":"7871602"},{"name":"西土佐半家","zip_code":"7871606"},{"name":"西土佐藤ノ川","zip_code":"7871604"},{"name":"西土佐用井","zip_code":"7871603"},{"name":"西土佐薮ケ市","zip_code":"7871614"},{"name":"入田","zip_code":"7870020"},{"name":"初崎","zip_code":"7870162"},{"name":"平野","zip_code":"7870154"},{"name":"深木","zip_code":"7870159"},{"name":"藤","zip_code":"7871444"},{"name":"双海","zip_code":"7870153"},{"name":"不破","zip_code":"7870017"},{"name":"不破上町","zip_code":"7870018"},{"name":"間崎","zip_code":"7870160"},{"name":"三里","zip_code":"7871221"},{"name":"三ツ又","zip_code":"7871555"},{"name":"森沢","zip_code":"7870665"},{"name":"安並","zip_code":"7870008"},{"name":"山路","zip_code":"7870157"},{"name":"横瀬","zip_code":"7870772"},{"name":"若藤","zip_code":"7871104"},{"name":"渡川","zip_code":"7870050"},{"name":"蕨岡乙","zip_code":"7871443"},{"name":"蕨岡甲","zip_code":"7871442"}]},{"name":"香南市","divisions":[{"name":"赤岡町","zip_code":"7815310"},{"name":"香我美町奥西川","zip_code":"7815467"},{"name":"香我美町上分","zip_code":"7815451"},{"name":"香我美町岸本","zip_code":"7815331"},{"name":"香我美町口西川","zip_code":"7815454"},{"name":"香我美町下分","zip_code":"7815452"},{"name":"香我美町末清","zip_code":"7815464"},{"name":"香我美町末延","zip_code":"7815463"},{"name":"香我美町徳王子","zip_code":"7815332"},{"name":"香我美町中西川","zip_code":"7815455"},{"name":"香我美町福万","zip_code":"7815461"},{"name":"香我美町別役","zip_code":"7815466"},{"name":"香我美町舞川","zip_code":"7815469"},{"name":"香我美町正延","zip_code":"7815465"},{"name":"香我美町撫川","zip_code":"7815468"},{"name":"香我美町山川","zip_code":"7815462"},{"name":"香我美町山北","zip_code":"7815453"},{"name":"野市町兎田","zip_code":"7815202"},{"name":"野市町大谷","zip_code":"7815233"},{"name":"野市町上岡","zip_code":"7815234"},{"name":"野市町下井","zip_code":"7815235"},{"name":"野市町新宮","zip_code":"7815204"},{"name":"野市町土居","zip_code":"7815212"},{"name":"野市町中ノ村","zip_code":"7815211"},{"name":"野市町中山田","zip_code":"7815203"},{"name":"野市町西佐古","zip_code":"7815223"},{"name":"野市町西野","zip_code":"7815232"},{"name":"野市町東佐古","zip_code":"7815224"},{"name":"野市町東野","zip_code":"7815213"},{"name":"野市町深渕","zip_code":"7815231"},{"name":"野市町父養寺","zip_code":"7815221"},{"name":"野市町母代寺","zip_code":"7815222"},{"name":"野市町本村","zip_code":"7815201"},{"name":"野市町みどり野","zip_code":"7815206"},{"name":"野市町みどり野東","zip_code":"7815205"},{"name":"夜須町出口","zip_code":"7815604"},{"name":"夜須町上夜須","zip_code":"7815606"},{"name":"夜須町国光","zip_code":"7815613"},{"name":"夜須町沢谷","zip_code":"7815615"},{"name":"夜須町千切","zip_code":"7815602"},{"name":"夜須町坪井","zip_code":"7815601"},{"name":"夜須町手結","zip_code":"7815621"},{"name":"夜須町手結山","zip_code":"7815622"},{"name":"夜須町十ノ木","zip_code":"7815605"},{"name":"夜須町仲木屋","zip_code":"7815616"},{"name":"夜須町西山","zip_code":"7815603"},{"name":"夜須町羽尾","zip_code":"7815614"},{"name":"夜須町細川","zip_code":"7815612"},{"name":"夜須町夜須川","zip_code":"7815611"},{"name":"吉川町古川","zip_code":"7815242"},{"name":"吉川町吉原","zip_code":"7815241"}]},{"name":"香美市","divisions":[{"name":"香北町有川","zip_code":"7814223"},{"name":"香北町有瀬","zip_code":"7814224"},{"name":"香北町五百蔵","zip_code":"7814222"},{"name":"香北町猪野々","zip_code":"7814247"},{"name":"香北町岩改","zip_code":"7814215"},{"name":"香北町梅久保","zip_code":"7814243"},{"name":"香北町大井平","zip_code":"7814241"},{"name":"香北町大束","zip_code":"7814242"},{"name":"香北町小川","zip_code":"7814206"},{"name":"香北町川ノ内","zip_code":"7814227"},{"name":"香北町河野","zip_code":"7814226"},{"name":"香北町下野尻","zip_code":"7814213"},{"name":"香北町白石","zip_code":"7814203"},{"name":"香北町白川","zip_code":"7814221"},{"name":"香北町清爪","zip_code":"7814245"},{"name":"香北町谷相","zip_code":"7814232"},{"name":"香北町太郎丸","zip_code":"7814214"},{"name":"香北町永瀬","zip_code":"7814201"},{"name":"香北町中谷","zip_code":"7814233"},{"name":"香北町永野","zip_code":"7814236"},{"name":"香北町西川甲","zip_code":"7814208"},{"name":"香北町西川乙","zip_code":"7814207"},{"name":"香北町西峯","zip_code":"7814225"},{"name":"香北町韮生野","zip_code":"7814211"},{"name":"香北町根須","zip_code":"7814204"},{"name":"香北町萩野","zip_code":"7814216"},{"name":"香北町橋川野","zip_code":"7814217"},{"name":"香北町日浦込","zip_code":"7814244"},{"name":"香北町日ノ御子","zip_code":"7814231"},{"name":"香北町日比原","zip_code":"7814246"},{"name":"香北町美良布","zip_code":"7814212"},{"name":"香北町朴ノ木","zip_code":"7814235"},{"name":"香北町横谷","zip_code":"7814234"},{"name":"香北町吉野","zip_code":"7814205"},{"name":"香北町蕨野","zip_code":"7814202"},{"name":"土佐山田町旭町","zip_code":"7820033"},{"name":"土佐山田町有谷","zip_code":"7820072"},{"name":"土佐山田町神母ノ木","zip_code":"7820009"},{"name":"土佐山田町入野","zip_code":"7820059"},{"name":"土佐山田町岩積","zip_code":"7820017"},{"name":"土佐山田町岩次","zip_code":"7820021"},{"name":"土佐山田町植","zip_code":"7820054"},{"name":"土佐山田町大後入","zip_code":"7820074"},{"name":"土佐山田町大平","zip_code":"7820078"},{"name":"土佐山田町小田島","zip_code":"7820014"},{"name":"土佐山田町角茂谷","zip_code":"7890582"},{"name":"土佐山田町影山","zip_code":"7820006"},{"name":"土佐山田町樫谷","zip_code":"7890586"},{"name":"土佐山田町上穴内","zip_code":"7890587"},{"name":"土佐山田町上改田","zip_code":"7820056"},{"name":"土佐山田町加茂","zip_code":"7820012"},{"name":"土佐山田町北滝本","zip_code":"7890584"},{"name":"土佐山田町京田","zip_code":"7820022"},{"name":"土佐山田町楠目","zip_code":"7820051"},{"name":"土佐山田町栄町","zip_code":"7820039"},{"name":"土佐山田町逆川","zip_code":"7820005"},{"name":"土佐山田町佐古薮","zip_code":"7820008"},{"name":"土佐山田町佐竹","zip_code":"7820071"},{"name":"土佐山田町佐野","zip_code":"7820077"},{"name":"土佐山田町繁藤","zip_code":"7890585"},{"name":"土佐山田町下ノ村","zip_code":"7820015"},{"name":"土佐山田町新改","zip_code":"7820058"},{"name":"土佐山田町秦山町","zip_code":"7820038"},{"name":"土佐山田町神通寺","zip_code":"7820024"},{"name":"土佐山田町杉田","zip_code":"7820001"},{"name":"土佐山田町須江","zip_code":"7820055"},{"name":"土佐山田町曽我部川","zip_code":"7820061"},{"name":"土佐山田町大法寺","zip_code":"7820064"},{"name":"土佐山田町宝町","zip_code":"7820034"},{"name":"土佐山田町テクノパーク","zip_code":"7820010"},{"name":"土佐山田町戸板島","zip_code":"7820018"},{"name":"土佐山田町中後入","zip_code":"7820073"},{"name":"土佐山田町中野","zip_code":"7820019"},{"name":"土佐山田町西後入","zip_code":"7820075"},{"name":"土佐山田町西本町","zip_code":"7820032"},{"name":"土佐山田町西又","zip_code":"7890581"},{"name":"土佐山田町間","zip_code":"7820004"},{"name":"土佐山田町林田","zip_code":"7820007"},{"name":"土佐山田町東川","zip_code":"7820063"},{"name":"土佐山田町東本町","zip_code":"7820031"},{"name":"土佐山田町久次","zip_code":"7820057"},{"name":"土佐山田町百石町","zip_code":"7820035"},{"name":"土佐山田町平山","zip_code":"7890583"},{"name":"土佐山田町船谷","zip_code":"7820002"},{"name":"土佐山田町本村","zip_code":"7820076"},{"name":"土佐山田町町田","zip_code":"7820013"},{"name":"土佐山田町松本","zip_code":"7820025"},{"name":"土佐山田町宮ノ口","zip_code":"7820003"},{"name":"土佐山田町宮前町","zip_code":"7820037"},{"name":"土佐山田町山田","zip_code":"7820016"},{"name":"土佐山田町山田島","zip_code":"7820011"},{"name":"土佐山田町","zip_code":"7820043"},{"name":"物部町市宇","zip_code":"7814643"},{"name":"物部町大栃","zip_code":"7814401"},{"name":"物部町大西","zip_code":"7814528"},{"name":"物部町岡ノ内","zip_code":"7814641"},{"name":"物部町押谷","zip_code":"7814403"},{"name":"物部町楮佐古","zip_code":"7814524"},{"name":"物部町神池","zip_code":"7814523"},{"name":"物部町久保","zip_code":"7814531"},{"name":"物部町黒代","zip_code":"7814522"},{"name":"物部町五王堂","zip_code":"7814526"},{"name":"物部町小浜","zip_code":"7814404"},{"name":"物部町笹","zip_code":"7814530"},{"name":"物部町庄谷相","zip_code":"7814413"},{"name":"物部町仙頭","zip_code":"7814406"},{"name":"物部町拓","zip_code":"7814412"},{"name":"物部町頓定","zip_code":"7814414"},{"name":"物部町中上","zip_code":"7814529"},{"name":"物部町中谷川","zip_code":"7814411"},{"name":"物部町中津尾","zip_code":"7840065"},{"name":"物部町根木屋","zip_code":"7814405"},{"name":"物部町別役","zip_code":"7814642"},{"name":"物部町別府","zip_code":"7814644"},{"name":"物部町舞川","zip_code":"7814415"},{"name":"物部町南池","zip_code":"7814527"},{"name":"物部町安丸","zip_code":"7814521"},{"name":"物部町柳瀬","zip_code":"7814525"},{"name":"物部町山崎","zip_code":"7814645"}]},{"name":"安芸郡東洋町","divisions":[{"name":"生見","zip_code":"7817414"},{"name":"河内","zip_code":"7817412"},{"name":"甲浦","zip_code":"7817411"},{"name":"白浜","zip_code":"7817413"},{"name":"野根甲","zip_code":"7817302"},{"name":"野根乙","zip_code":"7817304"},{"name":"野根丙","zip_code":"7817301"},{"name":"野根丁","zip_code":"7817303"}]},{"name":"安芸郡奈半利町","divisions":[{"name":"甲","zip_code":"7816401"},{"name":"乙","zip_code":"7816402"},{"name":"丙","zip_code":"7816403"}]},{"name":"安芸郡田野町","divisions":[]},{"name":"安芸郡安田町","divisions":[{"name":"小川","zip_code":"7816438"},{"name":"瀬切","zip_code":"7816436"},{"name":"隆見","zip_code":"7816424"},{"name":"唐浜","zip_code":"7816422"},{"name":"内京坊","zip_code":"7816427"},{"name":"中里","zip_code":"7816437"},{"name":"中ノ川","zip_code":"7816433"},{"name":"西島","zip_code":"7816423"},{"name":"西ノ川","zip_code":"7816432"},{"name":"東島","zip_code":"7816425"},{"name":"日々入","zip_code":"7816439"},{"name":"船倉","zip_code":"7816435"},{"name":"別所","zip_code":"7816431"},{"name":"間下","zip_code":"7816426"},{"name":"正弘","zip_code":"7816430"},{"name":"安田","zip_code":"7816421"},{"name":"与床","zip_code":"7816434"}]},{"name":"安芸郡北川村","divisions":[{"name":"安倉","zip_code":"7816458"},{"name":"柏木","zip_code":"7816449"},{"name":"加茂","zip_code":"7816443"},{"name":"久江ノ上","zip_code":"7816455"},{"name":"久木","zip_code":"7816456"},{"name":"小島","zip_code":"7816451"},{"name":"木積","zip_code":"7816447"},{"name":"島","zip_code":"7816454"},{"name":"菅ノ上","zip_code":"7816459"},{"name":"宗ノ上","zip_code":"7816448"},{"name":"竹屋敷","zip_code":"7816460"},{"name":"長山","zip_code":"7816445"},{"name":"西谷","zip_code":"7816446"},{"name":"野川","zip_code":"7816444"},{"name":"野友甲","zip_code":"7816441"},{"name":"野友乙","zip_code":"7816442"},{"name":"平鍋","zip_code":"7816452"},{"name":"弘瀬","zip_code":"7816457"},{"name":"二タ又","zip_code":"7816453"},{"name":"和田","zip_code":"7816450"}]},{"name":"安芸郡馬路村","divisions":[{"name":"馬路","zip_code":"7816201"},{"name":"魚梁瀬","zip_code":"7816202"}]},{"name":"安芸郡芸西村","divisions":[{"name":"馬ノ上","zip_code":"7815705"},{"name":"久重","zip_code":"7815708"},{"name":"国光","zip_code":"7815707"},{"name":"道家","zip_code":"7815706"},{"name":"西分甲","zip_code":"7815703"},{"name":"西分乙","zip_code":"7815704"},{"name":"和食甲","zip_code":"7815701"},{"name":"和食乙","zip_code":"7815702"}]},{"name":"長岡郡本山町","divisions":[{"name":"井窪","zip_code":"7813604"},{"name":"瓜生野","zip_code":"7813623"},{"name":"大石","zip_code":"7813602"},{"name":"上関甲","zip_code":"7813611"},{"name":"上関乙","zip_code":"7813612"},{"name":"北山甲","zip_code":"7813613"},{"name":"北山乙","zip_code":"7813614"},{"name":"北山丙","zip_code":"7813615"},{"name":"木能津","zip_code":"7813608"},{"name":"坂本","zip_code":"7813620"},{"name":"寺家","zip_code":"7813617"},{"name":"下関","zip_code":"7813610"},{"name":"下津野","zip_code":"7813605"},{"name":"助藤","zip_code":"7813609"},{"name":"沢ケ内","zip_code":"7813622"},{"name":"高角","zip_code":"7813606"},{"name":"立野","zip_code":"7813619"},{"name":"七戸","zip_code":"7813624"},{"name":"古田","zip_code":"7813607"},{"name":"本山","zip_code":"7813601"},{"name":"屋所","zip_code":"7813621"},{"name":"吉野","zip_code":"7813618"},{"name":"吉延","zip_code":"7813603"}]},{"name":"長岡郡大豊町","divisions":[{"name":"粟生","zip_code":"7890167"},{"name":"穴内","zip_code":"7890307"},{"name":"庵谷","zip_code":"7890237"},{"name":"筏木","zip_code":"7890157"},{"name":"磯谷","zip_code":"7890233"},{"name":"岩原","zip_code":"7890158"},{"name":"馬瀬","zip_code":"7890323"},{"name":"尾生","zip_code":"7890306"},{"name":"大久保","zip_code":"7890248"},{"name":"大砂子","zip_code":"7890247"},{"name":"大平","zip_code":"7890173"},{"name":"大滝","zip_code":"7890170"},{"name":"小川","zip_code":"7890316"},{"name":"奥大田","zip_code":"7890231"},{"name":"角茂谷","zip_code":"7890321"},{"name":"梶ケ内","zip_code":"7890232"},{"name":"葛原","zip_code":"7890428"},{"name":"上東","zip_code":"7890252"},{"name":"川井","zip_code":"7890172"},{"name":"川口","zip_code":"7890303"},{"name":"川口南","zip_code":"7890313"},{"name":"川戸","zip_code":"7890241"},{"name":"北川","zip_code":"7890325"},{"name":"久寿軒","zip_code":"7890324"},{"name":"黒石","zip_code":"7890250"},{"name":"佐賀山","zip_code":"7890255"},{"name":"式岩","zip_code":"7890305"},{"name":"杉","zip_code":"7890311"},{"name":"高須","zip_code":"7890312"},{"name":"立川上名","zip_code":"7890426"},{"name":"立川下名","zip_code":"7890427"},{"name":"立野","zip_code":"7890168"},{"name":"谷","zip_code":"7890304"},{"name":"津家","zip_code":"7890301"},{"name":"連火","zip_code":"7890242"},{"name":"寺内","zip_code":"7890234"},{"name":"戸手野","zip_code":"7890322"},{"name":"中内","zip_code":"7890174"},{"name":"中村大王","zip_code":"7890315"},{"name":"中屋","zip_code":"7890251"},{"name":"永淵","zip_code":"7890245"},{"name":"西川","zip_code":"7890165"},{"name":"西久保","zip_code":"7890243"},{"name":"西土居","zip_code":"7890254"},{"name":"西峰","zip_code":"7890159"},{"name":"怒田","zip_code":"7890162"},{"name":"日浦","zip_code":"7890314"},{"name":"東土居","zip_code":"7890166"},{"name":"船戸","zip_code":"7890235"},{"name":"南大王","zip_code":"7890163"},{"name":"桃原","zip_code":"7890244"},{"name":"八川","zip_code":"7890156"},{"name":"安野々","zip_code":"7890253"},{"name":"柳野","zip_code":"7890246"},{"name":"柚木","zip_code":"7890161"},{"name":"八畝","zip_code":"7890164"},{"name":"和田","zip_code":"7890236"}]},{"name":"土佐郡土佐町","divisions":[{"name":"相川","zip_code":"7813408"},{"name":"芥川","zip_code":"7813336"},{"name":"有間","zip_code":"7813335"},{"name":"井尻","zip_code":"7813524"},{"name":"大渕","zip_code":"7813522"},{"name":"樫山","zip_code":"7813407"},{"name":"栗木","zip_code":"7813332"},{"name":"上津川","zip_code":"7813526"},{"name":"古味","zip_code":"7813523"},{"name":"境","zip_code":"7813402"},{"name":"地蔵寺","zip_code":"7813331"},{"name":"下川","zip_code":"7813525"},{"name":"瀬戸","zip_code":"7813337"},{"name":"田井","zip_code":"7813521"},{"name":"高須","zip_code":"7813406"},{"name":"土居","zip_code":"7813401"},{"name":"西石原","zip_code":"7813334"},{"name":"溜井","zip_code":"7813404"},{"name":"東石原","zip_code":"7813333"},{"name":"南泉","zip_code":"7813405"},{"name":"南川","zip_code":"7813742"},{"name":"宮古野","zip_code":"7813403"},{"name":"柚ノ木","zip_code":"7813741"},{"name":"和田","zip_code":"7813409"}]},{"name":"土佐郡大川村","divisions":[{"name":"朝谷","zip_code":"7813704"},{"name":"井野川","zip_code":"7813713"},{"name":"大北川","zip_code":"7813705"},{"name":"大平","zip_code":"7813714"},{"name":"大薮","zip_code":"7813717"},{"name":"上小南川","zip_code":"7813723"},{"name":"川崎","zip_code":"7813712"},{"name":"小北川","zip_code":"7813716"},{"name":"小松","zip_code":"7813703"},{"name":"小麦畝","zip_code":"7813715"},{"name":"下切","zip_code":"7813725"},{"name":"下小南川","zip_code":"7813722"},{"name":"高野","zip_code":"7813711"},{"name":"中切","zip_code":"7813721"},{"name":"船戸","zip_code":"7813702"},{"name":"南野山","zip_code":"7813724"}]},{"name":"吾川郡いの町","divisions":[{"name":"旭町","zip_code":"7812115"},{"name":"足谷","zip_code":"7812613"},{"name":"池の内","zip_code":"7812121"},{"name":"内野北町","zip_code":"7812119"},{"name":"内野東町","zip_code":"7812117"},{"name":"内野南町","zip_code":"7812118"},{"name":"駅東町","zip_code":"7812108"},{"name":"駅前町","zip_code":"7812107"},{"name":"駅南町","zip_code":"7812106"},{"name":"枝川","zip_code":"7812120"},{"name":"越裏門","zip_code":"7812604"},{"name":"大内","zip_code":"7812126"},{"name":"大森","zip_code":"7812603"},{"name":"鹿敷","zip_code":"7812136"},{"name":"葛原","zip_code":"7812614"},{"name":"加田","zip_code":"7812133"},{"name":"鎌田","zip_code":"7812127"},{"name":"上八川甲","zip_code":"7812401"},{"name":"上八川丙","zip_code":"7812402"},{"name":"加茂町","zip_code":"7812114"},{"name":"清水上分","zip_code":"7812511"},{"name":"清水下分","zip_code":"7812512"},{"name":"楠瀬","zip_code":"7812143"},{"name":"桑瀬","zip_code":"7812615"},{"name":"公園町","zip_code":"7812102"},{"name":"神谷","zip_code":"7812134"},{"name":"小川新別","zip_code":"7812324"},{"name":"小川西津賀才","zip_code":"7812322"},{"name":"小川東津賀才","zip_code":"7812321"},{"name":"小川樅ノ木山","zip_code":"7812323"},{"name":"小川柳野","zip_code":"7812325"},{"name":"小野","zip_code":"7812135"},{"name":"幸町","zip_code":"7812103"},{"name":"下八川乙","zip_code":"7812332"},{"name":"下八川甲","zip_code":"7812331"},{"name":"下八川丁","zip_code":"7812334"},{"name":"下八川十田","zip_code":"7812335"},{"name":"下八川丙","zip_code":"7812333"},{"name":"勝賀瀬","zip_code":"7812141"},{"name":"新町","zip_code":"7812105"},{"name":"大国町","zip_code":"7812101"},{"name":"高薮","zip_code":"7812612"},{"name":"寺川","zip_code":"7812605"},{"name":"天王北","zip_code":"7812122"},{"name":"天王南","zip_code":"7812123"},{"name":"戸中","zip_code":"7812602"},{"name":"中追","zip_code":"7812142"},{"name":"長沢","zip_code":"7812601"},{"name":"中ノ川","zip_code":"7812616"},{"name":"成山","zip_code":"7812132"},{"name":"西町","zip_code":"7812112"},{"name":"波川","zip_code":"7812128"},{"name":"八田","zip_code":"7812124"},{"name":"羽根町","zip_code":"7812111"},{"name":"藤町","zip_code":"7812104"},{"name":"槇","zip_code":"7812131"},{"name":"元町","zip_code":"7812113"},{"name":"柳町","zip_code":"7812116"},{"name":"柳瀬石見","zip_code":"7812145"},{"name":"柳瀬上分","zip_code":"7812146"},{"name":"柳瀬本村","zip_code":"7812144"},{"name":"脇ノ山","zip_code":"7812611"}]},{"name":"吾川郡仁淀川町","divisions":[{"name":"相能","zip_code":"7811532"},{"name":"池川大渡","zip_code":"7811612"},{"name":"泉","zip_code":"7811914"},{"name":"入江谷","zip_code":"7811621"},{"name":"岩柄","zip_code":"7811615"},{"name":"岩戸","zip_code":"7811512"},{"name":"岩丸","zip_code":"7811611"},{"name":"大板","zip_code":"7811514"},{"name":"大植","zip_code":"7811915"},{"name":"大尾","zip_code":"7811756"},{"name":"大崎","zip_code":"7811501"},{"name":"大渡","zip_code":"7811751"},{"name":"大西","zip_code":"7811614"},{"name":"大野","zip_code":"7811617"},{"name":"大平","zip_code":"7811601"},{"name":"大屋","zip_code":"7811628"},{"name":"大蕨","zip_code":"7811520"},{"name":"遅越","zip_code":"7811534"},{"name":"加枝","zip_code":"7811518"},{"name":"楮原","zip_code":"7811602"},{"name":"上名野川","zip_code":"7811766"},{"name":"川内谷","zip_code":"7811605"},{"name":"川口","zip_code":"7811502"},{"name":"川渡","zip_code":"7811804"},{"name":"北","zip_code":"7811754"},{"name":"北浦","zip_code":"7811607"},{"name":"北川","zip_code":"7811746"},{"name":"久喜","zip_code":"7811531"},{"name":"葛原","zip_code":"7811517"},{"name":"坂本","zip_code":"7811608"},{"name":"崎ノ山","zip_code":"7811743"},{"name":"桜","zip_code":"7811505"},{"name":"鹿森","zip_code":"7811506"},{"name":"下北川","zip_code":"7811745"},{"name":"下名野川","zip_code":"7811762"},{"name":"宗津","zip_code":"7811523"},{"name":"高瀬","zip_code":"7811802"},{"name":"竹ノ谷","zip_code":"7811610"},{"name":"竹屋敷","zip_code":"7811742"},{"name":"橘","zip_code":"7811758"},{"name":"橘谷","zip_code":"7811503"},{"name":"田村","zip_code":"7811522"},{"name":"長者乙","zip_code":"7811911"},{"name":"長者丁","zip_code":"7811912"},{"name":"長者丙","zip_code":"7811913"},{"name":"津江","zip_code":"7811765"},{"name":"潰溜","zip_code":"7811753"},{"name":"椿山","zip_code":"7811618"},{"name":"坪井川","zip_code":"7811626"},{"name":"寺村","zip_code":"7811511"},{"name":"土居","zip_code":"7811624"},{"name":"峠ノ越","zip_code":"7811752"},{"name":"中","zip_code":"7811763"},{"name":"長坂","zip_code":"7811764"},{"name":"中村","zip_code":"7811516"},{"name":"長屋","zip_code":"7811524"},{"name":"名野川","zip_code":"7811741"},{"name":"名野川大平","zip_code":"7811744"},{"name":"成川","zip_code":"7811622"},{"name":"二ノ滝","zip_code":"7811761"},{"name":"日浦","zip_code":"7811603"},{"name":"引地","zip_code":"7811533"},{"name":"藤ノ野","zip_code":"7811504"},{"name":"二子野","zip_code":"7811535"},{"name":"別枝","zip_code":"7811803"},{"name":"本村","zip_code":"7811521"},{"name":"峯岩戸","zip_code":"7811513"},{"name":"見ノ越","zip_code":"7811604"},{"name":"宮ケ平","zip_code":"7811627"},{"name":"明戸岩","zip_code":"7811613"},{"name":"用居乙","zip_code":"7811620"},{"name":"用居甲","zip_code":"7811619"},{"name":"百川内","zip_code":"7811616"},{"name":"森","zip_code":"7811801"},{"name":"森山","zip_code":"7811755"},{"name":"吉ケ成","zip_code":"7811625"},{"name":"余能","zip_code":"7811623"},{"name":"寄合","zip_code":"7811609"},{"name":"鷲ノ巣","zip_code":"7811757"},{"name":"蕨谷","zip_code":"7811515"}]},{"name":"高岡郡中土佐町","divisions":[{"name":"大野見荒瀬","zip_code":"7891413"},{"name":"大野見神母野","zip_code":"7891414"},{"name":"大野見伊勢川","zip_code":"7891405"},{"name":"大野見大股","zip_code":"7891418"},{"name":"大野見川奥","zip_code":"7891412"},{"name":"大野見下ル川","zip_code":"7891416"},{"name":"大野見久万秋","zip_code":"7891403"},{"name":"大野見島ノ川","zip_code":"7891419"},{"name":"大野見竹原","zip_code":"7891409"},{"name":"大野見栂ノ川","zip_code":"7891410"},{"name":"大野見寺野","zip_code":"7891415"},{"name":"大野見野老野","zip_code":"7891411"},{"name":"大野見長野","zip_code":"7891408"},{"name":"大野見奈路","zip_code":"7891404"},{"name":"大野見萩中","zip_code":"7891417"},{"name":"大野見橋谷","zip_code":"7891402"},{"name":"大野見槇野々","zip_code":"7891406"},{"name":"大野見三ツ又","zip_code":"7891407"},{"name":"大野見吉野","zip_code":"7891401"},{"name":"上ノ加江","zip_code":"7891302"},{"name":"久礼","zip_code":"7891301"},{"name":"矢井賀乙","zip_code":"7891304"},{"name":"矢井賀甲","zip_code":"7891303"}]},{"name":"高岡郡佐川町","divisions":[{"name":"大田川","zip_code":"7891217"},{"name":"乙","zip_code":"7891202"},{"name":"加茂","zip_code":"7891204"},{"name":"川ノ内組","zip_code":"7891235"},{"name":"黒原","zip_code":"7891211"},{"name":"甲","zip_code":"7891201"},{"name":"庄田","zip_code":"7891216"},{"name":"瑞応","zip_code":"7891215"},{"name":"中組","zip_code":"7891233"},{"name":"中野","zip_code":"7891214"},{"name":"永野","zip_code":"7891231"},{"name":"西組","zip_code":"7891234"},{"name":"西山組","zip_code":"7891222"},{"name":"西山耕","zip_code":"7891223"},{"name":"東組","zip_code":"7891232"},{"name":"平野","zip_code":"7891218"},{"name":"二ツ野","zip_code":"7891213"},{"name":"古畑耕","zip_code":"7891224"},{"name":"丙","zip_code":"7891203"},{"name":"本郷耕","zip_code":"7891221"},{"name":"峰耕","zip_code":"7891225"},{"name":"室原","zip_code":"7891205"},{"name":"四ツ白","zip_code":"7891212"}]},{"name":"高岡郡越知町","divisions":[{"name":"浅尾","zip_code":"7811325"},{"name":"今成","zip_code":"7811311"},{"name":"大平","zip_code":"7811333"},{"name":"越知甲","zip_code":"7811301"},{"name":"越知乙","zip_code":"7811302"},{"name":"越知丙","zip_code":"7811303"},{"name":"越知丁","zip_code":"7811304"},{"name":"片岡","zip_code":"7811326"},{"name":"鎌井田桑薮","zip_code":"7811322"},{"name":"鎌井田清助","zip_code":"7811324"},{"name":"鎌井田日ノ浦","zip_code":"7811323"},{"name":"鎌井田本村","zip_code":"7811321"},{"name":"桐見川","zip_code":"7811334"},{"name":"黒瀬","zip_code":"7811327"},{"name":"五味","zip_code":"7811331"},{"name":"佐之国","zip_code":"7811337"},{"name":"柴尾","zip_code":"7811307"},{"name":"長者","zip_code":"7811335"},{"name":"野老山","zip_code":"7811305"},{"name":"中大平","zip_code":"7811332"},{"name":"南片岡","zip_code":"7811328"},{"name":"南ノ川","zip_code":"7811336"},{"name":"峰","zip_code":"7811338"},{"name":"宮地","zip_code":"7811308"},{"name":"山室","zip_code":"7811306"},{"name":"横畠中","zip_code":"7811314"},{"name":"横畠東","zip_code":"7811313"},{"name":"横畠南","zip_code":"7811312"},{"name":"横畠北","zip_code":"7811315"}]},{"name":"高岡郡檮原町","divisions":[{"name":"飯母","zip_code":"7850611"},{"name":"井高","zip_code":"7850666"},{"name":"井の谷","zip_code":"7850602"},{"name":"上成","zip_code":"7850641"},{"name":"太田戸","zip_code":"7850603"},{"name":"大野地","zip_code":"7850626"},{"name":"大向","zip_code":"7850771"},{"name":"大蔵谷","zip_code":"7850613"},{"name":"本も谷","zip_code":"7850652"},{"name":"影野地","zip_code":"7850627"},{"name":"上折渡","zip_code":"7850625"},{"name":"上組","zip_code":"7850654"},{"name":"上西の川","zip_code":"7850646"},{"name":"神の山","zip_code":"7850664"},{"name":"上本村","zip_code":"7850606"},{"name":"家籠戸","zip_code":"7850776"},{"name":"川井","zip_code":"7850635"},{"name":"川口","zip_code":"7850636"},{"name":"川西路","zip_code":"7850612"},{"name":"神在居","zip_code":"7850622"},{"name":"久保谷","zip_code":"7850774"},{"name":"東向","zip_code":"7850657"},{"name":"後別当","zip_code":"7850608"},{"name":"坂本川","zip_code":"7850662"},{"name":"佐渡","zip_code":"7850631"},{"name":"島中","zip_code":"7850775"},{"name":"下折渡","zip_code":"7850624"},{"name":"下組","zip_code":"7850655"},{"name":"下西の川","zip_code":"7850647"},{"name":"下本村","zip_code":"7850605"},{"name":"竹の薮","zip_code":"7850645"},{"name":"田野々","zip_code":"7850607"},{"name":"太郎川","zip_code":"7850621"},{"name":"茶や谷","zip_code":"7850651"},{"name":"坪野田","zip_code":"7850665"},{"name":"富永","zip_code":"7850658"},{"name":"豊原","zip_code":"7850633"},{"name":"仲間","zip_code":"7850648"},{"name":"仲久保","zip_code":"7850634"},{"name":"仲洞","zip_code":"7850623"},{"name":"中の川","zip_code":"7850653"},{"name":"中平","zip_code":"7850772"},{"name":"永野","zip_code":"7850601"},{"name":"初瀬本村","zip_code":"7850632"},{"name":"東川","zip_code":"7850656"},{"name":"広野","zip_code":"7850644"},{"name":"文丸","zip_code":"7850663"},{"name":"松谷","zip_code":"7850642"},{"name":"松原","zip_code":"7850773"},{"name":"宮野々","zip_code":"7850643"},{"name":"檮原","zip_code":"7850610"},{"name":"横貝","zip_code":"7850604"},{"name":"六丁","zip_code":"7850661"}]},{"name":"高岡郡日高村","divisions":[{"name":"岩目地","zip_code":"7812154"},{"name":"大花","zip_code":"7812163"},{"name":"沖名","zip_code":"7812152"},{"name":"鴨地","zip_code":"7812167"},{"name":"九頭","zip_code":"7812155"},{"name":"下分","zip_code":"7812151"},{"name":"長畑","zip_code":"7812166"},{"name":"名越屋","zip_code":"7812162"},{"name":"柱谷","zip_code":"7812161"},{"name":"本郷","zip_code":"7812153"},{"name":"本村","zip_code":"7812164"},{"name":"宮ノ谷","zip_code":"7812165"}]},{"name":"高岡郡津野町","divisions":[{"name":"赤木","zip_code":"7850219"},{"name":"大野","zip_code":"7850218"},{"name":"貝ノ川","zip_code":"7850203"},{"name":"貝ノ川床鍋","zip_code":"7850210"},{"name":"樺の川","zip_code":"7850206"},{"name":"烏出川","zip_code":"7850413"},{"name":"北川","zip_code":"7850502"},{"name":"久保川","zip_code":"7850204"},{"name":"黒川","zip_code":"7850217"},{"name":"桑ケ市","zip_code":"7850412"},{"name":"白石乙","zip_code":"7850212"},{"name":"白石甲","zip_code":"7850211"},{"name":"白石丙","zip_code":"7850213"},{"name":"新土居","zip_code":"7850207"},{"name":"杉ノ川乙","zip_code":"7850215"},{"name":"杉ノ川甲","zip_code":"7850214"},{"name":"杉ノ川丙","zip_code":"7850216"},{"name":"力石","zip_code":"7850501"},{"name":"永野","zip_code":"7850201"},{"name":"西谷乙","zip_code":"7850209"},{"name":"西谷甲","zip_code":"7850205"},{"name":"姫野々","zip_code":"7850202"},{"name":"船戸","zip_code":"7850411"},{"name":"三間川","zip_code":"7850208"},{"name":"芳生野乙","zip_code":"7850504"},{"name":"芳生野甲","zip_code":"7850503"},{"name":"芳生野丙","zip_code":"7850505"}]},{"name":"高岡郡四万十町","divisions":[{"name":"相去","zip_code":"7860327"},{"name":"秋丸","zip_code":"7860075"},{"name":"家地川","zip_code":"7860064"},{"name":"井崎","zip_code":"7860533"},{"name":"市生原","zip_code":"7860088"},{"name":"市ノ又","zip_code":"7860325"},{"name":"一斗俵","zip_code":"7860094"},{"name":"魚の川","zip_code":"7860037"},{"name":"打井川","zip_code":"7860322"},{"name":"浦越","zip_code":"7860523"},{"name":"江師","zip_code":"7860307"},{"name":"大井川","zip_code":"7860532"},{"name":"大井野","zip_code":"7860016"},{"name":"大鶴津","zip_code":"7860058"},{"name":"大向","zip_code":"7860067"},{"name":"興津","zip_code":"7860045"},{"name":"奥大道","zip_code":"7860517"},{"name":"奥呉地","zip_code":"7860038"},{"name":"奥神ノ川","zip_code":"7860071"},{"name":"小野","zip_code":"7860531"},{"name":"親ケ内","zip_code":"7860048"},{"name":"折合","zip_code":"7860078"},{"name":"替坂本","zip_code":"7860034"},{"name":"香月が丘","zip_code":"7860011"},{"name":"影野","zip_code":"7860032"},{"name":"数神","zip_code":"7860049"},{"name":"上秋丸","zip_code":"7860098"},{"name":"上岡","zip_code":"7860305"},{"name":"茅吹手","zip_code":"7860522"},{"name":"烏手","zip_code":"7860326"},{"name":"河内","zip_code":"7860514"},{"name":"川ノ内","zip_code":"7860091"},{"name":"北琴平町","zip_code":"7860012"},{"name":"希ノ川","zip_code":"7860303"},{"name":"金上野","zip_code":"7860003"},{"name":"口大道","zip_code":"7860516"},{"name":"口神ノ川","zip_code":"7860073"},{"name":"窪川","zip_code":"7860010"},{"name":"久保川","zip_code":"7860515"},{"name":"窪川中津川","zip_code":"7860096"},{"name":"黒石","zip_code":"7860042"},{"name":"小石","zip_code":"7860306"},{"name":"神ノ西","zip_code":"7860017"},{"name":"古城","zip_code":"7860502"},{"name":"小鶴津","zip_code":"7860057"},{"name":"琴平町","zip_code":"7860013"},{"name":"小向","zip_code":"7860022"},{"name":"木屋ケ内","zip_code":"7860313"},{"name":"根元原","zip_code":"7860028"},{"name":"西原","zip_code":"7860015"},{"name":"榊山町","zip_code":"7860008"},{"name":"作屋","zip_code":"7860087"},{"name":"里川","zip_code":"7860524"},{"name":"茂串町","zip_code":"7860004"},{"name":"仕出原","zip_code":"7860018"},{"name":"下岡","zip_code":"7860304"},{"name":"下呉地","zip_code":"7860036"},{"name":"下津井","zip_code":"7860315"},{"name":"下道","zip_code":"7860314"},{"name":"勝賀野","zip_code":"7860092"},{"name":"上宮","zip_code":"7860323"},{"name":"昭和乙","zip_code":"7860513"},{"name":"昭和甲","zip_code":"7860512"},{"name":"昭和","zip_code":"7860511"},{"name":"地吉","zip_code":"7860501"},{"name":"志和","zip_code":"7860056"},{"name":"志和峰","zip_code":"7860055"},{"name":"新開町","zip_code":"7860014"},{"name":"瀬里","zip_code":"7860302"},{"name":"天の川","zip_code":"7860066"},{"name":"大正","zip_code":"7860301"},{"name":"大正大奈路","zip_code":"7860312"},{"name":"大正北ノ川","zip_code":"7860321"},{"name":"大正中津川","zip_code":"7860316"},{"name":"高野","zip_code":"7860063"},{"name":"津賀","zip_code":"7860521"},{"name":"寺野","zip_code":"7860076"},{"name":"土居","zip_code":"7860052"},{"name":"道徳","zip_code":"7860033"},{"name":"十川","zip_code":"7860504"},{"name":"十和川口","zip_code":"7860535"},{"name":"戸川","zip_code":"7860503"},{"name":"床鍋","zip_code":"7860031"},{"name":"富岡","zip_code":"7860025"},{"name":"中神ノ川","zip_code":"7860072"},{"name":"中ノ越","zip_code":"7860023"},{"name":"中村","zip_code":"7860081"},{"name":"七里","zip_code":"7860082"},{"name":"奈路","zip_code":"7860041"},{"name":"仁井田","zip_code":"7860021"},{"name":"西川角","zip_code":"7860083"},{"name":"西ノ川","zip_code":"7860311"},{"name":"根々崎","zip_code":"7860085"},{"name":"野地","zip_code":"7860065"},{"name":"野々川","zip_code":"7860525"},{"name":"八千数","zip_code":"7860047"},{"name":"飯ノ川","zip_code":"7860054"},{"name":"東大奈路","zip_code":"7860027"},{"name":"東川角","zip_code":"7860084"},{"name":"東北ノ川","zip_code":"7860093"},{"name":"東町","zip_code":"7860006"},{"name":"桧生原","zip_code":"7860077"},{"name":"日野地","zip_code":"7860097"},{"name":"平串","zip_code":"7860026"},{"name":"平野","zip_code":"7860051"},{"name":"弘瀬","zip_code":"7860324"},{"name":"広瀬","zip_code":"7860534"},{"name":"弘見","zip_code":"7860053"},{"name":"藤ノ川","zip_code":"7860001"},{"name":"古市町","zip_code":"7860007"},{"name":"本堂","zip_code":"7860043"},{"name":"本町","zip_code":"7860005"},{"name":"見付","zip_code":"7860002"},{"name":"南川口","zip_code":"7860074"},{"name":"峰ノ上","zip_code":"7860061"},{"name":"宮内","zip_code":"7860086"},{"name":"向川","zip_code":"7860024"},{"name":"芳川","zip_code":"7860308"},{"name":"与津地","zip_code":"7860044"},{"name":"米奥","zip_code":"7860095"},{"name":"六反地","zip_code":"7860035"},{"name":"若井","zip_code":"7860068"},{"name":"若井川","zip_code":"7860062"}]},{"name":"幡多郡大月町","divisions":[{"name":"赤泊","zip_code":"7880332"},{"name":"安満地","zip_code":"7880351"},{"name":"一切","zip_code":"7880342"},{"name":"大浦","zip_code":"7880324"},{"name":"樫ノ浦","zip_code":"7880334"},{"name":"頭集","zip_code":"7880314"},{"name":"柏島","zip_code":"7880343"},{"name":"唐岩","zip_code":"7880335"},{"name":"口目塚","zip_code":"7880331"},{"name":"小才角","zip_code":"7880322"},{"name":"古満目","zip_code":"7880315"},{"name":"才角","zip_code":"7880323"},{"name":"清王","zip_code":"7880312"},{"name":"添ノ川","zip_code":"7880363"},{"name":"周防形","zip_code":"7880313"},{"name":"橘浦","zip_code":"7880352"},{"name":"龍ケ迫","zip_code":"7880361"},{"name":"月ケ丘","zip_code":"7880325"},{"name":"泊浦","zip_code":"7880353"},{"name":"西泊","zip_code":"7880333"},{"name":"春遠","zip_code":"7880321"},{"name":"姫ノ井","zip_code":"7880331"},{"name":"平山","zip_code":"7880341"},{"name":"弘見","zip_code":"7880302"},{"name":"鉾土","zip_code":"7880311"},{"name":"芳ノ沢","zip_code":"7880362"}]},{"name":"幡多郡三原村","divisions":[{"name":"狼内","zip_code":"7870806"},{"name":"上下長谷","zip_code":"7870804"},{"name":"上長谷","zip_code":"7870805"},{"name":"亀ノ川","zip_code":"7870815"},{"name":"来栖野","zip_code":"7870803"},{"name":"下切","zip_code":"7870816"},{"name":"下長谷","zip_code":"7870812"},{"name":"成山","zip_code":"7870807"},{"name":"広野","zip_code":"7870814"},{"name":"皆尾","zip_code":"7870813"},{"name":"宮ノ川","zip_code":"7870802"},{"name":"柚ノ木","zip_code":"7870801"},{"name":"芳井","zip_code":"7870811"}]},{"name":"幡多郡黒潮町","divisions":[{"name":"有井川","zip_code":"7891903"},{"name":"伊田","zip_code":"7891904"},{"name":"市野瀬","zip_code":"7891701"},{"name":"市野々川","zip_code":"7891711"},{"name":"出口","zip_code":"7891934"},{"name":"伊与喜","zip_code":"7891713"},{"name":"入野","zip_code":"7891931"},{"name":"浮鞭","zip_code":"7891911"},{"name":"馬荷","zip_code":"7891924"},{"name":"大井川","zip_code":"7891923"},{"name":"大方橘川","zip_code":"7891925"},{"name":"奥湊川","zip_code":"7891913"},{"name":"御坊畑","zip_code":"7891936"},{"name":"荷稲","zip_code":"7891705"},{"name":"上川口","zip_code":"7891901"},{"name":"上田の口","zip_code":"7891935"},{"name":"加持","zip_code":"7891921"},{"name":"加持川","zip_code":"7891922"},{"name":"川奥","zip_code":"7891704"},{"name":"口湊川","zip_code":"7891912"},{"name":"熊井","zip_code":"7891715"},{"name":"熊野浦","zip_code":"7891716"},{"name":"小黒ノ川","zip_code":"7891706"},{"name":"拳ノ川","zip_code":"7891703"},{"name":"佐賀","zip_code":"7891723"},{"name":"佐賀橘川","zip_code":"7891702"},{"name":"下田の口","zip_code":"7891932"},{"name":"白浜","zip_code":"7891725"},{"name":"鈴","zip_code":"7891708"},{"name":"田野浦","zip_code":"7891933"},{"name":"中ノ川","zip_code":"7891707"},{"name":"灘","zip_code":"7891905"},{"name":"藤縄","zip_code":"7891714"},{"name":"不破原","zip_code":"7891712"},{"name":"蜷川","zip_code":"7891902"}]}]}