{"name":"福岡県","cities":[{"name":"北九州市門司区","divisions":[{"name":"青葉台","zip_code":"8000045"},{"name":"伊川","zip_code":"8000101"},{"name":"泉ケ丘","zip_code":"8000041"},{"name":"稲積","zip_code":"8000048"},{"name":"今津","zip_code":"8000111"},{"name":"梅ノ木町","zip_code":"8000026"},{"name":"老松町","zip_code":"8010864"},{"name":"大久保","zip_code":"8010883"},{"name":"大積","zip_code":"8010811"},{"name":"奥田","zip_code":"8000011"},{"name":"花月園","zip_code":"8010876"},{"name":"風師","zip_code":"8010801"},{"name":"春日町","zip_code":"8010823"},{"name":"片上海岸","zip_code":"8000061"},{"name":"片上町","zip_code":"8000003"},{"name":"上二十町","zip_code":"8000016"},{"name":"上藤松","zip_code":"8000044"},{"name":"上本町","zip_code":"8010871"},{"name":"上馬寄","zip_code":"8000042"},{"name":"吉志","zip_code":"8000114"},{"name":"吉志新町","zip_code":"8000118"},{"name":"北川町","zip_code":"8000004"},{"name":"喜多久","zip_code":"8010812"},{"name":"旧門司","zip_code":"8010854"},{"name":"清滝","zip_code":"8010833"},{"name":"清見","zip_code":"8010882"},{"name":"清見佐夜町","zip_code":"8010886"},{"name":"葛葉","zip_code":"8010808"},{"name":"黒川","zip_code":"8010821"},{"name":"黒川東","zip_code":"8010826"},{"name":"黒川西","zip_code":"8010825"},{"name":"黄金町","zip_code":"8000027"},{"name":"小松町","zip_code":"8000034"},{"name":"小森江","zip_code":"8000007"},{"name":"栄町","zip_code":"8010863"},{"name":"猿喰","zip_code":"8000102"},{"name":"寺内","zip_code":"8000015"},{"name":"下二十町","zip_code":"8000028"},{"name":"下馬寄","zip_code":"8000051"},{"name":"社ノ木","zip_code":"8000054"},{"name":"庄司町","zip_code":"8010865"},{"name":"白野江","zip_code":"8010802"},{"name":"城山町","zip_code":"8000013"},{"name":"新開","zip_code":"8010885"},{"name":"新原町","zip_code":"8000053"},{"name":"新門司","zip_code":"8000115"},{"name":"新門司北","zip_code":"8000113"},{"name":"瀬戸町","zip_code":"8010884"},{"name":"大里","zip_code":"8000014"},{"name":"大里桜ケ丘","zip_code":"8000018"},{"name":"大里新町","zip_code":"8000057"},{"name":"大里戸ノ上","zip_code":"8000024"},{"name":"大里原町","zip_code":"8000038"},{"name":"大里東","zip_code":"8000022"},{"name":"大里東口","zip_code":"8000029"},{"name":"大里本町","zip_code":"8000063"},{"name":"大里元町","zip_code":"8000062"},{"name":"大里桃山町","zip_code":"8000033"},{"name":"高砂町","zip_code":"8010822"},{"name":"高田","zip_code":"8000031"},{"name":"太刀浦海岸","zip_code":"8010805"},{"name":"谷町","zip_code":"8010872"},{"name":"田野浦","zip_code":"8010803"},{"name":"田野浦海岸","zip_code":"8010804"},{"name":"恒見","zip_code":"8000117"},{"name":"恒見町","zip_code":"8000116"},{"name":"中二十町","zip_code":"8000023"},{"name":"中町","zip_code":"8000039"},{"name":"永黒","zip_code":"8000017"},{"name":"長谷","zip_code":"8010861"},{"name":"鳴竹","zip_code":"8010881"},{"name":"西海岸","zip_code":"8010841"},{"name":"錦町","zip_code":"8010862"},{"name":"西新町","zip_code":"8000056"},{"name":"畑","zip_code":"8000112"},{"name":"畑田町","zip_code":"8010874"},{"name":"浜町","zip_code":"8010856"},{"name":"羽山","zip_code":"8000005"},{"name":"原町別院","zip_code":"8000037"},{"name":"光町","zip_code":"8000046"},{"name":"東新町","zip_code":"8000055"},{"name":"東本町","zip_code":"8010851"},{"name":"東馬寄","zip_code":"8000052"},{"name":"東港町","zip_code":"8010853"},{"name":"東門司","zip_code":"8010873"},{"name":"柄杓田","zip_code":"8010813"},{"name":"柄杓田町","zip_code":"8010814"},{"name":"広石","zip_code":"8010842"},{"name":"藤松","zip_code":"8000047"},{"name":"二タ松町","zip_code":"8000002"},{"name":"不老町","zip_code":"8000032"},{"name":"別院","zip_code":"8000035"},{"name":"法師庵","zip_code":"8010875"},{"name":"本町","zip_code":"8010834"},{"name":"松崎町","zip_code":"8000012"},{"name":"松原","zip_code":"8000064"},{"name":"丸山","zip_code":"8010831"},{"name":"丸山吉野町","zip_code":"8010824"},{"name":"緑ケ丘","zip_code":"8000043"},{"name":"港町","zip_code":"8010852"},{"name":"南本町","zip_code":"8000021"},{"name":"門司","zip_code":"8010855"},{"name":"元清滝","zip_code":"8010832"},{"name":"桃山台","zip_code":"8000030"},{"name":"柳原町","zip_code":"8000036"},{"name":"柳町","zip_code":"8000025"},{"name":"矢筈町","zip_code":"8000006"}]},{"name":"北九州市若松区","divisions":[{"name":"青葉台東","zip_code":"8080141"},{"name":"青葉台西","zip_code":"8080143"},{"name":"青葉台南","zip_code":"8080142"},{"name":"赤岩町","zip_code":"8080175"},{"name":"赤崎町","zip_code":"8080003"},{"name":"赤島町","zip_code":"8080073"},{"name":"蜑住","zip_code":"8080122"},{"name":"有毛","zip_code":"8080123"},{"name":"安瀬","zip_code":"8080022"},{"name":"安屋","zip_code":"8080124"},{"name":"今光","zip_code":"8080071"},{"name":"栄盛川町","zip_code":"8080014"},{"name":"老松","zip_code":"8080032"},{"name":"大池町","zip_code":"8080061"},{"name":"大井戸町","zip_code":"8080033"},{"name":"大谷町","zip_code":"8080051"},{"name":"大鳥居","zip_code":"8080133"},{"name":"小竹","zip_code":"8080008"},{"name":"乙丸","zip_code":"8080134"},{"name":"片山","zip_code":"8080106"},{"name":"上原町","zip_code":"8080015"},{"name":"鴨生田","zip_code":"8080105"},{"name":"北浜","zip_code":"8080023"},{"name":"北湊町","zip_code":"8080027"},{"name":"響南町","zip_code":"8080011"},{"name":"くきのうみ中央","zip_code":"8080066"},{"name":"久岐の浜","zip_code":"8080054"},{"name":"小石","zip_code":"8080007"},{"name":"小石本村町","zip_code":"8080001"},{"name":"小糸町","zip_code":"8080046"},{"name":"向洋町","zip_code":"8080002"},{"name":"小敷","zip_code":"8080132"},{"name":"小敷ひびきの","zip_code":"8080139"},{"name":"桜町","zip_code":"8080026"},{"name":"迫田町","zip_code":"8080041"},{"name":"塩屋","zip_code":"8080131"},{"name":"下原町","zip_code":"8080005"},{"name":"新大谷町","zip_code":"8080052"},{"name":"修多羅","zip_code":"8080053"},{"name":"高須","zip_code":"8080148"},{"name":"高須東","zip_code":"8080144"},{"name":"高須西","zip_code":"8080146"},{"name":"高須南","zip_code":"8080145"},{"name":"高須北","zip_code":"8080147"},{"name":"竹並","zip_code":"8080121"},{"name":"棚田町","zip_code":"8080042"},{"name":"童子丸","zip_code":"8080076"},{"name":"頓田","zip_code":"8080112"},{"name":"中川町","zip_code":"8080025"},{"name":"中畑町","zip_code":"8080047"},{"name":"波打町","zip_code":"8080013"},{"name":"西小石町","zip_code":"8080004"},{"name":"西園町","zip_code":"8080031"},{"name":"西天神町","zip_code":"8080101"},{"name":"西畑町","zip_code":"8080043"},{"name":"白山","zip_code":"8080035"},{"name":"畠田","zip_code":"8080104"},{"name":"畑谷町","zip_code":"8080055"},{"name":"花野路","zip_code":"8080136"},{"name":"浜町","zip_code":"8080024"},{"name":"払川","zip_code":"8080113"},{"name":"原町","zip_code":"8080016"},{"name":"東小石町","zip_code":"8080017"},{"name":"東畑町","zip_code":"8080044"},{"name":"東二島","zip_code":"8080102"},{"name":"ひびきの","zip_code":"8080135"},{"name":"ひびきの北","zip_code":"8080138"},{"name":"ひびきの南","zip_code":"8080137"},{"name":"響町","zip_code":"8080021"},{"name":"深町","zip_code":"8080012"},{"name":"藤木","zip_code":"8080065"},{"name":"藤ノ木","zip_code":"8080074"},{"name":"二島","zip_code":"8080103"},{"name":"古前","zip_code":"8080062"},{"name":"本町","zip_code":"8080034"},{"name":"南二島","zip_code":"8080109"},{"name":"宮前町","zip_code":"8080006"},{"name":"宮丸","zip_code":"8080064"},{"name":"柳崎町","zip_code":"8080111"},{"name":"山手町","zip_code":"8080036"},{"name":"山ノ堂町","zip_code":"8080045"},{"name":"百合野町","zip_code":"8080072"},{"name":"用勺町","zip_code":"8080077"},{"name":"和田町","zip_code":"8080063"}]},{"name":"北九州市戸畑区","divisions":[{"name":"旭町","zip_code":"8040083"},{"name":"浅生","zip_code":"8040062"},{"name":"一枝","zip_code":"8040021"},{"name":"沖台","zip_code":"8040064"},{"name":"川代","zip_code":"8040071"},{"name":"観音寺町","zip_code":"8040043"},{"name":"北鳥旗町","zip_code":"8040075"},{"name":"銀座","zip_code":"8040076"},{"name":"小芝","zip_code":"8040092"},{"name":"金比羅町","zip_code":"8040022"},{"name":"幸町","zip_code":"8040084"},{"name":"境川","zip_code":"8040013"},{"name":"沢見","zip_code":"8040093"},{"name":"三六町","zip_code":"8040091"},{"name":"椎ノ木町","zip_code":"8040033"},{"name":"汐井町","zip_code":"8040067"},{"name":"正津町","zip_code":"8040063"},{"name":"新池","zip_code":"8040082"},{"name":"新川町","zip_code":"8040065"},{"name":"菅原","zip_code":"8040044"},{"name":"仙水町","zip_code":"8040015"},{"name":"千防","zip_code":"8040081"},{"name":"高峰","zip_code":"8040051"},{"name":"土取町","zip_code":"8040014"},{"name":"天神","zip_code":"8040094"},{"name":"天籟寺","zip_code":"8040041"},{"name":"戸畑","zip_code":"8040004"},{"name":"飛幡町","zip_code":"8040001"},{"name":"中原","zip_code":"8040002"},{"name":"中原新町","zip_code":"8040003"},{"name":"中原東","zip_code":"8040012"},{"name":"中原西","zip_code":"8040011"},{"name":"中本町","zip_code":"8040061"},{"name":"西大谷","zip_code":"8040032"},{"name":"西鞘ケ谷町","zip_code":"8040024"},{"name":"初音町","zip_code":"8040066"},{"name":"東大谷","zip_code":"8040031"},{"name":"東鞘ケ谷町","zip_code":"8040023"},{"name":"福柳木","zip_code":"8040025"},{"name":"牧山","zip_code":"8040053"},{"name":"牧山海岸","zip_code":"8040077"},{"name":"牧山新町","zip_code":"8040054"},{"name":"丸町","zip_code":"8040052"},{"name":"南鳥旗町","zip_code":"8040074"},{"name":"明治町","zip_code":"8040073"},{"name":"元宮町","zip_code":"8040072"},{"name":"夜宮","zip_code":"8040042"}]},{"name":"北九州市小倉北区","divisions":[{"name":"藍島","zip_code":"8020091"},{"name":"青葉","zip_code":"8030822"},{"name":"赤坂","zip_code":"8020032"},{"name":"赤坂海岸","zip_code":"8020031"},{"name":"浅野","zip_code":"8020001"},{"name":"朝日ケ丘","zip_code":"8030833"},{"name":"足原","zip_code":"8020043"},{"name":"愛宕","zip_code":"8030828"},{"name":"足立","zip_code":"8020042"},{"name":"泉台","zip_code":"8030842"},{"name":"板櫃町","zip_code":"8030824"},{"name":"井堀","zip_code":"8030835"},{"name":"今町","zip_code":"8030862"},{"name":"鋳物師町","zip_code":"8030821"},{"name":"魚町","zip_code":"8020006"},{"name":"宇佐町","zip_code":"8020016"},{"name":"馬島","zip_code":"8020092"},{"name":"江南町","zip_code":"8020083"},{"name":"大田町","zip_code":"8020015"},{"name":"大手町","zip_code":"8030814"},{"name":"大畠","zip_code":"8020026"},{"name":"鍛冶町","zip_code":"8020004"},{"name":"片野","zip_code":"8020064"},{"name":"片野新町","zip_code":"8020062"},{"name":"金田","zip_code":"8030816"},{"name":"上到津","zip_code":"8030845"},{"name":"上富野","zip_code":"8020022"},{"name":"香春口","zip_code":"8020084"},{"name":"神岳","zip_code":"8020045"},{"name":"貴船町","zip_code":"8020073"},{"name":"木町","zip_code":"8030851"},{"name":"京町","zip_code":"8020002"},{"name":"清水","zip_code":"8030841"},{"name":"霧ケ丘","zip_code":"8020052"},{"name":"金鶏町","zip_code":"8030843"},{"name":"熊谷","zip_code":"8030864"},{"name":"熊本","zip_code":"8020044"},{"name":"黒住町","zip_code":"8020056"},{"name":"黒原","zip_code":"8020051"},{"name":"黄金","zip_code":"8020071"},{"name":"許斐町","zip_code":"8030803"},{"name":"米町","zip_code":"8020003"},{"name":"小文字","zip_code":"8020037"},{"name":"紺屋町","zip_code":"8020081"},{"name":"菜園場","zip_code":"8030823"},{"name":"堺町","zip_code":"8020005"},{"name":"三郎丸","zip_code":"8020061"},{"name":"皿山町","zip_code":"8030854"},{"name":"山門町","zip_code":"8020024"},{"name":"重住","zip_code":"8020011"},{"name":"篠崎","zip_code":"8030861"},{"name":"下到津","zip_code":"8030846"},{"name":"下富野","zip_code":"8020023"},{"name":"寿山町","zip_code":"8020025"},{"name":"城内","zip_code":"8030813"},{"name":"城野団地","zip_code":"8020055"},{"name":"昭和町","zip_code":"8020075"},{"name":"白銀","zip_code":"8020074"},{"name":"白萩町","zip_code":"8030825"},{"name":"神幸町","zip_code":"8020038"},{"name":"新高田","zip_code":"8030852"},{"name":"親和町","zip_code":"8030805"},{"name":"末広","zip_code":"8020012"},{"name":"須賀町","zip_code":"8020034"},{"name":"砂津","zip_code":"8020014"},{"name":"船頭町","zip_code":"8020008"},{"name":"船場町","zip_code":"8020007"},{"name":"大門","zip_code":"8030811"},{"name":"高尾","zip_code":"8030853"},{"name":"高浜","zip_code":"8020021"},{"name":"高坊","zip_code":"8020053"},{"name":"高見台","zip_code":"8030838"},{"name":"高峰町","zip_code":"8030826"},{"name":"竪林町","zip_code":"8030855"},{"name":"竪町","zip_code":"8030818"},{"name":"田町","zip_code":"8030817"},{"name":"常盤町","zip_code":"8020035"},{"name":"富野","zip_code":"8020036"},{"name":"富野台","zip_code":"8020033"},{"name":"中井","zip_code":"8030836"},{"name":"中井口","zip_code":"8030837"},{"name":"中井浜","zip_code":"8030804"},{"name":"中島","zip_code":"8020076"},{"name":"中津口","zip_code":"8020018"},{"name":"長浜町","zip_code":"8020013"},{"name":"西港町","zip_code":"8030801"},{"name":"萩崎町","zip_code":"8020066"},{"name":"馬借","zip_code":"8020077"},{"name":"原町","zip_code":"8030815"},{"name":"日明","zip_code":"8030831"},{"name":"東篠崎","zip_code":"8020072"},{"name":"東城野町","zip_code":"8020054"},{"name":"東港","zip_code":"8030802"},{"name":"平松町","zip_code":"8030832"},{"name":"古船場町","zip_code":"8020082"},{"name":"弁天町","zip_code":"8030856"},{"name":"真鶴","zip_code":"8030844"},{"name":"緑ケ丘","zip_code":"8030827"},{"name":"南丘","zip_code":"8030863"},{"name":"三萩野","zip_code":"8020065"},{"name":"都","zip_code":"8030834"},{"name":"妙見町","zip_code":"8020041"},{"name":"室町","zip_code":"8030812"},{"name":"明和町","zip_code":"8020017"},{"name":"山田町","zip_code":"8030865"},{"name":"吉野町","zip_code":"8020085"},{"name":"若富士町","zip_code":"8020063"}]},{"name":"北九州市小倉南区","divisions":[{"name":"安部山","zip_code":"8000258"},{"name":"石田町","zip_code":"8020838"},{"name":"石田南","zip_code":"8020836"},{"name":"石原町","zip_code":"8030185"},{"name":"市丸","zip_code":"8030183"},{"name":"井手浦","zip_code":"8030189"},{"name":"合馬","zip_code":"8030261"},{"name":"長行","zip_code":"8030271"},{"name":"長行東","zip_code":"8030273"},{"name":"長行西","zip_code":"8030272"},{"name":"隠蓑","zip_code":"8020834"},{"name":"頂吉","zip_code":"8030267"},{"name":"上石田","zip_code":"8020833"},{"name":"上葛原","zip_code":"8000255"},{"name":"上曽根","zip_code":"8000223"},{"name":"上曽根新町","zip_code":"8000215"},{"name":"上貫","zip_code":"8000244"},{"name":"上吉田","zip_code":"8000201"},{"name":"蒲生","zip_code":"8020978"},{"name":"企救丘","zip_code":"8020981"},{"name":"北方","zip_code":"8020841"},{"name":"木下","zip_code":"8030184"},{"name":"空港北町","zip_code":"8000306"},{"name":"朽網","zip_code":"8000231"},{"name":"朽網東","zip_code":"8000232"},{"name":"朽網西","zip_code":"8000233"},{"name":"葛原","zip_code":"8000251"},{"name":"葛原高松","zip_code":"8000252"},{"name":"葛原本町","zip_code":"8000253"},{"name":"葛原元町","zip_code":"8000254"},{"name":"葛原東","zip_code":"8000206"},{"name":"小森","zip_code":"8030182"},{"name":"志井","zip_code":"8020985"},{"name":"志井公園","zip_code":"8020984"},{"name":"志井鷹羽台","zip_code":"8020986"},{"name":"重住","zip_code":"8020811"},{"name":"志徳","zip_code":"8020983"},{"name":"下石田","zip_code":"8020832"},{"name":"下城野","zip_code":"8020804"},{"name":"下曽根","zip_code":"8000217"},{"name":"下曽根新町","zip_code":"8000221"},{"name":"下貫","zip_code":"8000236"},{"name":"下南方","zip_code":"8020977"},{"name":"下吉田","zip_code":"8000203"},{"name":"城野","zip_code":"8020802"},{"name":"新曽根","zip_code":"8000211"},{"name":"新道寺","zip_code":"8030186"},{"name":"星和台","zip_code":"8020973"},{"name":"曽根","zip_code":"8000212"},{"name":"曽根北町","zip_code":"8000229"},{"name":"曽根新田","zip_code":"8000214"},{"name":"曽根新田南","zip_code":"8000220"},{"name":"曽根新田北","zip_code":"8000219"},{"name":"高津尾","zip_code":"8030268"},{"name":"高野","zip_code":"8030275"},{"name":"田代","zip_code":"8030262"},{"name":"田原","zip_code":"8000225"},{"name":"田原新町","zip_code":"8000226"},{"name":"辻三","zip_code":"8030263"},{"name":"津田","zip_code":"8000242"},{"name":"津田新町","zip_code":"8000227"},{"name":"津田南町","zip_code":"8000248"},{"name":"道原","zip_code":"8030266"},{"name":"徳吉","zip_code":"8030276"},{"name":"徳吉東","zip_code":"8030277"},{"name":"徳吉西","zip_code":"8030278"},{"name":"徳吉南","zip_code":"8030279"},{"name":"徳力","zip_code":"8020974"},{"name":"徳力新町","zip_code":"8020979"},{"name":"徳力団地","zip_code":"8020975"},{"name":"中曽根","zip_code":"8000222"},{"name":"中曽根新町","zip_code":"8000216"},{"name":"中曽根東","zip_code":"8000213"},{"name":"中貫","zip_code":"8000237"},{"name":"中貫本町","zip_code":"8000235"},{"name":"中吉田","zip_code":"8000204"},{"name":"長尾","zip_code":"8030274"},{"name":"長野","zip_code":"8000228"},{"name":"長野東町","zip_code":"8000247"},{"name":"長野本町","zip_code":"8000241"},{"name":"西貫","zip_code":"8000243"},{"name":"西水町","zip_code":"8020812"},{"name":"蜷田若園","zip_code":"8020814"},{"name":"貫","zip_code":"8000245"},{"name":"貫弥生が丘","zip_code":"8000234"},{"name":"沼","zip_code":"8000209"},{"name":"沼新町","zip_code":"8000218"},{"name":"沼本町","zip_code":"8000208"},{"name":"沼緑町","zip_code":"8000207"},{"name":"沼南町","zip_code":"8000205"},{"name":"八幡町","zip_code":"8020805"},{"name":"葉山町","zip_code":"8020837"},{"name":"春ケ丘","zip_code":"8020803"},{"name":"春吉","zip_code":"8030265"},{"name":"東貫","zip_code":"8000224"},{"name":"東水町","zip_code":"8020813"},{"name":"日の出町","zip_code":"8020842"},{"name":"平尾台","zip_code":"8030180"},{"name":"富士見","zip_code":"8020801"},{"name":"堀越","zip_code":"8020835"},{"name":"舞ケ丘","zip_code":"8020823"},{"name":"南方","zip_code":"8020976"},{"name":"南若園町","zip_code":"8020815"},{"name":"母原","zip_code":"8030187"},{"name":"守恒","zip_code":"8020972"},{"name":"守恒本町","zip_code":"8020971"},{"name":"八重洲町","zip_code":"8020831"},{"name":"山手","zip_code":"8020982"},{"name":"山本","zip_code":"8030264"},{"name":"湯川","zip_code":"8000257"},{"name":"湯川新町","zip_code":"8000256"},{"name":"横代","zip_code":"8020824"},{"name":"横代葉山","zip_code":"8020825"},{"name":"横代東町","zip_code":"8020822"},{"name":"横代南町","zip_code":"8020826"},{"name":"横代北町","zip_code":"8020821"},{"name":"吉田","zip_code":"8000202"},{"name":"吉田にれの木坂","zip_code":"8000210"},{"name":"呼野","zip_code":"8030181"},{"name":"若園","zip_code":"8020816"}]},{"name":"北九州市八幡東区","divisions":[{"name":"荒手","zip_code":"8050001"},{"name":"荒生田","zip_code":"8050015"},{"name":"石坪町","zip_code":"8050021"},{"name":"猪倉町","zip_code":"8050037"},{"name":"祝町","zip_code":"8050041"},{"name":"枝光","zip_code":"8050002"},{"name":"枝光本町","zip_code":"8050008"},{"name":"大蔵","zip_code":"8050048"},{"name":"大谷","zip_code":"8050053"},{"name":"大平町","zip_code":"8050038"},{"name":"大宮町","zip_code":"8050003"},{"name":"尾倉","zip_code":"8050057"},{"name":"勝山","zip_code":"8050043"},{"name":"上本町","zip_code":"8050018"},{"name":"神山町","zip_code":"8050055"},{"name":"河内","zip_code":"8050045"},{"name":"川淵町","zip_code":"8050012"},{"name":"祇園","zip_code":"8050067"},{"name":"祇園原町","zip_code":"8050066"},{"name":"清田","zip_code":"8050034"},{"name":"景勝町","zip_code":"8050047"},{"name":"小熊野","zip_code":"8050036"},{"name":"山路","zip_code":"8050035"},{"name":"山路松尾町","zip_code":"8050033"},{"name":"山王","zip_code":"8050017"},{"name":"昭和","zip_code":"8050013"},{"name":"白川町","zip_code":"8050007"},{"name":"末広町","zip_code":"8050049"},{"name":"諏訪","zip_code":"8050006"},{"name":"高見","zip_code":"8050016"},{"name":"竹下町","zip_code":"8050022"},{"name":"田代","zip_code":"8050046"},{"name":"茶屋町","zip_code":"8050014"},{"name":"中央","zip_code":"8050019"},{"name":"槻田","zip_code":"8050031"},{"name":"天神町","zip_code":"8050054"},{"name":"中尾","zip_code":"8050025"},{"name":"中畑","zip_code":"8050024"},{"name":"西台良町","zip_code":"8050064"},{"name":"西本町","zip_code":"8050061"},{"name":"西丸山町","zip_code":"8050052"},{"name":"羽衣町","zip_code":"8050042"},{"name":"八王寺町","zip_code":"8050011"},{"name":"花尾町","zip_code":"8050065"},{"name":"春の町","zip_code":"8050050"},{"name":"東田","zip_code":"8050071"},{"name":"東台良町","zip_code":"8050063"},{"name":"東鉄町","zip_code":"8050027"},{"name":"東丸山町","zip_code":"8050051"},{"name":"東山","zip_code":"8050026"},{"name":"日の出","zip_code":"8050004"},{"name":"平野","zip_code":"8050062"},{"name":"藤見町","zip_code":"8050005"},{"name":"帆柱","zip_code":"8050056"},{"name":"前田","zip_code":"8050058"},{"name":"松尾町","zip_code":"8050032"},{"name":"宮田町","zip_code":"8050009"},{"name":"宮の町","zip_code":"8050023"},{"name":"桃園","zip_code":"8050068"},{"name":"豊町","zip_code":"8050044"}]},{"name":"北九州市八幡西区","divisions":[{"name":"相生町","zip_code":"8060044"},{"name":"青山","zip_code":"8060043"},{"name":"浅川","zip_code":"8070872"},{"name":"浅川学園台","zip_code":"8070871"},{"name":"浅川台","zip_code":"8070875"},{"name":"浅川日の峯","zip_code":"8070876"},{"name":"浅川町","zip_code":"8070879"},{"name":"穴生","zip_code":"8060049"},{"name":"池田","zip_code":"8071125"},{"name":"石坂","zip_code":"8071121"},{"name":"泉ケ浦","zip_code":"8070854"},{"name":"医生ケ丘","zip_code":"8070804"},{"name":"市瀬","zip_code":"8060063"},{"name":"岩崎","zip_code":"8071153"},{"name":"上の原","zip_code":"8070071"},{"name":"永犬丸","zip_code":"8070851"},{"name":"永犬丸東町","zip_code":"8070842"},{"name":"永犬丸西町","zip_code":"8070852"},{"name":"永犬丸南町","zip_code":"8070845"},{"name":"大浦","zip_code":"8070874"},{"name":"大畑町","zip_code":"8060053"},{"name":"大平","zip_code":"8070083"},{"name":"大平台","zip_code":"8070084"},{"name":"岡田町","zip_code":"8060033"},{"name":"沖田","zip_code":"8070077"},{"name":"御開","zip_code":"8070806"},{"name":"折尾","zip_code":"8070825"},{"name":"春日台","zip_code":"8070844"},{"name":"香月中央","zip_code":"8071102"},{"name":"香月西","zip_code":"8071103"},{"name":"上香月","zip_code":"8071101"},{"name":"上上津役","zip_code":"8070072"},{"name":"岸の浦","zip_code":"8060034"},{"name":"北鷹見町","zip_code":"8070834"},{"name":"吉祥寺町","zip_code":"8071114"},{"name":"貴船台","zip_code":"8070814"},{"name":"京良城町","zip_code":"8060061"},{"name":"洞南町","zip_code":"8070812"},{"name":"楠北","zip_code":"8071154"},{"name":"楠木","zip_code":"8070827"},{"name":"楠橋","zip_code":"8071151"},{"name":"楠橋上方","zip_code":"8071141"},{"name":"楠橋下方","zip_code":"8071146"},{"name":"楠橋東","zip_code":"8071142"},{"name":"楠橋西","zip_code":"8071145"},{"name":"楠橋南","zip_code":"8071143"},{"name":"熊手","zip_code":"8060028"},{"name":"熊西","zip_code":"8060031"},{"name":"黒崎","zip_code":"8060021"},{"name":"黒崎城石","zip_code":"8060004"},{"name":"皇后崎町","zip_code":"8060041"},{"name":"河桃町","zip_code":"8060016"},{"name":"紅梅","zip_code":"8060011"},{"name":"光明","zip_code":"8070824"},{"name":"小鷺田町","zip_code":"8060056"},{"name":"小嶺","zip_code":"8070081"},{"name":"小嶺台","zip_code":"8070082"},{"name":"木屋瀬","zip_code":"8071261"},{"name":"金剛","zip_code":"8071263"},{"name":"幸神","zip_code":"8060055"},{"name":"桜ケ丘町","zip_code":"8060042"},{"name":"笹田","zip_code":"8071265"},{"name":"さつき台","zip_code":"8070868"},{"name":"里中","zip_code":"8070846"},{"name":"三ケ森","zip_code":"8070843"},{"name":"下上津役","zip_code":"8070075"},{"name":"下上津役元町","zip_code":"8070076"},{"name":"下畑町","zip_code":"8071123"},{"name":"自由ケ丘","zip_code":"8070867"},{"name":"松寿山","zip_code":"8070855"},{"name":"白岩町","zip_code":"8071113"},{"name":"陣原","zip_code":"8070821"},{"name":"陣山","zip_code":"8060012"},{"name":"菅原町","zip_code":"8060027"},{"name":"瀬板","zip_code":"8070822"},{"name":"清納","zip_code":"8060013"},{"name":"星和町","zip_code":"8070829"},{"name":"大膳","zip_code":"8070863"},{"name":"高江","zip_code":"8071152"},{"name":"鷹の巣","zip_code":"8060047"},{"name":"鷹見台","zip_code":"8070853"},{"name":"竹末","zip_code":"8060045"},{"name":"田町","zip_code":"8060003"},{"name":"茶売町","zip_code":"8060069"},{"name":"茶屋の原","zip_code":"8071134"},{"name":"千代","zip_code":"8071112"},{"name":"千代ケ崎","zip_code":"8070803"},{"name":"築地町","zip_code":"8060001"},{"name":"筒井町","zip_code":"8060032"},{"name":"鉄王","zip_code":"8060057"},{"name":"鉄竜","zip_code":"8060058"},{"name":"東筑","zip_code":"8070832"},{"name":"塔野","zip_code":"8070085"},{"name":"洞北町","zip_code":"8070811"},{"name":"友田","zip_code":"8070828"},{"name":"中須","zip_code":"8070823"},{"name":"中の原","zip_code":"8070078"},{"name":"長崎町","zip_code":"8070836"},{"name":"鳴水町","zip_code":"8060052"},{"name":"西王子町","zip_code":"8060039"},{"name":"西折尾町","zip_code":"8070862"},{"name":"西川頭町","zip_code":"8060017"},{"name":"西神原町","zip_code":"8060026"},{"name":"西鳴水","zip_code":"8060054"},{"name":"西曲里町","zip_code":"8060036"},{"name":"野面","zip_code":"8071262"},{"name":"則松","zip_code":"8070831"},{"name":"則松東","zip_code":"8070837"},{"name":"萩原","zip_code":"8060059"},{"name":"畑","zip_code":"8071124"},{"name":"馬場山","zip_code":"8071136"},{"name":"馬場山原","zip_code":"8071135"},{"name":"馬場山東","zip_code":"8071131"},{"name":"馬場山西","zip_code":"8071132"},{"name":"馬場山緑","zip_code":"8071133"},{"name":"東石坂町","zip_code":"8071122"},{"name":"東王子町","zip_code":"8060037"},{"name":"東折尾町","zip_code":"8070835"},{"name":"東川頭町","zip_code":"8060014"},{"name":"東神原町","zip_code":"8060025"},{"name":"東鳴水","zip_code":"8060051"},{"name":"東浜町","zip_code":"8060002"},{"name":"東曲里町","zip_code":"8060035"},{"name":"引野","zip_code":"8060067"},{"name":"樋口町","zip_code":"8060048"},{"name":"日吉台","zip_code":"8070866"},{"name":"平尾町","zip_code":"8060018"},{"name":"藤田","zip_code":"8060022"},{"name":"藤原","zip_code":"8070873"},{"name":"船越","zip_code":"8071111"},{"name":"舟町","zip_code":"8060005"},{"name":"別所町","zip_code":"8060068"},{"name":"別当町","zip_code":"8060062"},{"name":"北筑","zip_code":"8070857"},{"name":"星ケ丘","zip_code":"8071264"},{"name":"堀川町","zip_code":"8070861"},{"name":"本城","zip_code":"8070801"},{"name":"本城学研台","zip_code":"8070807"},{"name":"本城東","zip_code":"8070815"},{"name":"町上津役東","zip_code":"8070073"},{"name":"町上津役西","zip_code":"8070074"},{"name":"的場町","zip_code":"8070841"},{"name":"真名子","zip_code":"8071144"},{"name":"丸尾町","zip_code":"8070826"},{"name":"三ツ頭","zip_code":"8070878"},{"name":"光貞台","zip_code":"8070805"},{"name":"南王子町","zip_code":"8060038"},{"name":"南鷹見町","zip_code":"8070833"},{"name":"南八千代町","zip_code":"8060024"},{"name":"美原町","zip_code":"8070847"},{"name":"美吉野町","zip_code":"8070865"},{"name":"椋枝","zip_code":"8071115"},{"name":"元城町","zip_code":"8060015"},{"name":"森下町","zip_code":"8060046"},{"name":"屋敷","zip_code":"8060006"},{"name":"八千代町","zip_code":"8060023"},{"name":"八枝","zip_code":"8070856"},{"name":"山寺町","zip_code":"8060030"},{"name":"夕原町","zip_code":"8070813"},{"name":"養福寺町","zip_code":"8060065"},{"name":"力丸町","zip_code":"8070802"},{"name":"若葉","zip_code":"8060066"},{"name":"割子川","zip_code":"8060064"}]},{"name":"福岡市東区","divisions":[{"name":"青葉","zip_code":"8130025"},{"name":"大岳","zip_code":"8110322"},{"name":"貝塚団地","zip_code":"8120052"},{"name":"香椎","zip_code":"8130011"},{"name":"香椎駅前","zip_code":"8130013"},{"name":"香椎駅東","zip_code":"8130012"},{"name":"香椎台","zip_code":"8130014"},{"name":"香椎団地","zip_code":"8130015"},{"name":"香椎照葉","zip_code":"8130017"},{"name":"香椎浜","zip_code":"8130016"},{"name":"香椎浜ふ頭","zip_code":"8130018"},{"name":"香住ケ丘","zip_code":"8130003"},{"name":"勝馬","zip_code":"8110325"},{"name":"蒲田","zip_code":"8130023"},{"name":"上和白","zip_code":"8110216"},{"name":"雁の巣","zip_code":"8110206"},{"name":"郷口町","zip_code":"8120069"},{"name":"西戸崎","zip_code":"8110321"},{"name":"塩浜","zip_code":"8110203"},{"name":"志賀島","zip_code":"8110323"},{"name":"下原","zip_code":"8130002"},{"name":"社領","zip_code":"8120068"},{"name":"城浜団地","zip_code":"8130045"},{"name":"高美台","zip_code":"8110215"},{"name":"多々良","zip_code":"8130033"},{"name":"多の津","zip_code":"8130034"},{"name":"千早","zip_code":"8130044"},{"name":"土井","zip_code":"8130032"},{"name":"唐原","zip_code":"8130001"},{"name":"名子","zip_code":"8130024"},{"name":"名島","zip_code":"8130043"},{"name":"奈多","zip_code":"8110204"},{"name":"奈多団地","zip_code":"8110205"},{"name":"箱崎","zip_code":"8120053"},{"name":"箱崎ふ頭","zip_code":"8120051"},{"name":"筥松","zip_code":"8120061"},{"name":"筥松新町","zip_code":"8120067"},{"name":"八田","zip_code":"8130031"},{"name":"原田","zip_code":"8120063"},{"name":"東浜","zip_code":"8120055"},{"name":"弘","zip_code":"8110324"},{"name":"二又瀬","zip_code":"8120066"},{"name":"二又瀬新町","zip_code":"8120065"},{"name":"馬出","zip_code":"8120054"},{"name":"舞松原","zip_code":"8130042"},{"name":"松香台","zip_code":"8130004"},{"name":"松崎","zip_code":"8130035"},{"name":"松島","zip_code":"8120062"},{"name":"松田","zip_code":"8120064"},{"name":"御島崎","zip_code":"8130005"},{"name":"水谷","zip_code":"8130041"},{"name":"三苫","zip_code":"8110201"},{"name":"みどりが丘","zip_code":"8130021"},{"name":"みなと香椎","zip_code":"8130019"},{"name":"美和台","zip_code":"8110212"},{"name":"美和台新町","zip_code":"8110211"},{"name":"若宮","zip_code":"8130036"},{"name":"和白","zip_code":"8110202"},{"name":"和白丘","zip_code":"8110213"},{"name":"和白東","zip_code":"8110214"}]},{"name":"福岡市博多区","divisions":[{"name":"相生町","zip_code":"8120885"},{"name":"青木","zip_code":"8120851"},{"name":"井相田","zip_code":"8120881"},{"name":"板付","zip_code":"8120888"},{"name":"浦田","zip_code":"8120861"},{"name":"榎田","zip_code":"8120004"},{"name":"大井","zip_code":"8120001"},{"name":"沖浜町","zip_code":"8120031"},{"name":"堅粕","zip_code":"8120043"},{"name":"金の隈","zip_code":"8120863"},{"name":"上臼井","zip_code":"8120005"},{"name":"上川端町","zip_code":"8120026"},{"name":"上呉服町","zip_code":"8120036"},{"name":"上牟田","zip_code":"8120006"},{"name":"神屋町","zip_code":"8120022"},{"name":"祇園町","zip_code":"8120038"},{"name":"銀天町","zip_code":"8120879"},{"name":"空港前","zip_code":"8120002"},{"name":"御供所町","zip_code":"8120037"},{"name":"寿町","zip_code":"8120884"},{"name":"古門戸町","zip_code":"8120029"},{"name":"雀居","zip_code":"8120891"},{"name":"三筑","zip_code":"8120887"},{"name":"山王","zip_code":"8120015"},{"name":"東雲町","zip_code":"8120871"},{"name":"下臼井","zip_code":"8120003"},{"name":"下川端町","zip_code":"8120027"},{"name":"下呉服町","zip_code":"8120034"},{"name":"下月隈","zip_code":"8120855"},{"name":"昭南町","zip_code":"8120876"},{"name":"新和町","zip_code":"8120875"},{"name":"須崎町","zip_code":"8120028"},{"name":"住吉","zip_code":"8120018"},{"name":"石城町","zip_code":"8120032"},{"name":"大博町","zip_code":"8120033"},{"name":"竹丘町","zip_code":"8120878"},{"name":"竹下","zip_code":"8120895"},{"name":"築港本町","zip_code":"8120021"},{"name":"千代","zip_code":"8120044"},{"name":"月隈","zip_code":"8120858"},{"name":"綱場町","zip_code":"8120024"},{"name":"対馬小路","zip_code":"8120020"},{"name":"店屋町","zip_code":"8120025"},{"name":"東光","zip_code":"8120008"},{"name":"東光寺町","zip_code":"8120896"},{"name":"那珂","zip_code":"8120893"},{"name":"中呉服町","zip_code":"8120035"},{"name":"中洲","zip_code":"8100801"},{"name":"中洲中島町","zip_code":"8100802"},{"name":"奈良屋町","zip_code":"8120023"},{"name":"西月隈","zip_code":"8120857"},{"name":"西春町","zip_code":"8120873"},{"name":"博多駅中央街","zip_code":"8120012"},{"name":"博多駅前","zip_code":"8120011"},{"name":"博多駅東","zip_code":"8120013"},{"name":"博多駅南","zip_code":"8120016"},{"name":"春町","zip_code":"8120872"},{"name":"半道橋","zip_code":"8120897"},{"name":"比恵町","zip_code":"8120014"},{"name":"光丘町","zip_code":"8120874"},{"name":"東公園","zip_code":"8120045"},{"name":"東月隈","zip_code":"8120854"},{"name":"東那珂","zip_code":"8120892"},{"name":"東比恵","zip_code":"8120007"},{"name":"東平尾","zip_code":"8120853"},{"name":"東平尾公園","zip_code":"8120852"},{"name":"南八幡町","zip_code":"8120886"},{"name":"南本町","zip_code":"8120883"},{"name":"美野島","zip_code":"8120017"},{"name":"麦野","zip_code":"8120882"},{"name":"元町","zip_code":"8120877"},{"name":"諸岡","zip_code":"8120894"},{"name":"豊","zip_code":"8120042"},{"name":"吉塚","zip_code":"8120041"},{"name":"吉塚本町","zip_code":"8120046"},{"name":"立花寺","zip_code":"8120862"},{"name":"冷泉町","zip_code":"8120039"}]},{"name":"福岡市中央区","divisions":[{"name":"赤坂","zip_code":"8100042"},{"name":"荒津","zip_code":"8100076"},{"name":"荒戸","zip_code":"8100062"},{"name":"伊崎","zip_code":"8100067"},{"name":"今泉","zip_code":"8100021"},{"name":"今川","zip_code":"8100054"},{"name":"大手門","zip_code":"8100074"},{"name":"大濠","zip_code":"8100052"},{"name":"大濠公園","zip_code":"8100051"},{"name":"大宮","zip_code":"8100013"},{"name":"小笹","zip_code":"8100033"},{"name":"清川","zip_code":"8100005"},{"name":"草香江","zip_code":"8100045"},{"name":"黒門","zip_code":"8100055"},{"name":"警固","zip_code":"8100023"},{"name":"御所ケ谷","zip_code":"8100027"},{"name":"桜坂","zip_code":"8100024"},{"name":"笹丘","zip_code":"8100034"},{"name":"山荘通","zip_code":"8100018"},{"name":"浄水通","zip_code":"8100028"},{"name":"城内","zip_code":"8100043"},{"name":"白金","zip_code":"8100012"},{"name":"地行","zip_code":"8100064"},{"name":"地行浜","zip_code":"8100065"},{"name":"大名","zip_code":"8100041"},{"name":"高砂","zip_code":"8100011"},{"name":"谷","zip_code":"8100031"},{"name":"輝国","zip_code":"8100032"},{"name":"天神","zip_code":"8100001"},{"name":"唐人町","zip_code":"8100063"},{"name":"鳥飼","zip_code":"8100053"},{"name":"長浜","zip_code":"8100072"},{"name":"那の川","zip_code":"8100015"},{"name":"那の津","zip_code":"8100071"},{"name":"西公園","zip_code":"8100061"},{"name":"西中洲","zip_code":"8100002"},{"name":"梅光園","zip_code":"8100035"},{"name":"梅光園団地","zip_code":"8100036"},{"name":"春吉","zip_code":"8100003"},{"name":"平尾","zip_code":"8100014"},{"name":"平丘町","zip_code":"8100017"},{"name":"平尾浄水町","zip_code":"8100029"},{"name":"福浜","zip_code":"8100066"},{"name":"古小烏町","zip_code":"8100026"},{"name":"平和","zip_code":"8100016"},{"name":"舞鶴","zip_code":"8100073"},{"name":"港","zip_code":"8100075"},{"name":"南公園","zip_code":"8100037"},{"name":"薬院","zip_code":"8100022"},{"name":"薬院伊福町","zip_code":"8100025"},{"name":"六本松","zip_code":"8100044"},{"name":"渡辺通","zip_code":"8100004"}]},{"name":"福岡市南区","divisions":[{"name":"井尻","zip_code":"8111302"},{"name":"市崎","zip_code":"8150084"},{"name":"大池","zip_code":"8150073"},{"name":"大楠","zip_code":"8150082"},{"name":"大橋","zip_code":"8150033"},{"name":"大橋団地","zip_code":"8150038"},{"name":"曰佐","zip_code":"8111313"},{"name":"折立町","zip_code":"8111303"},{"name":"柏原","zip_code":"8111353"},{"name":"警弥郷","zip_code":"8111324"},{"name":"五十川","zip_code":"8150001"},{"name":"皿山","zip_code":"8111365"},{"name":"塩原","zip_code":"8150032"},{"name":"清水","zip_code":"8150031"},{"name":"大平寺","zip_code":"8111354"},{"name":"高木","zip_code":"8150004"},{"name":"高宮","zip_code":"8150083"},{"name":"多賀","zip_code":"8150072"},{"name":"玉川町","zip_code":"8150037"},{"name":"筑紫丘","zip_code":"8150036"},{"name":"鶴田","zip_code":"8111352"},{"name":"寺塚","zip_code":"8150074"},{"name":"中尾","zip_code":"8111364"},{"name":"長丘","zip_code":"8150075"},{"name":"長住","zip_code":"8111362"},{"name":"那の川","zip_code":"8150081"},{"name":"西長住","zip_code":"8111361"},{"name":"野多目","zip_code":"8111347"},{"name":"野間","zip_code":"8150041"},{"name":"花畑","zip_code":"8111356"},{"name":"桧原","zip_code":"8111355"},{"name":"平和","zip_code":"8150071"},{"name":"的場","zip_code":"8111314"},{"name":"南大橋","zip_code":"8150034"},{"name":"三宅","zip_code":"8111344"},{"name":"向新町","zip_code":"8111345"},{"name":"向野","zip_code":"8150035"},{"name":"屋形原","zip_code":"8111351"},{"name":"弥永","zip_code":"8111323"},{"name":"弥永団地","zip_code":"8111322"},{"name":"柳河内","zip_code":"8150063"},{"name":"柳瀬","zip_code":"8111321"},{"name":"横手","zip_code":"8111311"},{"name":"横手南町","zip_code":"8111312"},{"name":"老司","zip_code":"8111346"},{"name":"若久","zip_code":"8150042"},{"name":"若久団地","zip_code":"8150048"},{"name":"和田","zip_code":"8111343"}]},{"name":"福岡市西区","divisions":[{"name":"愛宕","zip_code":"8190015"},{"name":"愛宕浜","zip_code":"8190013"},{"name":"愛宕南","zip_code":"8190007"},{"name":"飯氏","zip_code":"8190371"},{"name":"飯盛","zip_code":"8190037"},{"name":"壱岐団地","zip_code":"8190042"},{"name":"生の松原","zip_code":"8190055"},{"name":"生松台","zip_code":"8190044"},{"name":"石丸","zip_code":"8190025"},{"name":"泉","zip_code":"8190381"},{"name":"今宿","zip_code":"8190167"},{"name":"今宿青木","zip_code":"8190162"},{"name":"今宿駅前","zip_code":"8190168"},{"name":"今宿上ノ原","zip_code":"8190163"},{"name":"今宿町","zip_code":"8190164"},{"name":"今宿西","zip_code":"8190169"},{"name":"今宿東","zip_code":"8190161"},{"name":"今津","zip_code":"8190165"},{"name":"宇田川原","zip_code":"8190372"},{"name":"内浜","zip_code":"8190005"},{"name":"大町団地","zip_code":"8190021"},{"name":"小戸","zip_code":"8190001"},{"name":"小呂島","zip_code":"8190011"},{"name":"金武","zip_code":"8190035"},{"name":"上山門","zip_code":"8190054"},{"name":"北原","zip_code":"8190379"},{"name":"九大新町","zip_code":"8190388"},{"name":"草場","zip_code":"8190204"},{"name":"桑原","zip_code":"8190382"},{"name":"玄界島","zip_code":"8190205"},{"name":"小田","zip_code":"8190203"},{"name":"西都","zip_code":"8190367"},{"name":"下山門","zip_code":"8190052"},{"name":"下山門団地","zip_code":"8190051"},{"name":"十郎川団地","zip_code":"8190024"},{"name":"拾六町","zip_code":"8190041"},{"name":"拾六町団地","zip_code":"8190045"},{"name":"城の原団地","zip_code":"8190053"},{"name":"周船寺","zip_code":"8190373"},{"name":"千里","zip_code":"8190374"},{"name":"田","zip_code":"8190034"},{"name":"田尻","zip_code":"8190383"},{"name":"太郎丸","zip_code":"8190384"},{"name":"戸切","zip_code":"8190032"},{"name":"徳永","zip_code":"8190375"},{"name":"徳永北","zip_code":"8190378"},{"name":"豊浜","zip_code":"8190014"},{"name":"西入部","zip_code":"8190039"},{"name":"西浦","zip_code":"8190202"},{"name":"西の丘","zip_code":"8190046"},{"name":"野方","zip_code":"8190043"},{"name":"能古","zip_code":"8190012"},{"name":"橋本","zip_code":"8190033"},{"name":"羽根戸","zip_code":"8190038"},{"name":"福重","zip_code":"8190022"},{"name":"福重団地","zip_code":"8190023"},{"name":"富士見","zip_code":"8190387"},{"name":"宮浦","zip_code":"8190201"},{"name":"女原","zip_code":"8190376"},{"name":"女原北","zip_code":"8190377"},{"name":"室見が丘","zip_code":"8190030"},{"name":"姪の浜","zip_code":"8190002"},{"name":"姪浜駅南","zip_code":"8190006"},{"name":"元岡","zip_code":"8190385"},{"name":"元浜","zip_code":"8190386"},{"name":"横浜","zip_code":"8190166"},{"name":"吉武","zip_code":"8190036"}]},{"name":"福岡市城南区","divisions":[{"name":"荒江","zip_code":"8140101"},{"name":"荒江団地","zip_code":"8140102"},{"name":"飯倉","zip_code":"8140134"},{"name":"梅林","zip_code":"8140144"},{"name":"片江","zip_code":"8140142"},{"name":"金山団地","zip_code":"8140114"},{"name":"城西団地","zip_code":"8140105"},{"name":"神松寺","zip_code":"8140121"},{"name":"宝台団地","zip_code":"8140154"},{"name":"田島","zip_code":"8140113"},{"name":"茶山","zip_code":"8140111"},{"name":"堤","zip_code":"8140151"},{"name":"堤団地","zip_code":"8140152"},{"name":"友丘","zip_code":"8140112"},{"name":"鳥飼","zip_code":"8140103"},{"name":"長尾","zip_code":"8140123"},{"name":"七隈","zip_code":"8140133"},{"name":"西片江","zip_code":"8140141"},{"name":"樋井川","zip_code":"8140153"},{"name":"東油山","zip_code":"8140155"},{"name":"別府","zip_code":"8140104"},{"name":"別府団地","zip_code":"8140106"},{"name":"干隈","zip_code":"8140132"},{"name":"松山","zip_code":"8140131"},{"name":"南片江","zip_code":"8140143"},{"name":"友泉亭","zip_code":"8140122"}]},{"name":"福岡市早良区","divisions":[{"name":"曙","zip_code":"8140004"},{"name":"荒江","zip_code":"8140021"},{"name":"有田","zip_code":"8140033"},{"name":"有田団地","zip_code":"8140034"},{"name":"飯倉","zip_code":"8140161"},{"name":"飯場","zip_code":"8111134"},{"name":"石釜","zip_code":"8111132"},{"name":"板屋","zip_code":"8111113"},{"name":"内野","zip_code":"8111123"},{"name":"梅林","zip_code":"8140172"},{"name":"小笠木","zip_code":"8111112"},{"name":"金武","zip_code":"8111124"},{"name":"賀茂","zip_code":"8140164"},{"name":"小田部","zip_code":"8140032"},{"name":"早良","zip_code":"8111122"},{"name":"椎原","zip_code":"8111114"},{"name":"四箇","zip_code":"8111103"},{"name":"四箇田団地","zip_code":"8140176"},{"name":"重留","zip_code":"8111101"},{"name":"城西","zip_code":"8140003"},{"name":"昭代","zip_code":"8140012"},{"name":"次郎丸","zip_code":"8140165"},{"name":"祖原","zip_code":"8140005"},{"name":"田","zip_code":"8140177"},{"name":"高取","zip_code":"8140011"},{"name":"田隈","zip_code":"8140174"},{"name":"田村","zip_code":"8140175"},{"name":"西","zip_code":"8111131"},{"name":"西油山","zip_code":"8140173"},{"name":"西入部","zip_code":"8111121"},{"name":"西新","zip_code":"8140002"},{"name":"野芥","zip_code":"8140171"},{"name":"原","zip_code":"8140022"},{"name":"原団地","zip_code":"8140023"},{"name":"東入部","zip_code":"8111102"},{"name":"藤崎","zip_code":"8140013"},{"name":"干隈","zip_code":"8140163"},{"name":"星の原団地","zip_code":"8140162"},{"name":"曲渕","zip_code":"8111133"},{"name":"南庄","zip_code":"8140031"},{"name":"室住団地","zip_code":"8140035"},{"name":"室見","zip_code":"8140015"},{"name":"百道","zip_code":"8140006"},{"name":"百道浜","zip_code":"8140001"},{"name":"弥生","zip_code":"8140014"},{"name":"脇山","zip_code":"8111111"}]},{"name":"大牟田市","divisions":[{"name":"青葉町","zip_code":"8360897"},{"name":"曙町","zip_code":"8360852"},{"name":"旭町","zip_code":"8360807"},{"name":"浅牟田町","zip_code":"8360817"},{"name":"甘木","zip_code":"8370905"},{"name":"飯田町","zip_code":"8360087"},{"name":"泉町","zip_code":"8360831"},{"name":"出雲町","zip_code":"8360854"},{"name":"櫟野","zip_code":"8360893"},{"name":"一浦町","zip_code":"8360863"},{"name":"一部町","zip_code":"8360085"},{"name":"一本町","zip_code":"8360834"},{"name":"今山","zip_code":"8370922"},{"name":"入船町","zip_code":"8360063"},{"name":"岩本","zip_code":"8370913"},{"name":"岩本新町","zip_code":"8370910"},{"name":"右京町","zip_code":"8360846"},{"name":"臼井新町","zip_code":"8360882"},{"name":"臼井町","zip_code":"8360094"},{"name":"恵比須町","zip_code":"8360014"},{"name":"延命寺町","zip_code":"8360877"},{"name":"大浦町","zip_code":"8360824"},{"name":"小川町","zip_code":"8360036"},{"name":"沖田町","zip_code":"8360091"},{"name":"柿園町","zip_code":"8360801"},{"name":"片平町","zip_code":"8360082"},{"name":"勝立","zip_code":"8360886"},{"name":"加納町","zip_code":"8360071"},{"name":"上内","zip_code":"8370902"},{"name":"上白川町","zip_code":"8370926"},{"name":"上町","zip_code":"8360853"},{"name":"上屋敷町","zip_code":"8360072"},{"name":"亀谷町","zip_code":"8360823"},{"name":"亀甲町","zip_code":"8360812"},{"name":"瓦町","zip_code":"8360815"},{"name":"神田町","zip_code":"8360093"},{"name":"北磯町","zip_code":"8360016"},{"name":"教楽来","zip_code":"8360894"},{"name":"草木","zip_code":"8370917"},{"name":"歴木","zip_code":"8370924"},{"name":"久福木","zip_code":"8370915"},{"name":"久保田町","zip_code":"8360045"},{"name":"倉永","zip_code":"8370906"},{"name":"健老町","zip_code":"8360011"},{"name":"合成町","zip_code":"8360891"},{"name":"黄金町","zip_code":"8360872"},{"name":"小浜町","zip_code":"8360034"},{"name":"栄町","zip_code":"8360042"},{"name":"桜町","zip_code":"8360092"},{"name":"左古町","zip_code":"8360836"},{"name":"笹原町","zip_code":"8360884"},{"name":"笹林町","zip_code":"8360851"},{"name":"三坑町","zip_code":"8360825"},{"name":"汐屋町","zip_code":"8360057"},{"name":"四ケ","zip_code":"8370901"},{"name":"四箇新町","zip_code":"8370907"},{"name":"下池町","zip_code":"8360885"},{"name":"下白川町","zip_code":"8370928"},{"name":"上官町","zip_code":"8360866"},{"name":"正山町","zip_code":"8360845"},{"name":"浄真町","zip_code":"8360844"},{"name":"昭和開","zip_code":"8360001"},{"name":"昭和町","zip_code":"8360871"},{"name":"白川","zip_code":"8370925"},{"name":"白銀","zip_code":"8370912"},{"name":"白金町","zip_code":"8360052"},{"name":"不知火町","zip_code":"8360843"},{"name":"城町","zip_code":"8360007"},{"name":"新開町","zip_code":"8360017"},{"name":"新勝立町","zip_code":"8360895"},{"name":"新港町","zip_code":"8360061"},{"name":"新栄町","zip_code":"8360041"},{"name":"新地町","zip_code":"8360032"},{"name":"真道寺町","zip_code":"8360864"},{"name":"新町","zip_code":"8370923"},{"name":"末広町","zip_code":"8360874"},{"name":"住吉町","zip_code":"8360024"},{"name":"諏訪町","zip_code":"8360051"},{"name":"早米来町","zip_code":"8360077"},{"name":"大黒町","zip_code":"8360006"},{"name":"大正町","zip_code":"8360047"},{"name":"高砂町","zip_code":"8360064"},{"name":"宝坂町","zip_code":"8360861"},{"name":"田隈","zip_code":"8370916"},{"name":"橘","zip_code":"8370911"},{"name":"谷町","zip_code":"8360837"},{"name":"田端町","zip_code":"8360081"},{"name":"築町","zip_code":"8360841"},{"name":"千代町","zip_code":"8360035"},{"name":"椿黒町","zip_code":"8360005"},{"name":"手鎌","zip_code":"8360004"},{"name":"天神町","zip_code":"8360015"},{"name":"天道町","zip_code":"8360896"},{"name":"天領町","zip_code":"8360054"},{"name":"稲荷町","zip_code":"8360822"},{"name":"唐船","zip_code":"8360003"},{"name":"通町","zip_code":"8360805"},{"name":"常盤町","zip_code":"8360832"},{"name":"鳥塚町","zip_code":"8360803"},{"name":"中島町","zip_code":"8360023"},{"name":"中白川町","zip_code":"8370927"},{"name":"中友町","zip_code":"8360025"},{"name":"中町","zip_code":"8360013"},{"name":"長田町","zip_code":"8360083"},{"name":"長溝町","zip_code":"8360804"},{"name":"七浦町","zip_code":"8360865"},{"name":"浪花町","zip_code":"8360066"},{"name":"西新町","zip_code":"8360031"},{"name":"西浜田町","zip_code":"8360027"},{"name":"西港町","zip_code":"8360062"},{"name":"西宮浦町","zip_code":"8360835"},{"name":"野添町","zip_code":"8360095"},{"name":"萩尾町","zip_code":"8360096"},{"name":"橋口町","zip_code":"8360043"},{"name":"八尻町","zip_code":"8360811"},{"name":"八本町","zip_code":"8360816"},{"name":"花園町","zip_code":"8360867"},{"name":"馬場町","zip_code":"8360084"},{"name":"浜田町","zip_code":"8360026"},{"name":"浜町","zip_code":"8360021"},{"name":"早鐘町","zip_code":"8360892"},{"name":"駛馬町","zip_code":"8360873"},{"name":"原山町","zip_code":"8360862"},{"name":"東泉町","zip_code":"8360821"},{"name":"東新町","zip_code":"8360806"},{"name":"東萩尾町","zip_code":"8360097"},{"name":"東宮浦町","zip_code":"8360827"},{"name":"樋口町","zip_code":"8360055"},{"name":"日出町","zip_code":"8360802"},{"name":"姫島町","zip_code":"8360056"},{"name":"平原町","zip_code":"8360813"},{"name":"藤田町","zip_code":"8360074"},{"name":"船津町","zip_code":"8360073"},{"name":"古町","zip_code":"8360044"},{"name":"本町","zip_code":"8360046"},{"name":"馬込町","zip_code":"8360086"},{"name":"松浦町","zip_code":"8360855"},{"name":"松原町","zip_code":"8360033"},{"name":"馬渡町","zip_code":"8360883"},{"name":"三池","zip_code":"8370921"},{"name":"三川町","zip_code":"8360065"},{"name":"岬","zip_code":"8360002"},{"name":"岬町","zip_code":"8360037"},{"name":"三里町","zip_code":"8360076"},{"name":"港町","zip_code":"8360022"},{"name":"南船津町","zip_code":"8360075"},{"name":"宮坂町","zip_code":"8360856"},{"name":"宮崎","zip_code":"8370903"},{"name":"宮原町","zip_code":"8360875"},{"name":"宮部","zip_code":"8370914"},{"name":"宮山町","zip_code":"8360857"},{"name":"明治町","zip_code":"8360012"},{"name":"焼石町","zip_code":"8360826"},{"name":"八江町","zip_code":"8360847"},{"name":"山下町","zip_code":"8360053"},{"name":"山上町","zip_code":"8360833"},{"name":"有明町","zip_code":"8360842"},{"name":"吉野","zip_code":"8370904"},{"name":"四山町","zip_code":"8360067"},{"name":"米生町","zip_code":"8360881"},{"name":"龍湖瀬町","zip_code":"8360814"},{"name":"若宮町","zip_code":"8360876"}]},{"name":"久留米市","divisions":[{"name":"合川町","zip_code":"8390861"},{"name":"朝妻町","zip_code":"8390843"},{"name":"旭町","zip_code":"8300011"},{"name":"洗町","zip_code":"8300029"},{"name":"荒木町荒木","zip_code":"8300063"},{"name":"荒木町今","zip_code":"8300065"},{"name":"荒木町下荒木","zip_code":"8300066"},{"name":"荒木町白口","zip_code":"8300062"},{"name":"荒木町藤田","zip_code":"8300064"},{"name":"梅満町","zip_code":"8300048"},{"name":"江戸屋敷","zip_code":"8300059"},{"name":"大石町","zip_code":"8300049"},{"name":"大手町","zip_code":"8300034"},{"name":"大橋町合楽","zip_code":"8390832"},{"name":"大橋町常持","zip_code":"8390833"},{"name":"大橋町蜷川","zip_code":"8390831"},{"name":"上津","zip_code":"8300055"},{"name":"上津町","zip_code":"8300052"},{"name":"北野町赤司","zip_code":"8301127"},{"name":"北野町石崎","zip_code":"8301116"},{"name":"北野町稲数","zip_code":"8301126"},{"name":"北野町今山","zip_code":"8301122"},{"name":"北野町大城","zip_code":"8301104"},{"name":"北野町乙丸","zip_code":"8301125"},{"name":"北野町乙吉","zip_code":"8301124"},{"name":"北野町金島","zip_code":"8301103"},{"name":"北野町上弓削","zip_code":"8301117"},{"name":"北野町高良","zip_code":"8301114"},{"name":"北野町十郎丸","zip_code":"8301121"},{"name":"北野町陣屋","zip_code":"8301112"},{"name":"北野町千代島","zip_code":"8301111"},{"name":"北野町塚島","zip_code":"8301107"},{"name":"北野町冨多","zip_code":"8301123"},{"name":"北野町鳥巣","zip_code":"8301115"},{"name":"北野町中","zip_code":"8301113"},{"name":"北野町中川","zip_code":"8301101"},{"name":"北野町中島","zip_code":"8301105"},{"name":"北野町仁王丸","zip_code":"8301106"},{"name":"北野町八重亀","zip_code":"8301102"},{"name":"京町","zip_code":"8300028"},{"name":"草野町草野","zip_code":"8390835"},{"name":"草野町紅桃林","zip_code":"8390834"},{"name":"草野町矢作","zip_code":"8390837"},{"name":"草野町吉木","zip_code":"8390836"},{"name":"櫛原町","zip_code":"8300013"},{"name":"高良内町","zip_code":"8390852"},{"name":"小頭町","zip_code":"8300045"},{"name":"国分町","zip_code":"8390863"},{"name":"小森野","zip_code":"8300001"},{"name":"篠山町","zip_code":"8300021"},{"name":"篠原町","zip_code":"8300036"},{"name":"荘島町","zip_code":"8300042"},{"name":"城島町青木島","zip_code":"8300222"},{"name":"城島町芦塚","zip_code":"8300201"},{"name":"城島町浮島","zip_code":"8300221"},{"name":"城島町内野","zip_code":"8300204"},{"name":"城島町江上","zip_code":"8300213"},{"name":"城島町江上上","zip_code":"8300212"},{"name":"城島町江上本","zip_code":"8300214"},{"name":"城島町江島","zip_code":"8300216"},{"name":"城島町大依","zip_code":"8300205"},{"name":"城島町上青木","zip_code":"8300224"},{"name":"城島町下青木","zip_code":"8300225"},{"name":"城島町下田","zip_code":"8300202"},{"name":"城島町城島","zip_code":"8300207"},{"name":"城島町四郎丸","zip_code":"8300223"},{"name":"城島町楢津","zip_code":"8300211"},{"name":"城島町西青木","zip_code":"8300226"},{"name":"城島町浜","zip_code":"8300203"},{"name":"城島町原中牟田","zip_code":"8300215"},{"name":"城島町六町原","zip_code":"8300206"},{"name":"城南町","zip_code":"8300022"},{"name":"白山町","zip_code":"8300041"},{"name":"新合川","zip_code":"8390865"},{"name":"諏訪野町","zip_code":"8300037"},{"name":"青峰","zip_code":"8390853"},{"name":"瀬下町","zip_code":"8300025"},{"name":"善導寺町飯田","zip_code":"8390824"},{"name":"善導寺町木塚","zip_code":"8390822"},{"name":"善導寺町島","zip_code":"8390825"},{"name":"善導寺町与田","zip_code":"8390823"},{"name":"大善寺大橋","zip_code":"8300079"},{"name":"大善寺町黒田","zip_code":"8300075"},{"name":"大善寺町中津","zip_code":"8300077"},{"name":"大善寺町藤吉","zip_code":"8300076"},{"name":"大善寺町宮本","zip_code":"8300073"},{"name":"大善寺町夜明","zip_code":"8300074"},{"name":"大善寺南","zip_code":"8300070"},{"name":"太郎原町","zip_code":"8390821"},{"name":"高野","zip_code":"8300002"},{"name":"田主丸町秋成","zip_code":"8391203"},{"name":"田主丸町朝森","zip_code":"8391227"},{"name":"田主丸町石垣","zip_code":"8391212"},{"name":"田主丸町以真恵","zip_code":"8391223"},{"name":"田主丸町恵利","zip_code":"8391228"},{"name":"田主丸町上原","zip_code":"8391221"},{"name":"田主丸町志塚島","zip_code":"8391222"},{"name":"田主丸町菅原","zip_code":"8391225"},{"name":"田主丸町鷹取","zip_code":"8391202"},{"name":"田主丸町竹野","zip_code":"8391215"},{"name":"田主丸町田主丸","zip_code":"8391233"},{"name":"田主丸町地徳","zip_code":"8391214"},{"name":"田主丸町常盤","zip_code":"8391232"},{"name":"田主丸町豊城","zip_code":"8391234"},{"name":"田主丸町中尾","zip_code":"8391216"},{"name":"田主丸町長栖","zip_code":"8391201"},{"name":"田主丸町野田","zip_code":"8391231"},{"name":"田主丸町殖木","zip_code":"8391204"},{"name":"田主丸町船越","zip_code":"8391205"},{"name":"田主丸町牧","zip_code":"8391224"},{"name":"田主丸町益生田","zip_code":"8391213"},{"name":"田主丸町森部","zip_code":"8391211"},{"name":"田主丸町八幡","zip_code":"8391226"},{"name":"田主丸町吉本","zip_code":"8391206"},{"name":"中央町","zip_code":"8300023"},{"name":"津福今町","zip_code":"8300061"},{"name":"津福本町","zip_code":"8300047"},{"name":"寺町","zip_code":"8300014"},{"name":"天神町","zip_code":"8300033"},{"name":"東和町","zip_code":"8300035"},{"name":"通東町","zip_code":"8300016"},{"name":"通外町","zip_code":"8300005"},{"name":"通町","zip_code":"8300018"},{"name":"長門石","zip_code":"8300027"},{"name":"長門石町","zip_code":"8300026"},{"name":"縄手町","zip_code":"8300024"},{"name":"南薫西町","zip_code":"8300006"},{"name":"南薫町","zip_code":"8300004"},{"name":"西町","zip_code":"8300038"},{"name":"野中町","zip_code":"8390862"},{"name":"野伏間","zip_code":"8300058"},{"name":"花畑","zip_code":"8300039"},{"name":"原古賀町","zip_code":"8300046"},{"name":"東合川","zip_code":"8390809"},{"name":"東合川新町","zip_code":"8390808"},{"name":"東合川干出町","zip_code":"8390806"},{"name":"東合川町","zip_code":"8390807"},{"name":"東櫛原町","zip_code":"8300003"},{"name":"東町","zip_code":"8300032"},{"name":"日ノ出町","zip_code":"8300012"},{"name":"百年公園","zip_code":"8390864"},{"name":"日吉町","zip_code":"8300017"},{"name":"藤光","zip_code":"8300057"},{"name":"藤光町","zip_code":"8300054"},{"name":"藤山町","zip_code":"8300053"},{"name":"螢川町","zip_code":"8300015"},{"name":"本町","zip_code":"8300044"},{"name":"松ケ枝町","zip_code":"8300043"},{"name":"御井朝妻","zip_code":"8390842"},{"name":"御井旗崎","zip_code":"8390841"},{"name":"御井町","zip_code":"8390851"},{"name":"三潴町生岩","zip_code":"8300113"},{"name":"三潴町壱町原","zip_code":"8300115"},{"name":"三潴町清松","zip_code":"8300116"},{"name":"三潴町草場","zip_code":"8300105"},{"name":"三潴町高三潴","zip_code":"8300103"},{"name":"三潴町田川","zip_code":"8300102"},{"name":"三潴町玉満","zip_code":"8300112"},{"name":"三潴町西牟田","zip_code":"8300111"},{"name":"三潴町早津崎","zip_code":"8300101"},{"name":"三潴町原田","zip_code":"8300104"},{"name":"三潴町福光","zip_code":"8300114"},{"name":"南","zip_code":"8300051"},{"name":"宮ノ陣","zip_code":"8390801"},{"name":"宮ノ陣町大杜","zip_code":"8390803"},{"name":"宮ノ陣町五郎丸","zip_code":"8390802"},{"name":"宮ノ陣町八丁島","zip_code":"8390805"},{"name":"宮ノ陣町若松","zip_code":"8390804"},{"name":"六ツ門町","zip_code":"8300031"},{"name":"本山","zip_code":"8300056"},{"name":"安武町住吉","zip_code":"8300078"},{"name":"安武町武島","zip_code":"8300071"},{"name":"安武町安武本","zip_code":"8300072"},{"name":"山川安居野","zip_code":"8390812"},{"name":"山川市ノ上町","zip_code":"8390813"},{"name":"山川追分","zip_code":"8390814"},{"name":"山川沓形町","zip_code":"8390815"},{"name":"山川神代","zip_code":"8390811"},{"name":"山川野口町","zip_code":"8390816"},{"name":"山川町","zip_code":"8390817"},{"name":"山本町豊田","zip_code":"8390827"},{"name":"山本町耳納","zip_code":"8390826"}]},{"name":"直方市","divisions":[{"name":"赤地","zip_code":"8220012"},{"name":"植木","zip_code":"8220031"},{"name":"永満寺","zip_code":"8220005"},{"name":"上境","zip_code":"8220006"},{"name":"上新入","zip_code":"8220033"},{"name":"上頓野","zip_code":"8220003"},{"name":"感田","zip_code":"8220001"},{"name":"下境","zip_code":"8220007"},{"name":"下新入","zip_code":"8220032"},{"name":"神正町","zip_code":"8220023"},{"name":"新知町","zip_code":"8220021"},{"name":"新町","zip_code":"8220015"},{"name":"須崎町","zip_code":"8220024"},{"name":"知古","zip_code":"8220022"},{"name":"津田町","zip_code":"8220026"},{"name":"殿町","zip_code":"8220017"},{"name":"頓野","zip_code":"8220002"},{"name":"中泉","zip_code":"8220011"},{"name":"直方","zip_code":"8220016"},{"name":"畑","zip_code":"8220004"},{"name":"日吉町","zip_code":"8220025"},{"name":"古町","zip_code":"8220027"},{"name":"丸山町","zip_code":"8220014"},{"name":"溝堀","zip_code":"8220013"},{"name":"山部","zip_code":"8220034"},{"name":"湯野原","zip_code":"8220008"}]},{"name":"飯塚市","divisions":[{"name":"相田","zip_code":"8200052"},{"name":"阿恵","zip_code":"8200704"},{"name":"赤坂","zip_code":"8200106"},{"name":"秋松","zip_code":"8200083"},{"name":"有井","zip_code":"8200112"},{"name":"有安","zip_code":"8200111"},{"name":"飯塚","zip_code":"8200041"},{"name":"伊川","zip_code":"8200054"},{"name":"伊岐須","zip_code":"8200053"},{"name":"入水","zip_code":"8200103"},{"name":"内野","zip_code":"8200706"},{"name":"潤野","zip_code":"8200021"},{"name":"枝国","zip_code":"8200081"},{"name":"大門","zip_code":"8200114"},{"name":"小正","zip_code":"8200089"},{"name":"鹿毛馬","zip_code":"8201112"},{"name":"片島","zip_code":"8200068"},{"name":"上三緒","zip_code":"8200013"},{"name":"柏の森","zip_code":"8200011"},{"name":"川島","zip_code":"8200002"},{"name":"川津","zip_code":"8200067"},{"name":"北古賀","zip_code":"8200703"},{"name":"口原","zip_code":"8201114"},{"name":"久保白","zip_code":"8200078"},{"name":"桑曲","zip_code":"8200707"},{"name":"建花寺","zip_code":"8200049"},{"name":"幸袋","zip_code":"8200066"},{"name":"菰田","zip_code":"8200015"},{"name":"菰田東","zip_code":"8200016"},{"name":"菰田西","zip_code":"8200017"},{"name":"佐與","zip_code":"8201113"},{"name":"下三緒","zip_code":"8200012"},{"name":"目尾","zip_code":"8200062"},{"name":"舎利蔵","zip_code":"8200087"},{"name":"庄司","zip_code":"8200051"},{"name":"庄内元吉","zip_code":"8200113"},{"name":"新飯塚","zip_code":"8200005"},{"name":"新立岩","zip_code":"8200004"},{"name":"勢田","zip_code":"8201111"},{"name":"大日寺","zip_code":"8200046"},{"name":"大分","zip_code":"8200712"},{"name":"高倉","zip_code":"8200104"},{"name":"高田","zip_code":"8200079"},{"name":"多田","zip_code":"8200116"},{"name":"忠隈","zip_code":"8200071"},{"name":"立岩","zip_code":"8200003"},{"name":"太郎丸","zip_code":"8200076"},{"name":"筑穂元吉","zip_code":"8200705"},{"name":"津島","zip_code":"8200064"},{"name":"筒野","zip_code":"8200105"},{"name":"綱分","zip_code":"8200101"},{"name":"椿","zip_code":"8200084"},{"name":"鶴三緒","zip_code":"8200014"},{"name":"津原","zip_code":"8200086"},{"name":"天道","zip_code":"8200075"},{"name":"徳前","zip_code":"8200033"},{"name":"内住","zip_code":"8200713"},{"name":"中","zip_code":"8200065"},{"name":"長尾","zip_code":"8200701"},{"name":"鯰田","zip_code":"8200001"},{"name":"西徳前","zip_code":"8200031"},{"name":"西町","zip_code":"8200043"},{"name":"仁保","zip_code":"8200115"},{"name":"花瀬","zip_code":"8200045"},{"name":"東徳前","zip_code":"8200032"},{"name":"平塚","zip_code":"8200702"},{"name":"平恒","zip_code":"8200073"},{"name":"弁分","zip_code":"8200088"},{"name":"堀池","zip_code":"8200070"},{"name":"本町","zip_code":"8200042"},{"name":"馬敷","zip_code":"8200709"},{"name":"南尾","zip_code":"8200072"},{"name":"宮町","zip_code":"8200069"},{"name":"明星寺","zip_code":"8200022"},{"name":"椋本","zip_code":"8200077"},{"name":"八木山","zip_code":"8200047"},{"name":"安恒","zip_code":"8200085"},{"name":"柳橋","zip_code":"8200063"},{"name":"山口","zip_code":"8200711"},{"name":"山倉","zip_code":"8200102"},{"name":"弥山","zip_code":"8200708"},{"name":"横田","zip_code":"8200044"},{"name":"芳雄町","zip_code":"8200018"},{"name":"吉原町","zip_code":"8200040"},{"name":"吉北","zip_code":"8200061"},{"name":"楽市","zip_code":"8200074"},{"name":"蓮台寺","zip_code":"8200048"},{"name":"若菜","zip_code":"8200082"}]},{"name":"田川市","divisions":[{"name":"伊加利","zip_code":"8250001"},{"name":"伊田","zip_code":"8250002"},{"name":"伊田町","zip_code":"8250015"},{"name":"位登","zip_code":"8260044"},{"name":"猪国","zip_code":"8260045"},{"name":"魚町","zip_code":"8250014"},{"name":"春日町","zip_code":"8260026"},{"name":"上本町","zip_code":"8260023"},{"name":"川宮","zip_code":"8260042"},{"name":"寿町","zip_code":"8250017"},{"name":"栄町","zip_code":"8250011"},{"name":"桜町","zip_code":"8260021"},{"name":"白鳥町","zip_code":"8250003"},{"name":"新町","zip_code":"8250016"},{"name":"大黒町","zip_code":"8260025"},{"name":"中央町","zip_code":"8250013"},{"name":"千代町","zip_code":"8260031"},{"name":"夏吉","zip_code":"8250004"},{"name":"奈良","zip_code":"8260043"},{"name":"西本町","zip_code":"8260024"},{"name":"番田町","zip_code":"8250018"},{"name":"日の出町","zip_code":"8250012"},{"name":"平松町","zip_code":"8260032"},{"name":"糒","zip_code":"8250005"},{"name":"本町","zip_code":"8260022"},{"name":"丸山町","zip_code":"8260033"},{"name":"宮尾町","zip_code":"8260027"},{"name":"弓削田","zip_code":"8260041"}]},{"name":"柳川市","divisions":[{"name":"曙町","zip_code":"8320026"},{"name":"旭町","zip_code":"8320022"},{"name":"有明町","zip_code":"8320054"},{"name":"一新町","zip_code":"8320042"},{"name":"稲荷町","zip_code":"8320066"},{"name":"恵美須町","zip_code":"8320025"},{"name":"奥州町","zip_code":"8320046"},{"name":"大浜町","zip_code":"8320053"},{"name":"沖端町","zip_code":"8320065"},{"name":"鬼童町","zip_code":"8320067"},{"name":"鍛冶屋町","zip_code":"8320073"},{"name":"片原町","zip_code":"8320041"},{"name":"蟹町","zip_code":"8320016"},{"name":"上町","zip_code":"8320013"},{"name":"上宮永町","zip_code":"8320058"},{"name":"金納","zip_code":"8320007"},{"name":"蒲生","zip_code":"8320001"},{"name":"北長柄町","zip_code":"8320034"},{"name":"京町","zip_code":"8320023"},{"name":"久々原","zip_code":"8320086"},{"name":"糀屋町","zip_code":"8320072"},{"name":"古賀","zip_code":"8320082"},{"name":"小道具町","zip_code":"8320036"},{"name":"細工町","zip_code":"8320037"},{"name":"材木町","zip_code":"8320017"},{"name":"坂本町","zip_code":"8320076"},{"name":"下宮永町","zip_code":"8320059"},{"name":"城隅町","zip_code":"8320068"},{"name":"昭南町","zip_code":"8320084"},{"name":"城南町","zip_code":"8320062"},{"name":"新船津町","zip_code":"8320071"},{"name":"新外町","zip_code":"8320069"},{"name":"新町","zip_code":"8320032"},{"name":"隅町","zip_code":"8320021"},{"name":"高島","zip_code":"8320002"},{"name":"立石","zip_code":"8320003"},{"name":"田脇","zip_code":"8320089"},{"name":"筑紫町","zip_code":"8320077"},{"name":"佃町","zip_code":"8320051"},{"name":"辻町","zip_code":"8320024"},{"name":"椿原町","zip_code":"8320031"},{"name":"出来町","zip_code":"8320043"},{"name":"常盤町","zip_code":"8320028"},{"name":"中町","zip_code":"8320012"},{"name":"七ツ家","zip_code":"8320087"},{"name":"西魚屋町","zip_code":"8320015"},{"name":"西蒲池","zip_code":"8320005"},{"name":"西浜武","zip_code":"8320081"},{"name":"間","zip_code":"8320088"},{"name":"橋本町","zip_code":"8320052"},{"name":"八軒町","zip_code":"8320029"},{"name":"東魚屋町","zip_code":"8320035"},{"name":"東蒲池","zip_code":"8320006"},{"name":"袋町","zip_code":"8320044"},{"name":"保加町","zip_code":"8320011"},{"name":"本城町","zip_code":"8320061"},{"name":"本町","zip_code":"8320045"},{"name":"三橋町磯鳥","zip_code":"8320805"},{"name":"三橋町今古賀","zip_code":"8320823"},{"name":"三橋町枝光","zip_code":"8320807"},{"name":"三橋町江曲","zip_code":"8320825"},{"name":"三橋町起田","zip_code":"8320801"},{"name":"三橋町蒲船津","zip_code":"8320827"},{"name":"三橋町木元","zip_code":"8320804"},{"name":"三橋町五拾町","zip_code":"8320812"},{"name":"三橋町下百町","zip_code":"8320822"},{"name":"三橋町白鳥","zip_code":"8320815"},{"name":"三橋町高畑","zip_code":"8320826"},{"name":"三橋町棚町","zip_code":"8320813"},{"name":"三橋町垂見","zip_code":"8320814"},{"name":"三橋町中山","zip_code":"8320811"},{"name":"三橋町久末","zip_code":"8320816"},{"name":"三橋町百町","zip_code":"8320821"},{"name":"三橋町藤吉","zip_code":"8320824"},{"name":"三橋町正行","zip_code":"8320828"},{"name":"三橋町新村","zip_code":"8320803"},{"name":"三橋町柳河","zip_code":"8320806"},{"name":"三橋町吉開","zip_code":"8320802"},{"name":"南長柄町","zip_code":"8320033"},{"name":"南浜武","zip_code":"8320083"},{"name":"宮永町","zip_code":"8320064"},{"name":"茂庵町","zip_code":"8320063"},{"name":"本船津町","zip_code":"8320018"},{"name":"元町","zip_code":"8320074"},{"name":"八百屋町","zip_code":"8320014"},{"name":"矢加部","zip_code":"8320004"},{"name":"弥四郎町","zip_code":"8320057"},{"name":"矢留本町","zip_code":"8320056"},{"name":"矢留町","zip_code":"8320050"},{"name":"柳町","zip_code":"8320075"},{"name":"大和町明野","zip_code":"8390251"},{"name":"大和町大坪","zip_code":"8390263"},{"name":"大和町栄","zip_code":"8390252"},{"name":"大和町皿垣開","zip_code":"8390261"},{"name":"大和町塩塚","zip_code":"8390243"},{"name":"大和町鷹ノ尾","zip_code":"8390253"},{"name":"大和町谷垣","zip_code":"8390264"},{"name":"大和町徳益","zip_code":"8390241"},{"name":"大和町豊原","zip_code":"8390242"},{"name":"大和町中島","zip_code":"8390254"},{"name":"大和町永田開","zip_code":"8390262"},{"name":"大和町六合","zip_code":"8390244"},{"name":"横山町","zip_code":"8320027"},{"name":"吉富町","zip_code":"8320055"},{"name":"吉原","zip_code":"8320085"}]},{"name":"八女市","divisions":[{"name":"稲富","zip_code":"8340047"},{"name":"井延","zip_code":"8340026"},{"name":"今福","zip_code":"8340061"},{"name":"岩崎","zip_code":"8340062"},{"name":"鵜池","zip_code":"8340055"},{"name":"大籠","zip_code":"8340013"},{"name":"大島","zip_code":"8340005"},{"name":"緒玉","zip_code":"8340041"},{"name":"蒲原","zip_code":"8340064"},{"name":"亀甲","zip_code":"8340065"},{"name":"川犬","zip_code":"8340053"},{"name":"北田形","zip_code":"8340021"},{"name":"祈祷院","zip_code":"8340025"},{"name":"国武","zip_code":"8340046"},{"name":"黒木町今","zip_code":"8341221"},{"name":"黒木町大淵","zip_code":"8341202"},{"name":"黒木町鹿子生","zip_code":"8341212"},{"name":"黒木町笠原","zip_code":"8341222"},{"name":"黒木町北大淵","zip_code":"8341201"},{"name":"黒木町北木屋","zip_code":"8341203"},{"name":"黒木町黒木","zip_code":"8341217"},{"name":"黒木町桑原","zip_code":"8341216"},{"name":"黒木町木屋","zip_code":"8341204"},{"name":"黒木町田代","zip_code":"8341205"},{"name":"黒木町田本","zip_code":"8341214"},{"name":"黒木町土窪","zip_code":"8341211"},{"name":"黒木町本分","zip_code":"8341213"},{"name":"黒木町湯辺田","zip_code":"8341215"},{"name":"黒土","zip_code":"8340002"},{"name":"酒井田","zip_code":"8340042"},{"name":"上陽町上横山","zip_code":"8341101"},{"name":"上陽町北川内","zip_code":"8341102"},{"name":"上陽町久木原","zip_code":"8341103"},{"name":"上陽町下横山","zip_code":"8341104"},{"name":"新庄","zip_code":"8340052"},{"name":"平","zip_code":"8340045"},{"name":"高塚","zip_code":"8340034"},{"name":"宅間田","zip_code":"8340001"},{"name":"忠見","zip_code":"8340014"},{"name":"立花町兼松","zip_code":"8340082"},{"name":"立花町上辺春","zip_code":"8340083"},{"name":"立花町北山","zip_code":"8340085"},{"name":"立花町下辺春","zip_code":"8340073"},{"name":"立花町白木","zip_code":"8340084"},{"name":"立花町田形","zip_code":"8340071"},{"name":"立花町谷川","zip_code":"8340074"},{"name":"立花町遠久谷","zip_code":"8340072"},{"name":"立花町原島","zip_code":"8340075"},{"name":"立花町山崎","zip_code":"8340081"},{"name":"龍ケ原","zip_code":"8340067"},{"name":"立野","zip_code":"8340051"},{"name":"津江","zip_code":"8340024"},{"name":"豊福","zip_code":"8340016"},{"name":"長野","zip_code":"8340011"},{"name":"納楚","zip_code":"8340004"},{"name":"馬場","zip_code":"8340023"},{"name":"光","zip_code":"8340043"},{"name":"平田","zip_code":"8340003"},{"name":"星野村","zip_code":"8340201"},{"name":"本","zip_code":"8340015"},{"name":"前古賀","zip_code":"8340054"},{"name":"宮野","zip_code":"8340032"},{"name":"室岡","zip_code":"8340066"},{"name":"本町","zip_code":"8340031"},{"name":"本村","zip_code":"8340063"},{"name":"柳島","zip_code":"8340022"},{"name":"柳瀬","zip_code":"8340033"},{"name":"矢原","zip_code":"8340044"},{"name":"矢部村北矢部","zip_code":"8341401"},{"name":"矢部村矢部","zip_code":"8341402"},{"name":"山内","zip_code":"8340012"},{"name":"吉田","zip_code":"8340006"}]},{"name":"筑後市","divisions":[{"name":"和泉","zip_code":"8330041"},{"name":"一条","zip_code":"8330001"},{"name":"江口","zip_code":"8330046"},{"name":"尾島","zip_code":"8330014"},{"name":"折地","zip_code":"8330026"},{"name":"上北島","zip_code":"8330033"},{"name":"北長田","zip_code":"8330013"},{"name":"久恵","zip_code":"8330011"},{"name":"熊野","zip_code":"8330055"},{"name":"蔵数","zip_code":"8330054"},{"name":"古島","zip_code":"8330035"},{"name":"四ケ所","zip_code":"8330045"},{"name":"島田","zip_code":"8330037"},{"name":"志","zip_code":"8330017"},{"name":"下北島","zip_code":"8330034"},{"name":"下妻","zip_code":"8330021"},{"name":"庄島","zip_code":"8330043"},{"name":"新溝","zip_code":"8330006"},{"name":"井田","zip_code":"8330036"},{"name":"高江","zip_code":"8330052"},{"name":"津島","zip_code":"8330015"},{"name":"常用","zip_code":"8330016"},{"name":"鶴田","zip_code":"8330007"},{"name":"徳久","zip_code":"8330004"},{"name":"富重","zip_code":"8330051"},{"name":"富久","zip_code":"8330044"},{"name":"富安","zip_code":"8330022"},{"name":"中折地","zip_code":"8330025"},{"name":"中牟田","zip_code":"8330024"},{"name":"長崎","zip_code":"8330042"},{"name":"長浜","zip_code":"8330005"},{"name":"西牟田","zip_code":"8330053"},{"name":"野町","zip_code":"8330032"},{"name":"羽犬塚","zip_code":"8330003"},{"name":"久富","zip_code":"8330056"},{"name":"前津","zip_code":"8330002"},{"name":"馬間田","zip_code":"8330023"},{"name":"水田","zip_code":"8330027"},{"name":"溝口","zip_code":"8330012"},{"name":"山ノ井","zip_code":"8330031"},{"name":"若菜","zip_code":"8330047"}]},{"name":"大川市","divisions":[{"name":"上巻","zip_code":"8310031"},{"name":"榎津","zip_code":"8310004"},{"name":"大野島","zip_code":"8310045"},{"name":"大橋","zip_code":"8310021"},{"name":"荻島","zip_code":"8310027"},{"name":"鬼古賀","zip_code":"8310024"},{"name":"鐘ケ江","zip_code":"8310008"},{"name":"上白垣","zip_code":"8310012"},{"name":"北古賀","zip_code":"8310032"},{"name":"九網","zip_code":"8310042"},{"name":"下林","zip_code":"8310002"},{"name":"郷原","zip_code":"8310028"},{"name":"小保","zip_code":"8310041"},{"name":"坂井","zip_code":"8310025"},{"name":"酒見","zip_code":"8310016"},{"name":"下青木","zip_code":"8310001"},{"name":"下木佐木","zip_code":"8310022"},{"name":"下白垣","zip_code":"8310011"},{"name":"下八院","zip_code":"8310017"},{"name":"下牟田口","zip_code":"8310023"},{"name":"新田","zip_code":"8310043"},{"name":"津","zip_code":"8310035"},{"name":"道海島","zip_code":"8310007"},{"name":"中木室","zip_code":"8310014"},{"name":"中古賀","zip_code":"8310006"},{"name":"中八院","zip_code":"8310013"},{"name":"幡保","zip_code":"8310033"},{"name":"一木","zip_code":"8310034"},{"name":"紅粉屋","zip_code":"8310044"},{"name":"本木室","zip_code":"8310015"},{"name":"三丸","zip_code":"8310026"},{"name":"向島","zip_code":"8310005"},{"name":"諸富","zip_code":"8310003"}]},{"name":"行橋市","divisions":[{"name":"天生田","zip_code":"8240044"},{"name":"泉中央","zip_code":"8240034"},{"name":"稲童","zip_code":"8240022"},{"name":"今井","zip_code":"8240018"},{"name":"大谷","zip_code":"8240045"},{"name":"大野井","zip_code":"8240041"},{"name":"大橋","zip_code":"8240003"},{"name":"長木","zip_code":"8240058"},{"name":"金屋","zip_code":"8240004"},{"name":"上検地","zip_code":"8240052"},{"name":"上津熊","zip_code":"8240064"},{"name":"上稗田","zip_code":"8240055"},{"name":"北泉","zip_code":"8240033"},{"name":"行事","zip_code":"8240001"},{"name":"草野","zip_code":"8240061"},{"name":"沓尾","zip_code":"8240013"},{"name":"下検地","zip_code":"8240051"},{"name":"下崎","zip_code":"8240076"},{"name":"下津熊","zip_code":"8240062"},{"name":"下稗田","zip_code":"8240054"},{"name":"神田町","zip_code":"8240007"},{"name":"須磨園","zip_code":"8240072"},{"name":"高来","zip_code":"8240078"},{"name":"高瀬","zip_code":"8240027"},{"name":"宝山","zip_code":"8240048"},{"name":"中央","zip_code":"8240005"},{"name":"長音寺","zip_code":"8240065"},{"name":"辻垣","zip_code":"8240028"},{"name":"津積","zip_code":"8240047"},{"name":"常松","zip_code":"8240074"},{"name":"津留","zip_code":"8240016"},{"name":"寺畔","zip_code":"8240042"},{"name":"道場寺","zip_code":"8240026"},{"name":"徳永","zip_code":"8240071"},{"name":"中川","zip_code":"8240053"},{"name":"中津熊","zip_code":"8240063"},{"name":"長井","zip_code":"8240014"},{"name":"長尾","zip_code":"8240075"},{"name":"西泉","zip_code":"8240038"},{"name":"西谷","zip_code":"8240046"},{"name":"西宮市","zip_code":"8240031"},{"name":"入覚","zip_code":"8240077"},{"name":"延永","zip_code":"8240068"},{"name":"馬場","zip_code":"8240021"},{"name":"東泉","zip_code":"8240035"},{"name":"東大橋","zip_code":"8240002"},{"name":"東徳永","zip_code":"8240025"},{"name":"福原","zip_code":"8240049"},{"name":"福丸","zip_code":"8240073"},{"name":"袋迫","zip_code":"8240024"},{"name":"二塚","zip_code":"8240067"},{"name":"文久","zip_code":"8240012"},{"name":"前田","zip_code":"8240056"},{"name":"真菰","zip_code":"8240017"},{"name":"松原","zip_code":"8240023"},{"name":"南泉","zip_code":"8240036"},{"name":"南大橋","zip_code":"8240032"},{"name":"蓑島","zip_code":"8240011"},{"name":"宮市町","zip_code":"8240008"},{"name":"宮の杜","zip_code":"8240057"},{"name":"元永","zip_code":"8240015"},{"name":"門樋町","zip_code":"8240006"},{"name":"矢留","zip_code":"8240037"},{"name":"矢山","zip_code":"8240079"},{"name":"吉国","zip_code":"8240066"},{"name":"流末","zip_code":"8240043"}]},{"name":"豊前市","divisions":[{"name":"青畑","zip_code":"8280065"},{"name":"赤熊","zip_code":"8280027"},{"name":"荒堀","zip_code":"8280061"},{"name":"市丸","zip_code":"8280035"},{"name":"今市","zip_code":"8280062"},{"name":"岩屋","zip_code":"8280083"},{"name":"宇島","zip_code":"8280022"},{"name":"大河内","zip_code":"8280082"},{"name":"大村","zip_code":"8280066"},{"name":"大西","zip_code":"8280064"},{"name":"鬼木","zip_code":"8280049"},{"name":"皆毛","zip_code":"8280045"},{"name":"梶屋","zip_code":"8280041"},{"name":"上川底","zip_code":"8280077"},{"name":"川内","zip_code":"8280013"},{"name":"河原田","zip_code":"8280055"},{"name":"岸井","zip_code":"8280043"},{"name":"久路土","zip_code":"8280048"},{"name":"沓川","zip_code":"8280023"},{"name":"求菩提","zip_code":"8280086"},{"name":"小石原","zip_code":"8280044"},{"name":"小犬丸","zip_code":"8280036"},{"name":"才尾","zip_code":"8280072"},{"name":"三楽","zip_code":"8280032"},{"name":"篠瀬","zip_code":"8280084"},{"name":"下川底","zip_code":"8280075"},{"name":"下河内","zip_code":"8280074"},{"name":"松江","zip_code":"8280002"},{"name":"清水町","zip_code":"8280026"},{"name":"四郎丸","zip_code":"8280011"},{"name":"青豊","zip_code":"8280028"},{"name":"高田","zip_code":"8280046"},{"name":"千束","zip_code":"8280053"},{"name":"恒富","zip_code":"8280025"},{"name":"天和","zip_code":"8280081"},{"name":"塔田","zip_code":"8280052"},{"name":"鳥井畑","zip_code":"8280085"},{"name":"鳥越","zip_code":"8280012"},{"name":"中川底","zip_code":"8280076"},{"name":"中村","zip_code":"8280003"},{"name":"永久","zip_code":"8280054"},{"name":"野田","zip_code":"8280063"},{"name":"挾間","zip_code":"8280073"},{"name":"畑","zip_code":"8280005"},{"name":"畠中","zip_code":"8280001"},{"name":"八屋","zip_code":"8280021"},{"name":"馬場","zip_code":"8280004"},{"name":"久松","zip_code":"8280024"},{"name":"広瀬","zip_code":"8280047"},{"name":"堀立","zip_code":"8280042"},{"name":"三毛門","zip_code":"8280031"},{"name":"森久","zip_code":"8280034"},{"name":"薬師寺","zip_code":"8280056"},{"name":"山内","zip_code":"8280071"},{"name":"吉木","zip_code":"8280051"},{"name":"六郎","zip_code":"8280033"}]},{"name":"中間市","divisions":[{"name":"朝霧","zip_code":"8090021"},{"name":"池田","zip_code":"8090024"},{"name":"岩瀬","zip_code":"8090011"},{"name":"岩瀬西町","zip_code":"8090041"},{"name":"扇ケ浦","zip_code":"8090023"},{"name":"大辻町","zip_code":"8090026"},{"name":"大根土","zip_code":"8090039"},{"name":"小田ケ浦","zip_code":"8090031"},{"name":"上底井野","zip_code":"8090003"},{"name":"上蓮花寺","zip_code":"8090013"},{"name":"桜台","zip_code":"8090017"},{"name":"下大隈","zip_code":"8090004"},{"name":"下蓮花寺","zip_code":"8090012"},{"name":"浄花町","zip_code":"8090038"},{"name":"太賀","zip_code":"8090015"},{"name":"中央","zip_code":"8090030"},{"name":"通谷","zip_code":"8090018"},{"name":"土手ノ内","zip_code":"8090033"},{"name":"中尾","zip_code":"8090032"},{"name":"中底井野","zip_code":"8090002"},{"name":"長津","zip_code":"8090036"},{"name":"中鶴","zip_code":"8090037"},{"name":"中間","zip_code":"8090034"},{"name":"七重町","zip_code":"8090027"},{"name":"鍋山町","zip_code":"8090022"},{"name":"垣生","zip_code":"8090001"},{"name":"東中間","zip_code":"8090019"},{"name":"深坂","zip_code":"8090025"},{"name":"星ケ丘","zip_code":"8090016"},{"name":"松ケ岡","zip_code":"8090035"},{"name":"弥生","zip_code":"8090028"},{"name":"蓮花寺","zip_code":"8090014"}]},{"name":"小郡市","divisions":[{"name":"赤川","zip_code":"8380135"},{"name":"稲吉","zip_code":"8380128"},{"name":"井上","zip_code":"8380114"},{"name":"大板井","zip_code":"8380142"},{"name":"大崎","zip_code":"8380127"},{"name":"大保","zip_code":"8380115"},{"name":"小郡","zip_code":"8380141"},{"name":"乙隈","zip_code":"8380104"},{"name":"上岩田","zip_code":"8380121"},{"name":"上西鰺坂","zip_code":"8380136"},{"name":"祇園","zip_code":"8380144"},{"name":"小板井","zip_code":"8380143"},{"name":"下岩田","zip_code":"8380123"},{"name":"下西鰺坂","zip_code":"8380134"},{"name":"津古","zip_code":"8380102"},{"name":"寺福童","zip_code":"8380138"},{"name":"希みが丘","zip_code":"8380107"},{"name":"干潟","zip_code":"8380112"},{"name":"平方","zip_code":"8380131"},{"name":"吹上","zip_code":"8380111"},{"name":"福童","zip_code":"8380137"},{"name":"二タ","zip_code":"8380125"},{"name":"二森","zip_code":"8380126"},{"name":"古飯","zip_code":"8380124"},{"name":"松崎","zip_code":"8380122"},{"name":"三国が丘","zip_code":"8380103"},{"name":"美鈴が丘","zip_code":"8380101"},{"name":"美鈴の杜","zip_code":"8380108"},{"name":"三沢","zip_code":"8380106"},{"name":"光行","zip_code":"8380132"},{"name":"八坂","zip_code":"8380133"},{"name":"山隈","zip_code":"8380113"},{"name":"横隈","zip_code":"8380105"},{"name":"力武","zip_code":"8380116"}]},{"name":"筑紫野市","divisions":[{"name":"阿志岐","zip_code":"8180011"},{"name":"天山","zip_code":"8180012"},{"name":"石崎","zip_code":"8180068"},{"name":"牛島","zip_code":"8180014"},{"name":"美しが丘南","zip_code":"8180034"},{"name":"美しが丘北","zip_code":"8180035"},{"name":"馬市","zip_code":"8180033"},{"name":"大石","zip_code":"8180006"},{"name":"岡田","zip_code":"8180013"},{"name":"上古賀","zip_code":"8180041"},{"name":"隈","zip_code":"8180031"},{"name":"香園","zip_code":"8180002"},{"name":"古賀","zip_code":"8180047"},{"name":"桜台","zip_code":"8180063"},{"name":"下見","zip_code":"8180021"},{"name":"杉塚","zip_code":"8180054"},{"name":"俗明院","zip_code":"8180067"},{"name":"筑紫","zip_code":"8180025"},{"name":"筑紫駅前通","zip_code":"8180022"},{"name":"常松","zip_code":"8180064"},{"name":"天拝坂","zip_code":"8180053"},{"name":"塔原","zip_code":"8180055"},{"name":"塔原東","zip_code":"8180059"},{"name":"塔原西","zip_code":"8180073"},{"name":"塔原南","zip_code":"8180074"},{"name":"永岡","zip_code":"8180066"},{"name":"西小田","zip_code":"8180032"},{"name":"萩原","zip_code":"8180044"},{"name":"針摺","zip_code":"8180062"},{"name":"針摺北","zip_code":"8180085"},{"name":"針摺中央","zip_code":"8180083"},{"name":"針摺西","zip_code":"8180084"},{"name":"針摺東","zip_code":"8180081"},{"name":"針摺南","zip_code":"8180082"},{"name":"原","zip_code":"8180005"},{"name":"原田","zip_code":"8180024"},{"name":"光が丘","zip_code":"8180036"},{"name":"平等寺","zip_code":"8180045"},{"name":"二日市","zip_code":"8180051"},{"name":"二日市北","zip_code":"8180056"},{"name":"二日市中央","zip_code":"8180072"},{"name":"二日市西","zip_code":"8180071"},{"name":"二日市南","zip_code":"8180057"},{"name":"本道寺","zip_code":"8180007"},{"name":"美咲","zip_code":"8180026"},{"name":"武藏","zip_code":"8180052"},{"name":"むさしケ丘","zip_code":"8180043"},{"name":"紫","zip_code":"8180061"},{"name":"諸田","zip_code":"8180065"},{"name":"山家","zip_code":"8180003"},{"name":"山口","zip_code":"8180046"},{"name":"柚須原","zip_code":"8180001"},{"name":"湯町","zip_code":"8180058"},{"name":"吉木","zip_code":"8180004"},{"name":"立明寺","zip_code":"8180042"},{"name":"若江","zip_code":"8180023"}]},{"name":"春日市","divisions":[{"name":"泉","zip_code":"8160853"},{"name":"一の谷","zip_code":"8160852"},{"name":"大谷","zip_code":"8160831"},{"name":"大土居","zip_code":"8160847"},{"name":"岡本","zip_code":"8160861"},{"name":"春日","zip_code":"8160814"},{"name":"春日公園","zip_code":"8160811"},{"name":"春日原東町","zip_code":"8160801"},{"name":"春日原南町","zip_code":"8160803"},{"name":"春日原北町","zip_code":"8160802"},{"name":"上白水","zip_code":"8160844"},{"name":"小倉","zip_code":"8160824"},{"name":"小倉東","zip_code":"8160826"},{"name":"桜ケ丘","zip_code":"8160872"},{"name":"下白水","zip_code":"8160842"},{"name":"下白水北","zip_code":"8160854"},{"name":"下白水南","zip_code":"8160846"},{"name":"白水池","zip_code":"8160848"},{"name":"白水ケ丘","zip_code":"8160845"},{"name":"須玖","zip_code":"8160871"},{"name":"須玖南","zip_code":"8160863"},{"name":"須玖北","zip_code":"8160864"},{"name":"惣利","zip_code":"8160813"},{"name":"宝町","zip_code":"8160807"},{"name":"ちくし台","zip_code":"8160822"},{"name":"千歳町","zip_code":"8160805"},{"name":"塚原台","zip_code":"8160841"},{"name":"天神山","zip_code":"8160855"},{"name":"昇町","zip_code":"8160851"},{"name":"伯玄町","zip_code":"8160825"},{"name":"原町","zip_code":"8160804"},{"name":"光町","zip_code":"8160806"},{"name":"日の出町","zip_code":"8160873"},{"name":"平田台","zip_code":"8160812"},{"name":"星見ヶ丘","zip_code":"8160849"},{"name":"松ケ丘","zip_code":"8160843"},{"name":"紅葉ケ丘東","zip_code":"8160833"},{"name":"紅葉ケ丘西","zip_code":"8160832"},{"name":"大和町","zip_code":"8160874"},{"name":"弥生","zip_code":"8160862"},{"name":"若葉台東","zip_code":"8160821"},{"name":"若葉台西","zip_code":"8160823"}]},{"name":"大野城市","divisions":[{"name":"曙町","zip_code":"8160934"},{"name":"旭ケ丘","zip_code":"8160953"},{"name":"牛頸","zip_code":"8160971"},{"name":"大池","zip_code":"8160904"},{"name":"大城","zip_code":"8160911"},{"name":"乙金","zip_code":"8160902"},{"name":"乙金台","zip_code":"8160903"},{"name":"乙金東","zip_code":"8160901"},{"name":"上大利","zip_code":"8160955"},{"name":"川久保","zip_code":"8160905"},{"name":"瓦田","zip_code":"8160932"},{"name":"栄町","zip_code":"8160924"},{"name":"雑餉隈町","zip_code":"8160923"},{"name":"下大利","zip_code":"8160952"},{"name":"下大利団地","zip_code":"8160951"},{"name":"白木原","zip_code":"8160943"},{"name":"中央","zip_code":"8160942"},{"name":"月の浦","zip_code":"8160983"},{"name":"筒井","zip_code":"8160931"},{"name":"つつじケ丘","zip_code":"8160962"},{"name":"中","zip_code":"8160906"},{"name":"仲畑","zip_code":"8160921"},{"name":"錦町","zip_code":"8160935"},{"name":"畑ケ坂","zip_code":"8160982"},{"name":"東大利","zip_code":"8160941"},{"name":"平野台","zip_code":"8160972"},{"name":"御笠川","zip_code":"8160912"},{"name":"瑞穂町","zip_code":"8160933"},{"name":"緑ケ丘","zip_code":"8160961"},{"name":"南大利","zip_code":"8160956"},{"name":"南ケ丘","zip_code":"8160964"},{"name":"宮野台","zip_code":"8160963"},{"name":"紫台","zip_code":"8160954"},{"name":"山田","zip_code":"8160922"},{"name":"横峰","zip_code":"8160973"},{"name":"若草","zip_code":"8160981"}]},{"name":"宗像市","divisions":[{"name":"青葉台","zip_code":"8114162"},{"name":"赤間","zip_code":"8114146"},{"name":"赤間駅前","zip_code":"8114185"},{"name":"赤間ケ丘","zip_code":"8114176"},{"name":"赤間文教町","zip_code":"8114148"},{"name":"朝野","zip_code":"8113415"},{"name":"朝町","zip_code":"8114161"},{"name":"アスティ","zip_code":"8114157"},{"name":"池浦","zip_code":"8113401"},{"name":"池田","zip_code":"8113515"},{"name":"石丸","zip_code":"8114147"},{"name":"泉ケ丘","zip_code":"8114142"},{"name":"稲元","zip_code":"8113406"},{"name":"江口","zip_code":"8113502"},{"name":"桜美台","zip_code":"8114177"},{"name":"王丸","zip_code":"8113422"},{"name":"大井","zip_code":"8113432"},{"name":"大井台","zip_code":"8113433"},{"name":"大井南","zip_code":"8113440"},{"name":"大島","zip_code":"8113701"},{"name":"大谷","zip_code":"8114141"},{"name":"大穂","zip_code":"8113421"},{"name":"河東","zip_code":"8113402"},{"name":"鐘崎","zip_code":"8113512"},{"name":"久原","zip_code":"8113437"},{"name":"くりえいと","zip_code":"8114184"},{"name":"公園通り","zip_code":"8113516"},{"name":"上八","zip_code":"8113513"},{"name":"神湊","zip_code":"8113501"},{"name":"広陵台","zip_code":"8114165"},{"name":"栄町","zip_code":"8114173"},{"name":"桜","zip_code":"8114166"},{"name":"三郎丸","zip_code":"8114143"},{"name":"地島","zip_code":"8113511"},{"name":"自由ケ丘","zip_code":"8114163"},{"name":"自由ケ丘西町","zip_code":"8114174"},{"name":"自由ケ丘南","zip_code":"8114156"},{"name":"城ケ谷","zip_code":"8114182"},{"name":"城西ケ丘","zip_code":"8113404"},{"name":"城南ケ丘","zip_code":"8114151"},{"name":"城山ニュータウン","zip_code":"8114181"},{"name":"樟陽台","zip_code":"8113408"},{"name":"須恵","zip_code":"8113405"},{"name":"田久","zip_code":"8114175"},{"name":"田熊","zip_code":"8113431"},{"name":"武丸","zip_code":"8114152"},{"name":"田島","zip_code":"8113505"},{"name":"田野","zip_code":"8113514"},{"name":"多禮","zip_code":"8113507"},{"name":"土穴","zip_code":"8114183"},{"name":"天平台","zip_code":"8113407"},{"name":"東郷","zip_code":"8113436"},{"name":"徳重","zip_code":"8114164"},{"name":"名残","zip_code":"8114155"},{"name":"野坂","zip_code":"8113423"},{"name":"葉山","zip_code":"8114171"},{"name":"原町","zip_code":"8113424"},{"name":"ひかりケ丘","zip_code":"8113403"},{"name":"日の里","zip_code":"8113425"},{"name":"平等寺","zip_code":"8113412"},{"name":"平井","zip_code":"8113430"},{"name":"深田","zip_code":"8113504"},{"name":"冨地原","zip_code":"8114154"},{"name":"曲","zip_code":"8114113"},{"name":"三倉","zip_code":"8113439"},{"name":"光岡","zip_code":"8113414"},{"name":"緑町","zip_code":"8114172"},{"name":"宮田","zip_code":"8113416"},{"name":"牟田尻","zip_code":"8113503"},{"name":"村山田","zip_code":"8113434"},{"name":"用山","zip_code":"8113435"},{"name":"山田","zip_code":"8113411"},{"name":"吉田","zip_code":"8113506"},{"name":"吉留","zip_code":"8114153"},{"name":"陵厳寺","zip_code":"8114145"},{"name":"和歌美台","zip_code":"8113438"}]},{"name":"太宰府市","divisions":[{"name":"青葉台","zip_code":"8180137"},{"name":"青山","zip_code":"8180121"},{"name":"石坂","zip_code":"8180118"},{"name":"内山","zip_code":"8180115"},{"name":"梅ケ丘","zip_code":"8180123"},{"name":"大佐野","zip_code":"8180134"},{"name":"観世音寺","zip_code":"8180101"},{"name":"北谷","zip_code":"8180114"},{"name":"国分","zip_code":"8180132"},{"name":"五条","zip_code":"8180125"},{"name":"宰都","zip_code":"8180139"},{"name":"宰府","zip_code":"8180117"},{"name":"坂本","zip_code":"8180133"},{"name":"三条","zip_code":"8180111"},{"name":"白川","zip_code":"8180102"},{"name":"朱雀","zip_code":"8180103"},{"name":"高雄","zip_code":"8180122"},{"name":"通古賀","zip_code":"8180104"},{"name":"都府楼南","zip_code":"8180105"},{"name":"長浦台","zip_code":"8180136"},{"name":"梅香苑","zip_code":"8180124"},{"name":"御笠","zip_code":"8180110"},{"name":"水城","zip_code":"8180131"},{"name":"向佐野","zip_code":"8180135"},{"name":"吉松","zip_code":"8180138"},{"name":"連歌屋","zip_code":"8180119"}]},{"name":"古賀市","divisions":[{"name":"青柳","zip_code":"8113134"},{"name":"青柳町","zip_code":"8113133"},{"name":"糸ケ浦","zip_code":"8113136"},{"name":"今在家","zip_code":"8113131"},{"name":"今の庄","zip_code":"8113117"},{"name":"駅東","zip_code":"8113102"},{"name":"小竹","zip_code":"8113135"},{"name":"小山田","zip_code":"8113126"},{"name":"花鶴丘","zip_code":"8113104"},{"name":"川原","zip_code":"8113132"},{"name":"久保","zip_code":"8113115"},{"name":"古賀","zip_code":"8113137"},{"name":"薦野","zip_code":"8113122"},{"name":"鹿部","zip_code":"8113105"},{"name":"庄","zip_code":"8113116"},{"name":"新久保","zip_code":"8113118"},{"name":"新原","zip_code":"8113127"},{"name":"谷山","zip_code":"8113125"},{"name":"千鳥","zip_code":"8113113"},{"name":"中央","zip_code":"8113103"},{"name":"天神","zip_code":"8113101"},{"name":"米多比","zip_code":"8113123"},{"name":"花見東","zip_code":"8113112"},{"name":"花見南","zip_code":"8113111"},{"name":"日吉","zip_code":"8113106"},{"name":"舞の里","zip_code":"8113114"},{"name":"美明","zip_code":"8113107"},{"name":"筵内","zip_code":"8113121"},{"name":"薬王寺","zip_code":"8113124"}]},{"name":"福津市","divisions":[{"name":"あけぼの","zip_code":"8113220"},{"name":"畦町","zip_code":"8113202"},{"name":"在自","zip_code":"8113301"},{"name":"内殿","zip_code":"8113205"},{"name":"大石","zip_code":"8113302"},{"name":"小竹","zip_code":"8113226"},{"name":"勝浦","zip_code":"8113521"},{"name":"上西郷","zip_code":"8113207"},{"name":"光陽台","zip_code":"8113223"},{"name":"光陽台南","zip_code":"8113228"},{"name":"桜川","zip_code":"8113229"},{"name":"舎利蔵","zip_code":"8113204"},{"name":"須多田","zip_code":"8113303"},{"name":"高平","zip_code":"8113227"},{"name":"中央","zip_code":"8113217"},{"name":"津丸","zip_code":"8113222"},{"name":"津屋崎","zip_code":"8113304"},{"name":"手光","zip_code":"8113224"},{"name":"手光南","zip_code":"8113218"},{"name":"西福間","zip_code":"8113219"},{"name":"奴山","zip_code":"8113522"},{"name":"花見が丘","zip_code":"8113214"},{"name":"花見が浜","zip_code":"8113216"},{"name":"花見の里","zip_code":"8113215"},{"name":"東福間","zip_code":"8113225"},{"name":"久末","zip_code":"8113206"},{"name":"福間駅東","zip_code":"8113208"},{"name":"福間南","zip_code":"8113212"},{"name":"星ケ丘","zip_code":"8113308"},{"name":"宮司","zip_code":"8113305"},{"name":"宮司ヶ丘","zip_code":"8113312"},{"name":"宮司浜","zip_code":"8113311"},{"name":"宮司元町","zip_code":"8113309"},{"name":"本木","zip_code":"8113203"},{"name":"八並","zip_code":"8113201"},{"name":"生家","zip_code":"8113306"},{"name":"有弥の里","zip_code":"8113211"},{"name":"若木台","zip_code":"8113221"},{"name":"渡","zip_code":"8113307"}]},{"name":"うきは市","divisions":[{"name":"浮羽町朝田","zip_code":"8391401"},{"name":"浮羽町妹川","zip_code":"8391415"},{"name":"浮羽町浮羽","zip_code":"8391402"},{"name":"浮羽町小塩","zip_code":"8391412"},{"name":"浮羽町高見","zip_code":"8391406"},{"name":"浮羽町田篭","zip_code":"8391414"},{"name":"浮羽町流川","zip_code":"8391411"},{"name":"浮羽町新川","zip_code":"8391413"},{"name":"浮羽町西隈上","zip_code":"8391404"},{"name":"浮羽町東隈上","zip_code":"8391403"},{"name":"浮羽町古川","zip_code":"8391405"},{"name":"浮羽町三春","zip_code":"8391407"},{"name":"浮羽町山北","zip_code":"8391408"},{"name":"吉井町","zip_code":"8391321"},{"name":"吉井町生葉","zip_code":"8391342"},{"name":"吉井町江南","zip_code":"8391341"},{"name":"吉井町清瀬","zip_code":"8391312"},{"name":"吉井町桜井","zip_code":"8391301"},{"name":"吉井町鷹取","zip_code":"8391343"},{"name":"吉井町橘田","zip_code":"8391307"},{"name":"吉井町千年","zip_code":"8391304"},{"name":"吉井町徳丸","zip_code":"8391302"},{"name":"吉井町富永","zip_code":"8391333"},{"name":"吉井町長栖","zip_code":"8391344"},{"name":"吉井町新治","zip_code":"8391306"},{"name":"吉井町福永","zip_code":"8391305"},{"name":"吉井町福益","zip_code":"8391332"},{"name":"吉井町宮田","zip_code":"8391303"},{"name":"吉井町屋部","zip_code":"8391331"},{"name":"吉井町八和田","zip_code":"8391308"},{"name":"吉井町若宮","zip_code":"8391311"}]},{"name":"宮若市","divisions":[{"name":"磯光","zip_code":"8230004"},{"name":"稲光","zip_code":"8220144"},{"name":"犬鳴","zip_code":"8220134"},{"name":"乙野","zip_code":"8220131"},{"name":"金丸","zip_code":"8220111"},{"name":"金生","zip_code":"8220113"},{"name":"上有木","zip_code":"8230015"},{"name":"上大隈","zip_code":"8230005"},{"name":"倉久","zip_code":"8230017"},{"name":"黒丸","zip_code":"8220146"},{"name":"小伏","zip_code":"8220132"},{"name":"三ケ畑","zip_code":"8220123"},{"name":"下","zip_code":"8220122"},{"name":"下有木","zip_code":"8230014"},{"name":"四郎丸","zip_code":"8230016"},{"name":"芹田","zip_code":"8230013"},{"name":"平","zip_code":"8220141"},{"name":"高野","zip_code":"8220143"},{"name":"竹原","zip_code":"8220142"},{"name":"鶴田","zip_code":"8230002"},{"name":"長井鶴","zip_code":"8230012"},{"name":"沼口","zip_code":"8220152"},{"name":"原田","zip_code":"8220112"},{"name":"福丸","zip_code":"8220101"},{"name":"縁山畑","zip_code":"8220124"},{"name":"本城","zip_code":"8230003"},{"name":"水原","zip_code":"8220151"},{"name":"宮田","zip_code":"8230011"},{"name":"宮永","zip_code":"8220145"},{"name":"山口","zip_code":"8220153"},{"name":"湯原","zip_code":"8220121"},{"name":"龍徳","zip_code":"8230001"},{"name":"脇田","zip_code":"8220133"}]},{"name":"嘉麻市","divisions":[{"name":"芥田","zip_code":"8200331"},{"name":"飯田","zip_code":"8200501"},{"name":"泉河内","zip_code":"8200334"},{"name":"稲築才田","zip_code":"8200204"},{"name":"猪国","zip_code":"8210014"},{"name":"岩崎","zip_code":"8200205"},{"name":"牛隈","zip_code":"8200301"},{"name":"馬見","zip_code":"8200321"},{"name":"漆生","zip_code":"8200201"},{"name":"大隈","zip_code":"8210004"},{"name":"大隈町","zip_code":"8210002"},{"name":"小野谷","zip_code":"8200314"},{"name":"嘉穂才田","zip_code":"8200336"},{"name":"上","zip_code":"8200311"},{"name":"上臼井","zip_code":"8200502"},{"name":"上西郷","zip_code":"8200306"},{"name":"上山田","zip_code":"8210012"},{"name":"鴨生","zip_code":"8200206"},{"name":"口春","zip_code":"8200207"},{"name":"熊ケ畑","zip_code":"8210013"},{"name":"九郎原","zip_code":"8200337"},{"name":"桑野","zip_code":"8200313"},{"name":"光代","zip_code":"8200503"},{"name":"貞月","zip_code":"8200305"},{"name":"椎木","zip_code":"8200323"},{"name":"下臼井","zip_code":"8200504"},{"name":"下山田","zip_code":"8210011"},{"name":"千手","zip_code":"8200332"},{"name":"大力","zip_code":"8200333"},{"name":"中益","zip_code":"8200303"},{"name":"西郷","zip_code":"8200505"},{"name":"東畑","zip_code":"8200335"},{"name":"平","zip_code":"8200203"},{"name":"平山","zip_code":"8200506"},{"name":"屏","zip_code":"8200322"},{"name":"宮吉","zip_code":"8200312"},{"name":"山野","zip_code":"8200202"}]},{"name":"朝倉市","divisions":[{"name":"相窪","zip_code":"8380025"},{"name":"秋月","zip_code":"8380001"},{"name":"秋月野鳥","zip_code":"8380011"},{"name":"甘木","zip_code":"8380068"},{"name":"甘水","zip_code":"8380005"},{"name":"石成","zip_code":"8381317"},{"name":"板屋","zip_code":"8380027"},{"name":"荷原","zip_code":"8380029"},{"name":"入地","zip_code":"8381315"},{"name":"上畑","zip_code":"8380042"},{"name":"牛木","zip_code":"8380067"},{"name":"牛鶴","zip_code":"8380024"},{"name":"烏集院","zip_code":"8381301"},{"name":"鵜木","zip_code":"8380038"},{"name":"江川","zip_code":"8380012"},{"name":"大庭","zip_code":"8381316"},{"name":"小隈","zip_code":"8380052"},{"name":"小田","zip_code":"8380051"},{"name":"柿原","zip_code":"8380026"},{"name":"片延","zip_code":"8380036"},{"name":"金丸","zip_code":"8380048"},{"name":"鎌崎","zip_code":"8380041"},{"name":"上秋月","zip_code":"8380019"},{"name":"上浦","zip_code":"8380057"},{"name":"上寺","zip_code":"8381313"},{"name":"隈江","zip_code":"8380004"},{"name":"倉吉","zip_code":"8380046"},{"name":"黒川","zip_code":"8380072"},{"name":"桑原","zip_code":"8380039"},{"name":"古賀","zip_code":"8380063"},{"name":"古毛","zip_code":"8381307"},{"name":"佐田","zip_code":"8380071"},{"name":"下渕","zip_code":"8380016"},{"name":"下浦","zip_code":"8380055"},{"name":"白鳥","zip_code":"8380045"},{"name":"城","zip_code":"8380022"},{"name":"須川","zip_code":"8381304"},{"name":"千手","zip_code":"8380017"},{"name":"草水","zip_code":"8380054"},{"name":"田島","zip_code":"8380033"},{"name":"田代","zip_code":"8380013"},{"name":"多々連","zip_code":"8381311"},{"name":"田中","zip_code":"8381312"},{"name":"千代丸","zip_code":"8380066"},{"name":"堤","zip_code":"8380062"},{"name":"徳渕","zip_code":"8380047"},{"name":"頓田","zip_code":"8380064"},{"name":"中","zip_code":"8380035"},{"name":"中島田","zip_code":"8380032"},{"name":"中寒水","zip_code":"8380053"},{"name":"長田","zip_code":"8380043"},{"name":"中原","zip_code":"8380056"},{"name":"長渕","zip_code":"8381314"},{"name":"楢原","zip_code":"8380003"},{"name":"杷木赤谷","zip_code":"8381501"},{"name":"杷木池田","zip_code":"8381511"},{"name":"杷木大山","zip_code":"8381503"},{"name":"杷木久喜宮","zip_code":"8381514"},{"name":"杷木古賀","zip_code":"8381513"},{"name":"杷木白木","zip_code":"8381507"},{"name":"杷木志波","zip_code":"8381521"},{"name":"杷木寒水","zip_code":"8381512"},{"name":"杷木林田","zip_code":"8381506"},{"name":"杷木穂坂","zip_code":"8381505"},{"name":"杷木星丸","zip_code":"8381504"},{"name":"杷木松末","zip_code":"8381502"},{"name":"杷木若市","zip_code":"8381515"},{"name":"長谷山","zip_code":"8380002"},{"name":"林田","zip_code":"8380037"},{"name":"菱野","zip_code":"8381305"},{"name":"一木","zip_code":"8380065"},{"name":"日向石","zip_code":"8380018"},{"name":"平塚","zip_code":"8380059"},{"name":"比良松","zip_code":"8381303"},{"name":"福光","zip_code":"8380034"},{"name":"菩提寺","zip_code":"8380061"},{"name":"馬田","zip_code":"8380058"},{"name":"三奈木","zip_code":"8380023"},{"name":"美奈宜の杜","zip_code":"8380020"},{"name":"宮野","zip_code":"8381302"},{"name":"持丸","zip_code":"8380015"},{"name":"八重津","zip_code":"8380044"},{"name":"屋形原","zip_code":"8380028"},{"name":"屋永","zip_code":"8380031"},{"name":"矢野竹","zip_code":"8380021"},{"name":"山田","zip_code":"8381306"},{"name":"山見","zip_code":"8380014"},{"name":"来春","zip_code":"8380069"}]},{"name":"みやま市","divisions":[{"name":"瀬高町文廣","zip_code":"8350022"},{"name":"瀬高町大江","zip_code":"8350019"},{"name":"瀬高町太神","zip_code":"8350013"},{"name":"瀬高町大草","zip_code":"8350005"},{"name":"瀬高町大廣園","zip_code":"8350012"},{"name":"瀬高町小川","zip_code":"8350023"},{"name":"瀬高町小田","zip_code":"8350002"},{"name":"瀬高町上庄","zip_code":"8350025"},{"name":"瀬高町河内","zip_code":"8350014"},{"name":"瀬高町坂田","zip_code":"8350006"},{"name":"瀬高町下庄","zip_code":"8350024"},{"name":"瀬高町泰仙寺","zip_code":"8350015"},{"name":"瀬高町高柳","zip_code":"8350018"},{"name":"瀬高町長田","zip_code":"8350007"},{"name":"瀬高町濱田","zip_code":"8350016"},{"name":"瀬高町東津留","zip_code":"8350017"},{"name":"瀬高町廣瀬","zip_code":"8350001"},{"name":"瀬高町本郷","zip_code":"8350021"},{"name":"瀬高町松田","zip_code":"8350011"},{"name":"瀬高町本吉","zip_code":"8350003"},{"name":"瀬高町山門","zip_code":"8350004"},{"name":"高田町今福","zip_code":"8390214"},{"name":"高田町岩津","zip_code":"8390223"},{"name":"高田町永治","zip_code":"8390202"},{"name":"高田町江浦","zip_code":"8390213"},{"name":"高田町江浦町","zip_code":"8390212"},{"name":"高田町海津","zip_code":"8350136"},{"name":"高田町上楠田","zip_code":"8390225"},{"name":"高田町亀谷","zip_code":"8350132"},{"name":"高田町北新開","zip_code":"8390204"},{"name":"高田町黒崎開","zip_code":"8390203"},{"name":"高田町下楠田","zip_code":"8390221"},{"name":"高田町昭和開","zip_code":"8390201"},{"name":"高田町竹飯","zip_code":"8350135"},{"name":"高田町田尻","zip_code":"8390224"},{"name":"高田町田浦","zip_code":"8350133"},{"name":"高田町徳島","zip_code":"8390211"},{"name":"高田町濃施","zip_code":"8390215"},{"name":"高田町飯江","zip_code":"8350134"},{"name":"高田町原","zip_code":"8390222"},{"name":"高田町舞鶴","zip_code":"8350131"},{"name":"高田町南新開","zip_code":"8390205"},{"name":"山川町尾野","zip_code":"8350102"},{"name":"山川町河原内","zip_code":"8350104"},{"name":"山川町北関","zip_code":"8350112"},{"name":"山川町甲田","zip_code":"8350114"},{"name":"山川町重冨","zip_code":"8350113"},{"name":"山川町清水","zip_code":"8350103"},{"name":"山川町立山","zip_code":"8350101"},{"name":"山川町原町","zip_code":"8350115"},{"name":"山川町真弓","zip_code":"8350111"}]},{"name":"糸島市","divisions":[{"name":"有田","zip_code":"8191132"},{"name":"有田中央","zip_code":"8191127"},{"name":"飯原","zip_code":"8191152"},{"name":"池田","zip_code":"8191103"},{"name":"井田","zip_code":"8191562"},{"name":"板持","zip_code":"8191101"},{"name":"岩本","zip_code":"8191126"},{"name":"井原","zip_code":"8191582"},{"name":"浦志","zip_code":"8191112"},{"name":"潤","zip_code":"8191105"},{"name":"王丸","zip_code":"8191573"},{"name":"大浦","zip_code":"8191135"},{"name":"荻浦","zip_code":"8191121"},{"name":"加布里","zip_code":"8191124"},{"name":"神在","zip_code":"8191123"},{"name":"川付","zip_code":"8191155"},{"name":"川原","zip_code":"8191574"},{"name":"蔵持","zip_code":"8191141"},{"name":"高来寺","zip_code":"8191563"},{"name":"香力","zip_code":"8191147"},{"name":"志登","zip_code":"8191106"},{"name":"篠原","zip_code":"8191131"},{"name":"篠原西","zip_code":"8191129"},{"name":"篠原東","zip_code":"8191128"},{"name":"志摩井田原","zip_code":"8191301"},{"name":"志摩稲留","zip_code":"8191313"},{"name":"志摩稲葉","zip_code":"8191315"},{"name":"志摩岐志","zip_code":"8191334"},{"name":"志摩久家","zip_code":"8191331"},{"name":"志摩芥屋","zip_code":"8191335"},{"name":"志摩小金丸","zip_code":"8191323"},{"name":"志摩小富士","zip_code":"8191321"},{"name":"志摩桜井","zip_code":"8191304"},{"name":"志摩新町","zip_code":"8191333"},{"name":"志摩津和崎","zip_code":"8191311"},{"name":"志摩西貝塚","zip_code":"8191325"},{"name":"志摩野北","zip_code":"8191303"},{"name":"志摩初","zip_code":"8191312"},{"name":"志摩馬場","zip_code":"8191305"},{"name":"志摩東貝塚","zip_code":"8191324"},{"name":"志摩姫島","zip_code":"8191336"},{"name":"志摩船越","zip_code":"8191332"},{"name":"志摩松隈","zip_code":"8191306"},{"name":"志摩御床","zip_code":"8191322"},{"name":"志摩師吉","zip_code":"8191314"},{"name":"志摩吉田","zip_code":"8191302"},{"name":"白糸","zip_code":"8191154"},{"name":"新田","zip_code":"8191114"},{"name":"瑞梅寺","zip_code":"8191581"},{"name":"末永","zip_code":"8191572"},{"name":"瀬戸","zip_code":"8191156"},{"name":"曽根","zip_code":"8191561"},{"name":"大門","zip_code":"8191564"},{"name":"高上","zip_code":"8191143"},{"name":"高祖","zip_code":"8191571"},{"name":"高田","zip_code":"8191102"},{"name":"多久","zip_code":"8191134"},{"name":"千早新田","zip_code":"8191125"},{"name":"泊","zip_code":"8191111"},{"name":"富","zip_code":"8191133"},{"name":"長野","zip_code":"8191153"},{"name":"西堂","zip_code":"8191575"},{"name":"二丈一貴山","zip_code":"8191622"},{"name":"二丈石崎","zip_code":"8191623"},{"name":"二丈片山","zip_code":"8191611"},{"name":"二丈上深江","zip_code":"8191621"},{"name":"二丈鹿家","zip_code":"8191642"},{"name":"二丈武","zip_code":"8191616"},{"name":"二丈田中","zip_code":"8191615"},{"name":"二丈長石","zip_code":"8191625"},{"name":"二丈浜窪","zip_code":"8191614"},{"name":"二丈波呂","zip_code":"8191626"},{"name":"二丈深江","zip_code":"8191601"},{"name":"二丈福井","zip_code":"8191631"},{"name":"二丈松末","zip_code":"8191612"},{"name":"二丈松国","zip_code":"8191627"},{"name":"二丈満吉","zip_code":"8191624"},{"name":"二丈吉井","zip_code":"8191641"},{"name":"波多江","zip_code":"8191104"},{"name":"波多江駅北","zip_code":"8191107"},{"name":"波多江駅南","zip_code":"8191108"},{"name":"東","zip_code":"8191122"},{"name":"本","zip_code":"8191151"},{"name":"前原","zip_code":"8191113"},{"name":"前原駅南","zip_code":"8191138"},{"name":"前原北","zip_code":"8191118"},{"name":"前原中央","zip_code":"8191116"},{"name":"前原西","zip_code":"8191117"},{"name":"前原東","zip_code":"8191119"},{"name":"前原南","zip_code":"8191139"},{"name":"三雲","zip_code":"8191583"},{"name":"三坂","zip_code":"8191146"},{"name":"美咲が丘","zip_code":"8191136"},{"name":"南風台","zip_code":"8191137"},{"name":"八島","zip_code":"8191142"},{"name":"山北","zip_code":"8191144"},{"name":"油比","zip_code":"8191115"},{"name":"雷山","zip_code":"8191145"}]},{"name":"筑紫郡那珂川町","divisions":[{"name":"安徳","zip_code":"8111224"},{"name":"市ノ瀬","zip_code":"8111233"},{"name":"今光","zip_code":"8111211"},{"name":"後野","zip_code":"8111241"},{"name":"埋金","zip_code":"8111232"},{"name":"恵子","zip_code":"8111255"},{"name":"王塚台","zip_code":"8111221"},{"name":"片縄","zip_code":"8111201"},{"name":"片縄北","zip_code":"8111203"},{"name":"片縄西","zip_code":"8111202"},{"name":"片縄東","zip_code":"8111204"},{"name":"上梶原","zip_code":"8111223"},{"name":"五ケ山","zip_code":"8111234"},{"name":"五郎丸","zip_code":"8111252"},{"name":"下梶原","zip_code":"8111222"},{"name":"仲","zip_code":"8111253"},{"name":"仲丸","zip_code":"8111256"},{"name":"道善","zip_code":"8111254"},{"name":"中原","zip_code":"8111213"},{"name":"中原東","zip_code":"8111214"},{"name":"中原観晴が丘","zip_code":"8111212"},{"name":"南面里","zip_code":"8111236"},{"name":"成竹","zip_code":"8111235"},{"name":"西隈","zip_code":"8111242"},{"name":"西畑","zip_code":"8111246"},{"name":"東隈","zip_code":"8111243"},{"name":"不入道","zip_code":"8111231"},{"name":"別所","zip_code":"8111245"},{"name":"松木","zip_code":"8111251"},{"name":"松原","zip_code":"8111215"},{"name":"観晴が丘","zip_code":"8111216"},{"name":"山田","zip_code":"8111244"}]},{"name":"糟屋郡宇美町","divisions":[{"name":"井野","zip_code":"8112104"},{"name":"宇美","zip_code":"8112101"},{"name":"宇美中央","zip_code":"8112128"},{"name":"宇美東","zip_code":"8112125"},{"name":"貴船","zip_code":"8112131"},{"name":"光正寺","zip_code":"8112123"},{"name":"桜原","zip_code":"8112109"},{"name":"四王寺","zip_code":"8112105"},{"name":"四王寺坂","zip_code":"8112103"},{"name":"障子岳","zip_code":"8112127"},{"name":"障子岳南","zip_code":"8112126"},{"name":"炭焼","zip_code":"8112102"},{"name":"とびたけ","zip_code":"8112107"},{"name":"原田","zip_code":"8112132"},{"name":"ひばりが丘","zip_code":"8112106"},{"name":"平和","zip_code":"8112121"},{"name":"明神坂","zip_code":"8112122"},{"name":"ゆりが丘","zip_code":"8112108"},{"name":"若草","zip_code":"8112124"}]},{"name":"糟屋郡篠栗町","divisions":[{"name":"乙犬","zip_code":"8112412"},{"name":"尾仲","zip_code":"8112413"},{"name":"金出","zip_code":"8112402"},{"name":"篠栗","zip_code":"8112405"},{"name":"高田","zip_code":"8112401"},{"name":"田中","zip_code":"8112416"},{"name":"津波黒","zip_code":"8112415"},{"name":"内住","zip_code":"8112404"},{"name":"萩尾","zip_code":"8112403"},{"name":"若杉","zip_code":"8112411"},{"name":"和田","zip_code":"8112414"}]},{"name":"糟屋郡志免町","divisions":[{"name":"石橋台","zip_code":"8112203"},{"name":"王子","zip_code":"8112209"},{"name":"片峰","zip_code":"8112245"},{"name":"片峰中央","zip_code":"8112246"},{"name":"坂瀬","zip_code":"8112248"},{"name":"桜丘","zip_code":"8112201"},{"name":"志免","zip_code":"8112202"},{"name":"志免中央","zip_code":"8112244"},{"name":"志免東","zip_code":"8112243"},{"name":"田富","zip_code":"8112204"},{"name":"東公園台","zip_code":"8112241"},{"name":"別府","zip_code":"8112205"},{"name":"別府北","zip_code":"8112233"},{"name":"別府西","zip_code":"8112232"},{"name":"別府東","zip_code":"8112231"},{"name":"松ケ丘","zip_code":"8112242"},{"name":"御手洗","zip_code":"8112206"},{"name":"南里","zip_code":"8112207"},{"name":"向ケ丘","zip_code":"8112247"},{"name":"吉原","zip_code":"8112208"}]},{"name":"糟屋郡須惠町","divisions":[{"name":"植木","zip_code":"8112112"},{"name":"上須惠","zip_code":"8112114"},{"name":"佐谷","zip_code":"8112115"},{"name":"新原","zip_code":"8112111"},{"name":"須惠","zip_code":"8112113"},{"name":"旅石","zip_code":"8112221"}]},{"name":"糟屋郡新宮町","divisions":[{"name":"相島","zip_code":"8110118"},{"name":"上府","zip_code":"8110117"},{"name":"桜山手","zip_code":"8110113"},{"name":"下府","zip_code":"8110112"},{"name":"新宮","zip_code":"8110115"},{"name":"立花口","zip_code":"8110102"},{"name":"中央駅前","zip_code":"8110120"},{"name":"花立花","zip_code":"8110103"},{"name":"原上","zip_code":"8110101"},{"name":"的野","zip_code":"8110104"},{"name":"美咲","zip_code":"8110121"},{"name":"三代","zip_code":"8110111"},{"name":"緑ケ浜","zip_code":"8110119"},{"name":"湊","zip_code":"8110116"},{"name":"湊坂","zip_code":"8110114"},{"name":"杜の宮","zip_code":"8110122"},{"name":"夜臼","zip_code":"8110110"}]},{"name":"糟屋郡久山町","divisions":[{"name":"猪野","zip_code":"8112503"},{"name":"久原","zip_code":"8112501"},{"name":"山田","zip_code":"8112502"}]},{"name":"糟屋郡粕屋町","divisions":[{"name":"阿恵","zip_code":"8112306"},{"name":"内橋７９０の１","zip_code":"8130008"},{"name":"内橋","zip_code":"8112308"},{"name":"江辻","zip_code":"8112313"},{"name":"大隈","zip_code":"8112302"},{"name":"上大隈","zip_code":"8112301"},{"name":"駕与丁","zip_code":"8112309"},{"name":"甲仲原","zip_code":"8112315"},{"name":"酒殿","zip_code":"8112303"},{"name":"長者原","zip_code":"8112311"},{"name":"長者原西","zip_code":"8112316"},{"name":"戸原","zip_code":"8112312"},{"name":"仲原","zip_code":"8112304"},{"name":"花ヶ浦","zip_code":"8112310"},{"name":"原町","zip_code":"8112307"},{"name":"柚須","zip_code":"8112305"},{"name":"若宮","zip_code":"8112314"}]},{"name":"遠賀郡芦屋町","divisions":[{"name":"芦屋","zip_code":"8070133"},{"name":"江川台","zip_code":"8070142"},{"name":"祇園町","zip_code":"8070123"},{"name":"幸町","zip_code":"8070101"},{"name":"白浜町","zip_code":"8070111"},{"name":"正門町","zip_code":"8070112"},{"name":"船頭町","zip_code":"8070121"},{"name":"高浜町","zip_code":"8070122"},{"name":"中ノ浜","zip_code":"8070113"},{"name":"西浜町","zip_code":"8070102"},{"name":"花美坂","zip_code":"8070143"},{"name":"浜口町","zip_code":"8070132"},{"name":"緑ケ丘","zip_code":"8070131"},{"name":"山鹿","zip_code":"8070141"}]},{"name":"遠賀郡水巻町","divisions":[{"name":"伊左座","zip_code":"8070056"},{"name":"猪熊","zip_code":"8070001"},{"name":"梅ノ木団地","zip_code":"8070006"},{"name":"杁","zip_code":"8070031"},{"name":"おかの台","zip_code":"8070003"},{"name":"鯉口","zip_code":"8070047"},{"name":"古賀","zip_code":"8070012"},{"name":"頃末","zip_code":"8070021"},{"name":"頃末北","zip_code":"8070022"},{"name":"頃末南","zip_code":"8070025"},{"name":"下二","zip_code":"8070043"},{"name":"下二東","zip_code":"8070053"},{"name":"下二西","zip_code":"8070052"},{"name":"高尾","zip_code":"8070024"},{"name":"高松","zip_code":"8070005"},{"name":"立屋敷","zip_code":"8070051"},{"name":"中央","zip_code":"8070023"},{"name":"樋口","zip_code":"8070002"},{"name":"樋口東","zip_code":"8070004"},{"name":"二東","zip_code":"8070054"},{"name":"二西","zip_code":"8070055"},{"name":"緑ケ丘","zip_code":"8070011"},{"name":"宮尾台","zip_code":"8070041"},{"name":"美吉野","zip_code":"8070044"},{"name":"牟田","zip_code":"8070007"},{"name":"吉田","zip_code":"8070042"},{"name":"吉田団地","zip_code":"8070042"},{"name":"吉田西","zip_code":"8070046"},{"name":"吉田東","zip_code":"8070045"},{"name":"吉田南","zip_code":"8070048"}]},{"name":"遠賀郡岡垣町","divisions":[{"name":"旭台","zip_code":"8114215"},{"name":"旭南","zip_code":"8114216"},{"name":"内浦","zip_code":"8114203"},{"name":"海老津","zip_code":"8114231"},{"name":"海老津駅前","zip_code":"8114236"},{"name":"海老津駅南","zip_code":"8114238"},{"name":"黒山","zip_code":"8114212"},{"name":"公園通り","zip_code":"8114235"},{"name":"高陽台","zip_code":"8114227"},{"name":"桜台","zip_code":"8114217"},{"name":"上畑","zip_code":"8114232"},{"name":"高倉","zip_code":"8114234"},{"name":"中央台","zip_code":"8114218"},{"name":"手野","zip_code":"8114204"},{"name":"戸切","zip_code":"8114222"},{"name":"鍋田","zip_code":"8114224"},{"name":"糠塚","zip_code":"8114213"},{"name":"野間","zip_code":"8114233"},{"name":"野間南","zip_code":"8114239"},{"name":"波津","zip_code":"8114201"},{"name":"原","zip_code":"8114202"},{"name":"東高陽","zip_code":"8114225"},{"name":"東高倉","zip_code":"8114237"},{"name":"東松原","zip_code":"8114228"},{"name":"東山田","zip_code":"8114220"},{"name":"松ケ台","zip_code":"8114214"},{"name":"南高陽","zip_code":"8114226"},{"name":"三吉","zip_code":"8114205"},{"name":"山田","zip_code":"8114221"},{"name":"山田峠","zip_code":"8114223"},{"name":"百合ケ丘","zip_code":"8114229"},{"name":"吉木","zip_code":"8114211"},{"name":"吉木西","zip_code":"8114242"},{"name":"吉木東","zip_code":"8114241"}]},{"name":"遠賀郡遠賀町","divisions":[{"name":"浅木","zip_code":"8114312"},{"name":"今古賀","zip_code":"8114303"},{"name":"老良","zip_code":"8114311"},{"name":"尾崎","zip_code":"8114342"},{"name":"鬼津","zip_code":"8114341"},{"name":"遠賀川","zip_code":"8114307"},{"name":"上別府","zip_code":"8114332"},{"name":"木守","zip_code":"8114313"},{"name":"旧停","zip_code":"8114306"},{"name":"島津","zip_code":"8114301"},{"name":"島門","zip_code":"8114333"},{"name":"田園","zip_code":"8114343"},{"name":"広渡","zip_code":"8114302"},{"name":"芙蓉","zip_code":"8114322"},{"name":"別府","zip_code":"8114331"},{"name":"松の本","zip_code":"8114305"},{"name":"虫生津","zip_code":"8114321"},{"name":"虫生津南","zip_code":"8114324"},{"name":"蓮角","zip_code":"8114334"},{"name":"若葉台","zip_code":"8114323"},{"name":"若松","zip_code":"8114304"}]},{"name":"鞍手郡小竹町","divisions":[{"name":"赤地","zip_code":"8201102"},{"name":"勝野","zip_code":"8201103"},{"name":"御徳","zip_code":"8201101"},{"name":"新山崎","zip_code":"8201105"},{"name":"南良津","zip_code":"8201106"},{"name":"新多","zip_code":"8201104"}]},{"name":"鞍手郡鞍手町","divisions":[{"name":"猪倉","zip_code":"8071301"},{"name":"小牧","zip_code":"8071311"},{"name":"上木月","zip_code":"8071302"},{"name":"木月","zip_code":"8071303"},{"name":"中山","zip_code":"8071312"},{"name":"永谷","zip_code":"8071304"},{"name":"新北","zip_code":"8071313"},{"name":"新延","zip_code":"8071305"},{"name":"長谷","zip_code":"8071314"},{"name":"古門","zip_code":"8071306"},{"name":"室木","zip_code":"8071307"},{"name":"八尋","zip_code":"8071308"},{"name":"弥生","zip_code":"8071315"}]},{"name":"嘉穂郡桂川町","divisions":[{"name":"内山田","zip_code":"8200601"},{"name":"九郎丸","zip_code":"8200602"},{"name":"寿命","zip_code":"8200603"},{"name":"瀬戸","zip_code":"8200604"},{"name":"中屋","zip_code":"8200605"},{"name":"土居","zip_code":"8200606"},{"name":"土師","zip_code":"8200607"},{"name":"豆田","zip_code":"8200608"},{"name":"吉隈","zip_code":"8200609"}]},{"name":"朝倉郡筑前町","divisions":[{"name":"赤坂","zip_code":"8380222"},{"name":"朝日","zip_code":"8380227"},{"name":"朝園","zip_code":"8380817"},{"name":"大久保","zip_code":"8380825"},{"name":"石櫃","zip_code":"8380225"},{"name":"弥永","zip_code":"8380811"},{"name":"大塚","zip_code":"8380812"},{"name":"上高場","zip_code":"8380821"},{"name":"櫛木","zip_code":"8380201"},{"name":"栗田","zip_code":"8380801"},{"name":"三箇山","zip_code":"8380202"},{"name":"四三嶋","zip_code":"8380212"},{"name":"篠隈","zip_code":"8380215"},{"name":"下高場","zip_code":"8380211"},{"name":"新町","zip_code":"8380816"},{"name":"曽根田","zip_code":"8380206"},{"name":"高田","zip_code":"8380814"},{"name":"高上","zip_code":"8380822"},{"name":"長者町","zip_code":"8380204"},{"name":"当所","zip_code":"8380803"},{"name":"砥上","zip_code":"8380223"},{"name":"中牟田","zip_code":"8380226"},{"name":"野町","zip_code":"8380815"},{"name":"畑嶋","zip_code":"8380203"},{"name":"原地蔵","zip_code":"8380824"},{"name":"東小田","zip_code":"8380214"},{"name":"久光","zip_code":"8380802"},{"name":"吹田","zip_code":"8380221"},{"name":"二","zip_code":"8380228"},{"name":"松延","zip_code":"8380224"},{"name":"三並","zip_code":"8380205"},{"name":"三牟田","zip_code":"8380207"},{"name":"森山","zip_code":"8380804"},{"name":"安野","zip_code":"8380213"},{"name":"山隈","zip_code":"8380823"},{"name":"依井","zip_code":"8380813"}]},{"name":"朝倉郡東峰村","divisions":[{"name":"小石原","zip_code":"8381601"},{"name":"小石原鼓","zip_code":"8381602"},{"name":"福井","zip_code":"8381702"},{"name":"宝珠山","zip_code":"8381701"}]},{"name":"三井郡大刀洗町","divisions":[{"name":"今","zip_code":"8301223"},{"name":"鵜木","zip_code":"8301224"},{"name":"春日","zip_code":"8301213"},{"name":"上高橋","zip_code":"8301222"},{"name":"甲条","zip_code":"8301212"},{"name":"栄田","zip_code":"8301214"},{"name":"下高橋","zip_code":"8301225"},{"name":"菅野","zip_code":"8301202"},{"name":"高樋","zip_code":"8301221"},{"name":"冨多","zip_code":"8301201"},{"name":"中川","zip_code":"8301206"},{"name":"西原","zip_code":"8301204"},{"name":"本郷","zip_code":"8301211"},{"name":"三川","zip_code":"8301203"},{"name":"守部","zip_code":"8301205"},{"name":"山隈","zip_code":"8301226"}]},{"name":"三潴郡大木町","divisions":[{"name":"筏溝","zip_code":"8300425"},{"name":"絵下古賀","zip_code":"8300415"},{"name":"大角","zip_code":"8300403"},{"name":"大藪","zip_code":"8300423"},{"name":"奥牟田","zip_code":"8300421"},{"name":"上木佐木","zip_code":"8300414"},{"name":"上白垣","zip_code":"8300404"},{"name":"上八院","zip_code":"8300417"},{"name":"上牟田口","zip_code":"8300413"},{"name":"笹渕","zip_code":"8300401"},{"name":"侍島","zip_code":"8300412"},{"name":"高橋","zip_code":"8300422"},{"name":"八町牟田","zip_code":"8300416"},{"name":"蛭池","zip_code":"8300411"},{"name":"福土","zip_code":"8300402"},{"name":"前牟田","zip_code":"8300406"},{"name":"三八松","zip_code":"8300424"},{"name":"横溝","zip_code":"8300405"}]},{"name":"八女郡広川町","divisions":[{"name":"一條","zip_code":"8340122"},{"name":"太田","zip_code":"8340114"},{"name":"川上","zip_code":"8340113"},{"name":"小椎尾","zip_code":"8340101"},{"name":"長延","zip_code":"8340105"},{"name":"新代","zip_code":"8340115"},{"name":"久泉","zip_code":"8340112"},{"name":"日吉","zip_code":"8340111"},{"name":"広川","zip_code":"8340121"},{"name":"藤田","zip_code":"8340123"},{"name":"水原","zip_code":"8340102"},{"name":"吉常","zip_code":"8340104"},{"name":"六田","zip_code":"8340103"}]},{"name":"田川郡香春町","divisions":[{"name":"鏡山","zip_code":"8221402"},{"name":"柿下","zip_code":"8221404"},{"name":"香春","zip_code":"8221406"},{"name":"採銅所","zip_code":"8221401"},{"name":"高野","zip_code":"8221403"},{"name":"中津原","zip_code":"8221405"}]},{"name":"田川郡添田町","divisions":[{"name":"落合","zip_code":"8240722"},{"name":"庄","zip_code":"8240601"},{"name":"添田","zip_code":"8240602"},{"name":"中元寺","zip_code":"8240603"},{"name":"津野","zip_code":"8240411"},{"name":"野田","zip_code":"8240604"},{"name":"英彦山","zip_code":"8240721"},{"name":"桝田","zip_code":"8240723"}]},{"name":"田川郡糸田町","divisions":[{"name":"旭ケ丘","zip_code":"8221324"},{"name":"打越","zip_code":"8221313"},{"name":"大熊","zip_code":"8221302"},{"name":"上糸田","zip_code":"8221316"},{"name":"北区","zip_code":"8221311"},{"name":"貴船","zip_code":"8221306"},{"name":"西部","zip_code":"8221322"},{"name":"下糸田","zip_code":"8221312"},{"name":"自由ケ丘","zip_code":"8221304"},{"name":"真岡","zip_code":"8221323"},{"name":"中糸田","zip_code":"8221314"},{"name":"鼡ケ池","zip_code":"8221326"},{"name":"原","zip_code":"8221318"},{"name":"堀川","zip_code":"8221301"},{"name":"南糸田","zip_code":"8221325"},{"name":"宮川一","zip_code":"8221317"},{"name":"宮川二","zip_code":"8221315"},{"name":"宮谷","zip_code":"8221321"},{"name":"宮床","zip_code":"8221307"},{"name":"宮床団地","zip_code":"8221305"},{"name":"桃山","zip_code":"8221303"}]},{"name":"田川郡川崎町","divisions":[{"name":"安眞木","zip_code":"8270001"},{"name":"池尻","zip_code":"8260002"},{"name":"川崎","zip_code":"8270003"},{"name":"田原","zip_code":"8270004"}]},{"name":"田川郡大任町","divisions":[{"name":"今任原","zip_code":"8240511"},{"name":"大行事","zip_code":"8240512"}]},{"name":"田川郡赤村","divisions":[{"name":"赤","zip_code":"8240431"},{"name":"内田","zip_code":"8240432"}]},{"name":"田川郡福智町","divisions":[{"name":"赤池","zip_code":"8221101"},{"name":"上野","zip_code":"8221102"},{"name":"伊方","zip_code":"8221211"},{"name":"市場","zip_code":"8221103"},{"name":"金田","zip_code":"8221201"},{"name":"神崎","zip_code":"8221202"},{"name":"弁城","zip_code":"8221212"}]},{"name":"京都郡苅田町","divisions":[{"name":"集","zip_code":"8000354"},{"name":"雨窪","zip_code":"8000366"},{"name":"新津","zip_code":"8000344"},{"name":"磯浜町","zip_code":"8000313"},{"name":"稲光","zip_code":"8000337"},{"name":"岡崎","zip_code":"8000331"},{"name":"尾倉","zip_code":"8000353"},{"name":"小波瀬","zip_code":"8000345"},{"name":"上片島","zip_code":"8000343"},{"name":"苅田","zip_code":"8000365"},{"name":"京町","zip_code":"8000351"},{"name":"空港南町","zip_code":"8000305"},{"name":"葛川","zip_code":"8000338"},{"name":"黒添","zip_code":"8000333"},{"name":"近衛ケ丘","zip_code":"8000356"},{"name":"幸町","zip_code":"8000314"},{"name":"桜ケ丘","zip_code":"8000357"},{"name":"下新津","zip_code":"8000341"},{"name":"下片島","zip_code":"8000342"},{"name":"神田町","zip_code":"8000361"},{"name":"新浜町","zip_code":"8000321"},{"name":"鋤崎","zip_code":"8000332"},{"name":"谷","zip_code":"8000335"},{"name":"殿川町","zip_code":"8000312"},{"name":"富久町","zip_code":"8000352"},{"name":"鳥越町","zip_code":"8000304"},{"name":"長浜町","zip_code":"8000311"},{"name":"馬場","zip_code":"8000362"},{"name":"浜町","zip_code":"8000324"},{"name":"提","zip_code":"8000364"},{"name":"二崎","zip_code":"8000322"},{"name":"法正寺","zip_code":"8000334"},{"name":"松原町","zip_code":"8000301"},{"name":"松山","zip_code":"8000303"},{"name":"光国","zip_code":"8000363"},{"name":"港町","zip_code":"8000315"},{"name":"南原","zip_code":"8000355"},{"name":"山口","zip_code":"8000336"},{"name":"与原","zip_code":"8000323"},{"name":"若久町","zip_code":"8000302"}]},{"name":"京都郡みやこ町","divisions":[{"name":"呰見","zip_code":"8240102"},{"name":"綾野","zip_code":"8240104"},{"name":"有久","zip_code":"8240106"},{"name":"今里","zip_code":"8240211"},{"name":"勝山池田","zip_code":"8240818"},{"name":"勝山岩熊","zip_code":"8240817"},{"name":"勝山上田","zip_code":"8240821"},{"name":"勝山浦河内","zip_code":"8240814"},{"name":"勝山大久保","zip_code":"8240801"},{"name":"勝山上矢山","zip_code":"8240815"},{"name":"勝山黒田","zip_code":"8240822"},{"name":"勝山長川","zip_code":"8240812"},{"name":"勝山松田","zip_code":"8240802"},{"name":"勝山箕田","zip_code":"8240811"},{"name":"勝山宮原","zip_code":"8240813"},{"name":"勝山矢山","zip_code":"8240816"},{"name":"上坂","zip_code":"8240111"},{"name":"上原","zip_code":"8240112"},{"name":"蔵持","zip_code":"8240207"},{"name":"彦徳","zip_code":"8240122"},{"name":"国作","zip_code":"8240125"},{"name":"国分","zip_code":"8240123"},{"name":"犀川鐙畑","zip_code":"8240214"},{"name":"犀川犬丸","zip_code":"8240242"},{"name":"犀川内垣","zip_code":"8240241"},{"name":"犀川生立","zip_code":"8240215"},{"name":"犀川扇谷","zip_code":"8240254"},{"name":"犀川大熊","zip_code":"8240212"},{"name":"犀川大坂","zip_code":"8240225"},{"name":"犀川大村","zip_code":"8240222"},{"name":"犀川上伊良原","zip_code":"8240252"},{"name":"犀川上高屋","zip_code":"8240202"},{"name":"犀川木井馬場","zip_code":"8240243"},{"name":"犀川喜多良","zip_code":"8240213"},{"name":"犀川木山","zip_code":"8240235"},{"name":"犀川崎山","zip_code":"8240224"},{"name":"犀川下伊良原","zip_code":"8240251"},{"name":"犀川下高屋","zip_code":"8240201"},{"name":"犀川末江","zip_code":"8240204"},{"name":"犀川続命院","zip_code":"8240203"},{"name":"犀川谷口","zip_code":"8240216"},{"name":"犀川花熊","zip_code":"8240233"},{"name":"犀川久冨","zip_code":"8240205"},{"name":"犀川古川","zip_code":"8240217"},{"name":"犀川帆柱","zip_code":"8240253"},{"name":"犀川本庄","zip_code":"8240231"},{"name":"犀川八ツ溝","zip_code":"8240206"},{"name":"犀川柳瀬","zip_code":"8240223"},{"name":"犀川山鹿","zip_code":"8240221"},{"name":"犀川横瀬","zip_code":"8240244"},{"name":"桜台","zip_code":"8240232"},{"name":"下高屋団地","zip_code":"8240234"},{"name":"下原","zip_code":"8240103"},{"name":"節丸","zip_code":"8240114"},{"name":"惣社","zip_code":"8240124"},{"name":"田中","zip_code":"8240107"},{"name":"徳政","zip_code":"8240105"},{"name":"徳永","zip_code":"8240101"},{"name":"豊津","zip_code":"8240121"},{"name":"松坂","zip_code":"8240226"},{"name":"光冨","zip_code":"8240115"},{"name":"吉岡","zip_code":"8240113"}]},{"name":"築上郡吉富町","divisions":[{"name":"今吉","zip_code":"8710822"},{"name":"小犬丸","zip_code":"8710802"},{"name":"小祝","zip_code":"8710801"},{"name":"幸子","zip_code":"8710821"},{"name":"鈴熊","zip_code":"8710832"},{"name":"土屋","zip_code":"8710834"},{"name":"直江","zip_code":"8710831"},{"name":"楡生","zip_code":"8710833"},{"name":"別府","zip_code":"8710823"},{"name":"広津","zip_code":"8710811"}]},{"name":"築上郡上毛町","divisions":[{"name":"安雲","zip_code":"8710904"},{"name":"宇野","zip_code":"8710914"},{"name":"緒方","zip_code":"8710907"},{"name":"上唐原","zip_code":"8710924"},{"name":"尻高","zip_code":"8710905"},{"name":"下唐原","zip_code":"8710923"},{"name":"大ノ瀬","zip_code":"8710902"},{"name":"垂水","zip_code":"8710913"},{"name":"土佐井","zip_code":"8710921"},{"name":"中村","zip_code":"8710911"},{"name":"成恒","zip_code":"8710901"},{"name":"西友枝","zip_code":"8710928"},{"name":"原井","zip_code":"8710226"},{"name":"東上","zip_code":"8710927"},{"name":"東下","zip_code":"8710922"},{"name":"百留","zip_code":"8710925"},{"name":"矢方","zip_code":"8710906"},{"name":"八ツ並","zip_code":"8710903"},{"name":"吉岡","zip_code":"8710912"}]},{"name":"築上郡築上町","divisions":[{"name":"赤幡","zip_code":"8290112"},{"name":"上り松","zip_code":"8290315"},{"name":"有安","zip_code":"8290313"},{"name":"石堂","zip_code":"8290312"},{"name":"櫟原","zip_code":"8290124"},{"name":"岩丸","zip_code":"8290335"},{"name":"上ノ河内","zip_code":"8290314"},{"name":"臼田","zip_code":"8290302"},{"name":"宇留津","zip_code":"8290341"},{"name":"小原","zip_code":"8290304"},{"name":"小山田","zip_code":"8290104"},{"name":"上香楽","zip_code":"8290114"},{"name":"上深野","zip_code":"8290115"},{"name":"上別府","zip_code":"8290105"},{"name":"袈裟丸","zip_code":"8290117"},{"name":"越路","zip_code":"8290332"},{"name":"極楽寺","zip_code":"8290323"},{"name":"坂本","zip_code":"8290321"},{"name":"寒田","zip_code":"8290125"},{"name":"椎田","zip_code":"8290301"},{"name":"下香楽","zip_code":"8290113"},{"name":"下深野","zip_code":"8290116"},{"name":"下別府","zip_code":"8290108"},{"name":"真如寺","zip_code":"8290305"},{"name":"高塚","zip_code":"8290331"},{"name":"築城","zip_code":"8290102"},{"name":"伝法寺","zip_code":"8290122"},{"name":"奈古","zip_code":"8290334"},{"name":"西八田","zip_code":"8290151"},{"name":"東築城","zip_code":"8290101"},{"name":"東八田","zip_code":"8290342"},{"name":"日奈古","zip_code":"8290322"},{"name":"広末","zip_code":"8290103"},{"name":"船迫","zip_code":"8290106"},{"name":"本庄","zip_code":"8290123"},{"name":"松丸","zip_code":"8290121"},{"name":"水原","zip_code":"8290333"},{"name":"湊","zip_code":"8290311"},{"name":"安武","zip_code":"8290111"},{"name":"山本","zip_code":"8290303"},{"name":"弓の師","zip_code":"8290107"}]}]}