{"name":"長崎県","cities":[{"name":"長崎市","divisions":[{"name":"相生町","zip_code":"8500922"},{"name":"相川町","zip_code":"8511122"},{"name":"青山町","zip_code":"8528036"},{"name":"赤首町","zip_code":"8512321"},{"name":"赤迫","zip_code":"8528156"},{"name":"秋月町","zip_code":"8500064"},{"name":"飽の浦町","zip_code":"8500063"},{"name":"曙町","zip_code":"8528008"},{"name":"旭町","zip_code":"8528003"},{"name":"畝刈町","zip_code":"8512212"},{"name":"畦別当町","zip_code":"8528141"},{"name":"畦町","zip_code":"8512201"},{"name":"愛宕","zip_code":"8500822"},{"name":"網場町","zip_code":"8510123"},{"name":"油木町","zip_code":"8528035"},{"name":"油屋町","zip_code":"8500832"},{"name":"家野町","zip_code":"8528136"},{"name":"伊王島町","zip_code":"8511201"},{"name":"飯香浦町","zip_code":"8510254"},{"name":"以下宿町","zip_code":"8510502"},{"name":"池島町","zip_code":"8570071"},{"name":"石神町","zip_code":"8528126"},{"name":"泉","zip_code":"8528151"},{"name":"泉町","zip_code":"8528157"},{"name":"出雲","zip_code":"8500924"},{"name":"伊勢町","zip_code":"8500018"},{"name":"磯道町","zip_code":"8500971"},{"name":"稲佐町","zip_code":"8528011"},{"name":"稲田町","zip_code":"8500907"},{"name":"今博多町","zip_code":"8500025"},{"name":"伊良林","zip_code":"8500802"},{"name":"入船町","zip_code":"8500065"},{"name":"岩川町","zip_code":"8528106"},{"name":"岩瀬道町","zip_code":"8500072"},{"name":"岩見町","zip_code":"8528017"},{"name":"岩屋町","zip_code":"8528052"},{"name":"上田町","zip_code":"8500923"},{"name":"上野町","zip_code":"8528113"},{"name":"魚の町","zip_code":"8500874"},{"name":"現川町","zip_code":"8510135"},{"name":"馬町","zip_code":"8500022"},{"name":"梅香崎町","zip_code":"8500909"},{"name":"上町","zip_code":"8500054"},{"name":"江川町","zip_code":"8500992"},{"name":"江戸町","zip_code":"8500861"},{"name":"江の浦町","zip_code":"8528007"},{"name":"恵美須町","zip_code":"8500056"},{"name":"江平","zip_code":"8528101"},{"name":"エミネント葉山町","zip_code":"8528054"},{"name":"江里町","zip_code":"8528032"},{"name":"扇町","zip_code":"8528132"},{"name":"大井手町","zip_code":"8500024"},{"name":"大浦東町","zip_code":"8500916"},{"name":"大浦町","zip_code":"8500918"},{"name":"大籠町","zip_code":"8510302"},{"name":"大崎町","zip_code":"8510244"},{"name":"大園町","zip_code":"8528062"},{"name":"太田尾町","zip_code":"8510255"},{"name":"大谷町","zip_code":"8500062"},{"name":"大手","zip_code":"8528127"},{"name":"大鳥町","zip_code":"8528005"},{"name":"大橋町","zip_code":"8528134"},{"name":"大浜町","zip_code":"8500066"},{"name":"大宮町","zip_code":"8528056"},{"name":"大山町","zip_code":"8500964"},{"name":"岡町","zip_code":"8528115"},{"name":"桶屋町","zip_code":"8500027"},{"name":"音無町","zip_code":"8528044"},{"name":"尾上町","zip_code":"8500058"},{"name":"御船蔵町","zip_code":"8500042"},{"name":"かき道","zip_code":"8510115"},{"name":"柿泊町","zip_code":"8511134"},{"name":"籠町","zip_code":"8500905"},{"name":"風頭町","zip_code":"8500803"},{"name":"樫山町","zip_code":"8512202"},{"name":"鍛冶屋町","zip_code":"8500831"},{"name":"春日町","zip_code":"8510124"},{"name":"片淵","zip_code":"8500003"},{"name":"勝山町","zip_code":"8500028"},{"name":"金堀町","zip_code":"8528026"},{"name":"金屋町","zip_code":"8500037"},{"name":"鹿尾町","zip_code":"8500973"},{"name":"樺島町","zip_code":"8500034"},{"name":"上浦町","zip_code":"8511131"},{"name":"上大野町","zip_code":"8512426"},{"name":"上黒崎町","zip_code":"8512324"},{"name":"上小島","zip_code":"8500834"},{"name":"上銭座町","zip_code":"8500048"},{"name":"上戸石町","zip_code":"8510111"},{"name":"上戸町","zip_code":"8500953"},{"name":"上西山町","zip_code":"8500006"},{"name":"神ノ島町","zip_code":"8500078"},{"name":"蚊焼町","zip_code":"8510401"},{"name":"川内町","zip_code":"8510112"},{"name":"川上町","zip_code":"8500946"},{"name":"川口町","zip_code":"8528108"},{"name":"川平町","zip_code":"8528143"},{"name":"川原町","zip_code":"8510407"},{"name":"館内町","zip_code":"8500906"},{"name":"北浦町","zip_code":"8510242"},{"name":"木鉢町","zip_code":"8500076"},{"name":"京太郎町","zip_code":"8500974"},{"name":"京泊","zip_code":"8512211"},{"name":"琴海大平町","zip_code":"8513214"},{"name":"琴海尾戸町","zip_code":"8513215"},{"name":"琴海形上町","zip_code":"8513213"},{"name":"琴海戸根原町","zip_code":"8513211"},{"name":"琴海戸根町","zip_code":"8513103"},{"name":"琴海村松町","zip_code":"8513102"},{"name":"銀屋町","zip_code":"8500854"},{"name":"草住町","zip_code":"8500981"},{"name":"黒浜町","zip_code":"8510501"},{"name":"毛井首町","zip_code":"8500976"},{"name":"けやき台町","zip_code":"8528146"},{"name":"麹屋町","zip_code":"8500871"},{"name":"興善町","zip_code":"8500032"},{"name":"神浦江川町","zip_code":"8512403"},{"name":"神浦扇山町","zip_code":"8512411"},{"name":"神浦上大中尾町","zip_code":"8512422"},{"name":"神浦上道徳町","zip_code":"8512424"},{"name":"神浦北大中尾町","zip_code":"8512421"},{"name":"神浦口福町","zip_code":"8512401"},{"name":"神浦下大中尾町","zip_code":"8512423"},{"name":"神浦下道徳町","zip_code":"8512425"},{"name":"神浦夏井町","zip_code":"8512413"},{"name":"神浦丸尾町","zip_code":"8512404"},{"name":"神浦向町","zip_code":"8512405"},{"name":"香焼町","zip_code":"8510310"},{"name":"小浦町","zip_code":"8500067"},{"name":"小江原","zip_code":"8511132"},{"name":"小江町","zip_code":"8511133"},{"name":"小ケ倉町","zip_code":"8500961"},{"name":"古賀町","zip_code":"8510101"},{"name":"国分町","zip_code":"8500951"},{"name":"小菅町","zip_code":"8500934"},{"name":"小瀬戸町","zip_code":"8500077"},{"name":"小曽根町","zip_code":"8500937"},{"name":"五島町","zip_code":"8500036"},{"name":"木場町","zip_code":"8500002"},{"name":"小峰町","zip_code":"8528125"},{"name":"米山町","zip_code":"8500983"},{"name":"幸町","zip_code":"8500046"},{"name":"竿浦町","zip_code":"8500994"},{"name":"界","zip_code":"8510122"},{"name":"栄町","zip_code":"8500875"},{"name":"坂本","zip_code":"8528102"},{"name":"桜木町","zip_code":"8500835"},{"name":"さくらの里","zip_code":"8512207"},{"name":"桜馬場","zip_code":"8500015"},{"name":"桜町","zip_code":"8500031"},{"name":"三京町","zip_code":"8512206"},{"name":"三景台町","zip_code":"8500824"},{"name":"三和町","zip_code":"8500975"},{"name":"椎の木町","zip_code":"8500947"},{"name":"塩浜町","zip_code":"8500071"},{"name":"潮見町","zip_code":"8510125"},{"name":"式見町","zip_code":"8511137"},{"name":"下町","zip_code":"8500917"},{"name":"清水町","zip_code":"8528041"},{"name":"下大野町","zip_code":"8512427"},{"name":"下黒崎町","zip_code":"8512326"},{"name":"下西山町","zip_code":"8500004"},{"name":"十人町","zip_code":"8500908"},{"name":"宿町","zip_code":"8510121"},{"name":"城栄町","zip_code":"8528034"},{"name":"昭和","zip_code":"8528145"},{"name":"白鳥町","zip_code":"8528042"},{"name":"白木町","zip_code":"8500812"},{"name":"城山台","zip_code":"8528027"},{"name":"城山町","zip_code":"8528021"},{"name":"新小が倉","zip_code":"8500962"},{"name":"新大工町","zip_code":"8500017"},{"name":"新地町","zip_code":"8500842"},{"name":"新戸町","zip_code":"8500954"},{"name":"新中川町","zip_code":"8500014"},{"name":"新牧野町","zip_code":"8512323"},{"name":"末石町","zip_code":"8500991"},{"name":"芒塚町","zip_code":"8510126"},{"name":"住吉台町","zip_code":"8528152"},{"name":"住吉町","zip_code":"8528154"},{"name":"諏訪町","zip_code":"8500873"},{"name":"銭座町","zip_code":"8500047"},{"name":"園田町","zip_code":"8511125"},{"name":"大黒町","zip_code":"8500057"},{"name":"ダイヤランド","zip_code":"8500963"},{"name":"多以良町","zip_code":"8512213"},{"name":"高丘","zip_code":"8500941"},{"name":"高尾町","zip_code":"8528111"},{"name":"高島町","zip_code":"8511315"},{"name":"高城台","zip_code":"8510137"},{"name":"高浜町","zip_code":"8510503"},{"name":"高平町","zip_code":"8500821"},{"name":"宝町","zip_code":"8500045"},{"name":"田上","zip_code":"8510251"},{"name":"竹の久保町","zip_code":"8528014"},{"name":"立岩町","zip_code":"8528025"},{"name":"立山","zip_code":"8500007"},{"name":"田手原町","zip_code":"8510252"},{"name":"田中町","zip_code":"8510134"},{"name":"玉園町","zip_code":"8500053"},{"name":"為石町","zip_code":"8510405"},{"name":"筑後町","zip_code":"8500052"},{"name":"千々町","zip_code":"8510245"},{"name":"千歳町","zip_code":"8528135"},{"name":"築町","zip_code":"8500877"},{"name":"辻町","zip_code":"8528124"},{"name":"つつじが丘","zip_code":"8510102"},{"name":"椿が丘町","zip_code":"8510406"},{"name":"鶴の尾町","zip_code":"8510132"},{"name":"鶴見台","zip_code":"8500984"},{"name":"出来大工町","zip_code":"8500023"},{"name":"手熊町","zip_code":"8511135"},{"name":"出島町","zip_code":"8500862"},{"name":"寺町","zip_code":"8500872"},{"name":"天神町","zip_code":"8500044"},{"name":"戸石町","zip_code":"8510113"},{"name":"土井首町","zip_code":"8500977"},{"name":"銅座町","zip_code":"8500841"},{"name":"藤田尾町","zip_code":"8510404"},{"name":"常盤町","zip_code":"8500843"},{"name":"戸町","zip_code":"8500952"},{"name":"長浦町","zip_code":"8513212"},{"name":"中川","zip_code":"8500013"},{"name":"中小島","zip_code":"8500836"},{"name":"中里町","zip_code":"8510103"},{"name":"中新町","zip_code":"8500912"},{"name":"中園町","zip_code":"8528155"},{"name":"永田町","zip_code":"8512325"},{"name":"中町","zip_code":"8500055"},{"name":"浪の平町","zip_code":"8500936"},{"name":"滑石","zip_code":"8528061"},{"name":"鳴滝","zip_code":"8500011"},{"name":"鳴見台","zip_code":"8512215"},{"name":"鳴見町","zip_code":"8512214"},{"name":"南越町","zip_code":"8510504"},{"name":"賑町","zip_code":"8500876"},{"name":"西海町","zip_code":"8513101"},{"name":"虹が丘町","zip_code":"8528055"},{"name":"西北町","zip_code":"8528051"},{"name":"錦","zip_code":"8528045"},{"name":"西小島","zip_code":"8500837"},{"name":"西琴平町","zip_code":"8500933"},{"name":"西坂町","zip_code":"8500051"},{"name":"西出津町","zip_code":"8512322"},{"name":"西立神町","zip_code":"8500074"},{"name":"西泊町","zip_code":"8500075"},{"name":"西町","zip_code":"8528043"},{"name":"西山","zip_code":"8500001"},{"name":"西山台","zip_code":"8528122"},{"name":"西山本町","zip_code":"8500005"},{"name":"布巻町","zip_code":"8510403"},{"name":"野母崎樺島町","zip_code":"8510507"},{"name":"野母町","zip_code":"8510505"},{"name":"橋口町","zip_code":"8528114"},{"name":"八郎岳町","zip_code":"8500993"},{"name":"八景町","zip_code":"8500944"},{"name":"花丘町","zip_code":"8528153"},{"name":"花園町","zip_code":"8528024"},{"name":"浜口町","zip_code":"8528107"},{"name":"浜平","zip_code":"8500041"},{"name":"浜町","zip_code":"8500853"},{"name":"早坂町","zip_code":"8510253"},{"name":"葉山","zip_code":"8528053"},{"name":"春木町","zip_code":"8528015"},{"name":"晴海台町","zip_code":"8510402"},{"name":"光町","zip_code":"8528001"},{"name":"東小島町","zip_code":"8500833"},{"name":"東琴平","zip_code":"8500932"},{"name":"東出津町","zip_code":"8512327"},{"name":"東立神町","zip_code":"8500073"},{"name":"東古川町","zip_code":"8500855"},{"name":"東町","zip_code":"8510116"},{"name":"東山手町","zip_code":"8500911"},{"name":"東山町","zip_code":"8500915"},{"name":"彦見町","zip_code":"8500804"},{"name":"日の出町","zip_code":"8500914"},{"name":"平瀬町","zip_code":"8500985"},{"name":"平戸小屋町","zip_code":"8528006"},{"name":"平野町","zip_code":"8528117"},{"name":"平間町","zip_code":"8510136"},{"name":"平山台","zip_code":"8500996"},{"name":"平山町","zip_code":"8500995"},{"name":"夫婦川町","zip_code":"8500016"},{"name":"深堀町","zip_code":"8510301"},{"name":"福田本町","zip_code":"8500068"},{"name":"富士見町","zip_code":"8528022"},{"name":"淵町","zip_code":"8528012"},{"name":"船石町","zip_code":"8510104"},{"name":"船大工町","zip_code":"8500904"},{"name":"古川町","zip_code":"8500851"},{"name":"古河町","zip_code":"8500935"},{"name":"古町","zip_code":"8500026"},{"name":"古道町","zip_code":"8500972"},{"name":"文教町","zip_code":"8528131"},{"name":"平和町","zip_code":"8528116"},{"name":"弁天町","zip_code":"8528002"},{"name":"宝栄町","zip_code":"8528016"},{"name":"豊洋台","zip_code":"8512216"},{"name":"北栄町","zip_code":"8528063"},{"name":"北陽町","zip_code":"8528064"},{"name":"星取","zip_code":"8500945"},{"name":"本河内","zip_code":"8500012"},{"name":"牧島町","zip_code":"8510114"},{"name":"牧野町","zip_code":"8511124"},{"name":"松が枝町","zip_code":"8500921"},{"name":"松崎町","zip_code":"8512205"},{"name":"松原町","zip_code":"8510131"},{"name":"松山町","zip_code":"8528118"},{"name":"丸尾町","zip_code":"8528004"},{"name":"丸山町","zip_code":"8500902"},{"name":"万才町","zip_code":"8500033"},{"name":"三重田町","zip_code":"8512203"},{"name":"三重町","zip_code":"8512204"},{"name":"三川町","zip_code":"8528121"},{"name":"見崎町","zip_code":"8511121"},{"name":"水の浦町","zip_code":"8500061"},{"name":"三ツ山町","zip_code":"8528142"},{"name":"緑が丘町","zip_code":"8528033"},{"name":"緑町","zip_code":"8528103"},{"name":"みなと坂","zip_code":"8500079"},{"name":"南が丘町","zip_code":"8500943"},{"name":"南町","zip_code":"8500942"},{"name":"南山手町","zip_code":"8500931"},{"name":"三原","zip_code":"8528123"},{"name":"宮崎町","zip_code":"8510408"},{"name":"宮摺町","zip_code":"8510243"},{"name":"三芳町","zip_code":"8528031"},{"name":"向町","zip_code":"8511136"},{"name":"目覚町","zip_code":"8528105"},{"name":"女の都","zip_code":"8528144"},{"name":"茂木町","zip_code":"8510241"},{"name":"本尾町","zip_code":"8528112"},{"name":"本石灰町","zip_code":"8500901"},{"name":"本原町","zip_code":"8528133"},{"name":"元船町","zip_code":"8500035"},{"name":"元町","zip_code":"8500913"},{"name":"茂里町","zip_code":"8528104"},{"name":"八百屋町","zip_code":"8500029"},{"name":"矢上町","zip_code":"8510133"},{"name":"八千代町","zip_code":"8500043"},{"name":"八つ尾町","zip_code":"8500813"},{"name":"梁川町","zip_code":"8528013"},{"name":"柳谷町","zip_code":"8528046"},{"name":"柳田町","zip_code":"8500982"},{"name":"矢の平","zip_code":"8500811"},{"name":"八幡町","zip_code":"8500801"},{"name":"弥生町","zip_code":"8500823"},{"name":"横尾","zip_code":"8528065"},{"name":"四杖町","zip_code":"8511123"},{"name":"寄合町","zip_code":"8500903"},{"name":"万屋町","zip_code":"8500852"},{"name":"炉粕町","zip_code":"8500021"},{"name":"若草町","zip_code":"8528023"},{"name":"若竹町","zip_code":"8528047"},{"name":"若葉町","zip_code":"8528137"},{"name":"脇岬町","zip_code":"8510506"}]},{"name":"佐世保市","divisions":[{"name":"相生町","zip_code":"8570044"},{"name":"相浦町","zip_code":"8580918"},{"name":"赤木町","zip_code":"8570013"},{"name":"赤崎町","zip_code":"8570064"},{"name":"浅子町","zip_code":"8570431"},{"name":"愛宕町","zip_code":"8580917"},{"name":"有福町","zip_code":"8593241"},{"name":"庵浦町","zip_code":"8571233"},{"name":"石坂町","zip_code":"8570037"},{"name":"泉町","zip_code":"8570057"},{"name":"稲荷町","zip_code":"8570851"},{"name":"今福町","zip_code":"8570061"},{"name":"宇久町飯良","zip_code":"8574813"},{"name":"宇久町大久保","zip_code":"8574815"},{"name":"宇久町太田江","zip_code":"8574903"},{"name":"宇久町小浜","zip_code":"8574812"},{"name":"宇久町神浦","zip_code":"8574811"},{"name":"宇久町木場","zip_code":"8574904"},{"name":"宇久町平","zip_code":"8574901"},{"name":"宇久町寺島","zip_code":"8574816"},{"name":"宇久町野方","zip_code":"8574902"},{"name":"宇久町本飯良","zip_code":"8574814"},{"name":"鵜渡越町","zip_code":"8570069"},{"name":"梅田町","zip_code":"8570017"},{"name":"浦川内町","zip_code":"8593225"},{"name":"上原町","zip_code":"8593202"},{"name":"上町","zip_code":"8570058"},{"name":"江上町","zip_code":"8593244"},{"name":"江永町","zip_code":"8593165"},{"name":"烏帽子町","zip_code":"8570001"},{"name":"江迎町赤坂","zip_code":"8596131"},{"name":"江迎町飯良坂","zip_code":"8596111"},{"name":"江迎町猪調","zip_code":"8596133"},{"name":"江迎町埋立","zip_code":"8596103"},{"name":"江迎町箙尾","zip_code":"8596114"},{"name":"江迎町奥川内","zip_code":"8596121"},{"name":"江迎町梶ノ村","zip_code":"8596105"},{"name":"江迎町上川内","zip_code":"8596102"},{"name":"江迎町北田","zip_code":"8596106"},{"name":"江迎町北平","zip_code":"8596126"},{"name":"江迎町栗越","zip_code":"8596113"},{"name":"江迎町小川内","zip_code":"8596123"},{"name":"江迎町志戸氏","zip_code":"8596132"},{"name":"江迎町末橘","zip_code":"8596104"},{"name":"江迎町田ノ元","zip_code":"8596134"},{"name":"江迎町中尾","zip_code":"8596115"},{"name":"江迎町長坂","zip_code":"8596101"},{"name":"江迎町七腕","zip_code":"8596122"},{"name":"江迎町根引","zip_code":"8596112"},{"name":"江迎町三浦","zip_code":"8596125"},{"name":"江迎町乱橋","zip_code":"8596124"},{"name":"大潟町","zip_code":"8580926"},{"name":"大岳台町","zip_code":"8571163"},{"name":"大野町","zip_code":"8570131"},{"name":"大宮町","zip_code":"8570841"},{"name":"小川内町","zip_code":"8570146"},{"name":"沖新町","zip_code":"8571171"},{"name":"奥山町","zip_code":"8593233"},{"name":"踊石町","zip_code":"8580902"},{"name":"小野町","zip_code":"8570065"},{"name":"折橋町","zip_code":"8570021"},{"name":"卸本町","zip_code":"8571162"},{"name":"皆瀬町","zip_code":"8570144"},{"name":"鹿子前町","zip_code":"8580922"},{"name":"春日町","zip_code":"8570011"},{"name":"勝海町","zip_code":"8593216"},{"name":"勝富町","zip_code":"8570803"},{"name":"上相浦町","zip_code":"8580915"},{"name":"上京町","zip_code":"8570872"},{"name":"神島町","zip_code":"8570067"},{"name":"上本山町","zip_code":"8580903"},{"name":"上柚木町","zip_code":"8570126"},{"name":"川下町","zip_code":"8580914"},{"name":"川谷町","zip_code":"8570123"},{"name":"祗園町","zip_code":"8570801"},{"name":"木風町","zip_code":"8571166"},{"name":"木宮町","zip_code":"8580916"},{"name":"木原町","zip_code":"8593166"},{"name":"京坪町","zip_code":"8570874"},{"name":"潜木町","zip_code":"8570121"},{"name":"楠木町","zip_code":"8570104"},{"name":"口の尾町","zip_code":"8593161"},{"name":"熊野町","zip_code":"8570025"},{"name":"黒髪町","zip_code":"8571152"},{"name":"黒島町","zip_code":"8573271"},{"name":"桑木場町","zip_code":"8593157"},{"name":"光月町","zip_code":"8570805"},{"name":"高天町","zip_code":"8570802"},{"name":"心野町","zip_code":"8593164"},{"name":"小佐々町臼ノ浦","zip_code":"8570403"},{"name":"小佐々町楠泊","zip_code":"8570413"},{"name":"小佐々町黒石","zip_code":"8570401"},{"name":"小佐々町小坂","zip_code":"8570402"},{"name":"小佐々町岳ノ木場","zip_code":"8570411"},{"name":"小佐々町田原","zip_code":"8570404"},{"name":"小佐々町葛籠","zip_code":"8570405"},{"name":"小佐々町西川内","zip_code":"8570412"},{"name":"小佐々町平原","zip_code":"8570406"},{"name":"小佐々町矢岳","zip_code":"8570414"},{"name":"小佐世保町","zip_code":"8570813"},{"name":"小島町","zip_code":"8570066"},{"name":"木場田町","zip_code":"8570041"},{"name":"小舟町","zip_code":"8570114"},{"name":"菰田町","zip_code":"8570106"},{"name":"権常寺","zip_code":"8593214"},{"name":"権常寺町","zip_code":"8593213"},{"name":"金比良町","zip_code":"8570062"},{"name":"栄町","zip_code":"8570054"},{"name":"崎岡町","zip_code":"8593226"},{"name":"崎辺町","zip_code":"8571176"},{"name":"桜木町","zip_code":"8570012"},{"name":"指方町","zip_code":"8593242"},{"name":"里美町","zip_code":"8570122"},{"name":"早苗町","zip_code":"8593211"},{"name":"椎木町","zip_code":"8580925"},{"name":"塩浜町","zip_code":"8570876"},{"name":"塩浸町","zip_code":"8593154"},{"name":"潮見町","zip_code":"8570834"},{"name":"鹿町町大屋","zip_code":"8596201"},{"name":"鹿町町上歌ヶ浦","zip_code":"8596202"},{"name":"鹿町町口ノ里","zip_code":"8596203"},{"name":"鹿町町鹿町","zip_code":"8596144"},{"name":"鹿町町下歌ヶ浦","zip_code":"8596204"},{"name":"鹿町町新深江","zip_code":"8596141"},{"name":"鹿町町土肥ノ浦","zip_code":"8596145"},{"name":"鹿町町中野","zip_code":"8596205"},{"name":"鹿町町長串","zip_code":"8596206"},{"name":"鹿町町深江","zip_code":"8596142"},{"name":"鹿町町深江潟","zip_code":"8596143"},{"name":"鹿町町船ノ村","zip_code":"8596207"},{"name":"重尾町","zip_code":"8593224"},{"name":"島瀬町","zip_code":"8570806"},{"name":"島地町","zip_code":"8570879"},{"name":"清水町","zip_code":"8570036"},{"name":"下宇戸町","zip_code":"8570113"},{"name":"下京町","zip_code":"8570875"},{"name":"下の原町","zip_code":"8593156"},{"name":"下船越町","zip_code":"8571232"},{"name":"下本山町","zip_code":"8580905"},{"name":"十郎新町","zip_code":"8571173"},{"name":"城間町","zip_code":"8593237"},{"name":"白木町","zip_code":"8570821"},{"name":"白岳町","zip_code":"8571164"},{"name":"白仁田町","zip_code":"8570105"},{"name":"白南風町","zip_code":"8570862"},{"name":"城山町","zip_code":"8570033"},{"name":"新替町","zip_code":"8593158"},{"name":"新行江町","zip_code":"8593152"},{"name":"新田町","zip_code":"8580913"},{"name":"陣の内町","zip_code":"8593203"},{"name":"新港町","zip_code":"8570855"},{"name":"須佐町","zip_code":"8570812"},{"name":"須田尾町","zip_code":"8570831"},{"name":"星和台町","zip_code":"8580924"},{"name":"世知原町赤木場","zip_code":"8596401"},{"name":"世知原町岩谷口","zip_code":"8596402"},{"name":"世知原町上野原","zip_code":"8596403"},{"name":"世知原町太田","zip_code":"8596404"},{"name":"世知原町開作","zip_code":"8596405"},{"name":"世知原町木浦原","zip_code":"8596406"},{"name":"世知原町北川内","zip_code":"8596407"},{"name":"世知原町栗迎","zip_code":"8596408"},{"name":"世知原町長田代","zip_code":"8596411"},{"name":"世知原町中通","zip_code":"8596409"},{"name":"世知原町西ノ岳","zip_code":"8596412"},{"name":"世知原町笥瀬","zip_code":"8596413"},{"name":"世知原町矢櫃","zip_code":"8596414"},{"name":"世知原町槍巻","zip_code":"8596415"},{"name":"瀬道町","zip_code":"8593231"},{"name":"瀬戸越","zip_code":"8570134"},{"name":"瀬戸越町","zip_code":"8570135"},{"name":"園田町","zip_code":"8570045"},{"name":"大黒町","zip_code":"8570843"},{"name":"大塔町","zip_code":"8571161"},{"name":"高砂町","zip_code":"8570042"},{"name":"高島町","zip_code":"8580931"},{"name":"高梨町","zip_code":"8570811"},{"name":"高花町","zip_code":"8570125"},{"name":"岳野町","zip_code":"8580901"},{"name":"竹辺町","zip_code":"8580911"},{"name":"田代町","zip_code":"8570014"},{"name":"立神町","zip_code":"8570063"},{"name":"棚方町","zip_code":"8580907"},{"name":"谷郷町","zip_code":"8570027"},{"name":"田の浦町","zip_code":"8593205"},{"name":"田原町","zip_code":"8570136"},{"name":"俵ケ浦町","zip_code":"8571235"},{"name":"俵町","zip_code":"8570016"},{"name":"知見寺町","zip_code":"8570101"},{"name":"筒井町","zip_code":"8570111"},{"name":"天神","zip_code":"8571174"},{"name":"天神町","zip_code":"8571175"},{"name":"天満町","zip_code":"8570043"},{"name":"戸ケ倉町","zip_code":"8570124"},{"name":"常盤町","zip_code":"8570053"},{"name":"戸尾町","zip_code":"8570864"},{"name":"十文野町","zip_code":"8570141"},{"name":"長尾町","zip_code":"8570046"},{"name":"長坂町","zip_code":"8580921"},{"name":"中里町","zip_code":"8580904"},{"name":"中通町","zip_code":"8570038"},{"name":"長畑町","zip_code":"8593234"},{"name":"中原町","zip_code":"8593221"},{"name":"名切町","zip_code":"8570023"},{"name":"西大久保町","zip_code":"8570048"},{"name":"野崎町","zip_code":"8571234"},{"name":"野中町","zip_code":"8570142"},{"name":"早岐","zip_code":"8593215"},{"name":"ハウステンボス町","zip_code":"8593243"},{"name":"南風崎町","zip_code":"8593236"},{"name":"萩坂町","zip_code":"8593232"},{"name":"八の久保町","zip_code":"8580906"},{"name":"八幡町","zip_code":"8570028"},{"name":"花園町","zip_code":"8570024"},{"name":"花高","zip_code":"8593212"},{"name":"浜田町","zip_code":"8570051"},{"name":"針尾北町","zip_code":"8593454"},{"name":"針尾中町","zip_code":"8593452"},{"name":"針尾西町","zip_code":"8593453"},{"name":"針尾東町","zip_code":"8593451"},{"name":"原分町","zip_code":"8570103"},{"name":"日宇町","zip_code":"8571151"},{"name":"東大久保町","zip_code":"8570049"},{"name":"東浜町","zip_code":"8571172"},{"name":"東山町","zip_code":"8570842"},{"name":"光町","zip_code":"8580908"},{"name":"干尽町","zip_code":"8570852"},{"name":"日野町","zip_code":"8580923"},{"name":"平瀬町","zip_code":"8570056"},{"name":"比良町","zip_code":"8570040"},{"name":"平松町","zip_code":"8593201"},{"name":"広田","zip_code":"8593223"},{"name":"広田町","zip_code":"8593222"},{"name":"福石町","zip_code":"8570854"},{"name":"福田町","zip_code":"8570035"},{"name":"藤原町","zip_code":"8570832"},{"name":"船越町","zip_code":"8571231"},{"name":"母ケ浦町","zip_code":"8580912"},{"name":"保立町","zip_code":"8570031"},{"name":"前畑町","zip_code":"8570853"},{"name":"牧の地町","zip_code":"8570145"},{"name":"松浦町","zip_code":"8570052"},{"name":"松川町","zip_code":"8570804"},{"name":"松瀬町","zip_code":"8570102"},{"name":"松原町","zip_code":"8570132"},{"name":"松山町","zip_code":"8570015"},{"name":"万徳町","zip_code":"8570034"},{"name":"三浦町","zip_code":"8570863"},{"name":"三川内新町","zip_code":"8593153"},{"name":"三川内町","zip_code":"8593155"},{"name":"三川内本町","zip_code":"8593151"},{"name":"湊町","zip_code":"8570055"},{"name":"峰坂町","zip_code":"8570861"},{"name":"御船町","zip_code":"8570068"},{"name":"宮崎町","zip_code":"8570873"},{"name":"宮地町","zip_code":"8570026"},{"name":"宮田町","zip_code":"8570032"},{"name":"宮津町","zip_code":"8593235"},{"name":"本島町","zip_code":"8570871"},{"name":"元町","zip_code":"8570059"},{"name":"もみじが丘町","zip_code":"8571153"},{"name":"矢岳町","zip_code":"8570047"},{"name":"山県町","zip_code":"8570878"},{"name":"山祗町","zip_code":"8570822"},{"name":"山手町","zip_code":"8570022"},{"name":"大和町","zip_code":"8571165"},{"name":"矢峰町","zip_code":"8570133"},{"name":"柚木町","zip_code":"8570112"},{"name":"柚木元町","zip_code":"8570115"},{"name":"横尾町","zip_code":"8570018"},{"name":"横手町","zip_code":"8593163"},{"name":"吉井町板樋","zip_code":"8596303"},{"name":"吉井町大渡","zip_code":"8596325"},{"name":"吉井町乙石尾","zip_code":"8596316"},{"name":"吉井町踊瀬","zip_code":"8596322"},{"name":"吉井町梶木場","zip_code":"8596304"},{"name":"吉井町上吉田","zip_code":"8596313"},{"name":"吉井町下原","zip_code":"8596315"},{"name":"吉井町草ノ尾","zip_code":"8596301"},{"name":"吉井町高峰","zip_code":"8596317"},{"name":"吉井町立石","zip_code":"8596326"},{"name":"吉井町田原","zip_code":"8596314"},{"name":"吉井町直谷","zip_code":"8596305"},{"name":"吉井町橋川内","zip_code":"8596311"},{"name":"吉井町橋口","zip_code":"8596312"},{"name":"吉井町春明","zip_code":"8596323"},{"name":"吉井町福井","zip_code":"8596302"},{"name":"吉井町前岳","zip_code":"8596321"},{"name":"吉井町吉元","zip_code":"8596324"},{"name":"吉岡町","zip_code":"8570143"},{"name":"吉福町","zip_code":"8593162"},{"name":"万津町","zip_code":"8570877"},{"name":"若竹台町","zip_code":"8593204"},{"name":"若葉町","zip_code":"8570833"}]},{"name":"島原市","divisions":[{"name":"青葉町","zip_code":"8550855"},{"name":"油堀町","zip_code":"8550021"},{"name":"洗切町","zip_code":"8550002"},{"name":"有明町大三東乙","zip_code":"8591412"},{"name":"有明町大三東甲","zip_code":"8591411"},{"name":"有明町大三東丁","zip_code":"8591414"},{"name":"有明町大三東丙","zip_code":"8591413"},{"name":"有明町大三東戊","zip_code":"8591415"},{"name":"有明町湯江乙","zip_code":"8591402"},{"name":"有明町湯江甲","zip_code":"8591401"},{"name":"有明町湯江丁","zip_code":"8591404"},{"name":"有明町湯江丙","zip_code":"8591403"},{"name":"有馬船津町","zip_code":"8550813"},{"name":"出の川町","zip_code":"8550023"},{"name":"出平町","zip_code":"8550015"},{"name":"今川町","zip_code":"8550046"},{"name":"上の原","zip_code":"8550853"},{"name":"上の町","zip_code":"8550045"},{"name":"宇土町","zip_code":"8550071"},{"name":"梅園町","zip_code":"8550872"},{"name":"浦田","zip_code":"8550817"},{"name":"浦の川","zip_code":"8550056"},{"name":"上新丁","zip_code":"8550067"},{"name":"江戸丁","zip_code":"8550059"},{"name":"蛭子町","zip_code":"8550816"},{"name":"江里町","zip_code":"8550017"},{"name":"大下町","zip_code":"8550878"},{"name":"大手原町","zip_code":"8550012"},{"name":"御手水町","zip_code":"8550011"},{"name":"柿の木町","zip_code":"8550066"},{"name":"柏野町","zip_code":"8550064"},{"name":"片町","zip_code":"8550042"},{"name":"門内町","zip_code":"8550881"},{"name":"鎌田町","zip_code":"8550874"},{"name":"上折橋町","zip_code":"8550076"},{"name":"加美町","zip_code":"8550808"},{"name":"亀の甲町","zip_code":"8550004"},{"name":"北安徳町","zip_code":"8550873"},{"name":"北上木場町","zip_code":"8550886"},{"name":"北千本木町","zip_code":"8550078"},{"name":"北原町","zip_code":"8550058"},{"name":"北門町","zip_code":"8550032"},{"name":"崩山町","zip_code":"8550841"},{"name":"礫石原町","zip_code":"8550026"},{"name":"湖南町","zip_code":"8550836"},{"name":"小山町","zip_code":"8550856"},{"name":"坂上町","zip_code":"8550832"},{"name":"栄町","zip_code":"8550842"},{"name":"坂下町","zip_code":"8550833"},{"name":"先魁町","zip_code":"8550035"},{"name":"桜町","zip_code":"8550809"},{"name":"桜門町","zip_code":"8550051"},{"name":"寺中町","zip_code":"8550006"},{"name":"下新丁","zip_code":"8550055"},{"name":"下の丁","zip_code":"8550052"},{"name":"下折橋町","zip_code":"8550075"},{"name":"下川尻町","zip_code":"8550861"},{"name":"下宮町","zip_code":"8550014"},{"name":"城西中の丁","zip_code":"8550053"},{"name":"城内","zip_code":"8550036"},{"name":"白谷町","zip_code":"8550885"},{"name":"白土町","zip_code":"8550807"},{"name":"白土桃山","zip_code":"8550811"},{"name":"城見町","zip_code":"8550074"},{"name":"新建","zip_code":"8550057"},{"name":"新田町","zip_code":"8550043"},{"name":"新馬場町","zip_code":"8550033"},{"name":"新町","zip_code":"8550803"},{"name":"新湊","zip_code":"8550862"},{"name":"新山","zip_code":"8550843"},{"name":"親和町","zip_code":"8550863"},{"name":"杉山町","zip_code":"8550068"},{"name":"高島","zip_code":"8550801"},{"name":"立野町","zip_code":"8550025"},{"name":"田町","zip_code":"8550034"},{"name":"秩父が浦町","zip_code":"8550864"},{"name":"津吹町","zip_code":"8550007"},{"name":"津町","zip_code":"8550814"},{"name":"寺町","zip_code":"8550852"},{"name":"天神元町","zip_code":"8550883"},{"name":"中安徳町","zip_code":"8550875"},{"name":"中尾町","zip_code":"8550061"},{"name":"中組町","zip_code":"8550822"},{"name":"中野町","zip_code":"8550001"},{"name":"中原町","zip_code":"8550005"},{"name":"中堀町","zip_code":"8550806"},{"name":"中町","zip_code":"8550044"},{"name":"長貫町","zip_code":"8550022"},{"name":"西町","zip_code":"8550018"},{"name":"西八幡町","zip_code":"8550835"},{"name":"仁田町","zip_code":"8550884"},{"name":"萩が丘","zip_code":"8550854"},{"name":"萩原","zip_code":"8550851"},{"name":"白山町","zip_code":"8550824"},{"name":"浜の町","zip_code":"8550877"},{"name":"原口町","zip_code":"8550008"},{"name":"原町","zip_code":"8550063"},{"name":"稗田町","zip_code":"8550013"},{"name":"広高野町","zip_code":"8550024"},{"name":"広馬場町","zip_code":"8550825"},{"name":"札の元町","zip_code":"8550882"},{"name":"船泊町","zip_code":"8550865"},{"name":"古丁","zip_code":"8550054"},{"name":"平成町","zip_code":"8550879"},{"name":"弁天町","zip_code":"8550802"},{"name":"堀町","zip_code":"8550805"},{"name":"本光寺町","zip_code":"8550073"},{"name":"本町","zip_code":"8550062"},{"name":"前浜町","zip_code":"8550031"},{"name":"三会町","zip_code":"8550003"},{"name":"緑町","zip_code":"8550867"},{"name":"湊新地町","zip_code":"8550821"},{"name":"湊町","zip_code":"8550823"},{"name":"湊道","zip_code":"8550831"},{"name":"南安徳町","zip_code":"8550876"},{"name":"南柏野町","zip_code":"8550065"},{"name":"南上木場町","zip_code":"8550887"},{"name":"南崩山町","zip_code":"8550871"},{"name":"南下川尻町","zip_code":"8550866"},{"name":"南千本木町","zip_code":"8550077"},{"name":"宮の町","zip_code":"8550041"},{"name":"六ツ木町","zip_code":"8550072"},{"name":"元船津町","zip_code":"8550815"},{"name":"八幡町","zip_code":"8550834"},{"name":"山寺町","zip_code":"8550016"},{"name":"万町","zip_code":"8550804"},{"name":"霊南","zip_code":"8550812"}]},{"name":"諫早市","divisions":[{"name":"青葉台","zip_code":"8540068"},{"name":"赤崎町","zip_code":"8540032"},{"name":"旭町","zip_code":"8540027"},{"name":"小豆崎町","zip_code":"8590311"},{"name":"飯盛町池下","zip_code":"8541125"},{"name":"飯盛町上原","zip_code":"8541104"},{"name":"飯盛町後田","zip_code":"8541105"},{"name":"飯盛町川下","zip_code":"8541124"},{"name":"飯盛町久保","zip_code":"8541114"},{"name":"飯盛町古場","zip_code":"8541121"},{"name":"飯盛町佐田","zip_code":"8541122"},{"name":"飯盛町里","zip_code":"8541123"},{"name":"飯盛町下釜","zip_code":"8541113"},{"name":"飯盛町中山","zip_code":"8541103"},{"name":"飯盛町野中","zip_code":"8541101"},{"name":"飯盛町開","zip_code":"8541112"},{"name":"飯盛町平古場","zip_code":"8541111"},{"name":"飯盛町山口","zip_code":"8541102"},{"name":"泉町","zip_code":"8540003"},{"name":"上野町","zip_code":"8540042"},{"name":"有喜町","zip_code":"8540121"},{"name":"宇都町","zip_code":"8540061"},{"name":"永昌東町","zip_code":"8540071"},{"name":"永昌町","zip_code":"8540072"},{"name":"栄田町","zip_code":"8540081"},{"name":"大さこ町","zip_code":"8540087"},{"name":"大場町","zip_code":"8590315"},{"name":"小川町","zip_code":"8540053"},{"name":"御手水町","zip_code":"8590314"},{"name":"小野島町","zip_code":"8540031"},{"name":"小野町","zip_code":"8540034"},{"name":"小船越町","zip_code":"8540062"},{"name":"貝津ヶ丘","zip_code":"8540069"},{"name":"貝津町","zip_code":"8540063"},{"name":"金谷町","zip_code":"8540004"},{"name":"上大渡野町","zip_code":"8540095"},{"name":"上町","zip_code":"8540024"},{"name":"川内町","zip_code":"8540037"},{"name":"川床町","zip_code":"8540052"},{"name":"久山台","zip_code":"8540067"},{"name":"久山町","zip_code":"8540066"},{"name":"栗面町","zip_code":"8540055"},{"name":"黒崎町","zip_code":"8540033"},{"name":"厚生町","zip_code":"8540023"},{"name":"高天町","zip_code":"8590303"},{"name":"小ケ倉町","zip_code":"8540054"},{"name":"小長井町井崎","zip_code":"8590166"},{"name":"小長井町打越","zip_code":"8590151"},{"name":"小長井町大搦","zip_code":"8590152"},{"name":"小長井町大峰","zip_code":"8590153"},{"name":"小長井町小川原浦","zip_code":"8590165"},{"name":"小長井町川内","zip_code":"8590154"},{"name":"小長井町古場","zip_code":"8590161"},{"name":"小長井町新田原","zip_code":"8590162"},{"name":"小長井町田原","zip_code":"8590163"},{"name":"小長井町遠竹","zip_code":"8590167"},{"name":"小長井町牧","zip_code":"8590164"},{"name":"幸町","zip_code":"8540022"},{"name":"栄町","zip_code":"8540013"},{"name":"猿崎町","zip_code":"8590305"},{"name":"下大渡野町","zip_code":"8540096"},{"name":"正久寺町","zip_code":"8590302"},{"name":"白岩町","zip_code":"8540077"},{"name":"白木峰町","zip_code":"8590307"},{"name":"白浜町","zip_code":"8590304"},{"name":"白原町","zip_code":"8590306"},{"name":"城見町","zip_code":"8540005"},{"name":"新道町","zip_code":"8540045"},{"name":"高来町泉","zip_code":"8590121"},{"name":"高来町上与","zip_code":"8590111"},{"name":"高来町小江干拓","zip_code":"8590171"},{"name":"高来町大戸","zip_code":"8590101"},{"name":"高来町折山","zip_code":"8590102"},{"name":"高来町金崎","zip_code":"8590146"},{"name":"高来町汲水","zip_code":"8590141"},{"name":"高来町黒崎","zip_code":"8590122"},{"name":"高来町黒新田","zip_code":"8590142"},{"name":"高来町神津倉","zip_code":"8590131"},{"name":"高来町古場","zip_code":"8590103"},{"name":"高来町小船津","zip_code":"8590112"},{"name":"高来町小峰","zip_code":"8590123"},{"name":"高来町坂元","zip_code":"8590143"},{"name":"高来町里","zip_code":"8590124"},{"name":"高来町三部壱","zip_code":"8590132"},{"name":"高来町下与","zip_code":"8590113"},{"name":"高来町善住寺","zip_code":"8590125"},{"name":"高来町建山","zip_code":"8590104"},{"name":"高来町西尾","zip_code":"8590115"},{"name":"高来町西平原","zip_code":"8590114"},{"name":"高来町法川","zip_code":"8590126"},{"name":"高来町東平原","zip_code":"8590133"},{"name":"高来町平田","zip_code":"8590116"},{"name":"高来町冨地戸","zip_code":"8590106"},{"name":"高来町船津","zip_code":"8590105"},{"name":"高来町町名","zip_code":"8590127"},{"name":"高来町水ノ浦","zip_code":"8590147"},{"name":"高来町溝口","zip_code":"8590144"},{"name":"高来町峰","zip_code":"8590117"},{"name":"高来町山道","zip_code":"8590145"},{"name":"高城町","zip_code":"8540016"},{"name":"立石町","zip_code":"8540043"},{"name":"多良見町市布","zip_code":"8590403"},{"name":"多良見町囲","zip_code":"8590402"},{"name":"多良見町木床","zip_code":"8590406"},{"name":"多良見町化屋","zip_code":"8590401"},{"name":"多良見町佐瀬","zip_code":"8590418"},{"name":"多良見町シーサイド","zip_code":"8590407"},{"name":"多良見町中里","zip_code":"8590405"},{"name":"多良見町西川内","zip_code":"8590404"},{"name":"多良見町西園","zip_code":"8590412"},{"name":"多良見町野川内","zip_code":"8590416"},{"name":"多良見町野副","zip_code":"8590413"},{"name":"多良見町東園","zip_code":"8590411"},{"name":"多良見町舟津","zip_code":"8590417"},{"name":"多良見町元釜","zip_code":"8590414"},{"name":"多良見町山川内","zip_code":"8590415"},{"name":"中央干拓","zip_code":"8540038"},{"name":"津久葉町","zip_code":"8540065"},{"name":"津水町","zip_code":"8540083"},{"name":"鶴田町","zip_code":"8540122"},{"name":"天神町","zip_code":"8540123"},{"name":"天満町","zip_code":"8540006"},{"name":"堂崎町","zip_code":"8540076"},{"name":"富川町","zip_code":"8540091"},{"name":"仲沖町","zip_code":"8540021"},{"name":"中尾町","zip_code":"8540073"},{"name":"中田町","zip_code":"8590313"},{"name":"長田町","zip_code":"8590301"},{"name":"中通町","zip_code":"8540124"},{"name":"長野町","zip_code":"8540036"},{"name":"西栄田町","zip_code":"8540082"},{"name":"西小路町","zip_code":"8540015"},{"name":"西郷町","zip_code":"8540044"},{"name":"西里町","zip_code":"8590312"},{"name":"野中町","zip_code":"8540047"},{"name":"土師野尾町","zip_code":"8540056"},{"name":"八天町","zip_code":"8540011"},{"name":"早見町","zip_code":"8540125"},{"name":"原口町","zip_code":"8540046"},{"name":"東小路町","zip_code":"8540014"},{"name":"東本町","zip_code":"8540026"},{"name":"日の出町","zip_code":"8540002"},{"name":"平山町","zip_code":"8540057"},{"name":"福田町","zip_code":"8540001"},{"name":"船越町","zip_code":"8540041"},{"name":"堀の内町","zip_code":"8540086"},{"name":"本町","zip_code":"8540012"},{"name":"本明町","zip_code":"8540094"},{"name":"真崎町","zip_code":"8540084"},{"name":"松里町","zip_code":"8540126"},{"name":"馬渡町","zip_code":"8540075"},{"name":"宗方町","zip_code":"8540035"},{"name":"目代町","zip_code":"8540007"},{"name":"本野町","zip_code":"8540093"},{"name":"森山町上井牟田","zip_code":"8540209"},{"name":"森山町唐比北","zip_code":"8540206"},{"name":"森山町唐比西","zip_code":"8540208"},{"name":"森山町唐比東","zip_code":"8540207"},{"name":"森山町慶師野","zip_code":"8540202"},{"name":"森山町下井牟田","zip_code":"8540201"},{"name":"森山町杉谷","zip_code":"8540205"},{"name":"森山町田尻","zip_code":"8540204"},{"name":"森山町本村","zip_code":"8540203"},{"name":"八坂町","zip_code":"8540025"},{"name":"山川町","zip_code":"8540074"},{"name":"湯野尾町","zip_code":"8540092"},{"name":"若葉町","zip_code":"8540064"},{"name":"鷲崎町","zip_code":"8540051"},{"name":"破籠井町","zip_code":"8540085"}]},{"name":"大村市","divisions":[{"name":"赤佐古町","zip_code":"8560048"},{"name":"荒瀬町","zip_code":"8560017"},{"name":"荒平町","zip_code":"8560033"},{"name":"池田","zip_code":"8560026"},{"name":"池田新町","zip_code":"8560029"},{"name":"乾馬場町","zip_code":"8560823"},{"name":"今津町","zip_code":"8560818"},{"name":"今富町","zip_code":"8560018"},{"name":"今村町","zip_code":"8560843"},{"name":"岩松町","zip_code":"8560044"},{"name":"植松","zip_code":"8560027"},{"name":"大川田町","zip_code":"8560804"},{"name":"大里町","zip_code":"8560845"},{"name":"小川内町","zip_code":"8560043"},{"name":"沖田町","zip_code":"8560809"},{"name":"鬼橋町","zip_code":"8560021"},{"name":"小路口本町","zip_code":"8560020"},{"name":"小路口町","zip_code":"8560025"},{"name":"皆同町","zip_code":"8560802"},{"name":"陰平町","zip_code":"8560841"},{"name":"水主町","zip_code":"8560827"},{"name":"片町","zip_code":"8560833"},{"name":"上諏訪町","zip_code":"8560023"},{"name":"協和町","zip_code":"8560820"},{"name":"杭出津","zip_code":"8560828"},{"name":"草場町","zip_code":"8560007"},{"name":"玖島","zip_code":"8560834"},{"name":"久原","zip_code":"8560835"},{"name":"黒木町","zip_code":"8560012"},{"name":"黒丸町","zip_code":"8560808"},{"name":"古賀島町","zip_code":"8560817"},{"name":"木場","zip_code":"8560046"},{"name":"幸町","zip_code":"8560836"},{"name":"坂口町","zip_code":"8560028"},{"name":"桜馬場","zip_code":"8560812"},{"name":"三城町","zip_code":"8560031"},{"name":"重井田町","zip_code":"8560011"},{"name":"寿古町","zip_code":"8560801"},{"name":"須田ノ木町","zip_code":"8560047"},{"name":"諏訪","zip_code":"8560024"},{"name":"西部町","zip_code":"8560847"},{"name":"武部町","zip_code":"8560035"},{"name":"竹松本町","zip_code":"8560805"},{"name":"竹松町","zip_code":"8560803"},{"name":"田下町","zip_code":"8560014"},{"name":"徳泉川内町","zip_code":"8560041"},{"name":"富の原","zip_code":"8560806"},{"name":"中里町","zip_code":"8560842"},{"name":"中岳町","zip_code":"8560013"},{"name":"西乾馬場町","zip_code":"8560821"},{"name":"西大村本町","zip_code":"8560813"},{"name":"西三城町","zip_code":"8560825"},{"name":"西本町","zip_code":"8560837"},{"name":"野岳町","zip_code":"8560003"},{"name":"野田町","zip_code":"8560019"},{"name":"原口町","zip_code":"8560811"},{"name":"原町","zip_code":"8560016"},{"name":"東大村","zip_code":"8560032"},{"name":"東三城町","zip_code":"8560826"},{"name":"東野岳町","zip_code":"8560002"},{"name":"東本町","zip_code":"8560831"},{"name":"日泊町","zip_code":"8560846"},{"name":"平町","zip_code":"8560042"},{"name":"福重町","zip_code":"8560006"},{"name":"古町","zip_code":"8560822"},{"name":"本町","zip_code":"8560832"},{"name":"雄ケ原町","zip_code":"8560022"},{"name":"松並","zip_code":"8560814"},{"name":"松原","zip_code":"8560008"},{"name":"松原本町","zip_code":"8560009"},{"name":"松山町","zip_code":"8560829"},{"name":"箕島町","zip_code":"8560816"},{"name":"水田町","zip_code":"8560824"},{"name":"水計町","zip_code":"8560034"},{"name":"溝陸町","zip_code":"8560844"},{"name":"宮小路","zip_code":"8560807"},{"name":"宮代町","zip_code":"8560015"},{"name":"弥勒寺町","zip_code":"8560005"},{"name":"向木場町","zip_code":"8560045"},{"name":"武留路町","zip_code":"8560001"},{"name":"森園町","zip_code":"8560815"},{"name":"立福寺町","zip_code":"8560004"}]},{"name":"平戸市","divisions":[{"name":"赤松町","zip_code":"8595384"},{"name":"明の川内町","zip_code":"8595122"},{"name":"鮎川町","zip_code":"8595515"},{"name":"飯良町","zip_code":"8595382"},{"name":"生月町壱部","zip_code":"8595701"},{"name":"生月町壱部浦","zip_code":"8595702"},{"name":"生月町里免","zip_code":"8595703"},{"name":"生月町舘浦","zip_code":"8595705"},{"name":"生月町御崎","zip_code":"8595707"},{"name":"生月町南免","zip_code":"8595706"},{"name":"生月町山田免","zip_code":"8595704"},{"name":"猪渡谷町","zip_code":"8595502"},{"name":"岩の上町","zip_code":"8595121"},{"name":"魚の棚町","zip_code":"8595117"},{"name":"浦の町","zip_code":"8595111"},{"name":"大石脇町","zip_code":"8595376"},{"name":"大川原町","zip_code":"8595383"},{"name":"大久保町","zip_code":"8595102"},{"name":"大佐志町","zip_code":"8595516"},{"name":"大志々伎町","zip_code":"8595532"},{"name":"大島村的山川内","zip_code":"8595805"},{"name":"大島村的山戸田","zip_code":"8595806"},{"name":"大島村大根坂","zip_code":"8595804"},{"name":"大島村神浦","zip_code":"8595801"},{"name":"大島村西宇戸","zip_code":"8595803"},{"name":"大島村前平","zip_code":"8595802"},{"name":"大野町","zip_code":"8595123"},{"name":"大山町","zip_code":"8595131"},{"name":"小田町","zip_code":"8595534"},{"name":"鏡川町","zip_code":"8595152"},{"name":"春日町","zip_code":"8595373"},{"name":"神上町","zip_code":"8595524"},{"name":"上中津良町","zip_code":"8595503"},{"name":"川内町","zip_code":"8595132"},{"name":"木ケ津町","zip_code":"8595362"},{"name":"木引田町","zip_code":"8595113"},{"name":"草積町","zip_code":"8595363"},{"name":"神ノ川町","zip_code":"8595522"},{"name":"紺屋町","zip_code":"8595118"},{"name":"木場町","zip_code":"8595365"},{"name":"木引町","zip_code":"8595151"},{"name":"崎方町","zip_code":"8595104"},{"name":"敷佐町","zip_code":"8595505"},{"name":"獅子町","zip_code":"8595371"},{"name":"志々伎町","zip_code":"8595533"},{"name":"神船町","zip_code":"8595511"},{"name":"下中津良町","zip_code":"8595504"},{"name":"下中野町","zip_code":"8595144"},{"name":"主師町","zip_code":"8595142"},{"name":"職人町","zip_code":"8595116"},{"name":"新町","zip_code":"8595115"},{"name":"高越町","zip_code":"8595372"},{"name":"度島町","zip_code":"8595101"},{"name":"田代町","zip_code":"8595527"},{"name":"田助町","zip_code":"8595103"},{"name":"田平町一関免","zip_code":"8594822"},{"name":"田平町以善免","zip_code":"8594814"},{"name":"田平町大久保免","zip_code":"8594821"},{"name":"田平町荻田免","zip_code":"8594823"},{"name":"田平町上亀免","zip_code":"8594804"},{"name":"田平町小崎免","zip_code":"8594803"},{"name":"田平町小手田免","zip_code":"8594824"},{"name":"田平町里免","zip_code":"8594807"},{"name":"田平町下亀免","zip_code":"8594806"},{"name":"田平町下寺免","zip_code":"8594815"},{"name":"田平町岳崎免","zip_code":"8594801"},{"name":"田平町田代免","zip_code":"8594812"},{"name":"田平町野田免","zip_code":"8594826"},{"name":"田平町深月免","zip_code":"8594813"},{"name":"田平町福崎免","zip_code":"8594802"},{"name":"田平町古梶免","zip_code":"8594811"},{"name":"田平町本山免","zip_code":"8594805"},{"name":"田平町山内免","zip_code":"8594825"},{"name":"田平町横島免","zip_code":"8594827"},{"name":"築地町","zip_code":"8595114"},{"name":"辻町","zip_code":"8595513"},{"name":"堤町","zip_code":"8595501"},{"name":"津吉町","zip_code":"8595512"},{"name":"戸石川町","zip_code":"8595153"},{"name":"中野大久保町","zip_code":"8595133"},{"name":"西中山町","zip_code":"8595526"},{"name":"根獅子町","zip_code":"8595381"},{"name":"野子町","zip_code":"8595535"},{"name":"早福町","zip_code":"8595531"},{"name":"東中山町","zip_code":"8595525"},{"name":"紐差町","zip_code":"8595361"},{"name":"深川町","zip_code":"8595374"},{"name":"無代寺町","zip_code":"8595514"},{"name":"船木町","zip_code":"8595521"},{"name":"古江町","zip_code":"8595145"},{"name":"朶の原町","zip_code":"8595375"},{"name":"坊方町","zip_code":"8595143"},{"name":"宝亀町","zip_code":"8595366"},{"name":"前津吉町","zip_code":"8595523"},{"name":"水垂町","zip_code":"8595134"},{"name":"宮の町","zip_code":"8595112"},{"name":"迎紐差町","zip_code":"8595364"},{"name":"山中町","zip_code":"8595141"}]},{"name":"松浦市","divisions":[{"name":"今福町浦免","zip_code":"8594528"},{"name":"今福町北免","zip_code":"8594521"},{"name":"今福町木場免","zip_code":"8594524"},{"name":"今福町坂野免","zip_code":"8594526"},{"name":"今福町寺上免","zip_code":"8594525"},{"name":"今福町飛島免","zip_code":"8594529"},{"name":"今福町滑栄免","zip_code":"8594523"},{"name":"今福町東免","zip_code":"8594522"},{"name":"今福町仏坂免","zip_code":"8594527"},{"name":"志佐町赤木免","zip_code":"8594511"},{"name":"志佐町池成免","zip_code":"8594518"},{"name":"志佐町浦免","zip_code":"8594501"},{"name":"志佐町栢木免","zip_code":"8594504"},{"name":"志佐町里免","zip_code":"8594502"},{"name":"志佐町庄野免","zip_code":"8594507"},{"name":"志佐町白浜免","zip_code":"8594506"},{"name":"志佐町高野免","zip_code":"8594503"},{"name":"志佐町田ノ平免","zip_code":"8594513"},{"name":"志佐町長野免","zip_code":"8594516"},{"name":"志佐町西山免","zip_code":"8594505"},{"name":"志佐町稗木場免","zip_code":"8594515"},{"name":"志佐町笛吹免","zip_code":"8594512"},{"name":"志佐町柚木川内免","zip_code":"8594514"},{"name":"志佐町横辺田免","zip_code":"8594517"},{"name":"鷹島町阿翁浦免","zip_code":"8594301"},{"name":"鷹島町阿翁免","zip_code":"8594302"},{"name":"鷹島町黒島免","zip_code":"8594309"},{"name":"鷹島町神崎免","zip_code":"8594303"},{"name":"鷹島町里免","zip_code":"8594304"},{"name":"鷹島町三里免","zip_code":"8594307"},{"name":"鷹島町中通免","zip_code":"8594305"},{"name":"鷹島町原免","zip_code":"8594306"},{"name":"鷹島町船唐津免","zip_code":"8594308"},{"name":"調川町上免","zip_code":"8594533"},{"name":"調川町中免","zip_code":"8594532"},{"name":"調川町下免","zip_code":"8594536"},{"name":"調川町白井免","zip_code":"8594534"},{"name":"調川町平尾免","zip_code":"8594531"},{"name":"調川町松山田免","zip_code":"8594535"},{"name":"福島町浅谷免","zip_code":"8480404"},{"name":"福島町喜内瀬免","zip_code":"8480401"},{"name":"福島町里免","zip_code":"8480408"},{"name":"福島町塩浜免","zip_code":"8480403"},{"name":"福島町土谷免","zip_code":"8480405"},{"name":"福島町鍋串免","zip_code":"8480407"},{"name":"福島町端免","zip_code":"8480402"},{"name":"福島町原免","zip_code":"8480406"},{"name":"星鹿町青島免","zip_code":"8594745"},{"name":"星鹿町北久保免","zip_code":"8594741"},{"name":"星鹿町下田免","zip_code":"8594743"},{"name":"星鹿町岳崎免","zip_code":"8594744"},{"name":"星鹿町牟田免","zip_code":"8594742"},{"name":"御厨町相坂免","zip_code":"8594761"},{"name":"御厨町池田免","zip_code":"8594751"},{"name":"御厨町板橋免","zip_code":"8594777"},{"name":"御厨町大崎免","zip_code":"8594758"},{"name":"御厨町上登木免","zip_code":"8594773"},{"name":"御厨町狩原免","zip_code":"8594764"},{"name":"御厨町川内免","zip_code":"8594767"},{"name":"御厨町北平免","zip_code":"8594754"},{"name":"御厨町郭公尾免","zip_code":"8594775"},{"name":"御厨町木場免","zip_code":"8594776"},{"name":"御厨町小船免","zip_code":"8594762"},{"name":"御厨町米ノ山免","zip_code":"8594765"},{"name":"御厨町里免","zip_code":"8594752"},{"name":"御厨町下登木免","zip_code":"8594771"},{"name":"御厨町高野免","zip_code":"8594757"},{"name":"御厨町田代免","zip_code":"8594778"},{"name":"御厨町田原免","zip_code":"8594761"},{"name":"御厨町立木免","zip_code":"8594774"},{"name":"御厨町寺ノ尾免","zip_code":"8594772"},{"name":"御厨町中野免","zip_code":"8594753"},{"name":"御厨町西木場免","zip_code":"8594769"},{"name":"御厨町西田免","zip_code":"8594768"},{"name":"御厨町普住免","zip_code":"8594766"},{"name":"御厨町前田免","zip_code":"8594756"},{"name":"御厨町山根免","zip_code":"8594763"},{"name":"御厨町横久保免","zip_code":"8594755"}]},{"name":"対馬市","divisions":[{"name":"厳原町安神","zip_code":"8170034"},{"name":"厳原町浅藻","zip_code":"8170153"},{"name":"厳原町阿連","zip_code":"8170241"},{"name":"厳原町今屋敷","zip_code":"8170021"},{"name":"厳原町内山","zip_code":"8170157"},{"name":"厳原町尾浦","zip_code":"8170033"},{"name":"厳原町大手橋","zip_code":"8170024"},{"name":"厳原町樫根","zip_code":"8170243"},{"name":"厳原町北里","zip_code":"8170006"},{"name":"厳原町久田","zip_code":"8170032"},{"name":"厳原町久田道","zip_code":"8170031"},{"name":"厳原町久根田舎","zip_code":"8170245"},{"name":"厳原町久根浜","zip_code":"8170244"},{"name":"厳原町久和","zip_code":"8170035"},{"name":"厳原町上槻","zip_code":"8170246"},{"name":"厳原町小浦","zip_code":"8170001"},{"name":"厳原町国分","zip_code":"8170022"},{"name":"厳原町小茂田","zip_code":"8170248"},{"name":"厳原町桟原","zip_code":"8170005"},{"name":"厳原町佐須瀬","zip_code":"8170156"},{"name":"厳原町椎根","zip_code":"8170247"},{"name":"厳原町下原","zip_code":"8170242"},{"name":"厳原町田渕","zip_code":"8170023"},{"name":"厳原町豆酘","zip_code":"8170154"},{"name":"厳原町豆酘瀬","zip_code":"8170155"},{"name":"厳原町豆酘内院","zip_code":"8170152"},{"name":"厳原町天道茂","zip_code":"8170014"},{"name":"厳原町中村","zip_code":"8170013"},{"name":"厳原町南室","zip_code":"8170003"},{"name":"厳原町西里","zip_code":"8170015"},{"name":"厳原町東里","zip_code":"8170016"},{"name":"厳原町日吉","zip_code":"8170012"},{"name":"厳原町曲","zip_code":"8170002"},{"name":"厳原町宮谷","zip_code":"8170011"},{"name":"厳原町与良内院","zip_code":"8170151"},{"name":"上県町伊奈","zip_code":"8171532"},{"name":"上県町犬ケ浦","zip_code":"8171524"},{"name":"上県町女連","zip_code":"8171513"},{"name":"上県町飼所","zip_code":"8171521"},{"name":"上県町樫滝","zip_code":"8171522"},{"name":"上県町久原","zip_code":"8171512"},{"name":"上県町越高","zip_code":"8171531"},{"name":"上県町佐護","zip_code":"8171603"},{"name":"上県町佐須奈","zip_code":"8171602"},{"name":"上県町鹿見","zip_code":"8171511"},{"name":"上県町志多留","zip_code":"8171533"},{"name":"上県町瀬田","zip_code":"8171523"},{"name":"上県町西津屋","zip_code":"8171601"},{"name":"上県町御園","zip_code":"8171525"},{"name":"上対馬町芦見","zip_code":"8172243"},{"name":"上対馬町網代","zip_code":"8171704"},{"name":"上対馬町泉","zip_code":"8171725"},{"name":"上対馬町大浦","zip_code":"8171722"},{"name":"上対馬町大増","zip_code":"8171715"},{"name":"上対馬町小鹿","zip_code":"8172241"},{"name":"上対馬町河内","zip_code":"8171721"},{"name":"上対馬町琴","zip_code":"8172331"},{"name":"上対馬町玖須","zip_code":"8171714"},{"name":"上対馬町五根緒","zip_code":"8172332"},{"name":"上対馬町舟志","zip_code":"8172333"},{"name":"上対馬町唐舟志","zip_code":"8171712"},{"name":"上対馬町冨浦","zip_code":"8171711"},{"name":"上対馬町豊","zip_code":"8171724"},{"name":"上対馬町西泊","zip_code":"8171703"},{"name":"上対馬町浜久須","zip_code":"8171713"},{"name":"上対馬町比田勝","zip_code":"8171701"},{"name":"上対馬町一重","zip_code":"8172242"},{"name":"上対馬町古里","zip_code":"8171702"},{"name":"上対馬町鰐浦","zip_code":"8171723"},{"name":"豊玉町糸瀬","zip_code":"8171231"},{"name":"豊玉町卯麦","zip_code":"8171253"},{"name":"豊玉町大綱","zip_code":"8171252"},{"name":"豊玉町貝口","zip_code":"8171241"},{"name":"豊玉町貝鮒","zip_code":"8171233"},{"name":"豊玉町唐洲","zip_code":"8171245"},{"name":"豊玉町小綱","zip_code":"8171256"},{"name":"豊玉町嵯峨","zip_code":"8171232"},{"name":"豊玉町佐志賀","zip_code":"8171234"},{"name":"豊玉町佐保","zip_code":"8171254"},{"name":"豊玉町志多浦","zip_code":"8171255"},{"name":"豊玉町曽","zip_code":"8171212"},{"name":"豊玉町田","zip_code":"8171251"},{"name":"豊玉町千尋藻","zip_code":"8171213"},{"name":"豊玉町仁位","zip_code":"8171201"},{"name":"豊玉町廻","zip_code":"8171246"},{"name":"豊玉町銘","zip_code":"8171257"},{"name":"豊玉町鑓川","zip_code":"8171214"},{"name":"豊玉町横浦","zip_code":"8171223"},{"name":"豊玉町和板","zip_code":"8171202"},{"name":"美津島町犬吠","zip_code":"8171106"},{"name":"美津島町今里","zip_code":"8170432"},{"name":"美津島町大船越","zip_code":"8170323"},{"name":"美津島町緒方","zip_code":"8170325"},{"name":"美津島町尾崎","zip_code":"8170431"},{"name":"美津島町大山","zip_code":"8171105"},{"name":"美津島町加志","zip_code":"8170433"},{"name":"美津島町鴨居瀬","zip_code":"8171107"},{"name":"美津島町賀谷","zip_code":"8171103"},{"name":"美津島町久須保","zip_code":"8170324"},{"name":"美津島町黒瀬","zip_code":"8170512"},{"name":"美津島町鶏知","zip_code":"8170322"},{"name":"美津島町小船越","zip_code":"8171101"},{"name":"美津島町島山","zip_code":"8170514"},{"name":"美津島町洲藻","zip_code":"8170321"},{"name":"美津島町竹敷","zip_code":"8170511"},{"name":"美津島町根緒","zip_code":"8170326"},{"name":"美津島町濃部","zip_code":"8171104"},{"name":"美津島町昼ケ浦","zip_code":"8170513"},{"name":"美津島町吹崎","zip_code":"8170434"},{"name":"美津島町箕形","zip_code":"8170435"},{"name":"美津島町芦浦","zip_code":"8171102"},{"name":"峰町青海","zip_code":"8171304"},{"name":"峰町賀佐","zip_code":"8171307"},{"name":"峰町狩尾","zip_code":"8171302"},{"name":"峰町木坂","zip_code":"8171303"},{"name":"峰町櫛","zip_code":"8171411"},{"name":"峰町佐賀","zip_code":"8171412"},{"name":"峰町志多賀","zip_code":"8171413"},{"name":"峰町津柳","zip_code":"8171305"},{"name":"峰町三根","zip_code":"8171301"},{"name":"峰町吉田","zip_code":"8171306"}]},{"name":"壱岐市","divisions":[{"name":"芦辺町芦辺浦","zip_code":"8115301"},{"name":"芦辺町国分川迎触","zip_code":"8115733"},{"name":"芦辺町国分当田触","zip_code":"8115731"},{"name":"芦辺町国分東触","zip_code":"8115732"},{"name":"芦辺町国分本村触","zip_code":"8115734"},{"name":"芦辺町住吉後触","zip_code":"8115744"},{"name":"芦辺町住吉東触","zip_code":"8115742"},{"name":"芦辺町住吉前触","zip_code":"8115743"},{"name":"芦辺町住吉山信触","zip_code":"8115741"},{"name":"芦辺町瀬戸浦","zip_code":"8115461"},{"name":"芦辺町中野郷仲触","zip_code":"8115751"},{"name":"芦辺町中野郷西触","zip_code":"8115757"},{"name":"芦辺町中野郷東触","zip_code":"8115752"},{"name":"芦辺町中野郷本村触","zip_code":"8115756"},{"name":"芦辺町箱崎江角触","zip_code":"8115467"},{"name":"芦辺町箱崎釘ノ尾触","zip_code":"8115465"},{"name":"芦辺町箱崎大左右触","zip_code":"8115462"},{"name":"芦辺町箱崎谷江触","zip_code":"8115464"},{"name":"芦辺町箱崎中山触","zip_code":"8115463"},{"name":"芦辺町箱崎本村触","zip_code":"8115466"},{"name":"芦辺町箱崎諸津触","zip_code":"8115468"},{"name":"芦辺町深江栄触","zip_code":"8115321"},{"name":"芦辺町深江鶴亀触","zip_code":"8115322"},{"name":"芦辺町深江東触","zip_code":"8115324"},{"name":"芦辺町深江平触","zip_code":"8115323"},{"name":"芦辺町深江本村触","zip_code":"8115326"},{"name":"芦辺町深江南触","zip_code":"8115325"},{"name":"芦辺町諸吉大石触","zip_code":"8115316"},{"name":"芦辺町諸吉仲触","zip_code":"8115313"},{"name":"芦辺町諸吉東触","zip_code":"8115314"},{"name":"芦辺町諸吉二亦触","zip_code":"8115315"},{"name":"芦辺町諸吉本村触","zip_code":"8115311"},{"name":"芦辺町諸吉南触","zip_code":"8115312"},{"name":"芦辺町湯岳興触","zip_code":"8115755"},{"name":"芦辺町湯岳今坂触","zip_code":"8115754"},{"name":"芦辺町湯岳本村触","zip_code":"8115753"},{"name":"石田町池田仲触","zip_code":"8115222"},{"name":"石田町池田西触","zip_code":"8115224"},{"name":"石田町池田東触","zip_code":"8115221"},{"name":"石田町石田西触","zip_code":"8115215"},{"name":"石田町石田東触","zip_code":"8115211"},{"name":"石田町印通寺浦","zip_code":"8115214"},{"name":"石田町久喜触","zip_code":"8115223"},{"name":"石田町筒城仲触","zip_code":"8115202"},{"name":"石田町筒城西触","zip_code":"8115204"},{"name":"石田町筒城東触","zip_code":"8115203"},{"name":"石田町本村触","zip_code":"8115212"},{"name":"石田町南触","zip_code":"8115213"},{"name":"石田町山崎触","zip_code":"8115201"},{"name":"石田町湯岳射手吉触","zip_code":"8115226"},{"name":"石田町湯岳興触","zip_code":"8115225"},{"name":"勝本町上場触","zip_code":"8115543"},{"name":"勝本町大久保触","zip_code":"8115532"},{"name":"勝本町片山触","zip_code":"8115523"},{"name":"勝本町勝本浦","zip_code":"8115501"},{"name":"勝本町北触","zip_code":"8115513"},{"name":"勝本町西戸触","zip_code":"8115521"},{"name":"勝本町坂本触","zip_code":"8115531"},{"name":"勝本町新城西触","zip_code":"8115533"},{"name":"勝本町新城東触","zip_code":"8115522"},{"name":"勝本町立石仲触","zip_code":"8115554"},{"name":"勝本町立石西触","zip_code":"8115556"},{"name":"勝本町立石東触","zip_code":"8115553"},{"name":"勝本町立石南触","zip_code":"8115555"},{"name":"勝本町仲触","zip_code":"8115511"},{"name":"勝本町東触","zip_code":"8115512"},{"name":"勝本町布気触","zip_code":"8115544"},{"name":"勝本町本宮仲触","zip_code":"8115546"},{"name":"勝本町本宮西触","zip_code":"8115541"},{"name":"勝本町本宮東触","zip_code":"8115542"},{"name":"勝本町本宮南触","zip_code":"8115545"},{"name":"勝本町湯本浦","zip_code":"8115551"},{"name":"勝本町百合畑触","zip_code":"8115552"},{"name":"郷ノ浦町有安触","zip_code":"8115107"},{"name":"郷ノ浦町牛方触","zip_code":"8115113"},{"name":"郷ノ浦町大浦触","zip_code":"8115112"},{"name":"郷ノ浦町大島","zip_code":"8115161"},{"name":"郷ノ浦町片原触","zip_code":"8115136"},{"name":"郷ノ浦町木田触","zip_code":"8115115"},{"name":"郷ノ浦町釘山触","zip_code":"8115123"},{"name":"郷ノ浦町郷ノ浦","zip_code":"8115135"},{"name":"郷ノ浦町小牧西触","zip_code":"8115105"},{"name":"郷ノ浦町小牧東触","zip_code":"8115106"},{"name":"郷ノ浦町里触","zip_code":"8115104"},{"name":"郷ノ浦町志原西触","zip_code":"8115125"},{"name":"郷ノ浦町志原南触","zip_code":"8115124"},{"name":"郷ノ浦町庄触","zip_code":"8115134"},{"name":"郷ノ浦町新田触","zip_code":"8115103"},{"name":"郷ノ浦町大原触","zip_code":"8115122"},{"name":"郷ノ浦町田中触","zip_code":"8115117"},{"name":"郷ノ浦町坪触","zip_code":"8115142"},{"name":"郷ノ浦町長島","zip_code":"8115162"},{"name":"郷ノ浦町永田触","zip_code":"8115131"},{"name":"郷ノ浦町長峰東触","zip_code":"8115102"},{"name":"郷ノ浦町長峰本村触","zip_code":"8115101"},{"name":"郷ノ浦町初山西触","zip_code":"8115143"},{"name":"郷ノ浦町初山東触","zip_code":"8115144"},{"name":"郷ノ浦町原島","zip_code":"8115163"},{"name":"郷ノ浦町半城本村触","zip_code":"8115111"},{"name":"郷ノ浦町東触","zip_code":"8115132"},{"name":"郷ノ浦町平人触","zip_code":"8115121"},{"name":"郷ノ浦町本村触","zip_code":"8115133"},{"name":"郷ノ浦町麦谷触","zip_code":"8115155"},{"name":"郷ノ浦町物部本村触","zip_code":"8115116"},{"name":"郷ノ浦町柳田触","zip_code":"8115114"},{"name":"郷ノ浦町若松触","zip_code":"8115141"},{"name":"郷ノ浦町渡良浦","zip_code":"8115151"},{"name":"郷ノ浦町渡良西触","zip_code":"8115153"},{"name":"郷ノ浦町渡良東触","zip_code":"8115154"},{"name":"郷ノ浦町渡良南触","zip_code":"8115152"}]},{"name":"五島市","divisions":[{"name":"赤島町","zip_code":"8530062"},{"name":"池田町","zip_code":"8530018"},{"name":"猪之木町","zip_code":"8532174"},{"name":"伊福貴町","zip_code":"8532481"},{"name":"江川町","zip_code":"8530006"},{"name":"黄島町","zip_code":"8530061"},{"name":"大荒町","zip_code":"8530032"},{"name":"奥浦町","zip_code":"8530053"},{"name":"小泊町","zip_code":"8530025"},{"name":"上大津町","zip_code":"8530013"},{"name":"上崎山町","zip_code":"8530023"},{"name":"岐宿町川原","zip_code":"8530702"},{"name":"岐宿町岐宿","zip_code":"8530701"},{"name":"岐宿町楠原","zip_code":"8530703"},{"name":"岐宿町河務","zip_code":"8530704"},{"name":"岐宿町唐船ノ浦","zip_code":"8530706"},{"name":"岐宿町戸岐ノ首","zip_code":"8530705"},{"name":"岐宿町中嶽","zip_code":"8530312"},{"name":"岐宿町二本楠","zip_code":"8530311"},{"name":"岐宿町松山","zip_code":"8530313"},{"name":"高田町","zip_code":"8530043"},{"name":"木場町","zip_code":"8530033"},{"name":"籠淵町","zip_code":"8530041"},{"name":"紺屋町","zip_code":"8530016"},{"name":"幸町","zip_code":"8530004"},{"name":"栄町","zip_code":"8530001"},{"name":"坂の上","zip_code":"8530065"},{"name":"下大津町","zip_code":"8530011"},{"name":"下崎山町","zip_code":"8530021"},{"name":"新港町","zip_code":"8530063"},{"name":"末広町","zip_code":"8530005"},{"name":"大円寺町","zip_code":"8530066"},{"name":"田ノ浦町","zip_code":"8532173"},{"name":"玉之浦町荒川","zip_code":"8530501"},{"name":"玉之浦町幾久山","zip_code":"8530502"},{"name":"玉之浦町小川","zip_code":"8530503"},{"name":"玉之浦町上の平","zip_code":"8530506"},{"name":"玉之浦町大宝","zip_code":"8530413"},{"name":"玉之浦町立谷","zip_code":"8530412"},{"name":"玉之浦町玉之浦","zip_code":"8530411"},{"name":"玉之浦町丹奈","zip_code":"8530504"},{"name":"玉之浦町頓泊","zip_code":"8530507"},{"name":"玉之浦町中須","zip_code":"8530505"},{"name":"玉之浦町布浦","zip_code":"8530508"},{"name":"中央町","zip_code":"8530002"},{"name":"堤町","zip_code":"8530044"},{"name":"戸岐町","zip_code":"8530054"},{"name":"富江町狩立","zip_code":"8530205"},{"name":"富江町黒島","zip_code":"8530208"},{"name":"富江町黒瀬","zip_code":"8530211"},{"name":"富江町繁敷","zip_code":"8530204"},{"name":"富江町職人","zip_code":"8530215"},{"name":"富江町田尾","zip_code":"8530203"},{"name":"富江町岳","zip_code":"8530213"},{"name":"富江町土取","zip_code":"8530214"},{"name":"富江町富江","zip_code":"8530201"},{"name":"富江町長峰","zip_code":"8530207"},{"name":"富江町松尾","zip_code":"8530202"},{"name":"富江町山下","zip_code":"8530212"},{"name":"富江町山手","zip_code":"8530206"},{"name":"長手町","zip_code":"8530012"},{"name":"奈留町浦","zip_code":"8532201"},{"name":"奈留町大串","zip_code":"8532202"},{"name":"奈留町泊","zip_code":"8532203"},{"name":"奈留町船廻","zip_code":"8532204"},{"name":"錦町","zip_code":"8530003"},{"name":"野々切町","zip_code":"8530024"},{"name":"浜町","zip_code":"8530026"},{"name":"東浜町","zip_code":"8530015"},{"name":"久賀町","zip_code":"8532171"},{"name":"平蔵町","zip_code":"8530051"},{"name":"福江町","zip_code":"8530007"},{"name":"武家屋敷","zip_code":"8530017"},{"name":"増田町","zip_code":"8530027"},{"name":"松山町","zip_code":"8530052"},{"name":"三井楽町丑ノ浦","zip_code":"8530606"},{"name":"三井楽町大川","zip_code":"8530602"},{"name":"三井楽町貝津","zip_code":"8530604"},{"name":"三井楽町柏","zip_code":"8530603"},{"name":"三井楽町嵯峨島","zip_code":"8530611"},{"name":"三井楽町塩水","zip_code":"8530613"},{"name":"三井楽町高崎","zip_code":"8530612"},{"name":"三井楽町嶽","zip_code":"8530607"},{"name":"三井楽町波砂間","zip_code":"8530608"},{"name":"三井楽町濱窄","zip_code":"8530605"},{"name":"三井楽町濱ノ畔","zip_code":"8530601"},{"name":"三井楽町渕ノ元","zip_code":"8530609"},{"name":"三尾野","zip_code":"8530064"},{"name":"三尾野町","zip_code":"8530014"},{"name":"向町","zip_code":"8530022"},{"name":"本窯町","zip_code":"8532482"},{"name":"吉久木町","zip_code":"8530031"},{"name":"吉田町","zip_code":"8530042"},{"name":"蕨町","zip_code":"8532172"}]},{"name":"西海市","divisions":[{"name":"大島町内浦地区","zip_code":"8572402"},{"name":"大島町大島","zip_code":"8572426"},{"name":"大島町太田尾","zip_code":"8572422"},{"name":"大島町黒瀬","zip_code":"8572401"},{"name":"大島町塩田","zip_code":"8572424"},{"name":"大島町田浦","zip_code":"8572425"},{"name":"大島町中央地区","zip_code":"8572405"},{"name":"大島町寺島","zip_code":"8572411"},{"name":"大島町塔尾","zip_code":"8572423"},{"name":"大島町徳万","zip_code":"8572418"},{"name":"大島町中戸","zip_code":"8572421"},{"name":"大島町蛤","zip_code":"8572419"},{"name":"大島町馬込","zip_code":"8572403"},{"name":"大島町真砂","zip_code":"8572412"},{"name":"大島町間瀬","zip_code":"8572413"},{"name":"大島町百合が丘","zip_code":"8572417"},{"name":"大瀬戸町瀬戸板浦郷","zip_code":"8572301"},{"name":"大瀬戸町瀬戸樫浦郷","zip_code":"8572302"},{"name":"大瀬戸町瀬戸下山郷","zip_code":"8572304"},{"name":"大瀬戸町瀬戸西濱郷","zip_code":"8572303"},{"name":"大瀬戸町瀬戸羽出川郷","zip_code":"8572305"},{"name":"大瀬戸町瀬戸東濱郷","zip_code":"8572306"},{"name":"大瀬戸町瀬戸福島郷","zip_code":"8572307"},{"name":"大瀬戸町多以良内郷","zip_code":"8572312"},{"name":"大瀬戸町多以良外郷","zip_code":"8572311"},{"name":"大瀬戸町松島内郷","zip_code":"8572531"},{"name":"大瀬戸町松島外郷","zip_code":"8572532"},{"name":"大瀬戸町雪浦奥浦郷","zip_code":"8572324"},{"name":"大瀬戸町雪浦上郷","zip_code":"8572327"},{"name":"大瀬戸町雪浦久良木郷","zip_code":"8572322"},{"name":"大瀬戸町雪浦河通郷","zip_code":"8572323"},{"name":"大瀬戸町雪浦幸物郷","zip_code":"8572321"},{"name":"大瀬戸町雪浦小松郷","zip_code":"8572325"},{"name":"大瀬戸町雪浦下郷","zip_code":"8572326"},{"name":"大瀬戸町雪浦下釜郷","zip_code":"8572328"},{"name":"西海町天久保郷","zip_code":"8513507"},{"name":"西海町太田原郷","zip_code":"8513503"},{"name":"西海町太田和郷","zip_code":"8513505"},{"name":"西海町面高郷","zip_code":"8513508"},{"name":"西海町川内郷","zip_code":"8513502"},{"name":"西海町黒口郷","zip_code":"8513506"},{"name":"西海町木場郷","zip_code":"8513504"},{"name":"西海町丹納郷","zip_code":"8513501"},{"name":"西海町中浦北郷","zip_code":"8572222"},{"name":"西海町中浦南郷","zip_code":"8572221"},{"name":"西海町七釜郷","zip_code":"8572223"},{"name":"西海町水浦郷","zip_code":"8513511"},{"name":"西海町横瀬郷","zip_code":"8513509"},{"name":"崎戸町江島","zip_code":"8573103"},{"name":"崎戸町蠣浦郷","zip_code":"8573101"},{"name":"崎戸町平島","zip_code":"8573311"},{"name":"崎戸町本郷","zip_code":"8573102"},{"name":"西彼町伊ノ浦郷","zip_code":"8513421"},{"name":"西彼町大串郷","zip_code":"8513424"},{"name":"西彼町風早郷","zip_code":"8513313"},{"name":"西彼町上岳郷","zip_code":"8513304"},{"name":"西彼町亀浦郷","zip_code":"8513303"},{"name":"西彼町小迎郷","zip_code":"8513422"},{"name":"西彼町喰場郷","zip_code":"8513305"},{"name":"西彼町下岳郷","zip_code":"8513311"},{"name":"西彼町白似田郷","zip_code":"8513314"},{"name":"西彼町白崎郷","zip_code":"8513312"},{"name":"西彼町鳥加郷","zip_code":"8513306"},{"name":"西彼町中山郷","zip_code":"8513302"},{"name":"西彼町平原郷","zip_code":"8513315"},{"name":"西彼町平山郷","zip_code":"8513425"},{"name":"西彼町宮浦郷","zip_code":"8513301"},{"name":"西彼町八木原郷","zip_code":"8513423"}]},{"name":"雲仙市","divisions":[{"name":"愛野町乙","zip_code":"8540302"},{"name":"愛野町甲","zip_code":"8540301"},{"name":"吾妻町阿母名","zip_code":"8591116"},{"name":"吾妻町牛口名","zip_code":"8591107"},{"name":"吾妻町永中名","zip_code":"8591115"},{"name":"吾妻町大木場名","zip_code":"8591106"},{"name":"吾妻町川床名","zip_code":"8591114"},{"name":"吾妻町栗林名","zip_code":"8591112"},{"name":"吾妻町木場名","zip_code":"8591102"},{"name":"吾妻町田之平名","zip_code":"8591105"},{"name":"吾妻町布江名","zip_code":"8591113"},{"name":"吾妻町馬場名","zip_code":"8591111"},{"name":"吾妻町平江名","zip_code":"8591103"},{"name":"吾妻町古城名","zip_code":"8591104"},{"name":"吾妻町本村名","zip_code":"8591101"},{"name":"小浜町雲仙","zip_code":"8540621"},{"name":"小浜町大亀","zip_code":"8540501"},{"name":"小浜町金浜","zip_code":"8540504"},{"name":"小浜町北木指","zip_code":"8540512"},{"name":"小浜町北野","zip_code":"8540515"},{"name":"小浜町北本町","zip_code":"8540514"},{"name":"小浜町木場","zip_code":"8540505"},{"name":"小浜町飛子","zip_code":"8540503"},{"name":"小浜町富津","zip_code":"8540516"},{"name":"小浜町マリーナ","zip_code":"8540517"},{"name":"小浜町南木指","zip_code":"8540511"},{"name":"小浜町南本町","zip_code":"8540513"},{"name":"小浜町山畑","zip_code":"8540502"},{"name":"国見町神代乙","zip_code":"8591302"},{"name":"国見町神代己","zip_code":"8591306"},{"name":"国見町神代甲","zip_code":"8591301"},{"name":"国見町神代庚","zip_code":"8591307"},{"name":"国見町神代辛","zip_code":"8591308"},{"name":"国見町神代丁","zip_code":"8591304"},{"name":"国見町神代丙","zip_code":"8591303"},{"name":"国見町神代戊","zip_code":"8591305"},{"name":"国見町多比良乙","zip_code":"8591322"},{"name":"国見町多比良甲","zip_code":"8591321"},{"name":"国見町多比良丁","zip_code":"8591324"},{"name":"国見町多比良丙","zip_code":"8591323"},{"name":"国見町多比良戊","zip_code":"8591325"},{"name":"国見町土黒乙","zip_code":"8591312"},{"name":"国見町土黒己","zip_code":"8591316"},{"name":"国見町土黒甲","zip_code":"8591311"},{"name":"国見町土黒庚","zip_code":"8591317"},{"name":"国見町土黒丁","zip_code":"8591314"},{"name":"国見町土黒丙","zip_code":"8591313"},{"name":"国見町土黒戊","zip_code":"8591315"},{"name":"千々石町乙","zip_code":"8540402"},{"name":"千々石町己","zip_code":"8540406"},{"name":"千々石町甲","zip_code":"8540401"},{"name":"千々石町庚","zip_code":"8540407"},{"name":"千々石町丁","zip_code":"8540404"},{"name":"千々石町丙","zip_code":"8540403"},{"name":"千々石町戊","zip_code":"8540405"},{"name":"瑞穂町伊福乙","zip_code":"8591214"},{"name":"瑞穂町伊福甲","zip_code":"8591213"},{"name":"瑞穂町古部乙","zip_code":"8591216"},{"name":"瑞穂町古部甲","zip_code":"8591215"},{"name":"瑞穂町西郷乙","zip_code":"8591203"},{"name":"瑞穂町西郷己","zip_code":"8591212"},{"name":"瑞穂町西郷甲","zip_code":"8591202"},{"name":"瑞穂町西郷庚","zip_code":"8591201"},{"name":"瑞穂町西郷辛","zip_code":"8591206"},{"name":"瑞穂町西郷丁","zip_code":"8591205"},{"name":"瑞穂町西郷丙","zip_code":"8591204"},{"name":"瑞穂町西郷戊","zip_code":"8591211"},{"name":"南串山町乙","zip_code":"8540702"},{"name":"南串山町甲","zip_code":"8540701"},{"name":"南串山町丙","zip_code":"8540703"}]},{"name":"南島原市","divisions":[{"name":"有家町石田","zip_code":"8592121"},{"name":"有家町大苑","zip_code":"8592122"},{"name":"有家町尾上","zip_code":"8592203"},{"name":"有家町蒲河","zip_code":"8592204"},{"name":"有家町久保","zip_code":"8592201"},{"name":"有家町小川","zip_code":"8592205"},{"name":"有家町中須川","zip_code":"8592206"},{"name":"有家町原尾","zip_code":"8592123"},{"name":"有家町山川","zip_code":"8592202"},{"name":"加津佐町乙","zip_code":"8592605"},{"name":"加津佐町己","zip_code":"8592601"},{"name":"加津佐町甲","zip_code":"8592606"},{"name":"加津佐町丁","zip_code":"8592603"},{"name":"加津佐町丙","zip_code":"8592604"},{"name":"加津佐町戊","zip_code":"8592602"},{"name":"北有馬町乙","zip_code":"8592302"},{"name":"北有馬町己","zip_code":"8592306"},{"name":"北有馬町甲","zip_code":"8592301"},{"name":"北有馬町丁","zip_code":"8592304"},{"name":"北有馬町丙","zip_code":"8592303"},{"name":"北有馬町戊","zip_code":"8592305"},{"name":"口之津町乙","zip_code":"8592501"},{"name":"口之津町甲","zip_code":"8592502"},{"name":"口之津町丁","zip_code":"8592503"},{"name":"口之津町丙","zip_code":"8592504"},{"name":"西有家町里坊","zip_code":"8592211"},{"name":"西有家町慈恩寺","zip_code":"8592214"},{"name":"西有家町須川","zip_code":"8592212"},{"name":"西有家町龍石","zip_code":"8592216"},{"name":"西有家町長野","zip_code":"8592215"},{"name":"西有家町見岳","zip_code":"8592213"},{"name":"深江町乙","zip_code":"8591502"},{"name":"深江町甲","zip_code":"8591501"},{"name":"深江町丁","zip_code":"8591504"},{"name":"深江町丙","zip_code":"8591503"},{"name":"深江町戊","zip_code":"8591505"},{"name":"布津町乙","zip_code":"8592112"},{"name":"布津町甲","zip_code":"8592111"},{"name":"布津町丙","zip_code":"8592113"},{"name":"南有馬町乙","zip_code":"8592412"},{"name":"南有馬町己","zip_code":"8592316"},{"name":"南有馬町甲","zip_code":"8592411"},{"name":"南有馬町丁","zip_code":"8592414"},{"name":"南有馬町丙","zip_code":"8592413"},{"name":"南有馬町戊","zip_code":"8592415"}]},{"name":"西彼杵郡長与町","divisions":[{"name":"嬉里郷","zip_code":"8512128"},{"name":"岡郷","zip_code":"8512121"},{"name":"高田郷","zip_code":"8512127"},{"name":"斉藤郷","zip_code":"8512129"},{"name":"平木場郷","zip_code":"8512123"},{"name":"本川内郷","zip_code":"8512122"},{"name":"まなび野","zip_code":"8512130"},{"name":"丸田郷","zip_code":"8512124"},{"name":"三根郷","zip_code":"8512125"},{"name":"吉無田郷","zip_code":"8512126"}]},{"name":"西彼杵郡時津町","divisions":[{"name":"浦郷","zip_code":"8512105"},{"name":"久留里郷","zip_code":"8512107"},{"name":"左底郷","zip_code":"8512106"},{"name":"子々川郷","zip_code":"8512111"},{"name":"西時津郷","zip_code":"8512101"},{"name":"野田郷","zip_code":"8512104"},{"name":"浜田郷","zip_code":"8512102"},{"name":"日並郷","zip_code":"8512108"},{"name":"元村郷","zip_code":"8512103"}]},{"name":"東彼杵郡東彼杵町","divisions":[{"name":"大音琴郷","zip_code":"8593811"},{"name":"蕪郷","zip_code":"8593926"},{"name":"川内郷","zip_code":"8593805"},{"name":"口木田郷","zip_code":"8593809"},{"name":"蔵本郷","zip_code":"8593808"},{"name":"小音琴郷","zip_code":"8593812"},{"name":"木場郷","zip_code":"8593931"},{"name":"坂本郷","zip_code":"8593802"},{"name":"里郷","zip_code":"8593929"},{"name":"菅無田郷","zip_code":"8593803"},{"name":"瀬戸郷","zip_code":"8593923"},{"name":"彼杵宿郷","zip_code":"8593807"},{"name":"駄地郷","zip_code":"8593927"},{"name":"太ノ浦郷","zip_code":"8593924"},{"name":"千綿宿郷","zip_code":"8593921"},{"name":"遠目郷","zip_code":"8593932"},{"name":"中尾郷","zip_code":"8593801"},{"name":"中岳郷","zip_code":"8593925"},{"name":"八反田郷","zip_code":"8593922"},{"name":"一ッ石郷","zip_code":"8593933"},{"name":"平似田郷","zip_code":"8593928"},{"name":"法音寺郷","zip_code":"8593804"},{"name":"三根郷","zip_code":"8593806"}]},{"name":"東彼杵郡川棚町","divisions":[{"name":"石木郷","zip_code":"8593604"},{"name":"猪乗川内郷","zip_code":"8593601"},{"name":"岩屋郷","zip_code":"8593603"},{"name":"小串郷","zip_code":"8593618"},{"name":"上組郷","zip_code":"8593613"},{"name":"五反田郷","zip_code":"8593612"},{"name":"小音琴郷","zip_code":"8593606"},{"name":"木場郷","zip_code":"8593602"},{"name":"栄町","zip_code":"8593608"},{"name":"下組郷","zip_code":"8593615"},{"name":"白石郷","zip_code":"8593616"},{"name":"城山町","zip_code":"8593607"},{"name":"新谷郷","zip_code":"8593619"},{"name":"中組郷","zip_code":"8593614"},{"name":"中山郷","zip_code":"8593611"},{"name":"三越郷","zip_code":"8593617"},{"name":"百津郷","zip_code":"8593605"}]},{"name":"東彼杵郡波佐見町","divisions":[{"name":"井石郷","zip_code":"8593711"},{"name":"鬼木郷","zip_code":"8593713"},{"name":"折敷瀬郷","zip_code":"8593701"},{"name":"金屋郷","zip_code":"8593714"},{"name":"川内郷","zip_code":"8593721"},{"name":"小樽郷","zip_code":"8593704"},{"name":"皿山郷","zip_code":"8593727"},{"name":"志折郷","zip_code":"8593724"},{"name":"宿郷","zip_code":"8593715"},{"name":"岳辺田郷","zip_code":"8593722"},{"name":"田ノ頭郷","zip_code":"8593716"},{"name":"中尾郷","zip_code":"8593712"},{"name":"永尾郷","zip_code":"8593705"},{"name":"長野郷","zip_code":"8593725"},{"name":"野々川郷","zip_code":"8593703"},{"name":"稗木場郷","zip_code":"8593726"},{"name":"平野郷","zip_code":"8593723"},{"name":"三股郷","zip_code":"8593706"},{"name":"村木郷","zip_code":"8593728"},{"name":"湯無田郷","zip_code":"8593702"}]},{"name":"北松浦郡小値賀町","divisions":[{"name":"大島郷","zip_code":"8574708"},{"name":"黒島郷","zip_code":"8574706"},{"name":"中村郷","zip_code":"8574703"},{"name":"納島郷","zip_code":"8574711"},{"name":"野崎郷","zip_code":"8574709"},{"name":"浜津郷","zip_code":"8574705"},{"name":"笛吹郷","zip_code":"8574701"},{"name":"前方郷","zip_code":"8574702"},{"name":"班島郷","zip_code":"8574707"},{"name":"六島郷","zip_code":"8574712"},{"name":"柳郷","zip_code":"8574704"}]},{"name":"北松浦郡佐々町","divisions":[{"name":"石木場免","zip_code":"8570334"},{"name":"市瀬免","zip_code":"8570321"},{"name":"市場免","zip_code":"8570312"},{"name":"江里免","zip_code":"8570323"},{"name":"大茂免","zip_code":"8570324"},{"name":"沖田免","zip_code":"8570353"},{"name":"皆瀬免","zip_code":"8570335"},{"name":"鴨川免","zip_code":"8570313"},{"name":"口石免","zip_code":"8570352"},{"name":"栗林免","zip_code":"8570332"},{"name":"神田免","zip_code":"8570336"},{"name":"小浦免","zip_code":"8570361"},{"name":"木場免","zip_code":"8570343"},{"name":"志方免","zip_code":"8570315"},{"name":"須崎免","zip_code":"8570351"},{"name":"角山免","zip_code":"8570338"},{"name":"中川原免","zip_code":"8570333"},{"name":"野寄免","zip_code":"8570331"},{"name":"羽須和免","zip_code":"8570341"},{"name":"平野免","zip_code":"8570342"},{"name":"古川免","zip_code":"8570314"},{"name":"本田原免","zip_code":"8570311"},{"name":"松瀬免","zip_code":"8570322"},{"name":"迎木場免","zip_code":"8570344"},{"name":"八口免","zip_code":"8570337"}]},{"name":"南松浦郡新上五島町","divisions":[{"name":"相河郷","zip_code":"8574411"},{"name":"青方郷","zip_code":"8574404"},{"name":"赤尾郷","zip_code":"8574101"},{"name":"阿瀬津郷","zip_code":"8533322"},{"name":"網上郷","zip_code":"8574401"},{"name":"荒川郷","zip_code":"8532304"},{"name":"有川郷","zip_code":"8574211"},{"name":"有福郷","zip_code":"8532313"},{"name":"飯ノ瀬戸郷","zip_code":"8574414"},{"name":"今里郷","zip_code":"8574413"},{"name":"岩瀬浦郷","zip_code":"8533102"},{"name":"浦桑郷","zip_code":"8574511"},{"name":"榎津郷","zip_code":"8574512"},{"name":"江ノ浜郷","zip_code":"8574103"},{"name":"太田郷","zip_code":"8574213"},{"name":"小河原郷","zip_code":"8574212"},{"name":"桐古里郷","zip_code":"8532302"},{"name":"小串郷","zip_code":"8574601"},{"name":"榊ノ浦郷","zip_code":"8532311"},{"name":"宿ノ浦郷","zip_code":"8532303"},{"name":"曽根郷","zip_code":"8574602"},{"name":"鯛ノ浦郷","zip_code":"8533321"},{"name":"立串郷","zip_code":"8574603"},{"name":"続浜ノ浦郷","zip_code":"8574415"},{"name":"津和崎郷","zip_code":"8574604"},{"name":"友住郷","zip_code":"8574102"},{"name":"七目郷","zip_code":"8574214"},{"name":"奈摩郷","zip_code":"8574402"},{"name":"奈良尾郷","zip_code":"8533101"},{"name":"西神ノ浦郷","zip_code":"8532305"},{"name":"似首郷","zip_code":"8574514"},{"name":"東神ノ浦郷","zip_code":"8533323"},{"name":"日島郷","zip_code":"8532312"},{"name":"船崎郷","zip_code":"8574405"},{"name":"間伏郷","zip_code":"8532315"},{"name":"丸尾郷","zip_code":"8574513"},{"name":"三日ノ浦郷","zip_code":"8574412"},{"name":"道土井郷","zip_code":"8574416"},{"name":"漁生浦郷","zip_code":"8532314"},{"name":"若松郷","zip_code":"8532301"}]}]}