{"name":"熊本県","cities":[{"name":"熊本市中央区","divisions":[{"name":"安政町","zip_code":"8600801"},{"name":"井川淵町","zip_code":"8600841"},{"name":"出水","zip_code":"8620941"},{"name":"板屋町","zip_code":"8600043"},{"name":"魚屋町","zip_code":"8600031"},{"name":"内坪井町","zip_code":"8600077"},{"name":"江津","zip_code":"8620942"},{"name":"大江","zip_code":"8620971"},{"name":"大江本町","zip_code":"8620973"},{"name":"岡田町","zip_code":"8620958"},{"name":"帯山","zip_code":"8620924"},{"name":"鍛冶屋町","zip_code":"8600026"},{"name":"上鍛冶屋町","zip_code":"8600021"},{"name":"上京塚町","zip_code":"8620953"},{"name":"上水前寺","zip_code":"8620951"},{"name":"上通町","zip_code":"8600845"},{"name":"上林町","zip_code":"8600847"},{"name":"辛島町","zip_code":"8600804"},{"name":"川端町","zip_code":"8600039"},{"name":"河原町","zip_code":"8600023"},{"name":"北千反畑町","zip_code":"8600855"},{"name":"京町","zip_code":"8600078"},{"name":"京町本丁","zip_code":"8600081"},{"name":"草葉町","zip_code":"8600843"},{"name":"九品寺","zip_code":"8620976"},{"name":"黒髪","zip_code":"8600862"},{"name":"神水","zip_code":"8620954"},{"name":"神水本町","zip_code":"8620955"},{"name":"慶徳堀町","zip_code":"8600014"},{"name":"紺屋阿弥陀寺町","zip_code":"8600033"},{"name":"紺屋今町","zip_code":"8600012"},{"name":"紺屋町","zip_code":"8600025"},{"name":"子飼本町","zip_code":"8600851"},{"name":"国府","zip_code":"8620949"},{"name":"国府本町","zip_code":"8620948"},{"name":"小沢町","zip_code":"8600042"},{"name":"古城町","zip_code":"8600003"},{"name":"壺川","zip_code":"8600076"},{"name":"湖東","zip_code":"8620909"},{"name":"琴平","zip_code":"8600813"},{"name":"琴平本町","zip_code":"8600814"},{"name":"呉服町","zip_code":"8600035"},{"name":"米屋町","zip_code":"8600029"},{"name":"細工町","zip_code":"8600041"},{"name":"桜町","zip_code":"8600805"},{"name":"三郎","zip_code":"8620922"},{"name":"島崎","zip_code":"8600073"},{"name":"下通","zip_code":"8600807"},{"name":"十禅寺","zip_code":"8600824"},{"name":"十禅寺町","zip_code":"8600825"},{"name":"城東町","zip_code":"8600846"},{"name":"新大江","zip_code":"8620972"},{"name":"新鍛冶屋町","zip_code":"8600011"},{"name":"新市街","zip_code":"8600803"},{"name":"新町","zip_code":"8600004"},{"name":"新屋敷","zip_code":"8620975"},{"name":"水前寺","zip_code":"8620950"},{"name":"水前寺公園","zip_code":"8620956"},{"name":"水道町","zip_code":"8600844"},{"name":"菅原町","zip_code":"8620957"},{"name":"船場町","zip_code":"8600019"},{"name":"船場町下","zip_code":"8600018"},{"name":"段山本町","zip_code":"8600006"},{"name":"千葉城町","zip_code":"8600001"},{"name":"中央街","zip_code":"8600802"},{"name":"坪井","zip_code":"8600863"},{"name":"手取本町","zip_code":"8600808"},{"name":"通町","zip_code":"8600013"},{"name":"渡鹿","zip_code":"8620970"},{"name":"中唐人町","zip_code":"8600028"},{"name":"西阿弥陀寺町","zip_code":"8600037"},{"name":"西子飼町","zip_code":"8600853"},{"name":"西唐人町","zip_code":"8600027"},{"name":"二の丸","zip_code":"8600008"},{"name":"萩原町","zip_code":"8600832"},{"name":"白山","zip_code":"8620959"},{"name":"八王寺町","zip_code":"8600831"},{"name":"花畑町","zip_code":"8600806"},{"name":"春竹町","zip_code":"8600815"},{"name":"東阿弥陀寺町","zip_code":"8600034"},{"name":"東京塚町","zip_code":"8620923"},{"name":"東子飼町","zip_code":"8600854"},{"name":"古桶屋町","zip_code":"8600038"},{"name":"古川町","zip_code":"8600015"},{"name":"古京町","zip_code":"8600007"},{"name":"古大工町","zip_code":"8600036"},{"name":"平成","zip_code":"8600833"},{"name":"保田窪","zip_code":"8620926"},{"name":"本荘","zip_code":"8600811"},{"name":"本荘町","zip_code":"8600816"},{"name":"本丸","zip_code":"8600002"},{"name":"松原町","zip_code":"8600024"},{"name":"南熊本","zip_code":"8600812"},{"name":"南千反畑町","zip_code":"8600842"},{"name":"南坪井町","zip_code":"8600848"},{"name":"宮内","zip_code":"8600005"},{"name":"妙体寺町","zip_code":"8600856"},{"name":"迎町","zip_code":"8600817"},{"name":"室園町","zip_code":"8618072"},{"name":"本山","zip_code":"8600821"},{"name":"本山町","zip_code":"8600822"},{"name":"薬園町","zip_code":"8600852"},{"name":"山崎町","zip_code":"8600016"},{"name":"弥生町","zip_code":"8600818"},{"name":"横紺屋町","zip_code":"8600022"},{"name":"横手","zip_code":"8600046"},{"name":"世安町","zip_code":"8600823"},{"name":"万町","zip_code":"8600032"},{"name":"練兵町","zip_code":"8600017"}]},{"name":"熊本市東区","divisions":[{"name":"秋津","zip_code":"8612104"},{"name":"秋津新町","zip_code":"8612107"},{"name":"秋津町秋田","zip_code":"8612105"},{"name":"石原","zip_code":"8618046"},{"name":"石原町","zip_code":"8618014"},{"name":"出水","zip_code":"8620941"},{"name":"画図東","zip_code":"8620961"},{"name":"画図町上無田","zip_code":"8620944"},{"name":"画図町重富","zip_code":"8620947"},{"name":"画図町下江津","zip_code":"8620943"},{"name":"画図町下無田","zip_code":"8620945"},{"name":"画図町所島","zip_code":"8620946"},{"name":"江津","zip_code":"8620942"},{"name":"榎町","zip_code":"8620917"},{"name":"尾ノ上","zip_code":"8620913"},{"name":"帯山","zip_code":"8620924"},{"name":"小峯","zip_code":"8620933"},{"name":"小山","zip_code":"8618045"},{"name":"小山町","zip_code":"8618030"},{"name":"鹿帰瀬町","zip_code":"8618011"},{"name":"上南部","zip_code":"8618010"},{"name":"上南部町","zip_code":"8618017"},{"name":"京塚本町","zip_code":"8620952"},{"name":"神水本町","zip_code":"8620955"},{"name":"健軍","zip_code":"8620911"},{"name":"健軍本町","zip_code":"8620910"},{"name":"神園","zip_code":"8618044"},{"name":"湖東","zip_code":"8620909"},{"name":"御領","zip_code":"8618035"},{"name":"栄町","zip_code":"8620904"},{"name":"桜木","zip_code":"8612101"},{"name":"佐土原","zip_code":"8620916"},{"name":"三郎","zip_code":"8620922"},{"name":"下江津","zip_code":"8620960"},{"name":"下南部","zip_code":"8618019"},{"name":"昭和町","zip_code":"8612108"},{"name":"新生","zip_code":"8620908"},{"name":"新南部","zip_code":"8618028"},{"name":"新外","zip_code":"8620921"},{"name":"水源","zip_code":"8620907"},{"name":"月出","zip_code":"8620920"},{"name":"戸島","zip_code":"8618041"},{"name":"戸島西","zip_code":"8618043"},{"name":"戸島本町","zip_code":"8618042"},{"name":"戸島町","zip_code":"8618031"},{"name":"渡鹿","zip_code":"8620970"},{"name":"中江町","zip_code":"8618015"},{"name":"長嶺西","zip_code":"8618037"},{"name":"長嶺東","zip_code":"8618038"},{"name":"長嶺南","zip_code":"8618039"},{"name":"錦ケ丘","zip_code":"8620912"},{"name":"西原","zip_code":"8618029"},{"name":"沼山津","zip_code":"8612102"},{"name":"八反田","zip_code":"8618034"},{"name":"花立","zip_code":"8612118"},{"name":"東京塚町","zip_code":"8620923"},{"name":"東野","zip_code":"8612106"},{"name":"東本町","zip_code":"8620902"},{"name":"東町","zip_code":"8620901"},{"name":"平山町","zip_code":"8618012"},{"name":"広木町","zip_code":"8620906"},{"name":"保田窪","zip_code":"8620926"},{"name":"保田窪本町","zip_code":"8620925"},{"name":"南町","zip_code":"8620905"},{"name":"山ノ内","zip_code":"8620914"},{"name":"山ノ神","zip_code":"8620915"},{"name":"弓削町","zip_code":"8618013"},{"name":"吉原町","zip_code":"8618016"},{"name":"若葉","zip_code":"8620903"}]},{"name":"熊本市西区","divisions":[{"name":"池亀町","zip_code":"8600071"},{"name":"池田","zip_code":"8600082"},{"name":"池上町","zip_code":"8600048"},{"name":"沖新町","zip_code":"8615273"},{"name":"小島","zip_code":"8615287"},{"name":"小島上町","zip_code":"8615285"},{"name":"小島下町","zip_code":"8615284"},{"name":"春日","zip_code":"8600047"},{"name":"上熊本","zip_code":"8600079"},{"name":"上代","zip_code":"8600068"},{"name":"上高橋","zip_code":"8600061"},{"name":"河内町大多尾","zip_code":"8615341"},{"name":"河内町面木","zip_code":"8615345"},{"name":"河内町河内","zip_code":"8615346"},{"name":"河内町白浜","zip_code":"8615348"},{"name":"河内町岳","zip_code":"8615344"},{"name":"河内町東門寺","zip_code":"8615342"},{"name":"河内町野出","zip_code":"8615343"},{"name":"河内町船津","zip_code":"8615347"},{"name":"京町本丁","zip_code":"8600081"},{"name":"島崎","zip_code":"8600073"},{"name":"城山大塘","zip_code":"8600067"},{"name":"城山上代町","zip_code":"8600063"},{"name":"城山下代","zip_code":"8600066"},{"name":"城山半田","zip_code":"8600064"},{"name":"城山薬師","zip_code":"8600065"},{"name":"新土河原","zip_code":"8600056"},{"name":"新港","zip_code":"8615274"},{"name":"高橋町","zip_code":"8600062"},{"name":"田崎","zip_code":"8600053"},{"name":"田崎本町","zip_code":"8600052"},{"name":"田崎町","zip_code":"8600058"},{"name":"谷尾崎町","zip_code":"8600044"},{"name":"津浦町","zip_code":"8600088"},{"name":"出町","zip_code":"8600074"},{"name":"戸坂町","zip_code":"8600045"},{"name":"中島町","zip_code":"8615272"},{"name":"中原町","zip_code":"8615271"},{"name":"二本木","zip_code":"8600051"},{"name":"野中","zip_code":"8600059"},{"name":"花園","zip_code":"8600072"},{"name":"稗田町","zip_code":"8600075"},{"name":"松尾町上松尾","zip_code":"8615283"},{"name":"松尾町近津","zip_code":"8615281"},{"name":"松尾町平山","zip_code":"8615282"},{"name":"八島","zip_code":"8600054"},{"name":"八島町","zip_code":"8600057"},{"name":"横手","zip_code":"8600046"},{"name":"蓮台寺","zip_code":"8600055"}]},{"name":"熊本市南区","divisions":[{"name":"会富町","zip_code":"8614121"},{"name":"荒尾","zip_code":"8614136"},{"name":"荒尾町","zip_code":"8614136"},{"name":"出仲間","zip_code":"8620963"},{"name":"今町","zip_code":"8615251"},{"name":"海路口町","zip_code":"8614124"},{"name":"薄場","zip_code":"8614131"},{"name":"薄場町","zip_code":"8614131"},{"name":"内田町","zip_code":"8614127"},{"name":"江越","zip_code":"8600834"},{"name":"奥古閑町","zip_code":"8614125"},{"name":"上ノ郷","zip_code":"8614132"},{"name":"刈草","zip_code":"8614134"},{"name":"川口町","zip_code":"8614123"},{"name":"川尻","zip_code":"8614115"},{"name":"合志","zip_code":"8614111"},{"name":"幸田","zip_code":"8614108"},{"name":"護藤町","zip_code":"8614117"},{"name":"島町","zip_code":"8614133"},{"name":"十禅寺","zip_code":"8600824"},{"name":"城南町赤見","zip_code":"8614231"},{"name":"城南町阿高","zip_code":"8614224"},{"name":"城南町碇","zip_code":"8614205"},{"name":"城南町出水","zip_code":"8614213"},{"name":"城南町今吉野","zip_code":"8614211"},{"name":"城南町隈庄","zip_code":"8614203"},{"name":"城南町坂野","zip_code":"8614201"},{"name":"城南町さんさん","zip_code":"8614206"},{"name":"城南町沈目","zip_code":"8614215"},{"name":"城南町島田","zip_code":"8614236"},{"name":"城南町下宮地","zip_code":"8614204"},{"name":"城南町陳内","zip_code":"8614221"},{"name":"城南町高","zip_code":"8614232"},{"name":"城南町千町","zip_code":"8614235"},{"name":"城南町築地","zip_code":"8614212"},{"name":"城南町塚原","zip_code":"8614226"},{"name":"城南町永","zip_code":"8614234"},{"name":"城南町丹生宮","zip_code":"8614233"},{"name":"城南町東阿高","zip_code":"8614225"},{"name":"城南町藤山","zip_code":"8614223"},{"name":"城南町舞原","zip_code":"8614214"},{"name":"城南町宮地","zip_code":"8614202"},{"name":"城南町六田","zip_code":"8614237"},{"name":"城南町鰐瀬","zip_code":"8614222"},{"name":"白藤","zip_code":"8614112"},{"name":"白石町","zip_code":"8615264"},{"name":"砂原町","zip_code":"8615255"},{"name":"銭塘町","zip_code":"8614126"},{"name":"田井島","zip_code":"8620965"},{"name":"田迎","zip_code":"8620962"},{"name":"田迎町田井島","zip_code":"8620965"},{"name":"田迎町良町","zip_code":"8620966"},{"name":"近見","zip_code":"8614101"},{"name":"土河原町","zip_code":"8615252"},{"name":"鳶町","zip_code":"8614135"},{"name":"富合町榎津","zip_code":"8614146"},{"name":"富合町大町","zip_code":"8614145"},{"name":"富合町御船手","zip_code":"8614141"},{"name":"富合町硴江","zip_code":"8614165"},{"name":"富合町上杉","zip_code":"8614143"},{"name":"富合町清藤","zip_code":"8614151"},{"name":"富合町木原","zip_code":"8614153"},{"name":"富合町小岩瀬","zip_code":"8614161"},{"name":"富合町莎崎","zip_code":"8614166"},{"name":"富合町古閑","zip_code":"8614157"},{"name":"富合町国町","zip_code":"8614162"},{"name":"富合町菰江","zip_code":"8614167"},{"name":"富合町志々水","zip_code":"8614163"},{"name":"富合町釈迦堂","zip_code":"8614144"},{"name":"富合町新","zip_code":"8614152"},{"name":"富合町杉島","zip_code":"8614142"},{"name":"富合町田尻","zip_code":"8614156"},{"name":"富合町西田尻","zip_code":"8614164"},{"name":"富合町平原","zip_code":"8614154"},{"name":"富合町廻江","zip_code":"8614147"},{"name":"富合町南田尻","zip_code":"8614155"},{"name":"中無田町","zip_code":"8614116"},{"name":"並建町","zip_code":"8615263"},{"name":"野口","zip_code":"8614137"},{"name":"野口町","zip_code":"8614137"},{"name":"野田","zip_code":"8614114"},{"name":"畠口町","zip_code":"8615265"},{"name":"八王寺町","zip_code":"8600831"},{"name":"八分字町","zip_code":"8615253"},{"name":"浜口町","zip_code":"8615262"},{"name":"日吉","zip_code":"8614109"},{"name":"平田","zip_code":"8600826"},{"name":"平成","zip_code":"8600833"},{"name":"孫代町","zip_code":"8615254"},{"name":"馬渡","zip_code":"8620968"},{"name":"美登里町","zip_code":"8614122"},{"name":"南高江","zip_code":"8614106"},{"name":"御幸木部町","zip_code":"8614104"},{"name":"御幸西無田町","zip_code":"8614102"},{"name":"御幸笛田町","zip_code":"8614103"},{"name":"御幸木部","zip_code":"8614173"},{"name":"御幸西","zip_code":"8614171"},{"name":"御幸笛田","zip_code":"8614172"},{"name":"無田口町","zip_code":"8615261"},{"name":"元三町","zip_code":"8614105"},{"name":"八幡","zip_code":"8614113"},{"name":"良町","zip_code":"8620969"},{"name":"流通団地","zip_code":"8620967"}]},{"name":"熊本市北区","divisions":[{"name":"麻生田","zip_code":"8618081"},{"name":"改寄町","zip_code":"8615501"},{"name":"池田","zip_code":"8600082"},{"name":"和泉町","zip_code":"8615533"},{"name":"植木町鐙田","zip_code":"8610142"},{"name":"植木町有泉","zip_code":"8610123"},{"name":"植木町石川","zip_code":"8610124"},{"name":"植木町伊知坊","zip_code":"8610113"},{"name":"植木町今藤","zip_code":"8610104"},{"name":"植木町岩野","zip_code":"8610136"},{"name":"植木町植木","zip_code":"8610132"},{"name":"植木町上古閑","zip_code":"8610152"},{"name":"植木町後古閑","zip_code":"8610156"},{"name":"植木町内","zip_code":"8610102"},{"name":"植木町円台寺","zip_code":"8610153"},{"name":"植木町大井","zip_code":"8610126"},{"name":"植木町荻迫","zip_code":"8610145"},{"name":"植木町小野","zip_code":"8610125"},{"name":"植木町亀甲","zip_code":"8610127"},{"name":"植木町木留","zip_code":"8610151"},{"name":"植木町清水","zip_code":"8610103"},{"name":"植木町鞍掛","zip_code":"8610161"},{"name":"植木町古閑","zip_code":"8610122"},{"name":"植木町色出","zip_code":"8610116"},{"name":"植木町正清","zip_code":"8610117"},{"name":"植木町鈴麦","zip_code":"8610164"},{"name":"植木町大和","zip_code":"8610143"},{"name":"植木町田底","zip_code":"8610112"},{"name":"植木町滴水","zip_code":"8610133"},{"name":"植木町轟","zip_code":"8610155"},{"name":"植木町富応","zip_code":"8610162"},{"name":"植木町豊岡","zip_code":"8610163"},{"name":"植木町豊田","zip_code":"8610106"},{"name":"植木町投刀塚","zip_code":"8610141"},{"name":"植木町那知","zip_code":"8610154"},{"name":"植木町一木","zip_code":"8610135"},{"name":"植木町平井","zip_code":"8610121"},{"name":"植木町平野","zip_code":"8610144"},{"name":"植木町平原","zip_code":"8610165"},{"name":"植木町広住","zip_code":"8610131"},{"name":"植木町舟島","zip_code":"8610114"},{"name":"植木町辺田野","zip_code":"8610146"},{"name":"植木町味取","zip_code":"8610105"},{"name":"植木町宮原","zip_code":"8610111"},{"name":"植木町舞尾","zip_code":"8610134"},{"name":"植木町山本","zip_code":"8610101"},{"name":"植木町米塚","zip_code":"8610115"},{"name":"兎谷","zip_code":"8618082"},{"name":"打越町","zip_code":"8600086"},{"name":"大窪","zip_code":"8600083"},{"name":"大鳥居町","zip_code":"8615502"},{"name":"梶尾町","zip_code":"8615512"},{"name":"鹿子木町","zip_code":"8615521"},{"name":"釜尾町","zip_code":"8615534"},{"name":"北迫町","zip_code":"8615531"},{"name":"楠","zip_code":"8618003"},{"name":"楠野町","zip_code":"8615511"},{"name":"黒髪","zip_code":"8600862"},{"name":"黒髪町坪井","zip_code":"8600861"},{"name":"小糸山町","zip_code":"8615504"},{"name":"清水岩倉","zip_code":"8618084"},{"name":"清水亀井町","zip_code":"8618066"},{"name":"清水新地","zip_code":"8618075"},{"name":"清水東町","zip_code":"8618065"},{"name":"清水本町","zip_code":"8618074"},{"name":"清水万石","zip_code":"8618068"},{"name":"清水町打越","zip_code":"8600087"},{"name":"清水町松崎","zip_code":"8618073"},{"name":"清水町室園","zip_code":"8618071"},{"name":"下硯川","zip_code":"8615526"},{"name":"下硯川町","zip_code":"8615522"},{"name":"硯川町","zip_code":"8615524"},{"name":"高平","zip_code":"8600085"},{"name":"龍田","zip_code":"8618006"},{"name":"龍田陳内","zip_code":"8618005"},{"name":"龍田町弓削","zip_code":"8618002"},{"name":"龍田弓削","zip_code":"8618007"},{"name":"太郎迫町","zip_code":"8615532"},{"name":"津浦町","zip_code":"8600088"},{"name":"鶴羽田","zip_code":"8615517"},{"name":"鶴羽田町","zip_code":"8615513"},{"name":"徳王","zip_code":"8615525"},{"name":"徳王町","zip_code":"8615523"},{"name":"西梶尾町","zip_code":"8615516"},{"name":"楡木","zip_code":"8618083"},{"name":"八景水谷","zip_code":"8618064"},{"name":"飛田","zip_code":"8615514"},{"name":"万楽寺町","zip_code":"8615537"},{"name":"貢町","zip_code":"8615535"},{"name":"武蔵ケ丘","zip_code":"8618001"},{"name":"室園町","zip_code":"8618072"},{"name":"明徳町","zip_code":"8615503"},{"name":"山室","zip_code":"8600084"},{"name":"四方寄町","zip_code":"8615515"},{"name":"立福寺町","zip_code":"8615536"}]},{"name":"八代市","divisions":[{"name":"揚町","zip_code":"8695152"},{"name":"旭中央通","zip_code":"8660844"},{"name":"海士江町","zip_code":"8660893"},{"name":"井揚町","zip_code":"8660011"},{"name":"泉町柿迫","zip_code":"8694501"},{"name":"泉町栗木","zip_code":"8694402"},{"name":"泉町久連子","zip_code":"8694513"},{"name":"泉町椎原","zip_code":"8694514"},{"name":"泉町下岳","zip_code":"8694403"},{"name":"泉町仁田尾","zip_code":"8694515"},{"name":"泉町葉木","zip_code":"8694511"},{"name":"泉町樅木","zip_code":"8694512"},{"name":"井上町","zip_code":"8660825"},{"name":"植柳上町","zip_code":"8660081"},{"name":"植柳下町","zip_code":"8660083"},{"name":"植柳新町","zip_code":"8660084"},{"name":"植柳元町","zip_code":"8660085"},{"name":"大島町","zip_code":"8660035"},{"name":"大手町","zip_code":"8660852"},{"name":"大村町","zip_code":"8660895"},{"name":"岡町小路","zip_code":"8694611"},{"name":"岡町谷川","zip_code":"8694613"},{"name":"岡町中","zip_code":"8694612"},{"name":"沖町","zip_code":"8660013"},{"name":"鏡町有佐","zip_code":"8694213"},{"name":"鏡町内田","zip_code":"8694202"},{"name":"鏡町貝洲","zip_code":"8694223"},{"name":"鏡町鏡","zip_code":"8694203"},{"name":"鏡町鏡村","zip_code":"8694201"},{"name":"鏡町上鏡","zip_code":"8694211"},{"name":"鏡町北新地","zip_code":"8694225"},{"name":"鏡町塩浜","zip_code":"8694224"},{"name":"鏡町芝口","zip_code":"8694204"},{"name":"鏡町下有佐","zip_code":"8694212"},{"name":"鏡町下村","zip_code":"8694215"},{"name":"鏡町中島","zip_code":"8694214"},{"name":"鏡町野崎","zip_code":"8694205"},{"name":"鏡町宝出","zip_code":"8694221"},{"name":"鏡町両出","zip_code":"8694222"},{"name":"上片町","zip_code":"8660813"},{"name":"上日置町","zip_code":"8660824"},{"name":"川田町東","zip_code":"8694615"},{"name":"川田町西","zip_code":"8694616"},{"name":"北の丸町","zip_code":"8660865"},{"name":"北原町","zip_code":"8695162"},{"name":"北平和町","zip_code":"8695166"},{"name":"郡築一番町","zip_code":"8660024"},{"name":"郡築二番町","zip_code":"8660023"},{"name":"郡築三番町","zip_code":"8660022"},{"name":"郡築四番町","zip_code":"8660021"},{"name":"郡築五番町","zip_code":"8660008"},{"name":"郡築六番町","zip_code":"8660007"},{"name":"郡築七番町","zip_code":"8660006"},{"name":"郡築八番町","zip_code":"8660005"},{"name":"郡築九番町","zip_code":"8660004"},{"name":"郡築十番町","zip_code":"8660003"},{"name":"郡築十一番町","zip_code":"8660002"},{"name":"郡築十二番町","zip_code":"8660001"},{"name":"高下東町","zip_code":"8660071"},{"name":"高下西町","zip_code":"8660072"},{"name":"興国町","zip_code":"8660881"},{"name":"高小原町","zip_code":"8660012"},{"name":"上野町","zip_code":"8660894"},{"name":"興善寺町","zip_code":"8694614"},{"name":"古閑上町","zip_code":"8660897"},{"name":"古閑中町","zip_code":"8660898"},{"name":"古閑下町","zip_code":"8660892"},{"name":"古閑浜町","zip_code":"8660891"},{"name":"黄金町","zip_code":"8660845"},{"name":"坂本町鮎帰","zip_code":"8696104"},{"name":"坂本町荒瀬","zip_code":"8696115"},{"name":"坂本町市ノ俣","zip_code":"8696114"},{"name":"坂本町鎌瀬","zip_code":"8696112"},{"name":"坂本町川嶽","zip_code":"8695221"},{"name":"坂本町百済来上","zip_code":"8695225"},{"name":"坂本町百済来下","zip_code":"8695224"},{"name":"坂本町西部","zip_code":"8696101"},{"name":"坂本町坂本","zip_code":"8696105"},{"name":"坂本町田上","zip_code":"8695223"},{"name":"坂本町鶴喰","zip_code":"8695222"},{"name":"坂本町中谷","zip_code":"8696103"},{"name":"坂本町中津道","zip_code":"8696113"},{"name":"坂本町葉木","zip_code":"8696111"},{"name":"坂本町深水","zip_code":"8696102"},{"name":"三楽町","zip_code":"8660017"},{"name":"塩屋町","zip_code":"8660864"},{"name":"敷川内町","zip_code":"8695151"},{"name":"島田町","zip_code":"8660827"},{"name":"清水町","zip_code":"8660853"},{"name":"蛇籠町","zip_code":"8660042"},{"name":"十条町","zip_code":"8660823"},{"name":"昭和同仁町","zip_code":"8694723"},{"name":"昭和日進町","zip_code":"8694721"},{"name":"昭和明徴町","zip_code":"8694722"},{"name":"新開町","zip_code":"8660032"},{"name":"新地町","zip_code":"8660016"},{"name":"新浜町","zip_code":"8660031"},{"name":"新町","zip_code":"8660854"},{"name":"新港町","zip_code":"8660034"},{"name":"末広町","zip_code":"8660832"},{"name":"千反町","zip_code":"8660053"},{"name":"栴檀町","zip_code":"8660054"},{"name":"千丁町太牟田","zip_code":"8694701"},{"name":"千丁町古閑出","zip_code":"8694704"},{"name":"千丁町新牟田","zip_code":"8694703"},{"name":"千丁町吉王丸","zip_code":"8694702"},{"name":"鼠蔵町","zip_code":"8695164"},{"name":"大福寺町","zip_code":"8660082"},{"name":"高植本町","zip_code":"8695154"},{"name":"高島町","zip_code":"8660014"},{"name":"鷹辻町","zip_code":"8660866"},{"name":"竹原町","zip_code":"8660826"},{"name":"建馬町","zip_code":"8660045"},{"name":"田中東町","zip_code":"8660871"},{"name":"田中西町","zip_code":"8660876"},{"name":"田中北町","zip_code":"8660877"},{"name":"田中町","zip_code":"8660872"},{"name":"築添町","zip_code":"8660015"},{"name":"出町","zip_code":"8660857"},{"name":"東陽町河俣","zip_code":"8694303"},{"name":"東陽町北","zip_code":"8694302"},{"name":"東陽町小浦","zip_code":"8694304"},{"name":"東陽町南","zip_code":"8694301"},{"name":"通町","zip_code":"8660856"},{"name":"中片町","zip_code":"8660812"},{"name":"中北町","zip_code":"8660044"},{"name":"永碇町","zip_code":"8660885"},{"name":"長田町","zip_code":"8660815"},{"name":"奈良木町","zip_code":"8660064"},{"name":"西片町","zip_code":"8660811"},{"name":"錦町","zip_code":"8660834"},{"name":"西松江城町","zip_code":"8660863"},{"name":"西宮町","zip_code":"8660804"},{"name":"萩原町","zip_code":"8660831"},{"name":"八幡町","zip_code":"8660041"},{"name":"花園町","zip_code":"8660843"},{"name":"日置町","zip_code":"8660896"},{"name":"東片町","zip_code":"8660814"},{"name":"東町","zip_code":"8660801"},{"name":"毘舎丸町","zip_code":"8660851"},{"name":"日奈久大坪町","zip_code":"8695146"},{"name":"日奈久上西町","zip_code":"8695134"},{"name":"日奈久中西町","zip_code":"8695133"},{"name":"日奈久下西町","zip_code":"8695132"},{"name":"日奈久栄町","zip_code":"8695148"},{"name":"日奈久塩南町","zip_code":"8695141"},{"name":"日奈久塩北町","zip_code":"8695142"},{"name":"日奈久新開町","zip_code":"8695147"},{"name":"日奈久新田町","zip_code":"8695145"},{"name":"日奈久竹之内町","zip_code":"8695143"},{"name":"日奈久中町","zip_code":"8695135"},{"name":"日奈久浜町","zip_code":"8695137"},{"name":"日奈久東町","zip_code":"8695136"},{"name":"日奈久平成町","zip_code":"8695138"},{"name":"日奈久馬越町","zip_code":"8695131"},{"name":"日奈久山下町","zip_code":"8695144"},{"name":"平山新町","zip_code":"8660074"},{"name":"豊原上町","zip_code":"8660063"},{"name":"豊原中町","zip_code":"8660062"},{"name":"豊原下町","zip_code":"8660065"},{"name":"福正町","zip_code":"8660821"},{"name":"福正元町","zip_code":"8660822"},{"name":"袋町","zip_code":"8660855"},{"name":"二見赤松町","zip_code":"8695173"},{"name":"二見下大野町","zip_code":"8695174"},{"name":"二見洲口町","zip_code":"8695171"},{"name":"二見野田崎町","zip_code":"8695175"},{"name":"二見本町","zip_code":"8695172"},{"name":"古城町","zip_code":"8660043"},{"name":"古麓町","zip_code":"8660803"},{"name":"本野町","zip_code":"8660073"},{"name":"本町","zip_code":"8660861"},{"name":"松江城町","zip_code":"8660862"},{"name":"松江本町","zip_code":"8660882"},{"name":"松江町","zip_code":"8660883"},{"name":"松崎町","zip_code":"8660884"},{"name":"水島町","zip_code":"8695155"},{"name":"三江湖町","zip_code":"8695163"},{"name":"緑町","zip_code":"8660841"},{"name":"港町","zip_code":"8660033"},{"name":"南平和町","zip_code":"8695165"},{"name":"宮地町","zip_code":"8660805"},{"name":"妙見町","zip_code":"8660802"},{"name":"迎町","zip_code":"8660055"},{"name":"麦島東町","zip_code":"8660051"},{"name":"麦島西町","zip_code":"8660052"},{"name":"催合町","zip_code":"8695153"},{"name":"弥生町","zip_code":"8660846"},{"name":"夕葉町","zip_code":"8660833"},{"name":"横手新町","zip_code":"8660875"},{"name":"横手本町","zip_code":"8660874"},{"name":"横手町","zip_code":"8660873"},{"name":"葭牟田町","zip_code":"8695161"},{"name":"若草町","zip_code":"8660842"},{"name":"渡町","zip_code":"8660061"}]},{"name":"人吉市","divisions":[{"name":"赤池原町","zip_code":"8680825"},{"name":"赤池水無町","zip_code":"8680824"},{"name":"五日町","zip_code":"8680035"},{"name":"井ノ口町","zip_code":"8680027"},{"name":"上原町","zip_code":"8680047"},{"name":"老神町","zip_code":"8680053"},{"name":"大野町","zip_code":"8680812"},{"name":"大畑麓町","zip_code":"8680811"},{"name":"大畑町","zip_code":"8680803"},{"name":"鬼木町","zip_code":"8680021"},{"name":"温泉町","zip_code":"8680084"},{"name":"鍛冶屋町","zip_code":"8680001"},{"name":"鹿目町","zip_code":"8680078"},{"name":"上青井町","zip_code":"8680005"},{"name":"上漆田町","zip_code":"8680821"},{"name":"上薩摩瀬町","zip_code":"8680013"},{"name":"上新町","zip_code":"8680032"},{"name":"上田代町","zip_code":"8680801"},{"name":"上戸越町","zip_code":"8680076"},{"name":"上永野町","zip_code":"8680073"},{"name":"上林町","zip_code":"8680081"},{"name":"上原田町","zip_code":"8680087"},{"name":"瓦屋町","zip_code":"8680025"},{"name":"願成寺町","zip_code":"8680022"},{"name":"蟹作町","zip_code":"8680042"},{"name":"木地屋町","zip_code":"8680063"},{"name":"北泉田町","zip_code":"8680023"},{"name":"北願成寺町","zip_code":"8680022"},{"name":"合ノ原町","zip_code":"8680026"},{"name":"紺屋町","zip_code":"8680003"},{"name":"九日町","zip_code":"8680004"},{"name":"古仏頂町","zip_code":"8680062"},{"name":"駒井田町","zip_code":"8680006"},{"name":"相良町","zip_code":"8680012"},{"name":"七地町","zip_code":"8680041"},{"name":"下青井町","zip_code":"8680007"},{"name":"下漆田町","zip_code":"8680822"},{"name":"下薩摩瀬町","zip_code":"8680014"},{"name":"下城本町","zip_code":"8680015"},{"name":"下新町","zip_code":"8680033"},{"name":"下田代町","zip_code":"8680802"},{"name":"下戸越町","zip_code":"8680077"},{"name":"下永野町","zip_code":"8680074"},{"name":"下原田町","zip_code":"8680086"},{"name":"下林町","zip_code":"8680083"},{"name":"城本町","zip_code":"8680016"},{"name":"新町","zip_code":"8680052"},{"name":"大工町","zip_code":"8680002"},{"name":"田野町","zip_code":"8680066"},{"name":"田町","zip_code":"8680054"},{"name":"鶴田町","zip_code":"8680024"},{"name":"寺町","zip_code":"8680056"},{"name":"土手町","zip_code":"8680057"},{"name":"富ケ尾町","zip_code":"8680048"},{"name":"中青井町","zip_code":"8680008"},{"name":"中神町","zip_code":"8680085"},{"name":"中林町","zip_code":"8680082"},{"name":"七日町","zip_code":"8680034"},{"name":"浪床町","zip_code":"8680045"},{"name":"西間上町","zip_code":"8680071"},{"name":"西間下町","zip_code":"8680072"},{"name":"西大塚町","zip_code":"8680065"},{"name":"二日町","zip_code":"8680036"},{"name":"灰久保町","zip_code":"8680058"},{"name":"原城町","zip_code":"8680046"},{"name":"東間上町","zip_code":"8680043"},{"name":"東間下町","zip_code":"8680044"},{"name":"東漆田町","zip_code":"8680823"},{"name":"東大塚町","zip_code":"8680064"},{"name":"麓町","zip_code":"8680051"},{"name":"宝来町","zip_code":"8680011"},{"name":"南泉田町","zip_code":"8680037"},{"name":"南願成寺町","zip_code":"8680031"},{"name":"南町","zip_code":"8680055"},{"name":"蓑野町","zip_code":"8680061"},{"name":"矢黒町","zip_code":"8680075"},{"name":"矢岳町","zip_code":"8680813"}]},{"name":"荒尾市","divisions":[{"name":"荒尾","zip_code":"8640041"},{"name":"一部","zip_code":"8640021"},{"name":"牛水","zip_code":"8640026"},{"name":"大島","zip_code":"8640057"},{"name":"大島町","zip_code":"8640051"},{"name":"大平町","zip_code":"8640005"},{"name":"金山","zip_code":"8640162"},{"name":"樺","zip_code":"8640165"},{"name":"上井手","zip_code":"8640013"},{"name":"上平山","zip_code":"8640014"},{"name":"川登","zip_code":"8640031"},{"name":"宮内","zip_code":"8640004"},{"name":"宮内出目","zip_code":"8640003"},{"name":"蔵満","zip_code":"8640027"},{"name":"菰屋","zip_code":"8640161"},{"name":"桜山町","zip_code":"8640022"},{"name":"下井手","zip_code":"8640011"},{"name":"昭和町","zip_code":"8640056"},{"name":"住吉町","zip_code":"8640006"},{"name":"大正町","zip_code":"8640054"},{"name":"高浜","zip_code":"8640025"},{"name":"西原町","zip_code":"8640053"},{"name":"野原","zip_code":"8640163"},{"name":"八幡台","zip_code":"8640164"},{"name":"原万田","zip_code":"8640001"},{"name":"東屋形","zip_code":"8640042"},{"name":"日の出町","zip_code":"8640055"},{"name":"平山","zip_code":"8640015"},{"name":"府本","zip_code":"8640166"},{"name":"本井手","zip_code":"8640012"},{"name":"増永","zip_code":"8640032"},{"name":"万田","zip_code":"8640002"},{"name":"水野","zip_code":"8640023"},{"name":"緑ケ丘","zip_code":"8640033"},{"name":"四ツ山町","zip_code":"8640052"}]},{"name":"水俣市","divisions":[{"name":"旭町","zip_code":"8670044"},{"name":"洗切町","zip_code":"8670063"},{"name":"石坂川","zip_code":"8670174"},{"name":"市渡瀬","zip_code":"8670172"},{"name":"梅戸町","zip_code":"8670056"},{"name":"浦上町","zip_code":"8670036"},{"name":"江添","zip_code":"8670032"},{"name":"江南町","zip_code":"8670022"},{"name":"大川","zip_code":"8670283"},{"name":"大迫","zip_code":"8670009"},{"name":"大園町","zip_code":"8670042"},{"name":"祇園町","zip_code":"8670057"},{"name":"久木野","zip_code":"8670281"},{"name":"葛渡","zip_code":"8670173"},{"name":"古賀町","zip_code":"8670066"},{"name":"越小場","zip_code":"8670284"},{"name":"古城","zip_code":"8670012"},{"name":"小津奈木","zip_code":"8670001"},{"name":"幸町","zip_code":"8670064"},{"name":"栄町","zip_code":"8670059"},{"name":"桜井町","zip_code":"8670045"},{"name":"桜ケ丘","zip_code":"8670007"},{"name":"塩浜町","zip_code":"8670067"},{"name":"汐見町","zip_code":"8670054"},{"name":"昭和町","zip_code":"8670051"},{"name":"白浜町","zip_code":"8670006"},{"name":"陣内","zip_code":"8670011"},{"name":"薄原","zip_code":"8670016"},{"name":"大黒町","zip_code":"8670043"},{"name":"多々良町","zip_code":"8670048"},{"name":"築地","zip_code":"8670062"},{"name":"月浦","zip_code":"8670035"},{"name":"天神町","zip_code":"8670041"},{"name":"中鶴","zip_code":"8670014"},{"name":"長崎","zip_code":"8670033"},{"name":"長野","zip_code":"8670024"},{"name":"長野町","zip_code":"8670013"},{"name":"南福寺","zip_code":"8670023"},{"name":"野口町","zip_code":"8670053"},{"name":"八ノ窪町","zip_code":"8670031"},{"name":"八幡町","zip_code":"8670061"},{"name":"初野","zip_code":"8670002"},{"name":"浜","zip_code":"8670008"},{"name":"浜町","zip_code":"8670065"},{"name":"浜松町","zip_code":"8670068"},{"name":"ひばりケ丘","zip_code":"8670003"},{"name":"百間町","zip_code":"8670049"},{"name":"平町","zip_code":"8670021"},{"name":"深川","zip_code":"8670015"},{"name":"袋","zip_code":"8670034"},{"name":"古里","zip_code":"8670282"},{"name":"宝川内","zip_code":"8670171"},{"name":"牧ノ内","zip_code":"8670005"},{"name":"丸島町","zip_code":"8670058"},{"name":"緑ケ丘","zip_code":"8670047"},{"name":"港町","zip_code":"8670052"},{"name":"明神町","zip_code":"8670055"},{"name":"山手町","zip_code":"8670046"},{"name":"湯出","zip_code":"8670025"},{"name":"わらび野","zip_code":"8670004"}]},{"name":"玉名市","divisions":[{"name":"青木","zip_code":"8650004"},{"name":"青野","zip_code":"8650035"},{"name":"秋丸","zip_code":"8650026"},{"name":"安楽寺","zip_code":"8650014"},{"name":"伊倉南方","zip_code":"8650045"},{"name":"伊倉北方","zip_code":"8650041"},{"name":"石貫","zip_code":"8650008"},{"name":"岩崎","zip_code":"8650016"},{"name":"永徳寺","zip_code":"8650024"},{"name":"大倉","zip_code":"8650023"},{"name":"大浜町","zip_code":"8650055"},{"name":"小島","zip_code":"8650054"},{"name":"小野尻","zip_code":"8650048"},{"name":"片諏訪","zip_code":"8650044"},{"name":"上小田","zip_code":"8650011"},{"name":"亀甲","zip_code":"8650015"},{"name":"河崎","zip_code":"8650007"},{"name":"川島","zip_code":"8650047"},{"name":"川部田","zip_code":"8650017"},{"name":"北坂門田","zip_code":"8650032"},{"name":"北牟田","zip_code":"8650046"},{"name":"小浜","zip_code":"8650057"},{"name":"下","zip_code":"8650013"},{"name":"下小田","zip_code":"8650018"},{"name":"千田川原","zip_code":"8650053"},{"name":"岱明町扇崎","zip_code":"8690213"},{"name":"岱明町大野下","zip_code":"8690224"},{"name":"岱明町古閑","zip_code":"8690235"},{"name":"岱明町西照寺","zip_code":"8690235"},{"name":"岱明町下沖洲","zip_code":"8690212"},{"name":"岱明町下前原","zip_code":"8690221"},{"name":"岱明町上","zip_code":"8690235"},{"name":"岱明町庄山","zip_code":"8690231"},{"name":"岱明町高道","zip_code":"8690202"},{"name":"岱明町中土","zip_code":"8690223"},{"name":"岱明町鍋","zip_code":"8690211"},{"name":"岱明町野口","zip_code":"8690222"},{"name":"岱明町浜田","zip_code":"8690203"},{"name":"岱明町開田","zip_code":"8690238"},{"name":"岱明町三崎","zip_code":"8690234"},{"name":"岱明町山下","zip_code":"8690201"},{"name":"高瀬","zip_code":"8650025"},{"name":"田崎","zip_code":"8650031"},{"name":"玉名","zip_code":"8650005"},{"name":"築地","zip_code":"8650065"},{"name":"月田","zip_code":"8650001"},{"name":"津留","zip_code":"8650021"},{"name":"寺田","zip_code":"8650022"},{"name":"天水町小天","zip_code":"8615401"},{"name":"天水町尾田","zip_code":"8615406"},{"name":"天水町竹崎","zip_code":"8615404"},{"name":"天水町立花","zip_code":"8615402"},{"name":"天水町野部田","zip_code":"8615405"},{"name":"天水町部田見","zip_code":"8615403"},{"name":"富尾","zip_code":"8650062"},{"name":"中","zip_code":"8650064"},{"name":"中尾","zip_code":"8650063"},{"name":"中坂門田","zip_code":"8650033"},{"name":"滑石","zip_code":"8650056"},{"name":"箱谷","zip_code":"8650002"},{"name":"繁根木","zip_code":"8650051"},{"name":"松木","zip_code":"8650052"},{"name":"溝上","zip_code":"8650003"},{"name":"三ツ川","zip_code":"8650009"},{"name":"南坂門田","zip_code":"8650034"},{"name":"宮原","zip_code":"8650042"},{"name":"向津留","zip_code":"8650027"},{"name":"山田","zip_code":"8650066"},{"name":"山部田","zip_code":"8650012"},{"name":"横島町大園","zip_code":"8650071"},{"name":"横島町共栄","zip_code":"8650073"},{"name":"横島町横島","zip_code":"8650072"},{"name":"横田","zip_code":"8650043"},{"name":"立願寺","zip_code":"8650061"},{"name":"両迫間","zip_code":"8650006"},{"name":"六田","zip_code":"8650058"}]},{"name":"山鹿市","divisions":[{"name":"麻生野","zip_code":"8610547"},{"name":"石","zip_code":"8610553"},{"name":"泉町","zip_code":"8610512"},{"name":"大橋通","zip_code":"8610517"},{"name":"小坂","zip_code":"8610521"},{"name":"小原","zip_code":"8610543"},{"name":"小群","zip_code":"8610555"},{"name":"鹿央町合里","zip_code":"8610565"},{"name":"鹿央町岩原","zip_code":"8610561"},{"name":"鹿央町梅木谷","zip_code":"8610574"},{"name":"鹿央町大浦","zip_code":"8610576"},{"name":"鹿央町北谷","zip_code":"8610571"},{"name":"鹿央町霜野","zip_code":"8610573"},{"name":"鹿央町千田","zip_code":"8610563"},{"name":"鹿央町中浦","zip_code":"8610575"},{"name":"鹿央町仁王堂","zip_code":"8610572"},{"name":"鹿央町広","zip_code":"8610564"},{"name":"鹿央町持松","zip_code":"8610562"},{"name":"鹿校通","zip_code":"8610532"},{"name":"方保田","zip_code":"8610382"},{"name":"鹿北町芋生","zip_code":"8610602"},{"name":"鹿北町岩野","zip_code":"8610603"},{"name":"鹿北町椎持","zip_code":"8610604"},{"name":"鹿北町四丁","zip_code":"8610601"},{"name":"鹿北町多久","zip_code":"8610605"},{"name":"上吉田","zip_code":"8610524"},{"name":"蒲生","zip_code":"8610523"},{"name":"鹿本町石渕","zip_code":"8610311"},{"name":"鹿本町小嶋","zip_code":"8610315"},{"name":"鹿本町梶屋","zip_code":"8610312"},{"name":"鹿本町来民","zip_code":"8610331"},{"name":"鹿本町小柳","zip_code":"8610324"},{"name":"鹿本町下高橋","zip_code":"8610316"},{"name":"鹿本町下分田","zip_code":"8610323"},{"name":"鹿本町庄","zip_code":"8610301"},{"name":"鹿本町高橋","zip_code":"8610303"},{"name":"鹿本町津袋","zip_code":"8610302"},{"name":"鹿本町中川","zip_code":"8610314"},{"name":"鹿本町中富","zip_code":"8610313"},{"name":"鹿本町中分田","zip_code":"8610322"},{"name":"鹿本町分田","zip_code":"8610321"},{"name":"鹿本町御宇田","zip_code":"8610304"},{"name":"川端町","zip_code":"8610519"},{"name":"菊鹿町相良","zip_code":"8610412"},{"name":"菊鹿町阿佐古","zip_code":"8610421"},{"name":"菊鹿町池永","zip_code":"8610423"},{"name":"菊鹿町太田","zip_code":"8610402"},{"name":"菊鹿町上内田","zip_code":"8610414"},{"name":"菊鹿町上永野","zip_code":"8610404"},{"name":"菊鹿町木野","zip_code":"8610426"},{"name":"菊鹿町五郎丸","zip_code":"8610403"},{"name":"菊鹿町下内田","zip_code":"8610406"},{"name":"菊鹿町下永野","zip_code":"8610405"},{"name":"菊鹿町長","zip_code":"8610401"},{"name":"菊鹿町松尾","zip_code":"8610424"},{"name":"菊鹿町宮原","zip_code":"8610422"},{"name":"菊鹿町矢谷","zip_code":"8610413"},{"name":"菊鹿町山内","zip_code":"8610411"},{"name":"菊鹿町米原","zip_code":"8610425"},{"name":"久原","zip_code":"8610522"},{"name":"熊入町","zip_code":"8610511"},{"name":"古閑","zip_code":"8610533"},{"name":"坂田","zip_code":"8610546"},{"name":"志々岐","zip_code":"8610542"},{"name":"下吉田","zip_code":"8610526"},{"name":"城","zip_code":"8610554"},{"name":"昭和町","zip_code":"8610515"},{"name":"新町","zip_code":"8610514"},{"name":"杉","zip_code":"8610552"},{"name":"中央通","zip_code":"8610516"},{"name":"椿井","zip_code":"8610548"},{"name":"津留","zip_code":"8610551"},{"name":"寺島","zip_code":"8610527"},{"name":"中","zip_code":"8610531"},{"name":"長坂","zip_code":"8610534"},{"name":"名塚","zip_code":"8610525"},{"name":"鍋田","zip_code":"8610541"},{"name":"西牧","zip_code":"8610545"},{"name":"平山","zip_code":"8610556"},{"name":"藤井","zip_code":"8610381"},{"name":"保多田","zip_code":"8610544"},{"name":"南島","zip_code":"8610535"},{"name":"宗方","zip_code":"8610513"},{"name":"宗方通","zip_code":"8610518"},{"name":"山鹿","zip_code":"8610501"}]},{"name":"菊池市","divisions":[{"name":"赤星","zip_code":"8611311"},{"name":"市野瀬","zip_code":"8611686"},{"name":"出田","zip_code":"8611313"},{"name":"今","zip_code":"8611303"},{"name":"大平","zip_code":"8611683"},{"name":"小木","zip_code":"8611673"},{"name":"片角","zip_code":"8611307"},{"name":"木柑子","zip_code":"8611315"},{"name":"北宮","zip_code":"8611305"},{"name":"木野","zip_code":"8611326"},{"name":"旭志伊坂","zip_code":"8691206"},{"name":"旭志伊萩","zip_code":"8691208"},{"name":"旭志尾足","zip_code":"8691203"},{"name":"旭志小原","zip_code":"8691204"},{"name":"旭志川辺","zip_code":"8691205"},{"name":"旭志新明","zip_code":"8691207"},{"name":"旭志麓","zip_code":"8691202"},{"name":"旭志弁利","zip_code":"8691201"},{"name":"玉祥寺","zip_code":"8611322"},{"name":"袈裟尾","zip_code":"8611325"},{"name":"木庭","zip_code":"8611301"},{"name":"重味","zip_code":"8611682"},{"name":"泗水町亀尾","zip_code":"8611211"},{"name":"泗水町住吉","zip_code":"8611203"},{"name":"泗水町田島","zip_code":"8611214"},{"name":"泗水町富納","zip_code":"8611202"},{"name":"泗水町豊水","zip_code":"8611212"},{"name":"泗水町永","zip_code":"8611204"},{"name":"泗水町福本","zip_code":"8611205"},{"name":"泗水町南田島","zip_code":"8611213"},{"name":"泗水町吉富","zip_code":"8611201"},{"name":"七城町荒牧","zip_code":"8611363"},{"name":"七城町台","zip_code":"8611365"},{"name":"七城町岡田","zip_code":"8611368"},{"name":"七城町小野崎","zip_code":"8611345"},{"name":"七城町加恵","zip_code":"8611356"},{"name":"七城町亀尾","zip_code":"8611342"},{"name":"七城町清水","zip_code":"8611341"},{"name":"七城町甲佐町","zip_code":"8611353"},{"name":"七城町菰入","zip_code":"8611354"},{"name":"七城町新古閑","zip_code":"8611352"},{"name":"七城町砂田","zip_code":"8611351"},{"name":"七城町瀬戸口","zip_code":"8611366"},{"name":"七城町蘇崎","zip_code":"8611344"},{"name":"七城町高島","zip_code":"8611355"},{"name":"七城町高田","zip_code":"8611357"},{"name":"七城町流川","zip_code":"8611367"},{"name":"七城町橋田","zip_code":"8611346"},{"name":"七城町林原","zip_code":"8611343"},{"name":"七城町辺田","zip_code":"8611364"},{"name":"七城町水次","zip_code":"8611361"},{"name":"七城町山崎","zip_code":"8611362"},{"name":"四町分","zip_code":"8611442"},{"name":"下河原","zip_code":"8611302"},{"name":"大琳寺","zip_code":"8611306"},{"name":"豊間","zip_code":"8611684"},{"name":"長田","zip_code":"8611316"},{"name":"西寺","zip_code":"8611323"},{"name":"西迫間","zip_code":"8611685"},{"name":"野間口","zip_code":"8611324"},{"name":"原","zip_code":"8611441"},{"name":"班蛇口","zip_code":"8611671"},{"name":"稗方","zip_code":"8611321"},{"name":"広瀬","zip_code":"8611314"},{"name":"深川","zip_code":"8611304"},{"name":"藤田","zip_code":"8611309"},{"name":"村田","zip_code":"8611317"},{"name":"森北","zip_code":"8611312"},{"name":"雪野","zip_code":"8611681"},{"name":"龍門","zip_code":"8611672"},{"name":"隈府","zip_code":"8611331"},{"name":"亘","zip_code":"8611308"}]},{"name":"宇土市","divisions":[{"name":"赤瀬町","zip_code":"8693175"},{"name":"旭町","zip_code":"8690432"},{"name":"網引町","zip_code":"8690465"},{"name":"網津町","zip_code":"8690461"},{"name":"石小路町","zip_code":"8690441"},{"name":"石橋町","zip_code":"8690456"},{"name":"一里木町","zip_code":"8690435"},{"name":"伊無田町","zip_code":"8690423"},{"name":"入地町","zip_code":"8690422"},{"name":"岩古曽町","zip_code":"8690412"},{"name":"馬之瀬町","zip_code":"8690405"},{"name":"浦田町","zip_code":"8690445"},{"name":"恵塚町","zip_code":"8690464"},{"name":"上網田町","zip_code":"8693172"},{"name":"北段原町","zip_code":"8690451"},{"name":"栗崎町","zip_code":"8690425"},{"name":"神合町","zip_code":"8690426"},{"name":"古保里町","zip_code":"8690415"},{"name":"古城町","zip_code":"8690454"},{"name":"境目町","zip_code":"8690417"},{"name":"栄町","zip_code":"8690453"},{"name":"笹原町","zip_code":"8690402"},{"name":"三拾町","zip_code":"8690406"},{"name":"下網田町","zip_code":"8693173"},{"name":"城塚町","zip_code":"8690462"},{"name":"城之浦町","zip_code":"8690442"},{"name":"定府町","zip_code":"8690436"},{"name":"新開町","zip_code":"8690403"},{"name":"新小路町","zip_code":"8690433"},{"name":"新町","zip_code":"8690444"},{"name":"新松原町","zip_code":"8690419"},{"name":"神馬町","zip_code":"8690424"},{"name":"住吉町","zip_code":"8690401"},{"name":"善道寺町","zip_code":"8690418"},{"name":"船場町","zip_code":"8690443"},{"name":"高柳町","zip_code":"8690452"},{"name":"立岡町","zip_code":"8690414"},{"name":"築籠町","zip_code":"8690408"},{"name":"椿原町","zip_code":"8690455"},{"name":"戸口町","zip_code":"8693174"},{"name":"長浜町","zip_code":"8693171"},{"name":"野鶴町","zip_code":"8690463"},{"name":"走潟町","zip_code":"8690404"},{"name":"花園台町","zip_code":"8690410"},{"name":"花園町","zip_code":"8690413"},{"name":"本町","zip_code":"8690431"},{"name":"松原町","zip_code":"8690407"},{"name":"松山町","zip_code":"8690416"},{"name":"水町","zip_code":"8690411"},{"name":"南段原町","zip_code":"8690421"},{"name":"宮庄町","zip_code":"8690457"},{"name":"門内町","zip_code":"8690434"}]},{"name":"上天草市","divisions":[{"name":"大矢野町維和","zip_code":"8693604"},{"name":"大矢野町上","zip_code":"8693602"},{"name":"大矢野町中","zip_code":"8693603"},{"name":"大矢野町登立","zip_code":"8693601"},{"name":"大矢野町湯島","zip_code":"8693711"},{"name":"姫戸町姫浦","zip_code":"8660101"},{"name":"姫戸町二間戸","zip_code":"8660102"},{"name":"松島町合津","zip_code":"8616102"},{"name":"松島町阿村","zip_code":"8616101"},{"name":"松島町今泉","zip_code":"8616103"},{"name":"松島町内野河内","zip_code":"8616104"},{"name":"松島町教良木","zip_code":"8616105"},{"name":"龍ケ岳町大道","zip_code":"8660201"},{"name":"龍ケ岳町高戸","zip_code":"8660202"},{"name":"龍ケ岳町樋島","zip_code":"8660203"}]},{"name":"宇城市","divisions":[{"name":"小川町江頭","zip_code":"8690624"},{"name":"小川町小川","zip_code":"8690621"},{"name":"小川町川尻","zip_code":"8690623"},{"name":"小川町北小野","zip_code":"8690601"},{"name":"小川町北海東","zip_code":"8690616"},{"name":"小川町北新田","zip_code":"8690631"},{"name":"小川町北部田","zip_code":"8690604"},{"name":"小川町河江","zip_code":"8690606"},{"name":"小川町不知火","zip_code":"8690635"},{"name":"小川町新田","zip_code":"8690633"},{"name":"小川町新田出","zip_code":"8690636"},{"name":"小川町住吉","zip_code":"8690634"},{"name":"小川町中小野","zip_code":"8690602"},{"name":"小川町西海東","zip_code":"8690615"},{"name":"小川町西北小川","zip_code":"8690622"},{"name":"小川町東小川","zip_code":"8690613"},{"name":"小川町東海東","zip_code":"8690611"},{"name":"小川町南小川","zip_code":"8690614"},{"name":"小川町南小野","zip_code":"8690603"},{"name":"小川町南海東","zip_code":"8690612"},{"name":"小川町南新田","zip_code":"8690632"},{"name":"小川町南部田","zip_code":"8690605"},{"name":"不知火町浦上","zip_code":"8690563"},{"name":"不知火町永尾","zip_code":"8693471"},{"name":"不知火町大見","zip_code":"8693473"},{"name":"不知火町柏原","zip_code":"8690554"},{"name":"不知火町亀松","zip_code":"8690561"},{"name":"不知火町高良","zip_code":"8690552"},{"name":"不知火町小曽部","zip_code":"8690553"},{"name":"不知火町御領","zip_code":"8690551"},{"name":"不知火町長崎","zip_code":"8690562"},{"name":"不知火町松合","zip_code":"8693472"},{"name":"豊野町糸石","zip_code":"8614301"},{"name":"豊野町上郷","zip_code":"8614303"},{"name":"豊野町下郷","zip_code":"8614304"},{"name":"豊野町巣林","zip_code":"8614307"},{"name":"豊野町中間","zip_code":"8614302"},{"name":"豊野町安見","zip_code":"8614306"},{"name":"豊野町山崎","zip_code":"8614305"},{"name":"松橋町浅川","zip_code":"8690544"},{"name":"松橋町内田","zip_code":"8690522"},{"name":"松橋町浦川内","zip_code":"8690521"},{"name":"松橋町大野","zip_code":"8690531"},{"name":"松橋町きらら","zip_code":"8690503"},{"name":"松橋町久具","zip_code":"8690532"},{"name":"松橋町古保山","zip_code":"8690512"},{"name":"松橋町砂川","zip_code":"8690545"},{"name":"松橋町竹崎","zip_code":"8690523"},{"name":"松橋町豊崎","zip_code":"8690542"},{"name":"松橋町豊福","zip_code":"8690524"},{"name":"松橋町西下郷","zip_code":"8690534"},{"name":"松橋町萩尾","zip_code":"8690513"},{"name":"松橋町東松崎","zip_code":"8690541"},{"name":"松橋町曲野","zip_code":"8690511"},{"name":"松橋町松橋","zip_code":"8690502"},{"name":"松橋町松山","zip_code":"8690501"},{"name":"松橋町南豊崎","zip_code":"8690543"},{"name":"松橋町御船","zip_code":"8690546"},{"name":"松橋町両仲間","zip_code":"8690533"},{"name":"三角町大口","zip_code":"8693411"},{"name":"三角町大田尾","zip_code":"8693201"},{"name":"三角町郡浦","zip_code":"8693202"},{"name":"三角町里浦","zip_code":"8693413"},{"name":"三角町手場","zip_code":"8693412"},{"name":"三角町戸馳","zip_code":"8693203"},{"name":"三角町中村","zip_code":"8693204"},{"name":"三角町波多","zip_code":"8693205"},{"name":"三角町前越","zip_code":"8693206"},{"name":"三角町三角浦","zip_code":"8693207"}]},{"name":"阿蘇市","divisions":[{"name":"赤水","zip_code":"8692232"},{"name":"跡ケ瀬","zip_code":"8692236"},{"name":"一の宮町荻の草","zip_code":"8692621"},{"name":"一の宮町北坂梨","zip_code":"8692603"},{"name":"一の宮町坂梨","zip_code":"8692611"},{"name":"一の宮町三野","zip_code":"8692602"},{"name":"一の宮町手野","zip_code":"8692601"},{"name":"一の宮町中坂梨","zip_code":"8692604"},{"name":"一の宮町中通","zip_code":"8692613"},{"name":"一の宮町宮地","zip_code":"8692612"},{"name":"今町","zip_code":"8692315"},{"name":"内牧","zip_code":"8692301"},{"name":"小倉","zip_code":"8692312"},{"name":"小里","zip_code":"8692307"},{"name":"乙姫","zip_code":"8692226"},{"name":"小野田","zip_code":"8692314"},{"name":"狩尾","zip_code":"8692235"},{"name":"蔵原","zip_code":"8692224"},{"name":"車帰","zip_code":"8692234"},{"name":"黒川","zip_code":"8692225"},{"name":"黒流町","zip_code":"8692316"},{"name":"小池","zip_code":"8692311"},{"name":"竹原","zip_code":"8692223"},{"name":"永草","zip_code":"8692231"},{"name":"波野赤仁田","zip_code":"8692803"},{"name":"波野小園","zip_code":"8692802"},{"name":"波野小地野","zip_code":"8692801"},{"name":"波野新波野","zip_code":"8692807"},{"name":"波野滝水","zip_code":"8692804"},{"name":"波野中江","zip_code":"8692805"},{"name":"波野波野","zip_code":"8692806"},{"name":"西小園","zip_code":"8692303"},{"name":"西町","zip_code":"8692222"},{"name":"西湯浦","zip_code":"8692304"},{"name":"的石","zip_code":"8692237"},{"name":"三久保","zip_code":"8692302"},{"name":"南宮原","zip_code":"8692306"},{"name":"無田","zip_code":"8692233"},{"name":"役犬原","zip_code":"8692221"},{"name":"山田","zip_code":"8692413"},{"name":"湯浦","zip_code":"8692305"}]},{"name":"天草市","divisions":[{"name":"旭町","zip_code":"8632172"},{"name":"天草町大江","zip_code":"8632801"},{"name":"天草町大江軍浦","zip_code":"8632801"},{"name":"天草町大江向","zip_code":"8631401"},{"name":"天草町下田北","zip_code":"8632803"},{"name":"天草町下田南","zip_code":"8632802"},{"name":"天草町高浜北","zip_code":"8631205"},{"name":"天草町高浜南","zip_code":"8632804"},{"name":"天草町福連木","zip_code":"8632806"},{"name":"有明町赤崎","zip_code":"8617201"},{"name":"有明町大浦","zip_code":"8617203"},{"name":"有明町大島子","zip_code":"8617314"},{"name":"有明町楠甫","zip_code":"8617204"},{"name":"有明町上津浦","zip_code":"8617311"},{"name":"有明町小島子","zip_code":"8617313"},{"name":"有明町下津浦","zip_code":"8617312"},{"name":"有明町須子","zip_code":"8617202"},{"name":"五和町鬼池","zip_code":"8632331"},{"name":"五和町御領","zip_code":"8632301"},{"name":"五和町城河原","zip_code":"8632114"},{"name":"五和町手野","zip_code":"8632424"},{"name":"五和町二江","zip_code":"8632421"},{"name":"今釜新町","zip_code":"8630013"},{"name":"今釜町","zip_code":"8630012"},{"name":"牛深町","zip_code":"8631901"},{"name":"太田町","zip_code":"8630032"},{"name":"大浜町","zip_code":"8630015"},{"name":"魚貫町","zip_code":"8631721"},{"name":"亀場町亀川","zip_code":"8630043"},{"name":"亀場町食場","zip_code":"8630046"},{"name":"河浦町今田","zip_code":"8631201"},{"name":"河浦町今富","zip_code":"8631403"},{"name":"河浦町河浦","zip_code":"8631202"},{"name":"河浦町崎津","zip_code":"8631404"},{"name":"河浦町白木河内","zip_code":"8631215"},{"name":"河浦町新合","zip_code":"8631216"},{"name":"河浦町立原","zip_code":"8631211"},{"name":"河浦町久留","zip_code":"8631214"},{"name":"河浦町宮野河内","zip_code":"8631212"},{"name":"河浦町路木","zip_code":"8631213"},{"name":"川原新町","zip_code":"8630036"},{"name":"川原町","zip_code":"8630024"},{"name":"北浜町","zip_code":"8630011"},{"name":"北原町","zip_code":"8630049"},{"name":"楠浦町","zip_code":"8630044"},{"name":"久玉町","zip_code":"8631902"},{"name":"倉岳町浦","zip_code":"8616401"},{"name":"倉岳町棚底","zip_code":"8616402"},{"name":"倉岳町宮田","zip_code":"8616403"},{"name":"御所浦町御所浦","zip_code":"8660313"},{"name":"御所浦町牧島","zip_code":"8660334"},{"name":"御所浦町横浦","zip_code":"8660303"},{"name":"小松原町","zip_code":"8630019"},{"name":"佐伊津町","zip_code":"8632171"},{"name":"栄町","zip_code":"8630022"},{"name":"志柿町","zip_code":"8630041"},{"name":"下浦町","zip_code":"8616551"},{"name":"城下町","zip_code":"8630016"},{"name":"浄南町","zip_code":"8630034"},{"name":"新和町碇石","zip_code":"8631111"},{"name":"新和町大多尾","zip_code":"8630102"},{"name":"新和町大宮地","zip_code":"8630103"},{"name":"新和町小宮地","zip_code":"8630101"},{"name":"新和町中田","zip_code":"8631112"},{"name":"栖本町打田","zip_code":"8616301"},{"name":"栖本町河内","zip_code":"8616302"},{"name":"栖本町馬場","zip_code":"8616303"},{"name":"栖本町古江","zip_code":"8616304"},{"name":"栖本町湯船原","zip_code":"8616305"},{"name":"諏訪町","zip_code":"8630037"},{"name":"瀬戸町","zip_code":"8630042"},{"name":"中央新町","zip_code":"8630023"},{"name":"中村町","zip_code":"8630048"},{"name":"枦宇土町","zip_code":"8630045"},{"name":"八幡町","zip_code":"8630047"},{"name":"浜崎町","zip_code":"8630018"},{"name":"東浜町","zip_code":"8630014"},{"name":"東町","zip_code":"8630033"},{"name":"深海町","zip_code":"8631511"},{"name":"二浦町亀浦","zip_code":"8631432"},{"name":"二浦町早浦","zip_code":"8631431"},{"name":"船之尾町","zip_code":"8630017"},{"name":"古川町","zip_code":"8630025"},{"name":"本渡町広瀬","zip_code":"8630001"},{"name":"本渡町本渡","zip_code":"8630003"},{"name":"本渡町本戸馬場","zip_code":"8630002"},{"name":"本渡町本泉","zip_code":"8630004"},{"name":"本町下河内","zip_code":"8630006"},{"name":"本町新休","zip_code":"8630005"},{"name":"本町本","zip_code":"8630007"},{"name":"丸尾町","zip_code":"8630050"},{"name":"港町","zip_code":"8630021"},{"name":"南新町","zip_code":"8630031"},{"name":"南町","zip_code":"8630038"},{"name":"宮地岳町","zip_code":"8631161"},{"name":"山の手町","zip_code":"8630035"}]},{"name":"合志市","divisions":[{"name":"合生","zip_code":"8611101"},{"name":"上庄","zip_code":"8611111"},{"name":"幾久富","zip_code":"8611112"},{"name":"栄","zip_code":"8611113"},{"name":"須屋","zip_code":"8611102"},{"name":"竹迫","zip_code":"8611114"},{"name":"豊岡","zip_code":"8611115"},{"name":"野々島","zip_code":"8611103"},{"name":"福原","zip_code":"8611116"},{"name":"御代志","zip_code":"8611104"},{"name":"上生","zip_code":"8611105"}]},{"name":"下益城郡美里町","divisions":[{"name":"安部","zip_code":"8614714"},{"name":"石野","zip_code":"8614716"},{"name":"今","zip_code":"8614734"},{"name":"岩下","zip_code":"8614404"},{"name":"岩野","zip_code":"8614413"},{"name":"畝野","zip_code":"8614703"},{"name":"大井早","zip_code":"8614701"},{"name":"大窪","zip_code":"8614726"},{"name":"大沢水","zip_code":"8614401"},{"name":"柏川","zip_code":"8614712"},{"name":"堅志田","zip_code":"8614402"},{"name":"萱野","zip_code":"8614405"},{"name":"川越","zip_code":"8614707"},{"name":"木早川内","zip_code":"8614425"},{"name":"清水","zip_code":"8614715"},{"name":"栗崎","zip_code":"8614731"},{"name":"小市野","zip_code":"8614424"},{"name":"甲佐平","zip_code":"8614706"},{"name":"古閑","zip_code":"8614737"},{"name":"小筵","zip_code":"8614411"},{"name":"境","zip_code":"8614723"},{"name":"坂貫","zip_code":"8614725"},{"name":"坂本","zip_code":"8614415"},{"name":"佐俣","zip_code":"8614412"},{"name":"三加","zip_code":"8614735"},{"name":"白石野","zip_code":"8614426"},{"name":"土喰","zip_code":"8614721"},{"name":"椿","zip_code":"8614414"},{"name":"津留","zip_code":"8614427"},{"name":"遠野","zip_code":"8614702"},{"name":"豊富","zip_code":"8614705"},{"name":"中","zip_code":"8614417"},{"name":"長尾野","zip_code":"8614422"},{"name":"中郡","zip_code":"8614403"},{"name":"中小路","zip_code":"8614407"},{"name":"永富","zip_code":"8614722"},{"name":"名越谷","zip_code":"8614736"},{"name":"二和田","zip_code":"8614733"},{"name":"馬場","zip_code":"8614406"},{"name":"早楠","zip_code":"8614713"},{"name":"払川","zip_code":"8614416"},{"name":"原田","zip_code":"8614421"},{"name":"原町","zip_code":"8614727"},{"name":"洞岳","zip_code":"8614711"},{"name":"松野原","zip_code":"8614423"},{"name":"三和","zip_code":"8614732"},{"name":"涌井","zip_code":"8614704"}]},{"name":"玉名郡玉東町","divisions":[{"name":"稲佐","zip_code":"8690301"},{"name":"浦田","zip_code":"8690304"},{"name":"上木葉","zip_code":"8690305"},{"name":"上白木","zip_code":"8690313"},{"name":"木葉","zip_code":"8690303"},{"name":"西安寺","zip_code":"8690321"},{"name":"白木","zip_code":"8690312"},{"name":"原倉","zip_code":"8690322"},{"name":"二俣","zip_code":"8690311"},{"name":"山口","zip_code":"8690302"}]},{"name":"玉名郡南関町","divisions":[{"name":"相谷","zip_code":"8610812"},{"name":"今","zip_code":"8610832"},{"name":"上坂下","zip_code":"8610822"},{"name":"上長田","zip_code":"8610837"},{"name":"久重","zip_code":"8610836"},{"name":"肥猪","zip_code":"8610814"},{"name":"肥猪町","zip_code":"8610813"},{"name":"小原","zip_code":"8610811"},{"name":"下坂下","zip_code":"8610821"},{"name":"関下","zip_code":"8610805"},{"name":"関外目","zip_code":"8610801"},{"name":"関町","zip_code":"8610803"},{"name":"関村","zip_code":"8610804"},{"name":"関東","zip_code":"8610802"},{"name":"高久野","zip_code":"8610833"},{"name":"豊永","zip_code":"8610815"},{"name":"長山","zip_code":"8610835"},{"name":"細永","zip_code":"8610831"},{"name":"宮尾","zip_code":"8610834"},{"name":"四ツ原","zip_code":"8610823"}]},{"name":"玉名郡長洲町","divisions":[{"name":"有明","zip_code":"8690113"},{"name":"梅田","zip_code":"8690122"},{"name":"折崎","zip_code":"8690102"},{"name":"上沖洲","zip_code":"8690104"},{"name":"清源寺","zip_code":"8690105"},{"name":"高浜","zip_code":"8690121"},{"name":"永塩","zip_code":"8690106"},{"name":"長洲","zip_code":"8690123"},{"name":"腹赤","zip_code":"8690103"},{"name":"姫ケ浦","zip_code":"8690112"},{"name":"宮野","zip_code":"8690101"},{"name":"名石浜","zip_code":"8690111"}]},{"name":"玉名郡和水町","divisions":[{"name":"板楠","zip_code":"8610913"},{"name":"岩","zip_code":"8610922"},{"name":"岩尻","zip_code":"8650114"},{"name":"内田","zip_code":"8650104"},{"name":"江栗","zip_code":"8650101"},{"name":"江田","zip_code":"8650136"},{"name":"榎原","zip_code":"8650121"},{"name":"大田黒","zip_code":"8610924"},{"name":"大屋","zip_code":"8650112"},{"name":"竈門","zip_code":"8650116"},{"name":"上板楠","zip_code":"8610914"},{"name":"上十町","zip_code":"8610911"},{"name":"上和仁","zip_code":"8610901"},{"name":"久米野","zip_code":"8650115"},{"name":"志口永","zip_code":"8650117"},{"name":"下津原","zip_code":"8650111"},{"name":"瀬川","zip_code":"8650135"},{"name":"高野","zip_code":"8650122"},{"name":"津田","zip_code":"8610921"},{"name":"長小田","zip_code":"8650103"},{"name":"中十町","zip_code":"8610912"},{"name":"中林","zip_code":"8610905"},{"name":"中和仁","zip_code":"8610902"},{"name":"西吉地","zip_code":"8610906"},{"name":"野田","zip_code":"8610925"},{"name":"萩原","zip_code":"8650132"},{"name":"原口","zip_code":"8650124"},{"name":"東吉地","zip_code":"8610904"},{"name":"久井原","zip_code":"8650102"},{"name":"日平","zip_code":"8650134"},{"name":"平野","zip_code":"8610923"},{"name":"藤田","zip_code":"8650125"},{"name":"蜻浦","zip_code":"8650133"},{"name":"前原","zip_code":"8650126"},{"name":"米渡尾","zip_code":"8650123"},{"name":"用木","zip_code":"8650131"},{"name":"焼米","zip_code":"8650113"},{"name":"山十町","zip_code":"8610915"},{"name":"和仁","zip_code":"8610903"}]},{"name":"菊池郡大津町","divisions":[{"name":"岩坂","zip_code":"8691222"},{"name":"大津","zip_code":"8691233"},{"name":"大林","zip_code":"8691219"},{"name":"下町","zip_code":"8691225"},{"name":"新","zip_code":"8691227"},{"name":"陣内","zip_code":"8691221"},{"name":"杉水","zip_code":"8691236"},{"name":"瀬田","zip_code":"8691214"},{"name":"高尾野","zip_code":"8691232"},{"name":"中島","zip_code":"8691223"},{"name":"錦野","zip_code":"8691216"},{"name":"灰塚","zip_code":"8691226"},{"name":"引水","zip_code":"8691234"},{"name":"平川","zip_code":"8691231"},{"name":"吹田","zip_code":"8691218"},{"name":"古城","zip_code":"8691213"},{"name":"外牧","zip_code":"8691215"},{"name":"真木","zip_code":"8691212"},{"name":"町","zip_code":"8691224"},{"name":"美咲野","zip_code":"8691237"},{"name":"室","zip_code":"8691235"},{"name":"森","zip_code":"8691217"},{"name":"矢護川","zip_code":"8691211"}]},{"name":"菊池郡菊陽町","divisions":[{"name":"沖野","zip_code":"8691115"},{"name":"辛川","zip_code":"8691107"},{"name":"久保田","zip_code":"8691103"},{"name":"向陽台","zip_code":"8691114"},{"name":"新山","zip_code":"8691109"},{"name":"杉並台","zip_code":"8691110"},{"name":"津久礼","zip_code":"8691101"},{"name":"戸次","zip_code":"8691104"},{"name":"花立","zip_code":"8691113"},{"name":"馬場楠","zip_code":"8691105"},{"name":"原水","zip_code":"8691102"},{"name":"光の森","zip_code":"8691108"},{"name":"曲手","zip_code":"8691106"},{"name":"武蔵ヶ丘","zip_code":"8691111"},{"name":"武蔵ヶ丘北","zip_code":"8691112"}]},{"name":"阿蘇郡南小国町","divisions":[{"name":"赤馬場","zip_code":"8692401"},{"name":"中原","zip_code":"8692403"},{"name":"満願寺","zip_code":"8692402"}]},{"name":"阿蘇郡小国町","divisions":[{"name":"上田","zip_code":"8692506"},{"name":"北里","zip_code":"8692505"},{"name":"黒渕","zip_code":"8692502"},{"name":"下城","zip_code":"8692503"},{"name":"西里","zip_code":"8692504"},{"name":"宮原","zip_code":"8692501"}]},{"name":"阿蘇郡産山村","divisions":[{"name":"産山","zip_code":"8692705"},{"name":"大利","zip_code":"8692702"},{"name":"片俣","zip_code":"8692701"},{"name":"田尻","zip_code":"8692704"},{"name":"山鹿","zip_code":"8692703"}]},{"name":"阿蘇郡高森町","divisions":[{"name":"尾下","zip_code":"8691825"},{"name":"上色見","zip_code":"8691601"},{"name":"河原","zip_code":"8691826"},{"name":"草部","zip_code":"8691811"},{"name":"色見","zip_code":"8691603"},{"name":"下切","zip_code":"8691815"},{"name":"菅山","zip_code":"8691813"},{"name":"芹口","zip_code":"8691812"},{"name":"高森","zip_code":"8691602"},{"name":"津留","zip_code":"8691823"},{"name":"中","zip_code":"8691821"},{"name":"永野原","zip_code":"8691814"},{"name":"野尻","zip_code":"8691824"},{"name":"矢津田","zip_code":"8691822"}]},{"name":"阿蘇郡西原村","divisions":[{"name":"河原","zip_code":"8612404"},{"name":"小森","zip_code":"8612402"},{"name":"鳥子","zip_code":"8612401"},{"name":"布田","zip_code":"8612403"},{"name":"宮山","zip_code":"8612405"}]},{"name":"阿蘇郡南阿蘇村","divisions":[{"name":"一関","zip_code":"8691504"},{"name":"河陰","zip_code":"8691411"},{"name":"河陽","zip_code":"8691404"},{"name":"下野","zip_code":"8691402"},{"name":"白川","zip_code":"8691502"},{"name":"立野","zip_code":"8691401"},{"name":"長野","zip_code":"8691403"},{"name":"中松","zip_code":"8692205"},{"name":"久石","zip_code":"8691412"},{"name":"吉田","zip_code":"8691503"},{"name":"両併","zip_code":"8691501"}]},{"name":"上益城郡御船町","divisions":[{"name":"上野","zip_code":"8613322"},{"name":"小坂","zip_code":"8613202"},{"name":"木倉","zip_code":"8613204"},{"name":"陣","zip_code":"8613201"},{"name":"高木","zip_code":"8613203"},{"name":"滝尾","zip_code":"8613208"},{"name":"滝川","zip_code":"8613205"},{"name":"田代","zip_code":"8613323"},{"name":"豊秋","zip_code":"8613131"},{"name":"七滝","zip_code":"8613421"},{"name":"辺田見","zip_code":"8613206"},{"name":"水越","zip_code":"8613211"},{"name":"御船","zip_code":"8613207"}]},{"name":"上益城郡嘉島町","divisions":[{"name":"井寺","zip_code":"8613103"},{"name":"犬渕","zip_code":"8613109"},{"name":"上島","zip_code":"8613106"},{"name":"上仲間","zip_code":"8613107"},{"name":"上六嘉","zip_code":"8613105"},{"name":"北甘木","zip_code":"8613104"},{"name":"下仲間","zip_code":"8613108"},{"name":"下六嘉","zip_code":"8613102"},{"name":"鯰","zip_code":"8613101"}]},{"name":"上益城郡益城町","divisions":[{"name":"赤井","zip_code":"8612221"},{"name":"小池","zip_code":"8612223"},{"name":"小谷","zip_code":"8612204"},{"name":"上陳","zip_code":"8612203"},{"name":"木山","zip_code":"8612242"},{"name":"古閑","zip_code":"8612234"},{"name":"寺中","zip_code":"8612201"},{"name":"島田","zip_code":"8612224"},{"name":"下陳","zip_code":"8612206"},{"name":"杉堂","zip_code":"8612205"},{"name":"惣領","zip_code":"8612233"},{"name":"田原","zip_code":"8612202"},{"name":"辻の城","zip_code":"8612243"},{"name":"寺迫","zip_code":"8612244"},{"name":"砥川","zip_code":"8612222"},{"name":"平田","zip_code":"8612212"},{"name":"広崎","zip_code":"8612236"},{"name":"福富","zip_code":"8612235"},{"name":"福原","zip_code":"8612211"},{"name":"馬水","zip_code":"8612232"},{"name":"宮園","zip_code":"8612241"},{"name":"安永","zip_code":"8612231"}]},{"name":"上益城郡甲佐町","divisions":[{"name":"麻生原","zip_code":"8614618"},{"name":"有安","zip_code":"8614605"},{"name":"糸田","zip_code":"8613242"},{"name":"岩下","zip_code":"8614601"},{"name":"大町","zip_code":"8614604"},{"name":"小鹿","zip_code":"8614634"},{"name":"上揚","zip_code":"8614631"},{"name":"上早川","zip_code":"8614622"},{"name":"坂谷","zip_code":"8614632"},{"name":"芝原","zip_code":"8613244"},{"name":"下横田","zip_code":"8614621"},{"name":"白旗","zip_code":"8613243"},{"name":"早川","zip_code":"8613241"},{"name":"田口","zip_code":"8614616"},{"name":"津志田","zip_code":"8614617"},{"name":"豊内","zip_code":"8614607"},{"name":"中山","zip_code":"8614614"},{"name":"中横田","zip_code":"8614623"},{"name":"西寒野","zip_code":"8614609"},{"name":"西原","zip_code":"8614633"},{"name":"仁田子","zip_code":"8614603"},{"name":"東寒野","zip_code":"8614608"},{"name":"船津","zip_code":"8614611"},{"name":"府領","zip_code":"8614615"},{"name":"緑町","zip_code":"8614602"},{"name":"南三箇","zip_code":"8614613"},{"name":"安平","zip_code":"8614635"},{"name":"横田","zip_code":"8614606"},{"name":"吉田","zip_code":"8613245"},{"name":"世持","zip_code":"8614612"}]},{"name":"上益城郡山都町","divisions":[{"name":"麻山","zip_code":"8613781"},{"name":"芦屋田","zip_code":"8613541"},{"name":"荒谷","zip_code":"8613521"},{"name":"伊勢","zip_code":"8613937"},{"name":"市野原","zip_code":"8613842"},{"name":"市原","zip_code":"8613542"},{"name":"犬飼","zip_code":"8613665"},{"name":"今","zip_code":"8613913"},{"name":"井無田","zip_code":"8613832"},{"name":"入佐","zip_code":"8613511"},{"name":"大野","zip_code":"8613905"},{"name":"大平","zip_code":"8613811"},{"name":"大見口","zip_code":"8613926"},{"name":"小笹","zip_code":"8613788"},{"name":"男成","zip_code":"8613789"},{"name":"尾野尻","zip_code":"8613844"},{"name":"小峰","zip_code":"8613801"},{"name":"柏","zip_code":"8613923"},{"name":"金内","zip_code":"8613451"},{"name":"鎌野","zip_code":"8613843"},{"name":"上川井野","zip_code":"8613782"},{"name":"上差尾","zip_code":"8613925"},{"name":"神ノ前","zip_code":"8613906"},{"name":"仮屋","zip_code":"8613841"},{"name":"川口","zip_code":"8613813"},{"name":"川野","zip_code":"8613784"},{"name":"北中島","zip_code":"8613455"},{"name":"木原谷","zip_code":"8613802"},{"name":"葛原","zip_code":"8613531"},{"name":"黒川","zip_code":"8613501"},{"name":"下馬尾","zip_code":"8613512"},{"name":"高月","zip_code":"8613834"},{"name":"郷野原","zip_code":"8613831"},{"name":"御所","zip_code":"8613502"},{"name":"小中竹","zip_code":"8613803"},{"name":"猿渡","zip_code":"8613532"},{"name":"三ケ","zip_code":"8613533"},{"name":"塩出迫","zip_code":"8613915"},{"name":"塩原","zip_code":"8613916"},{"name":"島木","zip_code":"8613454"},{"name":"下市","zip_code":"8613513"},{"name":"下川井野","zip_code":"8613786"},{"name":"下名連石","zip_code":"8613503"},{"name":"下山","zip_code":"8613932"},{"name":"上寺","zip_code":"8613543"},{"name":"城原","zip_code":"8613514"},{"name":"城平","zip_code":"8613515"},{"name":"白石","zip_code":"8613907"},{"name":"白小野","zip_code":"8613522"},{"name":"白藤","zip_code":"8613664"},{"name":"新小","zip_code":"8613663"},{"name":"杉木","zip_code":"8613544"},{"name":"菅","zip_code":"8613671"},{"name":"菅尾","zip_code":"8613911"},{"name":"須原","zip_code":"8613805"},{"name":"勢井","zip_code":"8613523"},{"name":"千滝","zip_code":"8613516"},{"name":"田小野","zip_code":"8613452"},{"name":"高辻","zip_code":"8613933"},{"name":"高畑","zip_code":"8613934"},{"name":"滝上","zip_code":"8613902"},{"name":"橘","zip_code":"8613931"},{"name":"田所","zip_code":"8613785"},{"name":"玉目","zip_code":"8613927"},{"name":"田吉","zip_code":"8613662"},{"name":"津留","zip_code":"8613673"},{"name":"鶴ケ田","zip_code":"8613812"},{"name":"長崎","zip_code":"8613908"},{"name":"長田","zip_code":"8613545"},{"name":"長谷","zip_code":"8613928"},{"name":"長原","zip_code":"8613661"},{"name":"成君","zip_code":"8613783"},{"name":"二瀬本","zip_code":"8613922"},{"name":"貫原","zip_code":"8613804"},{"name":"野尻","zip_code":"8613787"},{"name":"畑","zip_code":"8613517"},{"name":"八木","zip_code":"8613921"},{"name":"花上","zip_code":"8613914"},{"name":"浜町","zip_code":"8613518"},{"name":"原","zip_code":"8613453"},{"name":"東竹原","zip_code":"8613935"},{"name":"藤木","zip_code":"8613524"},{"name":"二津留","zip_code":"8613924"},{"name":"方ケ野","zip_code":"8613904"},{"name":"仏原","zip_code":"8613835"},{"name":"牧野","zip_code":"8613525"},{"name":"馬見原","zip_code":"8613901"},{"name":"万坂","zip_code":"8613526"},{"name":"緑川","zip_code":"8613845"},{"name":"南田","zip_code":"8613546"},{"name":"目丸","zip_code":"8613672"},{"name":"安方","zip_code":"8613833"},{"name":"柳井原","zip_code":"8613903"},{"name":"柳","zip_code":"8613936"},{"name":"山田","zip_code":"8613547"},{"name":"柚木","zip_code":"8613534"},{"name":"米生","zip_code":"8613806"},{"name":"米迫","zip_code":"8613912"}]},{"name":"八代郡氷川町","divisions":[{"name":"網道","zip_code":"8694812"},{"name":"有佐","zip_code":"8694604"},{"name":"今","zip_code":"8694601"},{"name":"大野","zip_code":"8694804"},{"name":"栫","zip_code":"8694607"},{"name":"鹿島","zip_code":"8694815"},{"name":"鹿野","zip_code":"8694811"},{"name":"河原","zip_code":"8694806"},{"name":"島地","zip_code":"8694814"},{"name":"新田","zip_code":"8694801"},{"name":"高塚","zip_code":"8694802"},{"name":"立神","zip_code":"8694603"},{"name":"中島","zip_code":"8694605"},{"name":"野津","zip_code":"8694805"},{"name":"早尾","zip_code":"8694606"},{"name":"宮原","zip_code":"8694602"},{"name":"宮原栄久","zip_code":"8694608"},{"name":"吉本","zip_code":"8694803"},{"name":"若洲","zip_code":"8694813"}]},{"name":"葦北郡芦北町","divisions":[{"name":"芦北","zip_code":"8695561"},{"name":"天月","zip_code":"8696301"},{"name":"市野瀬","zip_code":"8696306"},{"name":"井牟田","zip_code":"8695307"},{"name":"海浦","zip_code":"8695304"},{"name":"上原","zip_code":"8696215"},{"name":"箙瀬","zip_code":"8696211"},{"name":"大岩","zip_code":"8696213"},{"name":"大川内","zip_code":"8695574"},{"name":"大尼田","zip_code":"8695422"},{"name":"大野","zip_code":"8696305"},{"name":"乙千屋","zip_code":"8695431"},{"name":"海路","zip_code":"8696216"},{"name":"国見","zip_code":"8696304"},{"name":"黒岩","zip_code":"8696214"},{"name":"桑原","zip_code":"8695434"},{"name":"小田浦","zip_code":"8695303"},{"name":"佐敷","zip_code":"8695441"},{"name":"塩浸","zip_code":"8696307"},{"name":"白石","zip_code":"8696302"},{"name":"白岩","zip_code":"8695452"},{"name":"白木","zip_code":"8696308"},{"name":"高岡","zip_code":"8695576"},{"name":"田川","zip_code":"8695443"},{"name":"立川","zip_code":"8695421"},{"name":"田浦","zip_code":"8695302"},{"name":"田浦町","zip_code":"8695305"},{"name":"告","zip_code":"8696303"},{"name":"鶴木山","zip_code":"8695454"},{"name":"豊岡","zip_code":"8695571"},{"name":"計石","zip_code":"8695453"},{"name":"波多島","zip_code":"8695306"},{"name":"花岡","zip_code":"8695442"},{"name":"伏木氏","zip_code":"8695424"},{"name":"古石","zip_code":"8695575"},{"name":"松生","zip_code":"8695423"},{"name":"丸山","zip_code":"8695572"},{"name":"道川内","zip_code":"8695451"},{"name":"宮崎","zip_code":"8695562"},{"name":"宮浦","zip_code":"8695432"},{"name":"女島","zip_code":"8695564"},{"name":"八幡","zip_code":"8695433"},{"name":"湯浦","zip_code":"8695563"},{"name":"横居木","zip_code":"8695301"},{"name":"吉尾","zip_code":"8696212"},{"name":"米田","zip_code":"8695573"}]},{"name":"葦北郡津奈木町","divisions":[{"name":"岩城","zip_code":"8695603"},{"name":"小津奈木","zip_code":"8695604"},{"name":"千代","zip_code":"8695601"},{"name":"津奈木","zip_code":"8695602"},{"name":"福浜","zip_code":"8695605"}]},{"name":"球磨郡錦町","divisions":[{"name":"一武","zip_code":"8680302"},{"name":"木上","zip_code":"8680301"},{"name":"西","zip_code":"8680303"}]},{"name":"球磨郡多良木町","divisions":[{"name":"奥野","zip_code":"8680504"},{"name":"久米","zip_code":"8680503"},{"name":"黒肥地","zip_code":"8680502"},{"name":"多良木","zip_code":"8680501"},{"name":"槻木","zip_code":"8680505"}]},{"name":"球磨郡湯前町","divisions":[{"name":"浅ケ野","zip_code":"8680604"},{"name":"植木","zip_code":"8680611"},{"name":"上猪","zip_code":"8680625"},{"name":"上里","zip_code":"8680621"},{"name":"上染田","zip_code":"8680622"},{"name":"上村","zip_code":"8680612"},{"name":"下城","zip_code":"8680601"},{"name":"下里","zip_code":"8680607"},{"name":"下染田","zip_code":"8680605"},{"name":"下村","zip_code":"8680616"},{"name":"瀬戸口","zip_code":"8680615"},{"name":"田上","zip_code":"8680613"},{"name":"中猪","zip_code":"8680624"},{"name":"中里","zip_code":"8680606"},{"name":"野中田","zip_code":"8680623"},{"name":"馬場","zip_code":"8680614"},{"name":"浜川","zip_code":"8680602"},{"name":"古城","zip_code":"8680603"}]},{"name":"球磨郡水上村","divisions":[{"name":"岩野","zip_code":"8680701"},{"name":"江代","zip_code":"8680702"},{"name":"湯山","zip_code":"8680703"}]},{"name":"球磨郡相良村","divisions":[{"name":"川辺","zip_code":"8680093"},{"name":"深水","zip_code":"8680094"},{"name":"柳瀬","zip_code":"8680095"},{"name":"四浦","zip_code":"8680101"}]},{"name":"球磨郡五木村","divisions":[{"name":"甲","zip_code":"8680201"},{"name":"乙","zip_code":"8680202"},{"name":"丙","zip_code":"8680203"}]},{"name":"球磨郡山江村","divisions":[{"name":"万江","zip_code":"8680091"},{"name":"山田","zip_code":"8680092"}]},{"name":"球磨郡球磨村","divisions":[{"name":"一勝地","zip_code":"8696403"},{"name":"大瀬","zip_code":"8696405"},{"name":"神瀬","zip_code":"8696404"},{"name":"三ケ浦","zip_code":"8696402"},{"name":"渡","zip_code":"8696401"}]},{"name":"球磨郡あさぎり町","divisions":[{"name":"上東","zip_code":"8680421"},{"name":"上西","zip_code":"8680424"},{"name":"上南","zip_code":"8680423"},{"name":"上北","zip_code":"8680422"},{"name":"岡原南","zip_code":"8680432"},{"name":"岡原北","zip_code":"8680431"},{"name":"須恵","zip_code":"8680451"},{"name":"深田東","zip_code":"8680442"},{"name":"深田西","zip_code":"8680444"},{"name":"深田南","zip_code":"8680443"},{"name":"深田北","zip_code":"8680441"},{"name":"皆越","zip_code":"8680425"},{"name":"免田東","zip_code":"8680408"},{"name":"免田西","zip_code":"8680415"}]},{"name":"天草郡苓北町","divisions":[{"name":"内田","zip_code":"8632505"},{"name":"上津深江","zip_code":"8632502"},{"name":"坂瀬川","zip_code":"8632501"},{"name":"志岐","zip_code":"8632503"},{"name":"白木尾","zip_code":"8632506"},{"name":"年柄","zip_code":"8632504"},{"name":"富岡","zip_code":"8632507"},{"name":"都呂々","zip_code":"8632611"}]}]}