{"name":"大分県","cities":[{"name":"大分市","divisions":[{"name":"青崎","zip_code":"8700278"},{"name":"青葉台","zip_code":"8700875"},{"name":"青葉町","zip_code":"8700908"},{"name":"丹川","zip_code":"8700317"},{"name":"明磧","zip_code":"8700857"},{"name":"明野高尾","zip_code":"8700162"},{"name":"明野東","zip_code":"8700161"},{"name":"明野西","zip_code":"8700164"},{"name":"明野南","zip_code":"8700163"},{"name":"明野北","zip_code":"8700165"},{"name":"明野北町","zip_code":"8700166"},{"name":"明野紅陽台","zip_code":"8700167"},{"name":"明野ハイツ","zip_code":"8700168"},{"name":"曙台","zip_code":"8700273"},{"name":"旭町","zip_code":"8700884"},{"name":"芦崎","zip_code":"8700014"},{"name":"尼ケ瀬","zip_code":"8700858"},{"name":"安藤","zip_code":"8797504"},{"name":"家島","zip_code":"8700113"},{"name":"生石","zip_code":"8700003"},{"name":"生石港町","zip_code":"8700001"},{"name":"泉町","zip_code":"8700041"},{"name":"市","zip_code":"8701151"},{"name":"一木","zip_code":"8700316"},{"name":"市尾","zip_code":"8700312"},{"name":"一の洲","zip_code":"8700112"},{"name":"一尺屋","zip_code":"8792203"},{"name":"猪野","zip_code":"8700134"},{"name":"今市","zip_code":"8701223"},{"name":"今津留","zip_code":"8700938"},{"name":"入蔵","zip_code":"8701202"},{"name":"岩田町","zip_code":"8700936"},{"name":"上田町","zip_code":"8700886"},{"name":"上野南","zip_code":"8700836"},{"name":"上野丘","zip_code":"8700835"},{"name":"上野丘東","zip_code":"8700833"},{"name":"上野丘西","zip_code":"8700834"},{"name":"上野町","zip_code":"8700832"},{"name":"梅が丘","zip_code":"8797885"},{"name":"裏川団地","zip_code":"8700956"},{"name":"荏隈","zip_code":"8700889"},{"name":"恵比寿町","zip_code":"8700322"},{"name":"王子新町","zip_code":"8700819"},{"name":"王子中町","zip_code":"8700006"},{"name":"王子港町","zip_code":"8700004"},{"name":"王子西町","zip_code":"8700008"},{"name":"王子南町","zip_code":"8700007"},{"name":"王子北町","zip_code":"8700005"},{"name":"王子山の手町","zip_code":"8700813"},{"name":"王子町","zip_code":"8700009"},{"name":"王ノ瀬","zip_code":"8700321"},{"name":"大石町","zip_code":"8700851"},{"name":"大分流通業務団地","zip_code":"8700319"},{"name":"大久保","zip_code":"8700806"},{"name":"大在","zip_code":"8700266"},{"name":"大在北","zip_code":"8700245"},{"name":"大在中央","zip_code":"8700251"},{"name":"大在浜","zip_code":"8700252"},{"name":"大州浜","zip_code":"8700906"},{"name":"大園団地","zip_code":"8701125"},{"name":"太田","zip_code":"8701214"},{"name":"大津町","zip_code":"8700907"},{"name":"大津留","zip_code":"8700123"},{"name":"大手町","zip_code":"8700022"},{"name":"大平","zip_code":"8792114"},{"name":"大道町","zip_code":"8700822"},{"name":"岡","zip_code":"8700158"},{"name":"岡川","zip_code":"8701131"},{"name":"岡新町","zip_code":"8700159"},{"name":"雄城台住宅地","zip_code":"8701164"},{"name":"雄城台団地","zip_code":"8701165"},{"name":"奥","zip_code":"8797881"},{"name":"鴛野","zip_code":"8701121"},{"name":"乙津","zip_code":"8700144"},{"name":"乙津町","zip_code":"8700145"},{"name":"乙津港町","zip_code":"8700146"},{"name":"小中島","zip_code":"8700114"},{"name":"鬼崎","zip_code":"8701171"},{"name":"小野鶴","zip_code":"8701153"},{"name":"小野鶴新町","zip_code":"8701156"},{"name":"小野鶴南","zip_code":"8701150"},{"name":"海原","zip_code":"8700107"},{"name":"賀来","zip_code":"8700877"},{"name":"賀来北","zip_code":"8700848"},{"name":"賀来南","zip_code":"8700849"},{"name":"春日浦","zip_code":"8700011"},{"name":"片島","zip_code":"8700943"},{"name":"かたしま台","zip_code":"8700949"},{"name":"葛木","zip_code":"8700133"},{"name":"金池町","zip_code":"8700026"},{"name":"金池南","zip_code":"8700839"},{"name":"要町","zip_code":"8700831"},{"name":"金谷迫","zip_code":"8700879"},{"name":"加納","zip_code":"8700926"},{"name":"上春日町","zip_code":"8700817"},{"name":"上白木","zip_code":"8700805"},{"name":"上詰","zip_code":"8701215"},{"name":"上判田","zip_code":"8701111"},{"name":"上戸次","zip_code":"8797764"},{"name":"上宗方","zip_code":"8701152"},{"name":"上八幡","zip_code":"8700808"},{"name":"河原内","zip_code":"8797503"},{"name":"木佐上","zip_code":"8792113"},{"name":"北下郡","zip_code":"8700927"},{"name":"北鶴崎","zip_code":"8700102"},{"name":"木田","zip_code":"8700311"},{"name":"机張原","zip_code":"8700809"},{"name":"木上","zip_code":"8701161"},{"name":"季の坂","zip_code":"8700870"},{"name":"希望が丘","zip_code":"8700959"},{"name":"京が丘南","zip_code":"8700129"},{"name":"口戸","zip_code":"8701162"},{"name":"久土","zip_code":"8700314"},{"name":"久原","zip_code":"8700304"},{"name":"久原北","zip_code":"8700324"},{"name":"久原中央","zip_code":"8700325"},{"name":"久原南","zip_code":"8700326"},{"name":"毛井","zip_code":"8700124"},{"name":"けやき台","zip_code":"8797762"},{"name":"顕徳町","zip_code":"8700025"},{"name":"小池原","zip_code":"8700147"},{"name":"公園通り","zip_code":"8700173"},{"name":"公園通り西","zip_code":"8700174"},{"name":"古ケ鶴","zip_code":"8700935"},{"name":"国分","zip_code":"8700864"},{"name":"国分新町","zip_code":"8700869"},{"name":"国分台","zip_code":"8700863"},{"name":"国分団地","zip_code":"8700865"},{"name":"小佐井","zip_code":"8700327"},{"name":"寿町","zip_code":"8700036"},{"name":"小原団地","zip_code":"8701134"},{"name":"坂ノ市","zip_code":"8700302"},{"name":"坂ノ市中央","zip_code":"8700307"},{"name":"坂ノ市西","zip_code":"8700309"},{"name":"坂ノ市南","zip_code":"8700308"},{"name":"佐賀関","zip_code":"8792201"},{"name":"桜ケ丘","zip_code":"8700838"},{"name":"迫","zip_code":"8700272"},{"name":"里","zip_code":"8700303"},{"name":"佐野","zip_code":"8700315"},{"name":"沢田","zip_code":"8701212"},{"name":"サンシャインしきど","zip_code":"8701120"},{"name":"椎迫","zip_code":"8700829"},{"name":"汐見","zip_code":"8700253"},{"name":"敷戸","zip_code":"8701122"},{"name":"敷戸駅北町","zip_code":"8701107"},{"name":"敷戸新町","zip_code":"8701102"},{"name":"敷戸台","zip_code":"8701106"},{"name":"敷戸東町","zip_code":"8701104"},{"name":"敷戸西町","zip_code":"8701103"},{"name":"敷戸南町","zip_code":"8701105"},{"name":"敷戸北町","zip_code":"8701101"},{"name":"志津留","zip_code":"8797884"},{"name":"志手","zip_code":"8700821"},{"name":"志村","zip_code":"8700261"},{"name":"下郡北","zip_code":"8700952"},{"name":"下郡中央","zip_code":"8700954"},{"name":"下郡東","zip_code":"8700953"},{"name":"下郡南","zip_code":"8700955"},{"name":"下郡","zip_code":"8700951"},{"name":"下郡工業団地","zip_code":"8700941"},{"name":"下白木","zip_code":"8700803"},{"name":"下徳丸","zip_code":"8700118"},{"name":"下原","zip_code":"8701213"},{"name":"下判田","zip_code":"8701112"},{"name":"下戸次","zip_code":"8797763"},{"name":"下宗方","zip_code":"8701141"},{"name":"下八幡","zip_code":"8700807"},{"name":"志生木","zip_code":"8792115"},{"name":"庄境","zip_code":"8700241"},{"name":"城東町","zip_code":"8700922"},{"name":"城南東町","zip_code":"8700824"},{"name":"城南西町","zip_code":"8700826"},{"name":"城南南町","zip_code":"8700825"},{"name":"城南北町","zip_code":"8700827"},{"name":"城南山手台","zip_code":"8700828"},{"name":"城原","zip_code":"8700267"},{"name":"庄の原","zip_code":"8700876"},{"name":"白木","zip_code":"8792202"},{"name":"城崎町","zip_code":"8700045"},{"name":"新春日町","zip_code":"8700818"},{"name":"新川西","zip_code":"8700015"},{"name":"新川町","zip_code":"8700016"},{"name":"新貝","zip_code":"8700911"},{"name":"新栄町","zip_code":"8700919"},{"name":"新町","zip_code":"8700028"},{"name":"新明治","zip_code":"8700172"},{"name":"末広町","zip_code":"8700027"},{"name":"須賀","zip_code":"8700244"},{"name":"杉原","zip_code":"8797882"},{"name":"住吉町","zip_code":"8700032"},{"name":"勢家町","zip_code":"8700031"},{"name":"星和台","zip_code":"8701114"},{"name":"関園","zip_code":"8700115"},{"name":"碩田町","zip_code":"8700048"},{"name":"千歳","zip_code":"8700132"},{"name":"寒田","zip_code":"8701123"},{"name":"寒田北町","zip_code":"8701138"},{"name":"寒田南町","zip_code":"8701139"},{"name":"太平町","zip_code":"8700837"},{"name":"高江中央","zip_code":"8701116"},{"name":"高江西","zip_code":"8701117"},{"name":"高江南","zip_code":"8701118"},{"name":"高江北","zip_code":"8701119"},{"name":"高尾台","zip_code":"8700873"},{"name":"高崎","zip_code":"8700872"},{"name":"高砂町","zip_code":"8700029"},{"name":"高城新町","zip_code":"8700156"},{"name":"高城台","zip_code":"8700148"},{"name":"高城団地","zip_code":"8700149"},{"name":"高城西町","zip_code":"8700923"},{"name":"高城本町","zip_code":"8700157"},{"name":"高城南町","zip_code":"8700155"},{"name":"高瀬","zip_code":"8701142"},{"name":"高原","zip_code":"8701222"},{"name":"高松","zip_code":"8700917"},{"name":"高松東","zip_code":"8700916"},{"name":"竹下","zip_code":"8700265"},{"name":"竹中","zip_code":"8797501"},{"name":"竹の上","zip_code":"8700882"},{"name":"竹矢","zip_code":"8701211"},{"name":"田尻","zip_code":"8701143"},{"name":"田尻グリーンハイツ","zip_code":"8701144"},{"name":"田尻南","zip_code":"8701145"},{"name":"田中町","zip_code":"8700852"},{"name":"種具","zip_code":"8700274"},{"name":"田ノ浦","zip_code":"8700802"},{"name":"田原","zip_code":"8701154"},{"name":"玉沢","zip_code":"8701155"},{"name":"田室町","zip_code":"8700816"},{"name":"旦野原","zip_code":"8701124"},{"name":"中央町","zip_code":"8700035"},{"name":"千代町","zip_code":"8700033"},{"name":"月形","zip_code":"8797872"},{"name":"辻","zip_code":"8797871"},{"name":"辻原","zip_code":"8701204"},{"name":"常行","zip_code":"8700116"},{"name":"角子原","zip_code":"8700271"},{"name":"角子南","zip_code":"8700242"},{"name":"椿ケ丘","zip_code":"8701166"},{"name":"津守","zip_code":"8700945"},{"name":"鶴崎","zip_code":"8700106"},{"name":"鶴崎コスモス団地","zip_code":"8700120"},{"name":"つるさき陽光台","zip_code":"8700279"},{"name":"鶴瀬","zip_code":"8700121"},{"name":"寺崎町","zip_code":"8700137"},{"name":"天領ハイツ","zip_code":"8701148"},{"name":"東院","zip_code":"8700861"},{"name":"東野台","zip_code":"8700867"},{"name":"徳島","zip_code":"8700109"},{"name":"富岡","zip_code":"8700947"},{"name":"豊海","zip_code":"8700018"},{"name":"中尾","zip_code":"8700862"},{"name":"中春日町","zip_code":"8700039"},{"name":"中島中央","zip_code":"8700049"},{"name":"中島東","zip_code":"8700043"},{"name":"中島西","zip_code":"8700047"},{"name":"中鶴崎","zip_code":"8700101"},{"name":"中津留","zip_code":"8700939"},{"name":"仲西町","zip_code":"8700135"},{"name":"中ノ洲","zip_code":"8700111"},{"name":"中の瀬団地","zip_code":"8700859"},{"name":"中判田","zip_code":"8701113"},{"name":"中戸次","zip_code":"8797761"},{"name":"長谷町","zip_code":"8700929"},{"name":"長浜町","zip_code":"8700023"},{"name":"鳴川","zip_code":"8700801"},{"name":"荷揚町","zip_code":"8700046"},{"name":"荷尾杵","zip_code":"8701221"},{"name":"西大道","zip_code":"8700820"},{"name":"西春日町","zip_code":"8700038"},{"name":"錦町","zip_code":"8700024"},{"name":"西新地","zip_code":"8700901"},{"name":"西鶴崎","zip_code":"8700105"},{"name":"西ノ洲","zip_code":"8700902"},{"name":"西浜","zip_code":"8700931"},{"name":"にじが丘","zip_code":"8700874"},{"name":"二豊団地","zip_code":"8701167"},{"name":"丹生","zip_code":"8700318"},{"name":"望みが丘","zip_code":"8700270"},{"name":"野田","zip_code":"8700868"},{"name":"野津原","zip_code":"8701203"},{"name":"萩尾","zip_code":"8797883"},{"name":"萩原","zip_code":"8700921"},{"name":"畑中","zip_code":"8700856"},{"name":"端登","zip_code":"8797502"},{"name":"羽田","zip_code":"8700942"},{"name":"花江川","zip_code":"8700243"},{"name":"花園","zip_code":"8700846"},{"name":"花高松","zip_code":"8700915"},{"name":"花津留","zip_code":"8700933"},{"name":"花の木坂","zip_code":"8701128"},{"name":"はなの森","zip_code":"8700880"},{"name":"馬場","zip_code":"8792112"},{"name":"浜中","zip_code":"8700323"},{"name":"浜の市","zip_code":"8700002"},{"name":"浜町東","zip_code":"8700013"},{"name":"浜町北","zip_code":"8700012"},{"name":"羽屋","zip_code":"8700854"},{"name":"羽屋新町","zip_code":"8700853"},{"name":"原川","zip_code":"8700138"},{"name":"原新町","zip_code":"8700912"},{"name":"判田台","zip_code":"8701110"},{"name":"判田台北","zip_code":"8701126"},{"name":"判田台東","zip_code":"8701108"},{"name":"判田台南","zip_code":"8701109"},{"name":"日岡","zip_code":"8700914"},{"name":"東明野","zip_code":"8700151"},{"name":"東上野","zip_code":"8700306"},{"name":"東大道","zip_code":"8700823"},{"name":"東春日町","zip_code":"8700037"},{"name":"東鶴崎","zip_code":"8700103"},{"name":"東津留","zip_code":"8700934"},{"name":"東浜","zip_code":"8700932"},{"name":"東原","zip_code":"8700150"},{"name":"東八幡","zip_code":"8700871"},{"name":"ひばりケ丘","zip_code":"8701115"},{"name":"日吉原","zip_code":"8700301"},{"name":"日吉町","zip_code":"8700918"},{"name":"平横瀬","zip_code":"8700866"},{"name":"広内","zip_code":"8700277"},{"name":"広瀬町","zip_code":"8700847"},{"name":"深河内","zip_code":"8700881"},{"name":"福宗","zip_code":"8701205"},{"name":"福良","zip_code":"8797874"},{"name":"ふじが丘","zip_code":"8701147"},{"name":"藤の台","zip_code":"8700957"},{"name":"富士見が丘東","zip_code":"8701176"},{"name":"富士見が丘西","zip_code":"8701177"},{"name":"二又町","zip_code":"8700887"},{"name":"府内町","zip_code":"8700021"},{"name":"豊饒","zip_code":"8700855"},{"name":"古国府","zip_code":"8700844"},{"name":"古国府東","zip_code":"8700845"},{"name":"弁天","zip_code":"8700017"},{"name":"芳河原台","zip_code":"8700948"},{"name":"法勝台","zip_code":"8700171"},{"name":"細","zip_code":"8700305"},{"name":"本神崎","zip_code":"8792111"},{"name":"舞鶴町","zip_code":"8700044"},{"name":"曲","zip_code":"8701146"},{"name":"牧","zip_code":"8700924"},{"name":"牧上町","zip_code":"8700925"},{"name":"松岡","zip_code":"8700125"},{"name":"松が丘","zip_code":"8701168"},{"name":"松原町","zip_code":"8700913"},{"name":"政所","zip_code":"8700268"},{"name":"丸亀","zip_code":"8700122"},{"name":"三ケ田町","zip_code":"8700888"},{"name":"三佐","zip_code":"8700108"},{"name":"三川上","zip_code":"8700143"},{"name":"三川下","zip_code":"8700142"},{"name":"三川新町","zip_code":"8700141"},{"name":"美園団地","zip_code":"8797765"},{"name":"光吉","zip_code":"8701132"},{"name":"光吉新町","zip_code":"8701135"},{"name":"光吉台","zip_code":"8701136"},{"name":"緑が丘","zip_code":"8701172"},{"name":"皆春","zip_code":"8700131"},{"name":"南","zip_code":"8700117"},{"name":"南生石東","zip_code":"8700812"},{"name":"南生石西","zip_code":"8700811"},{"name":"南王子町","zip_code":"8700814"},{"name":"南春日町","zip_code":"8700815"},{"name":"南下郡","zip_code":"8700928"},{"name":"南太平寺","zip_code":"8700885"},{"name":"南鶴崎","zip_code":"8700104"},{"name":"南津留","zip_code":"8700937"},{"name":"宮尾","zip_code":"8797873"},{"name":"宮河内","zip_code":"8700276"},{"name":"宮河内ハイランド","zip_code":"8700275"},{"name":"都町","zip_code":"8700034"},{"name":"宮崎","zip_code":"8701133"},{"name":"宮崎台","zip_code":"8701137"},{"name":"宮苑","zip_code":"8700878"},{"name":"御幸町","zip_code":"8700804"},{"name":"三芳","zip_code":"8700030"},{"name":"向原沖","zip_code":"8700903"},{"name":"向原東","zip_code":"8700904"},{"name":"向原西","zip_code":"8700905"},{"name":"宗方台北","zip_code":"8701159"},{"name":"宗方台西","zip_code":"8701158"},{"name":"宗方台東","zip_code":"8701157"},{"name":"廻栖野","zip_code":"8701163"},{"name":"米良","zip_code":"8700944"},{"name":"萌葱台","zip_code":"8701174"},{"name":"元町","zip_code":"8700843"},{"name":"桃園団地","zip_code":"8700139"},{"name":"森","zip_code":"8700128"},{"name":"森町","zip_code":"8700127"},{"name":"山津町","zip_code":"8700136"},{"name":"屋山","zip_code":"8700313"},{"name":"豊町","zip_code":"8700042"},{"name":"ゆめが丘","zip_code":"8700958"},{"name":"横尾","zip_code":"8700126"},{"name":"横瀬","zip_code":"8701173"},{"name":"横田","zip_code":"8700263"},{"name":"横塚","zip_code":"8700254"},{"name":"吉野原","zip_code":"8797875"},{"name":"永興","zip_code":"8700883"},{"name":"六坊南町","zip_code":"8700842"},{"name":"六坊北町","zip_code":"8700841"}]},{"name":"別府市","divisions":[{"name":"青山町","zip_code":"8740902"},{"name":"赤松","zip_code":"8740819"},{"name":"秋葉町","zip_code":"8740937"},{"name":"朝日ケ丘町","zip_code":"8740846"},{"name":"朝見","zip_code":"8740812"},{"name":"天間","zip_code":"8740005"},{"name":"石垣東","zip_code":"8740919"},{"name":"石垣西","zip_code":"8740910"},{"name":"井田","zip_code":"8740043"},{"name":"内竈","zip_code":"8740011"},{"name":"内成","zip_code":"8795551"},{"name":"浦田","zip_code":"8740814"},{"name":"駅前町","zip_code":"8740935"},{"name":"駅前本町","zip_code":"8740934"},{"name":"枝郷","zip_code":"8740805"},{"name":"扇山","zip_code":"8740849"},{"name":"小倉","zip_code":"8740842"},{"name":"小坂","zip_code":"8740001"},{"name":"大所","zip_code":"8740003"},{"name":"乙原","zip_code":"8740821"},{"name":"大畑","zip_code":"8740848"},{"name":"上田の湯町","zip_code":"8740908"},{"name":"上野口町","zip_code":"8740905"},{"name":"上原町","zip_code":"8740829"},{"name":"上平田町","zip_code":"8740036"},{"name":"亀川四の湯町","zip_code":"8740025"},{"name":"亀川中央町","zip_code":"8740021"},{"name":"亀川浜田町","zip_code":"8740014"},{"name":"亀川東町","zip_code":"8740022"},{"name":"観海寺","zip_code":"8740822"},{"name":"鉄輪上","zip_code":"8740046"},{"name":"鉄輪東","zip_code":"8740042"},{"name":"城島","zip_code":"8740802"},{"name":"北鉄輪","zip_code":"8740041"},{"name":"北中","zip_code":"8740845"},{"name":"北浜","zip_code":"8740920"},{"name":"北的ケ浜町","zip_code":"8740928"},{"name":"京町","zip_code":"8740926"},{"name":"楠町","zip_code":"8740943"},{"name":"国立","zip_code":"8740015"},{"name":"河内","zip_code":"8740816"},{"name":"古賀原","zip_code":"8795552"},{"name":"幸町","zip_code":"8740907"},{"name":"桜ケ丘","zip_code":"8740915"},{"name":"汐見町","zip_code":"8740918"},{"name":"実相寺","zip_code":"8740835"},{"name":"上人仲町","zip_code":"8740034"},{"name":"上人本町","zip_code":"8740032"},{"name":"上人西","zip_code":"8740035"},{"name":"上人南","zip_code":"8740033"},{"name":"上人ケ浜町","zip_code":"8740023"},{"name":"照波園町","zip_code":"8740031"},{"name":"新別府","zip_code":"8740834"},{"name":"新港町","zip_code":"8740923"},{"name":"末広町","zip_code":"8740938"},{"name":"スパランド豊海","zip_code":"8740012"},{"name":"関の江新町","zip_code":"8740002"},{"name":"荘園","zip_code":"8740838"},{"name":"荘園北町","zip_code":"8740837"},{"name":"大観山町","zip_code":"8740037"},{"name":"竹の内","zip_code":"8740841"},{"name":"立田町","zip_code":"8740939"},{"name":"田の口","zip_code":"8740815"},{"name":"田の湯町","zip_code":"8740909"},{"name":"中央町","zip_code":"8740936"},{"name":"千代町","zip_code":"8740942"},{"name":"鶴見","zip_code":"8740840"},{"name":"鶴見園町","zip_code":"8740826"},{"name":"天満町","zip_code":"8740906"},{"name":"鳥越","zip_code":"8740817"},{"name":"中島町","zip_code":"8740901"},{"name":"中須賀東町","zip_code":"8740917"},{"name":"中須賀本町","zip_code":"8740916"},{"name":"中須賀元町","zip_code":"8740914"},{"name":"西野口町","zip_code":"8740931"},{"name":"野口中町","zip_code":"8740932"},{"name":"野口元町","zip_code":"8740933"},{"name":"野口原","zip_code":"8740903"},{"name":"野田","zip_code":"8740016"},{"name":"馬場","zip_code":"8740847"},{"name":"浜町","zip_code":"8740945"},{"name":"浜脇","zip_code":"8740947"},{"name":"原町","zip_code":"8740820"},{"name":"春木","zip_code":"8740913"},{"name":"光町","zip_code":"8740930"},{"name":"東荘園","zip_code":"8740836"},{"name":"東山一区","zip_code":"8740803"},{"name":"東山二区","zip_code":"8740804"},{"name":"平田町","zip_code":"8740024"},{"name":"富士見町","zip_code":"8740921"},{"name":"船小路町","zip_code":"8740922"},{"name":"古市町","zip_code":"8740013"},{"name":"風呂本","zip_code":"8740044"},{"name":"火売","zip_code":"8740844"},{"name":"堀田","zip_code":"8740831"},{"name":"松原町","zip_code":"8740946"},{"name":"緑丘町","zip_code":"8740911"},{"name":"南須賀","zip_code":"8740912"},{"name":"南荘園町","zip_code":"8740904"},{"name":"南立石生目町","zip_code":"8740832"},{"name":"南立石板地町","zip_code":"8740824"},{"name":"南立石一区","zip_code":"8740839"},{"name":"南立石二区","zip_code":"8740827"},{"name":"南立石八幡町","zip_code":"8740825"},{"name":"南立石本町","zip_code":"8740823"},{"name":"南町","zip_code":"8740941"},{"name":"南的ケ浜町","zip_code":"8740929"},{"name":"御幸","zip_code":"8740045"},{"name":"明礬","zip_code":"8740843"},{"name":"餅ケ浜町","zip_code":"8740924"},{"name":"元町","zip_code":"8740944"},{"name":"柳","zip_code":"8740811"},{"name":"山家","zip_code":"8740818"},{"name":"山の口","zip_code":"8740801"},{"name":"山の手町","zip_code":"8740828"},{"name":"弓ケ浜町","zip_code":"8740927"},{"name":"湯山","zip_code":"8740004"},{"name":"両郡橋","zip_code":"8740813"},{"name":"若草町","zip_code":"8740925"}]},{"name":"中津市","divisions":[{"name":"相原","zip_code":"8710122"},{"name":"赤迫","zip_code":"8790106"},{"name":"市場","zip_code":"8710098"},{"name":"伊藤田","zip_code":"8790111"},{"name":"犬丸","zip_code":"8790105"},{"name":"今津","zip_code":"8790101"},{"name":"植野","zip_code":"8790103"},{"name":"牛神","zip_code":"8710015"},{"name":"牛神町","zip_code":"8710016"},{"name":"浦町","zip_code":"8710093"},{"name":"餌指町","zip_code":"8710064"},{"name":"枝町","zip_code":"8710038"},{"name":"蛭子町","zip_code":"8710065"},{"name":"江三竹町","zip_code":"8710044"},{"name":"合馬","zip_code":"8710005"},{"name":"大貞","zip_code":"8710153"},{"name":"大新田","zip_code":"8710001"},{"name":"大塚","zip_code":"8710008"},{"name":"沖代町","zip_code":"8710021"},{"name":"萱津町","zip_code":"8710045"},{"name":"蛎瀬","zip_code":"8710007"},{"name":"加来","zip_code":"8710152"},{"name":"水主町","zip_code":"8710082"},{"name":"片端町","zip_code":"8710056"},{"name":"金手","zip_code":"8710013"},{"name":"金谷","zip_code":"8710046"},{"name":"上池永","zip_code":"8710161"},{"name":"上如水","zip_code":"8710004"},{"name":"上博多町","zip_code":"8710042"},{"name":"上宮永","zip_code":"8710027"},{"name":"北稲堀","zip_code":"8710060"},{"name":"北浦町","zip_code":"8710094"},{"name":"北新地","zip_code":"8710090"},{"name":"北原","zip_code":"8790113"},{"name":"北堀川町","zip_code":"8710081"},{"name":"北門通","zip_code":"8710079"},{"name":"京町","zip_code":"8710054"},{"name":"闇無町","zip_code":"8710091"},{"name":"小祝","zip_code":"8710078"},{"name":"小祝新町","zip_code":"8710080"},{"name":"古城","zip_code":"8710154"},{"name":"小堀","zip_code":"8710084"},{"name":"米町","zip_code":"8710076"},{"name":"是則","zip_code":"8710003"},{"name":"栄町","zip_code":"8710043"},{"name":"榊原町","zip_code":"8710156"},{"name":"桜町","zip_code":"8710074"},{"name":"定留","zip_code":"8790122"},{"name":"三光諫山","zip_code":"8710104"},{"name":"三光臼木","zip_code":"8710112"},{"name":"三光小袋","zip_code":"8710114"},{"name":"三光上深水","zip_code":"8790225"},{"name":"三光上秣","zip_code":"8790221"},{"name":"三光佐知","zip_code":"8710111"},{"name":"三光下深水","zip_code":"8790224"},{"name":"三光下秣","zip_code":"8790223"},{"name":"三光田口","zip_code":"8710103"},{"name":"三光土田","zip_code":"8710113"},{"name":"三光成恒","zip_code":"8710102"},{"name":"三光西秣","zip_code":"8790222"},{"name":"三光原口","zip_code":"8710105"},{"name":"三光森山","zip_code":"8710101"},{"name":"三ノ丁","zip_code":"8710057"},{"name":"塩町","zip_code":"8710073"},{"name":"島田","zip_code":"8710033"},{"name":"島田仲町","zip_code":"8710035"},{"name":"島田本町","zip_code":"8710036"},{"name":"下池永","zip_code":"8710011"},{"name":"下正路","zip_code":"8710097"},{"name":"下永添","zip_code":"8710164"},{"name":"下宮永","zip_code":"8710029"},{"name":"昭和新田","zip_code":"8790107"},{"name":"新魚町","zip_code":"8710048"},{"name":"新大塚町","zip_code":"8710009"},{"name":"新天神町","zip_code":"8710039"},{"name":"新博多町","zip_code":"8710041"},{"name":"新堀","zip_code":"8710069"},{"name":"船頭町","zip_code":"8710086"},{"name":"全徳","zip_code":"8710002"},{"name":"船場町","zip_code":"8710089"},{"name":"外馬場","zip_code":"8710059"},{"name":"大悟法","zip_code":"8710151"},{"name":"鷹匠町","zip_code":"8710066"},{"name":"高瀬","zip_code":"8710026"},{"name":"鷹部屋","zip_code":"8710071"},{"name":"田尻","zip_code":"8790123"},{"name":"田尻崎","zip_code":"8790124"},{"name":"中央町","zip_code":"8710024"},{"name":"仲間町","zip_code":"8710067"},{"name":"角木","zip_code":"8710091"},{"name":"角木新町","zip_code":"8710095"},{"name":"角木町","zip_code":"8710028"},{"name":"寺町","zip_code":"8710075"},{"name":"天神町","zip_code":"8710039"},{"name":"殿町","zip_code":"8710055"},{"name":"豊田町","zip_code":"8710058"},{"name":"中殿","zip_code":"8710031"},{"name":"中殿町","zip_code":"8710030"},{"name":"中原","zip_code":"8710157"},{"name":"永添","zip_code":"8710162"},{"name":"鍋島","zip_code":"8790102"},{"name":"西永添","zip_code":"8710163"},{"name":"西堀端","zip_code":"8710046"},{"name":"二ノ丁","zip_code":"8710050"},{"name":"野依","zip_code":"8790104"},{"name":"八幡町","zip_code":"8710155"},{"name":"東浜","zip_code":"8710006"},{"name":"東堀端","zip_code":"8710046"},{"name":"東本町","zip_code":"8710032"},{"name":"一ツ松","zip_code":"8710014"},{"name":"日ノ出町","zip_code":"8710034"},{"name":"姫路町","zip_code":"8710077"},{"name":"福島","zip_code":"8790112"},{"name":"袋町","zip_code":"8710063"},{"name":"船町","zip_code":"8710072"},{"name":"古魚町","zip_code":"8710053"},{"name":"古金谷","zip_code":"8710046"},{"name":"古博多町","zip_code":"8710051"},{"name":"豊後町","zip_code":"8710068"},{"name":"本耶馬渓町跡田","zip_code":"8710311"},{"name":"本耶馬渓町今行","zip_code":"8710206"},{"name":"本耶馬渓町落合","zip_code":"8710313"},{"name":"本耶馬渓町折元","zip_code":"8710312"},{"name":"本耶馬渓町冠石野","zip_code":"8710204"},{"name":"本耶馬渓町下屋形","zip_code":"8710205"},{"name":"本耶馬渓町曽木","zip_code":"8710202"},{"name":"本耶馬渓町多志田","zip_code":"8710203"},{"name":"本耶馬渓町西谷","zip_code":"8710314"},{"name":"本耶馬渓町西屋形","zip_code":"8710208"},{"name":"本耶馬渓町東谷","zip_code":"8710315"},{"name":"本耶馬渓町東屋形","zip_code":"8710207"},{"name":"本耶馬渓町樋田","zip_code":"8710201"},{"name":"丸山町","zip_code":"8710047"},{"name":"万田","zip_code":"8710025"},{"name":"南稲堀","zip_code":"8710061"},{"name":"南新地","zip_code":"8710092"},{"name":"南堀川町","zip_code":"8710087"},{"name":"宮島町","zip_code":"8710037"},{"name":"宮夫","zip_code":"8710012"},{"name":"諸田","zip_code":"8790121"},{"name":"諸町","zip_code":"8710049"},{"name":"矢場","zip_code":"8710083"},{"name":"耶馬溪町大島","zip_code":"8710431"},{"name":"耶馬溪町大野","zip_code":"8710413"},{"name":"耶馬溪町小友田","zip_code":"8710406"},{"name":"耶馬溪町柿坂","zip_code":"8710405"},{"name":"耶馬溪町金吉","zip_code":"8710432"},{"name":"耶馬溪町冠石野","zip_code":"8710402"},{"name":"耶馬溪町川原口","zip_code":"8710414"},{"name":"耶馬溪町深耶馬","zip_code":"8710422"},{"name":"耶馬溪町多志田","zip_code":"8710403"},{"name":"耶馬溪町栃木","zip_code":"8710412"},{"name":"耶馬溪町戸原","zip_code":"8710404"},{"name":"耶馬溪町中畑","zip_code":"8710411"},{"name":"耶馬溪町樋山路","zip_code":"8710434"},{"name":"耶馬溪町平田","zip_code":"8710401"},{"name":"耶馬溪町福土","zip_code":"8710408"},{"name":"耶馬溪町三尾母","zip_code":"8710407"},{"name":"耶馬溪町宮園","zip_code":"8710433"},{"name":"耶馬溪町山移","zip_code":"8710421"},{"name":"山国町宇曽","zip_code":"8710715"},{"name":"山国町草本","zip_code":"8710702"},{"name":"山国町小屋川","zip_code":"8710703"},{"name":"山国町槻木","zip_code":"8710701"},{"name":"山国町長尾野","zip_code":"8710714"},{"name":"山国町中摩","zip_code":"8710716"},{"name":"山国町平小野","zip_code":"8710711"},{"name":"山国町藤野木","zip_code":"8710713"},{"name":"山国町守実","zip_code":"8710712"},{"name":"山国町吉野","zip_code":"8710704"},{"name":"山下","zip_code":"8710062"},{"name":"弓町","zip_code":"8710085"},{"name":"湯屋","zip_code":"8710023"},{"name":"竜王町","zip_code":"8710096"},{"name":"留守居町","zip_code":"8710088"}]},{"name":"日田市","divisions":[{"name":"秋原町","zip_code":"8771224"},{"name":"秋山町","zip_code":"8770001"},{"name":"朝日ケ丘","zip_code":"8770084"},{"name":"朝日町","zip_code":"8770085"},{"name":"天瀬町赤岩","zip_code":"8794202"},{"name":"天瀬町五馬市","zip_code":"8770111"},{"name":"天瀬町出口","zip_code":"8770114"},{"name":"天瀬町女子畑","zip_code":"8794123"},{"name":"天瀬町合田","zip_code":"8794122"},{"name":"天瀬町桜竹","zip_code":"8794201"},{"name":"天瀬町塚田","zip_code":"8770113"},{"name":"天瀬町本城","zip_code":"8770112"},{"name":"天瀬町馬原","zip_code":"8794121"},{"name":"天瀬町湯山","zip_code":"8794203"},{"name":"有田町","zip_code":"8771361"},{"name":"池辺町","zip_code":"8771375"},{"name":"石井","zip_code":"8770061"},{"name":"石松町","zip_code":"8771352"},{"name":"市ノ瀬町","zip_code":"8771223"},{"name":"岩美町","zip_code":"8771383"},{"name":"上野町","zip_code":"8770062"},{"name":"内河町","zip_code":"8770068"},{"name":"大鶴本町","zip_code":"8771104"},{"name":"大鶴町","zip_code":"8771107"},{"name":"大肥町","zip_code":"8771105"},{"name":"大肥本町","zip_code":"8771106"},{"name":"大部町","zip_code":"8770033"},{"name":"大宮町","zip_code":"8770055"},{"name":"大山町西大山","zip_code":"8770201"},{"name":"大山町東大山","zip_code":"8770202"},{"name":"小ケ瀬町","zip_code":"8770032"},{"name":"小河内町","zip_code":"8771222"},{"name":"小迫町","zip_code":"8770088"},{"name":"尾当町","zip_code":"8771362"},{"name":"小山町","zip_code":"8770064"},{"name":"神来町","zip_code":"8770022"},{"name":"上城内町","zip_code":"8770003"},{"name":"上津江町上野田","zip_code":"8770312"},{"name":"上津江町川原","zip_code":"8770311"},{"name":"上諸留町","zip_code":"8771372"},{"name":"亀川町","zip_code":"8770076"},{"name":"川下","zip_code":"8770066"},{"name":"川原町","zip_code":"8770043"},{"name":"亀山町","zip_code":"8770045"},{"name":"北友田","zip_code":"8770078"},{"name":"君迫町","zip_code":"8770087"},{"name":"京町","zip_code":"8770051"},{"name":"串川町","zip_code":"8770063"},{"name":"隈","zip_code":"8770044"},{"name":"古金町","zip_code":"8770031"},{"name":"琴平町","zip_code":"8770054"},{"name":"財津町","zip_code":"8771231"},{"name":"坂井町","zip_code":"8771354"},{"name":"三ノ宮町","zip_code":"8771351"},{"name":"三本松","zip_code":"8770016"},{"name":"三本松新町","zip_code":"8770017"},{"name":"清水町","zip_code":"8771232"},{"name":"下井手町","zip_code":"8770038"},{"name":"上宮町","zip_code":"8771102"},{"name":"城内新町","zip_code":"8770002"},{"name":"城町","zip_code":"8770004"},{"name":"鈴連町","zip_code":"8771243"},{"name":"清岸寺町","zip_code":"8770081"},{"name":"誠和町","zip_code":"8770056"},{"name":"銭渕町","zip_code":"8770052"},{"name":"大日町","zip_code":"8770059"},{"name":"高井町","zip_code":"8770067"},{"name":"高瀬本町","zip_code":"8770053"},{"name":"竹田新町","zip_code":"8770041"},{"name":"田島","zip_code":"8770023"},{"name":"田島本町","zip_code":"8770026"},{"name":"玉川町","zip_code":"8770071"},{"name":"淡窓","zip_code":"8770012"},{"name":"中央","zip_code":"8770015"},{"name":"月出町","zip_code":"8771373"},{"name":"鶴河内町","zip_code":"8771103"},{"name":"鶴城町","zip_code":"8771101"},{"name":"天神町","zip_code":"8771234"},{"name":"殿町","zip_code":"8771242"},{"name":"中尾町","zip_code":"8771363"},{"name":"中城町","zip_code":"8770011"},{"name":"中津江村合瀬","zip_code":"8770302"},{"name":"中津江村栃野","zip_code":"8770301"},{"name":"中釣町","zip_code":"8770075"},{"name":"中ノ島町","zip_code":"8770074"},{"name":"中本町","zip_code":"8770047"},{"name":"南部町","zip_code":"8770058"},{"name":"新治町","zip_code":"8770072"},{"name":"二串町","zip_code":"8770086"},{"name":"上手町","zip_code":"8771353"},{"name":"羽田町","zip_code":"8771384"},{"name":"東羽田町","zip_code":"8771381"},{"name":"東町","zip_code":"8770042"},{"name":"日高町","zip_code":"8770035"},{"name":"日ノ隈町","zip_code":"8770073"},{"name":"日ノ出町","zip_code":"8770082"},{"name":"日の本町","zip_code":"8771382"},{"name":"吹上町","zip_code":"8770083"},{"name":"伏木町","zip_code":"8771221"},{"name":"藤山町","zip_code":"8771225"},{"name":"本庄町","zip_code":"8770046"},{"name":"本町","zip_code":"8770014"},{"name":"前津江町赤石","zip_code":"8770211"},{"name":"前津江町大野","zip_code":"8770212"},{"name":"前津江町柚木","zip_code":"8391421"},{"name":"松野町","zip_code":"8771374"},{"name":"豆田町","zip_code":"8770005"},{"name":"丸の内町","zip_code":"8770007"},{"name":"丸山","zip_code":"8770008"},{"name":"三池町","zip_code":"8771364"},{"name":"三河町","zip_code":"8771244"},{"name":"水目町","zip_code":"8771365"},{"name":"緑町","zip_code":"8770065"},{"name":"港町","zip_code":"8770006"},{"name":"南友田町","zip_code":"8770077"},{"name":"南元町","zip_code":"8770024"},{"name":"三芳小渕町","zip_code":"8770036"},{"name":"三和団地","zip_code":"8771233"},{"name":"元町","zip_code":"8770013"},{"name":"源栄町","zip_code":"8771121"},{"name":"求町","zip_code":"8770021"},{"name":"桃山町","zip_code":"8770034"},{"name":"諸留町","zip_code":"8771371"},{"name":"八幡町","zip_code":"8770057"},{"name":"山田町","zip_code":"8770089"},{"name":"刃連町","zip_code":"8770039"},{"name":"夜明上町","zip_code":"8771111"},{"name":"夜明中町","zip_code":"8771112"},{"name":"夜明関町","zip_code":"8771113"},{"name":"若宮町","zip_code":"8770037"}]},{"name":"佐伯市","divisions":[{"name":"青山","zip_code":"8761513"},{"name":"荒網代浦","zip_code":"8760004"},{"name":"池田","zip_code":"8760025"},{"name":"池船町","zip_code":"8760833"},{"name":"石間浦","zip_code":"8760005"},{"name":"稲垣","zip_code":"8760042"},{"name":"臼坪","zip_code":"8760849"},{"name":"内町","zip_code":"8760845"},{"name":"宇目大平","zip_code":"8793201"},{"name":"宇目小野市","zip_code":"8793301"},{"name":"宇目河内","zip_code":"8793202"},{"name":"宇目木浦内","zip_code":"8793402"},{"name":"宇目木浦鉱山","zip_code":"8793401"},{"name":"宇目塩見園","zip_code":"8793203"},{"name":"宇目重岡","zip_code":"8793204"},{"name":"宇目千束","zip_code":"8793205"},{"name":"宇目南田原","zip_code":"8793302"},{"name":"駅前","zip_code":"8760803"},{"name":"王子丸","zip_code":"8760016"},{"name":"大越","zip_code":"8760036"},{"name":"大手町","zip_code":"8760831"},{"name":"海崎","zip_code":"8761105"},{"name":"樫野","zip_code":"8760043"},{"name":"春日町","zip_code":"8760806"},{"name":"霞ケ浦","zip_code":"8761104"},{"name":"片神浦","zip_code":"8760008"},{"name":"堅田","zip_code":"8761512"},{"name":"葛港","zip_code":"8760801"},{"name":"蒲江猪串浦","zip_code":"8762402"},{"name":"蒲江尾浦","zip_code":"8762202"},{"name":"蒲江葛原浦","zip_code":"8762406"},{"name":"蒲江蒲江浦","zip_code":"8762401"},{"name":"蒲江楠本浦","zip_code":"8762203"},{"name":"蒲江竹野浦河内","zip_code":"8762301"},{"name":"蒲江西野浦","zip_code":"8762302"},{"name":"蒲江野々河内浦","zip_code":"8762403"},{"name":"蒲江畑野浦","zip_code":"8762201"},{"name":"蒲江波当津浦","zip_code":"8762407"},{"name":"蒲江丸市尾浦","zip_code":"8762405"},{"name":"蒲江森崎浦","zip_code":"8762404"},{"name":"上浦浅海井浦","zip_code":"8792601"},{"name":"上浦津井浦","zip_code":"8792602"},{"name":"上浦最勝海浦","zip_code":"8792603"},{"name":"上岡","zip_code":"8760045"},{"name":"上久部","zip_code":"8760027"},{"name":"上城","zip_code":"8760034"},{"name":"上灘","zip_code":"8760022"},{"name":"狩生","zip_code":"8761101"},{"name":"川原","zip_code":"8760031"},{"name":"蟹田","zip_code":"8760804"},{"name":"岸河内","zip_code":"8760035"},{"name":"木立","zip_code":"8762121"},{"name":"久保浦","zip_code":"8760007"},{"name":"来島町","zip_code":"8760841"},{"name":"坂の浦","zip_code":"8760011"},{"name":"坂山","zip_code":"8760052"},{"name":"塩内浦","zip_code":"8760003"},{"name":"下久部","zip_code":"8760024"},{"name":"下城","zip_code":"8760033"},{"name":"城下東町","zip_code":"8760848"},{"name":"城下西町","zip_code":"8760847"},{"name":"城西区","zip_code":"8760063"},{"name":"城東町","zip_code":"8760846"},{"name":"城南町","zip_code":"8760834"},{"name":"匠南","zip_code":"8760026"},{"name":"白方","zip_code":"8760014"},{"name":"新女島","zip_code":"8760824"},{"name":"船頭町","zip_code":"8760832"},{"name":"高畠","zip_code":"8760044"},{"name":"高畑","zip_code":"8760053"},{"name":"高松浦","zip_code":"8760001"},{"name":"田の浦町","zip_code":"8760807"},{"name":"鶴岡西町","zip_code":"8760047"},{"name":"鶴岡町","zip_code":"8760835"},{"name":"鶴望","zip_code":"8760012"},{"name":"鶴見有明浦","zip_code":"8761204"},{"name":"鶴見大島","zip_code":"8761313"},{"name":"鶴見沖松浦","zip_code":"8761203"},{"name":"鶴見梶寄浦","zip_code":"8761312"},{"name":"鶴見地松浦","zip_code":"8761202"},{"name":"鶴見丹賀浦","zip_code":"8761311"},{"name":"鶴見中越浦","zip_code":"8761306"},{"name":"鶴見羽出浦","zip_code":"8761205"},{"name":"鶴見吹浦","zip_code":"8761201"},{"name":"鶴谷町","zip_code":"8760811"},{"name":"寺田","zip_code":"8760051"},{"name":"常盤東町","zip_code":"8760851"},{"name":"常盤西町","zip_code":"8760857"},{"name":"常盤南町","zip_code":"8760852"},{"name":"直川赤木","zip_code":"8793101"},{"name":"直川上直見","zip_code":"8793102"},{"name":"直川下直見","zip_code":"8793103"},{"name":"直川仁田原","zip_code":"8793104"},{"name":"直川横川","zip_code":"8793105"},{"name":"中江町","zip_code":"8760812"},{"name":"中の島","zip_code":"8760843"},{"name":"中ノ島東町","zip_code":"8760842"},{"name":"中村東町","zip_code":"8760853"},{"name":"中村西町","zip_code":"8760855"},{"name":"中村南町","zip_code":"8760854"},{"name":"中村北町","zip_code":"8760856"},{"name":"中山","zip_code":"8760032"},{"name":"長島町","zip_code":"8760813"},{"name":"長瀬","zip_code":"8760041"},{"name":"長良","zip_code":"8761511"},{"name":"西谷町","zip_code":"8760836"},{"name":"西浜","zip_code":"8760822"},{"name":"野岡町","zip_code":"8760815"},{"name":"野口","zip_code":"8760017"},{"name":"長谷","zip_code":"8760037"},{"name":"戸穴","zip_code":"8761106"},{"name":"東灘","zip_code":"8760021"},{"name":"東浜","zip_code":"8760821"},{"name":"東町","zip_code":"8760814"},{"name":"日の出町","zip_code":"8760802"},{"name":"日向泊浦","zip_code":"8760002"},{"name":"平","zip_code":"8760018"},{"name":"平野町","zip_code":"8760805"},{"name":"二栄","zip_code":"8761102"},{"name":"古市","zip_code":"8760062"},{"name":"蛇崎","zip_code":"8760023"},{"name":"向島","zip_code":"8760844"},{"name":"本匠井ノ上","zip_code":"8760211"},{"name":"本匠因尾","zip_code":"8760212"},{"name":"本匠宇津々","zip_code":"8760204"},{"name":"本匠小川","zip_code":"8760206"},{"name":"本匠小半","zip_code":"8760215"},{"name":"本匠笠掛","zip_code":"8760202"},{"name":"本匠風戸","zip_code":"8760201"},{"name":"本匠上津川","zip_code":"8760214"},{"name":"本匠堂ノ間","zip_code":"8760213"},{"name":"本匠波寄","zip_code":"8760205"},{"name":"本匠三股","zip_code":"8760203"},{"name":"本匠山部","zip_code":"8760216"},{"name":"女島","zip_code":"8760823"},{"name":"女島団地","zip_code":"8760825"},{"name":"百谷","zip_code":"8760015"},{"name":"護江","zip_code":"8761103"},{"name":"守後浦","zip_code":"8760006"},{"name":"門前","zip_code":"8760061"},{"name":"八迫区","zip_code":"8760064"},{"name":"弥生井崎","zip_code":"8760111"},{"name":"弥生江良","zip_code":"8760125"},{"name":"弥生大坂本","zip_code":"8760101"},{"name":"弥生上小倉","zip_code":"8760112"},{"name":"弥生門田","zip_code":"8760122"},{"name":"弥生小田","zip_code":"8760121"},{"name":"弥生細田","zip_code":"8760124"},{"name":"弥生尺間","zip_code":"8760102"},{"name":"弥生提内","zip_code":"8760126"},{"name":"弥生平井","zip_code":"8760123"},{"name":"弥生山梨子","zip_code":"8760113"},{"name":"弥生床木","zip_code":"8760103"},{"name":"米水津色利浦","zip_code":"8761402"},{"name":"米水津浦代浦","zip_code":"8761401"},{"name":"米水津小浦","zip_code":"8761404"},{"name":"米水津竹野浦","zip_code":"8761405"},{"name":"米水津宮野浦","zip_code":"8761403"},{"name":"若宮町","zip_code":"8760013"},{"name":"脇","zip_code":"8760046"}]},{"name":"臼杵市","divisions":[{"name":"家野","zip_code":"8750065"},{"name":"板知屋","zip_code":"8750034"},{"name":"市浜","zip_code":"8750052"},{"name":"稲田","zip_code":"8750082"},{"name":"井村","zip_code":"8750083"},{"name":"臼杵","zip_code":"8750041"},{"name":"江無田","zip_code":"8750023"},{"name":"大泊","zip_code":"8750033"},{"name":"大野","zip_code":"8750004"},{"name":"大浜","zip_code":"8750012"},{"name":"乙見","zip_code":"8750077"},{"name":"海添","zip_code":"8750042"},{"name":"掻懐","zip_code":"8750073"},{"name":"風成","zip_code":"8750032"},{"name":"久木小野","zip_code":"8750070"},{"name":"佐志生","zip_code":"8750001"},{"name":"左津留","zip_code":"8750074"},{"name":"下ノ江","zip_code":"8750002"},{"name":"末広","zip_code":"8750022"},{"name":"諏訪","zip_code":"8750011"},{"name":"田井","zip_code":"8750003"},{"name":"高山","zip_code":"8750078"},{"name":"岳谷","zip_code":"8750084"},{"name":"武山","zip_code":"8750079"},{"name":"田尻","zip_code":"8750021"},{"name":"戸室","zip_code":"8750051"},{"name":"中臼杵","zip_code":"8750072"},{"name":"中尾","zip_code":"8750075"},{"name":"中津浦","zip_code":"8750013"},{"name":"二王座","zip_code":"8750043"},{"name":"野田","zip_code":"8750062"},{"name":"野津町秋山","zip_code":"8750221"},{"name":"野津町岩屋","zip_code":"8750343"},{"name":"野津町烏嶽","zip_code":"8750232"},{"name":"野津町老松","zip_code":"8750212"},{"name":"野津町王子","zip_code":"8750215"},{"name":"野津町落谷","zip_code":"8750342"},{"name":"野津町垣河内","zip_code":"8750352"},{"name":"野津町亀甲","zip_code":"8750216"},{"name":"野津町西寒田","zip_code":"8750237"},{"name":"野津町白岩","zip_code":"8750344"},{"name":"野津町清水原","zip_code":"8750341"},{"name":"野津町千塚","zip_code":"8750231"},{"name":"野津町泊","zip_code":"8750351"},{"name":"野津町西神野","zip_code":"8750353"},{"name":"野津町西畑","zip_code":"8750224"},{"name":"野津町野津市","zip_code":"8750201"},{"name":"野津町八里合","zip_code":"8750213"},{"name":"野津町原","zip_code":"8750234"},{"name":"野津町東谷","zip_code":"8750323"},{"name":"野津町福良木","zip_code":"8750214"},{"name":"野津町藤小野","zip_code":"8750235"},{"name":"野津町前河内","zip_code":"8750203"},{"name":"野津町都原","zip_code":"8750211"},{"name":"野津町宮原","zip_code":"8750233"},{"name":"野津町山頭","zip_code":"8750202"},{"name":"野津町柚野木","zip_code":"8750236"},{"name":"野津町吉田","zip_code":"8750222"},{"name":"東神野","zip_code":"8750076"},{"name":"深江","zip_code":"8750031"},{"name":"深田","zip_code":"8750064"},{"name":"福良","zip_code":"8750053"},{"name":"藤河内","zip_code":"8750081"},{"name":"前田","zip_code":"8750061"},{"name":"望月","zip_code":"8750063"},{"name":"吉小野","zip_code":"8750071"}]},{"name":"津久見市","divisions":[{"name":"網代","zip_code":"8792682"},{"name":"井無田町","zip_code":"8792445"},{"name":"入船東町","zip_code":"8792459"},{"name":"入船西町","zip_code":"8792458"},{"name":"岩屋町","zip_code":"8792411"},{"name":"大友町","zip_code":"8792431"},{"name":"岡町","zip_code":"8792455"},{"name":"堅浦","zip_code":"8792475"},{"name":"上青江","zip_code":"8792461"},{"name":"上宮本町","zip_code":"8792436"},{"name":"合ノ元町","zip_code":"8792471"},{"name":"小園町","zip_code":"8792453"},{"name":"地蔵町","zip_code":"8792454"},{"name":"志手町","zip_code":"8792457"},{"name":"下青江","zip_code":"8792446"},{"name":"新町","zip_code":"8792451"},{"name":"セメント町","zip_code":"8792443"},{"name":"高洲町","zip_code":"8792412"},{"name":"立花町","zip_code":"8792434"},{"name":"千怒","zip_code":"8792401"},{"name":"中央町","zip_code":"8792441"},{"name":"津久見","zip_code":"8792421"},{"name":"津久見浦","zip_code":"8792413"},{"name":"徳浦","zip_code":"8792474"},{"name":"徳浦本町","zip_code":"8792472"},{"name":"徳浦宮町","zip_code":"8792473"},{"name":"中田町","zip_code":"8792433"},{"name":"中町","zip_code":"8792452"},{"name":"長目","zip_code":"8792476"},{"name":"日見","zip_code":"8792681"},{"name":"文京町","zip_code":"8792432"},{"name":"保戸島","zip_code":"8792501"},{"name":"港町","zip_code":"8792442"},{"name":"宮本町","zip_code":"8792435"},{"name":"元町","zip_code":"8792444"},{"name":"門前町","zip_code":"8792456"},{"name":"八戸","zip_code":"8792422"},{"name":"四浦","zip_code":"8792683"}]},{"name":"竹田市","divisions":[{"name":"会々","zip_code":"8780011"},{"name":"穴井迫","zip_code":"8780021"},{"name":"市用","zip_code":"8780153"},{"name":"今","zip_code":"8796182"},{"name":"岩瀬","zip_code":"8780022"},{"name":"岩本","zip_code":"8780031"},{"name":"植木","zip_code":"8780001"},{"name":"枝","zip_code":"8780002"},{"name":"太田","zip_code":"8780032"},{"name":"小川","zip_code":"8780141"},{"name":"荻町瓜作","zip_code":"8796134"},{"name":"荻町恵良原","zip_code":"8796113"},{"name":"荻町大平","zip_code":"8796126"},{"name":"荻町柏原","zip_code":"8796122"},{"name":"荻町叶野","zip_code":"8796127"},{"name":"荻町北原","zip_code":"8796135"},{"name":"荻町木下","zip_code":"8796101"},{"name":"荻町桑木","zip_code":"8796121"},{"name":"荻町西福寺","zip_code":"8796132"},{"name":"荻町鴫田","zip_code":"8796131"},{"name":"荻町新藤","zip_code":"8796103"},{"name":"荻町高城","zip_code":"8796116"},{"name":"荻町高練木","zip_code":"8796128"},{"name":"荻町田代","zip_code":"8796133"},{"name":"荻町馬場","zip_code":"8796115"},{"name":"荻町陽目","zip_code":"8796124"},{"name":"荻町藤渡","zip_code":"8796104"},{"name":"荻町仏面","zip_code":"8796125"},{"name":"荻町馬背野","zip_code":"8796112"},{"name":"荻町政所","zip_code":"8796102"},{"name":"荻町南河内","zip_code":"8796111"},{"name":"荻町宮平","zip_code":"8796123"},{"name":"小塚","zip_code":"8796181"},{"name":"片ケ瀬","zip_code":"8780003"},{"name":"上坂田","zip_code":"8780161"},{"name":"上畑","zip_code":"8780163"},{"name":"刈小野","zip_code":"8780164"},{"name":"川床","zip_code":"8780154"},{"name":"城原","zip_code":"8780143"},{"name":"君ケ園","zip_code":"8780023"},{"name":"九重野","zip_code":"8780572"},{"name":"久住町有氏","zip_code":"8780202"},{"name":"久住町栢木","zip_code":"8780204"},{"name":"久住町久住","zip_code":"8780201"},{"name":"久住町白丹","zip_code":"8780205"},{"name":"久住町添ケ津留","zip_code":"8780206"},{"name":"久住町仏原","zip_code":"8780203"},{"name":"久保","zip_code":"8780256"},{"name":"倉木","zip_code":"8780576"},{"name":"神原","zip_code":"8780574"},{"name":"志土知","zip_code":"8780155"},{"name":"下坂田","zip_code":"8780151"},{"name":"下志土知","zip_code":"8780152"},{"name":"菅生","zip_code":"8796184"},{"name":"炭竈","zip_code":"8780162"},{"name":"田井","zip_code":"8780575"},{"name":"高伏","zip_code":"8780144"},{"name":"竹田","zip_code":"8780013"},{"name":"竹田町","zip_code":"8780012"},{"name":"玉来","zip_code":"8780024"},{"name":"次倉","zip_code":"8780571"},{"name":"戸上","zip_code":"8796183"},{"name":"直入町上田北","zip_code":"8780403"},{"name":"直入町神堤","zip_code":"8780401"},{"name":"直入町下田北","zip_code":"8780404"},{"name":"直入町長湯","zip_code":"8780402"},{"name":"中","zip_code":"8780004"},{"name":"中角","zip_code":"8780573"},{"name":"入田","zip_code":"8780033"},{"name":"拝田原","zip_code":"8780025"},{"name":"挾田","zip_code":"8780005"},{"name":"飛田川","zip_code":"8780026"},{"name":"平田","zip_code":"8780006"},{"name":"福原","zip_code":"8780142"},{"name":"古園","zip_code":"8780146"},{"name":"三宅","zip_code":"8780007"},{"name":"向山田","zip_code":"8780027"},{"name":"門田","zip_code":"8780034"},{"name":"吉田","zip_code":"8780035"},{"name":"米納","zip_code":"8780145"},{"name":"渡瀬","zip_code":"8780028"}]},{"name":"豊後高田市","divisions":[{"name":"荒尾","zip_code":"8790733"},{"name":"一畑","zip_code":"8790722"},{"name":"今町","zip_code":"8790626"},{"name":"臼野","zip_code":"8721107"},{"name":"梅ノ木","zip_code":"8790723"},{"name":"夷","zip_code":"8721201"},{"name":"大岩屋","zip_code":"8721102"},{"name":"大平","zip_code":"8721106"},{"name":"御玉","zip_code":"8790605"},{"name":"香々地","zip_code":"8721202"},{"name":"鍛治屋町","zip_code":"8790622"},{"name":"堅来","zip_code":"8721203"},{"name":"鼎","zip_code":"8790603"},{"name":"金谷町","zip_code":"8790623"},{"name":"上香々地","zip_code":"8721204"},{"name":"加礼川","zip_code":"8790721"},{"name":"草地","zip_code":"8790601"},{"name":"来縄","zip_code":"8790614"},{"name":"呉崎","zip_code":"8790608"},{"name":"黒土","zip_code":"8721103"},{"name":"小田原","zip_code":"8790613"},{"name":"小畑","zip_code":"8721205"},{"name":"是永町","zip_code":"8790621"},{"name":"界","zip_code":"8790615"},{"name":"佐野","zip_code":"8790612"},{"name":"城前","zip_code":"8721104"},{"name":"新栄","zip_code":"8790607"},{"name":"新城","zip_code":"8790724"},{"name":"新地","zip_code":"8790627"},{"name":"新町","zip_code":"8790628"},{"name":"大力","zip_code":"8790732"},{"name":"高田","zip_code":"8790617"},{"name":"田染相原","zip_code":"8790843"},{"name":"田染池部","zip_code":"8790842"},{"name":"田染上野","zip_code":"8790844"},{"name":"田染小崎","zip_code":"8790854"},{"name":"田染平野","zip_code":"8790853"},{"name":"田染蕗","zip_code":"8790841"},{"name":"田染真木","zip_code":"8790855"},{"name":"田染真中","zip_code":"8790852"},{"name":"田染横嶺","zip_code":"8790851"},{"name":"玉津","zip_code":"8790606"},{"name":"中央通","zip_code":"8790618"},{"name":"築地","zip_code":"8790734"},{"name":"長岩屋","zip_code":"8790731"},{"name":"中真玉","zip_code":"8721101"},{"name":"西真玉","zip_code":"8721105"},{"name":"浜町","zip_code":"8790619"},{"name":"羽根","zip_code":"8721206"},{"name":"払田","zip_code":"8790602"},{"name":"本町","zip_code":"8790624"},{"name":"松行","zip_code":"8790735"},{"name":"水崎","zip_code":"8790616"},{"name":"水取","zip_code":"8790625"},{"name":"見目","zip_code":"8721207"},{"name":"美和","zip_code":"8790604"},{"name":"森","zip_code":"8790611"}]},{"name":"杵築市","divisions":[{"name":"相原","zip_code":"8730011"},{"name":"猪尾","zip_code":"8730005"},{"name":"岩谷","zip_code":"8730021"},{"name":"大内","zip_code":"8730006"},{"name":"大片平","zip_code":"8730022"},{"name":"大田石丸","zip_code":"8790901"},{"name":"大田小野","zip_code":"8790904"},{"name":"大田沓掛","zip_code":"8790902"},{"name":"大田白木原","zip_code":"8790912"},{"name":"大田永松","zip_code":"8790903"},{"name":"大田波多方","zip_code":"8790911"},{"name":"大田俣水","zip_code":"8730041"},{"name":"片野","zip_code":"8730007"},{"name":"鴨川","zip_code":"8730023"},{"name":"狩宿","zip_code":"8730031"},{"name":"杵築","zip_code":"8730001"},{"name":"熊野","zip_code":"8730008"},{"name":"中","zip_code":"8730012"},{"name":"奈多","zip_code":"8730032"},{"name":"馬場尾","zip_code":"8730003"},{"name":"日野","zip_code":"8730013"},{"name":"船部","zip_code":"8730024"},{"name":"本庄","zip_code":"8730014"},{"name":"溝井","zip_code":"8730025"},{"name":"南杵築","zip_code":"8730002"},{"name":"宮司","zip_code":"8730004"},{"name":"守江","zip_code":"8730033"},{"name":"八坂","zip_code":"8730015"},{"name":"山香町内河野","zip_code":"8791311"},{"name":"山香町小武","zip_code":"8791304"},{"name":"山香町久木野尾","zip_code":"8791313"},{"name":"山香町倉成","zip_code":"8791305"},{"name":"山香町下","zip_code":"8791303"},{"name":"山香町立石","zip_code":"8791302"},{"name":"山香町野原","zip_code":"8791307"},{"name":"山香町日指","zip_code":"8791312"},{"name":"山香町広瀬","zip_code":"8791306"},{"name":"山香町南畑","zip_code":"8791314"},{"name":"山香町向野","zip_code":"8791301"},{"name":"山香町山浦","zip_code":"8791315"},{"name":"山香町吉野渡","zip_code":"8791316"},{"name":"横城","zip_code":"8730034"}]},{"name":"宇佐市","divisions":[{"name":"青森","zip_code":"8791138"},{"name":"赤尾","zip_code":"8790233"},{"name":"安心院町板場","zip_code":"8720732"},{"name":"安心院町今井","zip_code":"8720518"},{"name":"安心院町筌ノ口","zip_code":"8720843"},{"name":"安心院町内川野","zip_code":"8720654"},{"name":"安心院町有徳原","zip_code":"8720510"},{"name":"安心院町大見尾","zip_code":"8720663"},{"name":"安心院町折敷田","zip_code":"8720522"},{"name":"安心院町尾立","zip_code":"8720703"},{"name":"安心院町且尾","zip_code":"8720671"},{"name":"安心院町上市","zip_code":"8720511"},{"name":"安心院町上内河野","zip_code":"8720852"},{"name":"安心院町萱籠","zip_code":"8720723"},{"name":"安心院町川崎","zip_code":"8720731"},{"name":"安心院町川底","zip_code":"8720862"},{"name":"安心院町木裳","zip_code":"8720507"},{"name":"安心院町久井田","zip_code":"8720674"},{"name":"安心院町口ノ坪","zip_code":"8720673"},{"name":"安心院町熊","zip_code":"8720541"},{"name":"安心院町五郎丸","zip_code":"8720712"},{"name":"安心院町境ノ坪","zip_code":"8720861"},{"name":"安心院町笹ケ平","zip_code":"8720661"},{"name":"安心院町佐田","zip_code":"8720651"},{"name":"安心院町下内河野","zip_code":"8720842"},{"name":"安心院町下毛","zip_code":"8720521"},{"name":"安心院町荘","zip_code":"8720504"},{"name":"安心院町正覚寺","zip_code":"8720542"},{"name":"安心院町新貝","zip_code":"8720873"},{"name":"安心院町寒水","zip_code":"8720854"},{"name":"安心院町村部","zip_code":"8720863"},{"name":"安心院町大","zip_code":"8720517"},{"name":"安心院町大佛","zip_code":"8720523"},{"name":"安心院町畳石","zip_code":"8720857"},{"name":"安心院町田ノ口","zip_code":"8720526"},{"name":"安心院町辻","zip_code":"8720527"},{"name":"安心院町恒松","zip_code":"8720524"},{"name":"安心院町妻垣","zip_code":"8720506"},{"name":"安心院町塔尾","zip_code":"8720664"},{"name":"安心院町戸方","zip_code":"8720505"},{"name":"安心院町鳥越","zip_code":"8720514"},{"name":"安心院町中山","zip_code":"8720525"},{"name":"安心院町楢本","zip_code":"8720701"},{"name":"安心院町新原","zip_code":"8720503"},{"name":"安心院町西衲","zip_code":"8720519"},{"name":"安心院町野山","zip_code":"8720515"},{"name":"安心院町原","zip_code":"8720501"},{"name":"安心院町番木","zip_code":"8720864"},{"name":"安心院町飯田","zip_code":"8720502"},{"name":"安心院町東恵良","zip_code":"8720702"},{"name":"安心院町東椎屋","zip_code":"8720724"},{"name":"安心院町平ケ倉","zip_code":"8720543"},{"name":"安心院町平山","zip_code":"8720871"},{"name":"安心院町広谷","zip_code":"8720672"},{"name":"安心院町広連","zip_code":"8720851"},{"name":"安心院町福貴野","zip_code":"8720855"},{"name":"安心院町舟板","zip_code":"8720872"},{"name":"安心院町古市","zip_code":"8720512"},{"name":"安心院町古川","zip_code":"8720655"},{"name":"安心院町房ケ畑","zip_code":"8720653"},{"name":"安心院町佛木","zip_code":"8720865"},{"name":"安心院町松本","zip_code":"8720733"},{"name":"安心院町水車","zip_code":"8720858"},{"name":"安心院町南畑","zip_code":"8720722"},{"name":"安心院町元","zip_code":"8720853"},{"name":"安心院町森","zip_code":"8720516"},{"name":"安心院町矢崎","zip_code":"8720675"},{"name":"安心院町矢津","zip_code":"8720662"},{"name":"安心院町矢畑","zip_code":"8720841"},{"name":"安心院町山蔵","zip_code":"8720652"},{"name":"安心院町山ノ口","zip_code":"8720856"},{"name":"安心院町龍王","zip_code":"8720513"},{"name":"安心院町六郎丸","zip_code":"8720711"},{"name":"安心院町若林","zip_code":"8720721"},{"name":"麻生","zip_code":"8790501"},{"name":"荒木","zip_code":"8790312"},{"name":"石田","zip_code":"8790444"},{"name":"出光","zip_code":"8791131"},{"name":"今成","zip_code":"8790514"},{"name":"今仁","zip_code":"8790234"},{"name":"岩崎","zip_code":"8791132"},{"name":"岩保新田","zip_code":"8720011"},{"name":"院内町大重見","zip_code":"8720323"},{"name":"院内町大副","zip_code":"8720331"},{"name":"院内町大坪","zip_code":"8720458"},{"name":"院内町岡","zip_code":"8720457"},{"name":"院内町沖","zip_code":"8720314"},{"name":"院内町荻迫","zip_code":"8720482"},{"name":"院内町小坂","zip_code":"8720316"},{"name":"院内町落狩倉","zip_code":"8720334"},{"name":"院内町小野川内","zip_code":"8720324"},{"name":"院内町景平","zip_code":"8720342"},{"name":"院内町上余","zip_code":"8720459"},{"name":"院内町上恵良","zip_code":"8720484"},{"name":"院内町上納持","zip_code":"8720452"},{"name":"院内町上船木","zip_code":"8720326"},{"name":"院内町北山","zip_code":"8720315"},{"name":"院内町櫛野","zip_code":"8720312"},{"name":"院内町来鉢","zip_code":"8720466"},{"name":"院内町栗山","zip_code":"8720456"},{"name":"院内町小稲","zip_code":"8720325"},{"name":"院内町香下","zip_code":"8720311"},{"name":"院内町小平","zip_code":"8720455"},{"name":"院内町五名","zip_code":"8720321"},{"name":"院内町斎藤","zip_code":"8720341"},{"name":"院内町下余","zip_code":"8720451"},{"name":"院内町下恵良","zip_code":"8720481"},{"name":"院内町下船木","zip_code":"8720327"},{"name":"院内町定別当","zip_code":"8720346"},{"name":"院内町新洞","zip_code":"8720313"},{"name":"院内町副","zip_code":"8720318"},{"name":"院内町台","zip_code":"8720461"},{"name":"院内町大門","zip_code":"8720344"},{"name":"院内町高並","zip_code":"8720328"},{"name":"院内町滝貞","zip_code":"8720454"},{"name":"院内町田所","zip_code":"8720473"},{"name":"院内町田平","zip_code":"8720465"},{"name":"院内町月俣","zip_code":"8720345"},{"name":"院内町土岩屋","zip_code":"8720483"},{"name":"院内町西椎屋","zip_code":"8720464"},{"name":"院内町温見","zip_code":"8720471"},{"name":"院内町野地","zip_code":"8720472"},{"name":"院内町羽馬礼","zip_code":"8720462"},{"name":"院内町原口","zip_code":"8720333"},{"name":"院内町日岳","zip_code":"8720322"},{"name":"院内町平原","zip_code":"8720453"},{"name":"院内町広瀬","zip_code":"8720317"},{"name":"院内町二日市","zip_code":"8720302"},{"name":"院内町御沓","zip_code":"8720301"},{"name":"院内町宮原","zip_code":"8720343"},{"name":"院内町山城","zip_code":"8720332"},{"name":"院内町和田","zip_code":"8720463"},{"name":"上田","zip_code":"8790453"},{"name":"江熊","zip_code":"8791126"},{"name":"江須賀","zip_code":"8720032"},{"name":"大塚","zip_code":"8790464"},{"name":"大根川","zip_code":"8790232"},{"name":"沖須町","zip_code":"8720031"},{"name":"乙女新田","zip_code":"8790301"},{"name":"尾永井","zip_code":"8790304"},{"name":"金丸","zip_code":"8791128"},{"name":"金屋","zip_code":"8720021"},{"name":"上乙女","zip_code":"8790303"},{"name":"上敷田","zip_code":"8790163"},{"name":"上庄","zip_code":"8790153"},{"name":"上高","zip_code":"8790313"},{"name":"上高家","zip_code":"8790305"},{"name":"上時枝","zip_code":"8790315"},{"name":"上拝田","zip_code":"8720366"},{"name":"上元重","zip_code":"8790472"},{"name":"上矢部","zip_code":"8720112"},{"name":"辛島","zip_code":"8790456"},{"name":"苅宇田","zip_code":"8791137"},{"name":"川部","zip_code":"8790452"},{"name":"北宇佐","zip_code":"8720103"},{"name":"北鶴田新田","zip_code":"8720013"},{"name":"木内","zip_code":"8790516"},{"name":"貴船町","zip_code":"8720042"},{"name":"木部","zip_code":"8790235"},{"name":"久兵衛新田","zip_code":"8720012"},{"name":"葛原","zip_code":"8790443"},{"name":"熊","zip_code":"8720114"},{"name":"黒","zip_code":"8790512"},{"name":"郡中新田","zip_code":"8720045"},{"name":"閤","zip_code":"8790455"},{"name":"小向野","zip_code":"8720104"},{"name":"子安町","zip_code":"8720043"},{"name":"西木","zip_code":"8791136"},{"name":"佐々礼","zip_code":"8720016"},{"name":"佐野","zip_code":"8790237"},{"name":"猿渡","zip_code":"8790314"},{"name":"芝原","zip_code":"8790457"},{"name":"清水","zip_code":"8790236"},{"name":"下乙女","zip_code":"8790302"},{"name":"下敷田","zip_code":"8790161"},{"name":"下庄","zip_code":"8790152"},{"name":"下高","zip_code":"8790317"},{"name":"下高家","zip_code":"8790308"},{"name":"下時枝","zip_code":"8790316"},{"name":"下拝田","zip_code":"8790465"},{"name":"下元重","zip_code":"8790473"},{"name":"下矢部","zip_code":"8720111"},{"name":"順風新田","zip_code":"8720047"},{"name":"城井","zip_code":"8790442"},{"name":"正覚寺","zip_code":"8720113"},{"name":"末","zip_code":"8790515"},{"name":"住江","zip_code":"8720044"},{"name":"住吉町","zip_code":"8720033"},{"name":"高砂新田","zip_code":"8720046"},{"name":"高森","zip_code":"8720101"},{"name":"岳ノ首","zip_code":"8790502"},{"name":"立石","zip_code":"8791123"},{"name":"富山","zip_code":"8790164"},{"name":"中","zip_code":"8790513"},{"name":"中敷田","zip_code":"8790162"},{"name":"中原","zip_code":"8790463"},{"name":"長洲","zip_code":"8720001"},{"name":"灘","zip_code":"8790503"},{"name":"西大堀","zip_code":"8720022"},{"name":"西高家","zip_code":"8790306"},{"name":"西屋敷","zip_code":"8791127"},{"name":"蜷木","zip_code":"8720023"},{"name":"橋津","zip_code":"8791134"},{"name":"畑田","zip_code":"8790451"},{"name":"浜高家","zip_code":"8790307"},{"name":"日足","zip_code":"8791133"},{"name":"東大堀","zip_code":"8791121"},{"name":"東高家","zip_code":"8790309"},{"name":"樋田","zip_code":"8790461"},{"name":"別府","zip_code":"8790462"},{"name":"法鏡寺","zip_code":"8790454"},{"name":"松崎","zip_code":"8720015"},{"name":"神子山新田","zip_code":"8720041"},{"name":"南宇佐","zip_code":"8720102"},{"name":"南敷田","zip_code":"8790231"},{"name":"南鶴田新田","zip_code":"8720014"},{"name":"宮熊","zip_code":"8790151"},{"name":"森山","zip_code":"8790311"},{"name":"山","zip_code":"8791124"},{"name":"山口","zip_code":"8790504"},{"name":"山下","zip_code":"8790474"},{"name":"山袋","zip_code":"8790511"},{"name":"山本","zip_code":"8790467"},{"name":"横田","zip_code":"8791122"},{"name":"吉松","zip_code":"8790441"},{"name":"四日市","zip_code":"8790471"},{"name":"両戒","zip_code":"8791125"},{"name":"和気","zip_code":"8791135"}]},{"name":"豊後大野市","divisions":[{"name":"朝地町朝地","zip_code":"8796222"},{"name":"朝地町池田","zip_code":"8796224"},{"name":"朝地町板井迫","zip_code":"8796223"},{"name":"朝地町市万田","zip_code":"8796201"},{"name":"朝地町上尾塚","zip_code":"8796213"},{"name":"朝地町栗林","zip_code":"8796333"},{"name":"朝地町志賀","zip_code":"8796212"},{"name":"朝地町下野","zip_code":"8796202"},{"name":"朝地町坪泉","zip_code":"8796221"},{"name":"朝地町鳥田","zip_code":"8796331"},{"name":"朝地町梨小","zip_code":"8796334"},{"name":"朝地町宮生","zip_code":"8796211"},{"name":"朝地町綿田","zip_code":"8796332"},{"name":"犬飼町犬飼","zip_code":"8797301"},{"name":"犬飼町大寒","zip_code":"8797304"},{"name":"犬飼町久原","zip_code":"8797302"},{"name":"犬飼町栗ケ畑","zip_code":"8797314"},{"name":"犬飼町黒松","zip_code":"8797313"},{"name":"犬飼町高津原","zip_code":"8797312"},{"name":"犬飼町西寒田","zip_code":"8797307"},{"name":"犬飼町柴北","zip_code":"8797311"},{"name":"犬飼町下津尾","zip_code":"8797306"},{"name":"犬飼町田原","zip_code":"8797305"},{"name":"犬飼町長畑","zip_code":"8797316"},{"name":"犬飼町山内","zip_code":"8797315"},{"name":"犬飼町柚野木","zip_code":"8797303"},{"name":"大野町安藤","zip_code":"8796401"},{"name":"大野町後田","zip_code":"8796404"},{"name":"大野町大原","zip_code":"8796433"},{"name":"大野町片島","zip_code":"8796445"},{"name":"大野町北園","zip_code":"8796435"},{"name":"大野町桑原","zip_code":"8796434"},{"name":"大野町郡山","zip_code":"8796426"},{"name":"大野町小倉木","zip_code":"8796422"},{"name":"大野町酒井寺","zip_code":"8796431"},{"name":"大野町沢田","zip_code":"8796408"},{"name":"大野町杉園","zip_code":"8796406"},{"name":"大野町代三五","zip_code":"8796405"},{"name":"大野町田代","zip_code":"8796444"},{"name":"大野町田中","zip_code":"8796441"},{"name":"大野町十時","zip_code":"8796407"},{"name":"大野町中土師","zip_code":"8796402"},{"name":"大野町長畑","zip_code":"8796403"},{"name":"大野町中原","zip_code":"8796421"},{"name":"大野町夏足","zip_code":"8796424"},{"name":"大野町藤北","zip_code":"8796442"},{"name":"大野町宮迫","zip_code":"8796443"},{"name":"大野町矢田","zip_code":"8796423"},{"name":"大野町屋原","zip_code":"8796432"},{"name":"大野町両家","zip_code":"8796425"},{"name":"緒方町井上","zip_code":"8796613"},{"name":"緒方町上畑","zip_code":"8796864"},{"name":"緒方町小宛","zip_code":"8796633"},{"name":"緒方町大石","zip_code":"8796759"},{"name":"緒方町小原","zip_code":"8796861"},{"name":"緒方町尾平鉱山","zip_code":"8796865"},{"name":"緒方町上犬塚","zip_code":"8796625"},{"name":"緒方町上自在","zip_code":"8796642"},{"name":"緒方町上年野","zip_code":"8796751"},{"name":"緒方町上冬原","zip_code":"8796755"},{"name":"緒方町木野","zip_code":"8796757"},{"name":"緒方町草深野","zip_code":"8796641"},{"name":"緒方町久土知","zip_code":"8796616"},{"name":"緒方町栗生","zip_code":"8796862"},{"name":"緒方町越生","zip_code":"8796612"},{"name":"緒方町志賀","zip_code":"8796602"},{"name":"緒方町軸丸","zip_code":"8796635"},{"name":"緒方町下自在","zip_code":"8796643"},{"name":"緒方町下徳田","zip_code":"8796753"},{"name":"緒方町大化","zip_code":"8796626"},{"name":"緒方町滞迫","zip_code":"8796863"},{"name":"緒方町知田","zip_code":"8796614"},{"name":"緒方町辻","zip_code":"8796632"},{"name":"緒方町寺原","zip_code":"8796634"},{"name":"緒方町天神","zip_code":"8796622"},{"name":"緒方町徳田","zip_code":"8796756"},{"name":"緒方町中野","zip_code":"8796758"},{"name":"緒方町夏足","zip_code":"8796611"},{"name":"緒方町野尻","zip_code":"8796621"},{"name":"緒方町馬場","zip_code":"8796601"},{"name":"緒方町原尻","zip_code":"8796631"},{"name":"緒方町平石","zip_code":"8796624"},{"name":"緒方町鮒川","zip_code":"8796615"},{"name":"緒方町冬原","zip_code":"8796754"},{"name":"緒方町馬背畑","zip_code":"8796623"},{"name":"緒方町柚木","zip_code":"8796752"},{"name":"清川町雨堤","zip_code":"8796902"},{"name":"清川町臼尾","zip_code":"8796901"},{"name":"清川町宇田枝","zip_code":"8796911"},{"name":"清川町大白谷","zip_code":"8796922"},{"name":"清川町砂田","zip_code":"8796903"},{"name":"清川町左右知","zip_code":"8796914"},{"name":"清川町天神","zip_code":"8796904"},{"name":"清川町平石","zip_code":"8796913"},{"name":"清川町伏野","zip_code":"8796921"},{"name":"清川町三玉","zip_code":"8796905"},{"name":"清川町六種","zip_code":"8796912"},{"name":"千歳町石田","zip_code":"8797403"},{"name":"千歳町柴山","zip_code":"8797411"},{"name":"千歳町下山","zip_code":"8797413"},{"name":"千歳町高畑","zip_code":"8797412"},{"name":"千歳町長峰","zip_code":"8797404"},{"name":"千歳町新殿","zip_code":"8797401"},{"name":"千歳町船田","zip_code":"8797402"},{"name":"千歳町前田","zip_code":"8797414"},{"name":"三重町赤嶺","zip_code":"8797111"},{"name":"三重町秋葉","zip_code":"8797141"},{"name":"三重町浅瀬","zip_code":"8797108"},{"name":"三重町芦刈","zip_code":"8797105"},{"name":"三重町井迫","zip_code":"8797106"},{"name":"三重町市場","zip_code":"8797131"},{"name":"三重町内田","zip_code":"8797125"},{"name":"三重町内山","zip_code":"8797124"},{"name":"三重町大白谷","zip_code":"8797264"},{"name":"三重町奥畑","zip_code":"8797262"},{"name":"三重町小坂","zip_code":"8797104"},{"name":"三重町小田","zip_code":"8797142"},{"name":"三重町上田原","zip_code":"8797107"},{"name":"三重町川辺","zip_code":"8797154"},{"name":"三重町菅生","zip_code":"8797102"},{"name":"三重町玉田","zip_code":"8797153"},{"name":"三重町中津留","zip_code":"8797263"},{"name":"三重町西泉","zip_code":"8797151"},{"name":"三重町西畑","zip_code":"8797103"},{"name":"三重町久田","zip_code":"8797143"},{"name":"三重町伏野","zip_code":"8797261"},{"name":"三重町本城","zip_code":"8797144"},{"name":"三重町松尾","zip_code":"8797123"},{"name":"三重町宮野","zip_code":"8797101"},{"name":"三重町向野","zip_code":"8797155"},{"name":"三重町百枝","zip_code":"8797152"},{"name":"三重町山部","zip_code":"8797121"},{"name":"三重町鷲谷","zip_code":"8797122"}]},{"name":"由布市","divisions":[{"name":"庄内町阿蘇野","zip_code":"8795423"},{"name":"庄内町櫟木","zip_code":"8795404"},{"name":"庄内町大龍","zip_code":"8795413"},{"name":"庄内町小挾間","zip_code":"8795402"},{"name":"庄内町柿原","zip_code":"8795421"},{"name":"庄内町北大津留","zip_code":"8795401"},{"name":"庄内町五ケ瀬","zip_code":"8795412"},{"name":"庄内町庄内原","zip_code":"8795434"},{"name":"庄内町高岡","zip_code":"8795433"},{"name":"庄内町龍原","zip_code":"8795411"},{"name":"庄内町直野内山","zip_code":"8795424"},{"name":"庄内町中","zip_code":"8795435"},{"name":"庄内町長野","zip_code":"8795431"},{"name":"庄内町西","zip_code":"8795436"},{"name":"庄内町西大津留","zip_code":"8795408"},{"name":"庄内町西長宝","zip_code":"8795406"},{"name":"庄内町野畑","zip_code":"8795422"},{"name":"庄内町畑田","zip_code":"8795432"},{"name":"庄内町東大津留","zip_code":"8795403"},{"name":"庄内町東長宝","zip_code":"8795405"},{"name":"庄内町平石","zip_code":"8795437"},{"name":"庄内町渕","zip_code":"8795425"},{"name":"庄内町南大津留","zip_code":"8795407"},{"name":"挾間町赤野","zip_code":"8795516"},{"name":"挾間町医大ケ丘","zip_code":"8795503"},{"name":"挾間町内成","zip_code":"8795517"},{"name":"挾間町鬼瀬","zip_code":"8795521"},{"name":"挾間町鬼崎","zip_code":"8795501"},{"name":"挾間町小野","zip_code":"8795522"},{"name":"挾間町北方","zip_code":"8795518"},{"name":"挾間町来鉢","zip_code":"8795512"},{"name":"挾間町篠原","zip_code":"8795523"},{"name":"挾間町下市","zip_code":"8795504"},{"name":"挾間町高崎","zip_code":"8795513"},{"name":"挾間町田代","zip_code":"8795519"},{"name":"挾間町谷","zip_code":"8795531"},{"name":"挾間町筒口","zip_code":"8795532"},{"name":"挾間町東院","zip_code":"8795510"},{"name":"挾間町時松","zip_code":"8795524"},{"name":"挾間町七蔵司","zip_code":"8795514"},{"name":"挾間町挾間","zip_code":"8795506"},{"name":"挾間町古野","zip_code":"8795511"},{"name":"挾間町朴木","zip_code":"8795525"},{"name":"挾間町三船","zip_code":"8795515"},{"name":"挾間町向原","zip_code":"8795502"},{"name":"湯布院町川上","zip_code":"8795102"},{"name":"湯布院町川北","zip_code":"8795114"},{"name":"湯布院町川西","zip_code":"8795113"},{"name":"湯布院町川南","zip_code":"8795103"},{"name":"湯布院町下湯平","zip_code":"8795111"},{"name":"湯布院町塚原","zip_code":"8795101"},{"name":"湯布院町中川","zip_code":"8795104"},{"name":"湯布院町湯平","zip_code":"8795112"}]},{"name":"国東市","divisions":[{"name":"安岐町朝来","zip_code":"8730351"},{"name":"安岐町糸永","zip_code":"8730354"},{"name":"安岐町大添","zip_code":"8730223"},{"name":"安岐町掛樋","zip_code":"8730205"},{"name":"安岐町向陽台","zip_code":"8730232"},{"name":"安岐町塩屋","zip_code":"8730212"},{"name":"安岐町下原","zip_code":"8730231"},{"name":"安岐町下山口","zip_code":"8730222"},{"name":"安岐町瀬戸田","zip_code":"8730202"},{"name":"安岐町富清","zip_code":"8730355"},{"name":"安岐町中園","zip_code":"8730203"},{"name":"安岐町成久","zip_code":"8730204"},{"name":"安岐町西本","zip_code":"8730221"},{"name":"安岐町馬場","zip_code":"8730211"},{"name":"安岐町両子","zip_code":"8730356"},{"name":"安岐町明治","zip_code":"8730352"},{"name":"安岐町矢川","zip_code":"8730053"},{"name":"安岐町山浦","zip_code":"8730206"},{"name":"安岐町山口","zip_code":"8730224"},{"name":"安岐町油留木","zip_code":"8730207"},{"name":"安岐町吉松","zip_code":"8730201"},{"name":"国東町赤松","zip_code":"8730523"},{"name":"国東町安国寺","zip_code":"8730504"},{"name":"国東町岩戸寺","zip_code":"8721653"},{"name":"国東町岩屋","zip_code":"8730522"},{"name":"国東町小原","zip_code":"8730511"},{"name":"国東町川原","zip_code":"8730531"},{"name":"国東町北江","zip_code":"8730501"},{"name":"国東町来浦","zip_code":"8721652"},{"name":"国東町見地","zip_code":"8730533"},{"name":"国東町重藤","zip_code":"8730514"},{"name":"国東町下成仏","zip_code":"8730534"},{"name":"国東町成仏","zip_code":"8730535"},{"name":"国東町治郎丸","zip_code":"8730512"},{"name":"国東町大恩寺","zip_code":"8730646"},{"name":"国東町田深","zip_code":"8730502"},{"name":"国東町綱井","zip_code":"8730513"},{"name":"国東町鶴川","zip_code":"8730503"},{"name":"国東町富来","zip_code":"8730645"},{"name":"国東町富来浦","zip_code":"8730643"},{"name":"国東町中田","zip_code":"8730532"},{"name":"国東町浜","zip_code":"8721651"},{"name":"国東町浜崎","zip_code":"8730644"},{"name":"国東町原","zip_code":"8730521"},{"name":"国東町東堅来","zip_code":"8730642"},{"name":"国東町深江","zip_code":"8730641"},{"name":"国東町横手","zip_code":"8730524"},{"name":"国見町赤根","zip_code":"8721405"},{"name":"国見町伊美","zip_code":"8721401"},{"name":"国見町大熊毛","zip_code":"8721612"},{"name":"国見町鬼籠","zip_code":"8721323"},{"name":"国見町岐部","zip_code":"8721614"},{"name":"国見町櫛来","zip_code":"8721406"},{"name":"国見町櫛海","zip_code":"8721324"},{"name":"国見町小熊毛","zip_code":"8721613"},{"name":"国見町西方寺","zip_code":"8721322"},{"name":"国見町千燈","zip_code":"8721404"},{"name":"国見町竹田津","zip_code":"8721321"},{"name":"国見町中","zip_code":"8721402"},{"name":"国見町野田","zip_code":"8721403"},{"name":"国見町向田","zip_code":"8721611"},{"name":"武蔵町麻田","zip_code":"8730405"},{"name":"武蔵町池ノ内","zip_code":"8730401"},{"name":"武蔵町糸原","zip_code":"8730421"},{"name":"武蔵町内田","zip_code":"8730402"},{"name":"武蔵町小城","zip_code":"8730422"},{"name":"武蔵町向陽台","zip_code":"8730432"},{"name":"武蔵町志和利","zip_code":"8730424"},{"name":"武蔵町手野","zip_code":"8730414"},{"name":"武蔵町成吉","zip_code":"8730404"},{"name":"武蔵町狭間","zip_code":"8730407"},{"name":"武蔵町古市","zip_code":"8730412"},{"name":"武蔵町丸小野","zip_code":"8730406"},{"name":"武蔵町三井寺","zip_code":"8730423"},{"name":"武蔵町吉広","zip_code":"8730415"}]},{"name":"東国東郡姫島村","divisions":[]},{"name":"速見郡日出町","divisions":[{"name":"大神","zip_code":"8791504"},{"name":"川崎","zip_code":"8791505"},{"name":"豊岡","zip_code":"8791507"},{"name":"平道","zip_code":"8791508"},{"name":"広瀬","zip_code":"8791501"},{"name":"藤原","zip_code":"8791502"},{"name":"真那井","zip_code":"8791503"},{"name":"南畑","zip_code":"8791509"}]},{"name":"玖珠郡九重町","divisions":[{"name":"粟野","zip_code":"8794721"},{"name":"後野上","zip_code":"8794803"},{"name":"恵良","zip_code":"8794631"},{"name":"菅原","zip_code":"8794724"},{"name":"田野","zip_code":"8794911"},{"name":"野上","zip_code":"8794802"},{"name":"引治","zip_code":"8794722"},{"name":"町田","zip_code":"8794723"},{"name":"松木","zip_code":"8794632"},{"name":"右田","zip_code":"8794801"},{"name":"湯坪","zip_code":"8794912"}]},{"name":"玖珠郡玖珠町","divisions":[{"name":"綾垣","zip_code":"8794402"},{"name":"岩室","zip_code":"8794405"},{"name":"大隈","zip_code":"8794414"},{"name":"太田","zip_code":"8794521"},{"name":"小田","zip_code":"8794411"},{"name":"古後","zip_code":"8794523"},{"name":"塚脇","zip_code":"8794413"},{"name":"戸畑","zip_code":"8794331"},{"name":"日出生","zip_code":"8794406"},{"name":"帆足","zip_code":"8794403"},{"name":"森","zip_code":"8794404"},{"name":"山浦","zip_code":"8794332"},{"name":"山下","zip_code":"8794522"},{"name":"山田","zip_code":"8794412"},{"name":"四日市","zip_code":"8794401"}]}]}