{"name":"宮崎県","cities":[{"name":"宮崎市","divisions":[{"name":"青島","zip_code":"8892162"},{"name":"青島西","zip_code":"8892163"},{"name":"青葉町","zip_code":"8800842"},{"name":"赤江","zip_code":"8800912"},{"name":"旭","zip_code":"8800803"},{"name":"吾妻町","zip_code":"8800864"},{"name":"跡江","zip_code":"8802101"},{"name":"有田","zip_code":"8802102"},{"name":"阿波岐原町","zip_code":"8800835"},{"name":"生目","zip_code":"8802103"},{"name":"生目台東","zip_code":"8800942"},{"name":"生目台西","zip_code":"8800943"},{"name":"池内町","zip_code":"8800041"},{"name":"一の宮町","zip_code":"8800854"},{"name":"糸原","zip_code":"8802231"},{"name":"浮田","zip_code":"8802104"},{"name":"浮城町","zip_code":"8800821"},{"name":"内海","zip_code":"8892301"},{"name":"瓜生野","zip_code":"8800344"},{"name":"永楽町","zip_code":"8800872"},{"name":"江平中町","zip_code":"8800814"},{"name":"江平東町","zip_code":"8800817"},{"name":"江平東","zip_code":"8800816"},{"name":"江平西","zip_code":"8800051"},{"name":"江平町","zip_code":"8800815"},{"name":"老松","zip_code":"8800801"},{"name":"大島町","zip_code":"8800824"},{"name":"大瀬町","zip_code":"8800345"},{"name":"太田","zip_code":"8800903"},{"name":"大塚台東","zip_code":"8800952"},{"name":"大塚台西","zip_code":"8802105"},{"name":"大塚町","zip_code":"8800951"},{"name":"大坪町","zip_code":"8800933"},{"name":"大坪東","zip_code":"8800934"},{"name":"大坪西","zip_code":"8800932"},{"name":"大橋","zip_code":"8800022"},{"name":"大淀","zip_code":"8800902"},{"name":"小戸町","zip_code":"8800857"},{"name":"折生迫","zip_code":"8892164"},{"name":"加江田","zip_code":"8892161"},{"name":"薫る坂","zip_code":"8800947"},{"name":"鏡洲","zip_code":"8892156"},{"name":"学園木花台桜","zip_code":"8892154"},{"name":"学園木花台西","zip_code":"8892155"},{"name":"学園木花台南","zip_code":"8892153"},{"name":"学園木花台北","zip_code":"8892152"},{"name":"柏原","zip_code":"8802111"},{"name":"金崎","zip_code":"8802234"},{"name":"上北方","zip_code":"8800043"},{"name":"上野町","zip_code":"8800011"},{"name":"川原町","zip_code":"8800866"},{"name":"祗園","zip_code":"8800024"},{"name":"北川内町","zip_code":"8800941"},{"name":"北権現町","zip_code":"8800823"},{"name":"北高松町","zip_code":"8800017"},{"name":"希望ケ丘","zip_code":"8800923"},{"name":"京塚","zip_code":"8800937"},{"name":"京塚町","zip_code":"8800938"},{"name":"清武町あさひ","zip_code":"8891609"},{"name":"清武町池田台","zip_code":"8891606"},{"name":"清武町池田台北","zip_code":"8891608"},{"name":"清武町今泉","zip_code":"8891602"},{"name":"清武町岡","zip_code":"8891612"},{"name":"清武町加納","zip_code":"8891607"},{"name":"清武町木原","zip_code":"8891601"},{"name":"清武町正手","zip_code":"8891603"},{"name":"清武町新町","zip_code":"8891611"},{"name":"清武町西新町","zip_code":"8891613"},{"name":"清武町船引","zip_code":"8891604"},{"name":"霧島","zip_code":"8800032"},{"name":"郡司分","zip_code":"8800924"},{"name":"熊野","zip_code":"8892151"},{"name":"源藤町","zip_code":"8800927"},{"name":"江南","zip_code":"8800944"},{"name":"小松","zip_code":"8802112"},{"name":"小松台北町","zip_code":"8802113"},{"name":"小松台西","zip_code":"8800954"},{"name":"小松台東","zip_code":"8800953"},{"name":"小松台南町","zip_code":"8800956"},{"name":"権現町","zip_code":"8800822"},{"name":"桜ケ丘町","zip_code":"8800955"},{"name":"桜町","zip_code":"8800057"},{"name":"佐土原町石崎","zip_code":"8800213"},{"name":"佐土原町上田島","zip_code":"8800301"},{"name":"佐土原町下田島","zip_code":"8800211"},{"name":"佐土原町下富田","zip_code":"8800204"},{"name":"佐土原町下那珂","zip_code":"8800212"},{"name":"佐土原町西上那珂","zip_code":"8800302"},{"name":"佐土原町東上那珂","zip_code":"8800303"},{"name":"佐土原町松小路","zip_code":"8800214"},{"name":"塩路","zip_code":"8800122"},{"name":"潮見町","zip_code":"8800862"},{"name":"島之内","zip_code":"8800121"},{"name":"清水","zip_code":"8800021"},{"name":"下北方町","zip_code":"8800035"},{"name":"下原町","zip_code":"8800843"},{"name":"昭栄町","zip_code":"8800833"},{"name":"城ケ崎","zip_code":"8800917"},{"name":"浄土江町","zip_code":"8800876"},{"name":"昭和町","zip_code":"8800874"},{"name":"新栄町","zip_code":"8800831"},{"name":"神宮","zip_code":"8800053"},{"name":"神宮西","zip_code":"8800033"},{"name":"神宮東","zip_code":"8800056"},{"name":"神宮町","zip_code":"8800054"},{"name":"新城町","zip_code":"8800845"},{"name":"新別府町","zip_code":"8800834"},{"name":"末広","zip_code":"8800012"},{"name":"瀬頭","zip_code":"8800867"},{"name":"瀬頭町","zip_code":"8800868"},{"name":"曽師町","zip_code":"8800875"},{"name":"大王町","zip_code":"8800871"},{"name":"大工","zip_code":"8800015"},{"name":"高岡町飯田","zip_code":"8802224"},{"name":"高岡町内山","zip_code":"8802221"},{"name":"高岡町浦之名","zip_code":"8802223"},{"name":"高岡町小山田","zip_code":"8802214"},{"name":"高岡町上倉永","zip_code":"8891713"},{"name":"高岡町紙屋","zip_code":"8802325"},{"name":"高岡町五町","zip_code":"8802222"},{"name":"高岡町下倉永","zip_code":"8802212"},{"name":"高岡町高浜","zip_code":"8802215"},{"name":"高岡町花見","zip_code":"8802211"},{"name":"高洲町","zip_code":"8800852"},{"name":"高千穂通","zip_code":"8800812"},{"name":"高松町","zip_code":"8800003"},{"name":"田代町","zip_code":"8800855"},{"name":"橘通西","zip_code":"8800001"},{"name":"橘通東","zip_code":"8800805"},{"name":"谷川","zip_code":"8800908"},{"name":"谷川町","zip_code":"8800909"},{"name":"田野町あけぼの","zip_code":"8891703"},{"name":"田野町乙","zip_code":"8891702"},{"name":"田野町甲","zip_code":"8891701"},{"name":"田吉","zip_code":"8800911"},{"name":"千草町","zip_code":"8800006"},{"name":"中央通","zip_code":"8800002"},{"name":"月見ケ丘","zip_code":"8800926"},{"name":"堤内","zip_code":"8802232"},{"name":"恒久","zip_code":"8800913"},{"name":"恒久南","zip_code":"8800915"},{"name":"鶴島","zip_code":"8800014"},{"name":"出来島町","zip_code":"8800861"},{"name":"天満","zip_code":"8800936"},{"name":"天満町","zip_code":"8800935"},{"name":"東宮","zip_code":"8800928"},{"name":"富吉","zip_code":"8802114"},{"name":"中津瀬町","zip_code":"8800025"},{"name":"中西町","zip_code":"8800853"},{"name":"中村東","zip_code":"8800904"},{"name":"中村西","zip_code":"8800905"},{"name":"長嶺","zip_code":"8802115"},{"name":"波島","zip_code":"8800826"},{"name":"新名爪","zip_code":"8800124"},{"name":"西池町","zip_code":"8800027"},{"name":"錦本町","zip_code":"8800818"},{"name":"錦町","zip_code":"8800811"},{"name":"西高松町","zip_code":"8800016"},{"name":"花ケ島町","zip_code":"8800036"},{"name":"花殿町","zip_code":"8800026"},{"name":"花山手西","zip_code":"8800939"},{"name":"花山手東","zip_code":"8800930"},{"name":"原町","zip_code":"8800007"},{"name":"稗原町","zip_code":"8800832"},{"name":"東大宮","zip_code":"8800825"},{"name":"東大淀","zip_code":"8800901"},{"name":"日ノ出町","zip_code":"8800856"},{"name":"広島","zip_code":"8800806"},{"name":"広原","zip_code":"8800125"},{"name":"福島町","zip_code":"8800946"},{"name":"船塚","zip_code":"8800031"},{"name":"古城町","zip_code":"8800931"},{"name":"平和が丘北町","zip_code":"8800046"},{"name":"平和が丘西町","zip_code":"8800047"},{"name":"平和が丘東町","zip_code":"8800042"},{"name":"別府町","zip_code":"8800802"},{"name":"芳士","zip_code":"8800123"},{"name":"細江","zip_code":"8891716"},{"name":"堀川町","zip_code":"8800873"},{"name":"本郷","zip_code":"8800922"},{"name":"本郷北方","zip_code":"8800925"},{"name":"本郷南方","zip_code":"8800921"},{"name":"前原町","zip_code":"8800863"},{"name":"松橋","zip_code":"8800013"},{"name":"松山","zip_code":"8800865"},{"name":"まなび野","zip_code":"8800929"},{"name":"丸島町","zip_code":"8800813"},{"name":"丸山","zip_code":"8800052"},{"name":"港","zip_code":"8800858"},{"name":"港東","zip_code":"8800851"},{"name":"南方町","zip_code":"8800037"},{"name":"南高松町","zip_code":"8800005"},{"name":"南花ケ島町","zip_code":"8800055"},{"name":"南町","zip_code":"8800906"},{"name":"宮崎駅東","zip_code":"8800879"},{"name":"宮田町","zip_code":"8800804"},{"name":"宮の元町","zip_code":"8800914"},{"name":"宮脇町","zip_code":"8800877"},{"name":"村角町","zip_code":"8800837"},{"name":"元宮町","zip_code":"8800004"},{"name":"柳丸町","zip_code":"8800844"},{"name":"矢の先町","zip_code":"8800034"},{"name":"山崎町","zip_code":"8800836"},{"name":"大和町","zip_code":"8800878"},{"name":"吉野","zip_code":"8802233"},{"name":"吉村町","zip_code":"8800841"},{"name":"淀川","zip_code":"8800907"},{"name":"和知川原","zip_code":"8800023"}]},{"name":"都城市","divisions":[{"name":"菖蒲原町","zip_code":"8850034"},{"name":"一万城町","zip_code":"8850041"},{"name":"今町","zip_code":"8850064"},{"name":"岩満町","zip_code":"8851101"},{"name":"祝吉","zip_code":"8850019"},{"name":"祝吉町","zip_code":"8850014"},{"name":"梅北町","zip_code":"8850063"},{"name":"大岩田町","zip_code":"8850062"},{"name":"乙房町","zip_code":"8850112"},{"name":"甲斐元町","zip_code":"8850074"},{"name":"菓子野町","zip_code":"8850111"},{"name":"金田町","zip_code":"8850001"},{"name":"上川東","zip_code":"8850012"},{"name":"上水流町","zip_code":"8851103"},{"name":"上長飯町","zip_code":"8850042"},{"name":"上東町","zip_code":"8850053"},{"name":"上町","zip_code":"8850072"},{"name":"北原町","zip_code":"8850024"},{"name":"久保原町","zip_code":"8850086"},{"name":"蔵原町","zip_code":"8850051"},{"name":"郡元","zip_code":"8850018"},{"name":"郡元町","zip_code":"8850013"},{"name":"五十町","zip_code":"8850084"},{"name":"小松原町","zip_code":"8850022"},{"name":"栄町","zip_code":"8850023"},{"name":"志比田町","zip_code":"8850093"},{"name":"下川東","zip_code":"8850011"},{"name":"下水流町","zip_code":"8851102"},{"name":"下長飯町","zip_code":"8850061"},{"name":"庄内町","zip_code":"8850114"},{"name":"神之山町","zip_code":"8850005"},{"name":"関之尾町","zip_code":"8850113"},{"name":"千町","zip_code":"8850015"},{"name":"大王町","zip_code":"8850026"},{"name":"鷹尾","zip_code":"8850081"},{"name":"高木町","zip_code":"8850003"},{"name":"高崎町江平","zip_code":"8894502"},{"name":"高崎町大牟田","zip_code":"8894505"},{"name":"高崎町東霧島","zip_code":"8894504"},{"name":"高崎町縄瀬","zip_code":"8894503"},{"name":"高崎町笛水","zip_code":"8894501"},{"name":"高崎町前田","zip_code":"8894506"},{"name":"高城町有水","zip_code":"8851311"},{"name":"高城町石山","zip_code":"8851205"},{"name":"高城町大井手","zip_code":"8851203"},{"name":"高城町桜木","zip_code":"8851204"},{"name":"高城町四家","zip_code":"8851312"},{"name":"高城町高城","zip_code":"8851201"},{"name":"高城町穂満坊","zip_code":"8851202"},{"name":"高野町","zip_code":"8850221"},{"name":"立野町","zip_code":"8850035"},{"name":"太郎坊町","zip_code":"8850002"},{"name":"妻ケ丘町","zip_code":"8850033"},{"name":"天神町","zip_code":"8850031"},{"name":"年見町","zip_code":"8850017"},{"name":"都北町","zip_code":"8850004"},{"name":"豊満町","zip_code":"8850043"},{"name":"中原町","zip_code":"8850032"},{"name":"中町","zip_code":"8850071"},{"name":"夏尾町","zip_code":"8850225"},{"name":"西町","zip_code":"8850076"},{"name":"野々美谷町","zip_code":"8851104"},{"name":"八幡町","zip_code":"8850075"},{"name":"花繰町","zip_code":"8850037"},{"name":"早鈴町","zip_code":"8850055"},{"name":"早水町","zip_code":"8850016"},{"name":"東町","zip_code":"8850052"},{"name":"姫城町","zip_code":"8850073"},{"name":"平江町","zip_code":"8850021"},{"name":"平塚町","zip_code":"8850085"},{"name":"広原町","zip_code":"8850036"},{"name":"前田町","zip_code":"8850025"},{"name":"松元町","zip_code":"8850077"},{"name":"丸谷町","zip_code":"8851105"},{"name":"御池町","zip_code":"8850224"},{"name":"美川町","zip_code":"8850222"},{"name":"南鷹尾町","zip_code":"8850082"},{"name":"南横市町","zip_code":"8850092"},{"name":"蓑原町","zip_code":"8850095"},{"name":"都島町","zip_code":"8850083"},{"name":"都原町","zip_code":"8850094"},{"name":"宮丸町","zip_code":"8850078"},{"name":"牟田町","zip_code":"8850079"},{"name":"安久町","zip_code":"8850044"},{"name":"山田町中霧島","zip_code":"8894602"},{"name":"山田町山田","zip_code":"8894601"},{"name":"山之口町富吉","zip_code":"8891801"},{"name":"山之口町花木","zip_code":"8891802"},{"name":"山之口町山之口","zip_code":"8802303"},{"name":"横市町","zip_code":"8850091"},{"name":"吉尾町","zip_code":"8850006"},{"name":"吉之元町","zip_code":"8850223"},{"name":"若葉町","zip_code":"8850054"}]},{"name":"延岡市","divisions":[{"name":"赤水町","zip_code":"8890517"},{"name":"安賀多町","zip_code":"8820845"},{"name":"旭ケ丘","zip_code":"8890507"},{"name":"旭町","zip_code":"8820847"},{"name":"愛宕町","zip_code":"8820872"},{"name":"愛宕山","zip_code":"8820871"},{"name":"天下町","zip_code":"8820071"},{"name":"粟野名町","zip_code":"8820025"},{"name":"伊形町","zip_code":"8890503"},{"name":"石田町","zip_code":"8890501"},{"name":"出口町","zip_code":"8820831"},{"name":"出北","zip_code":"8820856"},{"name":"稲葉崎町","zip_code":"8820003"},{"name":"浦城町","zip_code":"8820095"},{"name":"宇和田町","zip_code":"8820084"},{"name":"恵比須町","zip_code":"8820046"},{"name":"追内町","zip_code":"8820013"},{"name":"大峡町","zip_code":"8820001"},{"name":"大門町","zip_code":"8820027"},{"name":"大瀬町","zip_code":"8820841"},{"name":"大武町","zip_code":"8820024"},{"name":"大貫町","zip_code":"8820803"},{"name":"大野町","zip_code":"8820086"},{"name":"岡富町","zip_code":"8820056"},{"name":"岡富山","zip_code":"8820057"},{"name":"岡元町","zip_code":"8820075"},{"name":"沖田町","zip_code":"8820876"},{"name":"尾崎町","zip_code":"8820006"},{"name":"卸本町","zip_code":"8820855"},{"name":"貝の畑町","zip_code":"8820073"},{"name":"鹿狩瀬町","zip_code":"8820085"},{"name":"樫山町","zip_code":"8820004"},{"name":"鹿小路","zip_code":"8820012"},{"name":"春日町","zip_code":"8820844"},{"name":"片田町","zip_code":"8820877"},{"name":"構口町","zip_code":"8820867"},{"name":"上伊形町","zip_code":"8890502"},{"name":"上大瀬町","zip_code":"8820833"},{"name":"上三輪町","zip_code":"8820885"},{"name":"川島町","zip_code":"8820017"},{"name":"川原崎町","zip_code":"8820033"},{"name":"祗園町","zip_code":"8820043"},{"name":"北浦町市振","zip_code":"8890302"},{"name":"北浦町古江","zip_code":"8890301"},{"name":"北浦町三川内","zip_code":"8890304"},{"name":"北浦町宮野浦","zip_code":"8890303"},{"name":"北方町板上","zip_code":"8820121"},{"name":"北方町板下","zip_code":"8820122"},{"name":"北方町うそ越","zip_code":"8820123"},{"name":"北方町笠下","zip_code":"8820106"},{"name":"北方町上崎","zip_code":"8820126"},{"name":"北方町上鹿川","zip_code":"8820231"},{"name":"北方町川水流","zip_code":"8820125"},{"name":"北方町北久保山","zip_code":"8820129"},{"name":"北方町蔵田","zip_code":"8820127"},{"name":"北方町三ケ村","zip_code":"8820241"},{"name":"北方町椎畑","zip_code":"8820237"},{"name":"北方町下鹿川","zip_code":"8820232"},{"name":"北方町菅原","zip_code":"8820233"},{"name":"北方町曽木","zip_code":"8820124"},{"name":"北方町滝下","zip_code":"8820238"},{"name":"北方町角田","zip_code":"8820104"},{"name":"北方町早上","zip_code":"8820245"},{"name":"北方町早中","zip_code":"8820244"},{"name":"北方町早日渡","zip_code":"8820243"},{"name":"北方町日平","zip_code":"8820236"},{"name":"北方町藤の木","zip_code":"8820107"},{"name":"北方町二股","zip_code":"8820101"},{"name":"北方町槇峰","zip_code":"8820235"},{"name":"北方町南久保山","zip_code":"8820128"},{"name":"北方町美々地","zip_code":"8820234"},{"name":"北方町八峡","zip_code":"8820242"},{"name":"北川町川内名","zip_code":"8820097"},{"name":"北川町長井","zip_code":"8890102"},{"name":"北小路","zip_code":"8820041"},{"name":"北新小路","zip_code":"8820834"},{"name":"北一ケ岡","zip_code":"8890505"},{"name":"北町","zip_code":"8820814"},{"name":"共栄町","zip_code":"8820873"},{"name":"櫛津町","zip_code":"8890514"},{"name":"熊野江町","zip_code":"8890322"},{"name":"桑平町","zip_code":"8820091"},{"name":"神戸町","zip_code":"8820093"},{"name":"小川町","zip_code":"8820076"},{"name":"小野町","zip_code":"8820882"},{"name":"小峰町","zip_code":"8820061"},{"name":"紺屋町","zip_code":"8820047"},{"name":"西小路","zip_code":"8820832"},{"name":"幸町","zip_code":"8820053"},{"name":"栄町","zip_code":"8820054"},{"name":"桜ケ丘","zip_code":"8820007"},{"name":"桜小路","zip_code":"8820816"},{"name":"桜園町","zip_code":"8820036"},{"name":"差木野町","zip_code":"8820002"},{"name":"佐野町","zip_code":"8820081"},{"name":"塩浜町","zip_code":"8820864"},{"name":"島浦町","zip_code":"8820096"},{"name":"下伊形町","zip_code":"8890504"},{"name":"下三輪町","zip_code":"8820883"},{"name":"昭和町","zip_code":"8820034"},{"name":"白石町","zip_code":"8820014"},{"name":"新小路","zip_code":"8820835"},{"name":"新浜町","zip_code":"8890512"},{"name":"新町","zip_code":"8820827"},{"name":"須佐町","zip_code":"8820011"},{"name":"須崎町","zip_code":"8820825"},{"name":"須美江町","zip_code":"8890321"},{"name":"瀬之口町","zip_code":"8820045"},{"name":"惣領町","zip_code":"8820857"},{"name":"鯛名町","zip_code":"8890516"},{"name":"高千穂通","zip_code":"8820042"},{"name":"高野町","zip_code":"8820064"},{"name":"伊達町","zip_code":"8820874"},{"name":"中央通","zip_code":"8820824"},{"name":"恒富町","zip_code":"8820836"},{"name":"鶴ケ丘","zip_code":"8820865"},{"name":"天神小路","zip_code":"8820811"},{"name":"東海町","zip_code":"8820016"},{"name":"土々呂町","zip_code":"8890513"},{"name":"富美山町","zip_code":"8820051"},{"name":"中川原町","zip_code":"8820031"},{"name":"中島町","zip_code":"8820846"},{"name":"中の瀬町","zip_code":"8820032"},{"name":"中町","zip_code":"8820823"},{"name":"中三輪町","zip_code":"8820884"},{"name":"永池町","zip_code":"8820843"},{"name":"長浜町","zip_code":"8820854"},{"name":"夏田町","zip_code":"8820005"},{"name":"西階町","zip_code":"8820804"},{"name":"野地町","zip_code":"8820802"},{"name":"野田","zip_code":"8820805"},{"name":"野田町","zip_code":"8820801"},{"name":"萩町","zip_code":"8820052"},{"name":"博労町","zip_code":"8820044"},{"name":"浜砂","zip_code":"8820851"},{"name":"浜町","zip_code":"8820862"},{"name":"東浜砂町","zip_code":"8820852"},{"name":"東本小路","zip_code":"8820813"},{"name":"日の出町","zip_code":"8820035"},{"name":"別府町","zip_code":"8820861"},{"name":"平田町","zip_code":"8820065"},{"name":"平原町","zip_code":"8820866"},{"name":"二ツ島町","zip_code":"8820022"},{"name":"船倉町","zip_code":"8820826"},{"name":"古川町","zip_code":"8820063"},{"name":"古城町","zip_code":"8820837"},{"name":"方財町","zip_code":"8820853"},{"name":"祝子町","zip_code":"8820082"},{"name":"細見町","zip_code":"8820074"},{"name":"本小路","zip_code":"8820812"},{"name":"本町","zip_code":"8820821"},{"name":"舞野町","zip_code":"8820066"},{"name":"牧町","zip_code":"8820023"},{"name":"松原町","zip_code":"8890511"},{"name":"松山町","zip_code":"8820062"},{"name":"三須町","zip_code":"8820881"},{"name":"水尻町","zip_code":"8820015"},{"name":"三ツ瀬町","zip_code":"8820842"},{"name":"緑ケ丘","zip_code":"8820863"},{"name":"南一ケ岡","zip_code":"8890506"},{"name":"南町","zip_code":"8820822"},{"name":"宮長町","zip_code":"8820092"},{"name":"妙見町","zip_code":"8890515"},{"name":"妙町","zip_code":"8820087"},{"name":"行縢町","zip_code":"8820077"},{"name":"無鹿町","zip_code":"8820021"},{"name":"安井町","zip_code":"8820094"},{"name":"柳沢町","zip_code":"8820815"},{"name":"山下町","zip_code":"8820055"},{"name":"山月町","zip_code":"8820037"},{"name":"柚木町","zip_code":"8820083"},{"name":"柚の木田町","zip_code":"8820026"},{"name":"吉野町","zip_code":"8820072"},{"name":"若葉町","zip_code":"8820875"}]},{"name":"日南市","divisions":[{"name":"吾田東","zip_code":"8870041"},{"name":"吾田西","zip_code":"8892536"},{"name":"油津","zip_code":"8870001"},{"name":"板敷","zip_code":"8892532"},{"name":"伊比井","zip_code":"8892311"},{"name":"今町","zip_code":"8892525"},{"name":"岩崎","zip_code":"8870014"},{"name":"梅ケ浜","zip_code":"8870017"},{"name":"大窪","zip_code":"8893156"},{"name":"大堂津","zip_code":"8893141"},{"name":"乙姫町","zip_code":"8870007"},{"name":"飫肥","zip_code":"8892535"},{"name":"春日町","zip_code":"8870006"},{"name":"風田","zip_code":"8870034"},{"name":"上方","zip_code":"8893151"},{"name":"上平野町","zip_code":"8870022"},{"name":"北郷町大藤","zip_code":"8892401"},{"name":"北郷町北河内","zip_code":"8892403"},{"name":"北郷町郷之原","zip_code":"8892402"},{"name":"木山","zip_code":"8870013"},{"name":"楠原","zip_code":"8892514"},{"name":"隈谷","zip_code":"8870023"},{"name":"毛吉田","zip_code":"8893152"},{"name":"材木町","zip_code":"8870005"},{"name":"酒谷甲","zip_code":"8892512"},{"name":"酒谷乙","zip_code":"8892511"},{"name":"塩鶴","zip_code":"8893142"},{"name":"下方","zip_code":"8893143"},{"name":"瀬貝","zip_code":"8870011"},{"name":"瀬西","zip_code":"8870003"},{"name":"園田","zip_code":"8870012"},{"name":"中央通","zip_code":"8870021"},{"name":"塚田甲","zip_code":"8893154"},{"name":"塚田乙","zip_code":"8893155"},{"name":"天福","zip_code":"8870004"},{"name":"時任町","zip_code":"8892534"},{"name":"戸高","zip_code":"8870031"},{"name":"殿所","zip_code":"8892524"},{"name":"中平野","zip_code":"8870016"},{"name":"南郷町潟上","zip_code":"8893213"},{"name":"南郷町谷之口","zip_code":"8893203"},{"name":"南郷町津屋野","zip_code":"8893201"},{"name":"南郷町中村甲","zip_code":"8893202"},{"name":"南郷町中村乙","zip_code":"8893204"},{"name":"南郷町贄波","zip_code":"8893211"},{"name":"南郷町西町","zip_code":"8893205"},{"name":"南郷町東町","zip_code":"8893207"},{"name":"南郷町南町","zip_code":"8893206"},{"name":"南郷町榎原","zip_code":"8893214"},{"name":"南郷町榎原甲","zip_code":"8893215"},{"name":"南郷町榎原乙","zip_code":"8893216"},{"name":"南郷町榎原丙","zip_code":"8893217"},{"name":"南郷町脇本","zip_code":"8893212"},{"name":"西弁分","zip_code":"8870024"},{"name":"西町","zip_code":"8870002"},{"name":"萩之嶺","zip_code":"8893153"},{"name":"東弁分乙","zip_code":"8892521"},{"name":"東弁分甲","zip_code":"8892522"},{"name":"平野","zip_code":"8870015"},{"name":"平山","zip_code":"8870033"},{"name":"富土","zip_code":"8870102"},{"name":"星倉","zip_code":"8892533"},{"name":"本町","zip_code":"8892531"},{"name":"益安","zip_code":"8870032"},{"name":"松永","zip_code":"8892523"},{"name":"宮浦","zip_code":"8870101"},{"name":"吉野方","zip_code":"8892513"}]},{"name":"小林市","divisions":[{"name":"駅南","zip_code":"8860009"},{"name":"北西方","zip_code":"8860006"},{"name":"須木内山","zip_code":"8860115"},{"name":"須木下田","zip_code":"8860112"},{"name":"須木鳥田町","zip_code":"8860113"},{"name":"須木中原","zip_code":"8860111"},{"name":"須木奈佐木","zip_code":"8860114"},{"name":"堤","zip_code":"8860003"},{"name":"水流迫","zip_code":"8860002"},{"name":"野尻町紙屋","zip_code":"8860211"},{"name":"野尻町東麓","zip_code":"8860212"},{"name":"野尻町三ケ野山","zip_code":"8860213"},{"name":"東方","zip_code":"8860101"},{"name":"細野","zip_code":"8860004"},{"name":"本町","zip_code":"8860008"},{"name":"真方","zip_code":"8860007"},{"name":"南西方","zip_code":"8860005"}]},{"name":"日向市","divisions":[{"name":"伊勢ケ浜","zip_code":"8830003"},{"name":"上町","zip_code":"8830044"},{"name":"江良町","zip_code":"8830012"},{"name":"梶木町","zip_code":"8830053"},{"name":"亀崎","zip_code":"8830066"},{"name":"亀崎西","zip_code":"8830068"},{"name":"亀崎東","zip_code":"8830067"},{"name":"北町","zip_code":"8830041"},{"name":"迎洋園","zip_code":"8830038"},{"name":"財光寺","zip_code":"8830021"},{"name":"財光寺往還町","zip_code":"8830024"},{"name":"財光寺沖町","zip_code":"8830023"},{"name":"幸脇","zip_code":"8891112"},{"name":"塩見","zip_code":"8830033"},{"name":"新生町","zip_code":"8830013"},{"name":"曽根町","zip_code":"8830011"},{"name":"大王町","zip_code":"8830061"},{"name":"高砂町","zip_code":"8830042"},{"name":"竹島町","zip_code":"8830063"},{"name":"鶴町","zip_code":"8830052"},{"name":"東郷町下三ケ","zip_code":"8830213"},{"name":"東郷町坪谷","zip_code":"8830211"},{"name":"東郷町八重原迫野内","zip_code":"8830108"},{"name":"東郷町山陰","zip_code":"8830109"},{"name":"東郷町山陰乙","zip_code":"8891101"},{"name":"東郷町山陰己","zip_code":"8830105"},{"name":"東郷町山陰甲","zip_code":"8891121"},{"name":"東郷町山陰庚","zip_code":"8830107"},{"name":"東郷町山陰辛","zip_code":"8830106"},{"name":"東郷町山陰丁","zip_code":"8830103"},{"name":"東郷町山陰丙","zip_code":"8830102"},{"name":"東郷町山陰戊","zip_code":"8830104"},{"name":"富高","zip_code":"8830034"},{"name":"中堀町","zip_code":"8830005"},{"name":"中町","zip_code":"8830046"},{"name":"永江町","zip_code":"8830015"},{"name":"浜町","zip_code":"8830004"},{"name":"原町","zip_code":"8830014"},{"name":"春原町","zip_code":"8830035"},{"name":"日知屋","zip_code":"8830062"},{"name":"日知屋古田町","zip_code":"8830064"},{"name":"平岩","zip_code":"8830022"},{"name":"比良町","zip_code":"8830031"},{"name":"平野町","zip_code":"8830002"},{"name":"不動寺","zip_code":"8830037"},{"name":"船場町","zip_code":"8830065"},{"name":"細島","zip_code":"8830001"},{"name":"本町","zip_code":"8830045"},{"name":"南町","zip_code":"8830036"},{"name":"美々津町","zip_code":"8891111"},{"name":"都町","zip_code":"8830043"},{"name":"向江町","zip_code":"8830051"},{"name":"山下町","zip_code":"8830032"},{"name":"山手町","zip_code":"8830006"}]},{"name":"串間市","divisions":[{"name":"秋山","zip_code":"8880006"},{"name":"一氏","zip_code":"8893533"},{"name":"市木","zip_code":"8893311"},{"name":"大納","zip_code":"8880221"},{"name":"大平","zip_code":"8893532"},{"name":"大矢取","zip_code":"8893534"},{"name":"北方","zip_code":"8880005"},{"name":"串間","zip_code":"8880004"},{"name":"崎田","zip_code":"8880009"},{"name":"高松","zip_code":"8880002"},{"name":"寺里","zip_code":"8880011"},{"name":"都井","zip_code":"8880222"},{"name":"奈留","zip_code":"8893531"},{"name":"西方","zip_code":"8880001"},{"name":"西浜","zip_code":"8880012"},{"name":"奴久見","zip_code":"8880003"},{"name":"東町","zip_code":"8880013"},{"name":"本城","zip_code":"8880008"},{"name":"南方","zip_code":"8880007"}]},{"name":"西都市","divisions":[{"name":"旭","zip_code":"8810031"},{"name":"荒武","zip_code":"8810111"},{"name":"有吉町","zip_code":"8810011"},{"name":"岩爪","zip_code":"8810106"},{"name":"岡富","zip_code":"8810001"},{"name":"小野崎","zip_code":"8810012"},{"name":"小野崎町","zip_code":"8810013"},{"name":"尾八重","zip_code":"8811121"},{"name":"加勢","zip_code":"8810103"},{"name":"片内","zip_code":"8811122"},{"name":"鹿野田","zip_code":"8810104"},{"name":"上揚","zip_code":"8811231"},{"name":"上三財","zip_code":"8810115"},{"name":"上町","zip_code":"8810021"},{"name":"清水","zip_code":"8810004"},{"name":"黒生野","zip_code":"8810002"},{"name":"現王島","zip_code":"8800341"},{"name":"桜川町","zip_code":"8810022"},{"name":"寒川","zip_code":"8810116"},{"name":"下三財","zip_code":"8810113"},{"name":"下妻","zip_code":"8810014"},{"name":"白馬町","zip_code":"8810032"},{"name":"銀鏡","zip_code":"8811232"},{"name":"新町","zip_code":"8810006"},{"name":"聖陵町","zip_code":"8810015"},{"name":"茶臼原","zip_code":"8810037"},{"name":"中央町","zip_code":"8810035"},{"name":"調殿","zip_code":"8810023"},{"name":"妻","zip_code":"8810033"},{"name":"妻町","zip_code":"8810034"},{"name":"水流崎町","zip_code":"8810036"},{"name":"童子丸","zip_code":"8810025"},{"name":"藤田","zip_code":"8810114"},{"name":"都於郡町","zip_code":"8810105"},{"name":"中尾","zip_code":"8811123"},{"name":"中妻","zip_code":"8810024"},{"name":"八重","zip_code":"8811233"},{"name":"平郡","zip_code":"8810102"},{"name":"穂北","zip_code":"8810026"},{"name":"右松","zip_code":"8810003"},{"name":"南方","zip_code":"8810027"},{"name":"三納","zip_code":"8810101"},{"name":"御舟町","zip_code":"8810016"},{"name":"三宅","zip_code":"8810005"},{"name":"山田","zip_code":"8810112"}]},{"name":"えびの市","divisions":[{"name":"池島","zip_code":"8894303"},{"name":"今西","zip_code":"8894306"},{"name":"内竪","zip_code":"8894162"},{"name":"浦","zip_code":"8894153"},{"name":"上江","zip_code":"8894304"},{"name":"榎田","zip_code":"8894243"},{"name":"大河平","zip_code":"8894314"},{"name":"岡松","zip_code":"8894161"},{"name":"小田","zip_code":"8894222"},{"name":"亀沢","zip_code":"8894155"},{"name":"栗下","zip_code":"8894221"},{"name":"西郷","zip_code":"8894241"},{"name":"坂元","zip_code":"8894312"},{"name":"島内","zip_code":"8894152"},{"name":"昌明寺","zip_code":"8894164"},{"name":"末永","zip_code":"8894302"},{"name":"杉水流","zip_code":"8894313"},{"name":"大明司","zip_code":"8894311"},{"name":"水流","zip_code":"8894163"},{"name":"永山","zip_code":"8894234"},{"name":"西川北","zip_code":"8894165"},{"name":"西長江浦","zip_code":"8894232"},{"name":"灰塚","zip_code":"8894233"},{"name":"原田","zip_code":"8894301"},{"name":"東川北","zip_code":"8894244"},{"name":"東長江浦","zip_code":"8894231"},{"name":"前田","zip_code":"8894305"},{"name":"向江","zip_code":"8894151"},{"name":"柳水流","zip_code":"8894154"},{"name":"湯田","zip_code":"8894242"}]},{"name":"北諸県郡三股町","divisions":[{"name":"今市","zip_code":"8891905"},{"name":"樺山","zip_code":"8891901"},{"name":"五本松","zip_code":"8891902"},{"name":"新馬場","zip_code":"8891904"},{"name":"蓼池","zip_code":"8891914"},{"name":"中原","zip_code":"8891906"},{"name":"長田","zip_code":"8891911"},{"name":"花見原","zip_code":"8891907"},{"name":"稗田","zip_code":"8891903"},{"name":"宮村","zip_code":"8891912"},{"name":"餅原","zip_code":"8891913"}]},{"name":"西諸県郡高原町","divisions":[{"name":"後川内","zip_code":"8894413"},{"name":"蒲牟田","zip_code":"8894414"},{"name":"西麓","zip_code":"8894412"},{"name":"広原","zip_code":"8894411"}]},{"name":"東諸県郡国富町","divisions":[{"name":"嵐田","zip_code":"8801103"},{"name":"伊左生","zip_code":"8801121"},{"name":"岩知野","zip_code":"8801111"},{"name":"木脇","zip_code":"8801113"},{"name":"三名","zip_code":"8801114"},{"name":"須志田","zip_code":"8801108"},{"name":"竹田","zip_code":"8801107"},{"name":"田尻","zip_code":"8801104"},{"name":"塚原","zip_code":"8801112"},{"name":"深年","zip_code":"8801224"},{"name":"本庄","zip_code":"8801101"},{"name":"宮王丸","zip_code":"8801102"},{"name":"向高","zip_code":"8801105"},{"name":"森永","zip_code":"8801106"},{"name":"八代北俣","zip_code":"8801222"},{"name":"八代南俣","zip_code":"8801223"}]},{"name":"東諸県郡綾町","divisions":[{"name":"入野","zip_code":"8801301"},{"name":"北俣","zip_code":"8801302"},{"name":"南俣","zip_code":"8860203"}]},{"name":"児湯郡高鍋町","divisions":[{"name":"上江","zip_code":"8840006"},{"name":"蚊口浦","zip_code":"8840004"},{"name":"北高鍋","zip_code":"8840002"},{"name":"高鍋町","zip_code":"8840001"},{"name":"南高鍋","zip_code":"8840003"},{"name":"持田","zip_code":"8840005"}]},{"name":"児湯郡新富町","divisions":[{"name":"伊倉","zip_code":"8891405"},{"name":"上富田","zip_code":"8891403"},{"name":"下富田","zip_code":"8891404"},{"name":"富田","zip_code":"8891411"},{"name":"富田北","zip_code":"8891415"},{"name":"富田東","zip_code":"8891412"},{"name":"富田西","zip_code":"8891413"},{"name":"富田南","zip_code":"8891414"},{"name":"新田","zip_code":"8891406"},{"name":"日置","zip_code":"8891401"},{"name":"三納代","zip_code":"8891402"}]},{"name":"児湯郡西米良村","divisions":[{"name":"板谷","zip_code":"8811412"},{"name":"小川","zip_code":"8811302"},{"name":"上米良","zip_code":"8811413"},{"name":"越野尾","zip_code":"8811301"},{"name":"竹原","zip_code":"8811414"},{"name":"村所","zip_code":"8811411"},{"name":"横野","zip_code":"8811303"}]},{"name":"児湯郡木城町","divisions":[{"name":"石河内","zip_code":"8840104"},{"name":"川原","zip_code":"8840103"},{"name":"椎木","zip_code":"8840102"},{"name":"高城","zip_code":"8840101"},{"name":"中之又","zip_code":"8840105"}]},{"name":"児湯郡川南町","divisions":[{"name":"川南","zip_code":"8891301"},{"name":"平田","zip_code":"8891302"}]},{"name":"児湯郡都農町","divisions":[{"name":"川北","zip_code":"8891201"}]},{"name":"東臼杵郡門川町","divisions":[{"name":"庵川","zip_code":"8890602"},{"name":"庵川西","zip_code":"8890605"},{"name":"加草","zip_code":"8890603"},{"name":"門川尾末","zip_code":"8890611"},{"name":"上町","zip_code":"8890614"},{"name":"川内","zip_code":"8890604"},{"name":"栄ケ丘","zip_code":"8890615"},{"name":"城ケ丘","zip_code":"8890624"},{"name":"須賀崎","zip_code":"8890601"},{"name":"中須","zip_code":"8890612"},{"name":"西栄町","zip_code":"8890622"},{"name":"東栄町","zip_code":"8890621"},{"name":"平城西","zip_code":"8890626"},{"name":"平城東","zip_code":"8890625"},{"name":"本町","zip_code":"8890613"},{"name":"南ケ丘","zip_code":"8890617"},{"name":"南町","zip_code":"8890616"},{"name":"宮ケ原","zip_code":"8890623"}]},{"name":"東臼杵郡諸塚村","divisions":[{"name":"家代","zip_code":"8831301"},{"name":"七ツ山","zip_code":"8831402"}]},{"name":"東臼杵郡椎葉村","divisions":[{"name":"大河内","zip_code":"8830402"},{"name":"下福良","zip_code":"8831601"},{"name":"不土野","zip_code":"8831603"},{"name":"松尾","zip_code":"8831604"}]},{"name":"東臼杵郡美郷町","divisions":[{"name":"北郷区宇納間","zip_code":"8890901"},{"name":"北郷区黒木","zip_code":"8890903"},{"name":"北郷区入下","zip_code":"8890902"},{"name":"西郷区小原","zip_code":"8831212"},{"name":"西郷区田代","zip_code":"8831101"},{"name":"西郷区立石","zip_code":"8831102"},{"name":"西郷区山三ケ","zip_code":"8831211"},{"name":"南郷区上渡川","zip_code":"8830303"},{"name":"南郷区鬼神野","zip_code":"8830304"},{"name":"南郷区中渡川","zip_code":"8830302"},{"name":"南郷区神門","zip_code":"8830306"},{"name":"南郷区水清谷","zip_code":"8830301"},{"name":"南郷区山三ケ","zip_code":"8830305"}]},{"name":"西臼杵郡高千穂町","divisions":[{"name":"岩戸","zip_code":"8821621"},{"name":"押方","zip_code":"8821102"},{"name":"上岩戸","zip_code":"8821622"},{"name":"上野","zip_code":"8821411"},{"name":"河内","zip_code":"8821414"},{"name":"五ケ所","zip_code":"8821415"},{"name":"下野","zip_code":"8821412"},{"name":"田原","zip_code":"8821413"},{"name":"三田井","zip_code":"8821101"},{"name":"向山","zip_code":"8821103"}]},{"name":"西臼杵郡日之影町","divisions":[{"name":"岩井川","zip_code":"8820302"},{"name":"七折","zip_code":"8820301"},{"name":"見立","zip_code":"8820403"},{"name":"分城","zip_code":"8820304"}]},{"name":"西臼杵郡五ヶ瀬町","divisions":[{"name":"鞍岡","zip_code":"8821201"},{"name":"桑野内","zip_code":"8821202"},{"name":"三ヶ所","zip_code":"8821203"}]}]}