{"name":"鹿児島県","cities":[{"name":"鹿児島市","divisions":[{"name":"荒田","zip_code":"8900054"},{"name":"有村町","zip_code":"8911545"},{"name":"有屋田町","zip_code":"8911107"},{"name":"池之上町","zip_code":"8920806"},{"name":"伊敷","zip_code":"8900008"},{"name":"伊敷台","zip_code":"8900007"},{"name":"伊敷町","zip_code":"8911203"},{"name":"石谷町","zip_code":"8992701"},{"name":"泉町","zip_code":"8920822"},{"name":"稲荷町","zip_code":"8920801"},{"name":"犬迫町","zip_code":"8911205"},{"name":"入佐町","zip_code":"8993206"},{"name":"上荒田町","zip_code":"8900055"},{"name":"上之園町","zip_code":"8900052"},{"name":"魚見町","zip_code":"8910112"},{"name":"宇宿","zip_code":"8900073"},{"name":"宇宿町","zip_code":"8900074"},{"name":"岡之原町","zip_code":"8920876"},{"name":"小川町","zip_code":"8920817"},{"name":"小野","zip_code":"8900021"},{"name":"小野町","zip_code":"8911222"},{"name":"小原町","zip_code":"8910111"},{"name":"卸本町","zip_code":"8910123"},{"name":"加治屋町","zip_code":"8920846"},{"name":"春日町","zip_code":"8920804"},{"name":"上竜尾町","zip_code":"8920851"},{"name":"上谷口町","zip_code":"8992703"},{"name":"上福元町","zip_code":"8910116"},{"name":"上本町","zip_code":"8920818"},{"name":"鴨池","zip_code":"8900063"},{"name":"鴨池新町","zip_code":"8900064"},{"name":"川上町","zip_code":"8911275"},{"name":"川田町","zip_code":"8911103"},{"name":"喜入瀬々串町","zip_code":"8910201"},{"name":"喜入中名町","zip_code":"8910202"},{"name":"喜入生見町","zip_code":"8910206"},{"name":"喜入一倉町","zip_code":"8910204"},{"name":"喜入前之浜町","zip_code":"8910205"},{"name":"喜入町","zip_code":"8910203"},{"name":"希望ケ丘町","zip_code":"8910107"},{"name":"錦江台","zip_code":"8910145"},{"name":"錦江町","zip_code":"8920836"},{"name":"金生町","zip_code":"8920828"},{"name":"祇園之洲町","zip_code":"8920803"},{"name":"黒神町","zip_code":"8911501"},{"name":"花野光ケ丘","zip_code":"8911204"},{"name":"甲突町","zip_code":"8920837"},{"name":"皇徳寺台","zip_code":"8910103"},{"name":"高免町","zip_code":"8911402"},{"name":"向陽","zip_code":"8900038"},{"name":"高麗町","zip_code":"8900051"},{"name":"郡元","zip_code":"8900065"},{"name":"郡元町","zip_code":"8900084"},{"name":"郡山岳町","zip_code":"8911108"},{"name":"郡山町","zip_code":"8911105"},{"name":"五ケ別府町","zip_code":"8910101"},{"name":"呉服町","zip_code":"8920826"},{"name":"小松原","zip_code":"8910114"},{"name":"小山田町","zip_code":"8992531"},{"name":"坂之上","zip_code":"8910150"},{"name":"坂元町","zip_code":"8920862"},{"name":"桜ケ丘","zip_code":"8910175"},{"name":"桜島赤水町","zip_code":"8911420"},{"name":"桜島赤生原町","zip_code":"8911417"},{"name":"桜島小池町","zip_code":"8911418"},{"name":"桜島西道町","zip_code":"8911414"},{"name":"桜島白浜町","zip_code":"8911411"},{"name":"桜島武町","zip_code":"8911416"},{"name":"桜島藤野町","zip_code":"8911415"},{"name":"桜島二俣町","zip_code":"8911412"},{"name":"桜島松浦町","zip_code":"8911413"},{"name":"桜島横山町","zip_code":"8911419"},{"name":"三和町","zip_code":"8900071"},{"name":"慈眼寺町","zip_code":"8910146"},{"name":"清水町","zip_code":"8920802"},{"name":"下荒田","zip_code":"8900056"},{"name":"下伊敷","zip_code":"8900005"},{"name":"下伊敷町","zip_code":"8900004"},{"name":"下田町","zip_code":"8920873"},{"name":"下竜尾町","zip_code":"8920852"},{"name":"下福元町","zip_code":"8910144"},{"name":"自由ケ丘","zip_code":"8910106"},{"name":"城西","zip_code":"8900041"},{"name":"城南町","zip_code":"8920835"},{"name":"松陽台町","zip_code":"8992707"},{"name":"城山","zip_code":"8900013"},{"name":"城山町","zip_code":"8920853"},{"name":"新栄町","zip_code":"8900072"},{"name":"新島町","zip_code":"8911403"},{"name":"新照院町","zip_code":"8900016"},{"name":"新町","zip_code":"8920832"},{"name":"新屋敷町","zip_code":"8920838"},{"name":"住吉町","zip_code":"8920823"},{"name":"西陵","zip_code":"8900032"},{"name":"清和","zip_code":"8910109"},{"name":"千日町","zip_code":"8920843"},{"name":"千年","zip_code":"8900001"},{"name":"草牟田","zip_code":"8900014"},{"name":"草牟田町","zip_code":"8900015"},{"name":"大黒町","zip_code":"8920825"},{"name":"大明丘","zip_code":"8920872"},{"name":"大竜町","zip_code":"8920805"},{"name":"鷹師","zip_code":"8900043"},{"name":"田上","zip_code":"8900034"},{"name":"田上台","zip_code":"8900036"},{"name":"田上町","zip_code":"8900035"},{"name":"武","zip_code":"8900045"},{"name":"武岡","zip_code":"8900031"},{"name":"谷山港","zip_code":"8910131"},{"name":"谷山塩屋町","zip_code":"8910121"},{"name":"谷山中央","zip_code":"8910141"},{"name":"玉里団地","zip_code":"8900011"},{"name":"玉里町","zip_code":"8900012"},{"name":"中央港新町","zip_code":"8900076"},{"name":"中央町","zip_code":"8900053"},{"name":"中山","zip_code":"8910108"},{"name":"中山町","zip_code":"8910105"},{"name":"皷川町","zip_code":"8920807"},{"name":"樋之口町","zip_code":"8920845"},{"name":"照国町","zip_code":"8920841"},{"name":"天保山町","zip_code":"8900061"},{"name":"東開町","zip_code":"8910115"},{"name":"常盤","zip_code":"8900047"},{"name":"常盤町","zip_code":"8900044"},{"name":"唐湊","zip_code":"8900081"},{"name":"直木町","zip_code":"8992705"},{"name":"中町","zip_code":"8920827"},{"name":"長田町","zip_code":"8920854"},{"name":"永吉","zip_code":"8900023"},{"name":"七ツ島","zip_code":"8910132"},{"name":"南栄","zip_code":"8910122"},{"name":"南林寺町","zip_code":"8920834"},{"name":"西伊敷","zip_code":"8900002"},{"name":"西坂元町","zip_code":"8920863"},{"name":"西佐多町","zip_code":"8911301"},{"name":"西千石町","zip_code":"8920847"},{"name":"西田","zip_code":"8900046"},{"name":"西別府町","zip_code":"8900033"},{"name":"西俣町","zip_code":"8911106"},{"name":"西紫原町","zip_code":"8900083"},{"name":"野尻町","zip_code":"8911541"},{"name":"花尾町","zip_code":"8911101"},{"name":"浜町","zip_code":"8920812"},{"name":"原良","zip_code":"8900026"},{"name":"原良町","zip_code":"8900025"},{"name":"春山町","zip_code":"8992704"},{"name":"東郡元町","zip_code":"8900068"},{"name":"東坂元","zip_code":"8920861"},{"name":"東桜島町","zip_code":"8911543"},{"name":"東佐多町","zip_code":"8911302"},{"name":"東千石町","zip_code":"8920842"},{"name":"東谷山","zip_code":"8910113"},{"name":"東俣町","zip_code":"8911102"},{"name":"光山","zip_code":"8910151"},{"name":"日之出町","zip_code":"8900086"},{"name":"冷水町","zip_code":"8920855"},{"name":"平川町","zip_code":"8910133"},{"name":"平田町","zip_code":"8992709"},{"name":"平之町","zip_code":"8920848"},{"name":"広木","zip_code":"8900037"},{"name":"福山町","zip_code":"8992702"},{"name":"船津町","zip_code":"8920831"},{"name":"古里町","zip_code":"8911544"},{"name":"星ケ峯","zip_code":"8910102"},{"name":"堀江町","zip_code":"8920824"},{"name":"本港新町","zip_code":"8920814"},{"name":"本城町","zip_code":"8911303"},{"name":"本名町","zip_code":"8911304"},{"name":"真砂町","zip_code":"8900066"},{"name":"真砂本町","zip_code":"8900067"},{"name":"松原町","zip_code":"8920833"},{"name":"緑ヶ丘町","zip_code":"8920874"},{"name":"南郡元町","zip_code":"8900069"},{"name":"南新町","zip_code":"8900085"},{"name":"皆与志町","zip_code":"8911206"},{"name":"宮之浦町","zip_code":"8911305"},{"name":"紫原","zip_code":"8900082"},{"name":"牟礼岡","zip_code":"8911306"},{"name":"名山町","zip_code":"8920821"},{"name":"明和","zip_code":"8900024"},{"name":"持木町","zip_code":"8911542"},{"name":"薬師","zip_code":"8900042"},{"name":"易居町","zip_code":"8920815"},{"name":"柳町","zip_code":"8920819"},{"name":"山下町","zip_code":"8920816"},{"name":"山田町","zip_code":"8910104"},{"name":"山之口町","zip_code":"8920844"},{"name":"油須木町","zip_code":"8911104"},{"name":"吉野町","zip_code":"8920871"},{"name":"与次郎","zip_code":"8900062"},{"name":"四元町","zip_code":"8992708"},{"name":"若葉町","zip_code":"8900006"},{"name":"和田","zip_code":"8910143"},{"name":"和田町","zip_code":"8910142"}]},{"name":"鹿屋市","divisions":[{"name":"吾平町上名","zip_code":"8931101"},{"name":"吾平町下名","zip_code":"8931102"},{"name":"吾平町麓","zip_code":"8931103"},{"name":"旭原町","zip_code":"8930022"},{"name":"朝日町","zip_code":"8930004"},{"name":"有武町","zip_code":"8912301"},{"name":"飯隈町","zip_code":"8930035"},{"name":"池園町","zip_code":"8930042"},{"name":"今坂町","zip_code":"8930057"},{"name":"上野町","zip_code":"8930056"},{"name":"打馬","zip_code":"8930011"},{"name":"王子町","zip_code":"8930012"},{"name":"大姶良町","zip_code":"8930051"},{"name":"大浦町","zip_code":"8930067"},{"name":"大手町","zip_code":"8930009"},{"name":"小薄町","zip_code":"8912302"},{"name":"小野原町","zip_code":"8912312"},{"name":"海道町","zip_code":"8912303"},{"name":"笠之原町","zip_code":"8930023"},{"name":"上高隈町","zip_code":"8930131"},{"name":"上谷町","zip_code":"8930061"},{"name":"上祓川町","zip_code":"8930027"},{"name":"川西町","zip_code":"8930032"},{"name":"川東町","zip_code":"8930031"},{"name":"北田町","zip_code":"8930007"},{"name":"輝北町市成","zip_code":"8998511"},{"name":"輝北町上百引","zip_code":"8930201"},{"name":"輝北町下百引","zip_code":"8930202"},{"name":"輝北町諏訪原","zip_code":"8998512"},{"name":"輝北町平房","zip_code":"8930203"},{"name":"共栄町","zip_code":"8930005"},{"name":"串良町有里","zip_code":"8931602"},{"name":"串良町岡崎","zip_code":"8931603"},{"name":"串良町上小原","zip_code":"8931605"},{"name":"串良町下小原","zip_code":"8931604"},{"name":"串良町細山田","zip_code":"8931601"},{"name":"郷之原町","zip_code":"8930065"},{"name":"古前城町","zip_code":"8930001"},{"name":"寿","zip_code":"8930014"},{"name":"獅子目町","zip_code":"8930044"},{"name":"下高隈町","zip_code":"8930132"},{"name":"下祓川町","zip_code":"8930024"},{"name":"下堀町","zip_code":"8930047"},{"name":"白崎町","zip_code":"8930016"},{"name":"白水町","zip_code":"8912311"},{"name":"新栄町","zip_code":"8930063"},{"name":"新川町","zip_code":"8930015"},{"name":"新生町","zip_code":"8930062"},{"name":"曽田町","zip_code":"8930003"},{"name":"高須町","zip_code":"8930054"},{"name":"高牧町","zip_code":"8930066"},{"name":"田崎町","zip_code":"8930037"},{"name":"田淵町","zip_code":"8930045"},{"name":"天神町","zip_code":"8912313"},{"name":"永小原町","zip_code":"8930052"},{"name":"永野田町","zip_code":"8930033"},{"name":"名貫町","zip_code":"8930034"},{"name":"西大手町","zip_code":"8930008"},{"name":"西原","zip_code":"8930064"},{"name":"西祓川町","zip_code":"8930025"},{"name":"根木原町","zip_code":"8912305"},{"name":"野里町","zip_code":"8930055"},{"name":"萩塚町","zip_code":"8930036"},{"name":"花岡町","zip_code":"8912304"},{"name":"花里町","zip_code":"8912306"},{"name":"浜田町","zip_code":"8930053"},{"name":"祓川町","zip_code":"8930026"},{"name":"東原町","zip_code":"8930021"},{"name":"札元","zip_code":"8930013"},{"name":"船間町","zip_code":"8912314"},{"name":"古江町","zip_code":"8912321"},{"name":"古里町","zip_code":"8912322"},{"name":"星塚町","zip_code":"8930041"},{"name":"本町","zip_code":"8930002"},{"name":"南町","zip_code":"8930043"},{"name":"向江町","zip_code":"8930006"},{"name":"横山町","zip_code":"8930046"}]},{"name":"枕崎市","divisions":[{"name":"あけぼの町","zip_code":"8980080"},{"name":"旭町","zip_code":"8980008"},{"name":"泉町","zip_code":"8980006"},{"name":"板敷西町","zip_code":"8980084"},{"name":"板敷本町","zip_code":"8980082"},{"name":"板敷南町","zip_code":"8980083"},{"name":"岩崎町","zip_code":"8980052"},{"name":"岩戸町","zip_code":"8980058"},{"name":"恵比須町","zip_code":"8980009"},{"name":"大塚北町","zip_code":"8980026"},{"name":"大塚中町","zip_code":"8980028"},{"name":"大塚西町","zip_code":"8980027"},{"name":"大塚南町","zip_code":"8980029"},{"name":"折口町","zip_code":"8980003"},{"name":"鹿篭麓町","zip_code":"8980054"},{"name":"春日町","zip_code":"8980044"},{"name":"茅野町","zip_code":"8980098"},{"name":"木原町","zip_code":"8980057"},{"name":"清水町","zip_code":"8980066"},{"name":"金山町","zip_code":"8980076"},{"name":"金山西町","zip_code":"8980074"},{"name":"国見町","zip_code":"8980088"},{"name":"小塚町","zip_code":"8980099"},{"name":"寿町","zip_code":"8980062"},{"name":"木場町","zip_code":"8980053"},{"name":"駒水町","zip_code":"8980094"},{"name":"栄中町","zip_code":"8980038"},{"name":"栄本町","zip_code":"8980037"},{"name":"桜木町","zip_code":"8980018"},{"name":"桜山上町","zip_code":"8980073"},{"name":"桜山町","zip_code":"8980061"},{"name":"桜山西町","zip_code":"8980055"},{"name":"桜山東町","zip_code":"8980065"},{"name":"桜山本町","zip_code":"8980064"},{"name":"里町","zip_code":"8980097"},{"name":"汐見町","zip_code":"8980002"},{"name":"塩屋北町","zip_code":"8980041"},{"name":"塩屋南町","zip_code":"8980042"},{"name":"下松町","zip_code":"8980095"},{"name":"白沢北町","zip_code":"8980089"},{"name":"白沢西町","zip_code":"8980092"},{"name":"白沢東町","zip_code":"8980091"},{"name":"新町","zip_code":"8980007"},{"name":"住吉町","zip_code":"8980017"},{"name":"瀬戸町","zip_code":"8980087"},{"name":"園見西町","zip_code":"8980047"},{"name":"園見本町","zip_code":"8980046"},{"name":"高見町","zip_code":"8980016"},{"name":"立神北町","zip_code":"8980045"},{"name":"立神本町","zip_code":"8980025"},{"name":"田布川町","zip_code":"8980075"},{"name":"中央町","zip_code":"8980051"},{"name":"千代田町","zip_code":"8980012"},{"name":"豊留町","zip_code":"8980081"},{"name":"中町","zip_code":"8980005"},{"name":"西鹿篭","zip_code":"8980024"},{"name":"西本町","zip_code":"8980015"},{"name":"仁田浦町","zip_code":"8980093"},{"name":"東鹿篭","zip_code":"8980021"},{"name":"東本町","zip_code":"8980014"},{"name":"火之神北町","zip_code":"8980043"},{"name":"火之神町","zip_code":"8980048"},{"name":"火之神岬町","zip_code":"8980049"},{"name":"日之出町","zip_code":"8980034"},{"name":"平田町","zip_code":"8980035"},{"name":"別府","zip_code":"8980032"},{"name":"別府西町","zip_code":"8980086"},{"name":"別府東町","zip_code":"8980085"},{"name":"まかや町","zip_code":"8980096"},{"name":"枕崎","zip_code":"8980031"},{"name":"松之尾町","zip_code":"8980001"},{"name":"道野町","zip_code":"8980072"},{"name":"緑町","zip_code":"8980011"},{"name":"港町","zip_code":"8980004"},{"name":"美原町","zip_code":"8980056"},{"name":"宮田町","zip_code":"8980022"},{"name":"宮前町","zip_code":"8980033"},{"name":"美山町","zip_code":"8980071"},{"name":"妙見町","zip_code":"8980063"},{"name":"明和町","zip_code":"8980036"},{"name":"山手町","zip_code":"8980013"},{"name":"若葉町","zip_code":"8980023"}]},{"name":"阿久根市","divisions":[{"name":"赤瀬川","zip_code":"8991611"},{"name":"大川","zip_code":"8991741"},{"name":"大丸町","zip_code":"8991624"},{"name":"折口","zip_code":"8991601"},{"name":"琴平町","zip_code":"8991615"},{"name":"栄町","zip_code":"8991616"},{"name":"塩鶴町","zip_code":"8991628"},{"name":"塩浜町","zip_code":"8991629"},{"name":"新町","zip_code":"8991613"},{"name":"高松町","zip_code":"8991622"},{"name":"多田","zip_code":"8991602"},{"name":"鶴川内","zip_code":"8991603"},{"name":"鶴見町","zip_code":"8991626"},{"name":"西目","zip_code":"8991627"},{"name":"浜町","zip_code":"8991617"},{"name":"波留","zip_code":"8991625"},{"name":"晴海町","zip_code":"8991614"},{"name":"本町","zip_code":"8991621"},{"name":"丸尾町","zip_code":"8991612"},{"name":"港町","zip_code":"8991623"},{"name":"山下","zip_code":"8991604"},{"name":"脇本","zip_code":"8991131"}]},{"name":"出水市","divisions":[{"name":"今釜町","zip_code":"8990137"},{"name":"浦田町","zip_code":"8990134"},{"name":"大野原町","zip_code":"8990216"},{"name":"上大川内","zip_code":"8990341"},{"name":"上鯖渕","zip_code":"8990203"},{"name":"上知識町","zip_code":"8990212"},{"name":"黄金町","zip_code":"8990125"},{"name":"五万石町","zip_code":"8990214"},{"name":"米ノ津町","zip_code":"8990121"},{"name":"境町","zip_code":"8990122"},{"name":"汐見町","zip_code":"8990136"},{"name":"下大川内","zip_code":"8990342"},{"name":"下鯖町","zip_code":"8990123"},{"name":"下知識町","zip_code":"8990132"},{"name":"荘","zip_code":"8990435"},{"name":"昭和町","zip_code":"8990202"},{"name":"住吉町","zip_code":"8990138"},{"name":"高尾野町江内","zip_code":"8990407"},{"name":"高尾野町大久保","zip_code":"8990401"},{"name":"高尾野町上水流","zip_code":"8990406"},{"name":"高尾野町唐笠木","zip_code":"8990403"},{"name":"高尾野町柴引","zip_code":"8990402"},{"name":"高尾野町下水流","zip_code":"8990405"},{"name":"高尾野町下高尾野","zip_code":"8990404"},{"name":"武本","zip_code":"8990215"},{"name":"知識町","zip_code":"8990211"},{"name":"中央町","zip_code":"8990207"},{"name":"西出水町","zip_code":"8990213"},{"name":"野田町上名","zip_code":"8990501"},{"name":"野田町下名","zip_code":"8990502"},{"name":"福ノ江町","zip_code":"8990133"},{"name":"麓町","zip_code":"8990204"},{"name":"文化町","zip_code":"8990208"},{"name":"平和町","zip_code":"8990217"},{"name":"本町","zip_code":"8990205"},{"name":"緑町","zip_code":"8990201"},{"name":"美原町","zip_code":"8990124"},{"name":"明神町","zip_code":"8990131"},{"name":"向江町","zip_code":"8990206"},{"name":"六月田町","zip_code":"8990126"}]},{"name":"指宿市","divisions":[{"name":"池田","zip_code":"8910312"},{"name":"岩本","zip_code":"8910315"},{"name":"大牟礼","zip_code":"8910401"},{"name":"開聞上野","zip_code":"8910601"},{"name":"開聞川尻","zip_code":"8910602"},{"name":"開聞十町","zip_code":"8910603"},{"name":"開聞仙田","zip_code":"8910604"},{"name":"小牧","zip_code":"8910314"},{"name":"十二町","zip_code":"8910403"},{"name":"十町","zip_code":"8910402"},{"name":"新西方","zip_code":"8910313"},{"name":"西方","zip_code":"8910311"},{"name":"東方","zip_code":"8910304"},{"name":"湊","zip_code":"8910405"},{"name":"山川朝日町","zip_code":"8910502"},{"name":"山川入船町","zip_code":"8910507"},{"name":"山川大山","zip_code":"8910614"},{"name":"山川岡児ケ水","zip_code":"8910513"},{"name":"山川小川","zip_code":"8910515"},{"name":"山川金生町","zip_code":"8910506"},{"name":"山川潮見町","zip_code":"8910503"},{"name":"山川新栄町","zip_code":"8910501"},{"name":"山川新生町","zip_code":"8910504"},{"name":"山川利永","zip_code":"8910621"},{"name":"山川成川","zip_code":"8910516"},{"name":"山川浜児ケ水","zip_code":"8910512"},{"name":"山川福元","zip_code":"8910511"},{"name":"山川山下町","zip_code":"8910505"},{"name":"湯の浜","zip_code":"8910406"}]},{"name":"西之表市","divisions":[{"name":"安城","zip_code":"8913432"},{"name":"安納","zip_code":"8913102"},{"name":"池田","zip_code":"8913114"},{"name":"伊関","zip_code":"8913221"},{"name":"鴨女町","zip_code":"8913116"},{"name":"国上","zip_code":"8913222"},{"name":"現和","zip_code":"8913103"},{"name":"栄町","zip_code":"8913112"},{"name":"桜が丘","zip_code":"8913117"},{"name":"住吉","zip_code":"8913104"},{"name":"天神町","zip_code":"8913115"},{"name":"西之表","zip_code":"8913101"},{"name":"西町","zip_code":"8913111"},{"name":"東町","zip_code":"8913113"},{"name":"古田","zip_code":"8913431"},{"name":"馬毛島","zip_code":"8913118"}]},{"name":"垂水市","divisions":[{"name":"旭町","zip_code":"8912125"},{"name":"市木","zip_code":"8912103"},{"name":"牛根境","zip_code":"8994631"},{"name":"牛根麓","zip_code":"8994632"},{"name":"海潟","zip_code":"8912101"},{"name":"上町","zip_code":"8912122"},{"name":"錦江町","zip_code":"8912124"},{"name":"柊原","zip_code":"8912116"},{"name":"栄町","zip_code":"8912121"},{"name":"潮彩町","zip_code":"8912117"},{"name":"下宮町","zip_code":"8912127"},{"name":"新城","zip_code":"8912114"},{"name":"新御堂","zip_code":"8912111"},{"name":"高城","zip_code":"8912113"},{"name":"田神","zip_code":"8912104"},{"name":"中央町","zip_code":"8912106"},{"name":"中俣","zip_code":"8912102"},{"name":"浜平","zip_code":"8912115"},{"name":"二川","zip_code":"8994633"},{"name":"本城","zip_code":"8912112"},{"name":"本町","zip_code":"8912123"},{"name":"松原町","zip_code":"8912105"},{"name":"南松原町","zip_code":"8912126"}]},{"name":"薩摩川内市","divisions":[{"name":"青山町","zip_code":"8950044"},{"name":"天辰町","zip_code":"8950011"},{"name":"入来町浦之名","zip_code":"8951402"},{"name":"入来町副田","zip_code":"8951401"},{"name":"運動公園町","zip_code":"8950214"},{"name":"網津町","zip_code":"8991925"},{"name":"大小路町","zip_code":"8950076"},{"name":"尾白江町","zip_code":"8950035"},{"name":"鹿島町藺牟田","zip_code":"8961301"},{"name":"勝目町","zip_code":"8950031"},{"name":"上甑町江石","zip_code":"8961203"},{"name":"上甑町小島","zip_code":"8961204"},{"name":"上甑町桑之浦","zip_code":"8961206"},{"name":"上甑町瀬上","zip_code":"8961205"},{"name":"上甑町平良","zip_code":"8961281"},{"name":"上甑町中甑","zip_code":"8961201"},{"name":"上甑町中野","zip_code":"8961202"},{"name":"上川内町","zip_code":"8950067"},{"name":"川永野町","zip_code":"8950033"},{"name":"神田町","zip_code":"8950052"},{"name":"久住町","zip_code":"8950004"},{"name":"楠元町","zip_code":"8950002"},{"name":"隈之城町","zip_code":"8950041"},{"name":"久見崎町","zip_code":"8950132"},{"name":"祁答院町藺牟田","zip_code":"8951502"},{"name":"祁答院町上手","zip_code":"8951503"},{"name":"祁答院町黒木","zip_code":"8951504"},{"name":"祁答院町下手","zip_code":"8951501"},{"name":"国分寺町","zip_code":"8950073"},{"name":"小倉町","zip_code":"8991922"},{"name":"五代町","zip_code":"8950066"},{"name":"木場茶屋町","zip_code":"8950034"},{"name":"御陵下町","zip_code":"8950061"},{"name":"里町里","zip_code":"8961101"},{"name":"下甑町青瀬","zip_code":"8961521"},{"name":"下甑町片野浦","zip_code":"8961602"},{"name":"下甑町瀬々野浦","zip_code":"8961412"},{"name":"下甑町手打","zip_code":"8961601"},{"name":"下甑町長浜","zip_code":"8961411"},{"name":"城上町","zip_code":"8950213"},{"name":"白浜町","zip_code":"8950001"},{"name":"白和町","zip_code":"8950022"},{"name":"大王町","zip_code":"8950062"},{"name":"田海町","zip_code":"8950071"},{"name":"高江町","zip_code":"8950131"},{"name":"高城町","zip_code":"8950211"},{"name":"田崎町","zip_code":"8950006"},{"name":"中郷","zip_code":"8950072"},{"name":"中郷町","zip_code":"8950072"},{"name":"東郷町斧渕","zip_code":"8951106"},{"name":"東郷町宍野","zip_code":"8951101"},{"name":"東郷町鳥丸","zip_code":"8951103"},{"name":"東郷町南瀬","zip_code":"8951105"},{"name":"東郷町藤川","zip_code":"8951102"},{"name":"東郷町山田","zip_code":"8951104"},{"name":"鳥追町","zip_code":"8950024"},{"name":"永利町","zip_code":"8950005"},{"name":"中福良町","zip_code":"8950042"},{"name":"中村町","zip_code":"8950003"},{"name":"西開聞町","zip_code":"8950055"},{"name":"西方町","zip_code":"8991801"},{"name":"西向田町","zip_code":"8950027"},{"name":"花木町","zip_code":"8950064"},{"name":"原田町","zip_code":"8950074"},{"name":"東大小路町","zip_code":"8950075"},{"name":"東開聞町","zip_code":"8950051"},{"name":"東向田町","zip_code":"8950026"},{"name":"冷水町","zip_code":"8950053"},{"name":"平佐町","zip_code":"8950012"},{"name":"樋脇町市比野","zip_code":"8951203"},{"name":"樋脇町倉野","zip_code":"8951201"},{"name":"樋脇町塔之原","zip_code":"8951202"},{"name":"水引町","zip_code":"8991921"},{"name":"港町","zip_code":"8991924"},{"name":"宮内町","zip_code":"8950065"},{"name":"都町","zip_code":"8950043"},{"name":"宮崎町","zip_code":"8950013"},{"name":"宮里町","zip_code":"8950056"},{"name":"向田町","zip_code":"8950025"},{"name":"向田本町","zip_code":"8950021"},{"name":"百次町","zip_code":"8950007"},{"name":"矢倉町","zip_code":"8950036"},{"name":"山之口町","zip_code":"8950032"},{"name":"湯島町","zip_code":"8991923"},{"name":"湯田町","zip_code":"8991802"},{"name":"陽成町","zip_code":"8950212"},{"name":"横馬場町","zip_code":"8950023"},{"name":"寄田町","zip_code":"8950133"},{"name":"若葉町","zip_code":"8950063"},{"name":"若松町","zip_code":"8950054"}]},{"name":"日置市","divisions":[{"name":"伊集院町飯牟礼","zip_code":"8992522"},{"name":"伊集院町猪鹿倉","zip_code":"8992505"},{"name":"伊集院町大田","zip_code":"8993121"},{"name":"伊集院町上神殿","zip_code":"8992512"},{"name":"伊集院町清藤","zip_code":"8992506"},{"name":"伊集院町桑畑","zip_code":"8992441"},{"name":"伊集院町恋之原","zip_code":"8992524"},{"name":"伊集院町郡","zip_code":"8992504"},{"name":"伊集院町下神殿","zip_code":"8992511"},{"name":"伊集院町下谷口","zip_code":"8992501"},{"name":"伊集院町竹之山","zip_code":"8992515"},{"name":"伊集院町土橋","zip_code":"8992516"},{"name":"伊集院町寺脇","zip_code":"8992443"},{"name":"伊集院町徳重","zip_code":"8992502"},{"name":"伊集院町中川","zip_code":"8992514"},{"name":"伊集院町野田","zip_code":"8992442"},{"name":"伊集院町古城","zip_code":"8992523"},{"name":"伊集院町妙円寺","zip_code":"8992503"},{"name":"伊集院町麦生田","zip_code":"8992513"},{"name":"東市来町伊作田","zip_code":"8992203"},{"name":"東市来町神之川","zip_code":"8992204"},{"name":"東市来町寺脇","zip_code":"8992432"},{"name":"東市来町長里","zip_code":"8992202"},{"name":"東市来町南神之川","zip_code":"8992434"},{"name":"東市来町宮田","zip_code":"8992433"},{"name":"東市来町美山","zip_code":"8992431"},{"name":"東市来町湯田","zip_code":"8992201"},{"name":"東市来町養母","zip_code":"8992311"},{"name":"日吉町神之川","zip_code":"8992421"},{"name":"日吉町日置","zip_code":"8993101"},{"name":"日吉町山田","zip_code":"8993102"},{"name":"日吉町吉利","zip_code":"8993103"},{"name":"吹上町今田","zip_code":"8993305"},{"name":"吹上町入来","zip_code":"8993304"},{"name":"吹上町小野","zip_code":"8993306"},{"name":"吹上町花熟里","zip_code":"8993307"},{"name":"吹上町田尻","zip_code":"8993308"},{"name":"吹上町中之里","zip_code":"8993302"},{"name":"吹上町中原","zip_code":"8993301"},{"name":"吹上町永吉","zip_code":"8993221"},{"name":"吹上町湯之浦","zip_code":"8993303"},{"name":"吹上町与倉","zip_code":"8993309"},{"name":"吹上町和田","zip_code":"8993311"}]},{"name":"曽於市","divisions":[{"name":"大隅町荒谷","zip_code":"8998211"},{"name":"大隅町岩川","zip_code":"8998102"},{"name":"大隅町大谷","zip_code":"8998421"},{"name":"大隅町境木町","zip_code":"8998213"},{"name":"大隅町坂元","zip_code":"8998422"},{"name":"大隅町下窪町","zip_code":"8998106"},{"name":"大隅町須田木","zip_code":"8998423"},{"name":"大隅町段中町","zip_code":"8998105"},{"name":"大隅町月野","zip_code":"8998212"},{"name":"大隅町恒吉","zip_code":"8998424"},{"name":"大隅町中之内","zip_code":"8998103"},{"name":"大隅町鳴神町","zip_code":"8998104"},{"name":"末吉町岩崎","zip_code":"8998101"},{"name":"末吉町上町","zip_code":"8998609"},{"name":"末吉町栄町","zip_code":"8998602"},{"name":"末吉町新町","zip_code":"8998603"},{"name":"末吉町諏訪方","zip_code":"8998604"},{"name":"末吉町二之方","zip_code":"8998605"},{"name":"末吉町深川","zip_code":"8998606"},{"name":"末吉町本町","zip_code":"8998607"},{"name":"末吉町南之郷","zip_code":"8998608"},{"name":"財部町北俣","zip_code":"8994102"},{"name":"財部町下財部","zip_code":"8994103"},{"name":"財部町南俣","zip_code":"8994101"}]},{"name":"霧島市","divisions":[{"name":"霧島大窪","zip_code":"8994203"},{"name":"霧島川北","zip_code":"8994204"},{"name":"霧島田口","zip_code":"8994201"},{"name":"霧島永水","zip_code":"8994202"},{"name":"国分上之段","zip_code":"8994461"},{"name":"国分上野原縄文の森","zip_code":"8994318"},{"name":"国分上野原テクノパーク","zip_code":"8994317"},{"name":"国分上井","zip_code":"8994313"},{"name":"国分上小川","zip_code":"8994316"},{"name":"国分川内","zip_code":"8994314"},{"name":"国分川原","zip_code":"8994303"},{"name":"国分清水","zip_code":"8994304"},{"name":"国分剣之宇都町","zip_code":"8994355"},{"name":"国分郡田","zip_code":"8994305"},{"name":"国分敷根","zip_code":"8994462"},{"name":"国分重久","zip_code":"8994301"},{"name":"国分下井","zip_code":"8994463"},{"name":"国分城山町","zip_code":"8994331"},{"name":"国分新町","zip_code":"8994351"},{"name":"国分台明寺","zip_code":"8994302"},{"name":"国分中央","zip_code":"8994332"},{"name":"国分名波町","zip_code":"8994311"},{"name":"国分野口北","zip_code":"8994344"},{"name":"国分野口町","zip_code":"8994342"},{"name":"国分野口西","zip_code":"8994343"},{"name":"国分野口東","zip_code":"8994341"},{"name":"国分姫城","zip_code":"8994354"},{"name":"国分姫城南","zip_code":"8994356"},{"name":"国分広瀬","zip_code":"8994321"},{"name":"国分福島","zip_code":"8994322"},{"name":"国分府中","zip_code":"8994345"},{"name":"国分府中町","zip_code":"8994346"},{"name":"国分松木","zip_code":"8994323"},{"name":"国分松木町","zip_code":"8994325"},{"name":"国分松木東","zip_code":"8994324"},{"name":"国分湊","zip_code":"8994315"},{"name":"国分向花","zip_code":"8994352"},{"name":"国分向花町","zip_code":"8994353"},{"name":"国分山下町","zip_code":"8994312"},{"name":"隼人町朝日","zip_code":"8995118"},{"name":"隼人町内","zip_code":"8995116"},{"name":"隼人町内山田","zip_code":"8995106"},{"name":"隼人町小田","zip_code":"8995105"},{"name":"隼人町小浜","zip_code":"8995103"},{"name":"隼人町嘉例川","zip_code":"8995113"},{"name":"隼人町西光寺","zip_code":"8995114"},{"name":"隼人町神宮","zip_code":"8995121"},{"name":"隼人町真孝","zip_code":"8995102"},{"name":"隼人町住吉","zip_code":"8995101"},{"name":"隼人町東郷","zip_code":"8995115"},{"name":"隼人町野久美田","zip_code":"8995104"},{"name":"隼人町姫城","zip_code":"8995111"},{"name":"隼人町松永","zip_code":"8995112"},{"name":"隼人町見次","zip_code":"8995117"},{"name":"福山町佳例川","zip_code":"8994504"},{"name":"福山町福沢","zip_code":"8994503"},{"name":"福山町福地","zip_code":"8994502"},{"name":"福山町福山","zip_code":"8994501"},{"name":"牧園町上中津川","zip_code":"8996604"},{"name":"牧園町三体堂","zip_code":"8996602"},{"name":"牧園町下中津川","zip_code":"8996506"},{"name":"牧園町宿窪田","zip_code":"8996507"},{"name":"牧園町高千穂","zip_code":"8996503"},{"name":"牧園町万膳","zip_code":"8996601"},{"name":"牧園町持松","zip_code":"8996505"},{"name":"溝辺町有川","zip_code":"8996401"},{"name":"溝辺町崎森","zip_code":"8996405"},{"name":"溝辺町竹子","zip_code":"8996402"},{"name":"溝辺町麓","zip_code":"8996404"},{"name":"溝辺町三縄","zip_code":"8996403"},{"name":"横川町上ノ","zip_code":"8996301"},{"name":"横川町下ノ","zip_code":"8996302"},{"name":"横川町中ノ","zip_code":"8996303"}]},{"name":"いちき串木野市","divisions":[{"name":"愛木町","zip_code":"8960061"},{"name":"曙町","zip_code":"8960001"},{"name":"旭町","zip_code":"8960015"},{"name":"荒川","zip_code":"8960065"},{"name":"浦和町","zip_code":"8960036"},{"name":"恵比須町","zip_code":"8960027"},{"name":"大里","zip_code":"8992103"},{"name":"大原町","zip_code":"8960011"},{"name":"御倉町","zip_code":"8960025"},{"name":"海瀬","zip_code":"8960057"},{"name":"春日町","zip_code":"8960002"},{"name":"河内","zip_code":"8960079"},{"name":"川上","zip_code":"8992102"},{"name":"上名","zip_code":"8960052"},{"name":"冠嶽","zip_code":"8960051"},{"name":"北浜町","zip_code":"8960041"},{"name":"京町","zip_code":"8960003"},{"name":"金山","zip_code":"8960075"},{"name":"金山下","zip_code":"8960074"},{"name":"口之町","zip_code":"8960063"},{"name":"小瀬町","zip_code":"8960034"},{"name":"栄町","zip_code":"8960013"},{"name":"桜町","zip_code":"8960016"},{"name":"薩摩山","zip_code":"8960072"},{"name":"汐見町","zip_code":"8960004"},{"name":"塩屋町","zip_code":"8960023"},{"name":"下名","zip_code":"8960053"},{"name":"昭和通","zip_code":"8960026"},{"name":"新生町","zip_code":"8960035"},{"name":"住吉町","zip_code":"8960021"},{"name":"西薩町","zip_code":"8960046"},{"name":"生福","zip_code":"8960078"},{"name":"芹ケ野","zip_code":"8960076"},{"name":"高見町","zip_code":"8960017"},{"name":"照島","zip_code":"8960055"},{"name":"中尾町","zip_code":"8960012"},{"name":"長崎町","zip_code":"8960033"},{"name":"西塩田町","zip_code":"8960005"},{"name":"西島平町","zip_code":"8960032"},{"name":"西浜町","zip_code":"8960044"},{"name":"野下","zip_code":"8960073"},{"name":"野元","zip_code":"8960066"},{"name":"袴田","zip_code":"8960058"},{"name":"羽島","zip_code":"8960064"},{"name":"浜ケ城","zip_code":"8960069"},{"name":"浜田町","zip_code":"8960062"},{"name":"東塩田町","zip_code":"8960006"},{"name":"東島平町","zip_code":"8960031"},{"name":"日出町","zip_code":"8960054"},{"name":"ひばりが丘","zip_code":"8960028"},{"name":"平江","zip_code":"8960067"},{"name":"深田上","zip_code":"8960071"},{"name":"深田下","zip_code":"8960077"},{"name":"別府","zip_code":"8960037"},{"name":"まぐろ本町","zip_code":"8960045"},{"name":"美住町","zip_code":"8960024"},{"name":"三井","zip_code":"8960068"},{"name":"緑町","zip_code":"8960022"},{"name":"港町","zip_code":"8960043"},{"name":"湊町","zip_code":"8992101"},{"name":"本浜町","zip_code":"8960042"},{"name":"元町","zip_code":"8960014"},{"name":"八房","zip_code":"8960056"}]},{"name":"南さつま市","divisions":[{"name":"大浦町","zip_code":"8980221"},{"name":"笠沙町赤生木","zip_code":"8971302"},{"name":"笠沙町片浦","zip_code":"8971301"},{"name":"加世田内山田","zip_code":"8970004"},{"name":"加世田川畑","zip_code":"8970003"},{"name":"加世田小湊","zip_code":"8971122"},{"name":"加世田地頭所","zip_code":"8970008"},{"name":"加世田白亀","zip_code":"8970007"},{"name":"加世田高橋","zip_code":"8971123"},{"name":"加世田武田","zip_code":"8970002"},{"name":"加世田津貫","zip_code":"8993611"},{"name":"加世田唐仁原","zip_code":"8971121"},{"name":"加世田ハーモニー","zip_code":"8970009"},{"name":"加世田東本町","zip_code":"8970031"},{"name":"加世田麓町","zip_code":"8970005"},{"name":"加世田本町","zip_code":"8970006"},{"name":"加世田益山","zip_code":"8971125"},{"name":"加世田宮原","zip_code":"8971124"},{"name":"加世田村原","zip_code":"8970001"},{"name":"金峰町池辺","zip_code":"8993405"},{"name":"金峰町浦之名","zip_code":"8993516"},{"name":"金峰町大野","zip_code":"8993401"},{"name":"金峰町尾下","zip_code":"8993403"},{"name":"金峰町白川","zip_code":"8993513"},{"name":"金峰町大坂","zip_code":"8993402"},{"name":"金峰町高橋","zip_code":"8993404"},{"name":"金峰町中津野","zip_code":"8993515"},{"name":"金峰町新山","zip_code":"8993514"},{"name":"金峰町花瀬","zip_code":"8993512"},{"name":"金峰町宮崎","zip_code":"8993511"},{"name":"坊津町秋目","zip_code":"8980212"},{"name":"坊津町久志","zip_code":"8980211"},{"name":"坊津町泊","zip_code":"8980102"},{"name":"坊津町坊","zip_code":"8980101"}]},{"name":"志布志市","divisions":[{"name":"有明町伊崎田","zip_code":"8997401"},{"name":"有明町野井倉","zip_code":"8997402"},{"name":"有明町野神","zip_code":"8998312"},{"name":"有明町原田","zip_code":"8997511"},{"name":"有明町蓬原","zip_code":"8997403"},{"name":"有明町山重","zip_code":"8997513"},{"name":"志布志町安楽","zip_code":"8997104"},{"name":"志布志町内之倉","zip_code":"8997211"},{"name":"志布志町志布志","zip_code":"8997103"},{"name":"志布志町田之浦","zip_code":"8997212"},{"name":"志布志町帖","zip_code":"8997102"},{"name":"志布志町夏井","zip_code":"8997101"},{"name":"松山町尾野見","zip_code":"8997603"},{"name":"松山町新橋","zip_code":"8997601"},{"name":"松山町泰野","zip_code":"8997602"}]},{"name":"奄美市","divisions":[{"name":"笠利町宇宿","zip_code":"8940501"},{"name":"笠利町笠利","zip_code":"8940622"},{"name":"笠利町川上","zip_code":"8940625"},{"name":"笠利町喜瀬","zip_code":"8940507"},{"name":"笠利町里","zip_code":"8940511"},{"name":"笠利町佐仁","zip_code":"8940627"},{"name":"笠利町須野","zip_code":"8940624"},{"name":"笠利町節田","zip_code":"8940504"},{"name":"笠利町外金久","zip_code":"8940513"},{"name":"笠利町平","zip_code":"8940505"},{"name":"笠利町手花部","zip_code":"8940506"},{"name":"笠利町中金久","zip_code":"8940512"},{"name":"笠利町辺留","zip_code":"8940623"},{"name":"笠利町万屋","zip_code":"8940502"},{"name":"笠利町屋仁","zip_code":"8940626"},{"name":"笠利町用","zip_code":"8940621"},{"name":"笠利町用安","zip_code":"8940508"},{"name":"笠利町和野","zip_code":"8940503"},{"name":"住用町石原","zip_code":"8941201"},{"name":"住用町市","zip_code":"8941321"},{"name":"住用町神屋","zip_code":"8941203"},{"name":"住用町川内","zip_code":"8941115"},{"name":"住用町城","zip_code":"8941111"},{"name":"住用町摺勝","zip_code":"8941116"},{"name":"住用町西仲間","zip_code":"8941202"},{"name":"住用町東仲間","zip_code":"8941114"},{"name":"住用町見里","zip_code":"8941113"},{"name":"住用町役勝","zip_code":"8941205"},{"name":"住用町山間","zip_code":"8941304"},{"name":"住用町和瀬","zip_code":"8941112"},{"name":"名瀬朝戸","zip_code":"8940773"},{"name":"名瀬朝仁","zip_code":"8940043"},{"name":"名瀬朝仁新町","zip_code":"8940041"},{"name":"名瀬朝仁町","zip_code":"8940042"},{"name":"名瀬朝日町","zip_code":"8940061"},{"name":"名瀬芦花部","zip_code":"8940351"},{"name":"名瀬有屋","zip_code":"8940002"},{"name":"名瀬有屋町","zip_code":"8940062"},{"name":"名瀬有良","zip_code":"8940352"},{"name":"名瀬安勝町","zip_code":"8940011"},{"name":"名瀬石橋町","zip_code":"8940017"},{"name":"名瀬伊津部勝","zip_code":"8940774"},{"name":"名瀬伊津部町","zip_code":"8940021"},{"name":"名瀬井根町","zip_code":"8940024"},{"name":"名瀬入舟町","zip_code":"8940034"},{"name":"名瀬浦上","zip_code":"8940108"},{"name":"名瀬浦上町","zip_code":"8940068"},{"name":"名瀬春日町","zip_code":"8940013"},{"name":"名瀬金久町","zip_code":"8940031"},{"name":"名瀬久里町","zip_code":"8940022"},{"name":"名瀬小宿","zip_code":"8940046"},{"name":"名瀬小浜町","zip_code":"8940006"},{"name":"名瀬小俣町","zip_code":"8940012"},{"name":"名瀬小湊","zip_code":"8940771"},{"name":"名瀬幸町","zip_code":"8940025"},{"name":"名瀬崎原","zip_code":"8940776"},{"name":"名瀬佐大熊町","zip_code":"8940005"},{"name":"名瀬塩浜町","zip_code":"8940035"},{"name":"名瀬末広町","zip_code":"8940027"},{"name":"名瀬大熊","zip_code":"8940001"},{"name":"名瀬大熊町","zip_code":"8940009"},{"name":"名瀬知名瀬","zip_code":"8940047"},{"name":"名瀬仲勝","zip_code":"8940003"},{"name":"名瀬仲勝町","zip_code":"8940063"},{"name":"名瀬永田町","zip_code":"8940023"},{"name":"名瀬長浜町","zip_code":"8940036"},{"name":"名瀬名瀬勝","zip_code":"8940775"},{"name":"名瀬西仲勝","zip_code":"8940772"},{"name":"名瀬根瀬部","zip_code":"8940048"},{"name":"名瀬鳩浜町","zip_code":"8940004"},{"name":"名瀬浜里町","zip_code":"8940044"},{"name":"名瀬平田町","zip_code":"8940014"},{"name":"名瀬平松町","zip_code":"8940045"},{"name":"名瀬古田町","zip_code":"8940016"},{"name":"名瀬真名津町","zip_code":"8940015"},{"name":"名瀬港町","zip_code":"8940026"},{"name":"名瀬柳町","zip_code":"8940032"},{"name":"名瀬矢之脇町","zip_code":"8940033"},{"name":"名瀬和光町","zip_code":"8940007"}]},{"name":"南九州市","divisions":[{"name":"頴娃町上別府","zip_code":"8910705"},{"name":"頴娃町郡","zip_code":"8910701"},{"name":"頴娃町御領","zip_code":"8910703"},{"name":"頴娃町別府","zip_code":"8910704"},{"name":"頴娃町牧之内","zip_code":"8910702"},{"name":"川辺町今田","zip_code":"8970212"},{"name":"川辺町小野","zip_code":"8970213"},{"name":"川辺町上山田","zip_code":"8970131"},{"name":"川辺町清水","zip_code":"8970202"},{"name":"川辺町神殿","zip_code":"8970201"},{"name":"川辺町下山田","zip_code":"8970133"},{"name":"川辺町高田","zip_code":"8970223"},{"name":"川辺町田部田","zip_code":"8970221"},{"name":"川辺町永田","zip_code":"8970222"},{"name":"川辺町中山田","zip_code":"8970132"},{"name":"川辺町野崎","zip_code":"8970203"},{"name":"川辺町野間","zip_code":"8970205"},{"name":"川辺町平山","zip_code":"8970215"},{"name":"川辺町古殿","zip_code":"8970204"},{"name":"川辺町宮","zip_code":"8970214"},{"name":"川辺町本別府","zip_code":"8970224"},{"name":"川辺町両添","zip_code":"8970211"},{"name":"知覧町厚地","zip_code":"8970301"},{"name":"知覧町郡","zip_code":"8970302"},{"name":"知覧町塩屋","zip_code":"8910911"},{"name":"知覧町瀬世","zip_code":"8970305"},{"name":"知覧町永里","zip_code":"8970303"},{"name":"知覧町西元","zip_code":"8970306"},{"name":"知覧町東別府","zip_code":"8970304"},{"name":"知覧町南別府","zip_code":"8910912"}]},{"name":"伊佐市","divisions":[{"name":"大口青木","zip_code":"8952504"},{"name":"大口牛尾","zip_code":"8952501"},{"name":"大口大島","zip_code":"8952522"},{"name":"大口大田","zip_code":"8952507"},{"name":"大口金波田","zip_code":"8952523"},{"name":"大口上町","zip_code":"8952513"},{"name":"大口川岩瀬","zip_code":"8952528"},{"name":"大口木ノ氏","zip_code":"8952502"},{"name":"大口小川内","zip_code":"8952634"},{"name":"大口小木原","zip_code":"8952631"},{"name":"大口里","zip_code":"8952511"},{"name":"大口篠原","zip_code":"8952503"},{"name":"大口下殿","zip_code":"8952525"},{"name":"大口白木","zip_code":"8952529"},{"name":"大口曽木","zip_code":"8952441"},{"name":"大口田代","zip_code":"8952527"},{"name":"大口堂崎","zip_code":"8952524"},{"name":"大口鳥巣","zip_code":"8952521"},{"name":"大口原田","zip_code":"8952506"},{"name":"大口針持","zip_code":"8952442"},{"name":"大口平出水","zip_code":"8952633"},{"name":"大口渕辺","zip_code":"8952632"},{"name":"大口宮人","zip_code":"8952526"},{"name":"大口目丸","zip_code":"8952505"},{"name":"大口元町","zip_code":"8952512"},{"name":"大口山野","zip_code":"8952635"},{"name":"菱刈荒田","zip_code":"8952811"},{"name":"菱刈市山","zip_code":"8952704"},{"name":"菱刈川北","zip_code":"8952708"},{"name":"菱刈川南","zip_code":"8952812"},{"name":"菱刈重留","zip_code":"8952705"},{"name":"菱刈下手","zip_code":"8952702"},{"name":"菱刈田中","zip_code":"8952706"},{"name":"菱刈徳辺","zip_code":"8952707"},{"name":"菱刈花北","zip_code":"8952703"},{"name":"菱刈前目","zip_code":"8952701"},{"name":"菱刈南浦","zip_code":"8952813"}]},{"name":"姶良市","divisions":[{"name":"池島町","zip_code":"8995653"},{"name":"大山","zip_code":"8995544"},{"name":"加治木町朝日町","zip_code":"8995213"},{"name":"加治木町仮屋町","zip_code":"8995214"},{"name":"加治木町木田","zip_code":"8995241"},{"name":"加治木町錦江町","zip_code":"8995222"},{"name":"加治木町小山田","zip_code":"8995203"},{"name":"加治木町新生町","zip_code":"8995223"},{"name":"加治木町新富町","zip_code":"8995211"},{"name":"加治木町諏訪町","zip_code":"8995212"},{"name":"加治木町反土","zip_code":"8995231"},{"name":"加治木町西別府","zip_code":"8995201"},{"name":"加治木町日木山","zip_code":"8995204"},{"name":"加治木町辺川","zip_code":"8995202"},{"name":"加治木町港町","zip_code":"8995221"},{"name":"加治木町本町","zip_code":"8995215"},{"name":"上名","zip_code":"8995542"},{"name":"蒲生町漆","zip_code":"8995301"},{"name":"蒲生町上久徳","zip_code":"8995302"},{"name":"蒲生町北","zip_code":"8995303"},{"name":"蒲生町下久徳","zip_code":"8995304"},{"name":"蒲生町白男","zip_code":"8995305"},{"name":"蒲生町西浦","zip_code":"8995306"},{"name":"蒲生町久末","zip_code":"8995307"},{"name":"蒲生町米丸","zip_code":"8995308"},{"name":"北山","zip_code":"8995541"},{"name":"木津志","zip_code":"8995545"},{"name":"三拾町","zip_code":"8995412"},{"name":"下名","zip_code":"8995543"},{"name":"住吉","zip_code":"8995405"},{"name":"寺師","zip_code":"8995401"},{"name":"豊留","zip_code":"8995413"},{"name":"永池町","zip_code":"8995654"},{"name":"永瀬","zip_code":"8995404"},{"name":"中津野","zip_code":"8995402"},{"name":"鍋倉","zip_code":"8995411"},{"name":"西姶良","zip_code":"8995656"},{"name":"西宮島町","zip_code":"8995433"},{"name":"西餠田","zip_code":"8995431"},{"name":"東餠田","zip_code":"8995421"},{"name":"平松","zip_code":"8995652"},{"name":"深水","zip_code":"8995414"},{"name":"船津","zip_code":"8995655"},{"name":"増田","zip_code":"8995403"},{"name":"松原町","zip_code":"8995422"},{"name":"宮島町","zip_code":"8995432"},{"name":"脇元","zip_code":"8995651"}]},{"name":"鹿児島郡三島村","divisions":[{"name":"硫黄島","zip_code":"8900901"},{"name":"黒島","zip_code":"8900902"},{"name":"竹島","zip_code":"8900903"}]},{"name":"鹿児島郡十島村","divisions":[{"name":"悪石島","zip_code":"8915204"},{"name":"口之島","zip_code":"8915101"},{"name":"小宝島","zip_code":"8915205"},{"name":"諏訪之瀬島","zip_code":"8915203"},{"name":"平島","zip_code":"8915202"},{"name":"宝島","zip_code":"8915301"},{"name":"中之島","zip_code":"8915201"}]},{"name":"薩摩郡さつま町","divisions":[{"name":"旭町","zip_code":"8951814"},{"name":"柏原","zip_code":"8952104"},{"name":"柊野","zip_code":"8952131"},{"name":"久富木","zip_code":"8951722"},{"name":"求名","zip_code":"8952201"},{"name":"神子","zip_code":"8952102"},{"name":"紫尾","zip_code":"8952103"},{"name":"白男川","zip_code":"8951805"},{"name":"田原","zip_code":"8951802"},{"name":"鶴田","zip_code":"8952101"},{"name":"時吉","zip_code":"8951816"},{"name":"轟町","zip_code":"8951813"},{"name":"泊野","zip_code":"8951806"},{"name":"虎居","zip_code":"8951811"},{"name":"虎居町","zip_code":"8951812"},{"name":"中津川","zip_code":"8952202"},{"name":"永野","zip_code":"8952203"},{"name":"西新町","zip_code":"8951815"},{"name":"平川","zip_code":"8951807"},{"name":"広瀬","zip_code":"8951801"},{"name":"二渡","zip_code":"8951723"},{"name":"船木","zip_code":"8951804"},{"name":"宮之城屋地","zip_code":"8951803"},{"name":"山崎","zip_code":"8951721"},{"name":"湯田","zip_code":"8951817"}]},{"name":"出水郡長島町","divisions":[{"name":"浦底","zip_code":"8991402"},{"name":"川床","zip_code":"8991212"},{"name":"蔵之元","zip_code":"8991301"},{"name":"指江","zip_code":"8991303"},{"name":"獅子島","zip_code":"8991501"},{"name":"下山門野","zip_code":"8991321"},{"name":"城川内","zip_code":"8991304"},{"name":"諸浦","zip_code":"8991403"},{"name":"鷹巣","zip_code":"8991401"},{"name":"平尾","zip_code":"8991302"},{"name":"山門野","zip_code":"8991211"}]},{"name":"姶良郡湧水町","divisions":[{"name":"稲葉崎","zip_code":"8996204"},{"name":"川添","zip_code":"8996103"},{"name":"川西","zip_code":"8996104"},{"name":"北方","zip_code":"8996202"},{"name":"幸田","zip_code":"8996205"},{"name":"木場","zip_code":"8996201"},{"name":"田尾原","zip_code":"8996203"},{"name":"恒次","zip_code":"8996206"},{"name":"鶴丸","zip_code":"8996101"},{"name":"中津川","zip_code":"8996102"},{"name":"般若寺","zip_code":"8996105"},{"name":"米永","zip_code":"8996207"}]},{"name":"曽於郡大崎町","divisions":[{"name":"井俣","zip_code":"8997309"},{"name":"岡別府","zip_code":"8997308"},{"name":"假宿","zip_code":"8997305"},{"name":"神領","zip_code":"8997302"},{"name":"永吉","zip_code":"8997306"},{"name":"野方","zip_code":"8998313"},{"name":"菱田","zip_code":"8997301"},{"name":"益丸","zip_code":"8997303"},{"name":"持留","zip_code":"8997307"},{"name":"横瀬","zip_code":"8997304"}]},{"name":"肝属郡東串良町","divisions":[{"name":"池之原","zip_code":"8931612"},{"name":"岩弘","zip_code":"8931611"},{"name":"川東","zip_code":"8931615"},{"name":"川西","zip_code":"8931613"},{"name":"新川西","zip_code":"8931614"}]},{"name":"肝属郡錦江町","divisions":[{"name":"神川","zip_code":"8932301"},{"name":"城元","zip_code":"8932302"},{"name":"田代川原","zip_code":"8932402"},{"name":"田代麓","zip_code":"8932401"},{"name":"馬場","zip_code":"8932303"}]},{"name":"肝属郡南大隅町","divisions":[{"name":"佐多伊座敷","zip_code":"8932601"},{"name":"佐多郡","zip_code":"8932603"},{"name":"佐多辺塚","zip_code":"8932602"},{"name":"佐多馬籠","zip_code":"8932604"},{"name":"根占川北","zip_code":"8932501"},{"name":"根占川南","zip_code":"8932502"},{"name":"根占辺田","zip_code":"8932505"},{"name":"根占山本","zip_code":"8932504"},{"name":"根占横別府","zip_code":"8932503"}]},{"name":"肝属郡肝付町","divisions":[{"name":"後田","zip_code":"8931203"},{"name":"岸良","zip_code":"8931511"},{"name":"北方","zip_code":"8931401"},{"name":"富山","zip_code":"8931204"},{"name":"新富","zip_code":"8931207"},{"name":"野崎","zip_code":"8931201"},{"name":"波見","zip_code":"8931202"},{"name":"前田","zip_code":"8931206"},{"name":"南方","zip_code":"8931402"},{"name":"宮下","zip_code":"8931205"}]},{"name":"熊毛郡中種子町","divisions":[{"name":"坂井","zip_code":"8913606"},{"name":"田島","zip_code":"8913607"},{"name":"納官","zip_code":"8913601"},{"name":"野間","zip_code":"8913604"},{"name":"牧川","zip_code":"8913602"},{"name":"増田","zip_code":"8913603"},{"name":"油久","zip_code":"8913605"}]},{"name":"熊毛郡南種子町","divisions":[{"name":"茎永","zip_code":"8913703"},{"name":"島間","zip_code":"8913706"},{"name":"中之上","zip_code":"8913701"},{"name":"中之下","zip_code":"8913704"},{"name":"西之","zip_code":"8913705"},{"name":"平山","zip_code":"8913702"}]},{"name":"熊毛郡屋久島町","divisions":[{"name":"安房","zip_code":"8914311"},{"name":"一湊","zip_code":"8914203"},{"name":"尾之間","zip_code":"8914404"},{"name":"楠川","zip_code":"8914206"},{"name":"口永良部島","zip_code":"8914208"},{"name":"栗生","zip_code":"8914409"},{"name":"小島","zip_code":"8914405"},{"name":"小瀬田","zip_code":"8914207"},{"name":"志戸子","zip_code":"8914204"},{"name":"永田","zip_code":"8914201"},{"name":"中間","zip_code":"8914408"},{"name":"原","zip_code":"8914403"},{"name":"平内","zip_code":"8914406"},{"name":"船行","zip_code":"8914312"},{"name":"宮之浦","zip_code":"8914205"},{"name":"麦生","zip_code":"8914401"},{"name":"湯泊","zip_code":"8914407"},{"name":"吉田","zip_code":"8914202"}]},{"name":"大島郡大和村","divisions":[{"name":"今里","zip_code":"8943214"},{"name":"大金久","zip_code":"8943107"},{"name":"大棚","zip_code":"8943106"},{"name":"思勝","zip_code":"8943104"},{"name":"国直","zip_code":"8943101"},{"name":"志戸勘","zip_code":"8943213"},{"name":"津名久","zip_code":"8943103"},{"name":"戸円","zip_code":"8943211"},{"name":"名音","zip_code":"8943212"},{"name":"大和浜","zip_code":"8943105"},{"name":"湯湾釜","zip_code":"8943102"}]},{"name":"大島郡宇検村","divisions":[{"name":"芦検","zip_code":"8943302"},{"name":"阿室","zip_code":"8943632"},{"name":"生勝","zip_code":"8943413"},{"name":"石良","zip_code":"8943305"},{"name":"宇検","zip_code":"8943411"},{"name":"久志","zip_code":"8943412"},{"name":"佐念","zip_code":"8943522"},{"name":"須古","zip_code":"8943304"},{"name":"田検","zip_code":"8943303"},{"name":"名柄","zip_code":"8943521"},{"name":"部連","zip_code":"8943523"},{"name":"平田","zip_code":"8943631"},{"name":"屋鈍","zip_code":"8943633"},{"name":"湯湾","zip_code":"8943301"}]},{"name":"大島郡瀬戸内町","divisions":[{"name":"秋徳","zip_code":"8942234"},{"name":"阿木名","zip_code":"8941511"},{"name":"阿多地","zip_code":"8942411"},{"name":"阿鉄","zip_code":"8941744"},{"name":"網野子","zip_code":"8941513"},{"name":"阿室釜","zip_code":"8941742"},{"name":"池地","zip_code":"8942501"},{"name":"生間","zip_code":"8942142"},{"name":"伊子茂","zip_code":"8942236"},{"name":"伊須","zip_code":"8941524"},{"name":"請阿室","zip_code":"8942502"},{"name":"於斉","zip_code":"8942235"},{"name":"押角","zip_code":"8942231"},{"name":"勝浦","zip_code":"8941512"},{"name":"勝能","zip_code":"8942232"},{"name":"嘉鉄","zip_code":"8941522"},{"name":"嘉徳","zip_code":"8941515"},{"name":"嘉入","zip_code":"8942413"},{"name":"木慈","zip_code":"8942417"},{"name":"久慈","zip_code":"8941851"},{"name":"管鈍","zip_code":"8941854"},{"name":"久根津","zip_code":"8941746"},{"name":"花天","zip_code":"8941853"},{"name":"花富","zip_code":"8942237"},{"name":"古志","zip_code":"8941852"},{"name":"小名瀬","zip_code":"8941743"},{"name":"古仁屋","zip_code":"8941508"},{"name":"古仁屋瀬久井西","zip_code":"8941510"},{"name":"古仁屋瀬久井東","zip_code":"8941509"},{"name":"薩川","zip_code":"8942402"},{"name":"実久","zip_code":"8942403"},{"name":"篠川","zip_code":"8941741"},{"name":"芝","zip_code":"8942404"},{"name":"諸数","zip_code":"8942144"},{"name":"諸鈍","zip_code":"8942141"},{"name":"須子茂","zip_code":"8942412"},{"name":"清水","zip_code":"8941521"},{"name":"瀬相","zip_code":"8942322"},{"name":"瀬武","zip_code":"8942401"},{"name":"節子","zip_code":"8941514"},{"name":"蘇刈","zip_code":"8941523"},{"name":"武名","zip_code":"8942416"},{"name":"知之浦","zip_code":"8942415"},{"name":"手安","zip_code":"8941531"},{"name":"渡連","zip_code":"8942143"},{"name":"西阿室","zip_code":"8942321"},{"name":"西古見","zip_code":"8941855"},{"name":"野見山","zip_code":"8942233"},{"name":"俵","zip_code":"8942323"},{"name":"三浦","zip_code":"8942414"},{"name":"油井","zip_code":"8941745"},{"name":"与路","zip_code":"8942601"}]},{"name":"大島郡龍郷町","divisions":[{"name":"赤尾木","zip_code":"8940411"},{"name":"秋名","zip_code":"8940333"},{"name":"芦徳","zip_code":"8940412"},{"name":"安木屋場","zip_code":"8940323"},{"name":"幾里","zip_code":"8940332"},{"name":"浦","zip_code":"8940104"},{"name":"円","zip_code":"8940324"},{"name":"大勝","zip_code":"8940105"},{"name":"嘉渡","zip_code":"8940331"},{"name":"久場","zip_code":"8940322"},{"name":"瀬留","zip_code":"8940102"},{"name":"龍郷","zip_code":"8940321"},{"name":"玉里","zip_code":"8940103"},{"name":"戸口","zip_code":"8940107"},{"name":"中勝","zip_code":"8940106"},{"name":"屋入","zip_code":"8940101"}]},{"name":"大島郡喜界町","divisions":[{"name":"赤連","zip_code":"8916201"},{"name":"阿伝","zip_code":"8916162"},{"name":"荒木","zip_code":"8916231"},{"name":"池治","zip_code":"8916221"},{"name":"伊砂","zip_code":"8916217"},{"name":"伊実久","zip_code":"8916141"},{"name":"浦原","zip_code":"8916228"},{"name":"大朝戸","zip_code":"8916213"},{"name":"小野津","zip_code":"8916142"},{"name":"嘉鈍","zip_code":"8916161"},{"name":"上嘉鉄","zip_code":"8916233"},{"name":"川嶺","zip_code":"8916227"},{"name":"城久","zip_code":"8916224"},{"name":"花良治","zip_code":"8916164"},{"name":"坂嶺","zip_code":"8916216"},{"name":"先山","zip_code":"8916229"},{"name":"佐手久","zip_code":"8916144"},{"name":"塩道","zip_code":"8916151"},{"name":"志戸桶","zip_code":"8916143"},{"name":"島中","zip_code":"8916222"},{"name":"白水","zip_code":"8916154"},{"name":"早町","zip_code":"8916152"},{"name":"滝川","zip_code":"8916223"},{"name":"手久津久","zip_code":"8916232"},{"name":"中熊","zip_code":"8916215"},{"name":"中里","zip_code":"8916203"},{"name":"中間","zip_code":"8916211"},{"name":"長嶺","zip_code":"8916153"},{"name":"西目","zip_code":"8916214"},{"name":"羽里","zip_code":"8916226"},{"name":"山田","zip_code":"8916225"},{"name":"湾","zip_code":"8916202"}]},{"name":"大島郡徳之島町","divisions":[{"name":"旭ケ丘","zip_code":"8917116"},{"name":"井之川","zip_code":"8917114"},{"name":"尾母","zip_code":"8917104"},{"name":"金見","zip_code":"8917422"},{"name":"神之嶺","zip_code":"8917113"},{"name":"亀津","zip_code":"8917101"},{"name":"亀徳","zip_code":"8917102"},{"name":"花徳","zip_code":"8917425"},{"name":"山","zip_code":"8917423"},{"name":"下久志","zip_code":"8917115"},{"name":"諸田","zip_code":"8917112"},{"name":"白井","zip_code":"8917105"},{"name":"手々","zip_code":"8917421"},{"name":"徳和瀬","zip_code":"8917111"},{"name":"轟木","zip_code":"8917424"},{"name":"母間","zip_code":"8917426"},{"name":"南原","zip_code":"8917103"}]},{"name":"大島郡天城町","divisions":[{"name":"浅間","zip_code":"8917605"},{"name":"天城","zip_code":"8917611"},{"name":"大津川","zip_code":"8917622"},{"name":"岡前","zip_code":"8917603"},{"name":"兼久","zip_code":"8917621"},{"name":"瀬滝","zip_code":"8917623"},{"name":"当部","zip_code":"8917624"},{"name":"西阿木名","zip_code":"8917731"},{"name":"平土野","zip_code":"8917612"},{"name":"前野","zip_code":"8917604"},{"name":"松原","zip_code":"8917602"},{"name":"与名間","zip_code":"8917601"}]},{"name":"大島郡伊仙町","divisions":[{"name":"阿権","zip_code":"8918322"},{"name":"阿三","zip_code":"8918221"},{"name":"伊仙","zip_code":"8918201"},{"name":"糸木名","zip_code":"8918324"},{"name":"犬田布","zip_code":"8918327"},{"name":"面縄","zip_code":"8918114"},{"name":"喜念","zip_code":"8918111"},{"name":"木之香","zip_code":"8918323"},{"name":"検福","zip_code":"8918216"},{"name":"小島","zip_code":"8918329"},{"name":"崎原","zip_code":"8918328"},{"name":"佐弁","zip_code":"8918112"},{"name":"中山","zip_code":"8918117"},{"name":"馬根","zip_code":"8918326"},{"name":"古里","zip_code":"8918115"},{"name":"目手久","zip_code":"8918113"},{"name":"八重竿","zip_code":"8918325"}]},{"name":"大島郡和泊町","divisions":[{"name":"畦布","zip_code":"8919114"},{"name":"伊延","zip_code":"8919115"},{"name":"上手々知名","zip_code":"8919116"},{"name":"内城","zip_code":"8919131"},{"name":"大城","zip_code":"8919125"},{"name":"喜美留","zip_code":"8919102"},{"name":"国頭","zip_code":"8919101"},{"name":"後蘭","zip_code":"8919132"},{"name":"瀬名","zip_code":"8919136"},{"name":"谷山","zip_code":"8919133"},{"name":"玉城","zip_code":"8919122"},{"name":"出花","zip_code":"8919103"},{"name":"手々知名","zip_code":"8919111"},{"name":"永嶺","zip_code":"8919135"},{"name":"仁志","zip_code":"8919134"},{"name":"西原","zip_code":"8919104"},{"name":"根折","zip_code":"8919121"},{"name":"古里","zip_code":"8919124"},{"name":"皆川","zip_code":"8919123"},{"name":"和","zip_code":"8919113"},{"name":"和泊","zip_code":"8919112"}]},{"name":"大島郡知名町","divisions":[{"name":"赤嶺","zip_code":"8919206"},{"name":"芦清良","zip_code":"8919211"},{"name":"余多","zip_code":"8919201"},{"name":"大津勘","zip_code":"8919221"},{"name":"上城","zip_code":"8919234"},{"name":"上平川","zip_code":"8919204"},{"name":"久志検","zip_code":"8919205"},{"name":"黒貫","zip_code":"8919212"},{"name":"竿津","zip_code":"8919207"},{"name":"下城","zip_code":"8919233"},{"name":"下平川","zip_code":"8919203"},{"name":"新城","zip_code":"8919232"},{"name":"住吉","zip_code":"8919223"},{"name":"瀬利覚","zip_code":"8919213"},{"name":"田皆","zip_code":"8919231"},{"name":"知名","zip_code":"8919214"},{"name":"徳時","zip_code":"8919222"},{"name":"正名","zip_code":"8919224"},{"name":"屋子母","zip_code":"8919215"},{"name":"屋者","zip_code":"8919202"}]},{"name":"大島郡与論町","divisions":[{"name":"朝戸","zip_code":"8919304"},{"name":"叶","zip_code":"8919309"},{"name":"城","zip_code":"8919303"},{"name":"茶花","zip_code":"8919301"},{"name":"那間","zip_code":"8919308"},{"name":"西区","zip_code":"8919305"},{"name":"東区","zip_code":"8919306"},{"name":"古里","zip_code":"8919307"},{"name":"立長","zip_code":"8919302"}]}]}