{"name":"沖縄県","cities":[{"name":"那覇市","divisions":[{"name":"赤嶺","zip_code":"9010154"},{"name":"曙","zip_code":"9000002"},{"name":"安里","zip_code":"9020067"},{"name":"旭町","zip_code":"9000029"},{"name":"安次嶺","zip_code":"9010143"},{"name":"安謝","zip_code":"9000003"},{"name":"天久","zip_code":"9000005"},{"name":"泉崎","zip_code":"9000021"},{"name":"上之屋","zip_code":"9000011"},{"name":"宇栄原","zip_code":"9010153"},{"name":"上間","zip_code":"9020073"},{"name":"奥武山町","zip_code":"9000026"},{"name":"大嶺","zip_code":"9010148"},{"name":"おもろまち","zip_code":"9000006"},{"name":"小禄","zip_code":"9010152"},{"name":"鏡水","zip_code":"9010142"},{"name":"垣花町","zip_code":"9000028"},{"name":"金城","zip_code":"9010155"},{"name":"鏡原町","zip_code":"9010151"},{"name":"具志","zip_code":"9010146"},{"name":"久米","zip_code":"9000033"},{"name":"久茂地","zip_code":"9000015"},{"name":"国場","zip_code":"9020075"},{"name":"古波蔵","zip_code":"9000024"},{"name":"識名","zip_code":"9020078"},{"name":"首里赤田町","zip_code":"9030813"},{"name":"首里赤平町","zip_code":"9030811"},{"name":"首里池端町","zip_code":"9030824"},{"name":"首里石嶺町","zip_code":"9030804"},{"name":"首里大中町","zip_code":"9030823"},{"name":"首里大名町","zip_code":"9030802"},{"name":"首里金城町","zip_code":"9030815"},{"name":"首里儀保町","zip_code":"9030821"},{"name":"首里久場川町","zip_code":"9030807"},{"name":"首里崎山町","zip_code":"9030814"},{"name":"首里寒川町","zip_code":"9030826"},{"name":"首里末吉町","zip_code":"9030801"},{"name":"首里平良町","zip_code":"9030803"},{"name":"首里汀良町","zip_code":"9030806"},{"name":"首里当蔵町","zip_code":"9030812"},{"name":"首里桃原町","zip_code":"9030822"},{"name":"首里鳥堀町","zip_code":"9030805"},{"name":"首里真和志町","zip_code":"9030816"},{"name":"首里山川町","zip_code":"9030825"},{"name":"住吉町","zip_code":"9010141"},{"name":"楚辺","zip_code":"9000023"},{"name":"大道","zip_code":"9020066"},{"name":"高良","zip_code":"9010145"},{"name":"田原","zip_code":"9010156"},{"name":"辻","zip_code":"9000037"},{"name":"壺川","zip_code":"9000025"},{"name":"壺屋","zip_code":"9020065"},{"name":"当間","zip_code":"9010144"},{"name":"泊","zip_code":"9000012"},{"name":"通堂町","zip_code":"9000035"},{"name":"仲井真","zip_code":"9020074"},{"name":"長田","zip_code":"9020077"},{"name":"西","zip_code":"9000036"},{"name":"繁多川","zip_code":"9020071"},{"name":"東町","zip_code":"9000034"},{"name":"樋川","zip_code":"9000022"},{"name":"古島","zip_code":"9020061"},{"name":"真地","zip_code":"9020072"},{"name":"前島","zip_code":"9000016"},{"name":"真嘉比","zip_code":"9020068"},{"name":"牧志","zip_code":"9000013"},{"name":"松尾","zip_code":"9000014"},{"name":"松川","zip_code":"9020062"},{"name":"松島","zip_code":"9020069"},{"name":"松山","zip_code":"9000032"},{"name":"港町","zip_code":"9000001"},{"name":"三原","zip_code":"9020063"},{"name":"宮城","zip_code":"9010147"},{"name":"銘苅","zip_code":"9000004"},{"name":"山下町","zip_code":"9000027"},{"name":"与儀","zip_code":"9020076"},{"name":"寄宮","zip_code":"9020064"},{"name":"若狭","zip_code":"9000031"}]},{"name":"宜野湾市","divisions":[{"name":"愛知","zip_code":"9012206"},{"name":"赤道","zip_code":"9012205"},{"name":"新城","zip_code":"9012201"},{"name":"伊佐","zip_code":"9012221"},{"name":"上原","zip_code":"9012204"},{"name":"宇地泊","zip_code":"9012227"},{"name":"大謝名","zip_code":"9012225"},{"name":"大山","zip_code":"9012223"},{"name":"嘉数","zip_code":"9012226"},{"name":"我如古","zip_code":"9012214"},{"name":"神山","zip_code":"9012207"},{"name":"宜野湾","zip_code":"9012211"},{"name":"喜友名","zip_code":"9012222"},{"name":"佐真下","zip_code":"9012216"},{"name":"志真志","zip_code":"9012213"},{"name":"長田","zip_code":"9012212"},{"name":"野嵩","zip_code":"9012203"},{"name":"普天間","zip_code":"9012202"},{"name":"真栄原","zip_code":"9012215"},{"name":"真志喜","zip_code":"9012224"}]},{"name":"石垣市","divisions":[{"name":"新川","zip_code":"9070024"},{"name":"石垣","zip_code":"9070023"},{"name":"伊原間","zip_code":"9070332"},{"name":"大川","zip_code":"9070022"},{"name":"大浜","zip_code":"9070001"},{"name":"川平","zip_code":"9070453"},{"name":"崎枝","zip_code":"9070452"},{"name":"白保","zip_code":"9070242"},{"name":"新栄町","zip_code":"9070014"},{"name":"桃里","zip_code":"9070241"},{"name":"登野城","zip_code":"9070004"},{"name":"名蔵","zip_code":"9070021"},{"name":"野底","zip_code":"9070333"},{"name":"浜崎町","zip_code":"9070013"},{"name":"平得","zip_code":"9070003"},{"name":"平久保","zip_code":"9070331"},{"name":"桴海","zip_code":"9070451"},{"name":"真栄里","zip_code":"9070002"},{"name":"美崎町","zip_code":"9070012"},{"name":"宮良","zip_code":"9070243"},{"name":"盛山","zip_code":"9070244"},{"name":"八島町","zip_code":"9070011"}]},{"name":"浦添市","divisions":[{"name":"安波茶","zip_code":"9012114"},{"name":"伊祖","zip_code":"9012132"},{"name":"伊奈武瀬","zip_code":"9012128"},{"name":"西洲","zip_code":"9012123"},{"name":"内間","zip_code":"9012121"},{"name":"大平","zip_code":"9012113"},{"name":"経塚","zip_code":"9012111"},{"name":"城間","zip_code":"9012133"},{"name":"小湾","zip_code":"9012124"},{"name":"勢理客","zip_code":"9012122"},{"name":"沢岻","zip_code":"9012112"},{"name":"当山","zip_code":"9012104"},{"name":"仲間","zip_code":"9012103"},{"name":"仲西","zip_code":"9012125"},{"name":"西原","zip_code":"9012101"},{"name":"前田","zip_code":"9012102"},{"name":"牧港","zip_code":"9012131"},{"name":"港川","zip_code":"9012134"},{"name":"宮城","zip_code":"9012126"},{"name":"屋富祖","zip_code":"9012127"}]},{"name":"名護市","divisions":[{"name":"東江","zip_code":"9050021"},{"name":"旭川","zip_code":"9050003"},{"name":"安部","zip_code":"9052263"},{"name":"安和","zip_code":"9050001"},{"name":"伊差川","zip_code":"9051152"},{"name":"稲嶺","zip_code":"9051142"},{"name":"宇茂佐","zip_code":"9050006"},{"name":"宇茂佐の森","zip_code":"9050009"},{"name":"運天原","zip_code":"9051634"},{"name":"大浦","zip_code":"9052267"},{"name":"大川","zip_code":"9052268"},{"name":"大北","zip_code":"9050019"},{"name":"大中","zip_code":"9050017"},{"name":"大西","zip_code":"9050018"},{"name":"大東","zip_code":"9050016"},{"name":"大南","zip_code":"9050015"},{"name":"親川","zip_code":"9051146"},{"name":"勝山","zip_code":"9050002"},{"name":"我部","zip_code":"9051633"},{"name":"我部祖河","zip_code":"9051155"},{"name":"嘉陽","zip_code":"9052262"},{"name":"川上","zip_code":"9051145"},{"name":"喜瀬","zip_code":"9050026"},{"name":"許田","zip_code":"9050024"},{"name":"久志","zip_code":"9052173"},{"name":"城","zip_code":"9050013"},{"name":"源河","zip_code":"9051141"},{"name":"幸喜","zip_code":"9050025"},{"name":"呉我","zip_code":"9051154"},{"name":"古我知","zip_code":"9051156"},{"name":"数久田","zip_code":"9050023"},{"name":"済井出","zip_code":"9051635"},{"name":"瀬嵩","zip_code":"9052266"},{"name":"田井等","zip_code":"9051147"},{"name":"汀間","zip_code":"9052265"},{"name":"天仁屋","zip_code":"9052261"},{"name":"豊原","zip_code":"9052172"},{"name":"仲尾","zip_code":"9051153"},{"name":"仲尾次","zip_code":"9051144"},{"name":"中山","zip_code":"9050004"},{"name":"名護","zip_code":"9050012"},{"name":"為又","zip_code":"9050005"},{"name":"二見","zip_code":"9052269"},{"name":"振慶名","zip_code":"9051151"},{"name":"辺野古","zip_code":"9052171"},{"name":"真喜屋","zip_code":"9051143"},{"name":"港","zip_code":"9050014"},{"name":"三原","zip_code":"9052264"},{"name":"宮里","zip_code":"9050011"},{"name":"屋我","zip_code":"9051631"},{"name":"屋部","zip_code":"9050007"},{"name":"山入端","zip_code":"9050008"},{"name":"世冨慶","zip_code":"9050022"},{"name":"饒平名","zip_code":"9051632"}]},{"name":"糸満市","divisions":[{"name":"阿波根","zip_code":"9010301"},{"name":"新垣","zip_code":"9010323"},{"name":"伊敷","zip_code":"9010363"},{"name":"糸洲","zip_code":"9010342"},{"name":"糸満","zip_code":"9010361"},{"name":"伊原","zip_code":"9010344"},{"name":"宇江城","zip_code":"9010332"},{"name":"大里","zip_code":"9010325"},{"name":"大度","zip_code":"9010334"},{"name":"賀数","zip_code":"9010313"},{"name":"兼城","zip_code":"9010303"},{"name":"北波平","zip_code":"9010312"},{"name":"喜屋武","zip_code":"9010354"},{"name":"国吉","zip_code":"9010324"},{"name":"小波蔵","zip_code":"9010341"},{"name":"米須","zip_code":"9010335"},{"name":"座波","zip_code":"9010314"},{"name":"潮崎町","zip_code":"9010364"},{"name":"潮平","zip_code":"9010302"},{"name":"武富","zip_code":"9010311"},{"name":"束里","zip_code":"9010353"},{"name":"照屋","zip_code":"9010315"},{"name":"豊原","zip_code":"9010321"},{"name":"名城","zip_code":"9010351"},{"name":"西川町","zip_code":"9010304"},{"name":"西崎","zip_code":"9010305"},{"name":"西崎町","zip_code":"9010306"},{"name":"福地","zip_code":"9010345"},{"name":"真栄里","zip_code":"9010362"},{"name":"真栄平","zip_code":"9010331"},{"name":"真壁","zip_code":"9010336"},{"name":"摩文仁","zip_code":"9010333"},{"name":"南波平","zip_code":"9010343"},{"name":"山城","zip_code":"9010352"},{"name":"与座","zip_code":"9010322"}]},{"name":"沖縄市","divisions":[{"name":"明道","zip_code":"9042152"},{"name":"安慶田","zip_code":"9040012"},{"name":"泡瀬","zip_code":"9042172"},{"name":"池原","zip_code":"9042141"},{"name":"上地","zip_code":"9040031"},{"name":"大里","zip_code":"9042163"},{"name":"海邦","zip_code":"9042162"},{"name":"海邦町","zip_code":"9042162"},{"name":"嘉間良","zip_code":"9040005"},{"name":"久保田","zip_code":"9040023"},{"name":"倉敷","zip_code":"9042145"},{"name":"古謝","zip_code":"9042161"},{"name":"越来","zip_code":"9040001"},{"name":"胡屋","zip_code":"9040021"},{"name":"白川","zip_code":"9042144"},{"name":"城前町","zip_code":"9040002"},{"name":"住吉","zip_code":"9040003"},{"name":"園田","zip_code":"9040022"},{"name":"高原","zip_code":"9042171"},{"name":"知花","zip_code":"9042143"},{"name":"中央","zip_code":"9040004"},{"name":"照屋","zip_code":"9040011"},{"name":"桃原","zip_code":"9042164"},{"name":"仲宗根町","zip_code":"9040014"},{"name":"登川","zip_code":"9042142"},{"name":"東","zip_code":"9042154"},{"name":"比屋根","zip_code":"9042173"},{"name":"松本","zip_code":"9042151"},{"name":"美里","zip_code":"9042153"},{"name":"美里仲原町","zip_code":"9042156"},{"name":"南桃原","zip_code":"9040035"},{"name":"美原","zip_code":"9042155"},{"name":"宮里","zip_code":"9042165"},{"name":"室川","zip_code":"9040013"},{"name":"諸見里","zip_code":"9040032"},{"name":"八重島","zip_code":"9040006"},{"name":"山内","zip_code":"9040034"},{"name":"山里","zip_code":"9040033"},{"name":"与儀","zip_code":"9042174"}]},{"name":"豊見城市","divisions":[{"name":"伊良波","zip_code":"9010232"},{"name":"上田","zip_code":"9010243"},{"name":"翁長","zip_code":"9010223"},{"name":"嘉数","zip_code":"9010202"},{"name":"我那覇","zip_code":"9010231"},{"name":"金良","zip_code":"9010204"},{"name":"宜保","zip_code":"9010244"},{"name":"座安","zip_code":"9010221"},{"name":"瀬長","zip_code":"9010233"},{"name":"平良","zip_code":"9010212"},{"name":"高嶺","zip_code":"9010213"},{"name":"高安","zip_code":"9010242"},{"name":"田頭","zip_code":"9010234"},{"name":"渡嘉敷","zip_code":"9010215"},{"name":"渡橋名","zip_code":"9010222"},{"name":"豊見城","zip_code":"9010241"},{"name":"豊崎","zip_code":"9010225"},{"name":"名嘉地","zip_code":"9010235"},{"name":"長堂","zip_code":"9010203"},{"name":"根差部","zip_code":"9010205"},{"name":"饒波","zip_code":"9010211"},{"name":"保栄茂","zip_code":"9010214"},{"name":"真玉橋","zip_code":"9010201"},{"name":"与根","zip_code":"9010224"}]},{"name":"うるま市","divisions":[{"name":"赤野","zip_code":"9042212"},{"name":"赤道","zip_code":"9042245"},{"name":"安慶名","zip_code":"9042214"},{"name":"石川","zip_code":"9041106"},{"name":"石川赤崎","zip_code":"9041103"},{"name":"石川東山","zip_code":"9041102"},{"name":"石川東山本町","zip_code":"9041101"},{"name":"石川曙","zip_code":"9041107"},{"name":"石川石崎","zip_code":"9041104"},{"name":"石川伊波","zip_code":"9041115"},{"name":"石川嘉手苅","zip_code":"9041114"},{"name":"石川白浜","zip_code":"9041105"},{"name":"石川楚南","zip_code":"9041112"},{"name":"石川東恩納","zip_code":"9041111"},{"name":"石川東恩納崎","zip_code":"9041108"},{"name":"石川山城","zip_code":"9041113"},{"name":"西原","zip_code":"9042204"},{"name":"上江洲","zip_code":"9042222"},{"name":"宇堅","zip_code":"9042211"},{"name":"江洲","zip_code":"9042244"},{"name":"栄野比","zip_code":"9042205"},{"name":"大田","zip_code":"9042224"},{"name":"勝連内間","zip_code":"9042313"},{"name":"勝連津堅","zip_code":"9042317"},{"name":"勝連南風原","zip_code":"9042311"},{"name":"勝連浜","zip_code":"9042315"},{"name":"勝連比嘉","zip_code":"9042316"},{"name":"勝連平敷屋","zip_code":"9042314"},{"name":"勝連平安名","zip_code":"9042312"},{"name":"兼箇段","zip_code":"9042241"},{"name":"川崎","zip_code":"9042203"},{"name":"川田","zip_code":"9042232"},{"name":"喜仲","zip_code":"9042236"},{"name":"喜屋武","zip_code":"9042225"},{"name":"具志川","zip_code":"9042223"},{"name":"昆布","zip_code":"9042201"},{"name":"塩屋","zip_code":"9042231"},{"name":"州崎","zip_code":"9042234"},{"name":"平良川","zip_code":"9042221"},{"name":"高江洲","zip_code":"9042242"},{"name":"田場","zip_code":"9042213"},{"name":"天願","zip_code":"9042202"},{"name":"豊原","zip_code":"9042233"},{"name":"仲嶺","zip_code":"9042226"},{"name":"前原","zip_code":"9042235"},{"name":"みどり町","zip_code":"9042215"},{"name":"宮里","zip_code":"9042243"},{"name":"与那城","zip_code":"9042303"},{"name":"与那城安勢理","zip_code":"9042306"},{"name":"与那城伊計","zip_code":"9042421"},{"name":"与那城池味","zip_code":"9042422"},{"name":"与那城上原","zip_code":"9042424"},{"name":"与那城中央","zip_code":"9042305"},{"name":"与那城照間","zip_code":"9042301"},{"name":"与那城桃原","zip_code":"9042425"},{"name":"与那城西原","zip_code":"9042302"},{"name":"与那城饒辺","zip_code":"9042307"},{"name":"与那城平宮","zip_code":"9042428"},{"name":"与那城平安座","zip_code":"9042426"},{"name":"与那城宮城","zip_code":"9042423"},{"name":"与那城屋慶名","zip_code":"9042304"},{"name":"与那城屋平","zip_code":"9042427"}]},{"name":"宮古島市","divisions":[{"name":"伊良部池間添","zip_code":"9060502"},{"name":"伊良部伊良部","zip_code":"9060503"},{"name":"伊良部国仲","zip_code":"9060505"},{"name":"伊良部佐和田","zip_code":"9060507"},{"name":"伊良部仲地","zip_code":"9060504"},{"name":"伊良部長浜","zip_code":"9060506"},{"name":"伊良部前里添","zip_code":"9060501"},{"name":"上野上野","zip_code":"9060204"},{"name":"上野新里","zip_code":"9060202"},{"name":"上野野原","zip_code":"9060201"},{"name":"上野宮国","zip_code":"9060203"},{"name":"城辺新城","zip_code":"9060102"},{"name":"城辺砂川","zip_code":"9060108"},{"name":"城辺下里添","zip_code":"9060109"},{"name":"城辺友利","zip_code":"9060107"},{"name":"城辺長間","zip_code":"9060105"},{"name":"城辺西里添","zip_code":"9060106"},{"name":"城辺比嘉","zip_code":"9060104"},{"name":"城辺福里","zip_code":"9060103"},{"name":"城辺保良","zip_code":"9060101"},{"name":"下地上地","zip_code":"9060304"},{"name":"下地嘉手苅","zip_code":"9060302"},{"name":"下地川満","zip_code":"9060301"},{"name":"下地来間","zip_code":"9060306"},{"name":"下地洲鎌","zip_code":"9060303"},{"name":"下地与那覇","zip_code":"9060305"},{"name":"平良池間","zip_code":"9060421"},{"name":"平良大浦","zip_code":"9060004"},{"name":"平良大神","zip_code":"9060001"},{"name":"平良狩俣","zip_code":"9060002"},{"name":"平良久貝","zip_code":"9060015"},{"name":"平良島尻","zip_code":"9060003"},{"name":"平良下里","zip_code":"9060013"},{"name":"平良荷川取","zip_code":"9060008"},{"name":"平良西里","zip_code":"9060012"},{"name":"平良西仲宗根","zip_code":"9060006"},{"name":"平良西原","zip_code":"9060005"},{"name":"平良東仲宗根","zip_code":"9060007"},{"name":"平良東仲宗根添","zip_code":"9060011"},{"name":"平良前里","zip_code":"9060422"},{"name":"平良松原","zip_code":"9060014"}]},{"name":"南城市","divisions":[{"name":"大里稲嶺","zip_code":"9011204"},{"name":"大里大里","zip_code":"9011202"},{"name":"大里大城","zip_code":"9011203"},{"name":"大里高平","zip_code":"9011205"},{"name":"大里仲間","zip_code":"9011206"},{"name":"大里古堅","zip_code":"9011207"},{"name":"大里嶺井","zip_code":"9011201"},{"name":"佐敷伊原","zip_code":"9011401"},{"name":"佐敷小谷","zip_code":"9011413"},{"name":"佐敷兼久","zip_code":"9011411"},{"name":"佐敷佐敷","zip_code":"9011403"},{"name":"佐敷新開","zip_code":"9011415"},{"name":"佐敷新里","zip_code":"9011412"},{"name":"佐敷津波古","zip_code":"9011414"},{"name":"佐敷手登根","zip_code":"9011402"},{"name":"佐敷仲伊保","zip_code":"9011405"},{"name":"佐敷冨祖崎","zip_code":"9011404"},{"name":"佐敷屋比久","zip_code":"9011406"},{"name":"玉城愛地","zip_code":"9010617"},{"name":"玉城糸数","zip_code":"9010606"},{"name":"玉城奥武","zip_code":"9010614"},{"name":"玉城親慶原","zip_code":"9010608"},{"name":"玉城垣花","zip_code":"9010601"},{"name":"玉城喜良原","zip_code":"9010607"},{"name":"玉城志堅原","zip_code":"9010613"},{"name":"玉城玉城","zip_code":"9010604"},{"name":"玉城當山","zip_code":"9010612"},{"name":"玉城中山","zip_code":"9010605"},{"name":"玉城仲村渠","zip_code":"9010602"},{"name":"玉城百名","zip_code":"9010603"},{"name":"玉城富里","zip_code":"9010611"},{"name":"玉城船越","zip_code":"9010618"},{"name":"玉城堀川","zip_code":"9010615"},{"name":"玉城前川","zip_code":"9010616"},{"name":"玉城屋嘉部","zip_code":"9010619"},{"name":"知念安座真","zip_code":"9011502"},{"name":"知念海野","zip_code":"9011504"},{"name":"知念具志堅","zip_code":"9011514"},{"name":"知念久高","zip_code":"9011501"},{"name":"知念久手堅","zip_code":"9011511"},{"name":"知念久原","zip_code":"9011505"},{"name":"知念志喜屋","zip_code":"9011516"},{"name":"知念知名","zip_code":"9011503"},{"name":"知念知念","zip_code":"9011513"},{"name":"知念山里","zip_code":"9011515"},{"name":"知念吉富","zip_code":"9011512"},{"name":"つきしろ","zip_code":"9011407"}]},{"name":"国頭郡国頭村","divisions":[{"name":"安田","zip_code":"9051503"},{"name":"安波","zip_code":"9051504"},{"name":"伊地","zip_code":"9051428"},{"name":"宇嘉","zip_code":"9051423"},{"name":"宇良","zip_code":"9051429"},{"name":"奥","zip_code":"9051501"},{"name":"奥間","zip_code":"9051412"},{"name":"鏡地","zip_code":"9051416"},{"name":"宜名真","zip_code":"9051422"},{"name":"佐手","zip_code":"9051425"},{"name":"謝敷","zip_code":"9051426"},{"name":"楚洲","zip_code":"9051502"},{"name":"桃原","zip_code":"9051417"},{"name":"浜","zip_code":"9051415"},{"name":"半地","zip_code":"9051414"},{"name":"比地","zip_code":"9051413"},{"name":"辺戸","zip_code":"9051421"},{"name":"辺野喜","zip_code":"9051424"},{"name":"辺土名","zip_code":"9051411"},{"name":"与那","zip_code":"9051427"}]},{"name":"国頭郡大宜味村","divisions":[{"name":"上原","zip_code":"9051308"},{"name":"江洲","zip_code":"9051317"},{"name":"大兼久","zip_code":"9051305"},{"name":"大宜味","zip_code":"9051306"},{"name":"押川","zip_code":"9051313"},{"name":"喜如嘉","zip_code":"9051303"},{"name":"塩屋","zip_code":"9051311"},{"name":"謝名城","zip_code":"9051302"},{"name":"白浜","zip_code":"9051316"},{"name":"大保","zip_code":"9051315"},{"name":"田嘉里","zip_code":"9051301"},{"name":"田港","zip_code":"9051314"},{"name":"津波","zip_code":"9051318"},{"name":"饒波","zip_code":"9051304"},{"name":"根路銘","zip_code":"9051307"},{"name":"宮城","zip_code":"9051319"},{"name":"屋古","zip_code":"9051312"}]},{"name":"国頭郡東村","divisions":[{"name":"有銘","zip_code":"9051206"},{"name":"川田","zip_code":"9051203"},{"name":"慶佐次","zip_code":"9051205"},{"name":"平良","zip_code":"9051204"},{"name":"高江","zip_code":"9051201"},{"name":"宮城","zip_code":"9051202"}]},{"name":"国頭郡今帰仁村","divisions":[{"name":"天底","zip_code":"9050411"},{"name":"今泊","zip_code":"9050428"},{"name":"運天","zip_code":"9050403"},{"name":"兼次","zip_code":"9050427"},{"name":"上運天","zip_code":"9050404"},{"name":"古宇利","zip_code":"9050406"},{"name":"越地","zip_code":"9050421"},{"name":"呉我山","zip_code":"9050413"},{"name":"崎山","zip_code":"9050422"},{"name":"謝名","zip_code":"9050414"},{"name":"諸志","zip_code":"9050426"},{"name":"勢理客","zip_code":"9050405"},{"name":"玉城","zip_code":"9050415"},{"name":"渡喜仁","zip_code":"9050402"},{"name":"仲尾次","zip_code":"9050424"},{"name":"仲宗根","zip_code":"9050401"},{"name":"平敷","zip_code":"9050423"},{"name":"与那嶺","zip_code":"9050425"},{"name":"湧川","zip_code":"9050412"}]},{"name":"国頭郡本部町","divisions":[{"name":"石川","zip_code":"9050206"},{"name":"伊豆味","zip_code":"9050221"},{"name":"伊野波","zip_code":"9050228"},{"name":"大堂","zip_code":"9050229"},{"name":"浦崎","zip_code":"9050217"},{"name":"大嘉陽","zip_code":"9050223"},{"name":"大浜","zip_code":"9050212"},{"name":"嘉津宇","zip_code":"9050202"},{"name":"北里","zip_code":"9050209"},{"name":"具志堅","zip_code":"9050201"},{"name":"健堅","zip_code":"9050226"},{"name":"崎本部","zip_code":"9050225"},{"name":"謝花","zip_code":"9050203"},{"name":"新里","zip_code":"9050208"},{"name":"瀬底","zip_code":"9050227"},{"name":"谷茶","zip_code":"9050213"},{"name":"渡久地","zip_code":"9050214"},{"name":"豊原","zip_code":"9050204"},{"name":"並里","zip_code":"9050222"},{"name":"野原","zip_code":"9050215"},{"name":"浜元","zip_code":"9050216"},{"name":"東","zip_code":"9050211"},{"name":"備瀬","zip_code":"9050207"},{"name":"古島","zip_code":"9050218"},{"name":"辺名地","zip_code":"9050224"},{"name":"山川","zip_code":"9050205"},{"name":"山里","zip_code":"9050219"}]},{"name":"国頭郡恩納村","divisions":[{"name":"安富祖","zip_code":"9040402"},{"name":"恩納","zip_code":"9040411"},{"name":"喜瀬武原","zip_code":"9040403"},{"name":"瀬良垣","zip_code":"9040404"},{"name":"谷茶","zip_code":"9040412"},{"name":"仲泊","zip_code":"9040415"},{"name":"名嘉真","zip_code":"9040401"},{"name":"冨着","zip_code":"9040413"},{"name":"前兼久","zip_code":"9040414"},{"name":"真栄田","zip_code":"9040417"},{"name":"山田","zip_code":"9040416"}]},{"name":"国頭郡宜野座村","divisions":[{"name":"漢那","zip_code":"9041304"},{"name":"宜野座","zip_code":"9041302"},{"name":"惣慶","zip_code":"9041303"},{"name":"松田","zip_code":"9041301"}]},{"name":"国頭郡金武町","divisions":[{"name":"伊芸","zip_code":"9041202"},{"name":"金武","zip_code":"9041201"},{"name":"屋嘉","zip_code":"9041203"}]},{"name":"国頭郡伊江村","divisions":[{"name":"川平","zip_code":"9050503"},{"name":"西江上","zip_code":"9050505"},{"name":"西江前","zip_code":"9050504"},{"name":"東江上","zip_code":"9050501"},{"name":"東江前","zip_code":"9050502"}]},{"name":"中頭郡読谷村","divisions":[{"name":"伊良皆","zip_code":"9040303"},{"name":"上地","zip_code":"9040321"},{"name":"宇座","zip_code":"9040328"},{"name":"大木","zip_code":"9040316"},{"name":"大湾","zip_code":"9040313"},{"name":"喜名","zip_code":"9040302"},{"name":"儀間","zip_code":"9040327"},{"name":"座喜味","zip_code":"9040301"},{"name":"瀬名波","zip_code":"9040325"},{"name":"楚辺","zip_code":"9040304"},{"name":"高志保","zip_code":"9040323"},{"name":"渡具知","zip_code":"9040315"},{"name":"渡慶次","zip_code":"9040326"},{"name":"都屋","zip_code":"9040305"},{"name":"長浜","zip_code":"9040324"},{"name":"波平","zip_code":"9040322"},{"name":"比謝","zip_code":"9040311"},{"name":"比謝矼","zip_code":"9040312"},{"name":"古堅","zip_code":"9040314"}]},{"name":"中頭郡嘉手納町","divisions":[{"name":"嘉手納","zip_code":"9040203"},{"name":"兼久","zip_code":"9040205"},{"name":"久得","zip_code":"9040201"},{"name":"水釜","zip_code":"9040204"},{"name":"屋良","zip_code":"9040202"}]},{"name":"中頭郡北谷町","divisions":[{"name":"伊平","zip_code":"9040102"},{"name":"大村","zip_code":"9040107"},{"name":"上勢頭","zip_code":"9040101"},{"name":"北前","zip_code":"9040117"},{"name":"桑江","zip_code":"9040103"},{"name":"砂辺","zip_code":"9040111"},{"name":"玉上","zip_code":"9040106"},{"name":"北谷","zip_code":"9040116"},{"name":"桃原","zip_code":"9040104"},{"name":"浜川","zip_code":"9040112"},{"name":"港","zip_code":"9040114"},{"name":"美浜","zip_code":"9040115"},{"name":"宮城","zip_code":"9040113"},{"name":"吉原","zip_code":"9040105"}]},{"name":"中頭郡北中城村","divisions":[{"name":"安谷屋","zip_code":"9012316"},{"name":"熱田","zip_code":"9012313"},{"name":"大城","zip_code":"9012314"},{"name":"荻道","zip_code":"9012315"},{"name":"喜舎場","zip_code":"9012311"},{"name":"島袋","zip_code":"9012301"},{"name":"瑞慶覧","zip_code":"9012317"},{"name":"仲順","zip_code":"9012303"},{"name":"渡口","zip_code":"9012302"},{"name":"比嘉","zip_code":"9012305"},{"name":"美崎","zip_code":"9012321"},{"name":"屋宜原","zip_code":"9012304"},{"name":"和仁屋","zip_code":"9012312"}]},{"name":"中頭郡中城村","divisions":[{"name":"安里","zip_code":"9012407"},{"name":"新垣","zip_code":"9012422"},{"name":"伊舎堂","zip_code":"9012403"},{"name":"伊集","zip_code":"9012417"},{"name":"奥間","zip_code":"9012412"},{"name":"北上原","zip_code":"9012423"},{"name":"北浜","zip_code":"9012414"},{"name":"久場","zip_code":"9012401"},{"name":"添石","zip_code":"9012404"},{"name":"津覇","zip_code":"9012413"},{"name":"当間","zip_code":"9012406"},{"name":"泊","zip_code":"9012402"},{"name":"登又","zip_code":"9012421"},{"name":"浜","zip_code":"9012411"},{"name":"南上原","zip_code":"9012424"},{"name":"南浜","zip_code":"9012415"},{"name":"屋宜","zip_code":"9012405"},{"name":"和宇慶","zip_code":"9012416"}]},{"name":"中頭郡西原町","divisions":[{"name":"東崎","zip_code":"9030105"},{"name":"安室","zip_code":"9030113"},{"name":"池田","zip_code":"9030115"},{"name":"上原","zip_code":"9030125"},{"name":"内間","zip_code":"9030121"},{"name":"翁長","zip_code":"9030117"},{"name":"小那覇","zip_code":"9030103"},{"name":"掛保久","zip_code":"9030101"},{"name":"我謝","zip_code":"9030112"},{"name":"嘉手苅","zip_code":"9030102"},{"name":"兼久","zip_code":"9030104"},{"name":"幸地","zip_code":"9030116"},{"name":"小橋川","zip_code":"9030122"},{"name":"小波津","zip_code":"9030118"},{"name":"呉屋","zip_code":"9030124"},{"name":"千原","zip_code":"9030129"},{"name":"棚原","zip_code":"9030126"},{"name":"津花波","zip_code":"9030123"},{"name":"桃原","zip_code":"9030114"},{"name":"徳佐田","zip_code":"9030127"},{"name":"森川","zip_code":"9030128"},{"name":"与那城","zip_code":"9030111"}]},{"name":"島尻郡与那原町","divisions":[{"name":"東浜","zip_code":"9011304"},{"name":"板良敷","zip_code":"9011301"},{"name":"上与那原","zip_code":"9011302"},{"name":"与那原","zip_code":"9011303"}]},{"name":"島尻郡南風原町","divisions":[{"name":"新川","zip_code":"9011105"},{"name":"大名","zip_code":"9011101"},{"name":"兼城","zip_code":"9011111"},{"name":"神里","zip_code":"9011114"},{"name":"喜屋武","zip_code":"9011113"},{"name":"津嘉山","zip_code":"9011117"},{"name":"照屋","zip_code":"9011116"},{"name":"宮城","zip_code":"9011102"},{"name":"宮平","zip_code":"9011104"},{"name":"本部","zip_code":"9011112"},{"name":"山川","zip_code":"9011115"},{"name":"与那覇","zip_code":"9011103"}]},{"name":"島尻郡渡嘉敷村","divisions":[{"name":"阿波連","zip_code":"9013502"},{"name":"渡嘉敷","zip_code":"9013501"}]},{"name":"島尻郡座間味村","divisions":[{"name":"阿嘉","zip_code":"9013311"},{"name":"阿佐","zip_code":"9013401"},{"name":"阿真","zip_code":"9013403"},{"name":"慶留間","zip_code":"9013312"},{"name":"座間味","zip_code":"9013402"}]},{"name":"島尻郡粟国村","divisions":[{"name":"西","zip_code":"9013703"},{"name":"浜","zip_code":"9013701"},{"name":"東","zip_code":"9013702"}]},{"name":"島尻郡渡名喜村","divisions":[]},{"name":"島尻郡南大東村","divisions":[{"name":"池之沢","zip_code":"9013806"},{"name":"北","zip_code":"9013801"},{"name":"旧東","zip_code":"9013803"},{"name":"在所","zip_code":"9013805"},{"name":"新東","zip_code":"9013802"},{"name":"南","zip_code":"9013804"}]},{"name":"島尻郡北大東村","divisions":[{"name":"中野","zip_code":"9013902"},{"name":"港","zip_code":"9013903"},{"name":"南","zip_code":"9013901"}]},{"name":"島尻郡伊平屋村","divisions":[{"name":"我喜屋","zip_code":"9050703"},{"name":"島尻","zip_code":"9050704"},{"name":"田名","zip_code":"9050701"},{"name":"野甫","zip_code":"9050705"},{"name":"前泊","zip_code":"9050702"}]},{"name":"島尻郡伊是名村","divisions":[{"name":"伊是名","zip_code":"9050604"},{"name":"内花","zip_code":"9050601"},{"name":"諸見","zip_code":"9050602"},{"name":"勢理客","zip_code":"9050605"},{"name":"仲田","zip_code":"9050603"}]},{"name":"島尻郡久米島町","divisions":[{"name":"阿嘉","zip_code":"9013103"},{"name":"宇江城","zip_code":"9013101"},{"name":"上江洲","zip_code":"9013138"},{"name":"宇根","zip_code":"9013105"},{"name":"奥武","zip_code":"9013106"},{"name":"大田","zip_code":"9013123"},{"name":"大原","zip_code":"9013132"},{"name":"嘉手苅","zip_code":"9013121"},{"name":"兼城","zip_code":"9013122"},{"name":"北原","zip_code":"9013133"},{"name":"儀間","zip_code":"9013115"},{"name":"具志川","zip_code":"9013134"},{"name":"島尻","zip_code":"9013114"},{"name":"謝名堂","zip_code":"9013107"},{"name":"銭田","zip_code":"9013113"},{"name":"鳥島","zip_code":"9013125"},{"name":"仲地","zip_code":"9013136"},{"name":"仲泊","zip_code":"9013124"},{"name":"仲村渠","zip_code":"9013135"},{"name":"西銘","zip_code":"9013131"},{"name":"比嘉","zip_code":"9013108"},{"name":"比屋定","zip_code":"9013102"},{"name":"真我里","zip_code":"9013112"},{"name":"真謝","zip_code":"9013104"},{"name":"山城","zip_code":"9013111"},{"name":"山里","zip_code":"9013137"}]},{"name":"島尻郡八重瀬町","divisions":[{"name":"安里","zip_code":"9010514"},{"name":"新城","zip_code":"9010503"},{"name":"伊覇","zip_code":"9010405"},{"name":"上田原","zip_code":"9010412"},{"name":"大頓","zip_code":"9010502"},{"name":"宜次","zip_code":"9010416"},{"name":"具志頭","zip_code":"9010512"},{"name":"小城","zip_code":"9010415"},{"name":"後原","zip_code":"9010504"},{"name":"東風平","zip_code":"9010401"},{"name":"志多伯","zip_code":"9010413"},{"name":"高良","zip_code":"9010404"},{"name":"当銘","zip_code":"9010414"},{"name":"友寄","zip_code":"9010411"},{"name":"富盛","zip_code":"9010402"},{"name":"仲座","zip_code":"9010516"},{"name":"長毛","zip_code":"9010501"},{"name":"玻名城","zip_code":"9010513"},{"name":"外間","zip_code":"9010417"},{"name":"港川","zip_code":"9010511"},{"name":"屋宜原","zip_code":"9010406"},{"name":"与座","zip_code":"9010515"},{"name":"世名城","zip_code":"9010403"}]},{"name":"宮古郡多良間村","divisions":[{"name":"塩川","zip_code":"9060601"},{"name":"仲筋","zip_code":"9060602"},{"name":"水納","zip_code":"9060603"}]},{"name":"八重山郡竹富町","divisions":[{"name":"新城","zip_code":"9071435"},{"name":"西表","zip_code":"9071542"},{"name":"上原","zip_code":"9071541"},{"name":"黒島","zip_code":"9071311"},{"name":"小浜","zip_code":"9071221"},{"name":"古見","zip_code":"9071432"},{"name":"崎山","zip_code":"9071543"},{"name":"高那","zip_code":"9071431"},{"name":"竹富","zip_code":"9071101"},{"name":"南風見","zip_code":"9071434"},{"name":"南風見仲","zip_code":"9071433"},{"name":"波照間","zip_code":"9071751"},{"name":"鳩間","zip_code":"9071544"}]},{"name":"八重山郡与那国町","divisions":[{"name":"与那国","zip_code":"9071801"}]}]}